{
"type": "FeatureCollection",
"name": "0101",
"crs": { "type": "name", "properties": { "name": "urn:ogc:def:crs:OGC:1.3:CRS84" } },
"features": [
{ "type": "Feature", "properties": { "code": "0101", "name": "Kupwara", "type": "district" }, "geometry": { "type": "Polygon", "coordinates": [ [ [ 74.3350168, 34.7877644 ], [ 74.3522808, 34.7852403 ], [ 74.3776346, 34.790786 ], [ 74.3965796, 34.7842757 ], [ 74.4116864, 34.7886124 ], [ 74.4167234, 34.7886106 ], [ 74.427374, 34.7846267 ], [ 74.4376873, 34.7836618 ], [ 74.456277, 34.788951 ], [ 74.4818091, 34.7825446 ], [ 74.4997632, 34.7882558 ], [ 74.5201981, 34.7830504 ], [ 74.5314343, 34.783816 ], [ 74.5448088, 34.7822155 ], [ 74.5682138, 34.7776837 ], [ 74.5816808, 34.7724826 ], [ 74.5918041, 34.7652917 ], [ 74.5981197, 34.7563011 ], [ 74.5997895, 34.7499817 ], [ 74.6061049, 34.7377679 ], [ 74.5909388, 34.7112651 ], [ 74.569495, 34.6922463 ], [ 74.5666739, 34.6877295 ], [ 74.5629534, 34.6739998 ], [ 74.5651908, 34.654021 ], [ 74.5638571, 34.6403636 ], [ 74.5589372, 34.6299606 ], [ 74.5473615, 34.6242357 ], [ 74.5464471, 34.6181578 ], [ 74.5474864, 34.6045344 ], [ 74.5416451, 34.5902082 ], [ 74.5331635, 34.5827299 ], [ 74.5317871, 34.5748866 ], [ 74.5289653, 34.5715446 ], [ 74.5217352, 34.5527051 ], [ 74.521494, 34.5495519 ], [ 74.5313655, 34.5380792 ], [ 74.5340795, 34.5294169 ], [ 74.5323418, 34.5189878 ], [ 74.5348546, 34.5121381 ], [ 74.520827, 34.501992 ], [ 74.5178073, 34.4842152 ], [ 74.485117, 34.4624787 ], [ 74.4829517, 34.4588428 ], [ 74.4772094, 34.4373593 ], [ 74.4794457, 34.4326407 ], [ 74.4730271, 34.4323175 ], [ 74.4678663, 34.4305204 ], [ 74.4621887, 34.425911 ], [ 74.4545781, 34.4170038 ], [ 74.4501834, 34.4158338 ], [ 74.4157774, 34.4143723 ], [ 74.4074979, 34.4155738 ], [ 74.4008254, 34.4245757 ], [ 74.3989499, 34.4344727 ], [ 74.3926813, 34.4375134 ], [ 74.3827441, 34.4372882 ], [ 74.3591772, 34.4254929 ], [ 74.3461479, 34.4235643 ], [ 74.3479608, 34.4175565 ], [ 74.3472512, 34.4095196 ], [ 74.3498973, 34.3990135 ], [ 74.3660697, 34.3927234 ], [ 74.378869, 34.3899876 ], [ 74.3826634, 34.3837131 ], [ 74.380227, 34.3718182 ], [ 74.3733777, 34.3667747 ], [ 74.3778946, 34.3622942 ], [ 74.3829875, 34.3628799 ], [ 74.3899245, 34.3594244 ], [ 74.3903354, 34.3571248 ], [ 74.3863053, 34.3518311 ], [ 74.387791, 34.3496237 ], [ 74.3901759, 34.348753 ], [ 74.3817741, 34.3487628 ], [ 74.3794724, 34.3406953 ], [ 74.3769033, 34.3381763 ], [ 74.3719572, 34.3363611 ], [ 74.3684235, 34.333121 ], [ 74.3539981, 34.3281805 ], [ 74.3465997, 34.3234101 ], [ 74.3479311, 34.3224098 ], [ 74.3457167, 34.316144 ], [ 74.3337138, 34.3105334 ], [ 74.3267399, 34.3093094 ], [ 74.3220949, 34.3103803 ], [ 74.3207894, 34.3131472 ], [ 74.3102418, 34.3181274 ], [ 74.2984619, 34.3145102 ], [ 74.2925288, 34.315773 ], [ 74.2883324, 34.3128764 ], [ 74.2804634, 34.3109864 ], [ 74.278423, 34.3091052 ], [ 74.2700832, 34.3062633 ], [ 74.2669898, 34.3084242 ], [ 74.264465, 34.3075745 ], [ 74.2593231, 34.3100355 ], [ 74.250329, 34.3069756 ], [ 74.2350524, 34.3044828 ], [ 74.2212679, 34.2974661 ], [ 74.2192265, 34.2933794 ], [ 74.2146388, 34.289547 ], [ 74.2088867, 34.2886001 ], [ 74.1993458, 34.2832199 ], [ 74.1875175, 34.2815678 ], [ 74.181545, 34.2824948 ], [ 74.1778016, 34.2793052 ], [ 74.1689505, 34.2788039 ], [ 74.164779, 34.2762406 ], [ 74.156223, 34.279777 ], [ 74.1522643, 34.2792191 ], [ 74.1492785, 34.2815681 ], [ 74.1473397, 34.280721 ], [ 74.1441904, 34.2816231 ], [ 74.13744, 34.2771075 ], [ 74.1350234, 34.2738759 ], [ 74.1267322, 34.270347 ], [ 74.1195762, 34.2712754 ], [ 74.1123335, 34.2694044 ], [ 74.1051935, 34.2712966 ], [ 74.1009588, 34.2703718 ], [ 74.0982668, 34.2672341 ], [ 74.0939176, 34.2681977 ], [ 74.0821645, 34.2655754 ], [ 74.0761412, 34.2601913 ], [ 74.0635934, 34.2630118 ], [ 74.0545177, 34.2611139 ], [ 74.0483314, 34.2582074 ], [ 74.0420609, 34.2586902 ], [ 74.0385832, 34.2566729 ], [ 74.0357212, 34.2581587 ], [ 74.036023, 34.249514 ], [ 74.0273002, 34.2446416 ], [ 74.0228875, 34.2445726 ], [ 74.0196638, 34.2464811 ], [ 74.0149606, 34.2464545 ], [ 74.0095681, 34.2482931 ], [ 73.9956216, 34.2575533 ], [ 73.989653, 34.2596979 ], [ 73.9832907, 34.2580026 ], [ 73.9824759, 34.259463 ], [ 73.9839367, 34.2639511 ], [ 73.9821353, 34.2690822 ], [ 73.9797224, 34.2715814 ], [ 73.9682092, 34.2741421 ], [ 73.9412569, 34.2748133 ], [ 73.9380538, 34.2824912 ], [ 73.9337913, 34.2827728 ], [ 73.9337439, 34.292554 ], [ 73.9385004, 34.2983888 ], [ 73.9385521, 34.3093238 ], [ 73.926988, 34.3100595 ], [ 73.9270708, 34.3034967 ], [ 73.9146761, 34.3037899 ], [ 73.9145044, 34.3081666 ], [ 73.9257214, 34.3172584 ], [ 73.9246257, 34.3202563 ], [ 73.9307423, 34.3274881 ], [ 73.9333446, 34.3350232 ], [ 73.921169, 34.3370659 ], [ 73.9176932, 34.3403665 ], [ 73.9128089, 34.34209 ], [ 73.9116269, 34.3479951 ], [ 73.9002258, 34.3487824 ], [ 73.899035, 34.3467318 ], [ 73.8989026, 34.3400158 ], [ 73.8937566, 34.3396335 ], [ 73.8840345, 34.3313635 ], [ 73.8759876, 34.3320851 ], [ 73.870625, 34.3299891 ], [ 73.8705868, 34.3337889 ], [ 73.8628004, 34.3345772 ], [ 73.8589719, 34.3230017 ], [ 73.8528171, 34.3210626 ], [ 73.8431442, 34.3283085 ], [ 73.8390096, 34.3282262 ], [ 73.8346072, 34.3315469 ], [ 73.8234755, 34.3294332 ], [ 73.8090466, 34.3342043 ], [ 73.8083864, 34.3376972 ], [ 73.8109799, 34.3428325 ], [ 73.8071471, 34.3449264 ], [ 73.7993655, 34.3448498 ], [ 73.7974108, 34.3430096 ], [ 73.7971379, 34.3383893 ], [ 73.7826839, 34.3334798 ], [ 73.7743257, 34.3346812 ], [ 73.7678071, 34.3377227 ], [ 73.7598468, 34.3455765 ], [ 73.7526893, 34.3459977 ], [ 73.7565033, 34.3621875 ], [ 73.7519677, 34.3639004 ], [ 73.7498363, 34.3680135 ], [ 73.752094, 34.3743036 ], [ 73.7562979, 34.3768455 ], [ 73.7540373, 34.3812676 ], [ 73.7571629, 34.3820368 ], [ 73.7602052, 34.384916 ], [ 73.7636549, 34.3844553 ], [ 73.7678093, 34.3863914 ], [ 73.7742271, 34.3982717 ], [ 73.7817098, 34.4027564 ], [ 73.7858048, 34.4081316 ], [ 73.7910516, 34.4105982 ], [ 73.794163, 34.4143643 ], [ 73.8011367, 34.4187921 ], [ 73.8032058, 34.4239206 ], [ 73.8330744, 34.4215183 ], [ 73.838905, 34.422007 ], [ 73.8364982, 34.428001 ], [ 73.8391351, 34.4309406 ], [ 73.8460222, 34.4298426 ], [ 73.8481987, 34.4280446 ], [ 73.8760989, 34.4501559 ], [ 73.8847555, 34.4495335 ], [ 73.8851761, 34.4622666 ], [ 73.8829067, 34.4600898 ], [ 73.8833699, 34.4666073 ], [ 73.8789294, 34.4715116 ], [ 73.8789678, 34.4766273 ], [ 73.880013, 34.4804405 ], [ 73.8865185, 34.4881701 ], [ 73.8888664, 34.5000602 ], [ 73.8954955, 34.5146056 ], [ 73.9054419, 34.5154427 ], [ 73.9114933, 34.519708 ], [ 73.9094462, 34.5244241 ], [ 73.9051435, 34.5290551 ], [ 73.9387898, 34.5547881 ], [ 73.9404116, 34.5526842 ], [ 73.9454682, 34.5543897 ], [ 73.9550963, 34.5618483 ], [ 73.9569219, 34.5651033 ], [ 73.9567163, 34.566799 ], [ 73.9521367, 34.5695257 ], [ 73.9609047, 34.5823301 ], [ 73.9527396, 34.5828085 ], [ 73.9553886, 34.5974913 ], [ 73.9541341, 34.5990753 ], [ 73.9457239, 34.5995696 ], [ 73.9299118, 34.6044653 ], [ 73.9307966, 34.610608 ], [ 73.9341268, 34.6163184 ], [ 73.9316154, 34.6314481 ], [ 73.9325128, 34.6342965 ], [ 73.9316475, 34.6407672 ], [ 73.9321706, 34.6446091 ], [ 73.9355684, 34.6475044 ], [ 73.94748, 34.6476151 ], [ 73.9528456, 34.6498292 ], [ 73.9532993, 34.6521006 ], [ 73.9495655, 34.6539412 ], [ 73.948302, 34.6564929 ], [ 73.9507529, 34.660476 ], [ 73.9570428, 34.6653677 ], [ 73.9562602, 34.6677033 ], [ 73.9539197, 34.6692779 ], [ 73.9538212, 34.672317 ], [ 73.9622059, 34.6766353 ], [ 73.9704285, 34.6885719 ], [ 73.9878212, 34.6825542 ], [ 73.9951533, 34.6828689 ], [ 73.9999238, 34.6855734 ], [ 74.0074506, 34.6873362 ], [ 74.0172454, 34.694303 ], [ 74.0299545, 34.6943721 ], [ 74.0340108, 34.6928336 ], [ 74.0413713, 34.6826392 ], [ 74.0443901, 34.6810998 ], [ 74.0514233, 34.6807211 ], [ 74.0714933, 34.6851574 ], [ 74.0870443, 34.6842978 ], [ 74.0920361, 34.6862238 ], [ 74.0932624, 34.6899786 ], [ 74.0954335, 34.691809 ], [ 74.1006182, 34.6891148 ], [ 74.0991101, 34.678045 ], [ 74.0995869, 34.6711175 ], [ 74.1013776, 34.6661104 ], [ 74.1127803, 34.6548531 ], [ 74.1168277, 34.6523519 ], [ 74.1329611, 34.6517749 ], [ 74.1349412, 34.6528339 ], [ 74.1372927, 34.657742 ], [ 74.1365412, 34.6657288 ], [ 74.1373926, 34.6683294 ], [ 74.1443654, 34.6726598 ], [ 74.14512, 34.6792942 ], [ 74.1474786, 34.6850675 ], [ 74.1636755, 34.6903592 ], [ 74.1747674, 34.6968004 ], [ 74.2020231, 34.7173791 ], [ 74.2075581, 34.7200358 ], [ 74.2217172, 34.7218856 ], [ 74.2275672, 34.7248646 ], [ 74.235766, 34.7327414 ], [ 74.2404091, 34.735248 ], [ 74.2610605, 34.7414682 ], [ 74.2703814, 34.7463477 ], [ 74.2759948, 34.7500106 ], [ 74.2864723, 34.766416 ], [ 74.2956919, 34.7777487 ], [ 74.3130687, 34.7916134 ], [ 74.3184651, 34.7936622 ], [ 74.3252998, 34.7939085 ], [ 74.3350168, 34.7877644 ] ] ] } }
]
}
