{
"type": "FeatureCollection",
"name": "0103",
"crs": { "type": "name", "properties": { "name": "urn:ogc:def:crs:OGC:1.3:CRS84" } },
"features": [
{ "type": "Feature", "properties": { "code": "0103", "name": "Srinagar", "type": "district" }, "geometry": { "type": "MultiPolygon", "coordinates": [ [ [ [ 74.9588565, 34.0401953 ], [ 74.958856394576586, 34.040195400416856 ], [ 74.9588564, 34.0401954 ], [ 74.9588565, 34.0401953 ] ] ], [ [ [ 74.8766604, 34.2072435 ], [ 74.8813047, 34.2087354 ], [ 74.8815215, 34.2063103 ], [ 74.8841199, 34.2038039 ], [ 74.8782335, 34.2031146 ], [ 74.8749622, 34.2005589 ], [ 74.87602, 34.197629 ], [ 74.8746042, 34.1951093 ], [ 74.8781462, 34.1902321 ], [ 74.8845686, 34.190376 ], [ 74.8909426, 34.1932285 ], [ 74.8963775, 34.1912128 ], [ 74.9052633, 34.1933564 ], [ 74.9064089, 34.1964213 ], [ 74.9086766, 34.1967136 ], [ 74.9091711, 34.1989898 ], [ 74.9115522, 34.1977766 ], [ 74.9143845, 34.1990693 ], [ 74.9158673, 34.2026749 ], [ 74.9174173, 34.1996092 ], [ 74.9204937, 34.2004285 ], [ 74.9202461, 34.2041067 ], [ 74.9229271, 34.2058726 ], [ 74.9264521, 34.2034958 ], [ 74.9262488, 34.1991912 ], [ 74.923432, 34.1969972 ], [ 74.9204613, 34.1908364 ], [ 74.9165228, 34.1900536 ], [ 74.9203388, 34.1849948 ], [ 74.9266306, 34.1850464 ], [ 74.927834, 34.1840226 ], [ 74.9248011, 34.1823876 ], [ 74.923736, 34.1789353 ], [ 74.9202102, 34.1780172 ], [ 74.9170597, 34.1791272 ], [ 74.9103873, 34.175663 ], [ 74.9118832, 34.173535 ], [ 74.919281, 34.1744475 ], [ 74.9237328, 34.1734136 ], [ 74.9232364, 34.1683518 ], [ 74.9259326, 34.1610666 ], [ 74.9321148, 34.1619157 ], [ 74.9338043, 34.1588182 ], [ 74.9305801, 34.1537082 ], [ 74.9265889, 34.1526461 ], [ 74.9240206, 34.1555321 ], [ 74.9181637, 34.1534788 ], [ 74.9165389, 34.1570449 ], [ 74.9050225, 34.1578191 ], [ 74.9007047, 34.1522082 ], [ 74.8899797, 34.1489555 ], [ 74.8880603, 34.1473151 ], [ 74.8881349, 34.1396117 ], [ 74.8926607, 34.1359554 ], [ 74.8925188, 34.1320068 ], [ 74.8894017, 34.130727 ], [ 74.8891033, 34.129118 ], [ 74.8937205, 34.124709 ], [ 74.8949718, 34.1216075 ], [ 74.8910853, 34.1192597 ], [ 74.8935294, 34.1186689 ], [ 74.8979809, 34.1061009 ], [ 74.9018114, 34.1039995 ], [ 74.9029367, 34.0987209 ], [ 74.9075582, 34.0977281 ], [ 74.9109384, 34.0955996 ], [ 74.9118856, 34.0932102 ], [ 74.9103138, 34.0920972 ], [ 74.9003023, 34.0950883 ], [ 74.8959184, 34.0930202 ], [ 74.8918552, 34.0951213 ], [ 74.8886314, 34.0948738 ], [ 74.8882838, 34.0902131 ], [ 74.890407, 34.0866157 ], [ 74.8879304, 34.0819506 ], [ 74.8849288, 34.0797783 ], [ 74.881776, 34.0797245 ], [ 74.8783959, 34.0837589 ], [ 74.8709307, 34.0826365 ], [ 74.8707899, 34.0814105 ], [ 74.8683791, 34.0808289 ], [ 74.8673667, 34.0737248 ], [ 74.8619606, 34.0743735 ], [ 74.8598326, 34.0700505 ], [ 74.8686192, 34.0570016 ], [ 74.8695833, 34.054225 ], [ 74.8667025, 34.0509793 ], [ 74.8716468, 34.0488564 ], [ 74.875432, 34.0448086 ], [ 74.8839821, 34.0433163 ], [ 74.888168, 34.0442669 ], [ 74.8907679, 34.0476789 ], [ 74.8943531, 34.0491704 ], [ 74.8964108, 34.0488726 ], [ 74.8978613, 34.0460325 ], [ 74.9162858, 34.0509544 ], [ 74.9229269, 34.0546459 ], [ 74.9190304, 34.0610231 ], [ 74.9166876, 34.0621203 ], [ 74.921528, 34.0609279 ], [ 74.9273892, 34.0624941 ], [ 74.9298662, 34.0653418 ], [ 74.9305025, 34.0691595 ], [ 74.9319595, 34.0691318 ], [ 74.9327426, 34.065931 ], [ 74.9357595, 34.0657628 ], [ 74.941027, 34.0694608 ], [ 74.9445049, 34.0765223 ], [ 74.9464376, 34.0752049 ], [ 74.9478759, 34.0784 ], [ 74.9494731, 34.078791 ], [ 74.9498874, 34.0742653 ], [ 74.9548766, 34.0744784 ], [ 74.9583357, 34.0722223 ], [ 74.9631616, 34.0770241 ], [ 74.9672774, 34.0759437 ], [ 74.971704, 34.076666 ], [ 74.9733284, 34.0808027 ], [ 74.9797489, 34.0816763 ], [ 74.9820531, 34.0873313 ], [ 74.9783622, 34.0905619 ], [ 74.9763178, 34.0980643 ], [ 74.9806901, 34.0977901 ], [ 74.9914411, 34.0906133 ], [ 74.9913802, 34.0857316 ], [ 74.9933296, 34.0850491 ], [ 74.9947888, 34.082564 ], [ 74.9961259, 34.0818325 ], [ 75.0, 34.0828518 ], [ 75.0017422, 34.0817142 ], [ 75.0013562, 34.0794641 ], [ 74.9905804, 34.0753513 ], [ 74.9880743, 34.0727618 ], [ 74.982997, 34.0712699 ], [ 74.979841, 34.0685365 ], [ 74.9770418, 34.0649779 ], [ 74.9770163, 34.0573059 ], [ 74.9750525, 34.0544633 ], [ 74.9790791, 34.0523143 ], [ 74.9730408, 34.0522967 ], [ 74.9721608, 34.0498904 ], [ 74.9700258, 34.0487245 ], [ 74.9650885, 34.0500175 ], [ 74.959041, 34.0459604 ], [ 74.9599155, 34.0432868 ], [ 74.9576015, 34.0413907 ], [ 74.958856394576586, 34.040195400416856 ], [ 74.9566095, 34.0403681 ], [ 74.9558181, 34.0392958 ], [ 74.9549631, 34.0342613 ], [ 74.9520428, 34.032077 ], [ 74.9513744, 34.0293954 ], [ 74.9455268, 34.0287453 ], [ 74.9432242, 34.0268309 ], [ 74.9311472, 34.0287663 ], [ 74.9309265, 34.030867 ], [ 74.9288206, 34.0309897 ], [ 74.9293475, 34.0338113 ], [ 74.9271085, 34.0377519 ], [ 74.9227816, 34.0364374 ], [ 74.9215243, 34.0344681 ], [ 74.9220481, 34.031894 ], [ 74.9194805, 34.0297042 ], [ 74.9182249, 34.0305792 ], [ 74.916703, 34.0293897 ], [ 74.914723, 34.0327936 ], [ 74.9155697, 34.0371477 ], [ 74.9128511, 34.0356882 ], [ 74.9030453, 34.0349607 ], [ 74.9014422, 34.0335951 ], [ 74.8833427, 34.0387771 ], [ 74.8767909, 34.0354913 ], [ 74.8711956, 34.0353357 ], [ 74.8618038, 34.040794 ], [ 74.8571525, 34.0474906 ], [ 74.8467581, 34.0517498 ], [ 74.8367156, 34.0435388 ], [ 74.8370324, 34.0395526 ], [ 74.8357376, 34.0374075 ], [ 74.8303314, 34.0305973 ], [ 74.8266761, 34.0287429 ], [ 74.8213995, 34.0316841 ], [ 74.8322336, 34.0454361 ], [ 74.8083817, 34.0446586 ], [ 74.7998706, 34.0412965 ], [ 74.7985579, 34.0383456 ], [ 74.8002411, 34.036799 ], [ 74.802072, 34.0284718 ], [ 74.7989537, 34.0281168 ], [ 74.7946306, 34.0299589 ], [ 74.793433, 34.0291573 ], [ 74.7986677, 34.0222689 ], [ 74.7977727, 34.0202682 ], [ 74.7954933, 34.0204144 ], [ 74.7768768, 34.0295781 ], [ 74.7821512, 34.034865 ], [ 74.7796792, 34.0397585 ], [ 74.7725427, 34.0410296 ], [ 74.7736752, 34.0437806 ], [ 74.7714454, 34.0475248 ], [ 74.7676603, 34.0495169 ], [ 74.7666248, 34.0554815 ], [ 74.7645786, 34.0577267 ], [ 74.7586909, 34.0603641 ], [ 74.7603065, 34.0619666 ], [ 74.7619705, 34.0677673 ], [ 74.7715007, 34.0719336 ], [ 74.765822, 34.0740996 ], [ 74.7435565, 34.090925 ], [ 74.7204337, 34.095301 ], [ 74.7180603, 34.0949558 ], [ 74.7175925, 34.0934551 ], [ 74.7101608, 34.0953492 ], [ 74.7083616, 34.1004621 ], [ 74.7121062, 34.1059813 ], [ 74.7115437, 34.1070995 ], [ 74.7062713, 34.1083782 ], [ 74.7054233, 34.1073838 ], [ 74.7075603, 34.1049789 ], [ 74.7031367, 34.1038342 ], [ 74.7009365, 34.1000013 ], [ 74.6880994, 34.094795 ], [ 74.6854505, 34.0974109 ], [ 74.6862055, 34.1004607 ], [ 74.6816923, 34.1006617 ], [ 74.6844856, 34.1050636 ], [ 74.6816729, 34.105836 ], [ 74.67972, 34.1044133 ], [ 74.6751108, 34.1073782 ], [ 74.6771477, 34.1091557 ], [ 74.685654, 34.1114459 ], [ 74.6860519, 34.1190313 ], [ 74.6917402, 34.1237947 ], [ 74.6821201, 34.1289804 ], [ 74.6768341, 34.1304551 ], [ 74.6747116, 34.1286775 ], [ 74.6756312, 34.1321864 ], [ 74.6927523, 34.1525053 ], [ 74.6980621, 34.1550066 ], [ 74.7023505, 34.1554466 ], [ 74.7011543, 34.1596422 ], [ 74.6968753, 34.1650223 ], [ 74.6963863, 34.1702423 ], [ 74.6948538, 34.172835 ], [ 74.68389, 34.1756535 ], [ 74.6759175, 34.1840809 ], [ 74.6840219, 34.1838595 ], [ 74.6894281, 34.1857333 ], [ 74.6931563, 34.1856079 ], [ 74.7097284, 34.1762623 ], [ 74.7237887, 34.1655727 ], [ 74.7347926, 34.1656865 ], [ 74.7436469, 34.1606474 ], [ 74.7510278, 34.1606063 ], [ 74.7654014, 34.1742215 ], [ 74.7710253, 34.1758307 ], [ 74.7951864, 34.1755308 ], [ 74.799033, 34.1742813 ], [ 74.8023393, 34.1692629 ], [ 74.8041368, 34.1635569 ], [ 74.8175892, 34.1628926 ], [ 74.8175818, 34.1663179 ], [ 74.8094623, 34.1757822 ], [ 74.8072568, 34.1797749 ], [ 74.8071125, 34.1828574 ], [ 74.8099935, 34.1837753 ], [ 74.8175456, 34.1832159 ], [ 74.8252158, 34.1752618 ], [ 74.8482551, 34.1776803 ], [ 74.8544276, 34.1805422 ], [ 74.8553856, 34.182256 ], [ 74.8576785, 34.1995729 ], [ 74.8665586, 34.2051203 ], [ 74.8706546, 34.2059363 ], [ 74.8728788, 34.212008 ], [ 74.8766604, 34.2072435 ] ] ] ] } }
]
}
