{
"type": "FeatureCollection",
"name": "0112",
"crs": { "type": "name", "properties": { "name": "urn:ogc:def:crs:OGC:1.3:CRS84" } },
"features": [
{ "type": "Feature", "properties": { "code": "0112", "name": "Rajouri", "type": "district" }, "geometry": { "type": "Polygon", "coordinates": [ [ [ 74.3687218, 33.5813746 ], [ 74.3756643, 33.583543 ], [ 74.3859242, 33.5805221 ], [ 74.3879974, 33.5779659 ], [ 74.4006642, 33.5770443 ], [ 74.4089075, 33.5720159 ], [ 74.4199367, 33.5721159 ], [ 74.4240178, 33.5703788 ], [ 74.4268967, 33.5668028 ], [ 74.4411152, 33.55558 ], [ 74.4420832, 33.5541414 ], [ 74.440644, 33.552037 ], [ 74.4479713, 33.5451672 ], [ 74.4623312, 33.5362951 ], [ 74.4734898, 33.531107 ], [ 74.4895698, 33.5201747 ], [ 74.4982275, 33.5111638 ], [ 74.4982317, 33.5065881 ], [ 74.5069665, 33.5001822 ], [ 74.506012, 33.4988308 ], [ 74.5100528, 33.4849598 ], [ 74.5177361, 33.4854514 ], [ 74.5223702, 33.4802437 ], [ 74.5215691, 33.4773326 ], [ 74.524853, 33.4756831 ], [ 74.5283678, 33.4707695 ], [ 74.5333883, 33.4717775 ], [ 74.5403419, 33.4681574 ], [ 74.5432279, 33.4751816 ], [ 74.5399836, 33.4777375 ], [ 74.5415662, 33.4809992 ], [ 74.5378543, 33.4868105 ], [ 74.5410542, 33.4889837 ], [ 74.5455352, 33.4886619 ], [ 74.5605185, 33.493482 ], [ 74.5723735, 33.4919489 ], [ 74.5730301, 33.4967579 ], [ 74.5704646, 33.4996065 ], [ 74.5698907, 33.5028082 ], [ 74.57293, 33.5047598 ], [ 74.5744863, 33.5075613 ], [ 74.5888265, 33.509345 ], [ 74.5884812, 33.5046122 ], [ 74.5899619, 33.5028064 ], [ 74.592542, 33.5017109 ], [ 74.5976023, 33.5025494 ], [ 74.6038571, 33.5013208 ], [ 74.6069531, 33.4959821 ], [ 74.6142196, 33.4989255 ], [ 74.6187346, 33.4972081 ], [ 74.6270793, 33.4979572 ], [ 74.6290864, 33.4951406 ], [ 74.630168, 33.4902533 ], [ 74.6356338, 33.4865068 ], [ 74.6357667, 33.4800383 ], [ 74.6302855, 33.4778833 ], [ 74.6290454, 33.4756435 ], [ 74.6298949, 33.4681675 ], [ 74.6275775, 33.466041 ], [ 74.6220768, 33.4668837 ], [ 74.6196296, 33.4638273 ], [ 74.6036223, 33.4660751 ], [ 74.6019259, 33.460405 ], [ 74.6111343, 33.4507 ], [ 74.6190998, 33.4491473 ], [ 74.617848, 33.445692 ], [ 74.6194679, 33.4423574 ], [ 74.6250653, 33.4435316 ], [ 74.6459495, 33.4384028 ], [ 74.6564218, 33.4411473 ], [ 74.6618393, 33.4353149 ], [ 74.6653932, 33.4352481 ], [ 74.6683834, 33.4322656 ], [ 74.6682888, 33.4249448 ], [ 74.6724857, 33.4196784 ], [ 74.6724853, 33.4179789 ], [ 74.6721181, 33.4142549 ], [ 74.6662274, 33.4050015 ], [ 74.6654653, 33.4004861 ], [ 74.6669058, 33.394382 ], [ 74.6744016, 33.3952761 ], [ 74.6737207, 33.3926 ], [ 74.670128, 33.3898457 ], [ 74.6719084, 33.3846853 ], [ 74.6710458, 33.3819537 ], [ 74.674175, 33.3793496 ], [ 74.6752468, 33.3738606 ], [ 74.6788698, 33.3711785 ], [ 74.6791128, 33.3700148 ], [ 74.6768111, 33.3683483 ], [ 74.6863004, 33.3623391 ], [ 74.6862996, 33.3612031 ], [ 74.6740094, 33.3543517 ], [ 74.6709666, 33.3504353 ], [ 74.6661753, 33.3504371 ], [ 74.661385, 33.3532247 ], [ 74.6581022, 33.3516792 ], [ 74.6507594, 33.352506 ], [ 74.649197, 33.3512588 ], [ 74.6483037, 33.3404638 ], [ 74.6539411, 33.336421 ], [ 74.6482084, 33.3254699 ], [ 74.6647643, 33.3075936 ], [ 74.6701317, 33.3039429 ], [ 74.670256, 33.3026217 ], [ 74.6696726, 33.2951232 ], [ 74.6581486, 33.2890443 ], [ 74.654795, 33.2793999 ], [ 74.652776, 33.2768721 ], [ 74.6524848, 33.2725624 ], [ 74.6728628, 33.2631114 ], [ 74.6763599, 33.260094 ], [ 74.6785778, 33.2541917 ], [ 74.6844901, 33.2531928 ], [ 74.689338, 33.2496243 ], [ 74.6911622, 33.2496146 ], [ 74.6925186, 33.2481216 ], [ 74.692934, 33.2441452 ], [ 74.6917536, 33.2370048 ], [ 74.6893583, 33.2334491 ], [ 74.6890016, 33.2182682 ], [ 74.6870941, 33.2128011 ], [ 74.6829193, 33.206962 ], [ 74.683109, 33.2018855 ], [ 74.6879, 33.1975824 ], [ 74.6878776, 33.196311 ], [ 74.681946, 33.1947901 ], [ 74.672944, 33.1963989 ], [ 74.6643305, 33.1924122 ], [ 74.6619466, 33.1851952 ], [ 74.6557813, 33.186306 ], [ 74.6543902, 33.194881 ], [ 74.6440633, 33.1965556 ], [ 74.6335217, 33.2019668 ], [ 74.628111, 33.2023141 ], [ 74.6279555, 33.2039551 ], [ 74.622137, 33.2051048 ], [ 74.6189092, 33.2022818 ], [ 74.6114176, 33.2007853 ], [ 74.609533, 33.1973588 ], [ 74.6094962, 33.1936171 ], [ 74.6080996, 33.1933282 ], [ 74.6060776, 33.1954603 ], [ 74.6031009, 33.193171 ], [ 74.6001517, 33.1983356 ], [ 74.5963277, 33.2002373 ], [ 74.5912015, 33.1997311 ], [ 74.5829204, 33.2030287 ], [ 74.5794514, 33.2017922 ], [ 74.568297, 33.2023602 ], [ 74.5694212, 33.1988348 ], [ 74.5737732, 33.1954557 ], [ 74.5729978, 33.1928728 ], [ 74.5709134, 33.1943593 ], [ 74.5613416, 33.1951437 ], [ 74.5523889, 33.19059 ], [ 74.5482302, 33.1900601 ], [ 74.5473203, 33.189292 ], [ 74.5486753, 33.1858007 ], [ 74.5474694, 33.1797941 ], [ 74.5412208, 33.1859756 ], [ 74.538405, 33.1869655 ], [ 74.5375036, 33.1931593 ], [ 74.5315787, 33.1926219 ], [ 74.5261218, 33.1904151 ], [ 74.522068, 33.1871019 ], [ 74.5213115, 33.1803674 ], [ 74.5245898, 33.1755532 ], [ 74.5392192, 33.171088 ], [ 74.5450465, 33.1648749 ], [ 74.5530178, 33.1641855 ], [ 74.5573202, 33.1665907 ], [ 74.5615233, 33.1659258 ], [ 74.5686227, 33.1622098 ], [ 74.5721152, 33.157144 ], [ 74.581207, 33.1536671 ], [ 74.6023819, 33.15741 ], [ 74.6048053, 33.1540156 ], [ 74.607399, 33.1553189 ], [ 74.6105615, 33.1539082 ], [ 74.6118858, 33.1507796 ], [ 74.6265276, 33.1468896 ], [ 74.6301876, 33.1426472 ], [ 74.6299463, 33.1395003 ], [ 74.6241964, 33.1318048 ], [ 74.617651, 33.1312297 ], [ 74.6159702, 33.1259852 ], [ 74.6216626, 33.1210466 ], [ 74.622862, 33.1150752 ], [ 74.6214799, 33.1112954 ], [ 74.6224824, 33.109684 ], [ 74.6281025, 33.1080181 ], [ 74.6268441, 33.1063031 ], [ 74.6276027, 33.1055891 ], [ 74.630678, 33.1094961 ], [ 74.6341631, 33.1087045 ], [ 74.6305548, 33.1052192 ], [ 74.6260974, 33.1038941 ], [ 74.6237571, 33.1046378 ], [ 74.6228762, 33.1029974 ], [ 74.6248828, 33.1004101 ], [ 74.6354259, 33.0937343 ], [ 74.6282079, 33.0900352 ], [ 74.6244267, 33.0920956 ], [ 74.6191191, 33.0907745 ], [ 74.6085681, 33.0917791 ], [ 74.6042676, 33.090746 ], [ 74.5989304, 33.081787 ], [ 74.5991151, 33.0725539 ], [ 74.5927123, 33.069072 ], [ 74.5878983, 33.0697064 ], [ 74.5819503, 33.0678336 ], [ 74.5697897, 33.0692851 ], [ 74.5694104, 33.0678558 ], [ 74.5677719, 33.0676191 ], [ 74.5628884, 33.0683802 ], [ 74.5638288, 33.0634665 ], [ 74.5629366, 33.0604815 ], [ 74.5652299, 33.0579985 ], [ 74.5649792, 33.0565197 ], [ 74.5616525, 33.0531657 ], [ 74.5576697, 33.0532167 ], [ 74.5574197, 33.0515261 ], [ 74.5335462, 33.0515237 ], [ 74.5264889, 33.0532669 ], [ 74.5255537, 33.0555951 ], [ 74.5101526, 33.0552356 ], [ 74.5106094, 33.0509043 ], [ 74.5127222, 33.0474211 ], [ 74.5122, 33.045517 ], [ 74.5089824, 33.0417251 ], [ 74.5080634, 33.0426287 ], [ 74.5064084, 33.0415418 ], [ 74.4984101, 33.041829 ], [ 74.4966213, 33.0357734 ], [ 74.4982982, 33.034133 ], [ 74.5045462, 33.0324339 ], [ 74.5108148, 33.0321638 ], [ 74.5154214, 33.0260098 ], [ 74.5138623, 33.0211543 ], [ 74.5163621, 33.0157154 ], [ 74.5131876, 33.013362 ], [ 74.4959101, 33.0180851 ], [ 74.486174, 33.016076 ], [ 74.4683205, 33.016434 ], [ 74.4645289, 33.0147174 ], [ 74.4610548, 33.0161261 ], [ 74.4480942, 33.0149735 ], [ 74.4454576, 33.0113353 ], [ 74.4466933, 33.0069664 ], [ 74.4455088, 33.0018454 ], [ 74.4203047, 32.9889571 ], [ 74.4047019, 32.9703565 ], [ 74.4038517, 32.9672967 ], [ 74.4004054, 32.9656561 ], [ 74.3944874, 32.9661701 ], [ 74.3928728, 32.9650863 ], [ 74.3916989, 32.9596763 ], [ 74.3823355, 32.9566191 ], [ 74.3810877, 32.9540715 ], [ 74.3788699, 32.9547751 ], [ 74.3722044, 32.9532878 ], [ 74.3690306, 32.9500064 ], [ 74.3683088, 32.9527986 ], [ 74.3663044, 32.9545037 ], [ 74.3648914, 32.9528749 ], [ 74.3545115, 32.9529268 ], [ 74.3504009, 32.9508539 ], [ 74.3492823, 32.9546272 ], [ 74.3476324, 32.9515095 ], [ 74.3398469, 32.9543927 ], [ 74.3268929, 32.9996522 ], [ 74.3205642, 33.0073771 ], [ 74.3202611, 33.0217903 ], [ 74.3256571, 33.0287399 ], [ 74.3245797, 33.0316068 ], [ 74.3184994, 33.0320009 ], [ 74.3137159, 33.0299249 ], [ 74.3097697, 33.0321455 ], [ 74.3021328, 33.0314019 ], [ 74.2870023, 33.0366716 ], [ 74.2774143, 33.0382154 ], [ 74.2673438, 33.0445865 ], [ 74.2593644, 33.0430511 ], [ 74.2563316, 33.0453881 ], [ 74.2491689, 33.0456155 ], [ 74.2437881, 33.0499425 ], [ 74.2355205, 33.0512321 ], [ 74.2305979, 33.0562938 ], [ 74.2176744, 33.0621752 ], [ 74.2143887, 33.0612243 ], [ 74.2083543, 33.067172 ], [ 74.2024336, 33.0665552 ], [ 74.1917021, 33.0725136 ], [ 74.1876362, 33.0707358 ], [ 74.1832571, 33.0728165 ], [ 74.1706865, 33.0741536 ], [ 74.1707507, 33.0811146 ], [ 74.1735241, 33.0814391 ], [ 74.1758832, 33.0873083 ], [ 74.1803327, 33.0877345 ], [ 74.1820721, 33.0907443 ], [ 74.1774801, 33.0988972 ], [ 74.1665919, 33.1029956 ], [ 74.1679073, 33.1039896 ], [ 74.1645226, 33.1059586 ], [ 74.1633506, 33.1054923 ], [ 74.1595139, 33.1104494 ], [ 74.1589541, 33.1115439 ], [ 74.1627084, 33.1231141 ], [ 74.1560692, 33.1256724 ], [ 74.1530315, 33.13623 ], [ 74.1421341, 33.1477288 ], [ 74.1373596, 33.147535 ], [ 74.1337746, 33.1493719 ], [ 74.1333735, 33.1549388 ], [ 74.1299924, 33.1565823 ], [ 74.130509, 33.1596895 ], [ 74.1192157, 33.1615062 ], [ 74.116472, 33.1594403 ], [ 74.1071048, 33.1676121 ], [ 74.0997698, 33.1665007 ], [ 74.086786, 33.1733554 ], [ 74.073371, 33.1865734 ], [ 74.0696204, 33.19513 ], [ 74.0621256, 33.1977262 ], [ 74.0543156, 33.193987 ], [ 74.0521917, 33.1941348 ], [ 74.0500879, 33.2004364 ], [ 74.0485432, 33.2005451 ], [ 74.0458458, 33.2005515 ], [ 74.0398264, 33.1970551 ], [ 74.0359258, 33.1962422 ], [ 74.0282868, 33.1997781 ], [ 74.0241809, 33.2033822 ], [ 74.0173514, 33.2040796 ], [ 74.0164668, 33.2119304 ], [ 74.00885, 33.2147665 ], [ 74.0066071, 33.2137275 ], [ 74.0070959, 33.2187059 ], [ 74.0055047, 33.2233943 ], [ 74.0081265, 33.2249258 ], [ 74.0059989, 33.2283322 ], [ 74.0070724, 33.2307382 ], [ 74.0019596, 33.2359526 ], [ 74.0027705, 33.2420816 ], [ 74.0056014, 33.2463593 ], [ 74.0058562, 33.2495834 ], [ 74.0201894, 33.2610306 ], [ 74.0362798, 33.2659353 ], [ 74.0501201, 33.2746007 ], [ 74.0707757, 33.2829028 ], [ 74.082052, 33.2847512 ], [ 74.0917189, 33.2848186 ], [ 74.1166711, 33.2982215 ], [ 74.1361191, 33.3067987 ], [ 74.1500833, 33.3195738 ], [ 74.150314, 33.3217607 ], [ 74.1474144, 33.327909 ], [ 74.1407328, 33.3343117 ], [ 74.1456987, 33.337116 ], [ 74.1487522, 33.3422609 ], [ 74.1599594, 33.3497777 ], [ 74.1638956, 33.3480218 ], [ 74.1665645, 33.3573626 ], [ 74.1553387, 33.3652461 ], [ 74.1478159, 33.3677931 ], [ 74.145423, 33.3706333 ], [ 74.1425348, 33.3839179 ], [ 74.1383131, 33.3911184 ], [ 74.1372794, 33.3957913 ], [ 74.1492218, 33.3997942 ], [ 74.1517134, 33.402747 ], [ 74.1561755, 33.4045085 ], [ 74.1607146, 33.4100478 ], [ 74.1699923, 33.4123716 ], [ 74.1737403, 33.4117691 ], [ 74.1851157, 33.4212135 ], [ 74.1861195, 33.4244022 ], [ 74.1827096, 33.427512 ], [ 74.191713, 33.4335709 ], [ 74.1984637, 33.4454685 ], [ 74.2044648, 33.4483395 ], [ 74.2166838, 33.471545 ], [ 74.2181926, 33.4820461 ], [ 74.2230725, 33.4848652 ], [ 74.2274375, 33.4901629 ], [ 74.2279301, 33.5043638 ], [ 74.2260006, 33.5093609 ], [ 74.2219979, 33.5148242 ], [ 74.2167678, 33.5173196 ], [ 74.2120979, 33.5308106 ], [ 74.2078922, 33.5345602 ], [ 74.2077782, 33.5378599 ], [ 74.2109147, 33.5417229 ], [ 74.2106587, 33.5461494 ], [ 74.221728, 33.5521051 ], [ 74.2254301, 33.5501712 ], [ 74.2323909, 33.5505715 ], [ 74.2440824, 33.5558317 ], [ 74.2486568, 33.553668 ], [ 74.2540294, 33.5426018 ], [ 74.2591768, 33.5501125 ], [ 74.2646719, 33.5516411 ], [ 74.2783628, 33.5473338 ], [ 74.2785311, 33.5510441 ], [ 74.2818101, 33.5508798 ], [ 74.2858137, 33.5475377 ], [ 74.2989176, 33.5540469 ], [ 74.3005936, 33.55861 ], [ 74.2996411, 33.5643391 ], [ 74.3074429, 33.5723317 ], [ 74.3133187, 33.5717441 ], [ 74.3215444, 33.5766932 ], [ 74.3244093, 33.5770009 ], [ 74.3283412, 33.5761414 ], [ 74.3330988, 33.5717659 ], [ 74.3494093, 33.5773691 ], [ 74.3536304, 33.5826443 ], [ 74.3564899, 33.5840557 ], [ 74.3687218, 33.5813746 ] ] ] } }
]
}
