{
"type": "FeatureCollection",
"name": "0120",
"crs": { "type": "name", "properties": { "name": "urn:ogc:def:crs:OGC:1.3:CRS84" } },
"features": [
{ "type": "Feature", "properties": { "code": "0120", "name": "Kulgam", "type": "district" }, "geometry": { "type": "Polygon", "coordinates": [ [ [ 75.0754706, 33.8338636 ], [ 75.0760635, 33.8311561 ], [ 75.0925008, 33.8134443 ], [ 75.1008314, 33.8111173 ], [ 75.106117, 33.8068587 ], [ 75.1074364, 33.8042609 ], [ 75.10783, 33.8017191 ], [ 75.1020046, 33.7930256 ], [ 75.1014722, 33.7900978 ], [ 75.1034476, 33.782665 ], [ 75.1033026, 33.772002 ], [ 75.1129526, 33.7708885 ], [ 75.1148007, 33.7756319 ], [ 75.117448, 33.7777841 ], [ 75.1218539, 33.7649917 ], [ 75.1213699, 33.7487823 ], [ 75.1226801, 33.740604 ], [ 75.1275621, 33.7351846 ], [ 75.1227382, 33.7350238 ], [ 75.1206256, 33.7363518 ], [ 75.11963, 33.7312374 ], [ 75.1137479, 33.7301379 ], [ 75.1116972, 33.7282061 ], [ 75.1137434, 33.7267125 ], [ 75.1159805, 33.7202638 ], [ 75.1179888, 33.7216415 ], [ 75.1236052, 33.720592 ], [ 75.1235559, 33.7172735 ], [ 75.1298858, 33.7165213 ], [ 75.1294845, 33.7151927 ], [ 75.1289458, 33.7140241 ], [ 75.1256916, 33.7142512 ], [ 75.1255899, 33.7113341 ], [ 75.1236426, 33.7082553 ], [ 75.125935, 33.7057984 ], [ 75.1202648, 33.7012761 ], [ 75.1165214, 33.7011306 ], [ 75.1070202, 33.7052642 ], [ 75.1034611, 33.6959486 ], [ 75.0982242, 33.6882992 ], [ 75.0994075, 33.6841731 ], [ 75.1029711, 33.6836235 ], [ 75.1043987, 33.6852127 ], [ 75.1077258, 33.6856075 ], [ 75.1017019, 33.6729628 ], [ 75.1205895, 33.6728961 ], [ 75.1207442, 33.670323 ], [ 75.127797, 33.6601274 ], [ 75.137512, 33.6541685 ], [ 75.1260714, 33.6498715 ], [ 75.1200395, 33.6491409 ], [ 75.1248853, 33.6338335 ], [ 75.1305328, 33.6359228 ], [ 75.1357083, 33.6282607 ], [ 75.1360111, 33.6245133 ], [ 75.1290129, 33.6231856 ], [ 75.126488, 33.6203456 ], [ 75.1308184, 33.6142919 ], [ 75.1387633, 33.6100526 ], [ 75.1404136, 33.6062361 ], [ 75.1407388, 33.6024905 ], [ 75.1346731, 33.5896663 ], [ 75.1395588, 33.5897302 ], [ 75.1490863, 33.5924934 ], [ 75.1526019, 33.5887528 ], [ 75.1570982, 33.5901413 ], [ 75.1612566, 33.5887767 ], [ 75.1660567, 33.5966467 ], [ 75.1750345, 33.5914764 ], [ 75.1750428, 33.5901528 ], [ 75.1695114, 33.5906042 ], [ 75.1700045, 33.5796448 ], [ 75.1605592, 33.5700594 ], [ 75.1600885, 33.5647988 ], [ 75.1519926, 33.5572657 ], [ 75.1511293, 33.5510561 ], [ 75.1460561, 33.5455619 ], [ 75.144849, 33.5404996 ], [ 75.1418388, 33.5356495 ], [ 75.1430862, 33.5292974 ], [ 75.1412877, 33.5253442 ], [ 75.1571098, 33.5237914 ], [ 75.1516616, 33.5223311 ], [ 75.1400893, 33.5141124 ], [ 75.1311303, 33.5130493 ], [ 75.1219042, 33.5033344 ], [ 75.1141529, 33.4980247 ], [ 75.10596, 33.4968931 ], [ 75.0946405, 33.5021132 ], [ 75.0818555, 33.4944577 ], [ 75.0750747, 33.496867 ], [ 75.0583822, 33.4989961 ], [ 75.05128, 33.5033292 ], [ 75.0443065, 33.5030183 ], [ 75.0344035, 33.5049274 ], [ 75.0271314, 33.5020503 ], [ 75.0143866, 33.5122009 ], [ 75.0083104, 33.5105807 ], [ 75.0045816, 33.5054872 ], [ 74.9936728, 33.5089601 ], [ 74.9924297, 33.5134749 ], [ 74.9659147, 33.5149754 ], [ 74.9638438, 33.5135857 ], [ 74.9545916, 33.5133511 ], [ 74.9526602, 33.5097616 ], [ 74.952498, 33.4978748 ], [ 74.9491404, 33.497985 ], [ 74.9405922, 33.4931618 ], [ 74.9215327, 33.4991617 ], [ 74.9168406, 33.4990237 ], [ 74.9116505, 33.4920965 ], [ 74.9053398, 33.4930134 ], [ 74.9029396, 33.4916345 ], [ 74.9021855, 33.4890516 ], [ 74.8986289, 33.4877494 ], [ 74.8971754, 33.4843957 ], [ 74.8942487, 33.4842836 ], [ 74.89243, 33.4826925 ], [ 74.8806967, 33.4832166 ], [ 74.8733748, 33.4860163 ], [ 74.8700447, 33.4842806 ], [ 74.8645303, 33.4842126 ], [ 74.864692, 33.48135 ], [ 74.8629226, 33.4780908 ], [ 74.8583668, 33.4745651 ], [ 74.8507761, 33.476484 ], [ 74.8427716, 33.4763699 ], [ 74.8385693, 33.4787982 ], [ 74.8368069, 33.4742536 ], [ 74.8313715, 33.4680848 ], [ 74.82567, 33.4679159 ], [ 74.8137699, 33.4708139 ], [ 74.7960271, 33.4679233 ], [ 74.7889267, 33.4736935 ], [ 74.7955588, 33.4801759 ], [ 74.7931882, 33.4840107 ], [ 74.7884286, 33.4878844 ], [ 74.780173, 33.4902767 ], [ 74.7711372, 33.4876909 ], [ 74.7587321, 33.4907228 ], [ 74.7561512, 33.4934388 ], [ 74.7491296, 33.4972234 ], [ 74.7397788, 33.5058841 ], [ 74.7346298, 33.5064793 ], [ 74.7325133, 33.5095105 ], [ 74.7327258, 33.5115615 ], [ 74.7303336, 33.513741 ], [ 74.7197412, 33.5174552 ], [ 74.7093409, 33.5259514 ], [ 74.7041466, 33.5257564 ], [ 74.6961821, 33.5211586 ], [ 74.6937385, 33.5209797 ], [ 74.6889825, 33.5161316 ], [ 74.683804, 33.5143942 ], [ 74.6826159, 33.5083089 ], [ 74.6799231, 33.5049201 ], [ 74.6706036, 33.5062087 ], [ 74.6563163, 33.5056272 ], [ 74.6525075, 33.5090047 ], [ 74.649754, 33.5150144 ], [ 74.6455335, 33.5099031 ], [ 74.6422452, 33.5089434 ], [ 74.6420072, 33.5033715 ], [ 74.6399137, 33.5020149 ], [ 74.6312343, 33.5016416 ], [ 74.6278172, 33.4978047 ], [ 74.6187346, 33.4972081 ], [ 74.6142196, 33.4989255 ], [ 74.6069531, 33.4959821 ], [ 74.6038571, 33.5013208 ], [ 74.5976023, 33.5025494 ], [ 74.592542, 33.5017109 ], [ 74.5899619, 33.5028064 ], [ 74.5884812, 33.5046122 ], [ 74.5881863, 33.5094543 ], [ 74.5744863, 33.5075613 ], [ 74.57293, 33.5047598 ], [ 74.5706574, 33.5032273 ], [ 74.5701399, 33.5046048 ], [ 74.574336, 33.5073691 ], [ 74.5738227, 33.5117212 ], [ 74.5757791, 33.5141568 ], [ 74.5710795, 33.5175949 ], [ 74.567987, 33.5179705 ], [ 74.5675758, 33.5210448 ], [ 74.5654749, 33.5239515 ], [ 74.5564051, 33.5246276 ], [ 74.5555255, 33.5275573 ], [ 74.547897, 33.5291216 ], [ 74.5475512, 33.5306586 ], [ 74.545707, 33.5283268 ], [ 74.5411866, 33.5272554 ], [ 74.5377843, 33.5278662 ], [ 74.533156, 33.5322898 ], [ 74.529103, 33.5467889 ], [ 74.5262647, 33.5477965 ], [ 74.5254874, 33.5495089 ], [ 74.5197148, 33.5504058 ], [ 74.5159797, 33.5536168 ], [ 74.5161205, 33.5572819 ], [ 74.5180071, 33.5599703 ], [ 74.5279068, 33.5670695 ], [ 74.521895, 33.5734479 ], [ 74.524253, 33.5788729 ], [ 74.5210979, 33.582666 ], [ 74.5204526, 33.5861817 ], [ 74.5157499, 33.5910418 ], [ 74.514544, 33.5947238 ], [ 74.5155011, 33.5960815 ], [ 74.5137674, 33.5996683 ], [ 74.5152938, 33.6024285 ], [ 74.5206828, 33.6055211 ], [ 74.5202954, 33.6095284 ], [ 74.5273289, 33.6168099 ], [ 74.5251052, 33.6248728 ], [ 74.5221787, 33.6252265 ], [ 74.5195126, 33.6286999 ], [ 74.5197236, 33.6413449 ], [ 74.5294336, 33.6432911 ], [ 74.5309615, 33.65433 ], [ 74.533137, 33.6573646 ], [ 74.5317521, 33.6601106 ], [ 74.539275, 33.6662989 ], [ 74.5394708, 33.6683768 ], [ 74.5435809, 33.6736282 ], [ 74.5435143, 33.6802126 ], [ 74.5582737, 33.6859592 ], [ 74.5602496, 33.6902743 ], [ 74.5664476, 33.6916117 ], [ 74.5784204, 33.6882878 ], [ 74.5830723, 33.689002 ], [ 74.5953266, 33.685691 ], [ 74.5978753, 33.6830401 ], [ 74.6022777, 33.6821411 ], [ 74.6081275, 33.6877199 ], [ 74.6080645, 33.6935062 ], [ 74.6103036, 33.6953935 ], [ 74.6254, 33.6964652 ], [ 74.6310971, 33.6932591 ], [ 74.6475619, 33.6908287 ], [ 74.6553843, 33.6938053 ], [ 74.6658617, 33.693449 ], [ 74.6689368, 33.6953643 ], [ 74.6729924, 33.7012306 ], [ 74.6812535, 33.7039135 ], [ 74.6853462, 33.6999487 ], [ 74.6899381, 33.6999334 ], [ 74.6944565, 33.6968893 ], [ 74.6989175, 33.6975449 ], [ 74.7009802, 33.6953205 ], [ 74.7124563, 33.6970206 ], [ 74.71526, 33.6939382 ], [ 74.7226772, 33.6894231 ], [ 74.7265289, 33.6897809 ], [ 74.7278199, 33.6876349 ], [ 74.7307092, 33.6877487 ], [ 74.7355516, 33.6821601 ], [ 74.7316316, 33.6832261 ], [ 74.7292579, 33.6825763 ], [ 74.7295211, 33.6805355 ], [ 74.7278582, 33.6784636 ], [ 74.7290191, 33.6743719 ], [ 74.7375298, 33.6682683 ], [ 74.7399631, 33.6703417 ], [ 74.74401, 33.6695444 ], [ 74.7485971, 33.6706282 ], [ 74.7792175, 33.6812205 ], [ 74.7870516, 33.6809657 ], [ 74.7891747, 33.6791966 ], [ 74.7891858, 33.6769307 ], [ 74.7860124, 33.6750182 ], [ 74.7872067, 33.6723611 ], [ 74.7864771, 33.6688411 ], [ 74.7791197, 33.6714068 ], [ 74.7764124, 33.6658313 ], [ 74.7778025, 33.6619928 ], [ 74.7765289, 33.657279 ], [ 74.7772758, 33.6538959 ], [ 74.7809509, 33.647456 ], [ 74.7839287, 33.6501204 ], [ 74.7855005, 33.6549195 ], [ 74.7892145, 33.6585789 ], [ 74.7920075, 33.658315 ], [ 74.7948399, 33.6549085 ], [ 74.8034611, 33.6541724 ], [ 74.816604, 33.6548938 ], [ 74.8209332, 33.6565654 ], [ 74.8300142, 33.6575452 ], [ 74.8350144, 33.6553573 ], [ 74.8492951, 33.6431815 ], [ 74.8574217, 33.6384369 ], [ 74.8654109, 33.6309396 ], [ 74.8733098, 33.6269726 ], [ 74.8773173, 33.6290717 ], [ 74.8835935, 33.6300312 ], [ 74.900054, 33.6458776 ], [ 74.905858, 33.6475334 ], [ 74.9040543, 33.6534144 ], [ 74.9120059, 33.6544038 ], [ 74.9162071, 33.6576031 ], [ 74.9091246, 33.6683519 ], [ 74.9157366, 33.6687863 ], [ 74.9224278, 33.6714502 ], [ 74.9302286, 33.6709713 ], [ 74.9325689, 33.6697448 ], [ 74.9346934, 33.6619027 ], [ 74.9376481, 33.65946 ], [ 74.9393161, 33.6609381 ], [ 74.9400143, 33.6690076 ], [ 74.9425484, 33.671668 ], [ 74.949976, 33.67473 ], [ 74.9571882, 33.6802524 ], [ 74.9683586, 33.6847414 ], [ 74.9600192, 33.6852696 ], [ 74.9607146, 33.6962644 ], [ 74.9628016, 33.6966679 ], [ 74.9664956, 33.6931503 ], [ 74.9678431, 33.6959173 ], [ 74.9623229, 33.7039825 ], [ 74.9609723, 33.7080916 ], [ 74.9617742, 33.7106557 ], [ 74.9601985, 33.7149797 ], [ 74.9583354, 33.7156506 ], [ 74.955598, 33.7294493 ], [ 74.9570735, 33.73364 ], [ 74.951992, 33.7391027 ], [ 74.9524405, 33.7412786 ], [ 74.955106, 33.7433747 ], [ 74.9579652, 33.7436443 ], [ 74.9601185, 33.7417916 ], [ 74.9736945, 33.739086 ], [ 74.9758786, 33.7407517 ], [ 74.9778372, 33.7448617 ], [ 74.9806001, 33.7453456 ], [ 74.9877125, 33.7447993 ], [ 74.9958089, 33.741711 ], [ 75.0002102, 33.7420065 ], [ 75.0027484, 33.7449342 ], [ 75.0022022, 33.7457132 ], [ 74.995648, 33.7460354 ], [ 74.9951339, 33.7479693 ], [ 74.9993725, 33.7527157 ], [ 75.0077446, 33.7505156 ], [ 75.0102505, 33.7486352 ], [ 75.0146751, 33.7393542 ], [ 75.019141, 33.7409652 ], [ 75.0247943, 33.7485028 ], [ 75.0262055, 33.7541264 ], [ 75.0303846, 33.7597928 ], [ 75.0317322, 33.7692811 ], [ 75.033885, 33.7708819 ], [ 75.0374202, 33.7708272 ], [ 75.0383211, 33.7731906 ], [ 75.0328262, 33.7751798 ], [ 75.030068, 33.7776925 ], [ 75.0289106, 33.7901851 ], [ 75.0302944, 33.7944823 ], [ 75.040246, 33.7983105 ], [ 75.0505336, 33.7989782 ], [ 75.0551921, 33.8067549 ], [ 75.0554182, 33.8102696 ], [ 75.0530287, 33.8124984 ], [ 75.059991, 33.8180829 ], [ 75.0653648, 33.8179504 ], [ 75.063354, 33.8203746 ], [ 75.0591447, 33.8328239 ], [ 75.0603365, 33.8345847 ], [ 75.0668682, 33.835604 ], [ 75.06706, 33.840316 ], [ 75.0754706, 33.8338636 ] ] ] } }
]
}
