{
"type": "FeatureCollection",
"name": "0203",
"crs": { "type": "name", "properties": { "name": "urn:ogc:def:crs:OGC:1.3:CRS84" } },
"features": [
{ "type": "Feature", "properties": { "code": "0203", "name": "Lahul & Spiti", "type": "district" }, "geometry": { "type": "Polygon", "coordinates": [ [ [ 76.8025788, 33.2538518 ], [ 76.8068379, 33.2449809 ], [ 76.8200635, 33.2358403 ], [ 76.8224019, 33.2367835 ], [ 76.8235193, 33.2433253 ], [ 76.8307109, 33.2491888 ], [ 76.8431703, 33.2467355 ], [ 76.8446096, 33.2422728 ], [ 76.8405173, 33.2395894 ], [ 76.837687, 33.2340299 ], [ 76.8318474, 33.2291142 ], [ 76.8300955, 33.2247675 ], [ 76.8277097, 33.2225711 ], [ 76.8283876, 33.2185635 ], [ 76.8256055, 33.2156908 ], [ 76.8262338, 33.2143702 ], [ 76.8317643, 33.2123299 ], [ 76.8313149, 33.2099494 ], [ 76.8340561, 33.2085888 ], [ 76.8344599, 33.2048471 ], [ 76.8292966, 33.2032539 ], [ 76.8236369, 33.197621 ], [ 76.817392, 33.1941379 ], [ 76.8223842, 33.1850694 ], [ 76.8223421, 33.1835547 ], [ 76.8188381, 33.1798879 ], [ 76.8135431, 33.1772391 ], [ 76.8129141, 33.17191 ], [ 76.817367, 33.1667276 ], [ 76.8166957, 33.1603391 ], [ 76.8180003, 33.1570893 ], [ 76.8253696, 33.1481705 ], [ 76.8296363, 33.1465851 ], [ 76.8300456, 33.1428434 ], [ 76.8348052, 33.1406541 ], [ 76.838808, 33.1412234 ], [ 76.8439696, 33.1377802 ], [ 76.8446884, 33.1362295 ], [ 76.842894, 33.1338848 ], [ 76.8429864, 33.1303323 ], [ 76.8489129, 33.1287062 ], [ 76.8529109, 33.1256863 ], [ 76.8492315, 33.120429 ], [ 76.8550672, 33.1143843 ], [ 76.8624282, 33.1127218 ], [ 76.8705068, 33.1133624 ], [ 76.8772408, 33.1188446 ], [ 76.8851006, 33.1213778 ], [ 76.8889199, 33.1172207 ], [ 76.8932685, 33.1099167 ], [ 76.8925497, 33.1059134 ], [ 76.8974874, 33.1008452 ], [ 76.8977117, 33.0986902 ], [ 76.9092901, 33.093814 ], [ 76.9099578, 33.0896166 ], [ 76.9056929, 33.0850418 ], [ 76.9051985, 33.0795192 ], [ 76.9108948, 33.0760056 ], [ 76.9112516, 33.0712808 ], [ 76.9138527, 33.0684443 ], [ 76.914209, 33.0633768 ], [ 76.9254648, 33.0474176 ], [ 76.9264897, 33.0423498 ], [ 76.9257702, 33.03827 ], [ 76.9286886, 33.031655 ], [ 76.9329895, 33.028168 ], [ 76.9409747, 33.0283173 ], [ 76.9509317, 33.0181974 ], [ 76.959662, 33.0153399 ], [ 76.9614507, 33.0112946 ], [ 76.9605979, 33.0091402 ], [ 76.9637293, 33.0051706 ], [ 76.9681211, 33.0041846 ], [ 76.9713488, 33.0002823 ], [ 76.9808201, 33.0 ], [ 76.989013, 33.0026207 ], [ 76.9923077, 33.0017881 ], [ 76.9958964, 32.9975688 ], [ 77.0094885, 32.9886561 ], [ 77.0238651, 32.991324 ], [ 77.0316348, 32.9897071 ], [ 77.0389401, 32.997647 ], [ 77.0473871, 32.9986218 ], [ 77.0540083, 32.9948656 ], [ 77.0570441, 32.9916033 ], [ 77.0691539, 32.9865192 ], [ 77.0711877, 32.9844102 ], [ 77.0801649, 32.983007 ], [ 77.0826598, 32.9784363 ], [ 77.0818484, 32.9752802 ], [ 77.0865243, 32.9724099 ], [ 77.0968367, 32.9715018 ], [ 77.1107638, 32.9751424 ], [ 77.1116137, 32.9791415 ], [ 77.1160209, 32.9846691 ], [ 77.1337212, 32.980075 ], [ 77.1421678, 32.9814897 ], [ 77.1467833, 32.9785089 ], [ 77.1505168, 32.9781746 ], [ 77.1491181, 32.9684819 ], [ 77.147363, 32.965696 ], [ 77.1492228, 32.9605831 ], [ 77.1487296, 32.9561603 ], [ 77.1611293, 32.9526633 ], [ 77.1619412, 32.9506432 ], [ 77.1594714, 32.9382503 ], [ 77.164539, 32.9364815 ], [ 77.1617087, 32.9317124 ], [ 77.1638947, 32.9182314 ], [ 77.1598781, 32.913039 ], [ 77.1557353, 32.9115838 ], [ 77.1704441, 32.9106686 ], [ 77.1739305, 32.9133317 ], [ 77.1784958, 32.9231268 ], [ 77.1879724, 32.9287444 ], [ 77.1928652, 32.9234397 ], [ 77.1934102, 32.9164017 ], [ 77.2029161, 32.9065452 ], [ 77.2191291, 32.9040678 ], [ 77.2336703, 32.8944393 ], [ 77.2429925, 32.892163 ], [ 77.2399685, 32.8843933 ], [ 77.2372581, 32.8833499 ], [ 77.2375908, 32.8801756 ], [ 77.2442648, 32.8726717 ], [ 77.2499999, 32.8723624 ], [ 77.2533083, 32.8693355 ], [ 77.2552415, 32.8660237 ], [ 77.2542719, 32.8639397 ], [ 77.262691, 32.8640873 ], [ 77.2662856, 32.868829 ], [ 77.2739892, 32.8738533 ], [ 77.286073, 32.8644937 ], [ 77.290439, 32.8570758 ], [ 77.2992409, 32.8521716 ], [ 77.3008613, 32.8498597 ], [ 77.3044775, 32.8496228 ], [ 77.3094915, 32.8515957 ], [ 77.3137866, 32.850606 ], [ 77.3200242, 32.8523401 ], [ 77.3218995, 32.8515429 ], [ 77.3252837, 32.8460078 ], [ 77.3287355, 32.8429704 ], [ 77.3265099, 32.840012 ], [ 77.3253428, 32.835512 ], [ 77.3269952, 32.8314912 ], [ 77.3296817, 32.8304732 ], [ 77.3320281, 32.8260962 ], [ 77.3360228, 32.824984 ], [ 77.3367888, 32.8190419 ], [ 77.3389629, 32.8167838 ], [ 77.3531548, 32.8159935 ], [ 77.3609285, 32.8178251 ], [ 77.3728672, 32.8232044 ], [ 77.3765838, 32.8332629 ], [ 77.3765999, 32.8370816 ], [ 77.3792383, 32.838921 ], [ 77.3798848, 32.8445386 ], [ 77.3798688, 32.84581 ], [ 77.3758739, 32.8491824 ], [ 77.3745866, 32.8549398 ], [ 77.3814564, 32.8619233 ], [ 77.3877923, 32.8635548 ], [ 77.3921046, 32.870299 ], [ 77.3942205, 32.8713176 ], [ 77.3958888, 32.8771738 ], [ 77.4045035, 32.8827445 ], [ 77.4073465, 32.8840107 ], [ 77.4134432, 32.8841171 ], [ 77.4279826, 32.8756132 ], [ 77.433315, 32.8759309 ], [ 77.4395578, 32.8792415 ], [ 77.4448105, 32.879897 ], [ 77.447959, 32.87531 ], [ 77.4478214, 32.8702606 ], [ 77.4520739, 32.8640949 ], [ 77.4611942, 32.8599772 ], [ 77.4692003, 32.8586774 ], [ 77.4749353, 32.8616125 ], [ 77.4808222, 32.8705434 ], [ 77.48619, 32.8736856 ], [ 77.4910329, 32.8796054 ], [ 77.4971944, 32.8803659 ], [ 77.5014863, 32.8855797 ], [ 77.5052665, 32.8837033 ], [ 77.509473, 32.8786397 ], [ 77.5125788, 32.8773621 ], [ 77.5224926, 32.8796654 ], [ 77.5296214, 32.8835167 ], [ 77.5384728, 32.8860839 ], [ 77.5453877, 32.8916023 ], [ 77.5503875, 32.9003113 ], [ 77.5587467, 32.9064879 ], [ 77.563724, 32.9123019 ], [ 77.5772457, 32.9144537 ], [ 77.5943623, 32.9259375 ], [ 77.6031094, 32.9429316 ], [ 77.6199197, 32.9437088 ], [ 77.6404739, 32.9471658 ], [ 77.6431579, 32.9465117 ], [ 77.6435809, 32.9492212 ], [ 77.6526891, 32.954882 ], [ 77.6560113, 32.9588758 ], [ 77.6641344, 32.9583053 ], [ 77.674131, 32.9611872 ], [ 77.6740703, 32.9673547 ], [ 77.67873, 32.9695844 ], [ 77.6820174, 32.9747676 ], [ 77.6807233, 32.9837941 ], [ 77.6824919, 32.988802 ], [ 77.6895207, 32.9880231 ], [ 77.6949254, 32.9833991 ], [ 77.6977813, 32.9827122 ], [ 77.6975004, 32.9793761 ], [ 77.7131495, 32.9824632 ], [ 77.7141008, 32.9763266 ], [ 77.7195697, 32.9686627 ], [ 77.724935, 32.9693168 ], [ 77.7309528, 32.9745505 ], [ 77.7328162, 32.9717808 ], [ 77.741012, 32.9690323 ], [ 77.744495, 32.9619959 ], [ 77.7497693, 32.9577315 ], [ 77.7509119, 32.9545634 ], [ 77.7635359, 32.9490507 ], [ 77.7665135, 32.9462889 ], [ 77.764745, 32.9435827 ], [ 77.7657988, 32.9415397 ], [ 77.7718263, 32.938016 ], [ 77.777453, 32.9317736 ], [ 77.7856878, 32.926397 ], [ 77.7875952, 32.9234736 ], [ 77.7945572, 32.9199912 ], [ 77.7997339, 32.9124415 ], [ 77.810631, 32.9070261 ], [ 77.8117548, 32.9045393 ], [ 77.810692, 32.9001636 ], [ 77.8066725, 32.8955565 ], [ 77.802461, 32.8933294 ], [ 77.7932686, 32.8930979 ], [ 77.7894661, 32.8906088 ], [ 77.7867758, 32.8852366 ], [ 77.7839816, 32.8828509 ], [ 77.780964, 32.8657875 ], [ 77.791862, 32.8559288 ], [ 77.7976577, 32.8562906 ], [ 77.8054942, 32.8498849 ], [ 77.8132483, 32.8496926 ], [ 77.815928, 32.8483025 ], [ 77.8261238, 32.8361938 ], [ 77.8324433, 32.8362672 ], [ 77.8353226, 32.8406738 ], [ 77.8390127, 32.8420147 ], [ 77.8468673, 32.8389826 ], [ 77.8553962, 32.8323418 ], [ 77.8691933, 32.8270266 ], [ 77.8712735, 32.8224799 ], [ 77.8785079, 32.8191761 ], [ 77.8820882, 32.8103572 ], [ 77.8811024, 32.8041319 ], [ 77.8879455, 32.7986863 ], [ 77.884191, 32.787548 ], [ 77.8918311, 32.7828684 ], [ 77.8945636, 32.7782612 ], [ 77.9036841, 32.7718831 ], [ 77.9162445, 32.7738406 ], [ 77.9207142, 32.7719918 ], [ 77.9257195, 32.7719966 ], [ 77.9272267, 32.7657224 ], [ 77.932929, 32.761293 ], [ 77.934132, 32.7564999 ], [ 77.9330846, 32.7517281 ], [ 77.9314327, 32.7504821 ], [ 77.932908, 32.7465499 ], [ 77.9292563, 32.7425254 ], [ 77.9306559, 32.7369612 ], [ 77.9270281, 32.7364759 ], [ 77.9262963, 32.7348215 ], [ 77.9316127, 32.7317128 ], [ 77.9343879, 32.7258593 ], [ 77.9280277, 32.7219983 ], [ 77.9248514, 32.7172295 ], [ 77.9245548, 32.7112738 ], [ 77.9216254, 32.7084391 ], [ 77.9228243, 32.7064323 ], [ 77.921548, 32.703164 ], [ 77.9224577, 32.6990518 ], [ 77.9182918, 32.696267 ], [ 77.9192348, 32.6946481 ], [ 77.9186196, 32.6905409 ], [ 77.9266467, 32.6862817 ], [ 77.9310585, 32.6820102 ], [ 77.9345712, 32.6811384 ], [ 77.9409628, 32.6734028 ], [ 77.942796, 32.6655929 ], [ 77.9474402, 32.6608787 ], [ 77.9551182, 32.6581869 ], [ 77.9658518, 32.6575663 ], [ 77.9709071, 32.6549656 ], [ 77.9722692, 32.6529221 ], [ 77.9705567, 32.6463589 ], [ 77.9738712, 32.6461309 ], [ 77.979665, 32.6424516 ], [ 77.984657, 32.641496 ], [ 77.987565, 32.6361371 ], [ 77.9917006, 32.6325354 ], [ 77.9915064, 32.6306375 ], [ 77.9962272, 32.6268321 ], [ 78.0032931, 32.6245693 ], [ 78.0118597, 32.6249875 ], [ 78.0128227, 32.6218098 ], [ 78.0158887, 32.6196077 ], [ 78.0290329, 32.6235049 ], [ 78.0251609, 32.6272305 ], [ 78.0334499, 32.6338149 ], [ 78.0340169, 32.6369308 ], [ 78.0427634, 32.6403228 ], [ 78.043124, 32.6421897 ], [ 78.0470167, 32.6453075 ], [ 78.0493169, 32.6411971 ], [ 78.0563932, 32.6346815 ], [ 78.0608803, 32.626424 ], [ 78.0678758, 32.6266258 ], [ 78.0747092, 32.6309435 ], [ 78.081345, 32.6262208 ], [ 78.087526, 32.6246537 ], [ 78.091707, 32.6285144 ], [ 78.0988567, 32.6303645 ], [ 78.0992013, 32.6364423 ], [ 78.0959218, 32.6443993 ], [ 78.0926006, 32.6478432 ], [ 78.1104885, 32.66277 ], [ 78.1167569, 32.6602683 ], [ 78.1206211, 32.6607283 ], [ 78.1270968, 32.6522295 ], [ 78.1366421, 32.6544743 ], [ 78.1471946, 32.6539633 ], [ 78.1485457, 32.6641121 ], [ 78.1478762, 32.6718715 ], [ 78.1423823, 32.6818274 ], [ 78.1497287, 32.6817495 ], [ 78.1583608, 32.6839883 ], [ 78.160157, 32.6828291 ], [ 78.1654831, 32.6831114 ], [ 78.1711542, 32.6804674 ], [ 78.1757606, 32.6810111 ], [ 78.1868772, 32.6749871 ], [ 78.1941415, 32.6728777 ], [ 78.1969169, 32.6705182 ], [ 78.2012932, 32.6704344 ], [ 78.2039395, 32.6670557 ], [ 78.2189526, 32.6646287 ], [ 78.2322279, 32.6717056 ], [ 78.2459009, 32.6716029 ], [ 78.2506886, 32.6833982 ], [ 78.2544074, 32.6891773 ], [ 78.2537959, 32.6920172 ], [ 78.2556899, 32.6968187 ], [ 78.2605375, 32.7028984 ], [ 78.2684903, 32.7011018 ], [ 78.2739118, 32.7025309 ], [ 78.29318, 32.7003356 ], [ 78.2946007, 32.7036279 ], [ 78.3017939, 32.7041101 ], [ 78.306015, 32.7071197 ], [ 78.3068498, 32.7104295 ], [ 78.3147272, 32.7173903 ], [ 78.3139036, 32.7208119 ], [ 78.3116141, 32.7226953 ], [ 78.3116341, 32.7245845 ], [ 78.3058517, 32.732476 ], [ 78.3098824, 32.7351021 ], [ 78.3128505, 32.739779 ], [ 78.3332618, 32.7497061 ], [ 78.3570503, 32.7576963 ], [ 78.3618529, 32.7541125 ], [ 78.3649049, 32.7533418 ], [ 78.3726467, 32.7554161 ], [ 78.3767818, 32.7541132 ], [ 78.3880027, 32.7566913 ], [ 78.3859635, 32.7496494 ], [ 78.3865605, 32.7452308 ], [ 78.3894352, 32.7406904 ], [ 78.3846596, 32.7317007 ], [ 78.3853729, 32.7195636 ], [ 78.3876979, 32.7167184 ], [ 78.3888651, 32.71184 ], [ 78.3969861, 32.7075736 ], [ 78.3972078, 32.6985023 ], [ 78.4007365, 32.6942004 ], [ 78.3977015, 32.6900125 ], [ 78.3916758, 32.6853741 ], [ 78.3871375, 32.6772546 ], [ 78.3865069, 32.6646802 ], [ 78.3814156, 32.6541303 ], [ 78.3877458, 32.645135 ], [ 78.387857, 32.6407796 ], [ 78.3916125, 32.63343 ], [ 78.4013458, 32.628311 ], [ 78.4083783, 32.627101 ], [ 78.4096609, 32.623133 ], [ 78.4036287, 32.6196674 ], [ 78.4023067, 32.6170707 ], [ 78.3975282, 32.6176082 ], [ 78.3907939, 32.6148815 ], [ 78.3895997, 32.6099897 ], [ 78.3841395, 32.6089353 ], [ 78.3796059, 32.6045486 ], [ 78.3785883, 32.5979434 ], [ 78.3743326, 32.5973438 ], [ 78.3661679, 32.5936645 ], [ 78.3628982, 32.5896561 ], [ 78.3588132, 32.5902552 ], [ 78.3505639, 32.5889599 ], [ 78.3483392, 32.5841848 ], [ 78.3440638, 32.5809601 ], [ 78.3432768, 32.5780789 ], [ 78.3389046, 32.5785196 ], [ 78.3314931, 32.5766191 ], [ 78.3208355, 32.5713534 ], [ 78.313555, 32.5659126 ], [ 78.313094, 32.5626029 ], [ 78.3144535, 32.5599074 ], [ 78.3124468, 32.5514706 ], [ 78.3154983, 32.5496687 ], [ 78.3129675, 32.5451136 ], [ 78.3090405, 32.5431007 ], [ 78.306974, 32.5375449 ], [ 78.3086593, 32.5255481 ], [ 78.3045464, 32.5174257 ], [ 78.3066955, 32.5115023 ], [ 78.3011251, 32.5038659 ], [ 78.295402, 32.501572 ], [ 78.2925153, 32.4989671 ], [ 78.2926405, 32.489837 ], [ 78.2899478, 32.485137 ], [ 78.2857533, 32.4823883 ], [ 78.289533, 32.479343 ], [ 78.2912707, 32.4753178 ], [ 78.2856576, 32.4715536 ], [ 78.2847297, 32.4685366 ], [ 78.2871791, 32.4656347 ], [ 78.2873731, 32.4629883 ], [ 78.2894731, 32.4637426 ], [ 78.2978454, 32.4623368 ], [ 78.2982851, 32.4580086 ], [ 78.3001911, 32.4554758 ], [ 78.3074098, 32.4520892 ], [ 78.3114394, 32.446329 ], [ 78.3291316, 32.4433654 ], [ 78.3327087, 32.4460899 ], [ 78.3344614, 32.4506624 ], [ 78.3284402, 32.4540329 ], [ 78.3257517, 32.4596363 ], [ 78.32844, 32.4650117 ], [ 78.3405455, 32.4627296 ], [ 78.3489745, 32.4643279 ], [ 78.3531429, 32.4699374 ], [ 78.3499773, 32.4733365 ], [ 78.3497103, 32.477462 ], [ 78.3637789, 32.4822703 ], [ 78.3665394, 32.4854356 ], [ 78.3676133, 32.4937273 ], [ 78.3651389, 32.4993992 ], [ 78.3785573, 32.506448 ], [ 78.3860127, 32.5130123 ], [ 78.3941919, 32.5147967 ], [ 78.3989402, 32.5209007 ], [ 78.3995194, 32.5246048 ], [ 78.4098745, 32.5240071 ], [ 78.4174964, 32.5193137 ], [ 78.4253026, 32.5089104 ], [ 78.428627, 32.5073617 ], [ 78.4349167, 32.5098075 ], [ 78.442995, 32.5104076 ], [ 78.4612481, 32.503797 ], [ 78.4644817, 32.4971652 ], [ 78.4668776, 32.4876341 ], [ 78.4672419, 32.4778484 ], [ 78.4620988, 32.4723397 ], [ 78.4600269, 32.4674228 ], [ 78.4608795, 32.4618379 ], [ 78.4655492, 32.4546618 ], [ 78.4758629, 32.4487106 ], [ 78.4897536, 32.4348243 ], [ 78.495765, 32.4220204 ], [ 78.5029979, 32.4197177 ], [ 78.5228022, 32.4222979 ], [ 78.5284997, 32.4196984 ], [ 78.5335055, 32.4154602 ], [ 78.5334117, 32.410378 ], [ 78.5217484, 32.3918462 ], [ 78.5147895, 32.3750396 ], [ 78.5057932, 32.366463 ], [ 78.4967436, 32.3617077 ], [ 78.4883918, 32.3543485 ], [ 78.4847878, 32.3491363 ], [ 78.4836719, 32.3352325 ], [ 78.4834114, 32.2813862 ], [ 78.4799707, 32.2689496 ], [ 78.4737597, 32.2584417 ], [ 78.4634982, 32.2474242 ], [ 78.4608399, 32.2417085 ], [ 78.4631653, 32.2402415 ], [ 78.4962807, 32.2374664 ], [ 78.5458875, 32.247715 ], [ 78.5594784, 32.2486892 ], [ 78.573468, 32.2445378 ], [ 78.5879524, 32.2361009 ], [ 78.608415, 32.2190949 ], [ 78.6146913, 32.2088053 ], [ 78.6125693, 32.1949864 ], [ 78.6144483, 32.181252 ], [ 78.6137578, 32.1753716 ], [ 78.6078827, 32.1678105 ], [ 78.5962324, 32.1577696 ], [ 78.5967768, 32.1539055 ], [ 78.5997898, 32.149832 ], [ 78.6113932, 32.1424837 ], [ 78.6148008, 32.1332856 ], [ 78.6140127, 32.122323 ], [ 78.6176658, 32.115225 ], [ 78.6212194, 32.111529 ], [ 78.6566032, 32.1114839 ], [ 78.6659262, 32.1017789 ], [ 78.673961, 32.0853953 ], [ 78.6802698, 32.0769381 ], [ 78.6691279, 32.0704975 ], [ 78.6564997, 32.0741978 ], [ 78.6524812, 32.0705758 ], [ 78.6514287, 32.0643278 ], [ 78.6462408, 32.0608707 ], [ 78.6395025, 32.0604747 ], [ 78.628718, 32.0671342 ], [ 78.6249305, 32.063025 ], [ 78.6240235, 32.0575918 ], [ 78.6204485, 32.0530261 ], [ 78.6133303, 32.0492152 ], [ 78.6076174, 32.0492336 ], [ 78.605159, 32.0506534 ], [ 78.6069169, 32.0567084 ], [ 78.6031689, 32.0634462 ], [ 78.5966779, 32.0671889 ], [ 78.5929135, 32.0677544 ], [ 78.586964, 32.0623296 ], [ 78.5845378, 32.0621657 ], [ 78.5801952, 32.0644441 ], [ 78.5695086, 32.0597409 ], [ 78.5624209, 32.0606157 ], [ 78.5534978, 32.0598135 ], [ 78.5496795, 32.0620415 ], [ 78.5362101, 32.0563423 ], [ 78.5297224, 32.0572002 ], [ 78.5186411, 32.0487771 ], [ 78.5116219, 32.0491194 ], [ 78.5086434, 32.0474162 ], [ 78.5026027, 32.0484257 ], [ 78.4973168, 32.0526273 ], [ 78.4878285, 32.0515492 ], [ 78.4852388, 32.0481676 ], [ 78.4825914, 32.0482692 ], [ 78.4816455, 32.0529871 ], [ 78.4751254, 32.0538476 ], [ 78.4734581, 32.0575233 ], [ 78.4686339, 32.0588327 ], [ 78.4662242, 32.0608159 ], [ 78.4541599, 32.0613641 ], [ 78.4503228, 32.0596092 ], [ 78.4509717, 32.053683 ], [ 78.4471777, 32.0497879 ], [ 78.4446147, 32.0427029 ], [ 78.4459256, 32.0381589 ], [ 78.4435224, 32.0336964 ], [ 78.4434576, 32.0289968 ], [ 78.4376118, 32.0190622 ], [ 78.4380638, 32.0097613 ], [ 78.4415029, 31.9995549 ], [ 78.4403547, 31.9854405 ], [ 78.4382681, 31.9811175 ], [ 78.433195, 31.9776996 ], [ 78.4363123, 31.9702893 ], [ 78.443502, 31.9685866 ], [ 78.4471667, 31.9655672 ], [ 78.4537354, 31.9630868 ], [ 78.4598846, 31.957708 ], [ 78.4562908, 31.954538 ], [ 78.4561464, 31.9511467 ], [ 78.4534877, 31.9489391 ], [ 78.4575512, 31.9418127 ], [ 78.4563617, 31.9376831 ], [ 78.4463453, 31.9350974 ], [ 78.4399595, 31.9364505 ], [ 78.4351232, 31.9345271 ], [ 78.4259042, 31.9371036 ], [ 78.4208698, 31.934499 ], [ 78.4103152, 31.9433326 ], [ 78.4085662, 31.9475902 ], [ 78.3999005, 31.9537004 ], [ 78.398369, 31.9543218 ], [ 78.3928885, 31.9527944 ], [ 78.3810246, 31.9550127 ], [ 78.37194, 31.9586448 ], [ 78.3653044, 31.9591605 ], [ 78.3671861, 31.9553025 ], [ 78.3662682, 31.9509957 ], [ 78.3534414, 31.9383298 ], [ 78.3462121, 31.9368647 ], [ 78.3418292, 31.9310588 ], [ 78.3353535, 31.9341239 ], [ 78.3236949, 31.934172 ], [ 78.3101741, 31.9370831 ], [ 78.3025706, 31.9333055 ], [ 78.3016211, 31.925608 ], [ 78.29925, 31.9249839 ], [ 78.2886227, 31.9264013 ], [ 78.2691156, 31.9341874 ], [ 78.2638189, 31.931619 ], [ 78.255173, 31.9320258 ], [ 78.2492162, 31.9337122 ], [ 78.2461533, 31.9325618 ], [ 78.2376691, 31.9328347 ], [ 78.2246169, 31.9311817 ], [ 78.2152966, 31.9333382 ], [ 78.2022907, 31.9320005 ], [ 78.1984596, 31.9279169 ], [ 78.1945289, 31.9259556 ], [ 78.1950425, 31.9218964 ], [ 78.1936633, 31.917174 ], [ 78.1822103, 31.9151817 ], [ 78.1822916, 31.9115221 ], [ 78.186338, 31.9034521 ], [ 78.183282, 31.8955384 ], [ 78.1859478, 31.8923724 ], [ 78.1827969, 31.8887509 ], [ 78.182836, 31.8869888 ], [ 78.1842403, 31.8838497 ], [ 78.1867496, 31.8824868 ], [ 78.1864042, 31.8765601 ], [ 78.1896889, 31.8717314 ], [ 78.1815211, 31.8650907 ], [ 78.1748875, 31.8657066 ], [ 78.1718807, 31.8604144 ], [ 78.1660005, 31.8604998 ], [ 78.1626947, 31.8591352 ], [ 78.1538563, 31.8612512 ], [ 78.1479114, 31.867208 ], [ 78.1401095, 31.8649588 ], [ 78.126811, 31.8675425 ], [ 78.1220678, 31.866515 ], [ 78.1169376, 31.8615484 ], [ 78.1081397, 31.8571987 ], [ 78.1043417, 31.8565479 ], [ 78.0985874, 31.8580795 ], [ 78.0903146, 31.8562689 ], [ 78.0942005, 31.8507738 ], [ 78.0877353, 31.8486768 ], [ 78.0836918, 31.8449024 ], [ 78.0870245, 31.841438 ], [ 78.0930355, 31.8397002 ], [ 78.0972881, 31.836179 ], [ 78.0975993, 31.83415 ], [ 78.0960155, 31.8316372 ], [ 78.0918717, 31.8299406 ], [ 78.0961664, 31.8227341 ], [ 78.0934911, 31.8193441 ], [ 78.0932585, 31.8156332 ], [ 78.0908211, 31.8134225 ], [ 78.0896392, 31.80956 ], [ 78.0856716, 31.8071428 ], [ 78.0846726, 31.7999377 ], [ 78.0828821, 31.7972403 ], [ 78.0829249, 31.790776 ], [ 78.0846854, 31.7878668 ], [ 78.0817705, 31.7857382 ], [ 78.0741266, 31.7821284 ], [ 78.0575066, 31.7822097 ], [ 78.0540891, 31.7766811 ], [ 78.0500834, 31.7759802 ], [ 78.0497243, 31.7732161 ], [ 78.0442637, 31.7690993 ], [ 78.0399541, 31.7610231 ], [ 78.0368926, 31.7606996 ], [ 78.0323025, 31.7578632 ], [ 78.0283938, 31.7575703 ], [ 78.0222101, 31.7640205 ], [ 78.0172728, 31.7647044 ], [ 78.0154282, 31.7708413 ], [ 78.0113945, 31.7738722 ], [ 78.0033111, 31.7710654 ], [ 77.9979669, 31.7799705 ], [ 77.9906975, 31.7785335 ], [ 77.9872398, 31.7815028 ], [ 77.9832948, 31.7804848 ], [ 77.9765406, 31.7818593 ], [ 77.9707603, 31.7801309 ], [ 77.9668443, 31.7823231 ], [ 77.9593147, 31.7829148 ], [ 77.9534472, 31.7870166 ], [ 77.9514897, 31.7869823 ], [ 77.9468253, 31.7828764 ], [ 77.945692, 31.7684333 ], [ 77.9473622, 31.7628109 ], [ 77.9401035, 31.7566241 ], [ 77.941578, 31.7525355 ], [ 77.9387513, 31.749876 ], [ 77.9361395, 31.7476917 ], [ 77.9259851, 31.747512 ], [ 77.92226, 31.7483955 ], [ 77.9166683, 31.7520491 ], [ 77.9125429, 31.7519757 ], [ 77.9091989, 31.7502431 ], [ 77.8999662, 31.7534694 ], [ 77.8980644, 31.7562719 ], [ 77.8986748, 31.7596742 ], [ 77.896753, 31.7615056 ], [ 77.8940984, 31.761865 ], [ 77.8796092, 31.772185 ], [ 77.8725384, 31.7756295 ], [ 77.8672409, 31.7843562 ], [ 77.8657368, 31.7917147 ], [ 77.8547805, 31.7959251 ], [ 77.8477361, 31.8025058 ], [ 77.8490216, 31.8096848 ], [ 77.8483123, 31.8170077 ], [ 77.8448728, 31.8249665 ], [ 77.8493811, 31.8327867 ], [ 77.8446916, 31.8353452 ], [ 77.8437893, 31.844185 ], [ 77.8417019, 31.850003 ], [ 77.838145, 31.8542521 ], [ 77.8417642, 31.8611384 ], [ 77.845681, 31.8654748 ], [ 77.8463801, 31.8702813 ], [ 77.8500672, 31.8747431 ], [ 77.8524712, 31.8764043 ], [ 77.8576942, 31.8771853 ], [ 77.8648182, 31.8811861 ], [ 77.8687271, 31.8853222 ], [ 77.8593863, 31.8874609 ], [ 77.8513967, 31.8913389 ], [ 77.8471551, 31.8914879 ], [ 77.8431161, 31.8941264 ], [ 77.8288162, 31.8982047 ], [ 77.8243169, 31.8959527 ], [ 77.80489, 31.8995282 ], [ 77.8023153, 31.9028706 ], [ 77.7907645, 31.9091658 ], [ 77.7887384, 31.915908 ], [ 77.7817855, 31.9205248 ], [ 77.7820222, 31.9299302 ], [ 77.7779366, 31.9342835 ], [ 77.772924, 31.9355009 ], [ 77.7711179, 31.939806 ], [ 77.7673485, 31.9421311 ], [ 77.7666937, 31.9478283 ], [ 77.7727043, 31.9519401 ], [ 77.7727421, 31.9551954 ], [ 77.7796965, 31.961993 ], [ 77.7815623, 31.9662019 ], [ 77.7807261, 31.9699134 ], [ 77.7834205, 31.9744824 ], [ 77.7889332, 31.9770004 ], [ 77.7941173, 31.9812515 ], [ 77.7981641, 31.9871192 ], [ 77.793989, 31.9927885 ], [ 77.7855698, 31.9965189 ], [ 77.7822229, 32.0009305 ], [ 77.7729927, 32.0052326 ], [ 77.77261, 32.0063054 ], [ 77.7783539, 32.0115728 ], [ 77.7864318, 32.0136512 ], [ 77.790642, 32.0182909 ], [ 77.7877853, 32.0239882 ], [ 77.7792448, 32.0323697 ], [ 77.7781896, 32.0361828 ], [ 77.7740642, 32.035843 ], [ 77.7640966, 32.0418926 ], [ 77.7620161, 32.0459807 ], [ 77.7646833, 32.0522095 ], [ 77.764722, 32.0592681 ], [ 77.7567601, 32.0672379 ], [ 77.7564969, 32.0707178 ], [ 77.7541413, 32.0727884 ], [ 77.7552553, 32.0745845 ], [ 77.7532422, 32.0781507 ], [ 77.7465659, 32.0819109 ], [ 77.7432783, 32.0900264 ], [ 77.7285259, 32.0900651 ], [ 77.718238, 32.0918586 ], [ 77.7050187, 32.1022245 ], [ 77.6967149, 32.101163 ], [ 77.6935258, 32.0993404 ], [ 77.6884018, 32.1004624 ], [ 77.6837884, 32.1043497 ], [ 77.6773363, 32.1135323 ], [ 77.6719838, 32.1152366 ], [ 77.6701379, 32.1208028 ], [ 77.6672177, 32.120837 ], [ 77.6619456, 32.1234912 ], [ 77.6618049, 32.1292969 ], [ 77.658708, 32.1319324 ], [ 77.6602252, 32.1362871 ], [ 77.6546279, 32.1391606 ], [ 77.6525841, 32.1421476 ], [ 77.6438919, 32.1455933 ], [ 77.6408878, 32.1487423 ], [ 77.6320723, 32.1488423 ], [ 77.6261567, 32.1575806 ], [ 77.6194843, 32.1549663 ], [ 77.6146232, 32.1580333 ], [ 77.6082077, 32.1596695 ], [ 77.6071707, 32.1626755 ], [ 77.6028001, 32.1652549 ], [ 77.6016931, 32.1708341 ], [ 77.5844466, 32.1743343 ], [ 77.5848982, 32.1798764 ], [ 77.5836721, 32.18132 ], [ 77.572083, 32.1837109 ], [ 77.5701735, 32.1855701 ], [ 77.5699585, 32.1895405 ], [ 77.5654712, 32.1943746 ], [ 77.5663878, 32.2035613 ], [ 77.5469182, 32.2181236 ], [ 77.5329991, 32.2085871 ], [ 77.5328838, 32.2052724 ], [ 77.5363323, 32.2013823 ], [ 77.5315362, 32.1942858 ], [ 77.5148176, 32.1976989 ], [ 77.5146024, 32.2035209 ], [ 77.5115159, 32.2037297 ], [ 77.5096609, 32.2073958 ], [ 77.5034121, 32.2105216 ], [ 77.5022229, 32.2150591 ], [ 77.497503, 32.2166799 ], [ 77.4935262, 32.2164188 ], [ 77.4846243, 32.2212966 ], [ 77.4793417, 32.2202408 ], [ 77.4688945, 32.2233701 ], [ 77.4661179, 32.222392 ], [ 77.4679383, 32.2196202 ], [ 77.467826, 32.2141802 ], [ 77.4674573, 32.2121855 ], [ 77.4644652, 32.2097388 ], [ 77.468148, 32.2046571 ], [ 77.4612251, 32.2015348 ], [ 77.4607035, 32.2001124 ], [ 77.464655, 32.192933 ], [ 77.4414298, 32.1878951 ], [ 77.4354208, 32.1900297 ], [ 77.4278214, 32.1883372 ], [ 77.4236401, 32.1896962 ], [ 77.4209071, 32.1886912 ], [ 77.418335, 32.1931998 ], [ 77.4164981, 32.2016982 ], [ 77.413796, 32.2014615 ], [ 77.408942, 32.2040256 ], [ 77.4078452, 32.207074 ], [ 77.403839, 32.2097007 ], [ 77.397331, 32.2125009 ], [ 77.3890422, 32.2088955 ], [ 77.3810592, 32.2112579 ], [ 77.3735026, 32.2190485 ], [ 77.3692102, 32.2186875 ], [ 77.36504, 32.2232517 ], [ 77.3616185, 32.2239927 ], [ 77.3540366, 32.2289364 ], [ 77.3535196, 32.2320869 ], [ 77.3475291, 32.2407219 ], [ 77.3476729, 32.2430733 ], [ 77.3448802, 32.2459046 ], [ 77.344629, 32.250962 ], [ 77.3474191, 32.2520026 ], [ 77.3498133, 32.2680014 ], [ 77.3465711, 32.2698296 ], [ 77.345127, 32.2737729 ], [ 77.3462245, 32.2780409 ], [ 77.3441074, 32.2849954 ], [ 77.3395939, 32.2884672 ], [ 77.3406478, 32.2960304 ], [ 77.3343636, 32.3036639 ], [ 77.3296618, 32.3026611 ], [ 77.3278169, 32.3039314 ], [ 77.3258697, 32.3086763 ], [ 77.3283098, 32.3117856 ], [ 77.3277651, 32.3147219 ], [ 77.3220492, 32.317445 ], [ 77.3212281, 32.3200464 ], [ 77.3164856, 32.3222031 ], [ 77.3106001, 32.3270443 ], [ 77.3079356, 32.3326312 ], [ 77.3002598, 32.3314739 ], [ 77.2958286, 32.3338624 ], [ 77.2912225, 32.3385496 ], [ 77.2843731, 32.3399828 ], [ 77.2775146, 32.3470592 ], [ 77.2758517, 32.3546534 ], [ 77.2612911, 32.3595764 ], [ 77.2506999, 32.3686474 ], [ 77.2452148, 32.3702567 ], [ 77.2426624, 32.3753701 ], [ 77.2385673, 32.37591 ], [ 77.2357948, 32.3742424 ], [ 77.2318336, 32.3749027 ], [ 77.2290707, 32.3732786 ], [ 77.2271666, 32.3701688 ], [ 77.2209603, 32.3763615 ], [ 77.2053845, 32.384585 ], [ 77.2001369, 32.385608 ], [ 77.1950843, 32.3983083 ], [ 77.1847863, 32.3965069 ], [ 77.1796114, 32.4025562 ], [ 77.1697719, 32.4072996 ], [ 77.1686219, 32.4090507 ], [ 77.1519527, 32.4145959 ], [ 77.1458786, 32.4127052 ], [ 77.1420431, 32.4076991 ], [ 77.123729, 32.4029105 ], [ 77.1099905, 32.3964622 ], [ 77.1016779, 32.395506 ], [ 77.0973228, 32.3931108 ], [ 77.088651, 32.3941453 ], [ 77.0864524, 32.3957475 ], [ 77.0819927, 32.3946683 ], [ 77.0745565, 32.3992945 ], [ 77.0734796, 32.3985458 ], [ 77.0758491, 32.4007411 ], [ 77.0781882, 32.4095117 ], [ 77.0777035, 32.4181227 ], [ 77.0648307, 32.4179654 ], [ 77.0622933, 32.4224668 ], [ 77.0620308, 32.4257109 ], [ 77.0548726, 32.4332665 ], [ 77.0414118, 32.4247881 ], [ 77.036781, 32.4231471 ], [ 77.0308868, 32.4244111 ], [ 77.0149765, 32.4177247 ], [ 77.000501, 32.4144557 ], [ 76.9977933, 32.4109621 ], [ 76.9800506, 32.4034621 ], [ 76.9692717, 32.401134 ], [ 76.9472459, 32.4026945 ], [ 76.9441757, 32.4070916 ], [ 76.9444996, 32.4135214 ], [ 76.94858, 32.4221352 ], [ 76.9470559, 32.4264352 ], [ 76.942354, 32.4253767 ], [ 76.9297484, 32.4170444 ], [ 76.9212806, 32.4156255 ], [ 76.9084034, 32.4172164 ], [ 76.9086666, 32.4205571 ], [ 76.9133963, 32.4251619 ], [ 76.9169097, 32.435249 ], [ 76.9076031, 32.4398584 ], [ 76.902339, 32.4461433 ], [ 76.8989286, 32.4478678 ], [ 76.9022546, 32.4561675 ], [ 76.9118048, 32.4639488 ], [ 76.9108788, 32.4648074 ], [ 76.903877, 32.4672592 ], [ 76.8642392, 32.4633343 ], [ 76.8625395, 32.466408 ], [ 76.8619869, 32.4733909 ], [ 76.8570517, 32.4792755 ], [ 76.857827, 32.4911194 ], [ 76.859945, 32.49785 ], [ 76.8628043, 32.5015292 ], [ 76.8663614, 32.5050445 ], [ 76.8724379, 32.5080784 ], [ 76.8774391, 32.513027 ], [ 76.8719588, 32.5192594 ], [ 76.8691613, 32.5200951 ], [ 76.8701, 32.525488 ], [ 76.8653536, 32.5335267 ], [ 76.8557676, 32.5303506 ], [ 76.8499418, 32.5261785 ], [ 76.8420406, 32.524259 ], [ 76.8378966, 32.5248496 ], [ 76.8272205, 32.5302781 ], [ 76.8263463, 32.5379167 ], [ 76.8179233, 32.5371693 ], [ 76.8086569, 32.5329553 ], [ 76.8016932, 32.5313356 ], [ 76.7972388, 32.5316261 ], [ 76.7957094, 32.5358761 ], [ 76.7908814, 32.5400005 ], [ 76.7921873, 32.5470271 ], [ 76.7820883, 32.5479086 ], [ 76.7795963, 32.5493456 ], [ 76.770617, 32.5450176 ], [ 76.7651256, 32.5454171 ], [ 76.7625713, 32.5468887 ], [ 76.7609325, 32.5511807 ], [ 76.7542082, 32.5554658 ], [ 76.750903, 32.5559257 ], [ 76.7497526, 32.5548098 ], [ 76.7452515, 32.554948 ], [ 76.7366827, 32.5464505 ], [ 76.7278633, 32.5451734 ], [ 76.7156523, 32.5385501 ], [ 76.7124602, 32.5386098 ], [ 76.7059353, 32.5439531 ], [ 76.6976754, 32.5455522 ], [ 76.6968594, 32.549097 ], [ 76.6985235, 32.5518011 ], [ 76.6953935, 32.5544757 ], [ 76.6955667, 32.5602111 ], [ 76.692969, 32.5613647 ], [ 76.6899074, 32.5651238 ], [ 76.688211, 32.5659292 ], [ 76.6818799, 32.5625158 ], [ 76.6722548, 32.5640498 ], [ 76.6681435, 32.5718886 ], [ 76.6586127, 32.5777407 ], [ 76.6526957, 32.5793063 ], [ 76.6499269, 32.5826007 ], [ 76.6441674, 32.5808078 ], [ 76.6422738, 32.5783866 ], [ 76.6292759, 32.5743579 ], [ 76.6282048, 32.5753712 ], [ 76.626802, 32.574635 ], [ 76.6227684, 32.5786841 ], [ 76.6225048, 32.5816105 ], [ 76.624158, 32.5890979 ], [ 76.6268577, 32.59413 ], [ 76.6261735, 32.5983993 ], [ 76.6320995, 32.6053538 ], [ 76.6235583, 32.6060765 ], [ 76.6120389, 32.6023502 ], [ 76.6023892, 32.6047428 ], [ 76.6006192, 32.6065476 ], [ 76.6008907, 32.6093971 ], [ 76.5982981, 32.6148357 ], [ 76.6029958, 32.6221296 ], [ 76.5961513, 32.6256998 ], [ 76.5920233, 32.6338058 ], [ 76.5923432, 32.6367918 ], [ 76.56338, 32.6460196 ], [ 76.5494356, 32.6564479 ], [ 76.532885, 32.6556446 ], [ 76.5282883, 32.6564819 ], [ 76.5249255, 32.6595076 ], [ 76.5210825, 32.6671155 ], [ 76.5182765, 32.6655002 ], [ 76.5094704, 32.6666598 ], [ 76.5046117, 32.6653335 ], [ 76.4985807, 32.6610908 ], [ 76.4951128, 32.6611998 ], [ 76.4904463, 32.6587154 ], [ 76.4819498, 32.6577465 ], [ 76.4792759, 32.6561016 ], [ 76.4752274, 32.656353 ], [ 76.4668867, 32.6522697 ], [ 76.4604268, 32.6529476 ], [ 76.4408133, 32.6584299 ], [ 76.4401156, 32.6599905 ], [ 76.4458493, 32.6693458 ], [ 76.4441273, 32.6743205 ], [ 76.4343979, 32.6775692 ], [ 76.4302059, 32.6827363 ], [ 76.4260292, 32.6846104 ], [ 76.4229027, 32.6883619 ], [ 76.4240296, 32.6910535 ], [ 76.4301038, 32.696989 ], [ 76.4280297, 32.7011293 ], [ 76.428548, 32.7087216 ], [ 76.4117815, 32.721989 ], [ 76.399477, 32.7285624 ], [ 76.398014, 32.73344 ], [ 76.3988393, 32.7399122 ], [ 76.394078, 32.7430778 ], [ 76.3940774, 32.7516477 ], [ 76.3901733, 32.7589854 ], [ 76.3876191, 32.7715909 ], [ 76.3851433, 32.7735542 ], [ 76.386638, 32.7835164 ], [ 76.383253, 32.7926261 ], [ 76.3776748, 32.7947316 ], [ 76.374306, 32.797708 ], [ 76.3761863, 32.80308 ], [ 76.3732896, 32.8076924 ], [ 76.372916, 32.8133646 ], [ 76.3756762, 32.8166404 ], [ 76.3759827, 32.8198505 ], [ 76.3793673, 32.8221508 ], [ 76.3922815, 32.8252471 ], [ 76.4072797, 32.8397614 ], [ 76.4113029, 32.8407252 ], [ 76.4143069, 32.84324 ], [ 76.4253481, 32.8433611 ], [ 76.4299374, 32.8451878 ], [ 76.4369186, 32.8513697 ], [ 76.4395814, 32.855904 ], [ 76.4415393, 32.8536705 ], [ 76.4430784, 32.8559735 ], [ 76.4446708, 32.8537895 ], [ 76.4531399, 32.8498879 ], [ 76.4668307, 32.8268533 ], [ 76.4740534, 32.8210198 ], [ 76.471926, 32.8145657 ], [ 76.4698401, 32.8130259 ], [ 76.4697782, 32.8063382 ], [ 76.4716301, 32.805066 ], [ 76.491239, 32.8020211 ], [ 76.5062474, 32.8046682 ], [ 76.5122378, 32.804203 ], [ 76.5145015, 32.8067319 ], [ 76.521825, 32.8068748 ], [ 76.53324, 32.8141624 ], [ 76.5394261, 32.8158556 ], [ 76.5493602, 32.8157963 ], [ 76.560884, 32.8220002 ], [ 76.5736849, 32.823907 ], [ 76.5816472, 32.8326784 ], [ 76.5864851, 32.8407381 ], [ 76.5901072, 32.8424989 ], [ 76.5962798, 32.8422372 ], [ 76.5988326, 32.8434429 ], [ 76.6068788, 32.8514481 ], [ 76.6081471, 32.8496216 ], [ 76.6102185, 32.851587 ], [ 76.6125849, 32.8485491 ], [ 76.6156111, 32.8476864 ], [ 76.6210861, 32.84996 ], [ 76.6289856, 32.8501149 ], [ 76.6456379, 32.8539798 ], [ 76.6498258, 32.8522071 ], [ 76.6520974, 32.8475121 ], [ 76.6572303, 32.843019 ], [ 76.6649143, 32.8460598 ], [ 76.6747911, 32.8461719 ], [ 76.6809111, 32.8513748 ], [ 76.6870526, 32.8620785 ], [ 76.6912229, 32.8650229 ], [ 76.6929911, 32.8725061 ], [ 76.6977584, 32.8767275 ], [ 76.6997661, 32.8804292 ], [ 76.7071779, 32.8839044 ], [ 76.7071795, 32.8945891 ], [ 76.7110109, 32.9042414 ], [ 76.7099228, 32.9093987 ], [ 76.7129021, 32.9174516 ], [ 76.7209415, 32.9198594 ], [ 76.7226714, 32.9254468 ], [ 76.7280465, 32.9291857 ], [ 76.7349114, 32.9300512 ], [ 76.755403, 32.9247646 ], [ 76.7692561, 32.935336 ], [ 76.7698034, 32.9427418 ], [ 76.77629, 32.9468666 ], [ 76.7816317, 32.953217 ], [ 76.7815796, 32.9578583 ], [ 76.778752, 32.9608093 ], [ 76.7819053, 32.9686385 ], [ 76.7780578, 32.9716998 ], [ 76.7779102, 32.9744455 ], [ 76.7755506, 32.9777683 ], [ 76.775938, 32.9820594 ], [ 76.7698143, 32.984434 ], [ 76.7692011, 32.9867175 ], [ 76.7664461, 32.989084 ], [ 76.7659467, 32.9927224 ], [ 76.767064, 32.9991042 ], [ 76.7720946, 33.0021113 ], [ 76.7741272, 33.01325 ], [ 76.7764148, 33.0170221 ], [ 76.7666109, 33.0169394 ], [ 76.7615332, 33.0183926 ], [ 76.7606128, 33.0233723 ], [ 76.7615405, 33.0274958 ], [ 76.7598004, 33.0345282 ], [ 76.755756, 33.0354657 ], [ 76.751745, 33.0416311 ], [ 76.7539575, 33.047273 ], [ 76.7512869, 33.0486946 ], [ 76.7460239, 33.0554598 ], [ 76.7394341, 33.0773317 ], [ 76.7363091, 33.0825716 ], [ 76.738197, 33.0914039 ], [ 76.7358393, 33.103826 ], [ 76.7396549, 33.1141918 ], [ 76.7392017, 33.1195418 ], [ 76.7414329, 33.1268117 ], [ 76.7423145, 33.1285832 ], [ 76.7463159, 33.1305284 ], [ 76.7487859, 33.1395987 ], [ 76.7486468, 33.1513528 ], [ 76.7430498, 33.1568014 ], [ 76.7455477, 33.1635294 ], [ 76.7457492, 33.1685343 ], [ 76.7494254, 33.1768223 ], [ 76.7483018, 33.1793599 ], [ 76.7469508, 33.1791905 ], [ 76.7467569, 33.1830761 ], [ 76.7501819, 33.1880615 ], [ 76.750086, 33.1914922 ], [ 76.7578073, 33.1953947 ], [ 76.7638533, 33.2058865 ], [ 76.7662373, 33.2078947 ], [ 76.766593, 33.2108434 ], [ 76.7709452, 33.2130381 ], [ 76.7716145, 33.2185567 ], [ 76.7732324, 33.2202622 ], [ 76.7758389, 33.2204897 ], [ 76.7773134, 33.2257835 ], [ 76.7769069, 33.22957 ], [ 76.7794134, 33.2381151 ], [ 76.7780166, 33.2400435 ], [ 76.773116, 33.242154 ], [ 76.7706925, 33.2494366 ], [ 76.7728846, 33.2521124 ], [ 76.7774273, 33.2537705 ], [ 76.7848377, 33.253465 ], [ 76.7930015, 33.2563649 ], [ 76.799151, 33.2562425 ], [ 76.8025788, 33.2538518 ] ] ] } }
]
}
