{
"type": "FeatureCollection",
"name": "0205",
"crs": { "type": "name", "properties": { "name": "urn:ogc:def:crs:OGC:1.3:CRS84" } },
"features": [
{ "type": "Feature", "properties": { "code": "0205", "name": "Mandi", "type": "district" }, "geometry": { "type": "Polygon", "coordinates": [ [ [ 76.8015204, 32.0730193 ], [ 76.8032362, 32.0655504 ], [ 76.8021553, 32.0633979 ], [ 76.8098707, 32.0606321 ], [ 76.8252437, 32.0484661 ], [ 76.8290526, 32.0472042 ], [ 76.8325778, 32.0476101 ], [ 76.8367248, 32.04367 ], [ 76.8398593, 32.043399 ], [ 76.8420426, 32.0389963 ], [ 76.8507809, 32.0465371 ], [ 76.8557653, 32.0482427 ], [ 76.8574876, 32.0505714 ], [ 76.8651748, 32.0507241 ], [ 76.8690896, 32.0491545 ], [ 76.875298, 32.0543957 ], [ 76.8929464, 32.0575817 ], [ 76.8984503, 32.0599129 ], [ 76.9032062, 32.0589742 ], [ 76.9102195, 32.0613105 ], [ 76.9167343, 32.0590919 ], [ 76.9217273, 32.0591492 ], [ 76.9355187, 32.0621288 ], [ 76.9390555, 32.0537973 ], [ 76.937359, 32.0493505 ], [ 76.9392195, 32.0460327 ], [ 76.9387135, 32.0425559 ], [ 76.9427483, 32.0411916 ], [ 76.9483358, 32.03673 ], [ 76.9484059, 32.0343491 ], [ 76.9500629, 32.0341153 ], [ 76.9545064, 32.0292246 ], [ 76.9594674, 32.0260788 ], [ 76.9707663, 32.0241004 ], [ 76.9738935, 32.0157792 ], [ 76.9780119, 32.0115504 ], [ 76.9782474, 31.9997861 ], [ 76.9739095, 31.9960157 ], [ 76.9742496, 31.9906544 ], [ 76.9760494, 31.9872819 ], [ 76.9743995, 31.9843957 ], [ 76.9745538, 31.9812213 ], [ 76.9784122, 31.9734933 ], [ 76.9854997, 31.9720876 ], [ 76.9890092, 31.9644292 ], [ 76.9967627, 31.9574351 ], [ 77.000254, 31.9502638 ], [ 76.999318, 31.9450736 ], [ 77.0050709, 31.9341253 ], [ 77.0113155, 31.9330696 ], [ 77.0173794, 31.927685 ], [ 77.0216077, 31.9216555 ], [ 77.0245864, 31.9098768 ], [ 77.0252238, 31.9017827 ], [ 77.0367396, 31.8838828 ], [ 77.0368496, 31.881565 ], [ 77.0464539, 31.8753661 ], [ 77.0490936, 31.8706169 ], [ 77.0491186, 31.8679474 ], [ 77.0589146, 31.8593441 ], [ 77.0602274, 31.8549334 ], [ 77.0548819, 31.8480322 ], [ 77.0577598, 31.8377543 ], [ 77.0673132, 31.8349764 ], [ 77.0773033, 31.8372298 ], [ 77.0791533, 31.8324308 ], [ 77.0817866, 31.8297777 ], [ 77.0819637, 31.8269773 ], [ 77.0839343, 31.8276885 ], [ 77.0856807, 31.8314977 ], [ 77.0900409, 31.8341416 ], [ 77.091993, 31.83722 ], [ 77.0976623, 31.8387714 ], [ 77.1027888, 31.8364541 ], [ 77.1135669, 31.8386408 ], [ 77.124852, 31.8363486 ], [ 77.1554151, 31.840089 ], [ 77.1590141, 31.8350206 ], [ 77.1643661, 31.838743 ], [ 77.177836, 31.8415972 ], [ 77.1802645, 31.8381532 ], [ 77.1801659, 31.8363542 ], [ 77.1733862, 31.8264478 ], [ 77.173386, 31.8234806 ], [ 77.1751364, 31.8219045 ], [ 77.1852373, 31.8208621 ], [ 77.1878952, 31.8189778 ], [ 77.1863225, 31.8116255 ], [ 77.1927985, 31.7972989 ], [ 77.1927031, 31.7920908 ], [ 77.196705, 31.7896181 ], [ 77.1960935, 31.7875313 ], [ 77.1973346, 31.7853018 ], [ 77.1936289, 31.7777995 ], [ 77.1939052, 31.7761532 ], [ 77.1989516, 31.7761679 ], [ 77.201785, 31.7707208 ], [ 77.2018333, 31.766279 ], [ 77.2075135, 31.7596096 ], [ 77.2057869, 31.7544808 ], [ 77.2098847, 31.7485985 ], [ 77.2083453, 31.73988 ], [ 77.2135148, 31.7254416 ], [ 77.2156925, 31.7226828 ], [ 77.2210208, 31.7248561 ], [ 77.2336994, 31.7210005 ], [ 77.239886, 31.7163218 ], [ 77.2437236, 31.7112415 ], [ 77.2462123, 31.712815 ], [ 77.248783, 31.7109455 ], [ 77.2513156, 31.7117228 ], [ 77.2534927, 31.7092248 ], [ 77.2572343, 31.709817 ], [ 77.2612788, 31.7056287 ], [ 77.2612821, 31.7030223 ], [ 77.2785281, 31.6936514 ], [ 77.2795843, 31.6906413 ], [ 77.2840283, 31.6865776 ], [ 77.2872791, 31.6855737 ], [ 77.2873575, 31.680239 ], [ 77.2931579, 31.6768122 ], [ 77.2939613, 31.6740911 ], [ 77.2961457, 31.6745326 ], [ 77.2982666, 31.673265 ], [ 77.3026943, 31.6679605 ], [ 77.3026261, 31.6631627 ], [ 77.2997806, 31.6603557 ], [ 77.3004119, 31.656679 ], [ 77.29811, 31.6556473 ], [ 77.29734, 31.652213 ], [ 77.2957658, 31.6512156 ], [ 77.3013245, 31.6438072 ], [ 77.3005589, 31.6417572 ], [ 77.3015134, 31.6370021 ], [ 77.2985639, 31.6327431 ], [ 77.3010853, 31.6317362 ], [ 77.3007409, 31.6295635 ], [ 77.3024677, 31.6289912 ], [ 77.3023983, 31.6270658 ], [ 77.3054499, 31.623911 ], [ 77.3035964, 31.6211602 ], [ 77.3061693, 31.6166943 ], [ 77.3056166, 31.6133717 ], [ 77.3039237, 31.6115995 ], [ 77.3040411, 31.6072787 ], [ 77.3018986, 31.6045652 ], [ 77.3031036, 31.6024429 ], [ 77.3023202, 31.5997301 ], [ 77.2973504, 31.5942944 ], [ 77.3032583, 31.5884183 ], [ 77.3038753, 31.5853955 ], [ 77.3019186, 31.578149 ], [ 77.3034938, 31.5749842 ], [ 77.303318, 31.5646445 ], [ 77.30101, 31.5609658 ], [ 77.3017841, 31.559327 ], [ 77.2998533, 31.556671 ], [ 77.2988851, 31.5519609 ], [ 77.30456, 31.543854 ], [ 77.314523, 31.5372135 ], [ 77.3160242, 31.5327319 ], [ 77.3167913, 31.5291676 ], [ 77.3138737, 31.5225955 ], [ 77.3135546, 31.5168964 ], [ 77.315425, 31.5111377 ], [ 77.3144427, 31.5070365 ], [ 77.3166811, 31.5043976 ], [ 77.3192368, 31.4957137 ], [ 77.3175068, 31.4939307 ], [ 77.3227038, 31.4880642 ], [ 77.3232403, 31.4845754 ], [ 77.3212554, 31.4774604 ], [ 77.3237312, 31.4739376 ], [ 77.3247933, 31.4674404 ], [ 77.3288759, 31.4592872 ], [ 77.3292812, 31.455949 ], [ 77.3372815, 31.448585 ], [ 77.3466017, 31.4452988 ], [ 77.3491913, 31.4388476 ], [ 77.354588, 31.4361281 ], [ 77.3606686, 31.4308124 ], [ 77.3631269, 31.4259351 ], [ 77.3669051, 31.4251623 ], [ 77.371341, 31.4204891 ], [ 77.3761749, 31.4194714 ], [ 77.3790615, 31.4154765 ], [ 77.3854594, 31.4125352 ], [ 77.3859368, 31.410987 ], [ 77.381197, 31.4078175 ], [ 77.3801393, 31.4034345 ], [ 77.382567, 31.4007741 ], [ 77.3811803, 31.3998131 ], [ 77.3813733, 31.3934307 ], [ 77.3852258, 31.3919598 ], [ 77.38492, 31.3879233 ], [ 77.3876119, 31.386157 ], [ 77.3867254, 31.3802206 ], [ 77.3891346, 31.3755505 ], [ 77.3876613, 31.3713386 ], [ 77.3848371, 31.3683347 ], [ 77.3850625, 31.3630218 ], [ 77.3832777, 31.3622334 ], [ 77.3829116, 31.3601005 ], [ 77.3785918, 31.3574852 ], [ 77.3724298, 31.360114 ], [ 77.355851, 31.3528335 ], [ 77.3504089, 31.3406456 ], [ 77.3445166, 31.3371125 ], [ 77.3432408, 31.3344959 ], [ 77.3452476, 31.3272527 ], [ 77.3402354, 31.3242221 ], [ 77.3394963, 31.3188441 ], [ 77.337043, 31.3158247 ], [ 77.3374634, 31.3070704 ], [ 77.3335528, 31.2943636 ], [ 77.3309204, 31.2924854 ], [ 77.3221804, 31.2920702 ], [ 77.3197404, 31.289551 ], [ 77.3185501, 31.2838222 ], [ 77.3071416, 31.2784723 ], [ 77.3055557, 31.2756126 ], [ 77.3066029, 31.2693249 ], [ 77.3053914, 31.2681715 ], [ 77.3030793, 31.2671545 ], [ 77.2879424, 31.2685212 ], [ 77.2812557, 31.2639002 ], [ 77.2748828, 31.2677111 ], [ 77.2729178, 31.2726714 ], [ 77.2686018, 31.2725993 ], [ 77.2664071, 31.2707415 ], [ 77.2652362, 31.2669693 ], [ 77.258299, 31.2643679 ], [ 77.2505881, 31.25894 ], [ 77.2478283, 31.2532588 ], [ 77.2455026, 31.2511811 ], [ 77.2434048, 31.2515414 ], [ 77.2412561, 31.2552466 ], [ 77.2319228, 31.2599627 ], [ 77.2198515, 31.2612738 ], [ 77.2090492, 31.247905 ], [ 77.1992262, 31.2421947 ], [ 77.1945867, 31.24329 ], [ 77.1897399, 31.254506 ], [ 77.1821148, 31.244318 ], [ 77.1687605, 31.2348119 ], [ 77.15669, 31.2319771 ], [ 77.1406003, 31.2317512 ], [ 77.1358865, 31.2302112 ], [ 77.1279654, 31.2310292 ], [ 77.122678, 31.2323173 ], [ 77.1197733, 31.2353676 ], [ 77.1055566, 31.240909 ], [ 77.0848964, 31.2451455 ], [ 77.0772264, 31.249863 ], [ 77.0729079, 31.2586774 ], [ 77.0628075, 31.2585971 ], [ 77.0570846, 31.2660047 ], [ 77.054408, 31.2676068 ], [ 77.0483442, 31.2677039 ], [ 77.0306806, 31.272776 ], [ 77.0225478, 31.2787598 ], [ 77.0209265, 31.2841266 ], [ 77.0185219, 31.2861834 ], [ 77.009774, 31.2907527 ], [ 76.9953636, 31.3012785 ], [ 76.9708648, 31.3126938 ], [ 76.968022, 31.3164947 ], [ 76.9678417, 31.3211532 ], [ 76.9648884, 31.3240702 ], [ 76.9536601, 31.3285537 ], [ 76.9494658, 31.3323763 ], [ 76.9418791, 31.3328286 ], [ 76.9411528, 31.3348486 ], [ 76.9441925, 31.338868 ], [ 76.9429756, 31.3441843 ], [ 76.9208636, 31.3650386 ], [ 76.9184773, 31.3654159 ], [ 76.9069452, 31.3614847 ], [ 76.8993118, 31.3638646 ], [ 76.8960525, 31.3599612 ], [ 76.8871616, 31.3591014 ], [ 76.8831081, 31.3562207 ], [ 76.8812989, 31.3532247 ], [ 76.8754349, 31.3506466 ], [ 76.8722153, 31.3558862 ], [ 76.8765347, 31.3608058 ], [ 76.873605, 31.3704449 ], [ 76.8637062, 31.3781342 ], [ 76.8672758, 31.380674 ], [ 76.8682056, 31.3847036 ], [ 76.8770445, 31.381064 ], [ 76.8813839, 31.3842537 ], [ 76.8828636, 31.392843 ], [ 76.8822737, 31.4014622 ], [ 76.8758744, 31.4134011 ], [ 76.8625962, 31.4107413 ], [ 76.8552872, 31.4105513 ], [ 76.8469095, 31.4136408 ], [ 76.8347943, 31.4218407 ], [ 76.8286366, 31.4215597 ], [ 76.819922, 31.4174773 ], [ 76.8142225, 31.4218401 ], [ 76.8093331, 31.42326 ], [ 76.8040039, 31.4206202 ], [ 76.8021441, 31.4209101 ], [ 76.8010942, 31.4243598 ], [ 76.8033639, 31.4298194 ], [ 76.7997143, 31.4351089 ], [ 76.8017441, 31.4362588 ], [ 76.8015241, 31.4381886 ], [ 76.8030639, 31.4401085 ], [ 76.7998143, 31.4430782 ], [ 76.7971946, 31.4412283 ], [ 76.7957048, 31.4474678 ], [ 76.7922252, 31.4506475 ], [ 76.7954808, 31.451281 ], [ 76.796012, 31.4479551 ], [ 76.7984044, 31.4471378 ], [ 76.7992343, 31.4477078 ], [ 76.7983844, 31.4498576 ], [ 76.801674, 31.4518374 ], [ 76.8019439, 31.4546672 ], [ 76.7964846, 31.4599167 ], [ 76.7964946, 31.4641763 ], [ 76.7975144, 31.4651762 ], [ 76.7951247, 31.467686 ], [ 76.7956246, 31.4749254 ], [ 76.7913115, 31.4752857 ], [ 76.7922031, 31.4775504 ], [ 76.7909698, 31.479374 ], [ 76.7860759, 31.477975 ], [ 76.7819664, 31.4798049 ], [ 76.7830563, 31.4821347 ], [ 76.7823463, 31.4843645 ], [ 76.7844661, 31.4838045 ], [ 76.7854559, 31.4847244 ], [ 76.7850434, 31.4871203 ], [ 76.7867657, 31.4862443 ], [ 76.7881255, 31.4885041 ], [ 76.7868557, 31.4931337 ], [ 76.7874556, 31.4979233 ], [ 76.783926, 31.5030128 ], [ 76.7762611, 31.508096 ], [ 76.773958, 31.5139388 ], [ 76.7655136, 31.518065 ], [ 76.7600591, 31.5166415 ], [ 76.7475748, 31.5174038 ], [ 76.7421692, 31.5144672 ], [ 76.7347324, 31.5149925 ], [ 76.7307391, 31.5165496 ], [ 76.7339317, 31.5207721 ], [ 76.7361784, 31.5194784 ], [ 76.7387495, 31.5207077 ], [ 76.7389204, 31.5234246 ], [ 76.7375792, 31.5268313 ], [ 76.7351997, 31.5286525 ], [ 76.7354465, 31.5304574 ], [ 76.7328843, 31.5323971 ], [ 76.7349861, 31.5345129 ], [ 76.7235746, 31.539473 ], [ 76.7226542, 31.5409281 ], [ 76.724415, 31.5419599 ], [ 76.7290316, 31.5406435 ], [ 76.7317191, 31.5418361 ], [ 76.7286453, 31.5448008 ], [ 76.7294115, 31.5494971 ], [ 76.727517, 31.55255 ], [ 76.7304953, 31.5551858 ], [ 76.7306004, 31.5573055 ], [ 76.7352404, 31.5608502 ], [ 76.73188, 31.5628771 ], [ 76.7268555, 31.5627632 ], [ 76.730744, 31.5732241 ], [ 76.7308431, 31.5809129 ], [ 76.7293321, 31.5823292 ], [ 76.7281686, 31.589714 ], [ 76.7159443, 31.6163669 ], [ 76.7164953, 31.6188732 ], [ 76.7152287, 31.6210895 ], [ 76.7145303, 31.6292092 ], [ 76.7165086, 31.633583 ], [ 76.716285, 31.6378304 ], [ 76.7186544, 31.6439411 ], [ 76.7205316, 31.645573 ], [ 76.7230243, 31.6545753 ], [ 76.7251569, 31.6571 ], [ 76.7244612, 31.6644175 ], [ 76.7223012, 31.6673707 ], [ 76.7140272, 31.6694493 ], [ 76.7086793, 31.6728742 ], [ 76.700839, 31.6747947 ], [ 76.6971347, 31.674177 ], [ 76.6929691, 31.6788568 ], [ 76.6910761, 31.6837227 ], [ 76.6871331, 31.6862063 ], [ 76.6897228, 31.6911773 ], [ 76.690619, 31.6974474 ], [ 76.6856958, 31.6989719 ], [ 76.6873799, 31.7055431 ], [ 76.6865215, 31.7067314 ], [ 76.678583, 31.7122464 ], [ 76.6758691, 31.7121239 ], [ 76.6707397, 31.7199532 ], [ 76.6745291, 31.7306023 ], [ 76.6722094, 31.7352618 ], [ 76.6679157, 31.7378435 ], [ 76.6620207, 31.7383515 ], [ 76.6540879, 31.7415765 ], [ 76.6496587, 31.7413748 ], [ 76.6382738, 31.7464707 ], [ 76.6335744, 31.7528801 ], [ 76.6349042, 31.7571098 ], [ 76.6340743, 31.7649191 ], [ 76.6273889, 31.7733726 ], [ 76.6268751, 31.7822375 ], [ 76.6224673, 31.7856413 ], [ 76.6232473, 31.7911902 ], [ 76.6203726, 31.7984059 ], [ 76.6239754, 31.8025757 ], [ 76.6227955, 31.8045355 ], [ 76.6232155, 31.8072253 ], [ 76.6269349, 31.8126048 ], [ 76.6306944, 31.821934 ], [ 76.6279847, 31.8304932 ], [ 76.6277147, 31.8409523 ], [ 76.6294744, 31.8464118 ], [ 76.6323779, 31.8492956 ], [ 76.632902, 31.8611744 ], [ 76.6380906, 31.8719933 ], [ 76.6391669, 31.8735795 ], [ 76.6469288, 31.872492 ], [ 76.6555838, 31.8683537 ], [ 76.6669331, 31.8714771 ], [ 76.6777492, 31.8700485 ], [ 76.6801141, 31.8707354 ], [ 76.6810329, 31.8739978 ], [ 76.6738826, 31.8802024 ], [ 76.6728059, 31.882824 ], [ 76.6769505, 31.8900357 ], [ 76.6752837, 31.8951359 ], [ 76.6757706, 31.8979374 ], [ 76.6778166, 31.8978028 ], [ 76.6795899, 31.8955482 ], [ 76.6808838, 31.8973416 ], [ 76.6729856, 31.9052938 ], [ 76.6794945, 31.9078174 ], [ 76.6836439, 31.9125489 ], [ 76.6853134, 31.9221981 ], [ 76.6878446, 31.92569 ], [ 76.6887089, 31.9296872 ], [ 76.6940393, 31.9310619 ], [ 76.6959233, 31.9337719 ], [ 76.6943662, 31.9393325 ], [ 76.6896307, 31.9417695 ], [ 76.6881263, 31.944115 ], [ 76.689476, 31.946869 ], [ 76.6884543, 31.9534859 ], [ 76.6845126, 31.9632295 ], [ 76.6853734, 31.9667442 ], [ 76.6878496, 31.9665339 ], [ 76.6875288, 31.9723174 ], [ 76.6850637, 31.9738003 ], [ 76.6845165, 31.9791332 ], [ 76.6797066, 31.9870843 ], [ 76.6752572, 31.9930476 ], [ 76.6715251, 31.9950896 ], [ 76.6697014, 32.0004959 ], [ 76.6672534, 32.0014229 ], [ 76.6675971, 32.0029568 ], [ 76.6627677, 32.0125846 ], [ 76.6634245, 32.0167888 ], [ 76.6604873, 32.0282747 ], [ 76.6668439, 32.0356954 ], [ 76.6669591, 32.0389648 ], [ 76.6737868, 32.0392937 ], [ 76.6751979, 32.0474587 ], [ 76.6858782, 32.0515798 ], [ 76.6910486, 32.0506726 ], [ 76.6921302, 32.0517935 ], [ 76.6964726, 32.0498967 ], [ 76.6996712, 32.0463782 ], [ 76.7049468, 32.0472157 ], [ 76.7034482, 32.0407281 ], [ 76.7049865, 32.0397712 ], [ 76.7056324, 32.0364135 ], [ 76.7095668, 32.0360257 ], [ 76.7202908, 32.0310266 ], [ 76.7287212, 32.0316085 ], [ 76.7283913, 32.0286093 ], [ 76.7310478, 32.0269872 ], [ 76.7358687, 32.0291932 ], [ 76.7398312, 32.0355682 ], [ 76.7455453, 32.0385107 ], [ 76.747583, 32.0425098 ], [ 76.7537131, 32.0465801 ], [ 76.7568102, 32.0505856 ], [ 76.7601054, 32.0518003 ], [ 76.7652289, 32.0606792 ], [ 76.7710853, 32.0627641 ], [ 76.775538, 32.0672811 ], [ 76.7791296, 32.0645053 ], [ 76.7820938, 32.0671842 ], [ 76.7825015, 32.0694576 ], [ 76.7867465, 32.0726031 ], [ 76.797836, 32.0699473 ], [ 76.8015204, 32.0730193 ] ] ] } }
]
}
