{
"type": "FeatureCollection",
"name": "0211",
"crs": { "type": "name", "properties": { "name": "urn:ogc:def:crs:OGC:1.3:CRS84" } },
"features": [
{ "type": "Feature", "properties": { "code": "0211", "name": "Shimla", "type": "district" }, "geometry": { "type": "Polygon", "coordinates": [ [ [ 77.7558689, 31.7083343 ], [ 77.7644547, 31.7049058 ], [ 77.7721869, 31.7054769 ], [ 77.774703, 31.7010471 ], [ 77.7807121, 31.6986972 ], [ 77.7843832, 31.6955679 ], [ 77.7849248, 31.691619 ], [ 77.7891426, 31.6883419 ], [ 77.7934098, 31.6791302 ], [ 77.7928624, 31.6742952 ], [ 77.7981552, 31.6735183 ], [ 77.8110985, 31.6666322 ], [ 77.816937, 31.6535905 ], [ 77.8161507, 31.6438556 ], [ 77.8213493, 31.6415857 ], [ 77.8235555, 31.634722 ], [ 77.8146933, 31.6187984 ], [ 77.8116208, 31.6157471 ], [ 77.8120623, 31.6095442 ], [ 77.8183214, 31.6052205 ], [ 77.8241265, 31.5954883 ], [ 77.837965, 31.5805539 ], [ 77.8350064, 31.5725017 ], [ 77.833926, 31.559423 ], [ 77.8384925, 31.5465193 ], [ 77.8389797, 31.5415333 ], [ 77.8413951, 31.5378379 ], [ 77.8411532, 31.5296597 ], [ 77.8427294, 31.5234356 ], [ 77.8415405, 31.5147405 ], [ 77.8390584, 31.5108924 ], [ 77.8397295, 31.5058962 ], [ 77.8511542, 31.5079401 ], [ 77.8558882, 31.5064159 ], [ 77.8587335, 31.509621 ], [ 77.8656497, 31.5038746 ], [ 77.8691228, 31.497529 ], [ 77.8730818, 31.4948326 ], [ 77.8770387, 31.4941698 ], [ 77.8811682, 31.4900469 ], [ 77.8823673, 31.4854798 ], [ 77.880987, 31.4808178 ], [ 77.8810268, 31.4699141 ], [ 77.8851293, 31.4680776 ], [ 77.8865011, 31.4656961 ], [ 77.889016, 31.4651285 ], [ 77.8946904, 31.4598943 ], [ 77.8977961, 31.4507007 ], [ 77.8966346, 31.4458478 ], [ 77.8973666, 31.4448327 ], [ 77.9080665, 31.4410912 ], [ 77.9095866, 31.4378292 ], [ 77.912686, 31.4363326 ], [ 77.9133684, 31.4329413 ], [ 77.9164721, 31.4313859 ], [ 77.9234916, 31.4311958 ], [ 77.9268943, 31.4231717 ], [ 77.9344315, 31.4222196 ], [ 77.9469087, 31.4235754 ], [ 77.9587253, 31.4147485 ], [ 77.9625225, 31.4045021 ], [ 77.9659223, 31.4022489 ], [ 77.9748044, 31.3998684 ], [ 77.9795777, 31.4018296 ], [ 77.9826416, 31.4011929 ], [ 77.9909054, 31.4035597 ], [ 77.9952074, 31.4021646 ], [ 77.9986457, 31.4031254 ], [ 78.0061379, 31.4001447 ], [ 78.0148877, 31.4012121 ], [ 78.0221685, 31.3991521 ], [ 78.0267633, 31.4000804 ], [ 78.0345739, 31.4065649 ], [ 78.0429869, 31.4089587 ], [ 78.0442436, 31.4113249 ], [ 78.0475719, 31.4122402 ], [ 78.0546448, 31.4174399 ], [ 78.0676353, 31.4129312 ], [ 78.0747355, 31.4167362 ], [ 78.0799669, 31.4166427 ], [ 78.0873655, 31.4216304 ], [ 78.0934452, 31.4184899 ], [ 78.1015357, 31.419151 ], [ 78.1034754, 31.4163882 ], [ 78.1036758, 31.4132978 ], [ 78.1073963, 31.4099469 ], [ 78.1142306, 31.4084898 ], [ 78.1181821, 31.4091498 ], [ 78.120182, 31.4070762 ], [ 78.1273757, 31.4053672 ], [ 78.1308562, 31.3978919 ], [ 78.1396771, 31.3942966 ], [ 78.1435923, 31.3876558 ], [ 78.1479987, 31.3868679 ], [ 78.151804, 31.3898189 ], [ 78.1630986, 31.3831696 ], [ 78.1643371, 31.3753304 ], [ 78.1608187, 31.3734684 ], [ 78.1584732, 31.3678082 ], [ 78.1504452, 31.3607334 ], [ 78.1623504, 31.3441856 ], [ 78.1656779, 31.3464236 ], [ 78.1684582, 31.346033 ], [ 78.1768679, 31.3369198 ], [ 78.1797467, 31.338981 ], [ 78.1825686, 31.3390092 ], [ 78.187349, 31.3343161 ], [ 78.1929968, 31.3330417 ], [ 78.1968139, 31.3295161 ], [ 78.2075884, 31.3290048 ], [ 78.2115717, 31.3241515 ], [ 78.2190918, 31.3251399 ], [ 78.2216182, 31.3279386 ], [ 78.2250154, 31.3286006 ], [ 78.2277782, 31.332177 ], [ 78.234185, 31.3331526 ], [ 78.2351601, 31.3362005 ], [ 78.2377368, 31.3387684 ], [ 78.2375591, 31.3416424 ], [ 78.2452903, 31.3409859 ], [ 78.2486428, 31.338076 ], [ 78.2537144, 31.329577 ], [ 78.2577083, 31.3268776 ], [ 78.261758, 31.3260261 ], [ 78.2637183, 31.326859 ], [ 78.2682511, 31.32442 ], [ 78.274572, 31.3236946 ], [ 78.2917319, 31.3261247 ], [ 78.2908326, 31.3241317 ], [ 78.2942347, 31.3212793 ], [ 78.2951545, 31.3182399 ], [ 78.3019976, 31.3154337 ], [ 78.2970695, 31.3115562 ], [ 78.2975862, 31.3032677 ], [ 78.2950964, 31.3005738 ], [ 78.2947731, 31.2972854 ], [ 78.2916212, 31.2937776 ], [ 78.2919221, 31.2923542 ], [ 78.3022152, 31.286199 ], [ 78.3103184, 31.2846916 ], [ 78.3113439, 31.282228 ], [ 78.3082155, 31.2766201 ], [ 78.3104461, 31.2710943 ], [ 78.3063275, 31.2598932 ], [ 78.302552, 31.2590171 ], [ 78.2964242, 31.2611273 ], [ 78.291883, 31.2599459 ], [ 78.282867, 31.2662109 ], [ 78.2799573, 31.2624743 ], [ 78.2760259, 31.261515 ], [ 78.2734971, 31.2558921 ], [ 78.2690847, 31.2523217 ], [ 78.2686767, 31.2485834 ], [ 78.2626362, 31.2451904 ], [ 78.2604732, 31.2397509 ], [ 78.255388, 31.2385124 ], [ 78.2495052, 31.2400429 ], [ 78.2507069, 31.233309 ], [ 78.2456245, 31.2296758 ], [ 78.2431719, 31.2293002 ], [ 78.2323091, 31.2340483 ], [ 78.2257649, 31.2350336 ], [ 78.2203241, 31.2339423 ], [ 78.2157881, 31.2287156 ], [ 78.2146679, 31.221343 ], [ 78.2124428, 31.2195692 ], [ 78.2091564, 31.2201244 ], [ 78.2012029, 31.2172476 ], [ 78.1980883, 31.2176547 ], [ 78.1921777, 31.2247611 ], [ 78.1870263, 31.2270526 ], [ 78.1797569, 31.2256481 ], [ 78.1738057, 31.226835 ], [ 78.1671535, 31.2246488 ], [ 78.1602264, 31.2254775 ], [ 78.158098, 31.2189047 ], [ 78.1536152, 31.218216 ], [ 78.1484208, 31.2136969 ], [ 78.1476797, 31.2105914 ], [ 78.1333829, 31.2083329 ], [ 78.1286033, 31.2007757 ], [ 78.1234786, 31.2001497 ], [ 78.1203724, 31.197072 ], [ 78.1124475, 31.1931743 ], [ 78.1036215, 31.1853802 ], [ 78.0971355, 31.1842135 ], [ 78.087737, 31.1872409 ], [ 78.065956, 31.1871666 ], [ 78.0512077, 31.1798908 ], [ 78.0475827, 31.1801392 ], [ 78.0426406, 31.178504 ], [ 78.0410441, 31.1729205 ], [ 78.0338364, 31.1697051 ], [ 78.0297109, 31.1641068 ], [ 78.029104, 31.1614118 ], [ 78.0308707, 31.1571773 ], [ 78.0297232, 31.1533851 ], [ 78.0303157, 31.1510226 ], [ 78.0206185, 31.1515525 ], [ 78.0144522, 31.1577813 ], [ 78.0086284, 31.1608174 ], [ 78.0008188, 31.1619519 ], [ 77.9909397, 31.1600478 ], [ 77.98472, 31.1569536 ], [ 77.9805877, 31.1621203 ], [ 77.9732709, 31.1661531 ], [ 77.9673235, 31.1733666 ], [ 77.9589039, 31.170921 ], [ 77.9536162, 31.1659526 ], [ 77.9514896, 31.1613065 ], [ 77.943164, 31.1612581 ], [ 77.9351606, 31.1546932 ], [ 77.9247933, 31.1504329 ], [ 77.9215198, 31.1504745 ], [ 77.9158118, 31.1538856 ], [ 77.9086232, 31.154062 ], [ 77.8987362, 31.1502309 ], [ 77.901031, 31.1440329 ], [ 77.9004492, 31.1422042 ], [ 77.8940148, 31.1339641 ], [ 77.8890467, 31.1329858 ], [ 77.8906809, 31.1217504 ], [ 77.8887643, 31.1192111 ], [ 77.8824132, 31.1177181 ], [ 77.8805219, 31.1147927 ], [ 77.8780348, 31.1150285 ], [ 77.8784518, 31.1163267 ], [ 77.8732348, 31.1149662 ], [ 77.8638198, 31.1085058 ], [ 77.8626018, 31.1037995 ], [ 77.8604694, 31.1015919 ], [ 77.8608699, 31.0986252 ], [ 77.8637416, 31.0939643 ], [ 77.8616359, 31.0920724 ], [ 77.8512357, 31.0733665 ], [ 77.8380592, 31.0726491 ], [ 77.8289285, 31.0582663 ], [ 77.8243634, 31.0554463 ], [ 77.8220511, 31.0551869 ], [ 77.8236684, 31.0579442 ], [ 77.8229586, 31.0586627 ], [ 77.8113573, 31.0591006 ], [ 77.8167949, 31.0566897 ], [ 77.8160365, 31.049982 ], [ 77.8216171, 31.0467135 ], [ 77.821368, 31.0427365 ], [ 77.8277941, 31.0302622 ], [ 77.8298226, 31.0287594 ], [ 77.8228754, 31.0292793 ], [ 77.8174651, 31.0330352 ], [ 77.8114533, 31.0316326 ], [ 77.8070047, 31.0267669 ], [ 77.8075109, 31.0162132 ], [ 77.8099398, 31.0109865 ], [ 77.8186884, 31.0094489 ], [ 77.8250055, 31.0097987 ], [ 77.8219916, 31.004294 ], [ 77.8318179, 30.9939934 ], [ 77.8277075, 30.9921959 ], [ 77.8241735, 30.9884218 ], [ 77.8251337, 30.9850858 ], [ 77.8240634, 30.980474 ], [ 77.822432, 30.9765453 ], [ 77.8162963, 30.9727835 ], [ 77.8144284, 30.9673757 ], [ 77.8143754, 30.9617839 ], [ 77.8241857, 30.9571088 ], [ 77.8321879, 30.9595897 ], [ 77.8376895, 30.9551783 ], [ 77.8375935, 30.9531714 ], [ 77.8347266, 30.9520455 ], [ 77.828623, 30.953289 ], [ 77.824359, 30.9504982 ], [ 77.8139806, 30.9538318 ], [ 77.8065816, 30.9581035 ], [ 77.8024034, 30.9633263 ], [ 77.7988017, 30.9645834 ], [ 77.793665, 30.9687524 ], [ 77.7875139, 30.9713277 ], [ 77.7737161, 30.9741771 ], [ 77.7691704, 30.9741909 ], [ 77.7665881, 30.970135 ], [ 77.7538154, 30.9641325 ], [ 77.7488308, 30.9511313 ], [ 77.7506359, 30.9484977 ], [ 77.7507505, 30.9434945 ], [ 77.7540438, 30.9375416 ], [ 77.7527409, 30.9338054 ], [ 77.756005, 30.9323296 ], [ 77.7614503, 30.9321384 ], [ 77.7639429, 30.930449 ], [ 77.7627969, 30.9181809 ], [ 77.7658864, 30.9196804 ], [ 77.7676258, 30.9173927 ], [ 77.7717952, 30.9186113 ], [ 77.777425, 30.9170039 ], [ 77.7842192, 30.9169353 ], [ 77.786529, 30.9202591 ], [ 77.8049275, 30.9235916 ], [ 77.811529, 30.9232733 ], [ 77.8135724, 30.9213233 ], [ 77.8109353, 30.916633 ], [ 77.8158663, 30.9103219 ], [ 77.8152818, 30.9043817 ], [ 77.8088257, 30.8966974 ], [ 77.8013818, 30.8933236 ], [ 77.8005433, 30.875391 ], [ 77.7988553, 30.8680444 ], [ 77.8035946, 30.8649856 ], [ 77.8056828, 30.8532137 ], [ 77.7862412, 30.8571528 ], [ 77.7792283, 30.8603695 ], [ 77.7773785, 30.8631548 ], [ 77.7761342, 30.8754107 ], [ 77.7734074, 30.8775404 ], [ 77.7632071, 30.8804006 ], [ 77.7582245, 30.8767978 ], [ 77.7560981, 30.8726765 ], [ 77.7571934, 30.8599833 ], [ 77.7541836, 30.8554708 ], [ 77.7458673, 30.8511191 ], [ 77.7440207, 30.8465938 ], [ 77.7576793, 30.8351295 ], [ 77.7612787, 30.8260657 ], [ 77.7483728, 30.8216348 ], [ 77.7456014, 30.8131433 ], [ 77.73497, 30.8044847 ], [ 77.7320616, 30.7987755 ], [ 77.7315687, 30.7912266 ], [ 77.7213647, 30.7757927 ], [ 77.7167943, 30.771767 ], [ 77.7041351, 30.7655803 ], [ 77.7038123, 30.764039 ], [ 77.6962588, 30.7684424 ], [ 77.6888137, 30.7761579 ], [ 77.6845038, 30.7782869 ], [ 77.6874545, 30.7833493 ], [ 77.6869136, 30.7858687 ], [ 77.6827943, 30.7906348 ], [ 77.6753272, 30.7911205 ], [ 77.6742471, 30.7943145 ], [ 77.6672514, 30.7995416 ], [ 77.6663109, 30.802577 ], [ 77.6611467, 30.7999563 ], [ 77.6599661, 30.8038001 ], [ 77.6606826, 30.8054336 ], [ 77.6589893, 30.8069169 ], [ 77.65496, 30.8029371 ], [ 77.6549526, 30.8049395 ], [ 77.6470759, 30.8045146 ], [ 77.6441454, 30.806951 ], [ 77.6395533, 30.8070639 ], [ 77.6362671, 30.8094794 ], [ 77.6332307, 30.8085968 ], [ 77.6242525, 30.8099888 ], [ 77.6217301, 30.8085668 ], [ 77.6181035, 30.7987257 ], [ 77.620102, 30.7958975 ], [ 77.6199026, 30.7941305 ], [ 77.6090566, 30.7915843 ], [ 77.6063297, 30.7858019 ], [ 77.6041332, 30.7845764 ], [ 77.6041015, 30.7828448 ], [ 77.6012231, 30.7819697 ], [ 77.5995886, 30.7795329 ], [ 77.5942088, 30.7796029 ], [ 77.5902923, 30.7780739 ], [ 77.5829223, 30.7789867 ], [ 77.5788906, 30.7773767 ], [ 77.5713049, 30.7789257 ], [ 77.5683772, 30.7775946 ], [ 77.555261, 30.7784678 ], [ 77.55228, 30.7750891 ], [ 77.5467177, 30.7742603 ], [ 77.5451577, 30.7782717 ], [ 77.5483682, 30.7825155 ], [ 77.5506121, 30.7885221 ], [ 77.549667, 30.798687 ], [ 77.5483927, 30.8004292 ], [ 77.5375277, 30.8000909 ], [ 77.5360713, 30.801247 ], [ 77.5297817, 30.7996988 ], [ 77.5297508, 30.7980118 ], [ 77.527503, 30.7964599 ], [ 77.5248305, 30.790179 ], [ 77.5211321, 30.7857973 ], [ 77.5176926, 30.7898847 ], [ 77.5071049, 30.7908088 ], [ 77.5003887, 30.7944182 ], [ 77.4924823, 30.7951964 ], [ 77.4950076, 30.8006499 ], [ 77.4936668, 30.8051272 ], [ 77.493988, 30.8145563 ], [ 77.4893239, 30.8169376 ], [ 77.4902633, 30.8188081 ], [ 77.4890746, 30.8219581 ], [ 77.4908297, 30.8318231 ], [ 77.489859, 30.8381577 ], [ 77.4914979, 30.8425543 ], [ 77.4880631, 30.846629 ], [ 77.4846527, 30.8485266 ], [ 77.4787738, 30.8646325 ], [ 77.4646628, 30.8645668 ], [ 77.4609982, 30.8667897 ], [ 77.4514013, 30.863122 ], [ 77.4443328, 30.8706724 ], [ 77.4353238, 30.8751814 ], [ 77.4351094, 30.8775047 ], [ 77.4385151, 30.8847586 ], [ 77.43783, 30.8893294 ], [ 77.4326648, 30.8989528 ], [ 77.4266075, 30.9034287 ], [ 77.4252495, 30.9133052 ], [ 77.4233032, 30.9143759 ], [ 77.4225438, 30.9189244 ], [ 77.4209326, 30.9209709 ], [ 77.4223172, 30.9256763 ], [ 77.4180995, 30.9290093 ], [ 77.4316204, 30.9365323 ], [ 77.4378278, 30.941603 ], [ 77.440921, 30.941818 ], [ 77.4433162, 30.9449396 ], [ 77.4447855, 30.9507885 ], [ 77.4425206, 30.9515444 ], [ 77.4428771, 30.9551101 ], [ 77.4411268, 30.9591741 ], [ 77.4434417, 30.9664284 ], [ 77.4392772, 30.9793047 ], [ 77.435794, 30.9845343 ], [ 77.4297268, 30.9879686 ], [ 77.4259549, 30.9884997 ], [ 77.4239769, 30.9910407 ], [ 77.425049, 30.9931703 ], [ 77.4194925, 30.9962597 ], [ 77.4190656, 30.9987492 ], [ 77.4166626, 30.9992183 ], [ 77.4107464, 30.9967388 ], [ 77.4070083, 30.9991725 ], [ 77.4056774, 31.0026177 ], [ 77.3981701, 31.0102852 ], [ 77.3954908, 31.0106632 ], [ 77.3956886, 31.0129174 ], [ 77.3913078, 31.0133683 ], [ 77.3840553, 31.0184771 ], [ 77.3802359, 31.0192732 ], [ 77.379383, 31.0207819 ], [ 77.3778546, 31.0209262 ], [ 77.3735918, 31.0168708 ], [ 77.3760481, 31.0143428 ], [ 77.3755755, 31.0126575 ], [ 77.3735921, 31.0089111 ], [ 77.3695628, 31.0054682 ], [ 77.3639232, 31.0052452 ], [ 77.3522355, 31.0005829 ], [ 77.3490689, 31.0008215 ], [ 77.3473411, 30.999347 ], [ 77.3428945, 31.0017852 ], [ 77.3397333, 30.9991598 ], [ 77.3362808, 30.9984789 ], [ 77.3350538, 30.9964256 ], [ 77.3356616, 30.9935874 ], [ 77.3330368, 30.9899953 ], [ 77.3294577, 30.9889266 ], [ 77.3281067, 30.9857281 ], [ 77.3260523, 30.9850389 ], [ 77.3248602, 30.9808296 ], [ 77.3224639, 30.9780351 ], [ 77.3137327, 30.9746833 ], [ 77.3109599, 30.9702252 ], [ 77.3051581, 30.9677361 ], [ 77.301452, 30.9675284 ], [ 77.299609, 30.9639564 ], [ 77.3030211, 30.9589469 ], [ 77.2981562, 30.9528475 ], [ 77.2950271, 30.951186 ], [ 77.2808497, 30.9505818 ], [ 77.267278, 30.9419111 ], [ 77.2651547, 30.9403866 ], [ 77.2666068, 30.9376551 ], [ 77.2628403, 30.9301855 ], [ 77.2568072, 30.9259268 ], [ 77.2503853, 30.9187282 ], [ 77.2474211, 30.917453 ], [ 77.244217, 30.9286797 ], [ 77.2394631, 30.9298618 ], [ 77.239447, 30.939697 ], [ 77.2457613, 30.9412819 ], [ 77.2495457, 30.9478861 ], [ 77.2432609, 30.9538827 ], [ 77.2320791, 30.9607403 ], [ 77.2187816, 30.9654492 ], [ 77.2072732, 30.965536 ], [ 77.2042995, 30.9674528 ], [ 77.2018056, 30.9736173 ], [ 77.2025522, 30.9752397 ], [ 77.2065709, 30.977177 ], [ 77.2072142, 30.9817895 ], [ 77.21155, 30.9872395 ], [ 77.2061369, 30.9919249 ], [ 77.2049232, 30.9971853 ], [ 77.2000418, 30.999491 ], [ 77.1974799, 31.0028929 ], [ 77.1881017, 31.0048597 ], [ 77.1710192, 31.0115761 ], [ 77.1682753, 31.008531 ], [ 77.167502, 31.003436 ], [ 77.1643858, 30.9998231 ], [ 77.1593229, 31.0028285 ], [ 77.1515146, 31.0047907 ], [ 77.1447932, 31.0125644 ], [ 77.1431338, 31.0162643 ], [ 77.1370859, 31.0199509 ], [ 77.1351312, 31.0226273 ], [ 77.1264121, 31.0265417 ], [ 77.1235945, 31.0263956 ], [ 77.1220273, 31.0294412 ], [ 77.1190867, 31.0314328 ], [ 77.1131746, 31.032038 ], [ 77.1014826, 31.029599 ], [ 77.0964046, 31.031488 ], [ 77.0916317, 31.034955 ], [ 77.0904765, 31.037301 ], [ 77.0881359, 31.0378843 ], [ 77.0863489, 31.0425171 ], [ 77.0795738, 31.0455251 ], [ 77.0751422, 31.0451264 ], [ 77.0668473, 31.0479541 ], [ 77.0674945, 31.0519675 ], [ 77.069827, 31.053901 ], [ 77.0774283, 31.0545369 ], [ 77.078117, 31.0574724 ], [ 77.0880785, 31.0662691 ], [ 77.0879171, 31.0674283 ], [ 77.0834072, 31.0684956 ], [ 77.0790581, 31.0741626 ], [ 77.0834965, 31.0806855 ], [ 77.080501, 31.0827123 ], [ 77.0773052, 31.0833997 ], [ 77.0749553, 31.0804112 ], [ 77.075499, 31.0787287 ], [ 77.0734496, 31.0779858 ], [ 77.0657953, 31.0862392 ], [ 77.0589082, 31.0843431 ], [ 77.0551251, 31.0847191 ], [ 77.0516515, 31.081956 ], [ 77.048495, 31.0819573 ], [ 77.0503175, 31.0800669 ], [ 77.0462877, 31.0792748 ], [ 77.0451466, 31.0708284 ], [ 77.0436633, 31.0694534 ], [ 77.0359136, 31.0670295 ], [ 77.035461, 31.0755125 ], [ 77.0261512, 31.0789694 ], [ 77.0245181, 31.0854818 ], [ 77.0281237, 31.0866265 ], [ 77.0293821, 31.0892465 ], [ 77.0377956, 31.0961532 ], [ 77.0440176, 31.0987489 ], [ 77.0470621, 31.0982066 ], [ 77.0540858, 31.0998499 ], [ 77.0544969, 31.1038363 ], [ 77.0521919, 31.1059253 ], [ 77.0504969, 31.1118654 ], [ 77.0484839, 31.1143283 ], [ 77.0351894, 31.1099935 ], [ 77.0277815, 31.1108656 ], [ 77.0227366, 31.1075801 ], [ 77.0171864, 31.1093128 ], [ 77.0145916, 31.1069725 ], [ 77.0055662, 31.1057153 ], [ 77.0035928, 31.1036397 ], [ 77.0014977, 31.1044936 ], [ 76.9977286, 31.1031498 ], [ 76.9906383, 31.1082885 ], [ 76.9888719, 31.1138504 ], [ 76.9929079, 31.1153705 ], [ 76.9983593, 31.1147347 ], [ 77.0026771, 31.1127158 ], [ 77.0037895, 31.1107525 ], [ 77.0067617, 31.1132643 ], [ 77.0115883, 31.1142694 ], [ 77.0120875, 31.1158795 ], [ 77.008974, 31.1176973 ], [ 77.0093364, 31.1239522 ], [ 77.0072295, 31.1289853 ], [ 77.0101868, 31.1346403 ], [ 77.0163003, 31.1370073 ], [ 77.0200975, 31.1426891 ], [ 77.0235744, 31.1451011 ], [ 77.0256664, 31.1449338 ], [ 77.0295005, 31.1486716 ], [ 77.0292178, 31.1503944 ], [ 77.0353116, 31.1517683 ], [ 77.0315725, 31.1668183 ], [ 77.0324655, 31.1705071 ], [ 77.0305785, 31.1740612 ], [ 77.0330977, 31.178471 ], [ 77.0257336, 31.1793296 ], [ 77.0137385, 31.1844501 ], [ 77.0103399, 31.1887797 ], [ 77.0050837, 31.1914002 ], [ 77.0014956, 31.1960814 ], [ 77.0025344, 31.196875 ], [ 77.0021882, 31.1990487 ], [ 77.0048693, 31.202007 ], [ 77.003138, 31.2042168 ], [ 77.0044131, 31.208023 ], [ 77.0074513, 31.2100251 ], [ 77.0075407, 31.2131684 ], [ 77.0101223, 31.2129247 ], [ 77.0116601, 31.215955 ], [ 77.013528, 31.21554 ], [ 77.0147772, 31.217718 ], [ 77.017994, 31.2184842 ], [ 77.0209857, 31.2212708 ], [ 77.0194591, 31.2234493 ], [ 77.0132931, 31.2239822 ], [ 77.0113996, 31.2309093 ], [ 77.0126648, 31.2338494 ], [ 77.0046142, 31.2383642 ], [ 77.0034808, 31.2452595 ], [ 77.0093443, 31.2498501 ], [ 77.0306785, 31.2727769 ], [ 77.0483442, 31.2677039 ], [ 77.054408, 31.2676068 ], [ 77.0570846, 31.2660047 ], [ 77.0620256, 31.2589718 ], [ 77.0729079, 31.2586774 ], [ 77.0772264, 31.249863 ], [ 77.0803263, 31.2471868 ], [ 77.0848964, 31.2451455 ], [ 77.1055566, 31.240909 ], [ 77.1197733, 31.2353676 ], [ 77.122678, 31.2323173 ], [ 77.1358865, 31.2302112 ], [ 77.1406003, 31.2317512 ], [ 77.15669, 31.2319771 ], [ 77.1687605, 31.2348119 ], [ 77.1821148, 31.244318 ], [ 77.1897399, 31.254506 ], [ 77.1945867, 31.24329 ], [ 77.1992262, 31.2421947 ], [ 77.2090492, 31.247905 ], [ 77.2198515, 31.2612738 ], [ 77.2319228, 31.2599627 ], [ 77.2412561, 31.2552466 ], [ 77.2434048, 31.2515414 ], [ 77.2455026, 31.2511811 ], [ 77.2478283, 31.2532588 ], [ 77.2505881, 31.25894 ], [ 77.258299, 31.2643679 ], [ 77.2652362, 31.2669693 ], [ 77.2664071, 31.2707415 ], [ 77.2686018, 31.2725993 ], [ 77.2729178, 31.2726714 ], [ 77.2748828, 31.2677111 ], [ 77.2812557, 31.2639002 ], [ 77.2879424, 31.2685212 ], [ 77.3039264, 31.2672974 ], [ 77.3066029, 31.2693249 ], [ 77.3060204, 31.2769663 ], [ 77.3081946, 31.2793397 ], [ 77.3185501, 31.2838222 ], [ 77.321038, 31.2912208 ], [ 77.3235369, 31.2925132 ], [ 77.3309204, 31.2924854 ], [ 77.3332836, 31.2939764 ], [ 77.3374634, 31.3070704 ], [ 77.337043, 31.3158247 ], [ 77.3394963, 31.3188441 ], [ 77.3402354, 31.3242221 ], [ 77.3452476, 31.3272527 ], [ 77.3431646, 31.333779 ], [ 77.3443157, 31.3367884 ], [ 77.3504089, 31.3406456 ], [ 77.355851, 31.3528335 ], [ 77.3705769, 31.3595394 ], [ 77.3724298, 31.360114 ], [ 77.3787915, 31.3574937 ], [ 77.3848724, 31.3602219 ], [ 77.3921174, 31.3546712 ], [ 77.3979903, 31.3616338 ], [ 77.4082964, 31.3539577 ], [ 77.4123607, 31.3464163 ], [ 77.4148499, 31.3458808 ], [ 77.4175157, 31.3477455 ], [ 77.4205536, 31.3479204 ], [ 77.4264538, 31.3442663 ], [ 77.4267197, 31.3414649 ], [ 77.4292475, 31.3404238 ], [ 77.4330159, 31.3406592 ], [ 77.4353231, 31.3442139 ], [ 77.4419003, 31.3450437 ], [ 77.4520149, 31.343899 ], [ 77.45365, 31.3452055 ], [ 77.4541724, 31.3489331 ], [ 77.4570318, 31.3512679 ], [ 77.4624171, 31.3500265 ], [ 77.4680314, 31.3515303 ], [ 77.4743833, 31.3492071 ], [ 77.4792735, 31.3519398 ], [ 77.480826, 31.3544457 ], [ 77.4881135, 31.3552344 ], [ 77.4987381, 31.3555181 ], [ 77.5054568, 31.3476859 ], [ 77.5107889, 31.3493738 ], [ 77.5172926, 31.3480986 ], [ 77.5267995, 31.3530429 ], [ 77.5354014, 31.3622456 ], [ 77.5442287, 31.3746563 ], [ 77.5451111, 31.3809162 ], [ 77.5539491, 31.3901843 ], [ 77.5614578, 31.388704 ], [ 77.567346, 31.3896431 ], [ 77.5753775, 31.3886107 ], [ 77.5754315, 31.393104 ], [ 77.5773012, 31.3962608 ], [ 77.5961361, 31.3992364 ], [ 77.6065994, 31.3969054 ], [ 77.616736, 31.3897186 ], [ 77.623886, 31.3882049 ], [ 77.628855, 31.3899618 ], [ 77.6317433, 31.3934244 ], [ 77.6333453, 31.4010465 ], [ 77.6217154, 31.4169767 ], [ 77.6208805, 31.4267391 ], [ 77.6225549, 31.4357769 ], [ 77.62899, 31.4448229 ], [ 77.6278388, 31.4512499 ], [ 77.6352158, 31.4530804 ], [ 77.6401595, 31.456767 ], [ 77.6503768, 31.4553762 ], [ 77.6597095, 31.4607368 ], [ 77.6695244, 31.4625962 ], [ 77.6734066, 31.4661879 ], [ 77.6803831, 31.4770861 ], [ 77.6822982, 31.4828705 ], [ 77.6974451, 31.4951985 ], [ 77.703917, 31.49781 ], [ 77.7071149, 31.5017471 ], [ 77.7029649, 31.5077313 ], [ 77.702342, 31.5116985 ], [ 77.699087, 31.5142686 ], [ 77.6985113, 31.5224968 ], [ 77.7020876, 31.5297552 ], [ 77.7018405, 31.5347303 ], [ 77.7002968, 31.5360014 ], [ 77.6987202, 31.542039 ], [ 77.6933298, 31.5450986 ], [ 77.6866385, 31.5445756 ], [ 77.6796518, 31.5512327 ], [ 77.6806928, 31.5524536 ], [ 77.6785723, 31.5577679 ], [ 77.6805604, 31.5595881 ], [ 77.6682028, 31.5636981 ], [ 77.6660784, 31.5663833 ], [ 77.6661274, 31.5688271 ], [ 77.6632105, 31.5704611 ], [ 77.6594709, 31.5757158 ], [ 77.6562063, 31.5766164 ], [ 77.6486653, 31.5829996 ], [ 77.647421, 31.5912038 ], [ 77.6486824, 31.5960945 ], [ 77.6463903, 31.5991093 ], [ 77.644121, 31.6069669 ], [ 77.6461713, 31.6085845 ], [ 77.6457383, 31.6153054 ], [ 77.649111, 31.6206273 ], [ 77.6497859, 31.6282671 ], [ 77.6626103, 31.6336799 ], [ 77.6606156, 31.6378162 ], [ 77.6516629, 31.6472506 ], [ 77.6497973, 31.6518595 ], [ 77.6467479, 31.6522854 ], [ 77.6458329, 31.6625035 ], [ 77.648847, 31.6637914 ], [ 77.6505943, 31.6663663 ], [ 77.656675, 31.6680712 ], [ 77.6573726, 31.6795076 ], [ 77.666662, 31.6821738 ], [ 77.6704948, 31.6857025 ], [ 77.6714075, 31.6879433 ], [ 77.6698933, 31.6907921 ], [ 77.6700963, 31.6948222 ], [ 77.675313, 31.6970719 ], [ 77.6781049, 31.7031309 ], [ 77.6920949, 31.7047647 ], [ 77.7115447, 31.703643 ], [ 77.7145375, 31.7059665 ], [ 77.7226407, 31.7081574 ], [ 77.7310783, 31.7145889 ], [ 77.7341525, 31.7150943 ], [ 77.747886, 31.7133641 ], [ 77.7558689, 31.7083343 ] ] ] } }
]
}
