{
"type": "FeatureCollection",
"name": "0306",
"crs": { "type": "name", "properties": { "name": "urn:ogc:def:crs:OGC:1.3:CRS84" } },
"features": [
{ "type": "Feature", "properties": { "code": "0306", "name": "Shahid Bhagat Singh Nagar", "type": "district" }, "geometry": { "type": "Polygon", "coordinates": [ [ [ 75.9145834, 31.2844475 ], [ 75.9181367, 31.2806041 ], [ 75.9158676, 31.2790084 ], [ 75.9213278, 31.277715 ], [ 75.9226497, 31.275475 ], [ 75.9246922, 31.2754562 ], [ 75.9242139, 31.2745093 ], [ 75.9256308, 31.2732506 ], [ 75.9241031, 31.2735715 ], [ 75.9245961, 31.2723626 ], [ 75.9305791, 31.2683691 ], [ 75.9324537, 31.2688599 ], [ 75.9315262, 31.2719223 ], [ 75.9341461, 31.2718715 ], [ 75.9337853, 31.2741536 ], [ 75.9398448, 31.2747639 ], [ 75.9421228, 31.2738248 ], [ 75.9409144, 31.272761 ], [ 75.9444548, 31.2678302 ], [ 75.947561, 31.2654023 ], [ 75.9508419, 31.264981 ], [ 75.9544927, 31.2612854 ], [ 75.9560558, 31.2559863 ], [ 75.9538795, 31.2532633 ], [ 75.9663733, 31.2577442 ], [ 75.9704656, 31.2522589 ], [ 75.9863019, 31.2577532 ], [ 75.9865765, 31.2597793 ], [ 75.9912183, 31.261027 ], [ 75.9933933, 31.2598185 ], [ 75.9972857, 31.2513202 ], [ 75.9995589, 31.2497931 ], [ 76.002706, 31.2444414 ], [ 76.007377, 31.2443943 ], [ 76.0126795, 31.249865 ], [ 76.02218, 31.2564002 ], [ 76.0221413, 31.2581896 ], [ 76.0253123, 31.2590765 ], [ 76.0290089, 31.2505679 ], [ 76.0263355, 31.2497814 ], [ 76.0278965, 31.2425714 ], [ 76.0332911, 31.2382055 ], [ 76.0546611, 31.2262908 ], [ 76.0547201, 31.2245637 ], [ 76.0497466, 31.2228517 ], [ 76.0476763, 31.2197884 ], [ 76.0448856, 31.2185962 ], [ 76.049476, 31.2133136 ], [ 76.0517404, 31.2163319 ], [ 76.0620352, 31.2168198 ], [ 76.0617821, 31.2187679 ], [ 76.0653765, 31.2187921 ], [ 76.0638694, 31.2205817 ], [ 76.0638771, 31.2249606 ], [ 76.0656975, 31.2258679 ], [ 76.0776561, 31.2281772 ], [ 76.0798927, 31.2260179 ], [ 76.0866105, 31.2243064 ], [ 76.087543, 31.2148905 ], [ 76.0886503, 31.214512 ], [ 76.0877665, 31.2068002 ], [ 76.0866919, 31.204518 ], [ 76.085312, 31.2044454 ], [ 76.0854491, 31.2029077 ], [ 76.0885466, 31.1974474 ], [ 76.0914163, 31.1972091 ], [ 76.0944504, 31.1915728 ], [ 76.0933765, 31.1870087 ], [ 76.0992641, 31.1795374 ], [ 76.1019708, 31.1785638 ], [ 76.1020393, 31.177486 ], [ 76.1056793, 31.177649 ], [ 76.106488, 31.1730717 ], [ 76.117146, 31.1666825 ], [ 76.1240111, 31.1668902 ], [ 76.1298379, 31.1693118 ], [ 76.1329311, 31.1564364 ], [ 76.1354951, 31.153789 ], [ 76.1372613, 31.1468078 ], [ 76.1443983, 31.1502794 ], [ 76.1442886, 31.1520607 ], [ 76.1558302, 31.1525816 ], [ 76.157511, 31.1456227 ], [ 76.1550616, 31.1434135 ], [ 76.1560465, 31.1407841 ], [ 76.1658348, 31.1396043 ], [ 76.1702521, 31.1342362 ], [ 76.1809481, 31.1356661 ], [ 76.1877094, 31.1327406 ], [ 76.2097272, 31.1370888 ], [ 76.2066191, 31.1442658 ], [ 76.2058216, 31.1497321 ], [ 76.2009292, 31.1560667 ], [ 76.2076072, 31.1589533 ], [ 76.2055637, 31.1670675 ], [ 76.1968228, 31.1761823 ], [ 76.1958133, 31.1799845 ], [ 76.1972205, 31.1819229 ], [ 76.1951031, 31.184188 ], [ 76.2005405, 31.1881038 ], [ 76.2088945, 31.1912959 ], [ 76.21211, 31.1853545 ], [ 76.221413, 31.1878778 ], [ 76.2242163, 31.1848812 ], [ 76.2343569, 31.1857568 ], [ 76.2381873, 31.1867636 ], [ 76.2389144, 31.1894057 ], [ 76.2460157, 31.1964117 ], [ 76.2449115, 31.198618 ], [ 76.2376832, 31.2038738 ], [ 76.2367056, 31.2068195 ], [ 76.2347835, 31.2008368 ], [ 76.2299401, 31.1998848 ], [ 76.2288523, 31.1983028 ], [ 76.2264918, 31.1985888 ], [ 76.230107, 31.2131927 ], [ 76.2345873, 31.2170853 ], [ 76.2371899, 31.2248597 ], [ 76.2406182, 31.2254457 ], [ 76.239098, 31.2444478 ], [ 76.2442539, 31.2450681 ], [ 76.2569983, 31.2364768 ], [ 76.2772457, 31.2352082 ], [ 76.2803371, 31.2320423 ], [ 76.2813567, 31.2286264 ], [ 76.2947614, 31.2203725 ], [ 76.3181907, 31.2141756 ], [ 76.3285707, 31.2240742 ], [ 76.3325971, 31.2253359 ], [ 76.3346941, 31.2247683 ], [ 76.3387309, 31.2221777 ], [ 76.3405489, 31.2163578 ], [ 76.3481765, 31.2075721 ], [ 76.3550462, 31.206088 ], [ 76.3562167, 31.2009513 ], [ 76.3611954, 31.1957157 ], [ 76.3598403, 31.1930641 ], [ 76.3656762, 31.1891004 ], [ 76.3674684, 31.1830999 ], [ 76.3701426, 31.1811633 ], [ 76.3709055, 31.1773029 ], [ 76.3737717, 31.1755988 ], [ 76.3733705, 31.1743356 ], [ 76.3770741, 31.1703309 ], [ 76.3786499, 31.1628621 ], [ 76.3823867, 31.1582931 ], [ 76.3834489, 31.1534189 ], [ 76.3876127, 31.1515607 ], [ 76.3887746, 31.1485124 ], [ 76.3935622, 31.1466473 ], [ 76.3975464, 31.1405105 ], [ 76.412944, 31.1326644 ], [ 76.4135625, 31.1294639 ], [ 76.4196886, 31.1239158 ], [ 76.4214888, 31.1184017 ], [ 76.4291892, 31.1161829 ], [ 76.4321331, 31.110065 ], [ 76.4323625, 31.1057907 ], [ 76.4296317, 31.0984773 ], [ 76.4257813, 31.0958405 ], [ 76.4321806, 31.0912225 ], [ 76.4317176, 31.0893647 ], [ 76.4340111, 31.08781 ], [ 76.4326944, 31.0845948 ], [ 76.435745, 31.0832122 ], [ 76.4351604, 31.0784867 ], [ 76.4462822, 31.0674416 ], [ 76.4457609, 31.0645064 ], [ 76.4471076, 31.0645048 ], [ 76.4489138, 31.060959 ], [ 76.4515815, 31.0592489 ], [ 76.4516766, 31.056194 ], [ 76.4559393, 31.0556858 ], [ 76.4573464, 31.0541588 ], [ 76.4568808, 31.0504245 ], [ 76.4597206, 31.0490527 ], [ 76.4612962, 31.0465584 ], [ 76.4669707, 31.0315539 ], [ 76.4697275, 31.0309632 ], [ 76.4776386, 31.0228976 ], [ 76.4840875, 31.0212764 ], [ 76.4865147, 31.0143333 ], [ 76.4929319, 31.009732 ], [ 76.4976059, 31.0082011 ], [ 76.5011753, 31.004555 ], [ 76.5068752, 31.0053451 ], [ 76.5089314, 31.0032791 ], [ 76.5101533, 30.9992165 ], [ 76.5186508, 30.9954048 ], [ 76.5162901, 30.9897113 ], [ 76.509982, 30.9799084 ], [ 76.494224, 30.9793976 ], [ 76.4936429, 30.9753671 ], [ 76.4818769, 30.9775867 ], [ 76.4794559, 30.9794774 ], [ 76.4684288, 30.9756472 ], [ 76.4677887, 30.9765792 ], [ 76.4574798, 30.9762087 ], [ 76.4581476, 30.9733007 ], [ 76.4383596, 30.9719798 ], [ 76.4146081, 30.9712992 ], [ 76.4068474, 30.9725071 ], [ 76.4064972, 30.9758266 ], [ 76.3692415, 30.9746886 ], [ 76.3692333, 30.9722843 ], [ 76.358785, 30.969043 ], [ 76.3428417, 30.974853 ], [ 76.3449904, 30.9806048 ], [ 76.325106, 30.9791502 ], [ 76.326808, 30.9943214 ], [ 76.3133314, 30.9952396 ], [ 76.3129727, 30.993899 ], [ 76.3059485, 30.9922154 ], [ 76.3056164, 30.987825 ], [ 76.2966428, 30.9883541 ], [ 76.2917527, 30.9980421 ], [ 76.2927206, 30.9991467 ], [ 76.2894289, 31.0000003 ], [ 76.2867887, 31.0023637 ], [ 76.2767561, 31.0001175 ], [ 76.2761569, 31.0023113 ], [ 76.28095, 31.003969 ], [ 76.2865956, 31.0031956 ], [ 76.2894263, 31.0045658 ], [ 76.2875487, 31.0067003 ], [ 76.2879317, 31.0090873 ], [ 76.2822649, 31.010258 ], [ 76.2770489, 31.0150057 ], [ 76.2747288, 31.0154121 ], [ 76.2738264, 31.0129399 ], [ 76.264144, 31.0055421 ], [ 76.2639069, 31.0030498 ], [ 76.2562984, 31.0103057 ], [ 76.2409784, 31.0023201 ], [ 76.2341124, 31.0058852 ], [ 76.2270774, 31.0044174 ], [ 76.2252741, 31.0053822 ], [ 76.2245259, 31.0026423 ], [ 76.2229482, 31.0033239 ], [ 76.2219223, 31.0076149 ], [ 76.2198843, 31.0084102 ], [ 76.2199301, 31.0115772 ], [ 76.2109263, 31.0119237 ], [ 76.2102014, 31.0104122 ], [ 76.2130249, 31.0067943 ], [ 76.213351, 31.0044118 ], [ 76.2043767, 31.0033083 ], [ 76.2045761, 31.000036 ], [ 76.1840071, 31.0052108 ], [ 76.1879016, 30.9960203 ], [ 76.1829063, 30.9946156 ], [ 76.1805281, 30.9920416 ], [ 76.1747979, 30.9958457 ], [ 76.1666246, 30.9932194 ], [ 76.1687744, 30.9894125 ], [ 76.1595248, 30.9868491 ], [ 76.1578283, 30.9886807 ], [ 76.1432639, 30.9857994 ], [ 76.1361836, 30.9974967 ], [ 76.1224306, 30.9967485 ], [ 76.1225355, 30.9930009 ], [ 76.1207136, 30.9929828 ], [ 76.1041704, 30.9961968 ], [ 76.1033584, 30.9983208 ], [ 76.0881827, 30.9950433 ], [ 76.0841369, 30.9977635 ], [ 76.0748054, 30.9980154 ], [ 76.0707337, 30.9955829 ], [ 76.0656293, 31.0000017 ], [ 76.0626597, 31.000178 ], [ 76.0540099, 31.0000014 ], [ 76.0477968, 30.9978533 ], [ 76.0464768, 30.9986734 ], [ 76.026773, 30.9967613 ], [ 76.0242565, 31.0011625 ], [ 76.0042547, 31.0038547 ], [ 76.0048146, 31.0063481 ], [ 75.9910801, 31.0093632 ], [ 75.9896156, 31.0053313 ], [ 75.9877638, 31.0038789 ], [ 75.9878309, 31.0051188 ], [ 75.9709237, 31.0039929 ], [ 75.969124, 31.0150546 ], [ 75.9547772, 31.0192488 ], [ 75.9512489, 31.0215756 ], [ 75.9490944, 31.0261749 ], [ 75.949389, 31.029475 ], [ 75.9471854, 31.0301905 ], [ 75.9474882, 31.0385522 ], [ 75.9427354, 31.0475058 ], [ 75.941954, 31.053295 ], [ 75.9431361, 31.0541345 ], [ 75.9419557, 31.0561236 ], [ 75.9450519, 31.0586994 ], [ 75.9340207, 31.0624204 ], [ 75.9305918, 31.0649534 ], [ 75.929955, 31.0679084 ], [ 75.9327055, 31.0763968 ], [ 75.9305958, 31.0772015 ], [ 75.9266725, 31.0942012 ], [ 75.9198469, 31.09582 ], [ 75.9126823, 31.0992995 ], [ 75.9144234, 31.1042766 ], [ 75.9156758, 31.1042136 ], [ 75.9161043, 31.1073369 ], [ 75.9033304, 31.1254135 ], [ 75.9004833, 31.1365582 ], [ 75.9015041, 31.139136 ], [ 75.8981475, 31.1552781 ], [ 75.8908162, 31.1538178 ], [ 75.888552, 31.1461553 ], [ 75.8857261, 31.1457191 ], [ 75.8832427, 31.1499903 ], [ 75.8858365, 31.1660551 ], [ 75.8726996, 31.1625944 ], [ 75.8704988, 31.1663221 ], [ 75.8659583, 31.1695106 ], [ 75.8626508, 31.1738952 ], [ 75.8544568, 31.17464 ], [ 75.8514827, 31.1829424 ], [ 75.8430505, 31.1847257 ], [ 75.8298308, 31.1845365 ], [ 75.8211502, 31.1867936 ], [ 75.8198845, 31.189107 ], [ 75.8141929, 31.1881191 ], [ 75.8119035, 31.1904072 ], [ 75.8082823, 31.1909894 ], [ 75.8069206, 31.1931679 ], [ 75.8006377, 31.1936402 ], [ 75.7882239, 31.1983905 ], [ 75.7916674, 31.1991092 ], [ 75.7879584, 31.2049786 ], [ 75.7966733, 31.2115339 ], [ 75.7981294, 31.216167 ], [ 75.8016157, 31.2156491 ], [ 75.8098968, 31.2209611 ], [ 75.8211089, 31.2227215 ], [ 75.8430911, 31.232486 ], [ 75.849742, 31.2341655 ], [ 75.8549284, 31.2335085 ], [ 75.8571717, 31.2365793 ], [ 75.8579592, 31.2435483 ], [ 75.854103, 31.2500017 ], [ 75.8555739, 31.2521239 ], [ 75.8553045, 31.2562739 ], [ 75.8444547, 31.2613189 ], [ 75.8397254, 31.2725798 ], [ 75.8397004, 31.2793397 ], [ 75.8430862, 31.282362 ], [ 75.8501853, 31.2826341 ], [ 75.8506681, 31.2838293 ], [ 75.8530366, 31.2825669 ], [ 75.8527009, 31.2807947 ], [ 75.8547281, 31.2791084 ], [ 75.8562718, 31.2795415 ], [ 75.8602733, 31.2761463 ], [ 75.8643477, 31.2766246 ], [ 75.8649727, 31.2752853 ], [ 75.8704701, 31.272882 ], [ 75.8752793, 31.262077 ], [ 75.8741715, 31.259033 ], [ 75.8717042, 31.2597996 ], [ 75.8715521, 31.2586857 ], [ 75.8687121, 31.2576033 ], [ 75.8725391, 31.2513801 ], [ 75.8687719, 31.2454652 ], [ 75.8748649, 31.2439983 ], [ 75.8944078, 31.2540889 ], [ 75.9011166, 31.2542545 ], [ 75.9051231, 31.2581815 ], [ 75.9096856, 31.2600202 ], [ 75.910253, 31.2610438 ], [ 75.905965, 31.2639807 ], [ 75.8957543, 31.2658408 ], [ 75.8923884, 31.2759896 ], [ 75.8948011, 31.2763122 ], [ 75.9003573, 31.2802301 ], [ 75.9104592, 31.2786808 ], [ 75.9145834, 31.2844475 ] ] ] } }
]
}
