{
"type": "FeatureCollection",
"name": "0308",
"crs": { "type": "name", "properties": { "name": "urn:ogc:def:crs:OGC:1.3:CRS84" } },
"features": [
{ "type": "Feature", "properties": { "code": "0308", "name": "Fatehgarh Sahib", "type": "district" }, "geometry": { "type": "Polygon", "coordinates": [ [ [ 76.4951063, 30.4881737 ], [ 76.4925671, 30.4872591 ], [ 76.4900711, 30.483021 ], [ 76.4851127, 30.4798853 ], [ 76.4749895, 30.4804409 ], [ 76.4702166, 30.4749197 ], [ 76.4700043, 30.4725886 ], [ 76.4648701, 30.4667501 ], [ 76.4702519, 30.4599498 ], [ 76.4700057, 30.4574307 ], [ 76.4713924, 30.4571805 ], [ 76.4693672, 30.4547853 ], [ 76.4597555, 30.4597293 ], [ 76.4495816, 30.4489345 ], [ 76.4423473, 30.4548207 ], [ 76.4331604, 30.4554407 ], [ 76.4175704, 30.4644803 ], [ 76.4138238, 30.4556788 ], [ 76.4073643, 30.4482644 ], [ 76.4010921, 30.4520582 ], [ 76.3971282, 30.4519699 ], [ 76.3960262, 30.4561231 ], [ 76.3886168, 30.4609436 ], [ 76.3841608, 30.4662196 ], [ 76.3845396, 30.4690668 ], [ 76.3824213, 30.4717464 ], [ 76.3790033, 30.4701675 ], [ 76.3730151, 30.4728563 ], [ 76.3730979, 30.469102 ], [ 76.3622508, 30.4662067 ], [ 76.358488, 30.4633948 ], [ 76.3529338, 30.4620675 ], [ 76.3520799, 30.4605696 ], [ 76.3447348, 30.4751902 ], [ 76.3434532, 30.4751628 ], [ 76.3455066, 30.4779071 ], [ 76.3454034, 30.4798706 ], [ 76.3337426, 30.4880026 ], [ 76.3360577, 30.4923594 ], [ 76.335064, 30.4947471 ], [ 76.3297047, 30.4936875 ], [ 76.3326173, 30.4960172 ], [ 76.3281071, 30.4991806 ], [ 76.33293, 30.5034299 ], [ 76.330785, 30.5128915 ], [ 76.3269588, 30.5186136 ], [ 76.3268265, 30.5227899 ], [ 76.3232131, 30.5287057 ], [ 76.3252936, 30.5358056 ], [ 76.3283499, 30.5402447 ], [ 76.3144018, 30.5478701 ], [ 76.3088694, 30.5454455 ], [ 76.3001152, 30.5455265 ], [ 76.2988271, 30.5468473 ], [ 76.2939333, 30.5477239 ], [ 76.2882822, 30.5445992 ], [ 76.2860918, 30.5467085 ], [ 76.2836339, 30.5449208 ], [ 76.2778851, 30.5514744 ], [ 76.2748142, 30.552992 ], [ 76.2757919, 30.5549727 ], [ 76.2751564, 30.55978 ], [ 76.2685126, 30.5589268 ], [ 76.2672289, 30.5604232 ], [ 76.2621616, 30.561835 ], [ 76.2562867, 30.5672104 ], [ 76.2550625, 30.5666185 ], [ 76.2564495, 30.5618661 ], [ 76.2494121, 30.5590181 ], [ 76.2456291, 30.5541634 ], [ 76.2471109, 30.5514605 ], [ 76.2444667, 30.5497085 ], [ 76.2372656, 30.5502066 ], [ 76.2363966, 30.5557548 ], [ 76.2398685, 30.5568026 ], [ 76.2379204, 30.5666002 ], [ 76.2353475, 30.5680863 ], [ 76.231714, 30.5675301 ], [ 76.2293765, 30.5700802 ], [ 76.2199008, 30.5646168 ], [ 76.2153818, 30.5643403 ], [ 76.212114, 30.5585336 ], [ 76.2072491, 30.5556007 ], [ 76.2073786, 30.5546264 ], [ 76.2053145, 30.554127 ], [ 76.2033152, 30.5563789 ], [ 76.2013828, 30.5511528 ], [ 76.1899273, 30.5489446 ], [ 76.1831276, 30.5413798 ], [ 76.1809198, 30.5441094 ], [ 76.1731052, 30.5470892 ], [ 76.1686689, 30.5431129 ], [ 76.165685, 30.535122 ], [ 76.1555488, 30.5444427 ], [ 76.1542721, 30.5443979 ], [ 76.1436871, 30.5346941 ], [ 76.1454269, 30.5326056 ], [ 76.1362664, 30.5235323 ], [ 76.1321927, 30.5271769 ], [ 76.1236484, 30.5431385 ], [ 76.1199487, 30.54538 ], [ 76.1112533, 30.5353849 ], [ 76.1079353, 30.5292958 ], [ 76.0955704, 30.5349765 ], [ 76.0918643, 30.539824 ], [ 76.0865035, 30.5375991 ], [ 76.075797, 30.5465346 ], [ 76.07936, 30.5491878 ], [ 76.081172, 30.5522373 ], [ 76.0813937, 30.5578029 ], [ 76.0868731, 30.5659318 ], [ 76.089645, 30.5679847 ], [ 76.0964582, 30.5640219 ], [ 76.0980123, 30.5604457 ], [ 76.1077422, 30.56208 ], [ 76.1088831, 30.5647772 ], [ 76.107283, 30.5651513 ], [ 76.1080421, 30.5760433 ], [ 76.1145834, 30.5797739 ], [ 76.1114919, 30.5828765 ], [ 76.1102089, 30.5873594 ], [ 76.1140975, 30.591031 ], [ 76.1254833, 30.5969622 ], [ 76.1206657, 30.6007145 ], [ 76.1252539, 30.6027803 ], [ 76.1164917, 30.6148951 ], [ 76.12382, 30.6215287 ], [ 76.1279294, 30.6227734 ], [ 76.1252125, 30.6274233 ], [ 76.127674, 30.6280141 ], [ 76.1278045, 30.629507 ], [ 76.1450011, 30.6376731 ], [ 76.1528097, 30.6397868 ], [ 76.1520422, 30.6550806 ], [ 76.169156, 30.6618274 ], [ 76.1716053, 30.6667921 ], [ 76.1711503, 30.6754876 ], [ 76.1736829, 30.67923 ], [ 76.1767777, 30.6802706 ], [ 76.180722, 30.6793535 ], [ 76.1825342, 30.6715206 ], [ 76.1879629, 30.6676563 ], [ 76.1982126, 30.6751396 ], [ 76.205597, 30.6741086 ], [ 76.2180667, 30.6789522 ], [ 76.2185102, 30.6845006 ], [ 76.2237778, 30.6880985 ], [ 76.230085, 30.689974 ], [ 76.2313498, 30.6887503 ], [ 76.2359778, 30.6899097 ], [ 76.2372693, 30.6829421 ], [ 76.2430669, 30.6795369 ], [ 76.2531451, 30.6792153 ], [ 76.2553504, 30.6807597 ], [ 76.2617428, 30.6759983 ], [ 76.2640059, 30.6773126 ], [ 76.2661995, 30.6754293 ], [ 76.2716536, 30.6784815 ], [ 76.275054, 30.675513 ], [ 76.2813148, 30.6815296 ], [ 76.3032907, 30.6784044 ], [ 76.3083425, 30.6847707 ], [ 76.3121815, 30.6873569 ], [ 76.3198053, 30.6879241 ], [ 76.3233406, 30.6932699 ], [ 76.3214755, 30.6969899 ], [ 76.3226809, 30.6973738 ], [ 76.3194626, 30.7034024 ], [ 76.316022, 30.7051057 ], [ 76.3095825, 30.7033166 ], [ 76.3080205, 30.7053859 ], [ 76.3059127, 30.7041672 ], [ 76.2978073, 30.7171349 ], [ 76.2911336, 30.7139453 ], [ 76.2828764, 30.7243037 ], [ 76.2783624, 30.7279535 ], [ 76.275725, 30.7340626 ], [ 76.2839808, 30.7379382 ], [ 76.2809394, 30.7462796 ], [ 76.2885465, 30.7471552 ], [ 76.3005836, 30.752696 ], [ 76.301358, 30.7543439 ], [ 76.3109472, 30.7561962 ], [ 76.3049321, 30.7679905 ], [ 76.3007555, 30.7670355 ], [ 76.2897287, 30.7824116 ], [ 76.2723566, 30.7757442 ], [ 76.2618674, 30.7866963 ], [ 76.2626072, 30.7893281 ], [ 76.2691667, 30.7930309 ], [ 76.2697933, 30.7941842 ], [ 76.2677827, 30.796676 ], [ 76.2691274, 30.7991892 ], [ 76.2755997, 30.8009662 ], [ 76.2890584, 30.8081412 ], [ 76.2801502, 30.8201797 ], [ 76.2812823, 30.830251 ], [ 76.2914336, 30.8317562 ], [ 76.2902215, 30.8333742 ], [ 76.2940346, 30.8358669 ], [ 76.3008713, 30.8369308 ], [ 76.3110866, 30.8422998 ], [ 76.2976945, 30.8668554 ], [ 76.2983246, 30.8698698 ], [ 76.3011906, 30.8717988 ], [ 76.327938, 30.8787855 ], [ 76.3296798, 30.8738776 ], [ 76.3339618, 30.8696247 ], [ 76.3351009, 30.8721978 ], [ 76.3374358, 30.8727466 ], [ 76.3374885, 30.8750377 ], [ 76.3485688, 30.8737724 ], [ 76.348641, 30.8654802 ], [ 76.3574042, 30.8661329 ], [ 76.3568973, 30.8691246 ], [ 76.3680065, 30.8721699 ], [ 76.3678637, 30.8680077 ], [ 76.3724494, 30.8635654 ], [ 76.3820764, 30.8602736 ], [ 76.3801527, 30.8573935 ], [ 76.3799452, 30.8531282 ], [ 76.3848844, 30.8489884 ], [ 76.3944325, 30.8450741 ], [ 76.4068572, 30.8470193 ], [ 76.4112131, 30.8399211 ], [ 76.4092055, 30.838134 ], [ 76.4083181, 30.8389422 ], [ 76.4024824, 30.8305833 ], [ 76.4084639, 30.8195655 ], [ 76.4171138, 30.8195253 ], [ 76.4226, 30.8208049 ], [ 76.4244803, 30.8228368 ], [ 76.432638, 30.8192012 ], [ 76.4319338, 30.8122484 ], [ 76.4348365, 30.8120358 ], [ 76.4354981, 30.8104857 ], [ 76.4333182, 30.8065762 ], [ 76.4344841, 30.8055528 ], [ 76.4340653, 30.7991743 ], [ 76.442859, 30.796988 ], [ 76.4411974, 30.7903437 ], [ 76.4416164, 30.78341 ], [ 76.4442108, 30.7835977 ], [ 76.4442317, 30.7594676 ], [ 76.4548154, 30.7539541 ], [ 76.4564002, 30.7547934 ], [ 76.4595039, 30.7500129 ], [ 76.4636638, 30.7546575 ], [ 76.4696735, 30.745516 ], [ 76.4833153, 30.750663 ], [ 76.4922888, 30.7460837 ], [ 76.4968687, 30.7466026 ], [ 76.5007783, 30.7485868 ], [ 76.50649, 30.7493363 ], [ 76.5216304, 30.7577195 ], [ 76.5274027, 30.7500015 ], [ 76.5315465, 30.7413605 ], [ 76.5215304, 30.73305 ], [ 76.5255609, 30.7278531 ], [ 76.5314171, 30.723839 ], [ 76.5321236, 30.7164792 ], [ 76.5346353, 30.7099053 ], [ 76.5467012, 30.7123395 ], [ 76.551313, 30.708662 ], [ 76.5559583, 30.7014034 ], [ 76.5540864, 30.6989038 ], [ 76.5540665, 30.690443 ], [ 76.5622659, 30.6889904 ], [ 76.5661135, 30.6862817 ], [ 76.571103, 30.6754868 ], [ 76.5697785, 30.6741604 ], [ 76.5704213, 30.6722122 ], [ 76.5756578, 30.6656477 ], [ 76.5875004, 30.6671624 ], [ 76.5906635, 30.6632666 ], [ 76.5952395, 30.6614051 ], [ 76.5936443, 30.6574404 ], [ 76.5984621, 30.6521263 ], [ 76.6034421, 30.655061 ], [ 76.6199065, 30.6418707 ], [ 76.6258789, 30.644888 ], [ 76.627621, 30.6421278 ], [ 76.6294723, 30.6363864 ], [ 76.6289399, 30.6277497 ], [ 76.630228, 30.6267799 ], [ 76.6301653, 30.6233838 ], [ 76.6338884, 30.619099 ], [ 76.632162, 30.6156129 ], [ 76.6290433, 30.6136099 ], [ 76.6228832, 30.6135439 ], [ 76.6135808, 30.6088313 ], [ 76.6113256, 30.6027556 ], [ 76.6073975, 30.5991773 ], [ 76.6039967, 30.5918853 ], [ 76.5983857, 30.5964596 ], [ 76.5956662, 30.594408 ], [ 76.5903831, 30.5850348 ], [ 76.5858967, 30.5797792 ], [ 76.5878885, 30.5786117 ], [ 76.5826524, 30.572517 ], [ 76.5794989, 30.572579 ], [ 76.5787082, 30.5693856 ], [ 76.5746078, 30.5664661 ], [ 76.5715439, 30.5650667 ], [ 76.568717, 30.5684843 ], [ 76.5650651, 30.5656999 ], [ 76.5630572, 30.5679044 ], [ 76.5607546, 30.5660857 ], [ 76.5553767, 30.5649509 ], [ 76.5504177, 30.5614754 ], [ 76.5370737, 30.5579357 ], [ 76.5291527, 30.5628281 ], [ 76.5220848, 30.5635083 ], [ 76.5183874, 30.5688551 ], [ 76.5096402, 30.5669753 ], [ 76.5042233, 30.5640433 ], [ 76.5021581, 30.5609475 ], [ 76.5066319, 30.5548449 ], [ 76.5006184, 30.550451 ], [ 76.499186, 30.5453688 ], [ 76.5005629, 30.5408037 ], [ 76.5001243, 30.5373711 ], [ 76.5025296, 30.534771 ], [ 76.5005528, 30.5322796 ], [ 76.5025753, 30.5273339 ], [ 76.4909826, 30.5193142 ], [ 76.4925274, 30.5130121 ], [ 76.4965835, 30.5078749 ], [ 76.4911013, 30.5009667 ], [ 76.4980333, 30.4932468 ], [ 76.4951063, 30.4881737 ] ] ] } }
]
}
