{
"type": "FeatureCollection",
"name": "0309",
"crs": { "type": "name", "properties": { "name": "urn:ogc:def:crs:OGC:1.3:CRS84" } },
"features": [
{ "type": "Feature", "properties": { "code": "0309", "name": "Ludhiana", "type": "district" }, "geometry": { "type": "Polygon", "coordinates": [ [ [ 75.969124, 31.0150546 ], [ 75.9709237, 31.0039929 ], [ 75.9878309, 31.0051188 ], [ 75.9877638, 31.0038789 ], [ 75.9896156, 31.0053313 ], [ 75.9910801, 31.0093632 ], [ 76.0048146, 31.0063481 ], [ 76.0042547, 31.0038547 ], [ 76.0242565, 31.0011625 ], [ 76.026773, 30.9967613 ], [ 76.0464768, 30.9986734 ], [ 76.0477968, 30.9978533 ], [ 76.0540099, 31.0000014 ], [ 76.0626597, 31.000178 ], [ 76.0656293, 31.0000017 ], [ 76.0707337, 30.9955829 ], [ 76.0748054, 30.9980154 ], [ 76.0841369, 30.9977635 ], [ 76.0881827, 30.9950433 ], [ 76.1033584, 30.9983208 ], [ 76.1041704, 30.9961968 ], [ 76.1207136, 30.9929828 ], [ 76.1225355, 30.9930009 ], [ 76.1224306, 30.9967485 ], [ 76.1361836, 30.9974967 ], [ 76.1432639, 30.9857994 ], [ 76.1578283, 30.9886807 ], [ 76.1595248, 30.9868491 ], [ 76.1687744, 30.9894125 ], [ 76.1666246, 30.9932194 ], [ 76.1747979, 30.9958457 ], [ 76.1805281, 30.9920416 ], [ 76.1829063, 30.9946156 ], [ 76.1879016, 30.9960203 ], [ 76.1840071, 31.0052108 ], [ 76.2045761, 31.000036 ], [ 76.2043767, 31.0033083 ], [ 76.213351, 31.0044118 ], [ 76.2130249, 31.0067943 ], [ 76.2102014, 31.0104122 ], [ 76.2109263, 31.0119237 ], [ 76.2199301, 31.0115772 ], [ 76.2198843, 31.0084102 ], [ 76.2219223, 31.0076149 ], [ 76.2229482, 31.0033239 ], [ 76.2245259, 31.0026423 ], [ 76.2252741, 31.0053822 ], [ 76.2270774, 31.0044174 ], [ 76.2341124, 31.0058852 ], [ 76.2409784, 31.0023201 ], [ 76.2562984, 31.0103057 ], [ 76.2639069, 31.0030498 ], [ 76.264144, 31.0055421 ], [ 76.2738264, 31.0129399 ], [ 76.2747288, 31.0154121 ], [ 76.2770489, 31.0150057 ], [ 76.2822649, 31.010258 ], [ 76.2879317, 31.0090873 ], [ 76.2875487, 31.0067003 ], [ 76.2894263, 31.0045658 ], [ 76.2865956, 31.0031956 ], [ 76.28095, 31.003969 ], [ 76.2761569, 31.0023113 ], [ 76.2767561, 31.0001175 ], [ 76.2867887, 31.0023637 ], [ 76.2894289, 31.0000003 ], [ 76.2927206, 30.9991467 ], [ 76.2917527, 30.9980421 ], [ 76.2966428, 30.9883541 ], [ 76.3122897, 30.9880009 ], [ 76.316174, 30.9738192 ], [ 76.317641, 30.9506489 ], [ 76.3237121, 30.9301066 ], [ 76.3215538, 30.9272731 ], [ 76.3127592, 30.9247237 ], [ 76.3197377, 30.9142952 ], [ 76.3187132, 30.8983499 ], [ 76.3195208, 30.8771303 ], [ 76.313479, 30.8743678 ], [ 76.3011906, 30.8717988 ], [ 76.2983246, 30.8698698 ], [ 76.2976945, 30.8668554 ], [ 76.3110866, 30.8422998 ], [ 76.3008713, 30.8369308 ], [ 76.2940346, 30.8358669 ], [ 76.2902215, 30.8333742 ], [ 76.2914336, 30.8317562 ], [ 76.2812823, 30.830251 ], [ 76.2801502, 30.8201797 ], [ 76.2890584, 30.8081412 ], [ 76.2755997, 30.8009662 ], [ 76.2691274, 30.7991892 ], [ 76.2677827, 30.796676 ], [ 76.2697933, 30.7941842 ], [ 76.2691667, 30.7930309 ], [ 76.2626072, 30.7893281 ], [ 76.2618674, 30.7866963 ], [ 76.2723566, 30.7757442 ], [ 76.2897287, 30.7824116 ], [ 76.3007555, 30.7670355 ], [ 76.3049321, 30.7679905 ], [ 76.3109472, 30.7561962 ], [ 76.301358, 30.7543439 ], [ 76.3005836, 30.752696 ], [ 76.2885465, 30.7471552 ], [ 76.2809394, 30.7462796 ], [ 76.2839808, 30.7379382 ], [ 76.275725, 30.7340626 ], [ 76.2783624, 30.7279535 ], [ 76.2828764, 30.7243037 ], [ 76.2911336, 30.7139453 ], [ 76.2978073, 30.7171349 ], [ 76.3059127, 30.7041672 ], [ 76.3080205, 30.7053859 ], [ 76.3095825, 30.7033166 ], [ 76.316022, 30.7051057 ], [ 76.3194626, 30.7034024 ], [ 76.3226809, 30.6973738 ], [ 76.3214755, 30.6969899 ], [ 76.3233406, 30.6932699 ], [ 76.3198053, 30.6879241 ], [ 76.3121815, 30.6873569 ], [ 76.3083425, 30.6847707 ], [ 76.3032907, 30.6784044 ], [ 76.2813148, 30.6815296 ], [ 76.275054, 30.675513 ], [ 76.2716536, 30.6784815 ], [ 76.2661995, 30.6754293 ], [ 76.2640059, 30.6773126 ], [ 76.2617428, 30.6759983 ], [ 76.2553504, 30.6807597 ], [ 76.2531451, 30.6792153 ], [ 76.2430669, 30.6795369 ], [ 76.2372693, 30.6829421 ], [ 76.2359778, 30.6899097 ], [ 76.2313498, 30.6887503 ], [ 76.230085, 30.689974 ], [ 76.2237778, 30.6880985 ], [ 76.2185102, 30.6845006 ], [ 76.2180667, 30.6789522 ], [ 76.205597, 30.6741086 ], [ 76.1982126, 30.6751396 ], [ 76.1879629, 30.6676563 ], [ 76.1825342, 30.6715206 ], [ 76.180722, 30.6793535 ], [ 76.1767777, 30.6802706 ], [ 76.1736829, 30.67923 ], [ 76.1711503, 30.6754876 ], [ 76.1716053, 30.6667921 ], [ 76.169156, 30.6618274 ], [ 76.1520422, 30.6550806 ], [ 76.1528097, 30.6397868 ], [ 76.1450011, 30.6376731 ], [ 76.1278045, 30.629507 ], [ 76.127674, 30.6280141 ], [ 76.1252125, 30.6274233 ], [ 76.1279294, 30.6227734 ], [ 76.12382, 30.6215287 ], [ 76.1164917, 30.6148951 ], [ 76.1252539, 30.6027803 ], [ 76.1206657, 30.6007145 ], [ 76.1254833, 30.5969622 ], [ 76.1140975, 30.591031 ], [ 76.1102089, 30.5873594 ], [ 76.1114919, 30.5828765 ], [ 76.1145834, 30.5797739 ], [ 76.1080421, 30.5760433 ], [ 76.107283, 30.5651513 ], [ 76.1088831, 30.5647772 ], [ 76.1077422, 30.56208 ], [ 76.0980123, 30.5604457 ], [ 76.0964582, 30.5640219 ], [ 76.089645, 30.5679847 ], [ 76.0844876, 30.5619487 ], [ 76.0826206, 30.5646135 ], [ 76.0786018, 30.5657307 ], [ 76.0758458, 30.5636145 ], [ 76.07005, 30.5639234 ], [ 76.0653667, 30.5691396 ], [ 76.06663, 30.5746604 ], [ 76.0692505, 30.5769482 ], [ 76.0677879, 30.5823463 ], [ 76.0660409, 30.5834414 ], [ 76.0578652, 30.578544 ], [ 76.054048, 30.5809234 ], [ 76.0535875, 30.5832368 ], [ 76.0495785, 30.5838299 ], [ 76.043299, 30.5875424 ], [ 76.0353739, 30.5889309 ], [ 76.0321826, 30.6007812 ], [ 76.0341303, 30.6032496 ], [ 76.0331807, 30.6038939 ], [ 76.0337468, 30.6064064 ], [ 76.0325709, 30.609274 ], [ 76.029582, 30.610494 ], [ 76.0295265, 30.6139442 ], [ 76.0278668, 30.6153096 ], [ 76.0100795, 30.6157416 ], [ 76.0045112, 30.6065 ], [ 76.0004587, 30.6032985 ], [ 75.9868867, 30.59832 ], [ 75.9828048, 30.5986482 ], [ 75.979084, 30.595422 ], [ 75.9717435, 30.592427 ], [ 75.9609887, 30.590393 ], [ 75.9565307, 30.5834594 ], [ 75.9553792, 30.5778089 ], [ 75.9530673, 30.574527 ], [ 75.9486092, 30.5725 ], [ 75.9477372, 30.5704349 ], [ 75.9353726, 30.5681862 ], [ 75.9253966, 30.5778918 ], [ 75.9268439, 30.5842594 ], [ 75.9209048, 30.5919334 ], [ 75.9292752, 30.5972475 ], [ 75.9229872, 30.6066942 ], [ 75.9234731, 30.6086964 ], [ 75.9196776, 30.6097938 ], [ 75.9171638, 30.6085815 ], [ 75.9152042, 30.6108462 ], [ 75.9113036, 30.6102023 ], [ 75.9099903, 30.6118895 ], [ 75.9035647, 30.6068398 ], [ 75.9027816, 30.60371 ], [ 75.8878546, 30.6070048 ], [ 75.8866817, 30.6094358 ], [ 75.888185, 30.6204087 ], [ 75.8723525, 30.6288748 ], [ 75.8724567, 30.639239 ], [ 75.880051, 30.6406009 ], [ 75.8801867, 30.6419945 ], [ 75.8866497, 30.6452052 ], [ 75.8890022, 30.6448532 ], [ 75.8980528, 30.6474812 ], [ 75.8977562, 30.6504624 ], [ 75.8950237, 30.6548602 ], [ 75.8954265, 30.6595731 ], [ 75.8882068, 30.6633941 ], [ 75.8852902, 30.6627179 ], [ 75.8832557, 30.6643372 ], [ 75.881456, 30.6666284 ], [ 75.8808671, 30.6756305 ], [ 75.8792913, 30.6762484 ], [ 75.8676085, 30.6771729 ], [ 75.8668153, 30.678156 ], [ 75.8593131, 30.6705199 ], [ 75.8557028, 30.6692295 ], [ 75.8524105, 30.6701355 ], [ 75.8463461, 30.6754969 ], [ 75.8438453, 30.6803941 ], [ 75.8378604, 30.6799191 ], [ 75.8337903, 30.6923204 ], [ 75.8277687, 30.6906452 ], [ 75.8218352, 30.690652 ], [ 75.8162326, 30.6869468 ], [ 75.8213447, 30.6808018 ], [ 75.8222752, 30.6779699 ], [ 75.8166943, 30.6740484 ], [ 75.8178926, 30.668073 ], [ 75.8151872, 30.6641121 ], [ 75.8122959, 30.665608 ], [ 75.8079353, 30.6639957 ], [ 75.8037406, 30.6643273 ], [ 75.7910663, 30.6601976 ], [ 75.7857533, 30.6567665 ], [ 75.7822356, 30.65855 ], [ 75.7809084, 30.6607004 ], [ 75.7815349, 30.671128 ], [ 75.7712852, 30.6733122 ], [ 75.7648396, 30.6703077 ], [ 75.7630526, 30.663469 ], [ 75.7647224, 30.658559 ], [ 75.7729327, 30.6595804 ], [ 75.7743469, 30.6491001 ], [ 75.7799876, 30.641816 ], [ 75.7968274, 30.6320133 ], [ 75.7973037, 30.6299299 ], [ 75.7890378, 30.6234664 ], [ 75.7821478, 30.6245305 ], [ 75.7802668, 30.628223 ], [ 75.7699578, 30.6316563 ], [ 75.7607145, 30.6374349 ], [ 75.7538464, 30.6323369 ], [ 75.738295, 30.6316881 ], [ 75.7335465, 30.620196 ], [ 75.7276849, 30.6178836 ], [ 75.7280567, 30.6165654 ], [ 75.7205532, 30.6117319 ], [ 75.711457, 30.6091495 ], [ 75.7030677, 30.6031925 ], [ 75.6981009, 30.6057978 ], [ 75.6828864, 30.6060535 ], [ 75.679537, 30.602483 ], [ 75.6783304, 30.5987086 ], [ 75.6740486, 30.595878 ], [ 75.6548144, 30.5911166 ], [ 75.6380073, 30.5943172 ], [ 75.6267881, 30.600862 ], [ 75.6094949, 30.5949034 ], [ 75.6094691, 30.5937172 ], [ 75.6038437, 30.5941539 ], [ 75.5957129, 30.5867829 ], [ 75.5895836, 30.5831463 ], [ 75.585599, 30.575284 ], [ 75.5798817, 30.5735548 ], [ 75.5789349, 30.5696126 ], [ 75.5658563, 30.5720339 ], [ 75.5536695, 30.5799295 ], [ 75.5496973, 30.580225 ], [ 75.5409571, 30.5784291 ], [ 75.5370316, 30.5672775 ], [ 75.5327157, 30.5675542 ], [ 75.52835, 30.5709517 ], [ 75.5283187, 30.5763593 ], [ 75.5267832, 30.5792176 ], [ 75.5289513, 30.5850463 ], [ 75.5225391, 30.585285 ], [ 75.5186794, 30.5871851 ], [ 75.5166123, 30.5849554 ], [ 75.5131206, 30.5840866 ], [ 75.5099244, 30.5802727 ], [ 75.5096427, 30.576015 ], [ 75.5069832, 30.5725894 ], [ 75.5049485, 30.5741256 ], [ 75.5016446, 30.5735948 ], [ 75.487506, 30.5827448 ], [ 75.4966834, 30.5974033 ], [ 75.4958346, 30.5982159 ], [ 75.4900477, 30.5984377 ], [ 75.4841654, 30.6019967 ], [ 75.4766151, 30.6012994 ], [ 75.4661917, 30.605718 ], [ 75.4643042, 30.6057869 ], [ 75.4642461, 30.5993916 ], [ 75.4615705, 30.598266 ], [ 75.4540338, 30.6010039 ], [ 75.4506883, 30.5965229 ], [ 75.4486865, 30.5967225 ], [ 75.4449499, 30.5917409 ], [ 75.4421937, 30.5940335 ], [ 75.4369155, 30.5906671 ], [ 75.4339297, 30.5929957 ], [ 75.4309424, 30.5838822 ], [ 75.4218779, 30.5852298 ], [ 75.4165287, 30.5834907 ], [ 75.4092308, 30.5838672 ], [ 75.4064265, 30.5848737 ], [ 75.397353, 30.5938327 ], [ 75.401668, 30.6063924 ], [ 75.4024833, 30.6129229 ], [ 75.4012126, 30.6187006 ], [ 75.3948044, 30.6226165 ], [ 75.396896, 30.6241135 ], [ 75.3878692, 30.6270283 ], [ 75.3874622, 30.6258376 ], [ 75.3765469, 30.6237637 ], [ 75.3745088, 30.6264074 ], [ 75.3764194, 30.6286307 ], [ 75.3787379, 30.639648 ], [ 75.3737202, 30.6409426 ], [ 75.3735168, 30.6444739 ], [ 75.3697401, 30.6487088 ], [ 75.381118, 30.6628702 ], [ 75.3820106, 30.6690715 ], [ 75.3784368, 30.6726482 ], [ 75.3763969, 30.6788224 ], [ 75.3683295, 30.6848252 ], [ 75.3673378, 30.6876259 ], [ 75.3694302, 30.691685 ], [ 75.3683603, 30.6936694 ], [ 75.3696333, 30.6994062 ], [ 75.3684586, 30.7069063 ], [ 75.3705828, 30.7109248 ], [ 75.3729316, 30.7088052 ], [ 75.3782139, 30.7088051 ], [ 75.3836008, 30.712467 ], [ 75.3851674, 30.7177751 ], [ 75.3861906, 30.7180591 ], [ 75.3850584, 30.7235975 ], [ 75.3778856, 30.7239362 ], [ 75.375714, 30.7282388 ], [ 75.3760951, 30.7303179 ], [ 75.3723517, 30.7343543 ], [ 75.3731035, 30.7372317 ], [ 75.3775154, 30.739401 ], [ 75.375829, 30.7429008 ], [ 75.3770457, 30.7441185 ], [ 75.3754897, 30.7460036 ], [ 75.3754428, 30.7491606 ], [ 75.3783687, 30.7507672 ], [ 75.377504, 30.7518265 ], [ 75.3799331, 30.7540155 ], [ 75.38433, 30.7648664 ], [ 75.3852971, 30.7709652 ], [ 75.3905429, 30.7840017 ], [ 75.3934009, 30.8018627 ], [ 75.3960532, 30.8087276 ], [ 75.3922975, 30.8119065 ], [ 75.3810456, 30.8149158 ], [ 75.3763257, 30.8186206 ], [ 75.367463, 30.8318874 ], [ 75.368335, 30.8353613 ], [ 75.3674816, 30.8417611 ], [ 75.3693498, 30.8445669 ], [ 75.368212, 30.8452915 ], [ 75.3728683, 30.8501004 ], [ 75.3755452, 30.858513 ], [ 75.3834578, 30.8612341 ], [ 75.3954215, 30.8715014 ], [ 75.399165, 30.8730026 ], [ 75.3986082, 30.882151 ], [ 75.4063281, 30.8915877 ], [ 75.4047315, 30.8959343 ], [ 75.3962124, 30.9013651 ], [ 75.3964887, 30.9041177 ], [ 75.3940852, 30.904189 ], [ 75.3932919, 30.9097478 ], [ 75.3780503, 30.9124261 ], [ 75.3825321, 30.9297416 ], [ 75.3752785, 30.9316831 ], [ 75.3736709, 30.9288044 ], [ 75.3695506, 30.929723 ], [ 75.3715912, 30.9342823 ], [ 75.3705912, 30.9395809 ], [ 75.3722141, 30.9395517 ], [ 75.3722831, 30.9413049 ], [ 75.3662697, 30.940439 ], [ 75.3657951, 30.9522502 ], [ 75.3642352, 30.9574263 ], [ 75.3612341, 30.9590426 ], [ 75.3623593, 30.9627952 ], [ 75.3608676, 30.9634321 ], [ 75.3610266, 30.9644934 ], [ 75.3626864, 30.9638954 ], [ 75.3676689, 30.9718057 ], [ 75.3630862, 30.978386 ], [ 75.3561629, 30.9844234 ], [ 75.3574751, 30.9876183 ], [ 75.3567853, 30.9937701 ], [ 75.3673535, 30.9912751 ], [ 75.3716172, 30.9981539 ], [ 75.3748391, 30.9985117 ], [ 75.3755403, 30.9948578 ], [ 75.3837408, 30.9898195 ], [ 75.3894809, 30.9937159 ], [ 75.3976402, 30.9966554 ], [ 75.4016891, 30.9942354 ], [ 75.4037218, 30.9901315 ], [ 75.4048982, 30.9820044 ], [ 75.4088918, 30.9800483 ], [ 75.4140429, 30.9851425 ], [ 75.420447, 30.9869619 ], [ 75.4318371, 30.981773 ], [ 75.4344603, 30.9825882 ], [ 75.438021, 30.9813939 ], [ 75.4412324, 30.9835921 ], [ 75.4451099, 30.9816198 ], [ 75.4484776, 30.9840856 ], [ 75.4557033, 30.9836221 ], [ 75.4590563, 30.9809753 ], [ 75.4592978, 30.977156 ], [ 75.4624691, 30.9776299 ], [ 75.4623667, 30.9763444 ], [ 75.4643552, 30.9763893 ], [ 75.464489, 30.9783061 ], [ 75.4681343, 30.9771397 ], [ 75.4693334, 30.9797403 ], [ 75.4727889, 30.9803389 ], [ 75.4740701, 30.9819632 ], [ 75.4749277, 30.9801165 ], [ 75.4766078, 30.9799838 ], [ 75.4762125, 30.9779662 ], [ 75.4822407, 30.9697932 ], [ 75.4882977, 30.9727248 ], [ 75.4927548, 30.9702281 ], [ 75.4990304, 30.9699608 ], [ 75.5009678, 30.9723567 ], [ 75.5061865, 30.9730763 ], [ 75.5064079, 30.9763282 ], [ 75.5101302, 30.9752398 ], [ 75.51657, 30.9761211 ], [ 75.5324579, 30.9717119 ], [ 75.5364454, 30.9685148 ], [ 75.5370915, 30.9660939 ], [ 75.5373252, 30.9676179 ], [ 75.5430769, 30.9681578 ], [ 75.5430212, 30.9758908 ], [ 75.5756515, 30.977527 ], [ 75.5850161, 30.9702079 ], [ 75.5934292, 30.9709455 ], [ 75.594336, 30.9685638 ], [ 75.6062684, 30.9694693 ], [ 75.6100998, 30.9750546 ], [ 75.6425658, 30.9770762 ], [ 75.6417669, 30.97976 ], [ 75.6524175, 30.9805593 ], [ 75.6680095, 30.9848558 ], [ 75.6738247, 30.9874738 ], [ 75.6769737, 30.991432 ], [ 75.6878491, 30.9919655 ], [ 75.6887736, 30.9945366 ], [ 75.7035705, 30.9955757 ], [ 75.7016155, 30.998221 ], [ 75.7030028, 30.9988676 ], [ 75.7165435, 31.0003779 ], [ 75.7153169, 31.0043609 ], [ 75.7352395, 31.0052247 ], [ 75.7346855, 31.010637 ], [ 75.74439, 31.0124233 ], [ 75.7639669, 31.0130527 ], [ 75.7623061, 31.0090518 ], [ 75.7703859, 31.009446 ], [ 75.7712157, 31.0071312 ], [ 75.7725597, 31.006866 ], [ 75.7712718, 31.00303 ], [ 75.7775839, 31.0031681 ], [ 75.7770118, 31.0010737 ], [ 75.781754, 30.997806 ], [ 75.7925943, 30.9940296 ], [ 75.8175065, 30.9962888 ], [ 75.8204052, 30.9982903 ], [ 75.8291599, 30.9988345 ], [ 75.8299326, 31.0002527 ], [ 75.8445033, 31.0015252 ], [ 75.8446007, 31.0000989 ], [ 75.8561874, 31.0009114 ], [ 75.8564429, 31.0043022 ], [ 75.864937, 31.0041915 ], [ 75.8672144, 31.0081462 ], [ 75.8845529, 31.0089308 ], [ 75.8847164, 31.0079192 ], [ 75.8915481, 31.0081113 ], [ 75.8954574, 31.0044165 ], [ 75.8985142, 31.0047787 ], [ 75.8977342, 31.0081722 ], [ 75.905672, 31.016774 ], [ 75.910198, 31.0157091 ], [ 75.9124096, 31.0174754 ], [ 75.915174, 31.0173341 ], [ 75.9158869, 31.0151997 ], [ 75.9211584, 31.0116117 ], [ 75.933439, 31.0119431 ], [ 75.9340159, 31.0093359 ], [ 75.9525665, 31.0102786 ], [ 75.9592828, 31.0182725 ], [ 75.969124, 31.0150546 ] ] ] } }
]
}
