{
"type": "FeatureCollection",
"name": "0310",
"crs": { "type": "name", "properties": { "name": "urn:ogc:def:crs:OGC:1.3:CRS84" } },
"features": [
{ "type": "Feature", "properties": { "code": "0310", "name": "Moga", "type": "district" }, "geometry": { "type": "Polygon", "coordinates": [ [ [ 75.1625563, 31.0895083 ], [ 75.1632191, 31.0825631 ], [ 75.1725359, 31.083056 ], [ 75.1731686, 31.0804942 ], [ 75.1784823, 31.0814076 ], [ 75.1834368, 31.0776849 ], [ 75.1734946, 31.0623063 ], [ 75.1771985, 31.0530237 ], [ 75.190642, 31.0560751 ], [ 75.1985604, 31.0533198 ], [ 75.2033337, 31.0547692 ], [ 75.2069162, 31.0540499 ], [ 75.2069376, 31.0485795 ], [ 75.2100258, 31.0460881 ], [ 75.2099006, 31.0407846 ], [ 75.2059908, 31.0316729 ], [ 75.2024476, 31.0280627 ], [ 75.202556, 31.0262137 ], [ 75.2013515, 31.0260881 ], [ 75.2039073, 31.0201201 ], [ 75.2052631, 31.0196638 ], [ 75.2036497, 31.0251397 ], [ 75.2051861, 31.0276732 ], [ 75.2063649, 31.0281551 ], [ 75.2082427, 31.0256058 ], [ 75.2100161, 31.0294018 ], [ 75.2113618, 31.0291259 ], [ 75.2156066, 31.0321535 ], [ 75.219857, 31.0300714 ], [ 75.221125, 31.0306567 ], [ 75.2219302, 31.0292626 ], [ 75.2248788, 31.0294993 ], [ 75.2241089, 31.0345194 ], [ 75.2293752, 31.0370181 ], [ 75.2320311, 31.0375481 ], [ 75.2341695, 31.0343624 ], [ 75.2390108, 31.0315937 ], [ 75.2403004, 31.0327606 ], [ 75.2532473, 31.032617 ], [ 75.2584696, 31.0305923 ], [ 75.2626311, 31.0384316 ], [ 75.2569653, 31.0433008 ], [ 75.2679636, 31.0434884 ], [ 75.2683013, 31.0399447 ], [ 75.2713008, 31.0366144 ], [ 75.2722628, 31.0381529 ], [ 75.2816288, 31.0420475 ], [ 75.2867556, 31.0372932 ], [ 75.2910622, 31.0356004 ], [ 75.2946706, 31.0232775 ], [ 75.2949603, 31.0148578 ], [ 75.3088312, 31.0145093 ], [ 75.3098611, 31.0092514 ], [ 75.3205172, 31.0072314 ], [ 75.3278198, 31.0097642 ], [ 75.3282522, 31.0035679 ], [ 75.3318049, 31.0031869 ], [ 75.3352154, 31.0005447 ], [ 75.3393909, 30.9904613 ], [ 75.3418167, 30.98853 ], [ 75.3480191, 30.9968132 ], [ 75.3521976, 30.9977724 ], [ 75.3521317, 30.9992418 ], [ 75.3534911, 30.998058 ], [ 75.3565233, 31.0011247 ], [ 75.3586334, 30.9996493 ], [ 75.3561408, 30.9976361 ], [ 75.3575852, 30.9909324 ], [ 75.3561629, 30.9844234 ], [ 75.3630862, 30.978386 ], [ 75.3676689, 30.9718057 ], [ 75.3626864, 30.9638954 ], [ 75.3610266, 30.9644934 ], [ 75.3608676, 30.9634321 ], [ 75.3623593, 30.9627952 ], [ 75.3612341, 30.9590426 ], [ 75.3642352, 30.9574263 ], [ 75.3657951, 30.9522502 ], [ 75.3662697, 30.940439 ], [ 75.3722831, 30.9413049 ], [ 75.3722141, 30.9395517 ], [ 75.3705912, 30.9395809 ], [ 75.3715912, 30.9342823 ], [ 75.3695506, 30.929723 ], [ 75.3736709, 30.9288044 ], [ 75.3752785, 30.9316831 ], [ 75.3825321, 30.9297416 ], [ 75.3780503, 30.9124261 ], [ 75.3932919, 30.9097478 ], [ 75.3940852, 30.904189 ], [ 75.3964887, 30.9041177 ], [ 75.3962124, 30.9013651 ], [ 75.4047315, 30.8959343 ], [ 75.4063281, 30.8915877 ], [ 75.3986082, 30.882151 ], [ 75.399165, 30.8730026 ], [ 75.3954215, 30.8715014 ], [ 75.3834578, 30.8612341 ], [ 75.3755452, 30.858513 ], [ 75.3728683, 30.8501004 ], [ 75.368212, 30.8452915 ], [ 75.3693498, 30.8445669 ], [ 75.3674816, 30.8417611 ], [ 75.368335, 30.8353613 ], [ 75.367463, 30.8318874 ], [ 75.3763257, 30.8186206 ], [ 75.3810456, 30.8149158 ], [ 75.3922975, 30.8119065 ], [ 75.3960532, 30.8087276 ], [ 75.3934009, 30.8018627 ], [ 75.3905429, 30.7840017 ], [ 75.3852971, 30.7709652 ], [ 75.38433, 30.7648664 ], [ 75.3799331, 30.7540155 ], [ 75.377504, 30.7518265 ], [ 75.3783687, 30.7507672 ], [ 75.3754428, 30.7491606 ], [ 75.3754897, 30.7460036 ], [ 75.3770457, 30.7441185 ], [ 75.375829, 30.7429008 ], [ 75.3775154, 30.739401 ], [ 75.3731035, 30.7372317 ], [ 75.3723517, 30.7343543 ], [ 75.3760951, 30.7303179 ], [ 75.375714, 30.7282388 ], [ 75.3778856, 30.7239362 ], [ 75.3850584, 30.7235975 ], [ 75.3861906, 30.7180591 ], [ 75.3851674, 30.7177751 ], [ 75.3836008, 30.712467 ], [ 75.3782139, 30.7088051 ], [ 75.3729316, 30.7088052 ], [ 75.3705828, 30.7109248 ], [ 75.3684586, 30.7069063 ], [ 75.3696333, 30.6994062 ], [ 75.3683603, 30.6936694 ], [ 75.3694302, 30.691685 ], [ 75.3673378, 30.6876259 ], [ 75.3683295, 30.6848252 ], [ 75.3763969, 30.6788224 ], [ 75.3784368, 30.6726482 ], [ 75.3820106, 30.6690715 ], [ 75.381118, 30.6628702 ], [ 75.3697401, 30.6487088 ], [ 75.3735168, 30.6444739 ], [ 75.3737202, 30.6409426 ], [ 75.3787379, 30.639648 ], [ 75.3764194, 30.6286307 ], [ 75.3745088, 30.6264074 ], [ 75.3765469, 30.6237637 ], [ 75.3874622, 30.6258376 ], [ 75.3878692, 30.6270283 ], [ 75.3956237, 30.6249977 ], [ 75.396896, 30.6241135 ], [ 75.3948044, 30.6226165 ], [ 75.3960609, 30.6209521 ], [ 75.4019735, 30.6173338 ], [ 75.401668, 30.6063924 ], [ 75.397353, 30.5938327 ], [ 75.4064265, 30.5848737 ], [ 75.4091265, 30.5839033 ], [ 75.4051787, 30.5754222 ], [ 75.4066396, 30.5671986 ], [ 75.4040022, 30.5667301 ], [ 75.4092646, 30.5618443 ], [ 75.4088413, 30.5586964 ], [ 75.4160167, 30.5567549 ], [ 75.419611, 30.5534478 ], [ 75.4195203, 30.5486716 ], [ 75.4139686, 30.5437078 ], [ 75.4091926, 30.5355322 ], [ 75.4040543, 30.5323403 ], [ 75.4006198, 30.5284714 ], [ 75.3951699, 30.5270607 ], [ 75.3893453, 30.5273096 ], [ 75.3860889, 30.5246038 ], [ 75.3754819, 30.5216231 ], [ 75.3744295, 30.5184119 ], [ 75.3721114, 30.5177759 ], [ 75.3708871, 30.5185967 ], [ 75.3684753, 30.5170632 ], [ 75.367303, 30.5193318 ], [ 75.3610939, 30.5152947 ], [ 75.360589, 30.5128501 ], [ 75.3597917, 30.5144737 ], [ 75.3555511, 30.5164666 ], [ 75.3469505, 30.5167718 ], [ 75.3447944, 30.5146651 ], [ 75.3345715, 30.5208368 ], [ 75.3337515, 30.5259916 ], [ 75.3299693, 30.5258957 ], [ 75.3319792, 30.5280657 ], [ 75.3309194, 30.5331979 ], [ 75.3225857, 30.5381425 ], [ 75.3203412, 30.5358279 ], [ 75.319304, 30.5366302 ], [ 75.31275, 30.5354907 ], [ 75.3117647, 30.5284004 ], [ 75.3079523, 30.5264636 ], [ 75.3042839, 30.5274179 ], [ 75.3016514, 30.5224553 ], [ 75.2930246, 30.5159285 ], [ 75.2940855, 30.5116174 ], [ 75.2882695, 30.508849 ], [ 75.2854398, 30.5102903 ], [ 75.282874, 30.5079568 ], [ 75.2690404, 30.5165788 ], [ 75.2655772, 30.5204096 ], [ 75.2619821, 30.5208621 ], [ 75.2577117, 30.5197939 ], [ 75.2553041, 30.5161701 ], [ 75.2523093, 30.5157208 ], [ 75.25, 30.5177277 ], [ 75.2455986, 30.5148415 ], [ 75.2404296, 30.5135834 ], [ 75.2387589, 30.5103781 ], [ 75.2333224, 30.5118396 ], [ 75.2312665, 30.5086075 ], [ 75.2276401, 30.5076318 ], [ 75.2211555, 30.5079976 ], [ 75.2120215, 30.5163568 ], [ 75.2057418, 30.513339 ], [ 75.2070513, 30.5095227 ], [ 75.2017466, 30.5069551 ], [ 75.195453, 30.5121319 ], [ 75.1919918, 30.5086293 ], [ 75.1811584, 30.5105423 ], [ 75.1804352, 30.521137 ], [ 75.1830836, 30.5330335 ], [ 75.1793898, 30.5518018 ], [ 75.1722077, 30.5602296 ], [ 75.1653571, 30.5790526 ], [ 75.1607389, 30.5793562 ], [ 75.1572977, 30.5767548 ], [ 75.1543002, 30.5767392 ], [ 75.1456237, 30.5823846 ], [ 75.1383967, 30.5759137 ], [ 75.1339921, 30.5745622 ], [ 75.1244641, 30.5675087 ], [ 75.1206371, 30.5608518 ], [ 75.1307791, 30.5376966 ], [ 75.1311848, 30.5273863 ], [ 75.1281889, 30.5223035 ], [ 75.1219947, 30.5244369 ], [ 75.1088668, 30.5209316 ], [ 75.1052409, 30.5212378 ], [ 75.0928874, 30.5266567 ], [ 75.0846678, 30.5319443 ], [ 75.0778994, 30.5251142 ], [ 75.0700141, 30.5116935 ], [ 75.0619674, 30.5014698 ], [ 75.0611539, 30.5031517 ], [ 75.0586116, 30.5039397 ], [ 75.0550401, 30.5016242 ], [ 75.0515543, 30.5034624 ], [ 75.0494724, 30.5014272 ], [ 75.0429099, 30.5011301 ], [ 75.0418812, 30.5042188 ], [ 75.040132, 30.5032165 ], [ 75.0365106, 30.5047701 ], [ 75.0324171, 30.5042712 ], [ 75.0283859, 30.497258 ], [ 75.0202304, 30.4908886 ], [ 75.0167138, 30.4918818 ], [ 75.0106075, 30.4907228 ], [ 75.0043139, 30.4914 ], [ 75.001688, 30.4897757 ], [ 75.0, 30.4863647 ], [ 74.9957264, 30.4902401 ], [ 74.9922544, 30.4998401 ], [ 74.9938876, 30.5109887 ], [ 74.9901019, 30.5203904 ], [ 74.9921363, 30.5271305 ], [ 74.997108, 30.5330653 ], [ 74.9903633, 30.5432885 ], [ 74.9824527, 30.5423965 ], [ 74.9778751, 30.5431792 ], [ 74.9732788, 30.547255 ], [ 74.9637488, 30.5523623 ], [ 74.9626204, 30.5606068 ], [ 74.9555762, 30.5617659 ], [ 74.9504594, 30.5688853 ], [ 74.944656, 30.5718423 ], [ 74.9316826, 30.5595283 ], [ 74.9276408, 30.5534464 ], [ 74.927097, 30.5499517 ], [ 74.9315396, 30.5467162 ], [ 74.9314437, 30.5450974 ], [ 74.9262738, 30.5391401 ], [ 74.9118815, 30.5465294 ], [ 74.9040773, 30.5488225 ], [ 74.9017908, 30.5514025 ], [ 74.9032153, 30.5585952 ], [ 74.9046176, 30.5602003 ], [ 74.903107, 30.5623112 ], [ 74.9029376, 30.5706226 ], [ 74.9100025, 30.580258 ], [ 74.9191521, 30.5860275 ], [ 74.9286495, 30.5868852 ], [ 74.9502635, 30.59179 ], [ 74.9529836, 30.5906654 ], [ 74.9554671, 30.5935771 ], [ 74.9549061, 30.5957828 ], [ 74.9492958, 30.6009406 ], [ 74.9482854, 30.6089774 ], [ 74.9467322, 30.609542 ], [ 74.9481855, 30.6146371 ], [ 74.9483843, 30.6226551 ], [ 74.9532204, 30.6256648 ], [ 74.9535265, 30.6300569 ], [ 74.9562073, 30.6369054 ], [ 74.9499764, 30.6449633 ], [ 74.9577619, 30.6557456 ], [ 74.9583747, 30.6586811 ], [ 74.9577063, 30.6698518 ], [ 74.9552766, 30.6778127 ], [ 74.9517542, 30.6767507 ], [ 74.94536, 30.6793654 ], [ 74.9387906, 30.6782504 ], [ 74.9334749, 30.6794074 ], [ 74.9219813, 30.6792859 ], [ 74.9228464, 30.6879349 ], [ 74.9188693, 30.6853388 ], [ 74.9186958, 30.6823851 ], [ 74.9155305, 30.6825893 ], [ 74.9041455, 30.7033228 ], [ 74.9109385, 30.7267393 ], [ 74.9105552, 30.7346041 ], [ 74.9087653, 30.7365843 ], [ 74.9121762, 30.741359 ], [ 74.9119766, 30.7511009 ], [ 74.9076012, 30.7541794 ], [ 74.9071483, 30.7579825 ], [ 74.9117768, 30.7639007 ], [ 74.9121596, 30.768151 ], [ 74.9105271, 30.7706449 ], [ 74.9143317, 30.7756375 ], [ 74.9149059, 30.7822566 ], [ 74.9233277, 30.7847208 ], [ 74.9309856, 30.7889887 ], [ 74.9283528, 30.7944645 ], [ 74.9280997, 30.8045076 ], [ 74.947175, 30.8284335 ], [ 74.9461263, 30.8340276 ], [ 74.9409784, 30.8389928 ], [ 74.9479228, 30.8572276 ], [ 74.9469423, 30.8618427 ], [ 74.9448224, 30.8648285 ], [ 74.9437019, 30.8760577 ], [ 74.9425554, 30.8776588 ], [ 74.9440304, 30.8778174 ], [ 74.943721, 30.8791347 ], [ 74.9458014, 30.8817659 ], [ 74.9479566, 30.8818119 ], [ 74.951648, 30.8850347 ], [ 74.9531633, 30.888807 ], [ 74.9522254, 30.891631 ], [ 74.9575941, 30.8891875 ], [ 74.965336, 30.8907012 ], [ 74.9711069, 30.8891506 ], [ 74.9802774, 30.8900411 ], [ 74.9964427, 30.8885853 ], [ 75.0004108, 30.8957787 ], [ 75.0043939, 30.8932421 ], [ 75.0160958, 30.8923197 ], [ 75.022557, 30.8948798 ], [ 75.0251851, 30.8946735 ], [ 75.0274054, 30.8968751 ], [ 75.0304105, 30.8968081 ], [ 75.0336908, 30.9032386 ], [ 75.0364918, 30.9172888 ], [ 75.0408187, 30.9221759 ], [ 75.051034, 30.9235531 ], [ 75.0698542, 30.9450698 ], [ 75.0784818, 30.9463901 ], [ 75.0776183, 30.9575607 ], [ 75.0825218, 30.9571926 ], [ 75.086535, 30.9586369 ], [ 75.0928633, 30.9701929 ], [ 75.0937984, 30.9754471 ], [ 75.0987662, 30.9727737 ], [ 75.1029692, 30.972098 ], [ 75.1034918, 30.9756068 ], [ 75.1009845, 30.9762197 ], [ 75.0995497, 30.9791103 ], [ 75.0961332, 30.9916559 ], [ 75.0990644, 30.9933026 ], [ 75.102173, 30.9975199 ], [ 75.096329, 31.0023549 ], [ 75.1030381, 31.0152588 ], [ 75.0996591, 31.0215809 ], [ 75.0949764, 31.0257921 ], [ 75.0678711, 31.0341036 ], [ 75.0670105, 31.0368182 ], [ 75.0678043, 31.0407465 ], [ 75.0628235, 31.0405729 ], [ 75.0529594, 31.0428317 ], [ 75.0473058, 31.0519247 ], [ 75.051724, 31.0625342 ], [ 75.0620307, 31.0676492 ], [ 75.0683627, 31.0532299 ], [ 75.071459, 31.0522435 ], [ 75.0728658, 31.0468504 ], [ 75.0943359, 31.0473216 ], [ 75.0961736, 31.0502354 ], [ 75.0964645, 31.0586823 ], [ 75.0844667, 31.0621561 ], [ 75.0818302, 31.0653753 ], [ 75.0835942, 31.0687311 ], [ 75.0945851, 31.0713363 ], [ 75.1001351, 31.0652086 ], [ 75.1082759, 31.0681638 ], [ 75.09995, 31.0721401 ], [ 75.0993094, 31.0773713 ], [ 75.109265, 31.0751721 ], [ 75.1119524, 31.0790192 ], [ 75.1163171, 31.0781176 ], [ 75.1179936, 31.0813692 ], [ 75.1201262, 31.0816805 ], [ 75.1268226, 31.0789792 ], [ 75.1283158, 31.0764402 ], [ 75.1338905, 31.0737296 ], [ 75.1389738, 31.0807643 ], [ 75.1403729, 31.0816029 ], [ 75.1419342, 31.0805069 ], [ 75.1458233, 31.0857105 ], [ 75.1481495, 31.0840009 ], [ 75.1531588, 31.0837202 ], [ 75.1549412, 31.0862273 ], [ 75.1577971, 31.086177 ], [ 75.1625563, 31.0895083 ] ] ] } }
]
}
