{
"type": "FeatureCollection",
"name": "0311",
"crs": { "type": "name", "properties": { "name": "urn:ogc:def:crs:OGC:1.3:CRS84" } },
"features": [
{ "type": "Feature", "properties": { "code": "0311", "name": "Ferozepur", "type": "district" }, "geometry": { "type": "Polygon", "coordinates": [ [ [ 74.9222934, 31.1615962 ], [ 74.9363427, 31.1550881 ], [ 74.9492159, 31.1522895 ], [ 74.9644633, 31.1534977 ], [ 74.9598548, 31.1472593 ], [ 74.9849258, 31.1328152 ], [ 74.9883337, 31.1320038 ], [ 75.0016494, 31.1213576 ], [ 75.0058607, 31.119738 ], [ 75.0099069, 31.1202467 ], [ 75.0127938, 31.1258639 ], [ 75.0133707, 31.1301937 ], [ 75.0112582, 31.1388235 ], [ 75.0079945, 31.1409492 ], [ 75.006642, 31.1450563 ], [ 75.0096998, 31.1441571 ], [ 75.0138567, 31.1450897 ], [ 75.0134022, 31.148174 ], [ 75.018284, 31.1481059 ], [ 75.0239783, 31.156384 ], [ 75.0369745, 31.150934 ], [ 75.039279, 31.1539571 ], [ 75.0427549, 31.1548387 ], [ 75.0609256, 31.1458476 ], [ 75.0619249, 31.1492122 ], [ 75.0684868, 31.1455083 ], [ 75.0747829, 31.1476485 ], [ 75.0794314, 31.1529085 ], [ 75.0819388, 31.1510244 ], [ 75.0835137, 31.1467812 ], [ 75.0772261, 31.1375837 ], [ 75.076142, 31.1354367 ], [ 75.0771019, 31.1342239 ], [ 75.0873366, 31.1323738 ], [ 75.0996426, 31.1259143 ], [ 75.1027567, 31.125563 ], [ 75.1064518, 31.1291579 ], [ 75.1089786, 31.1293476 ], [ 75.1177339, 31.1238239 ], [ 75.1258959, 31.1211543 ], [ 75.1286111, 31.1165634 ], [ 75.1318871, 31.1163378 ], [ 75.1309854, 31.1129375 ], [ 75.1338366, 31.1110883 ], [ 75.1345653, 31.1121842 ], [ 75.1384906, 31.1085624 ], [ 75.1357017, 31.1047655 ], [ 75.1500553, 31.0977689 ], [ 75.1488128, 31.0960554 ], [ 75.1500649, 31.094373 ], [ 75.1449898, 31.0841954 ], [ 75.1419342, 31.0805069 ], [ 75.1403729, 31.0816029 ], [ 75.1389738, 31.0807643 ], [ 75.1338905, 31.0737296 ], [ 75.1283158, 31.0764402 ], [ 75.1268226, 31.0789792 ], [ 75.1201262, 31.0816805 ], [ 75.1179936, 31.0813692 ], [ 75.1163171, 31.0781176 ], [ 75.1119524, 31.0790192 ], [ 75.109265, 31.0751721 ], [ 75.0993094, 31.0773713 ], [ 75.09995, 31.0721401 ], [ 75.1082759, 31.0681638 ], [ 75.1040274, 31.0662556 ], [ 75.1001351, 31.0652086 ], [ 75.0945851, 31.0713363 ], [ 75.0835942, 31.0687311 ], [ 75.0818302, 31.0653753 ], [ 75.0844667, 31.0621561 ], [ 75.0964645, 31.0586823 ], [ 75.0961736, 31.0502354 ], [ 75.0943359, 31.0473216 ], [ 75.0728658, 31.0468504 ], [ 75.071459, 31.0522435 ], [ 75.0683627, 31.0532299 ], [ 75.0620307, 31.0676492 ], [ 75.051724, 31.0625342 ], [ 75.0473058, 31.0519247 ], [ 75.0529594, 31.0428317 ], [ 75.0628235, 31.0405729 ], [ 75.0678043, 31.0407465 ], [ 75.0670105, 31.0368182 ], [ 75.0678711, 31.0341036 ], [ 75.0949764, 31.0257921 ], [ 75.0996591, 31.0215809 ], [ 75.1030381, 31.0152588 ], [ 75.096329, 31.0023549 ], [ 75.102173, 30.9975199 ], [ 75.0990644, 30.9933026 ], [ 75.0961332, 30.9916559 ], [ 75.0995497, 30.9791103 ], [ 75.1009845, 30.9762197 ], [ 75.1034918, 30.9756068 ], [ 75.1029692, 30.972098 ], [ 75.0987662, 30.9727737 ], [ 75.0937984, 30.9754471 ], [ 75.0928633, 30.9701929 ], [ 75.086535, 30.9586369 ], [ 75.0825218, 30.9571926 ], [ 75.0776183, 30.9575607 ], [ 75.0784818, 30.9463901 ], [ 75.0698542, 30.9450698 ], [ 75.051034, 30.9235531 ], [ 75.0408187, 30.9221759 ], [ 75.0364918, 30.9172888 ], [ 75.0336908, 30.9032386 ], [ 75.0304105, 30.8968081 ], [ 75.0274054, 30.8968751 ], [ 75.0251851, 30.8946735 ], [ 75.022557, 30.8948798 ], [ 75.0160958, 30.8923197 ], [ 75.0043939, 30.8932421 ], [ 75.0004108, 30.8957787 ], [ 74.9964427, 30.8885853 ], [ 74.9802774, 30.8900411 ], [ 74.9711069, 30.8891506 ], [ 74.965336, 30.8907012 ], [ 74.9575941, 30.8891875 ], [ 74.9522254, 30.891631 ], [ 74.9531633, 30.888807 ], [ 74.951648, 30.8850347 ], [ 74.9479566, 30.8818119 ], [ 74.9458014, 30.8817659 ], [ 74.943721, 30.8791347 ], [ 74.9440304, 30.8778174 ], [ 74.9425554, 30.8776588 ], [ 74.9437019, 30.8760577 ], [ 74.9448224, 30.8648285 ], [ 74.9469423, 30.8618427 ], [ 74.9479228, 30.8572276 ], [ 74.9409784, 30.8389928 ], [ 74.9461263, 30.8340276 ], [ 74.947175, 30.8284335 ], [ 74.9280997, 30.8045076 ], [ 74.9283528, 30.7944645 ], [ 74.9309856, 30.7889887 ], [ 74.9233277, 30.7847208 ], [ 74.9149059, 30.7822566 ], [ 74.9143317, 30.7756375 ], [ 74.9105271, 30.7706449 ], [ 74.9121596, 30.768151 ], [ 74.9117768, 30.7639007 ], [ 74.9071483, 30.7579825 ], [ 74.9076012, 30.7541794 ], [ 74.9101322, 30.751438 ], [ 74.9119346, 30.7512949 ], [ 74.9113173, 30.7480469 ], [ 74.91233, 30.7478076 ], [ 74.9121762, 30.741359 ], [ 74.9087653, 30.7365843 ], [ 74.9030969, 30.739305 ], [ 74.8919195, 30.7383374 ], [ 74.8831233, 30.7409764 ], [ 74.880294, 30.7458153 ], [ 74.8751881, 30.7466407 ], [ 74.8662394, 30.7466043 ], [ 74.8582415, 30.7436859 ], [ 74.8546227, 30.7479831 ], [ 74.8568644, 30.7508307 ], [ 74.8546504, 30.7571583 ], [ 74.8486904, 30.756601 ], [ 74.8446067, 30.7587979 ], [ 74.8398441, 30.7670712 ], [ 74.8356221, 30.7703731 ], [ 74.8285163, 30.7702646 ], [ 74.8170541, 30.7667794 ], [ 74.8131429, 30.7683665 ], [ 74.8077357, 30.7760015 ], [ 74.8071972, 30.7892472 ], [ 74.7844218, 30.7941472 ], [ 74.7824427, 30.795741 ], [ 74.7813588, 30.8058996 ], [ 74.7784267, 30.8103793 ], [ 74.772984, 30.8131356 ], [ 74.7711854, 30.8111022 ], [ 74.7699031, 30.8117857 ], [ 74.7713896, 30.8153616 ], [ 74.7667927, 30.8140495 ], [ 74.7577286, 30.8139968 ], [ 74.7546275, 30.812466 ], [ 74.7510952, 30.81601 ], [ 74.7477093, 30.822542 ], [ 74.7405441, 30.8262738 ], [ 74.7273504, 30.8229747 ], [ 74.7187726, 30.8259036 ], [ 74.7127785, 30.8260341 ], [ 74.7084957, 30.8288016 ], [ 74.6988832, 30.8265165 ], [ 74.6924845, 30.8308269 ], [ 74.6875765, 30.8299906 ], [ 74.6814066, 30.8248386 ], [ 74.6632036, 30.8341719 ], [ 74.6589907, 30.8329419 ], [ 74.6558536, 30.8289288 ], [ 74.6534474, 30.8216459 ], [ 74.6480223, 30.8183727 ], [ 74.6440877, 30.8190589 ], [ 74.624032, 30.8364327 ], [ 74.6229188, 30.8327887 ], [ 74.6175517, 30.828468 ], [ 74.6136792, 30.8291216 ], [ 74.6113956, 30.8271776 ], [ 74.6065265, 30.8193343 ], [ 74.596491, 30.8092438 ], [ 74.5877032, 30.8075143 ], [ 74.5773001, 30.8081919 ], [ 74.5669112, 30.8024014 ], [ 74.5651052, 30.7996406 ], [ 74.542369, 30.7925114 ], [ 74.5302839, 30.7835104 ], [ 74.5229958, 30.7746969 ], [ 74.5242928, 30.7730788 ], [ 74.5218659, 30.7713496 ], [ 74.5017756, 30.7653385 ], [ 74.4799299, 30.7560174 ], [ 74.4725359, 30.7514366 ], [ 74.4701636, 30.748537 ], [ 74.4688314, 30.7451003 ], [ 74.4740084, 30.7155345 ], [ 74.472901, 30.697951 ], [ 74.4771756, 30.688293 ], [ 74.4800209, 30.67329 ], [ 74.493201, 30.6696021 ], [ 74.5045622, 30.6686976 ], [ 74.5026001, 30.6660309 ], [ 74.4970612, 30.6630285 ], [ 74.4833828, 30.6639486 ], [ 74.4763986, 30.655182 ], [ 74.476126, 30.6465966 ], [ 74.4820377, 30.640497 ], [ 74.487706, 30.6368932 ], [ 74.4939993, 30.637228 ], [ 74.4837028, 30.6313691 ], [ 74.4745908, 30.6290991 ], [ 74.4580285, 30.6204063 ], [ 74.4642117, 30.6155281 ], [ 74.4618344, 30.6083109 ], [ 74.451569, 30.6192473 ], [ 74.4496593, 30.6199623 ], [ 74.4470907, 30.6243994 ], [ 74.4403263, 30.6261421 ], [ 74.4327965, 30.6222779 ], [ 74.4199783, 30.6116154 ], [ 74.4155661, 30.6108964 ], [ 74.4137846, 30.6122475 ], [ 74.4142244, 30.6094604 ], [ 74.4160136, 30.6088314 ], [ 74.4177242, 30.6050206 ], [ 74.4193538, 30.6042076 ], [ 74.4195364, 30.5970486 ], [ 74.4146739, 30.5982169 ], [ 74.4014216, 30.597722 ], [ 74.3889482, 30.5943306 ], [ 74.3844302, 30.5905828 ], [ 74.3731833, 30.5898666 ], [ 74.3731507, 30.5887953 ], [ 74.3695664, 30.588034 ], [ 74.3656077, 30.5904531 ], [ 74.3653958, 30.5920177 ], [ 74.3638153, 30.5920881 ], [ 74.3620676, 30.5958444 ], [ 74.3488264, 30.5995039 ], [ 74.3413668, 30.6035384 ], [ 74.3417514, 30.6067427 ], [ 74.3499585, 30.6230734 ], [ 74.3549892, 30.6285042 ], [ 74.3552893, 30.6309726 ], [ 74.3563018, 30.6310659 ], [ 74.3557198, 30.6331719 ], [ 74.3571632, 30.6330789 ], [ 74.3567139, 30.6398183 ], [ 74.3535897, 30.6405821 ], [ 74.3510725, 30.6436516 ], [ 74.3458374, 30.6464961 ], [ 74.3502712, 30.6511239 ], [ 74.3519785, 30.6511104 ], [ 74.3539821, 30.6603916 ], [ 74.3548438, 30.6604469 ], [ 74.3549098, 30.6632826 ], [ 74.352388, 30.6652417 ], [ 74.3524034, 30.6677392 ], [ 74.3479666, 30.6644788 ], [ 74.3395617, 30.6714094 ], [ 74.3349508, 30.6697907 ], [ 74.32916, 30.6699179 ], [ 74.3286848, 30.6720797 ], [ 74.33157, 30.6725583 ], [ 74.3308772, 30.6744552 ], [ 74.3239059, 30.6725747 ], [ 74.3198862, 30.6748995 ], [ 74.3153439, 30.675143 ], [ 74.3112831, 30.6799731 ], [ 74.3079906, 30.6784975 ], [ 74.3051279, 30.6792517 ], [ 74.3059644, 30.680293 ], [ 74.3045689, 30.6819314 ], [ 74.3049689, 30.6835758 ], [ 74.3032786, 30.6843428 ], [ 74.3034173, 30.6859374 ], [ 74.3019693, 30.686344 ], [ 74.3013564, 30.6883585 ], [ 74.3015122, 30.6899576 ], [ 74.3041286, 30.6921455 ], [ 74.2963771, 30.6903268 ], [ 74.2942144, 30.6910888 ], [ 74.2942949, 30.6922651 ], [ 74.2911255, 30.6924399 ], [ 74.2899554, 30.6906369 ], [ 74.2921148, 30.6884677 ], [ 74.2920254, 30.6834256 ], [ 74.2880012, 30.6821736 ], [ 74.2877091, 30.6772701 ], [ 74.2902399, 30.6755843 ], [ 74.2924098, 30.6758556 ], [ 74.2963606, 30.6705065 ], [ 74.2923667, 30.6655985 ], [ 74.2927116, 30.6638572 ], [ 74.2895914, 30.6653391 ], [ 74.2866356, 30.6726522 ], [ 74.2841857, 30.6745283 ], [ 74.2750963, 30.6724743 ], [ 74.2746793, 30.6688881 ], [ 74.2699351, 30.6672241 ], [ 74.2665474, 30.6722122 ], [ 74.2580664, 30.6783048 ], [ 74.2558766, 30.6709147 ], [ 74.2531066, 30.668148 ], [ 74.2492109, 30.6676841 ], [ 74.2445118, 30.6722481 ], [ 74.2414842, 30.6722876 ], [ 74.2384802, 30.6757281 ], [ 74.2168794, 30.6878602 ], [ 74.2131887, 30.6887183 ], [ 74.2192373, 30.6936068 ], [ 74.2234646, 30.7099447 ], [ 74.2253222, 30.7130892 ], [ 74.2276183, 30.7128653 ], [ 74.2273351, 30.7188345 ], [ 74.2326579, 30.7245564 ], [ 74.2452725, 30.7229465 ], [ 74.2454004, 30.7245232 ], [ 74.2420233, 30.7260076 ], [ 74.2484142, 30.7259717 ], [ 74.2609019, 30.7231073 ], [ 74.2669655, 30.7262175 ], [ 74.2691192, 30.7303179 ], [ 74.2684393, 30.7344005 ], [ 74.2712472, 30.7322067 ], [ 74.2736233, 30.7340649 ], [ 74.2748311, 30.7371159 ], [ 74.2815293, 30.7308916 ], [ 74.2864602, 30.7356959 ], [ 74.2744798, 30.7442652 ], [ 74.2736909, 30.7534637 ], [ 74.2607737, 30.7698616 ], [ 74.259953, 30.7725912 ], [ 74.2614259, 30.7750595 ], [ 74.2648265, 30.777092 ], [ 74.2744228, 30.7734816 ], [ 74.2867034, 30.7758823 ], [ 74.2898241, 30.775176 ], [ 74.3019672, 30.7793688 ], [ 74.3068171, 30.789197 ], [ 74.30135, 30.7897465 ], [ 74.2982875, 30.793689 ], [ 74.2948756, 30.794507 ], [ 74.2994064, 30.8045772 ], [ 74.3014611, 30.8038123 ], [ 74.3024597, 30.8080429 ], [ 74.310142, 30.8186279 ], [ 74.3198281, 30.8274037 ], [ 74.3193109, 30.832903 ], [ 74.3220579, 30.8386697 ], [ 74.3201616, 30.8420183 ], [ 74.3203852, 30.8466265 ], [ 74.3246729, 30.8495618 ], [ 74.3323863, 30.8510336 ], [ 74.3405553, 30.8491011 ], [ 74.3387679, 30.8526698 ], [ 74.3481479, 30.8549058 ], [ 74.3540694, 30.8527041 ], [ 74.3549838, 30.8483914 ], [ 74.3633564, 30.8472517 ], [ 74.3671992, 30.8491301 ], [ 74.368523, 30.8518412 ], [ 74.3645244, 30.8573809 ], [ 74.3694341, 30.8574174 ], [ 74.3740218, 30.8598044 ], [ 74.3759077, 30.85821 ], [ 74.3779205, 30.8584441 ], [ 74.382089, 30.860434 ], [ 74.3607659, 30.8737038 ], [ 74.3617461, 30.8778868 ], [ 74.3651084, 30.8814319 ], [ 74.3667104, 30.8856956 ], [ 74.3659054, 30.8929325 ], [ 74.3707649, 30.895177 ], [ 74.3829401, 30.8955141 ], [ 74.3972905, 30.9093881 ], [ 74.4097936, 30.909577 ], [ 74.422718, 30.9077787 ], [ 74.4244154, 30.9160291 ], [ 74.4186139, 30.9193088 ], [ 74.4110561, 30.9196369 ], [ 74.4103354, 30.9234894 ], [ 74.4235304, 30.9207274 ], [ 74.4287468, 30.9312255 ], [ 74.4236814, 30.9295573 ], [ 74.4138654, 30.9296487 ], [ 74.4177514, 30.937689 ], [ 74.4164049, 30.9403346 ], [ 74.4289202, 30.9425012 ], [ 74.439544, 30.9421894 ], [ 74.4419411, 30.9460085 ], [ 74.4420627, 30.9517331 ], [ 74.4552636, 30.9513983 ], [ 74.4514704, 30.9558946 ], [ 74.466408, 30.9568686 ], [ 74.4572599, 30.9646395 ], [ 74.4796861, 30.9742839 ], [ 74.4813609, 30.970751 ], [ 74.4896386, 30.9725057 ], [ 74.4919131, 30.9744021 ], [ 74.497889, 30.9643291 ], [ 74.5034703, 30.9647921 ], [ 74.5087237, 30.967442 ], [ 74.5161528, 30.9794718 ], [ 74.5461596, 30.9924164 ], [ 74.5453231, 30.9949278 ], [ 74.5432607, 30.9961271 ], [ 74.5440442, 30.9980077 ], [ 74.5396712, 31.0088391 ], [ 74.5424778, 31.0173685 ], [ 74.5479683, 31.0324545 ], [ 74.5575449, 31.0382584 ], [ 74.5587167, 31.0374074 ], [ 74.5614371, 31.0486522 ], [ 74.5682338, 31.054689 ], [ 74.5704283, 31.0529946 ], [ 74.5744156, 31.0567847 ], [ 74.5900868, 31.0499549 ], [ 74.5959111, 31.0422141 ], [ 74.5967998, 31.0376626 ], [ 74.6130062, 31.0447869 ], [ 74.6183265, 31.0439429 ], [ 74.6458756, 31.0498244 ], [ 74.6499616, 31.0489593 ], [ 74.666627, 31.0522222 ], [ 74.6711613, 31.0536274 ], [ 74.6959305, 31.0741597 ], [ 74.7078552, 31.071986 ], [ 74.7099391, 31.0807366 ], [ 74.7155411, 31.0852747 ], [ 74.7207181, 31.1015656 ], [ 74.7288717, 31.1038562 ], [ 74.7415181, 31.1038731 ], [ 74.74279, 31.1160292 ], [ 74.7417103, 31.1185754 ], [ 74.7515775, 31.1155424 ], [ 74.7554443, 31.1162376 ], [ 74.7629362, 31.1201295 ], [ 74.760905, 31.1223133 ], [ 74.7657311, 31.125475 ], [ 74.7759017, 31.1292986 ], [ 74.7891892, 31.130007 ], [ 74.7922608, 31.1253376 ], [ 74.7956297, 31.12418 ], [ 74.800643, 31.1149629 ], [ 74.8039254, 31.1202891 ], [ 74.7994799, 31.1280483 ], [ 74.8066452, 31.1397841 ], [ 74.809892, 31.137081 ], [ 74.8095521, 31.1345523 ], [ 74.8144765, 31.1377667 ], [ 74.8251432, 31.1340461 ], [ 74.8441289, 31.1324727 ], [ 74.879146, 31.1508741 ], [ 74.8825923, 31.1516057 ], [ 74.8854901, 31.1555484 ], [ 74.8937388, 31.152314 ], [ 74.8967182, 31.1498607 ], [ 74.9018575, 31.1493021 ], [ 74.903025, 31.1542075 ], [ 74.9111031, 31.1579217 ], [ 74.9131637, 31.1575567 ], [ 74.9180252, 31.1621487 ], [ 74.9222934, 31.1615962 ] ] ] } }
]
}
