{
"type": "FeatureCollection",
"name": "0314",
"crs": { "type": "name", "properties": { "name": "urn:ogc:def:crs:OGC:1.3:CRS84" } },
"features": [
{ "type": "Feature", "properties": { "code": "0314", "name": "Bathinda", "type": "district" }, "geometry": { "type": "Polygon", "coordinates": [ [ [ 75.1513855, 30.5777435 ], [ 75.1572977, 30.5767548 ], [ 75.1607389, 30.5793562 ], [ 75.1653571, 30.5790526 ], [ 75.1722077, 30.5602296 ], [ 75.1793898, 30.5518018 ], [ 75.1830836, 30.5330335 ], [ 75.1804352, 30.521137 ], [ 75.1816946, 30.5101271 ], [ 75.1925439, 30.5086967 ], [ 75.195453, 30.5121319 ], [ 75.2014133, 30.5070636 ], [ 75.2031738, 30.5069272 ], [ 75.2044099, 30.5088613 ], [ 75.2070513, 30.5095227 ], [ 75.2057418, 30.513339 ], [ 75.2120215, 30.5163568 ], [ 75.2211555, 30.5079976 ], [ 75.2276401, 30.5076318 ], [ 75.2312665, 30.5086075 ], [ 75.2333224, 30.5118396 ], [ 75.2387589, 30.5103781 ], [ 75.2404296, 30.5135834 ], [ 75.2455986, 30.5148415 ], [ 75.25, 30.5177277 ], [ 75.2523093, 30.5157208 ], [ 75.2553041, 30.5161701 ], [ 75.2577117, 30.5197939 ], [ 75.2619821, 30.5208621 ], [ 75.2655772, 30.5204096 ], [ 75.2690404, 30.5165788 ], [ 75.282874, 30.5079568 ], [ 75.2776982, 30.4912487 ], [ 75.2700723, 30.4823852 ], [ 75.2596546, 30.4730576 ], [ 75.2536505, 30.4637522 ], [ 75.2582187, 30.4599216 ], [ 75.2677306, 30.4452386 ], [ 75.2619727, 30.4438786 ], [ 75.2632352, 30.440853 ], [ 75.2622479, 30.4397045 ], [ 75.2650041, 30.4364097 ], [ 75.2738871, 30.4400641 ], [ 75.2830621, 30.4417906 ], [ 75.2903965, 30.428577 ], [ 75.2997971, 30.4244188 ], [ 75.3054004, 30.4180073 ], [ 75.2992729, 30.4077973 ], [ 75.3023757, 30.4028134 ], [ 75.3005222, 30.3975883 ], [ 75.3033768, 30.3966251 ], [ 75.3030959, 30.393305 ], [ 75.3049661, 30.3905032 ], [ 75.3048117, 30.3877241 ], [ 75.3068395, 30.3870832 ], [ 75.3048814, 30.3799859 ], [ 75.3055179, 30.3788428 ], [ 75.3129811, 30.3806841 ], [ 75.3218746, 30.3758211 ], [ 75.3264231, 30.3790585 ], [ 75.3315377, 30.3772453 ], [ 75.3334553, 30.377994 ], [ 75.331615, 30.3723767 ], [ 75.3323422, 30.3704572 ], [ 75.3271134, 30.3628902 ], [ 75.3271328, 30.3577465 ], [ 75.3249426, 30.3562585 ], [ 75.3261184, 30.3546854 ], [ 75.3246281, 30.3508042 ], [ 75.3272784, 30.3514789 ], [ 75.3326599, 30.3490108 ], [ 75.3396415, 30.3429783 ], [ 75.3443533, 30.344085 ], [ 75.345208, 30.3371297 ], [ 75.3439341, 30.334304 ], [ 75.3327398, 30.3326409 ], [ 75.323987, 30.336241 ], [ 75.3147571, 30.3323606 ], [ 75.3138665, 30.3271152 ], [ 75.3187005, 30.3245091 ], [ 75.3182856, 30.3232783 ], [ 75.3209862, 30.3204697 ], [ 75.3218008, 30.3166957 ], [ 75.3190973, 30.3105433 ], [ 75.320568, 30.3086447 ], [ 75.3184511, 30.3085145 ], [ 75.3176013, 30.3046181 ], [ 75.3191116, 30.3037211 ], [ 75.3185312, 30.3027298 ], [ 75.3206559, 30.3020975 ], [ 75.3237531, 30.3046572 ], [ 75.3274663, 30.3047788 ], [ 75.3277833, 30.3062805 ], [ 75.3292407, 30.3051037 ], [ 75.3341696, 30.3064042 ], [ 75.3464825, 30.3001997 ], [ 75.3397064, 30.2924567 ], [ 75.3419595, 30.2854572 ], [ 75.3461691, 30.2849859 ], [ 75.3489843, 30.282772 ], [ 75.3550461, 30.2870647 ], [ 75.361351, 30.2837717 ], [ 75.3615884, 30.2847005 ], [ 75.3639347, 30.2822981 ], [ 75.3612974, 30.2677044 ], [ 75.364677, 30.2637108 ], [ 75.3690044, 30.2630535 ], [ 75.3713103, 30.2611654 ], [ 75.3649673, 30.2578849 ], [ 75.3654081, 30.2562142 ], [ 75.3679292, 30.2548987 ], [ 75.3686944, 30.2474983 ], [ 75.3662188, 30.2449799 ], [ 75.3636084, 30.2448437 ], [ 75.363811, 30.2410894 ], [ 75.3761922, 30.2372032 ], [ 75.3770736, 30.2282707 ], [ 75.375, 30.219988 ], [ 75.3699173, 30.2140756 ], [ 75.3725755, 30.2121137 ], [ 75.3711298, 30.2098805 ], [ 75.3690477, 30.2086289 ], [ 75.3670496, 30.2094089 ], [ 75.36681, 30.2080543 ], [ 75.3624207, 30.2081068 ], [ 75.3598996, 30.2056561 ], [ 75.3656747, 30.2031255 ], [ 75.3666591, 30.2054155 ], [ 75.3700827, 30.2053427 ], [ 75.3696648, 30.2036173 ], [ 75.3710489, 30.202398 ], [ 75.3692948, 30.2012517 ], [ 75.3704383, 30.1994408 ], [ 75.3666225, 30.1965723 ], [ 75.3664713, 30.1942833 ], [ 75.3573273, 30.1870629 ], [ 75.3574694, 30.1814219 ], [ 75.3639992, 30.1760177 ], [ 75.3581293, 30.1688624 ], [ 75.3561316, 30.1682617 ], [ 75.3568672, 30.1673062 ], [ 75.3556261, 30.1656638 ], [ 75.3592262, 30.1636408 ], [ 75.3568987, 30.1613692 ], [ 75.3525909, 30.1614994 ], [ 75.3511681, 30.1626561 ], [ 75.3445337, 30.1594913 ], [ 75.345513, 30.1559474 ], [ 75.3433718, 30.1502275 ], [ 75.3446746, 30.1488108 ], [ 75.3436646, 30.146222 ], [ 75.3532088, 30.1413996 ], [ 75.3501924, 30.1390977 ], [ 75.3488209, 30.135668 ], [ 75.3464468, 30.1345063 ], [ 75.3444095, 30.1309078 ], [ 75.3403437, 30.132583 ], [ 75.3286447, 30.1231728 ], [ 75.3231977, 30.1228445 ], [ 75.321116, 30.1184908 ], [ 75.3158519, 30.1162511 ], [ 75.3137471, 30.1122371 ], [ 75.3097418, 30.1139816 ], [ 75.306257, 30.1114819 ], [ 75.3000383, 30.1096544 ], [ 75.296989, 30.1117767 ], [ 75.2949438, 30.1076702 ], [ 75.2908066, 30.1048954 ], [ 75.2915547, 30.1032633 ], [ 75.2998133, 30.0981228 ], [ 75.3000681, 30.0934991 ], [ 75.3040291, 30.0888638 ], [ 75.3064247, 30.0773529 ], [ 75.3136513, 30.0753049 ], [ 75.3171556, 30.0756827 ], [ 75.3214279, 30.072867 ], [ 75.3221583, 30.0705508 ], [ 75.3258997, 30.0697672 ], [ 75.3243572, 30.0644616 ], [ 75.3201837, 30.061345 ], [ 75.317275, 30.0626223 ], [ 75.3170702, 30.0653638 ], [ 75.3126893, 30.065652 ], [ 75.3101613, 30.0679226 ], [ 75.2935704, 30.0708015 ], [ 75.2924846, 30.0669466 ], [ 75.2861864, 30.0676078 ], [ 75.2784213, 30.06363 ], [ 75.2750967, 30.0595458 ], [ 75.2755773, 30.0573613 ], [ 75.2719474, 30.0531836 ], [ 75.2726516, 30.0516304 ], [ 75.2702631, 30.0483796 ], [ 75.2648343, 30.0500422 ], [ 75.2517324, 30.0385798 ], [ 75.2496325, 30.0383633 ], [ 75.2507402, 30.0326065 ], [ 75.2579539, 30.0260895 ], [ 75.258425, 30.0202271 ], [ 75.260219, 30.0160287 ], [ 75.2766254, 30.0141521 ], [ 75.2815348, 30.0114054 ], [ 75.2876886, 30.017398 ], [ 75.287729, 30.0208736 ], [ 75.2889912, 30.0224104 ], [ 75.2941718, 30.0196833 ], [ 75.2944165, 30.0206551 ], [ 75.3011507, 30.0206456 ], [ 75.2984867, 30.0193823 ], [ 75.2880551, 30.0065494 ], [ 75.2833851, 30.0033147 ], [ 75.2814307, 30.0037813 ], [ 75.274341, 29.9959372 ], [ 75.2717823, 29.989837 ], [ 75.2784343, 29.9854804 ], [ 75.2810879, 29.9793119 ], [ 75.2730833, 29.9740016 ], [ 75.2507278, 29.9828772 ], [ 75.2468069, 29.9699913 ], [ 75.2375531, 29.9597558 ], [ 75.2213124, 29.9689038 ], [ 75.216648, 29.9676413 ], [ 75.2079772, 29.9748299 ], [ 75.2081258, 29.978981 ], [ 75.2057907, 29.9802075 ], [ 75.1950527, 29.9809007 ], [ 75.1885575, 29.9736949 ], [ 75.1827646, 29.9701925 ], [ 75.1809711, 29.9528948 ], [ 75.1833169, 29.9520658 ], [ 75.1781346, 29.9458729 ], [ 75.1834685, 29.9414571 ], [ 75.1806863, 29.9415376 ], [ 75.1717306, 29.9278411 ], [ 75.1758514, 29.9232827 ], [ 75.1825215, 29.9194201 ], [ 75.1847842, 29.9160598 ], [ 75.1857264, 29.9018265 ], [ 75.1881268, 29.8893915 ], [ 75.2049026, 29.8882655 ], [ 75.217278, 29.8831219 ], [ 75.2182109, 29.864473 ], [ 75.217553, 29.8619156 ], [ 75.2129116, 29.8581147 ], [ 75.2063517, 29.8595612 ], [ 75.193148, 29.8534612 ], [ 75.1904144, 29.8505592 ], [ 75.191044, 29.8413665 ], [ 75.1843899, 29.8340975 ], [ 75.1759277, 29.8280849 ], [ 75.1702969, 29.8280201 ], [ 75.1646665, 29.8250175 ], [ 75.1625414, 29.8165729 ], [ 75.1602275, 29.8128439 ], [ 75.1606518, 29.8063681 ], [ 75.1590968, 29.8013251 ], [ 75.1666496, 29.7882116 ], [ 75.1668145, 29.7846872 ], [ 75.1598426, 29.7790147 ], [ 75.150992, 29.7755234 ], [ 75.1464855, 29.7818188 ], [ 75.1402531, 29.786144 ], [ 75.1368554, 29.8059526 ], [ 75.1351135, 29.8072856 ], [ 75.1266791, 29.8068788 ], [ 75.118261, 29.8026991 ], [ 75.1044953, 29.8048044 ], [ 75.100586, 29.8070772 ], [ 75.1003396, 29.8194009 ], [ 75.1015423, 29.8215479 ], [ 75.1048883, 29.8244016 ], [ 75.1173926, 29.8299955 ], [ 75.1188906, 29.831948 ], [ 75.1113921, 29.841909 ], [ 75.1031621, 29.8417487 ], [ 75.1012707, 29.8446697 ], [ 75.0998935, 29.8443368 ], [ 75.0900987, 29.8540049 ], [ 75.089756, 29.8586258 ], [ 75.0934102, 29.8579735 ], [ 75.0997577, 29.8639027 ], [ 75.1068598, 29.8679989 ], [ 75.1147364, 29.8786505 ], [ 75.1104335, 29.8927058 ], [ 75.1093015, 29.9040914 ], [ 75.1073282, 29.9040479 ], [ 75.0990433, 29.9110756 ], [ 75.0988584, 29.9127273 ], [ 75.0941834, 29.9150907 ], [ 75.0888035, 29.9171882 ], [ 75.0864364, 29.9165469 ], [ 75.0868282, 29.9150641 ], [ 75.0821082, 29.9072698 ], [ 75.0804871, 29.9008046 ], [ 75.0754546, 29.896047 ], [ 75.076067, 29.8908529 ], [ 75.0748487, 29.8890532 ], [ 75.0744915, 29.8822532 ], [ 75.0699933, 29.8770484 ], [ 75.0652878, 29.8787881 ], [ 75.056133, 29.8780883 ], [ 75.0518747, 29.884069 ], [ 75.046987, 29.8850726 ], [ 75.0329316, 29.8798064 ], [ 75.0225468, 29.8662533 ], [ 75.0052635, 29.8689457 ], [ 74.9981272, 29.8662334 ], [ 74.9909925, 29.8678232 ], [ 74.9855719, 29.8753154 ], [ 74.977206, 29.8883352 ], [ 74.9788583, 29.894306 ], [ 74.9704651, 29.8977268 ], [ 74.9543164, 29.9013776 ], [ 74.9513462, 29.9032422 ], [ 74.9470792, 29.9088288 ], [ 74.9441901, 29.9160923 ], [ 74.9417368, 29.9176588 ], [ 74.9363989, 29.926448 ], [ 74.9358215, 29.9306791 ], [ 74.9269794, 29.9458565 ], [ 74.9267073, 29.9504889 ], [ 74.9229012, 29.9521096 ], [ 74.919009, 29.9470728 ], [ 74.9129426, 29.9434437 ], [ 74.907053, 29.9405991 ], [ 74.8972023, 29.93969 ], [ 74.8955401, 29.9407322 ], [ 74.9007307, 29.9454584 ], [ 74.9029756, 29.9534822 ], [ 74.8879615, 29.966723 ], [ 74.8757875, 29.9576124 ], [ 74.8705713, 29.9599759 ], [ 74.8647748, 29.9601605 ], [ 74.8554153, 29.9564925 ], [ 74.8505863, 29.9619675 ], [ 74.8434836, 29.9645956 ], [ 74.8384822, 29.9711482 ], [ 74.8285034, 29.9733281 ], [ 74.8210599, 29.971025 ], [ 74.8263619, 29.97722 ], [ 74.8243267, 29.9857667 ], [ 74.8178573, 29.9911 ], [ 74.8114624, 29.9924006 ], [ 74.8060737, 29.9920461 ], [ 74.7784541, 29.971673 ], [ 74.7753494, 29.973344 ], [ 74.7710769, 29.9717215 ], [ 74.7612786, 29.9733147 ], [ 74.7585648, 29.9724372 ], [ 74.7583345, 29.9700375 ], [ 74.7539523, 29.9696411 ], [ 74.7531625, 29.967313 ], [ 74.7389833, 29.9679003 ], [ 74.7309881, 29.9614569 ], [ 74.7068305, 29.9705404 ], [ 74.7066748, 29.9794759 ], [ 74.7012849, 29.984161 ], [ 74.7008312, 29.9870887 ], [ 74.7118308, 30.0028964 ], [ 74.7170823, 30.0139426 ], [ 74.7112024, 30.0175983 ], [ 74.7045715, 30.0260892 ], [ 74.6941928, 30.0336867 ], [ 74.6970186, 30.0372624 ], [ 74.6935071, 30.0441806 ], [ 74.6941348, 30.0491951 ], [ 74.7007101, 30.0617272 ], [ 74.7048344, 30.0651071 ], [ 74.6904891, 30.0723704 ], [ 74.6856916, 30.0735954 ], [ 74.6828068, 30.0720588 ], [ 74.6765932, 30.0811854 ], [ 74.6737681, 30.0899051 ], [ 74.6768829, 30.0926201 ], [ 74.6797678, 30.0991022 ], [ 74.6839607, 30.1040126 ], [ 74.6843156, 30.1099199 ], [ 74.6819645, 30.1131946 ], [ 74.6705488, 30.1077744 ], [ 74.6487995, 30.110475 ], [ 74.6427923, 30.1154944 ], [ 74.6297401, 30.1305515 ], [ 74.6404486, 30.1435266 ], [ 74.639943, 30.1504224 ], [ 74.6466408, 30.1548396 ], [ 74.6479113, 30.1572795 ], [ 74.6546803, 30.1624617 ], [ 74.6672778, 30.1654813 ], [ 74.6702939, 30.1641985 ], [ 74.6734691, 30.1665798 ], [ 74.684586, 30.1668777 ], [ 74.686774, 30.1679569 ], [ 74.6880733, 30.1642961 ], [ 74.6906516, 30.1617754 ], [ 74.6970669, 30.1592726 ], [ 74.7028747, 30.1600935 ], [ 74.7102283, 30.1650688 ], [ 74.7139597, 30.165817 ], [ 74.7267732, 30.1722922 ], [ 74.7295586, 30.1753978 ], [ 74.7350325, 30.1753458 ], [ 74.7344931, 30.178968 ], [ 74.7373953, 30.1832378 ], [ 74.7345299, 30.1923466 ], [ 74.7250633, 30.1970874 ], [ 74.7119643, 30.1966397 ], [ 74.7155373, 30.2041331 ], [ 74.7162878, 30.2087281 ], [ 74.7130221, 30.2134001 ], [ 74.7196048, 30.2206473 ], [ 74.7183698, 30.2255358 ], [ 74.7254554, 30.2298779 ], [ 74.7207436, 30.2349982 ], [ 74.7214601, 30.2425801 ], [ 74.7182215, 30.2447435 ], [ 74.718097, 30.2483168 ], [ 74.7210546, 30.2555245 ], [ 74.7203377, 30.2572421 ], [ 74.7224394, 30.2584197 ], [ 74.7346846, 30.2740479 ], [ 74.7353692, 30.2765941 ], [ 74.7343755, 30.278803 ], [ 74.7395923, 30.2798332 ], [ 74.7424817, 30.2782687 ], [ 74.7520812, 30.2871494 ], [ 74.7437021, 30.292782 ], [ 74.7335278, 30.3039291 ], [ 74.7280784, 30.3057272 ], [ 74.7273767, 30.3037134 ], [ 74.7241387, 30.308724 ], [ 74.746292, 30.320798 ], [ 74.7537926, 30.3197798 ], [ 74.7623376, 30.3204459 ], [ 74.7751493, 30.3272841 ], [ 74.7854132, 30.3366133 ], [ 74.7770261, 30.3376355 ], [ 74.776879, 30.3391508 ], [ 74.7746686, 30.3398752 ], [ 74.7675824, 30.3397073 ], [ 74.7520425, 30.3435045 ], [ 74.7491373, 30.3430975 ], [ 74.7350728, 30.3481459 ], [ 74.7077254, 30.3546345 ], [ 74.6989236, 30.3542536 ], [ 74.6991054, 30.3560363 ], [ 74.7105687, 30.3590491 ], [ 74.7239211, 30.3658912 ], [ 74.7325068, 30.360075 ], [ 74.7797801, 30.3391529 ], [ 74.7816135, 30.3411972 ], [ 74.784028, 30.3391198 ], [ 74.7886446, 30.3393349 ], [ 74.7900627, 30.3407925 ], [ 74.7922187, 30.3366719 ], [ 74.793344, 30.3463371 ], [ 74.7965497, 30.3560353 ], [ 74.8051428, 30.3670982 ], [ 74.8108563, 30.3782719 ], [ 74.8216989, 30.3928048 ], [ 74.8315372, 30.3882741 ], [ 74.8379094, 30.3878295 ], [ 74.8475241, 30.3809184 ], [ 74.8532468, 30.3750927 ], [ 74.8602987, 30.3805009 ], [ 74.8712005, 30.3860261 ], [ 74.8743319, 30.3894356 ], [ 74.8756687, 30.3892688 ], [ 74.8910489, 30.3805817 ], [ 74.9033964, 30.3786494 ], [ 74.9105679, 30.3757569 ], [ 74.9153357, 30.3722017 ], [ 74.9179204, 30.3717137 ], [ 74.9162242, 30.3702352 ], [ 74.9211683, 30.3662738 ], [ 74.9305723, 30.3685566 ], [ 74.9443341, 30.3842802 ], [ 74.9491808, 30.3827938 ], [ 74.9545881, 30.3865022 ], [ 74.9616697, 30.3888201 ], [ 74.96428, 30.3934499 ], [ 74.9675746, 30.3952019 ], [ 74.9697157, 30.3984114 ], [ 74.9705697, 30.4045486 ], [ 74.9756775, 30.4034669 ], [ 74.9757781, 30.4000348 ], [ 74.9835853, 30.3985404 ], [ 74.9860137, 30.4023446 ], [ 74.9955996, 30.4046134 ], [ 74.9990582, 30.3996675 ], [ 75.0, 30.4001356 ], [ 75.003758, 30.3958404 ], [ 75.0044657, 30.3928173 ], [ 75.0128028, 30.3857283 ], [ 75.0196981, 30.3830563 ], [ 75.0227004, 30.3805246 ], [ 75.0270464, 30.3823962 ], [ 75.0274519, 30.3809388 ], [ 75.0316415, 30.3817004 ], [ 75.0367667, 30.3793212 ], [ 75.042694, 30.37899 ], [ 75.0525036, 30.3886377 ], [ 75.0514183, 30.3933487 ], [ 75.0523116, 30.4093119 ], [ 75.0328225, 30.4275377 ], [ 75.0220602, 30.4262676 ], [ 75.0272389, 30.4387423 ], [ 75.0208035, 30.4420057 ], [ 75.0291652, 30.4547911 ], [ 75.0331609, 30.4579846 ], [ 75.0397134, 30.4593725 ], [ 75.0498154, 30.4552631 ], [ 75.054093, 30.4583386 ], [ 75.0529535, 30.4604552 ], [ 75.0510675, 30.4593325 ], [ 75.0422265, 30.4656073 ], [ 75.0433066, 30.4699114 ], [ 75.042584, 30.473264 ], [ 75.0304524, 30.474269 ], [ 75.027782, 30.4806992 ], [ 75.0202304, 30.4908886 ], [ 75.0283859, 30.497258 ], [ 75.0324171, 30.5042712 ], [ 75.0365106, 30.5047701 ], [ 75.040132, 30.5032165 ], [ 75.0418812, 30.5042188 ], [ 75.0429099, 30.5011301 ], [ 75.0494724, 30.5014272 ], [ 75.0515543, 30.5034624 ], [ 75.0550401, 30.5016242 ], [ 75.0586116, 30.5039397 ], [ 75.0611539, 30.5031517 ], [ 75.0619674, 30.5014698 ], [ 75.0700141, 30.5116935 ], [ 75.0778994, 30.5251142 ], [ 75.0846678, 30.5319443 ], [ 75.0928874, 30.5266567 ], [ 75.1052409, 30.5212378 ], [ 75.1088668, 30.5209316 ], [ 75.1219947, 30.5244369 ], [ 75.1281889, 30.5223035 ], [ 75.1310284, 30.526534 ], [ 75.1313676, 30.5338674 ], [ 75.1300081, 30.5403531 ], [ 75.1264338, 30.5458826 ], [ 75.1251184, 30.5518084 ], [ 75.1206371, 30.5608518 ], [ 75.1218738, 30.5635443 ], [ 75.123969, 30.5670802 ], [ 75.1297546, 30.5718348 ], [ 75.1383967, 30.5759137 ], [ 75.1456237, 30.5823846 ], [ 75.1513855, 30.5777435 ] ] ] } }
]
}
