{
"type": "FeatureCollection",
"name": "0315",
"crs": { "type": "name", "properties": { "name": "urn:ogc:def:crs:OGC:1.3:CRS84" } },
"features": [
{ "type": "Feature", "properties": { "code": "0315", "name": "Mansa", "type": "district" }, "geometry": { "type": "Polygon", "coordinates": [ [ [ 75.3918386, 30.2098028 ], [ 75.393488, 30.2066188 ], [ 75.397043, 30.2067744 ], [ 75.3935562, 30.2043299 ], [ 75.3945249, 30.2021276 ], [ 75.3926597, 30.2020115 ], [ 75.3934295, 30.2003909 ], [ 75.3956021, 30.2003355 ], [ 75.4002553, 30.1947207 ], [ 75.4061594, 30.193399 ], [ 75.4124399, 30.1877958 ], [ 75.4162594, 30.1863003 ], [ 75.418233, 30.1875987 ], [ 75.4211742, 30.1863799 ], [ 75.427141, 30.1870424 ], [ 75.4303429, 30.1893141 ], [ 75.4387002, 30.1915228 ], [ 75.439403, 30.1904931 ], [ 75.4509263, 30.1912297 ], [ 75.458558, 30.1949043 ], [ 75.4634737, 30.1941236 ], [ 75.4825594, 30.1789741 ], [ 75.4818142, 30.1747202 ], [ 75.4872529, 30.1744835 ], [ 75.4872534, 30.1712407 ], [ 75.489206, 30.1703824 ], [ 75.4888795, 30.1653944 ], [ 75.4917973, 30.1635061 ], [ 75.4918612, 30.1613254 ], [ 75.4893606, 30.1604287 ], [ 75.4921248, 30.1579299 ], [ 75.4915352, 30.1549422 ], [ 75.4943892, 30.1517281 ], [ 75.4954859, 30.152205 ], [ 75.50723, 30.143382 ], [ 75.509597, 30.1443204 ], [ 75.5176026, 30.1433731 ], [ 75.5240051, 30.1396929 ], [ 75.5296798, 30.1417367 ], [ 75.5340772, 30.1466145 ], [ 75.5381808, 30.14223 ], [ 75.548829, 30.1376197 ], [ 75.5562948, 30.1433276 ], [ 75.557865, 30.1465155 ], [ 75.5644488, 30.1479225 ], [ 75.5712903, 30.1440937 ], [ 75.5737261, 30.1450069 ], [ 75.582053, 30.1438612 ], [ 75.5916242, 30.1391845 ], [ 75.5938654, 30.1406679 ], [ 75.6053353, 30.1359274 ], [ 75.6149825, 30.1404669 ], [ 75.6254362, 30.142669 ], [ 75.6270966, 30.1400757 ], [ 75.6255778, 30.1379577 ], [ 75.6276907, 30.1355066 ], [ 75.6240389, 30.1342967 ], [ 75.6247202, 30.1311937 ], [ 75.6257923, 30.1291672 ], [ 75.6302788, 30.1269934 ], [ 75.6283182, 30.1247558 ], [ 75.6341771, 30.1205043 ], [ 75.6333197, 30.1195429 ], [ 75.6353066, 30.1169524 ], [ 75.6346039, 30.1158278 ], [ 75.6360395, 30.1163126 ], [ 75.6373538, 30.114894 ], [ 75.6406082, 30.1157445 ], [ 75.6471782, 30.1124636 ], [ 75.6490882, 30.1148681 ], [ 75.6547619, 30.1150294 ], [ 75.6470389, 30.103034 ], [ 75.6415961, 30.1015627 ], [ 75.6349764, 30.0937302 ], [ 75.6242914, 30.0877758 ], [ 75.6223422, 30.0847349 ], [ 75.6368022, 30.0733763 ], [ 75.6327546, 30.0699396 ], [ 75.6403364, 30.0655216 ], [ 75.6388303, 30.0628216 ], [ 75.6376956, 30.0524989 ], [ 75.6353341, 30.0473936 ], [ 75.6365141, 30.0445588 ], [ 75.6421485, 30.0416707 ], [ 75.6421648, 30.0377541 ], [ 75.6383917, 30.0292174 ], [ 75.6408272, 30.027342 ], [ 75.6416151, 30.0248836 ], [ 75.6490154, 30.023426 ], [ 75.6570513, 30.0358216 ], [ 75.6592336, 30.0364694 ], [ 75.6706251, 30.0346521 ], [ 75.6722852, 30.0401259 ], [ 75.6741626, 30.0401253 ], [ 75.6799709, 30.0378348 ], [ 75.6776237, 30.0366106 ], [ 75.6739864, 30.0317246 ], [ 75.6813167, 30.0245802 ], [ 75.6822941, 30.0257167 ], [ 75.6876671, 30.0236042 ], [ 75.6864656, 30.0162918 ], [ 75.6900329, 30.0140577 ], [ 75.6881944, 30.0083594 ], [ 75.6849552, 30.0092562 ], [ 75.6824635, 30.0080509 ], [ 75.6791321, 30.0060737 ], [ 75.6794361, 30.0042763 ], [ 75.6728541, 29.9999514 ], [ 75.6640866, 29.9989762 ], [ 75.6473459, 29.9835197 ], [ 75.6522946, 29.9801607 ], [ 75.6483893, 29.9733892 ], [ 75.6475159, 29.9580075 ], [ 75.6443088, 29.9514123 ], [ 75.6410807, 29.9368672 ], [ 75.6492898, 29.938113 ], [ 75.6546537, 29.9304699 ], [ 75.6569733, 29.931072 ], [ 75.6578913, 29.9328046 ], [ 75.6638476, 29.9310556 ], [ 75.6693881, 29.9260416 ], [ 75.6680729, 29.9245683 ], [ 75.6691132, 29.9236605 ], [ 75.6683991, 29.9222248 ], [ 75.6727752, 29.9182318 ], [ 75.6729216, 29.9161148 ], [ 75.6706457, 29.9135003 ], [ 75.6709713, 29.9110756 ], [ 75.6754012, 29.9089999 ], [ 75.6837901, 29.9095343 ], [ 75.7054984, 29.9186293 ], [ 75.707801, 29.9219605 ], [ 75.7086205, 29.9345451 ], [ 75.718383, 29.9334274 ], [ 75.7323822, 29.9348328 ], [ 75.7350605, 29.9286924 ], [ 75.7380466, 29.9254901 ], [ 75.7568729, 29.9154651 ], [ 75.7642472, 29.9190755 ], [ 75.7662892, 29.9173135 ], [ 75.7655648, 29.907322 ], [ 75.7683703, 29.8980866 ], [ 75.7612987, 29.8936333 ], [ 75.7587748, 29.8874793 ], [ 75.7597588, 29.8866361 ], [ 75.7601593, 29.8759103 ], [ 75.7625335, 29.8725565 ], [ 75.7581403, 29.86737 ], [ 75.7575314, 29.8614335 ], [ 75.7581597, 29.8595938 ], [ 75.7613262, 29.8599934 ], [ 75.7756259, 29.8532254 ], [ 75.7750908, 29.8501217 ], [ 75.7720051, 29.8468131 ], [ 75.7732674, 29.8349842 ], [ 75.7648182, 29.8277409 ], [ 75.7571203, 29.8279193 ], [ 75.7504979, 29.8242732 ], [ 75.7456518, 29.8246809 ], [ 75.7448352, 29.8220279 ], [ 75.7378165, 29.8140354 ], [ 75.7326001, 29.8125168 ], [ 75.7206756, 29.8135434 ], [ 75.7209704, 29.8099185 ], [ 75.718069, 29.8086483 ], [ 75.7179769, 29.803004 ], [ 75.7141712, 29.8018469 ], [ 75.7146003, 29.7959831 ], [ 75.7127504, 29.7926405 ], [ 75.716649, 29.7887208 ], [ 75.7142106, 29.7840819 ], [ 75.7101292, 29.7804128 ], [ 75.7098121, 29.7779824 ], [ 75.7123757, 29.774061 ], [ 75.7103134, 29.7705976 ], [ 75.7073922, 29.7692776 ], [ 75.7046684, 29.7636202 ], [ 75.7057475, 29.7596843 ], [ 75.7092472, 29.756534 ], [ 75.7064467, 29.7531964 ], [ 75.7031463, 29.7522799 ], [ 75.6913603, 29.7559248 ], [ 75.6898689, 29.7594025 ], [ 75.6826695, 29.7669393 ], [ 75.6817126, 29.7722733 ], [ 75.6771746, 29.7765788 ], [ 75.6680817, 29.7773966 ], [ 75.6640844, 29.7752057 ], [ 75.6609813, 29.7768277 ], [ 75.6559751, 29.7737571 ], [ 75.6501118, 29.7756858 ], [ 75.6424632, 29.7750914 ], [ 75.640264, 29.7724985 ], [ 75.6377849, 29.7738867 ], [ 75.6351784, 29.7722929 ], [ 75.6344918, 29.7552757 ], [ 75.6274519, 29.7483603 ], [ 75.6205748, 29.7467367 ], [ 75.616758, 29.7440832 ], [ 75.6068799, 29.74893 ], [ 75.6052692, 29.7519471 ], [ 75.6009622, 29.7494624 ], [ 75.5889916, 29.7468765 ], [ 75.5800993, 29.7390913 ], [ 75.5721401, 29.743345 ], [ 75.5697434, 29.7568016 ], [ 75.5651047, 29.7667448 ], [ 75.5621243, 29.770223 ], [ 75.5448938, 29.7707915 ], [ 75.5407038, 29.7735792 ], [ 75.5379611, 29.7733332 ], [ 75.532702, 29.7706155 ], [ 75.5286647, 29.7631592 ], [ 75.5271672, 29.761622 ], [ 75.5249187, 29.761852 ], [ 75.523039, 29.758403 ], [ 75.5219551, 29.7598287 ], [ 75.5232655, 29.7691506 ], [ 75.5197874, 29.7726929 ], [ 75.5186035, 29.7758156 ], [ 75.5031008, 29.7777075 ], [ 75.4972856, 29.7843897 ], [ 75.4921731, 29.7857746 ], [ 75.4855451, 29.7915224 ], [ 75.4795993, 29.7927813 ], [ 75.4727694, 29.799548 ], [ 75.4616159, 29.807729 ], [ 75.4566705, 29.8066001 ], [ 75.4528756, 29.8018437 ], [ 75.4581811, 29.7947496 ], [ 75.4560522, 29.7904749 ], [ 75.4558558, 29.7842819 ], [ 75.4539769, 29.7820007 ], [ 75.451205, 29.7814384 ], [ 75.4475716, 29.7837996 ], [ 75.4383701, 29.7800289 ], [ 75.4274757, 29.7708501 ], [ 75.4217171, 29.7730129 ], [ 75.4214234, 29.7750834 ], [ 75.4193841, 29.7702081 ], [ 75.4163176, 29.769149 ], [ 75.4139552, 29.7699932 ], [ 75.406316, 29.7612491 ], [ 75.4051518, 29.7576318 ], [ 75.4047842, 29.7389945 ], [ 75.4013319, 29.7402041 ], [ 75.3964473, 29.7394562 ], [ 75.3954847, 29.7335609 ], [ 75.3910863, 29.7324383 ], [ 75.3881866, 29.7298812 ], [ 75.3881604, 29.7279822 ], [ 75.3934721, 29.7219778 ], [ 75.3907533, 29.7190326 ], [ 75.3911354, 29.7169802 ], [ 75.3892491, 29.7161324 ], [ 75.3922664, 29.7132858 ], [ 75.3840245, 29.7121996 ], [ 75.3802266, 29.714207 ], [ 75.3786454, 29.712872 ], [ 75.3750593, 29.7139636 ], [ 75.3700213, 29.7112751 ], [ 75.3708173, 29.704464 ], [ 75.3646533, 29.7039179 ], [ 75.359078, 29.7055006 ], [ 75.3579156, 29.7043909 ], [ 75.3586087, 29.6997494 ], [ 75.3514486, 29.6960631 ], [ 75.3457294, 29.6960034 ], [ 75.3488523, 29.6865856 ], [ 75.353689, 29.6795858 ], [ 75.3542633, 29.6748947 ], [ 75.3598429, 29.6681339 ], [ 75.3601691, 29.6625993 ], [ 75.3581035, 29.6607451 ], [ 75.348656, 29.666576 ], [ 75.3410606, 29.6752484 ], [ 75.3337679, 29.6734738 ], [ 75.3318662, 29.6631751 ], [ 75.3222554, 29.6516061 ], [ 75.3210235, 29.6472572 ], [ 75.3234942, 29.6424678 ], [ 75.316592, 29.6306153 ], [ 75.3111715, 29.6294941 ], [ 75.3073024, 29.6247695 ], [ 75.2957375, 29.6250338 ], [ 75.2949188, 29.6157095 ], [ 75.2896959, 29.6078079 ], [ 75.2977723, 29.6036809 ], [ 75.3034561, 29.6025835 ], [ 75.305639, 29.5956696 ], [ 75.3140248, 29.5892503 ], [ 75.3170384, 29.5899779 ], [ 75.3199402, 29.5874124 ], [ 75.3113003, 29.5801418 ], [ 75.3094755, 29.5608347 ], [ 75.2983119, 29.5585869 ], [ 75.2811698, 29.5614583 ], [ 75.2803821, 29.5539653 ], [ 75.2732715, 29.5499861 ], [ 75.2680778, 29.5486604 ], [ 75.258002, 29.5490894 ], [ 75.244493, 29.5466904 ], [ 75.2353672, 29.5420701 ], [ 75.2391066, 29.5507232 ], [ 75.2384141, 29.5588568 ], [ 75.233823, 29.5643233 ], [ 75.2331909, 29.5667821 ], [ 75.2344328, 29.5700018 ], [ 75.2319559, 29.5747944 ], [ 75.2268154, 29.5790115 ], [ 75.2217285, 29.5802828 ], [ 75.227443, 29.5872116 ], [ 75.2353823, 29.6030651 ], [ 75.2283958, 29.60543 ], [ 75.2214948, 29.6111052 ], [ 75.2197076, 29.6154188 ], [ 75.2067658, 29.6219004 ], [ 75.1968517, 29.6193215 ], [ 75.1830731, 29.6283995 ], [ 75.1822151, 29.6359599 ], [ 75.1846088, 29.641038 ], [ 75.1852066, 29.6476595 ], [ 75.1876259, 29.6517947 ], [ 75.1800404, 29.6528627 ], [ 75.1746606, 29.6555983 ], [ 75.1679777, 29.6670218 ], [ 75.1682478, 29.6707161 ], [ 75.1771473, 29.6706271 ], [ 75.1795977, 29.6745053 ], [ 75.1839462, 29.6733396 ], [ 75.1856875, 29.6743673 ], [ 75.1874656, 29.6763106 ], [ 75.1881455, 29.6813398 ], [ 75.1909664, 29.6819383 ], [ 75.1932122, 29.6802456 ], [ 75.1960127, 29.6811462 ], [ 75.1988168, 29.6800035 ], [ 75.2068038, 29.6875137 ], [ 75.2077966, 29.7012121 ], [ 75.2045681, 29.7021208 ], [ 75.2002634, 29.7010587 ], [ 75.1977954, 29.7032478 ], [ 75.196895, 29.7157024 ], [ 75.2006443, 29.7264808 ], [ 75.2081678, 29.7375275 ], [ 75.2103396, 29.7388071 ], [ 75.2174915, 29.7371379 ], [ 75.2263523, 29.7288722 ], [ 75.2381791, 29.7399544 ], [ 75.24165, 29.753526 ], [ 75.2402029, 29.7560421 ], [ 75.2366161, 29.7570007 ], [ 75.2247518, 29.7798904 ], [ 75.2263089, 29.7891338 ], [ 75.2162905, 29.7877066 ], [ 75.2144801, 29.7915096 ], [ 75.2085384, 29.7926694 ], [ 75.2098427, 29.8016288 ], [ 75.2087212, 29.8047035 ], [ 75.2100509, 29.809647 ], [ 75.2096841, 29.8173368 ], [ 75.2140243, 29.8239811 ], [ 75.2106833, 29.8324021 ], [ 75.1992614, 29.8377941 ], [ 75.1965234, 29.8377621 ], [ 75.1905961, 29.8426667 ], [ 75.1904144, 29.8505592 ], [ 75.193148, 29.8534612 ], [ 75.2063517, 29.8595612 ], [ 75.2129116, 29.8581147 ], [ 75.217553, 29.8619156 ], [ 75.2174767, 29.8828283 ], [ 75.2049026, 29.8882655 ], [ 75.1881268, 29.8893915 ], [ 75.1857264, 29.9018265 ], [ 75.1847842, 29.9160598 ], [ 75.1825215, 29.9194201 ], [ 75.1758514, 29.9232827 ], [ 75.1716541, 29.9285271 ], [ 75.1806863, 29.9415376 ], [ 75.1834685, 29.9414571 ], [ 75.1781346, 29.9458729 ], [ 75.1833169, 29.9520658 ], [ 75.1809711, 29.9528948 ], [ 75.1827646, 29.9701925 ], [ 75.1885575, 29.9736949 ], [ 75.1950527, 29.9809007 ], [ 75.2076343, 29.9794104 ], [ 75.2079772, 29.9748299 ], [ 75.216648, 29.9676413 ], [ 75.2213124, 29.9689038 ], [ 75.2375531, 29.9597558 ], [ 75.2468069, 29.9699913 ], [ 75.2507278, 29.9828772 ], [ 75.2730833, 29.9740016 ], [ 75.2810879, 29.9793119 ], [ 75.2784343, 29.9854804 ], [ 75.2717823, 29.989837 ], [ 75.274341, 29.9959372 ], [ 75.2814307, 30.0037813 ], [ 75.2833851, 30.0033147 ], [ 75.2880551, 30.0065494 ], [ 75.2984867, 30.0193823 ], [ 75.3011507, 30.0206456 ], [ 75.2944165, 30.0206551 ], [ 75.2941718, 30.0196833 ], [ 75.2889912, 30.0224104 ], [ 75.287729, 30.0208736 ], [ 75.2876886, 30.017398 ], [ 75.2815348, 30.0114054 ], [ 75.2766254, 30.0141521 ], [ 75.260219, 30.0160287 ], [ 75.258425, 30.0202271 ], [ 75.2579539, 30.0260895 ], [ 75.2507402, 30.0326065 ], [ 75.2496325, 30.0383633 ], [ 75.2517324, 30.0385798 ], [ 75.2648343, 30.0500422 ], [ 75.2702631, 30.0483796 ], [ 75.2726516, 30.0516304 ], [ 75.2719474, 30.0531836 ], [ 75.2755773, 30.0573613 ], [ 75.2750967, 30.0595458 ], [ 75.2784213, 30.06363 ], [ 75.2861864, 30.0676078 ], [ 75.2924846, 30.0669466 ], [ 75.2935704, 30.0708015 ], [ 75.3101613, 30.0679226 ], [ 75.3126893, 30.065652 ], [ 75.3170702, 30.0653638 ], [ 75.317275, 30.0626223 ], [ 75.3201837, 30.061345 ], [ 75.3243572, 30.0644616 ], [ 75.3258997, 30.0697672 ], [ 75.3221583, 30.0705508 ], [ 75.3214279, 30.072867 ], [ 75.3171556, 30.0756827 ], [ 75.3136513, 30.0753049 ], [ 75.3064247, 30.0773529 ], [ 75.3040291, 30.0888638 ], [ 75.3000681, 30.0934991 ], [ 75.2998133, 30.0981228 ], [ 75.2915547, 30.1032633 ], [ 75.2908066, 30.1048954 ], [ 75.2949438, 30.1076702 ], [ 75.296989, 30.1117767 ], [ 75.3000383, 30.1096544 ], [ 75.306257, 30.1114819 ], [ 75.3097418, 30.1139816 ], [ 75.3137471, 30.1122371 ], [ 75.3158519, 30.1162511 ], [ 75.321116, 30.1184908 ], [ 75.3231977, 30.1228445 ], [ 75.3286447, 30.1231728 ], [ 75.3403437, 30.132583 ], [ 75.3434107, 30.1306555 ], [ 75.3447198, 30.1312172 ], [ 75.3533247, 30.1420892 ], [ 75.3463558, 30.1441709 ], [ 75.3436646, 30.146222 ], [ 75.3446746, 30.1488108 ], [ 75.3433718, 30.1502275 ], [ 75.345513, 30.1559474 ], [ 75.3445337, 30.1594913 ], [ 75.3511681, 30.1626561 ], [ 75.3525909, 30.1614994 ], [ 75.3575201, 30.1616402 ], [ 75.3591812, 30.1640848 ], [ 75.3556261, 30.1656638 ], [ 75.3568672, 30.1673062 ], [ 75.3561316, 30.1682617 ], [ 75.3581293, 30.1688624 ], [ 75.3639992, 30.1760177 ], [ 75.3574694, 30.1814219 ], [ 75.3573952, 30.1872695 ], [ 75.363275, 30.1910765 ], [ 75.3695392, 30.1989631 ], [ 75.3702427, 30.197991 ], [ 75.3748284, 30.1984153 ], [ 75.3805019, 30.204249 ], [ 75.386425, 30.2061048 ], [ 75.3879546, 30.2093225 ], [ 75.3892929, 30.2097051 ], [ 75.3902818, 30.2085043 ], [ 75.3918386, 30.2098028 ] ] ] } }
]
}
