{
"type": "FeatureCollection",
"name": "0317",
"crs": { "type": "name", "properties": { "name": "urn:ogc:def:crs:OGC:1.3:CRS84" } },
"features": [
{ "type": "Feature", "properties": { "code": "0317", "name": "Patiala", "type": "district" }, "geometry": { "type": "MultiPolygon", "coordinates": [ [ [ [ 75.9719936, 29.9284312 ], [ 75.9693548, 29.9252306 ], [ 75.970783, 29.9242463 ], [ 75.9713972, 29.9221619 ], [ 75.9704382, 29.9210846 ], [ 75.9714158, 29.9200104 ], [ 75.9679273, 29.9159985 ], [ 75.9710085, 29.9164293 ], [ 75.9741219, 29.912841 ], [ 75.9739516, 29.9082044 ], [ 75.9782214, 29.9067261 ], [ 75.9793112, 29.9043165 ], [ 75.9741126, 29.8950013 ], [ 75.967419, 29.8903857 ], [ 75.9630532, 29.8926598 ], [ 75.9602965, 29.8894437 ], [ 75.9592494, 29.8909624 ], [ 75.9550006, 29.8905648 ], [ 75.9493629, 29.8949785 ], [ 75.9376232, 29.8993672 ], [ 75.9343539, 29.9018052 ], [ 75.9331139, 29.9062182 ], [ 75.9292939, 29.9081475 ], [ 75.9349425, 29.9155091 ], [ 75.9417563, 29.9197041 ], [ 75.9479943, 29.921205 ], [ 75.9524554, 29.9209383 ], [ 75.9590383, 29.9173848 ], [ 75.957778, 29.9149273 ], [ 75.959356, 29.913528 ], [ 75.9622742, 29.9134627 ], [ 75.9631623, 29.9147648 ], [ 75.9662817, 29.9125534 ], [ 75.9671933, 29.913875 ], [ 75.9634391, 29.9170384 ], [ 75.9644698, 29.9216548 ], [ 75.9677411, 29.9210104 ], [ 75.9681252, 29.9259889 ], [ 75.9661023, 29.9281337 ], [ 75.9675542, 29.9282652 ], [ 75.9677084, 29.930474 ], [ 75.9699858, 29.9319277 ], [ 75.9719936, 29.9284312 ] ] ], [ [ [ 76.6496129, 30.626967 ], [ 76.6534087, 30.6241384 ], [ 76.6583114, 30.6105213 ], [ 76.6626452, 30.612685 ], [ 76.6657681, 30.6109471 ], [ 76.6634045, 30.6075071 ], [ 76.6634954, 30.6000384 ], [ 76.6647349, 30.5969621 ], [ 76.6684595, 30.5932609 ], [ 76.660941, 30.5870094 ], [ 76.6629412, 30.5831482 ], [ 76.6687437, 30.5844634 ], [ 76.6847271, 30.5938289 ], [ 76.689372, 30.5936057 ], [ 76.6877599, 30.5915724 ], [ 76.6878563, 30.587581 ], [ 76.6836128, 30.5790904 ], [ 76.6859034, 30.5728492 ], [ 76.6923744, 30.5702959 ], [ 76.6955807, 30.5714127 ], [ 76.6985042, 30.5707616 ], [ 76.7001017, 30.5740982 ], [ 76.7039376, 30.5736042 ], [ 76.7054815, 30.5748662 ], [ 76.70337, 30.5870222 ], [ 76.7101089, 30.5853762 ], [ 76.718772, 30.5898307 ], [ 76.7218163, 30.5860096 ], [ 76.7206046, 30.5820945 ], [ 76.7254179, 30.5788437 ], [ 76.7319454, 30.5707067 ], [ 76.7357315, 30.5723857 ], [ 76.7387046, 30.5742053 ], [ 76.737913, 30.5747698 ], [ 76.7411032, 30.583697 ], [ 76.7444595, 30.5873245 ], [ 76.7468009, 30.5878094 ], [ 76.747425, 30.5908757 ], [ 76.7484564, 30.5902208 ], [ 76.750145, 30.5924265 ], [ 76.7514314, 30.5964014 ], [ 76.7571404, 30.5969335 ], [ 76.7619912, 30.6047888 ], [ 76.7731068, 30.610371 ], [ 76.7773058, 30.6089875 ], [ 76.7841503, 30.6022899 ], [ 76.7856506, 30.6033429 ], [ 76.7831088, 30.6000894 ], [ 76.7851655, 30.5979321 ], [ 76.7880371, 30.5972792 ], [ 76.7866435, 30.5952143 ], [ 76.7797151, 30.5927291 ], [ 76.772506, 30.5831066 ], [ 76.7766139, 30.5762299 ], [ 76.7690426, 30.5680965 ], [ 76.7679045, 30.5682879 ], [ 76.7656594, 30.5655036 ], [ 76.7658347, 30.5633811 ], [ 76.7619584, 30.5594505 ], [ 76.769016, 30.5516908 ], [ 76.7656506, 30.5506268 ], [ 76.7592118, 30.5577374 ], [ 76.7526175, 30.5556702 ], [ 76.7507019, 30.5523308 ], [ 76.7528676, 30.550159 ], [ 76.7511414, 30.5469073 ], [ 76.7540468, 30.543273 ], [ 76.7512146, 30.5408256 ], [ 76.7510277, 30.5369073 ], [ 76.7542174, 30.5330535 ], [ 76.7607165, 30.533683 ], [ 76.765868, 30.5306767 ], [ 76.7638647, 30.5277882 ], [ 76.7684057, 30.5246383 ], [ 76.7764601, 30.5208478 ], [ 76.7826139, 30.5211562 ], [ 76.7870167, 30.518881 ], [ 76.7800307, 30.5103564 ], [ 76.7752614, 30.507363 ], [ 76.7720389, 30.5074836 ], [ 76.7690964, 30.5035134 ], [ 76.7699789, 30.5011517 ], [ 76.7677092, 30.4959403 ], [ 76.7693316, 30.4857101 ], [ 76.7654264, 30.4753924 ], [ 76.7604657, 30.4743724 ], [ 76.7573799, 30.4716127 ], [ 76.7564366, 30.4727351 ], [ 76.7530451, 30.4697584 ], [ 76.7521053, 30.4603161 ], [ 76.755967, 30.4578824 ], [ 76.7540411, 30.4561761 ], [ 76.7552802, 30.4521041 ], [ 76.7584803, 30.4511182 ], [ 76.7555722, 30.4451578 ], [ 76.7523555, 30.4431666 ], [ 76.7475235, 30.4445892 ], [ 76.7463572, 30.4431252 ], [ 76.7464755, 30.4407102 ], [ 76.7486271, 30.4390439 ], [ 76.7481584, 30.4288155 ], [ 76.7410473, 30.4262179 ], [ 76.7410489, 30.4242424 ], [ 76.7350922, 30.4192236 ], [ 76.7398146, 30.4110616 ], [ 76.7357237, 30.4060555 ], [ 76.7282244, 30.4003616 ], [ 76.725147, 30.4021825 ], [ 76.722209, 30.3990027 ], [ 76.7151952, 30.4028218 ], [ 76.7141268, 30.4017129 ], [ 76.7152369, 30.3990994 ], [ 76.7134783, 30.3882052 ], [ 76.7186431, 30.3824792 ], [ 76.7176088, 30.3800387 ], [ 76.7198681, 30.3786027 ], [ 76.7296002, 30.3822575 ], [ 76.7312401, 30.379662 ], [ 76.7191078, 30.3662672 ], [ 76.719912, 30.363329 ], [ 76.7257131, 30.3618469 ], [ 76.7331032, 30.3684306 ], [ 76.735241, 30.3678488 ], [ 76.7379414, 30.3704082 ], [ 76.7460843, 30.3671923 ], [ 76.7492902, 30.3618023 ], [ 76.7489189, 30.3569859 ], [ 76.7511252, 30.3553044 ], [ 76.7499999, 30.3533341 ], [ 76.7457601, 30.3509985 ], [ 76.745521, 30.3491359 ], [ 76.7434061, 30.349278 ], [ 76.7384741, 30.3463216 ], [ 76.7326208, 30.348324 ], [ 76.7273741, 30.3410625 ], [ 76.7297507, 30.3388249 ], [ 76.7222906, 30.3332423 ], [ 76.7163857, 30.3360206 ], [ 76.7110226, 30.3257965 ], [ 76.7048706, 30.3258778 ], [ 76.7000519, 30.328051 ], [ 76.6956305, 30.3215744 ], [ 76.6905825, 30.3263124 ], [ 76.687999, 30.3268565 ], [ 76.6820922, 30.3197888 ], [ 76.6854873, 30.3174707 ], [ 76.6864652, 30.3142581 ], [ 76.6780402, 30.3058344 ], [ 76.6807876, 30.3031312 ], [ 76.6748631, 30.2993517 ], [ 76.6676844, 30.302843 ], [ 76.6654272, 30.3059027 ], [ 76.6595522, 30.299892 ], [ 76.6556828, 30.2983863 ], [ 76.6501457, 30.2908501 ], [ 76.6392597, 30.2846052 ], [ 76.6365733, 30.2892017 ], [ 76.6352274, 30.2891235 ], [ 76.6321596, 30.2838542 ], [ 76.6303592, 30.2773816 ], [ 76.6314358, 30.2760897 ], [ 76.6255993, 30.2712005 ], [ 76.6272327, 30.269376 ], [ 76.6234309, 30.2645521 ], [ 76.6205288, 30.264951 ], [ 76.614414, 30.2725047 ], [ 76.6112382, 30.2695534 ], [ 76.6097306, 30.2703926 ], [ 76.6087028, 30.2678995 ], [ 76.6011328, 30.2703171 ], [ 76.5929227, 30.2617401 ], [ 76.58802, 30.2648301 ], [ 76.5864923, 30.2685362 ], [ 76.5838178, 30.2702207 ], [ 76.5806252, 30.2652001 ], [ 76.5751426, 30.2618773 ], [ 76.5719301, 30.2652367 ], [ 76.5656972, 30.2640428 ], [ 76.5620272, 30.261952 ], [ 76.5595916, 30.2648428 ], [ 76.5566002, 30.2622485 ], [ 76.5583101, 30.2485789 ], [ 76.560046, 30.2451851 ], [ 76.5550199, 30.2356772 ], [ 76.5536184, 30.2301355 ], [ 76.5457126, 30.2298579 ], [ 76.5431102, 30.2283866 ], [ 76.5456734, 30.2255471 ], [ 76.548564, 30.2251438 ], [ 76.5485808, 30.2260911 ], [ 76.5554956, 30.2267349 ], [ 76.5574667, 30.228842 ], [ 76.560752, 30.2289199 ], [ 76.5637732, 30.2352978 ], [ 76.5662132, 30.2353142 ], [ 76.5678592, 30.2380871 ], [ 76.573597, 30.2408479 ], [ 76.5826894, 30.2477906 ], [ 76.5879002, 30.2539565 ], [ 76.5906645, 30.2534148 ], [ 76.5915451, 30.255756 ], [ 76.596333, 30.2552072 ], [ 76.6037088, 30.2518759 ], [ 76.6061001, 30.2469071 ], [ 76.6029337, 30.2413348 ], [ 76.6232611, 30.2314236 ], [ 76.6275063, 30.2271863 ], [ 76.6232653, 30.2200989 ], [ 76.6164007, 30.2163152 ], [ 76.614843, 30.2135326 ], [ 76.6155349, 30.2116783 ], [ 76.6217073, 30.2076419 ], [ 76.6357464, 30.2068327 ], [ 76.6393165, 30.2087773 ], [ 76.6470604, 30.2050967 ], [ 76.6542599, 30.2034658 ], [ 76.6506422, 30.193144 ], [ 76.6570518, 30.188085 ], [ 76.6568218, 30.1861415 ], [ 76.6540429, 30.1839725 ], [ 76.6540579, 30.1811851 ], [ 76.65163, 30.1796075 ], [ 76.6522985, 30.1780957 ], [ 76.6482394, 30.1754719 ], [ 76.6460416, 30.1763858 ], [ 76.6428301, 30.1735457 ], [ 76.6418741, 30.1710043 ], [ 76.6392556, 30.1702405 ], [ 76.6354332, 30.169975 ], [ 76.638282, 30.1780977 ], [ 76.6355013, 30.184542 ], [ 76.6384832, 30.184658 ], [ 76.6403376, 30.1865847 ], [ 76.6452416, 30.1871192 ], [ 76.6456047, 30.1880653 ], [ 76.6394353, 30.194374 ], [ 76.6303005, 30.1985274 ], [ 76.6185446, 30.2005504 ], [ 76.6141909, 30.2044333 ], [ 76.6100957, 30.1984667 ], [ 76.6109916, 30.1963398 ], [ 76.6073086, 30.1917767 ], [ 76.6234014, 30.1801736 ], [ 76.6237301, 30.1750333 ], [ 76.6289346, 30.1688945 ], [ 76.6327227, 30.1693554 ], [ 76.6394745, 30.152406 ], [ 76.6402917, 30.1510564 ], [ 76.6437439, 30.1502113 ], [ 76.6352965, 30.146636 ], [ 76.6327208, 30.1418288 ], [ 76.6234729, 30.1400763 ], [ 76.612785, 30.1267185 ], [ 76.6030735, 30.1185985 ], [ 76.5989452, 30.1120892 ], [ 76.5865466, 30.1107241 ], [ 76.5727031, 30.09906 ], [ 76.560546, 30.0933767 ], [ 76.5563791, 30.0825055 ], [ 76.5499958, 30.0788533 ], [ 76.5456515, 30.0793182 ], [ 76.5459612, 30.0764005 ], [ 76.544507, 30.074657 ], [ 76.5352827, 30.0731002 ], [ 76.5268504, 30.076958 ], [ 76.5224759, 30.0741118 ], [ 76.5188845, 30.0740121 ], [ 76.5085778, 30.0703508 ], [ 76.5087057, 30.0789532 ], [ 76.5102249, 30.0827253 ], [ 76.5028131, 30.0913454 ], [ 76.4988871, 30.0940579 ], [ 76.4898597, 30.0949404 ], [ 76.4820588, 30.0975298 ], [ 76.4727568, 30.0976695 ], [ 76.4625486, 30.1010204 ], [ 76.4567359, 30.1122374 ], [ 76.456326, 30.1154271 ], [ 76.4599624, 30.1294445 ], [ 76.4580117, 30.1302015 ], [ 76.4580305, 30.13183 ], [ 76.4555704, 30.1304226 ], [ 76.4508832, 30.1321573 ], [ 76.4438984, 30.1304613 ], [ 76.438539, 30.1331052 ], [ 76.4376777, 30.1417226 ], [ 76.4398238, 30.1425923 ], [ 76.4397667, 30.1436667 ], [ 76.4298589, 30.1484534 ], [ 76.4285127, 30.1508547 ], [ 76.4334905, 30.1558352 ], [ 76.4365239, 30.1559464 ], [ 76.4405821, 30.1658407 ], [ 76.4346551, 30.1756731 ], [ 76.4303941, 30.1779708 ], [ 76.4338246, 30.1807124 ], [ 76.4343318, 30.183107 ], [ 76.4227375, 30.1922382 ], [ 76.4065662, 30.190389 ], [ 76.4036193, 30.186656 ], [ 76.4029835, 30.1821062 ], [ 76.3963633, 30.1795782 ], [ 76.3899996, 30.1745884 ], [ 76.3871812, 30.1705939 ], [ 76.3934852, 30.1669405 ], [ 76.3916848, 30.1640767 ], [ 76.3950307, 30.1579687 ], [ 76.4017778, 30.1537913 ], [ 76.4100945, 30.1450355 ], [ 76.406838, 30.1449126 ], [ 76.4009027, 30.1388855 ], [ 76.3976454, 30.1401654 ], [ 76.3911078, 30.1348029 ], [ 76.3959788, 30.1261206 ], [ 76.3952804, 30.1218556 ], [ 76.3984489, 30.1205722 ], [ 76.397828, 30.1195998 ], [ 76.4000649, 30.1166705 ], [ 76.3888802, 30.1132342 ], [ 76.3679081, 30.1176005 ], [ 76.362203, 30.1201186 ], [ 76.3607573, 30.1225473 ], [ 76.362722, 30.1238984 ], [ 76.3669452, 30.1241794 ], [ 76.3603569, 30.1319536 ], [ 76.3592906, 30.1397426 ], [ 76.3530649, 30.1430146 ], [ 76.3504903, 30.1468309 ], [ 76.347495, 30.1453006 ], [ 76.3468843, 30.1427669 ], [ 76.3378122, 30.1432657 ], [ 76.3339537, 30.1419876 ], [ 76.3335078, 30.1381663 ], [ 76.3424971, 30.1262092 ], [ 76.3521733, 30.1217833 ], [ 76.3602316, 30.1201661 ], [ 76.3544261, 30.116874 ], [ 76.347883, 30.1085317 ], [ 76.3462581, 30.1038833 ], [ 76.3447342, 30.1047742 ], [ 76.3441515, 30.1008235 ], [ 76.3401254, 30.0989246 ], [ 76.3311901, 30.0996606 ], [ 76.3217633, 30.0950592 ], [ 76.319298, 30.0957743 ], [ 76.3195487, 30.0970711 ], [ 76.3075661, 30.1087227 ], [ 76.2966029, 30.1144032 ], [ 76.2906263, 30.1077397 ], [ 76.2853391, 30.1061764 ], [ 76.2785475, 30.1102716 ], [ 76.2751832, 30.1145859 ], [ 76.2677808, 30.1144184 ], [ 76.2536883, 30.1215739 ], [ 76.2531053, 30.1230819 ], [ 76.2554769, 30.1237167 ], [ 76.2556473, 30.1260522 ], [ 76.24694, 30.1305397 ], [ 76.2453362, 30.12806 ], [ 76.2440091, 30.1281944 ], [ 76.2422749, 30.1293838 ], [ 76.2432209, 30.1323887 ], [ 76.2325215, 30.1397534 ], [ 76.2343819, 30.1449289 ], [ 76.2268811, 30.144539 ], [ 76.2243415, 30.1469629 ], [ 76.219014, 30.1477028 ], [ 76.2164909, 30.1502347 ], [ 76.2162904, 30.1529346 ], [ 76.2146895, 30.1531975 ], [ 76.2145961, 30.1561716 ], [ 76.20767, 30.1569935 ], [ 76.2086473, 30.1549678 ], [ 76.2067522, 30.1498419 ], [ 76.2084382, 30.1476111 ], [ 76.2077278, 30.1442655 ], [ 76.2151923, 30.1395856 ], [ 76.2151556, 30.1348938 ], [ 76.2174441, 30.1323144 ], [ 76.2213529, 30.1306584 ], [ 76.2242828, 30.1270759 ], [ 76.2191881, 30.1259773 ], [ 76.2159273, 30.1237427 ], [ 76.2132292, 30.128893 ], [ 76.2090686, 30.1316158 ], [ 76.208039, 30.1340165 ], [ 76.2047419, 30.1330723 ], [ 76.202437, 30.1360486 ], [ 76.1969487, 30.1324623 ], [ 76.1963781, 30.1234531 ], [ 76.2110669, 30.1205572 ], [ 76.2170887, 30.122807 ], [ 76.2202761, 30.1152655 ], [ 76.2162863, 30.112803 ], [ 76.2167658, 30.1100103 ], [ 76.2238015, 30.1116188 ], [ 76.2298172, 30.1066854 ], [ 76.2344042, 30.1050046 ], [ 76.2363437, 30.10657 ], [ 76.2383192, 30.105613 ], [ 76.2368912, 30.1038714 ], [ 76.2421108, 30.1005105 ], [ 76.248929, 30.1038251 ], [ 76.2517307, 30.1075026 ], [ 76.2531813, 30.1060811 ], [ 76.2516455, 30.1044445 ], [ 76.2524945, 30.1026407 ], [ 76.2653034, 30.0987823 ], [ 76.2601469, 30.0874128 ], [ 76.2535245, 30.0892471 ], [ 76.249671, 30.0869082 ], [ 76.2490453, 30.0821182 ], [ 76.247844, 30.0810604 ], [ 76.2463216, 30.0816444 ], [ 76.2367237, 30.0678965 ], [ 76.2290088, 30.0597846 ], [ 76.2262305, 30.0586645 ], [ 76.22832, 30.0528484 ], [ 76.221808, 30.0480686 ], [ 76.2224077, 30.0366872 ], [ 76.2200323, 30.034106 ], [ 76.2139623, 30.0317213 ], [ 76.2145646, 30.0279665 ], [ 76.213171, 30.022096 ], [ 76.2319944, 30.0152075 ], [ 76.2308025, 30.0123041 ], [ 76.2255564, 30.0076924 ], [ 76.2159947, 30.0070637 ], [ 76.2092554, 30.0040578 ], [ 76.2108546, 30.0017105 ], [ 76.2099643, 29.9981569 ], [ 76.2114761, 29.9954485 ], [ 76.2065293, 29.9934465 ], [ 76.2107377, 29.9881543 ], [ 76.2080567, 29.9860547 ], [ 76.2038302, 29.9895868 ], [ 76.202413, 29.9893177 ], [ 76.2018449, 29.9847513 ], [ 76.2059159, 29.9803662 ], [ 76.2047716, 29.9769129 ], [ 76.20573, 29.9743022 ], [ 76.1980884, 29.9682593 ], [ 76.2010834, 29.9672421 ], [ 76.2052988, 29.9615847 ], [ 76.2127383, 29.9470914 ], [ 76.2131191, 29.945091 ], [ 76.2101758, 29.9396132 ], [ 76.2035189, 29.944252 ], [ 76.1914764, 29.9485343 ], [ 76.1837556, 29.9483009 ], [ 76.1799213, 29.9452327 ], [ 76.1782044, 29.9419323 ], [ 76.1781432, 29.9333661 ], [ 76.1725196, 29.9288177 ], [ 76.1719724, 29.9262724 ], [ 76.1754905, 29.9238337 ], [ 76.1791762, 29.92264 ], [ 76.1813975, 29.9236163 ], [ 76.1852795, 29.9204872 ], [ 76.1878063, 29.9206265 ], [ 76.1871111, 29.9187913 ], [ 76.1883646, 29.9173373 ], [ 76.1893012, 29.9086665 ], [ 76.186345, 29.899187 ], [ 76.1856563, 29.8924411 ], [ 76.1863331, 29.8908286 ], [ 76.1897422, 29.890396 ], [ 76.1934554, 29.885622 ], [ 76.1998386, 29.8884078 ], [ 76.1990894, 29.8858968 ], [ 76.2011412, 29.8838165 ], [ 76.2097711, 29.8858885 ], [ 76.2086755, 29.8873847 ], [ 76.2108361, 29.8913076 ], [ 76.212945, 29.8870446 ], [ 76.2173968, 29.8840369 ], [ 76.221296, 29.8833644 ], [ 76.2228484, 29.8847799 ], [ 76.2262596, 29.8837856 ], [ 76.2268316, 29.8863336 ], [ 76.2294003, 29.8856299 ], [ 76.2382858, 29.8786949 ], [ 76.2410334, 29.8787698 ], [ 76.2429807, 29.8767076 ], [ 76.2467573, 29.8759511 ], [ 76.2438671, 29.8689275 ], [ 76.2433235, 29.860163 ], [ 76.2444604, 29.855014 ], [ 76.2438162, 29.8524081 ], [ 76.2425725, 29.8519992 ], [ 76.2325323, 29.853666 ], [ 76.2304742, 29.851482 ], [ 76.2272463, 29.8517669 ], [ 76.2220358, 29.8483001 ], [ 76.2206238, 29.8466978 ], [ 76.2205515, 29.8378437 ], [ 76.217996, 29.8383451 ], [ 76.2120054, 29.8430147 ], [ 76.2026915, 29.8430102 ], [ 76.1978174, 29.8447618 ], [ 76.1848718, 29.8227205 ], [ 76.1737398, 29.8179065 ], [ 76.1644926, 29.8176107 ], [ 76.1608527, 29.8194045 ], [ 76.1532645, 29.8200256 ], [ 76.1454877, 29.8190797 ], [ 76.1418459, 29.8157198 ], [ 76.1417267, 29.8108327 ], [ 76.1332251, 29.804448 ], [ 76.1292651, 29.7969321 ], [ 76.1247384, 29.7934529 ], [ 76.1239504, 29.7909116 ], [ 76.1196724, 29.7922837 ], [ 76.1201518, 29.8007527 ], [ 76.1158484, 29.8023056 ], [ 76.1130963, 29.8060376 ], [ 76.1098302, 29.8073483 ], [ 76.1050888, 29.8118256 ], [ 76.1105122, 29.8185578 ], [ 76.1100011, 29.8225101 ], [ 76.1178995, 29.8317935 ], [ 76.1175352, 29.8346394 ], [ 76.1192311, 29.8349168 ], [ 76.1202411, 29.8432597 ], [ 76.1180516, 29.8485096 ], [ 76.1201283, 29.8530687 ], [ 76.1190908, 29.8550015 ], [ 76.1224587, 29.8575718 ], [ 76.1171021, 29.8599224 ], [ 76.1110633, 29.8595286 ], [ 76.1043888, 29.855219 ], [ 76.0998455, 29.8471601 ], [ 76.0928847, 29.8490258 ], [ 76.0903518, 29.8511128 ], [ 76.0895041, 29.8470759 ], [ 76.0841448, 29.8465666 ], [ 76.0753104, 29.8414092 ], [ 76.0742781, 29.8410371 ], [ 76.0723009, 29.8434645 ], [ 76.0693042, 29.8419176 ], [ 76.064947, 29.841723 ], [ 76.0598826, 29.8465671 ], [ 76.0527979, 29.8598404 ], [ 76.0527669, 29.862925 ], [ 76.0561254, 29.8692864 ], [ 76.0550412, 29.8704562 ], [ 76.0504122, 29.8715268 ], [ 76.0481022, 29.8693292 ], [ 76.0438156, 29.8758361 ], [ 76.0392913, 29.8729041 ], [ 76.037316, 29.8763903 ], [ 76.0383441, 29.8801252 ], [ 76.0330499, 29.8824398 ], [ 76.0318235, 29.8766774 ], [ 76.028825, 29.8765485 ], [ 76.0226575, 29.869522 ], [ 76.0199153, 29.8689427 ], [ 76.0141882, 29.873638 ], [ 76.0156084, 29.8776104 ], [ 76.0116853, 29.8848146 ], [ 76.0119049, 29.8904715 ], [ 76.0, 29.8965061 ], [ 75.9917925, 29.8991325 ], [ 75.9838513, 29.9040152 ], [ 75.9830104, 29.9067899 ], [ 75.987231, 29.9124065 ], [ 75.9885716, 29.9211107 ], [ 75.9898938, 29.9226206 ], [ 75.9861166, 29.9251859 ], [ 75.9847721, 29.9362424 ], [ 75.9878291, 29.9375433 ], [ 75.9886448, 29.9398565 ], [ 75.9871288, 29.9410667 ], [ 75.9905504, 29.9440767 ], [ 75.9897288, 29.9456832 ], [ 75.9960508, 29.9483883 ], [ 76.0005126, 29.9452527 ], [ 76.0037288, 29.9450026 ], [ 76.0118936, 29.9492647 ], [ 76.0148391, 29.9532801 ], [ 76.0263557, 29.9598052 ], [ 76.0259679, 29.9632958 ], [ 76.0206736, 29.9662436 ], [ 76.0268482, 29.9723509 ], [ 76.0222573, 29.9759887 ], [ 76.0087677, 29.9812902 ], [ 76.0068231, 29.9833406 ], [ 76.0078777, 29.9875739 ], [ 76.0110445, 29.9907703 ], [ 76.0150274, 30.0000015 ], [ 76.0320554, 30.0105837 ], [ 76.0320873, 30.0116618 ], [ 76.0267237, 30.0128814 ], [ 76.0286302, 30.0167648 ], [ 76.0274561, 30.0180509 ], [ 76.0286254, 30.0203248 ], [ 76.0341557, 30.0186391 ], [ 76.04203, 30.0274429 ], [ 76.044046, 30.0317989 ], [ 76.0382881, 30.0355804 ], [ 76.0375918, 30.037932 ], [ 76.0419434, 30.0419719 ], [ 76.0395215, 30.0424558 ], [ 76.0414893, 30.0481342 ], [ 76.0475782, 30.0491462 ], [ 76.0505962, 30.0476287 ], [ 76.0517987, 30.0495276 ], [ 76.0435824, 30.0523814 ], [ 76.0523968, 30.0609694 ], [ 76.0515527, 30.064527 ], [ 76.0568857, 30.0665462 ], [ 76.0665123, 30.0611535 ], [ 76.0645688, 30.0564543 ], [ 76.0659127, 30.0550538 ], [ 76.0708391, 30.0597873 ], [ 76.0803634, 30.0556171 ], [ 76.0873331, 30.0545671 ], [ 76.083844, 30.0613682 ], [ 76.0810951, 30.0637595 ], [ 76.0915224, 30.0742943 ], [ 76.0891375, 30.0800982 ], [ 76.0949363, 30.0894076 ], [ 76.0986636, 30.092413 ], [ 76.1008403, 30.1006153 ], [ 76.104734, 30.103592 ], [ 76.1040633, 30.1067423 ], [ 76.096743, 30.116292 ], [ 76.0932872, 30.1163479 ], [ 76.0786881, 30.111068 ], [ 76.077454, 30.1145026 ], [ 76.0806049, 30.1155279 ], [ 76.0835777, 30.1197265 ], [ 76.0814426, 30.1223925 ], [ 76.0737493, 30.1217699 ], [ 76.0717685, 30.1243307 ], [ 76.074196, 30.1313899 ], [ 76.080263, 30.1313176 ], [ 76.0789535, 30.1359575 ], [ 76.0705354, 30.1404074 ], [ 76.0690406, 30.1437989 ], [ 76.0622871, 30.1443049 ], [ 76.0626664, 30.1487009 ], [ 76.0695211, 30.1469578 ], [ 76.0729784, 30.1498216 ], [ 76.073681, 30.1519003 ], [ 76.068272, 30.1553283 ], [ 76.0665018, 30.1587266 ], [ 76.0572263, 30.1648114 ], [ 76.0550203, 30.169756 ], [ 76.056593, 30.1755365 ], [ 76.0536653, 30.1824722 ], [ 76.0493217, 30.1866894 ], [ 76.0528257, 30.1884931 ], [ 76.0567718, 30.1927747 ], [ 76.0574714, 30.1921374 ], [ 76.0603789, 30.1954391 ], [ 76.060509, 30.1978879 ], [ 76.066416, 30.2033128 ], [ 76.0642335, 30.2041968 ], [ 76.0684628, 30.2062198 ], [ 76.0623722, 30.2088681 ], [ 76.0624936, 30.2109876 ], [ 76.0683448, 30.2169362 ], [ 76.0693057, 30.2159583 ], [ 76.0704866, 30.2165849 ], [ 76.0708375, 30.2202094 ], [ 76.0753241, 30.2219233 ], [ 76.0777265, 30.2249851 ], [ 76.0807944, 30.2247432 ], [ 76.0812009, 30.2201063 ], [ 76.0842311, 30.2202392 ], [ 76.0846726, 30.2216477 ], [ 76.0951483, 30.2213621 ], [ 76.0955339, 30.2186518 ], [ 76.1083492, 30.2208766 ], [ 76.11438, 30.2235641 ], [ 76.1127168, 30.2253514 ], [ 76.1140751, 30.226937 ], [ 76.1123047, 30.2298215 ], [ 76.1151303, 30.2292876 ], [ 76.1226897, 30.2374885 ], [ 76.1267965, 30.2353824 ], [ 76.1320886, 30.2401463 ], [ 76.1379477, 30.2332428 ], [ 76.139032, 30.2375505 ], [ 76.1435042, 30.2401058 ], [ 76.1431959, 30.2421974 ], [ 76.1535467, 30.2479583 ], [ 76.1628492, 30.2462428 ], [ 76.1662351, 30.2398964 ], [ 76.1759736, 30.2491304 ], [ 76.1739817, 30.250766 ], [ 76.1830245, 30.2569464 ], [ 76.1794084, 30.2580852 ], [ 76.1779784, 30.2609434 ], [ 76.1790381, 30.2625506 ], [ 76.176911, 30.2631563 ], [ 76.1769269, 30.2657768 ], [ 76.182713, 30.2748465 ], [ 76.1871569, 30.2747422 ], [ 76.1911377, 30.272109 ], [ 76.1940714, 30.2722607 ], [ 76.1987221, 30.2752935 ], [ 76.20345, 30.2829951 ], [ 76.1978668, 30.295744 ], [ 76.1932183, 30.2967203 ], [ 76.1873639, 30.3000153 ], [ 76.1796241, 30.3084573 ], [ 76.1781356, 30.3122891 ], [ 76.1755448, 30.312916 ], [ 76.1678286, 30.3254137 ], [ 76.166893, 30.3316114 ], [ 76.15546, 30.3241003 ], [ 76.1518293, 30.3250545 ], [ 76.1496014, 30.3207986 ], [ 76.1382815, 30.3124986 ], [ 76.1336259, 30.3114936 ], [ 76.123033, 30.3179742 ], [ 76.1114095, 30.3214946 ], [ 76.1068659, 30.3183113 ], [ 76.1042277, 30.3185458 ], [ 76.0979387, 30.3159306 ], [ 76.0970859, 30.3166301 ], [ 76.0927314, 30.3144985 ], [ 76.0880439, 30.3099116 ], [ 76.0811688, 30.3115942 ], [ 76.0777781, 30.3145209 ], [ 76.076759, 30.3138726 ], [ 76.0680289, 30.3168421 ], [ 76.0591485, 30.3267127 ], [ 76.0596932, 30.329353 ], [ 76.057408, 30.3320973 ], [ 76.0478331, 30.3389389 ], [ 76.0425496, 30.3346995 ], [ 76.0332208, 30.3376468 ], [ 76.0287493, 30.332597 ], [ 76.0224542, 30.3319528 ], [ 76.020423, 30.3288469 ], [ 76.0171488, 30.3283029 ], [ 76.0093523, 30.3310496 ], [ 76.008588, 30.3341649 ], [ 76.006954, 30.3352955 ], [ 76.0032412, 30.3338745 ], [ 75.9938879, 30.3385594 ], [ 75.9885077, 30.3373459 ], [ 75.9865943, 30.3405321 ], [ 75.9873686, 30.3446004 ], [ 75.9846013, 30.3487675 ], [ 75.9863311, 30.3557793 ], [ 75.9855669, 30.3620608 ], [ 75.9892864, 30.3687327 ], [ 75.9923052, 30.3719666 ], [ 75.9967708, 30.3648589 ], [ 76.0105345, 30.3640155 ], [ 76.0100963, 30.3651021 ], [ 76.0070325, 30.3653519 ], [ 76.0072939, 30.3686401 ], [ 76.0090532, 30.3720109 ], [ 76.0135687, 30.3761056 ], [ 76.014145, 30.3817619 ], [ 76.0235384, 30.3782695 ], [ 76.0249281, 30.3878775 ], [ 76.0234465, 30.390392 ], [ 76.0300663, 30.3951021 ], [ 76.0359965, 30.4020791 ], [ 76.0315778, 30.4088324 ], [ 76.0409858, 30.4149546 ], [ 76.0446072, 30.4155431 ], [ 76.0466327, 30.4205642 ], [ 76.0528052, 30.4272429 ], [ 76.0495364, 30.435619 ], [ 76.0568667, 30.4395534 ], [ 76.071158, 30.4530816 ], [ 76.0743669, 30.4491229 ], [ 76.08794, 30.4579854 ], [ 76.080207, 30.4620828 ], [ 76.0802045, 30.4677386 ], [ 76.0791416, 30.4693934 ], [ 76.0805875, 30.4725556 ], [ 76.0659617, 30.4804878 ], [ 76.0642366, 30.4830307 ], [ 76.0633738, 30.4886861 ], [ 76.06752, 30.4964094 ], [ 76.0810276, 30.5020844 ], [ 76.0785558, 30.5082806 ], [ 76.0812048, 30.5134862 ], [ 76.0835327, 30.5147362 ], [ 76.0807642, 30.5202693 ], [ 76.0890319, 30.5338563 ], [ 76.0859045, 30.5371343 ], [ 76.0918643, 30.539824 ], [ 76.0955704, 30.5349765 ], [ 76.1082688, 30.5292914 ], [ 76.1112533, 30.5353849 ], [ 76.1199487, 30.54538 ], [ 76.1236484, 30.5431385 ], [ 76.1321927, 30.5271769 ], [ 76.1362664, 30.5235323 ], [ 76.1454269, 30.5326056 ], [ 76.1436871, 30.5346941 ], [ 76.1542721, 30.5443979 ], [ 76.1555488, 30.5444427 ], [ 76.165685, 30.535122 ], [ 76.1686689, 30.5431129 ], [ 76.1731052, 30.5470892 ], [ 76.1809198, 30.5441094 ], [ 76.1831276, 30.5413798 ], [ 76.1899273, 30.5489446 ], [ 76.2013828, 30.5511528 ], [ 76.2033152, 30.5563789 ], [ 76.2053145, 30.554127 ], [ 76.2073786, 30.5546264 ], [ 76.2072491, 30.5556007 ], [ 76.212114, 30.5585336 ], [ 76.2153818, 30.5643403 ], [ 76.2199008, 30.5646168 ], [ 76.2293765, 30.5700802 ], [ 76.231714, 30.5675301 ], [ 76.2353475, 30.5680863 ], [ 76.2379204, 30.5666002 ], [ 76.2398685, 30.5568026 ], [ 76.2363966, 30.5557548 ], [ 76.2372656, 30.5502066 ], [ 76.2444667, 30.5497085 ], [ 76.2471109, 30.5514605 ], [ 76.2456291, 30.5541634 ], [ 76.2494121, 30.5590181 ], [ 76.2564495, 30.5618661 ], [ 76.2550625, 30.5666185 ], [ 76.2562867, 30.5672104 ], [ 76.2621616, 30.561835 ], [ 76.2672289, 30.5604232 ], [ 76.2685126, 30.5589268 ], [ 76.2751564, 30.55978 ], [ 76.2757919, 30.5549727 ], [ 76.2748142, 30.552992 ], [ 76.2778851, 30.5514744 ], [ 76.2836339, 30.5449208 ], [ 76.2860918, 30.5467085 ], [ 76.2882822, 30.5445992 ], [ 76.2939333, 30.5477239 ], [ 76.2988271, 30.5468473 ], [ 76.3001152, 30.5455265 ], [ 76.3088694, 30.5454455 ], [ 76.3144018, 30.5478701 ], [ 76.3283499, 30.5402447 ], [ 76.3252936, 30.5358056 ], [ 76.3232131, 30.5287057 ], [ 76.3268265, 30.5227899 ], [ 76.3269588, 30.5186136 ], [ 76.330785, 30.5128915 ], [ 76.33293, 30.5034299 ], [ 76.3281071, 30.4991806 ], [ 76.3326173, 30.4960172 ], [ 76.3297047, 30.4936875 ], [ 76.335064, 30.4947471 ], [ 76.3360577, 30.4923594 ], [ 76.3337426, 30.4880026 ], [ 76.3454034, 30.4798706 ], [ 76.3455066, 30.4779071 ], [ 76.3434532, 30.4751628 ], [ 76.3447348, 30.4751902 ], [ 76.3520799, 30.4605696 ], [ 76.3529338, 30.4620675 ], [ 76.358488, 30.4633948 ], [ 76.3622508, 30.4662067 ], [ 76.3730979, 30.469102 ], [ 76.3730151, 30.4728563 ], [ 76.3790033, 30.4701675 ], [ 76.3824213, 30.4717464 ], [ 76.3845396, 30.4690668 ], [ 76.3841608, 30.4662196 ], [ 76.3886168, 30.4609436 ], [ 76.3960262, 30.4561231 ], [ 76.3971282, 30.4519699 ], [ 76.4010921, 30.4520582 ], [ 76.4073643, 30.4482644 ], [ 76.4138238, 30.4556788 ], [ 76.4175704, 30.4644803 ], [ 76.4331604, 30.4554407 ], [ 76.4423473, 30.4548207 ], [ 76.4495816, 30.4489345 ], [ 76.4597555, 30.4597293 ], [ 76.4693672, 30.4547853 ], [ 76.4713924, 30.4571805 ], [ 76.4700057, 30.4574307 ], [ 76.4702519, 30.4599498 ], [ 76.4648701, 30.4667501 ], [ 76.4700043, 30.4725886 ], [ 76.4702166, 30.4749197 ], [ 76.4749895, 30.4804409 ], [ 76.4847508, 30.4797946 ], [ 76.4890409, 30.4820674 ], [ 76.4975098, 30.491719 ], [ 76.4980333, 30.4932468 ], [ 76.4911013, 30.5009667 ], [ 76.4965835, 30.5078749 ], [ 76.4925274, 30.5130121 ], [ 76.4909826, 30.5193142 ], [ 76.5025753, 30.5273339 ], [ 76.5005528, 30.5322796 ], [ 76.5025296, 30.534771 ], [ 76.5001243, 30.5373711 ], [ 76.5005629, 30.5408037 ], [ 76.499186, 30.5453688 ], [ 76.5006184, 30.550451 ], [ 76.5066319, 30.5548449 ], [ 76.5021581, 30.5609475 ], [ 76.5043951, 30.5641968 ], [ 76.5096402, 30.5669753 ], [ 76.5183874, 30.5688551 ], [ 76.5220848, 30.5635083 ], [ 76.5291527, 30.5628281 ], [ 76.5370737, 30.5579357 ], [ 76.5504177, 30.5614754 ], [ 76.5553767, 30.5649509 ], [ 76.5607546, 30.5660857 ], [ 76.5630572, 30.5679044 ], [ 76.5650651, 30.5656999 ], [ 76.5689412, 30.5684302 ], [ 76.570913, 30.5655355 ], [ 76.5727372, 30.565419 ], [ 76.5787082, 30.5693856 ], [ 76.5794989, 30.572579 ], [ 76.583236, 30.5729546 ], [ 76.5878885, 30.5786117 ], [ 76.5858967, 30.5797792 ], [ 76.5903831, 30.5850348 ], [ 76.5956662, 30.594408 ], [ 76.5983857, 30.5964596 ], [ 76.6039967, 30.5918853 ], [ 76.6073975, 30.5991773 ], [ 76.6113256, 30.6027556 ], [ 76.6135808, 30.6088313 ], [ 76.6228832, 30.6135439 ], [ 76.6304098, 30.6141923 ], [ 76.6354009, 30.622026 ], [ 76.6413554, 30.6274717 ], [ 76.6496129, 30.626967 ] ] ] ] } }
]
}
