{
"type": "FeatureCollection",
"name": "0323",
"crs": { "type": "name", "properties": { "name": "urn:ogc:def:crs:OGC:1.3:CRS84" } },
"features": [
{ "type": "Feature", "properties": { "code": "0323", "name": "Malerkotla", "type": "district" }, "geometry": { "type": "Polygon", "coordinates": [ [ [ 75.8340828, 30.6917477 ], [ 75.8378604, 30.6799191 ], [ 75.8438453, 30.6803941 ], [ 75.8463461, 30.6754969 ], [ 75.8524105, 30.6701355 ], [ 75.8557028, 30.6692295 ], [ 75.8593131, 30.6705199 ], [ 75.8668153, 30.678156 ], [ 75.8676085, 30.6771729 ], [ 75.8792913, 30.6762484 ], [ 75.8808671, 30.6756305 ], [ 75.881456, 30.6666284 ], [ 75.8832557, 30.6643372 ], [ 75.8852902, 30.6627179 ], [ 75.8882068, 30.6633941 ], [ 75.8954265, 30.6595731 ], [ 75.8950237, 30.6548602 ], [ 75.8977562, 30.6504624 ], [ 75.8980528, 30.6474812 ], [ 75.8890022, 30.6448532 ], [ 75.8866497, 30.6452052 ], [ 75.8801867, 30.6419945 ], [ 75.880051, 30.6406009 ], [ 75.8724567, 30.639239 ], [ 75.8723525, 30.6288748 ], [ 75.888185, 30.6204087 ], [ 75.8866817, 30.6094358 ], [ 75.8878546, 30.6070048 ], [ 75.9027816, 30.60371 ], [ 75.9035647, 30.6068398 ], [ 75.9099903, 30.6118895 ], [ 75.9113036, 30.6102023 ], [ 75.9152042, 30.6108462 ], [ 75.9171638, 30.6085815 ], [ 75.9196776, 30.6097938 ], [ 75.9234731, 30.6086964 ], [ 75.9229872, 30.6066942 ], [ 75.9292752, 30.5972475 ], [ 75.9209048, 30.5919334 ], [ 75.9268439, 30.5842594 ], [ 75.9253966, 30.5778918 ], [ 75.9353726, 30.5681862 ], [ 75.9477372, 30.5704349 ], [ 75.9486092, 30.5725 ], [ 75.9530673, 30.574527 ], [ 75.9553792, 30.5778089 ], [ 75.9565307, 30.5834594 ], [ 75.9609887, 30.590393 ], [ 75.9717435, 30.592427 ], [ 75.979084, 30.595422 ], [ 75.9828048, 30.5986482 ], [ 75.9868867, 30.59832 ], [ 76.0004587, 30.6032985 ], [ 76.0045112, 30.6065 ], [ 76.0100795, 30.6157416 ], [ 76.0278668, 30.6153096 ], [ 76.0295265, 30.6139442 ], [ 76.029582, 30.610494 ], [ 76.0325709, 30.609274 ], [ 76.0337468, 30.6064064 ], [ 76.0331807, 30.6038939 ], [ 76.0341303, 30.6032496 ], [ 76.0321826, 30.6007812 ], [ 76.0353739, 30.5889309 ], [ 76.043299, 30.5875424 ], [ 76.0495785, 30.5838299 ], [ 76.0535875, 30.5832368 ], [ 76.054048, 30.5809234 ], [ 76.0578652, 30.578544 ], [ 76.0661764, 30.5834414 ], [ 76.0688155, 30.5811876 ], [ 76.0692505, 30.5769482 ], [ 76.06663, 30.5746604 ], [ 76.0654241, 30.5689321 ], [ 76.07005, 30.5639234 ], [ 76.0758458, 30.5636145 ], [ 76.0786018, 30.5657307 ], [ 76.0826206, 30.5646135 ], [ 76.0844876, 30.5619487 ], [ 76.0813937, 30.5578029 ], [ 76.081172, 30.5522373 ], [ 76.075797, 30.5465346 ], [ 76.0865035, 30.5375991 ], [ 76.0890319, 30.5338563 ], [ 76.0807642, 30.5202693 ], [ 76.0835327, 30.5147362 ], [ 76.0812048, 30.5134862 ], [ 76.0785558, 30.5082806 ], [ 76.0810276, 30.5020844 ], [ 76.06752, 30.4964094 ], [ 76.0633738, 30.4886861 ], [ 76.0642366, 30.4830307 ], [ 76.0659617, 30.4804878 ], [ 76.0805875, 30.4725556 ], [ 76.0791416, 30.4693934 ], [ 76.0802045, 30.4677386 ], [ 76.080207, 30.4620828 ], [ 76.08794, 30.4579854 ], [ 76.0743669, 30.4491229 ], [ 76.071158, 30.4530816 ], [ 76.0568667, 30.4395534 ], [ 76.0495364, 30.435619 ], [ 76.0528052, 30.4272429 ], [ 76.0466327, 30.4205642 ], [ 76.0446072, 30.4155431 ], [ 76.0409858, 30.4149546 ], [ 76.0315778, 30.4088324 ], [ 76.0359965, 30.4020791 ], [ 76.0300663, 30.3951021 ], [ 76.0234465, 30.390392 ], [ 76.0249281, 30.3878775 ], [ 76.0235384, 30.3782695 ], [ 76.014145, 30.3817619 ], [ 76.0107236, 30.3804014 ], [ 76.0033718, 30.3814727 ], [ 75.9961391, 30.3897864 ], [ 75.9913243, 30.3917585 ], [ 75.992394, 30.3935867 ], [ 75.9904975, 30.3952552 ], [ 75.9955759, 30.3989088 ], [ 75.9908289, 30.4040386 ], [ 75.9882942, 30.4143806 ], [ 76.0015703, 30.4242641 ], [ 76.0018313, 30.4278139 ], [ 76.0049177, 30.4320113 ], [ 76.0010403, 30.4318588 ], [ 75.9919747, 30.4354989 ], [ 75.9897003, 30.439712 ], [ 75.9848706, 30.4442919 ], [ 75.9854117, 30.4455916 ], [ 75.9765428, 30.4507159 ], [ 75.9741737, 30.4502147 ], [ 75.9699886, 30.4556464 ], [ 75.9706763, 30.4572474 ], [ 75.9653851, 30.461469 ], [ 75.9605106, 30.4597288 ], [ 75.9581874, 30.456672 ], [ 75.9550696, 30.4584409 ], [ 75.9533467, 30.4580024 ], [ 75.9426941, 30.4480052 ], [ 75.93727, 30.4449492 ], [ 75.9278312, 30.4462438 ], [ 75.9270139, 30.4506756 ], [ 75.9202602, 30.4634645 ], [ 75.9263116, 30.4672611 ], [ 75.9403605, 30.4728724 ], [ 75.9439831, 30.473144 ], [ 75.9361547, 30.4780685 ], [ 75.9278325, 30.4859422 ], [ 75.921828, 30.4778548 ], [ 75.9209115, 30.4729074 ], [ 75.9158304, 30.4726274 ], [ 75.9128225, 30.4667742 ], [ 75.9132311, 30.4642358 ], [ 75.9062047, 30.4591234 ], [ 75.9054665, 30.45352 ], [ 75.9013439, 30.4527053 ], [ 75.8884619, 30.4569129 ], [ 75.8836241, 30.4569502 ], [ 75.8819318, 30.4558247 ], [ 75.8821481, 30.4543975 ], [ 75.8739655, 30.4420002 ], [ 75.8693348, 30.4400595 ], [ 75.8611292, 30.4389454 ], [ 75.8536877, 30.4436414 ], [ 75.8496749, 30.448695 ], [ 75.8288278, 30.4361632 ], [ 75.8279153, 30.4335476 ], [ 75.8187769, 30.4322157 ], [ 75.8119202, 30.4372936 ], [ 75.8110793, 30.4357288 ], [ 75.8045212, 30.4442696 ], [ 75.803555, 30.4489948 ], [ 75.8062065, 30.4554348 ], [ 75.8028879, 30.4590963 ], [ 75.8029218, 30.4625972 ], [ 75.8008327, 30.4635569 ], [ 75.8025526, 30.472196 ], [ 75.7991468, 30.4843987 ], [ 75.8045966, 30.4870226 ], [ 75.8003489, 30.49443 ], [ 75.7960665, 30.4950923 ], [ 75.7909923, 30.4989898 ], [ 75.7818132, 30.5000012 ], [ 75.78264, 30.5004801 ], [ 75.7799754, 30.5037706 ], [ 75.7770695, 30.5032408 ], [ 75.7696302, 30.50945 ], [ 75.7678543, 30.5091645 ], [ 75.757853, 30.513675 ], [ 75.7535264, 30.5118987 ], [ 75.7484344, 30.5133832 ], [ 75.7448754, 30.5125257 ], [ 75.7420932, 30.5162846 ], [ 75.7361142, 30.5128261 ], [ 75.7303591, 30.5136067 ], [ 75.7265269, 30.5200117 ], [ 75.7268219, 30.5234957 ], [ 75.7298436, 30.5283192 ], [ 75.7288814, 30.5297993 ], [ 75.7311606, 30.5321517 ], [ 75.7298751, 30.5333795 ], [ 75.7318786, 30.5350173 ], [ 75.7210364, 30.5417481 ], [ 75.7135716, 30.5406957 ], [ 75.709806, 30.5451661 ], [ 75.7014127, 30.5410803 ], [ 75.7015729, 30.5392896 ], [ 75.6990651, 30.5374013 ], [ 75.6930267, 30.5379143 ], [ 75.690926, 30.5366075 ], [ 75.6856117, 30.5288211 ], [ 75.6862308, 30.5274993 ], [ 75.6810592, 30.5214941 ], [ 75.6770425, 30.5211395 ], [ 75.6652651, 30.5244542 ], [ 75.6641371, 30.5285478 ], [ 75.6584475, 30.5297645 ], [ 75.652241, 30.5430394 ], [ 75.6590176, 30.5506825 ], [ 75.6652665, 30.5526832 ], [ 75.6653821, 30.5548344 ], [ 75.6590114, 30.5626478 ], [ 75.6713933, 30.5710192 ], [ 75.6759794, 30.5796859 ], [ 75.6762265, 30.58356 ], [ 75.6849985, 30.5900462 ], [ 75.6770212, 30.5975861 ], [ 75.6828864, 30.6060535 ], [ 75.6981009, 30.6057978 ], [ 75.7030677, 30.6031925 ], [ 75.7048776, 30.6038679 ], [ 75.711457, 30.6091495 ], [ 75.7205532, 30.6117319 ], [ 75.7280567, 30.6165654 ], [ 75.7276849, 30.6178836 ], [ 75.7335465, 30.620196 ], [ 75.738295, 30.6316881 ], [ 75.7538464, 30.6323369 ], [ 75.7607145, 30.6374349 ], [ 75.7699578, 30.6316563 ], [ 75.7802668, 30.628223 ], [ 75.7821478, 30.6245305 ], [ 75.7890378, 30.6234664 ], [ 75.7973037, 30.6299299 ], [ 75.7968274, 30.6320133 ], [ 75.7799876, 30.641816 ], [ 75.7743469, 30.6491001 ], [ 75.7729327, 30.6595804 ], [ 75.7647224, 30.658559 ], [ 75.7630526, 30.663469 ], [ 75.7648396, 30.6703077 ], [ 75.7712852, 30.6733122 ], [ 75.7815349, 30.671128 ], [ 75.7809084, 30.6607004 ], [ 75.7822356, 30.65855 ], [ 75.7857533, 30.6567665 ], [ 75.7910663, 30.6601976 ], [ 75.8037406, 30.6643273 ], [ 75.8079353, 30.6639957 ], [ 75.8122959, 30.665608 ], [ 75.8151872, 30.6641121 ], [ 75.8178926, 30.668073 ], [ 75.8166943, 30.6740484 ], [ 75.8222752, 30.6779699 ], [ 75.8213447, 30.6808018 ], [ 75.8162326, 30.6869468 ], [ 75.8218352, 30.690652 ], [ 75.8340828, 30.6917477 ] ] ] } }
]
}
