{
"type": "FeatureCollection",
"name": "0401",
"crs": { "type": "name", "properties": { "name": "urn:ogc:def:crs:OGC:1.3:CRS84" } },
"features": [
{ "type": "Feature", "properties": { "code": "0401", "name": "Chandigarh", "type": "district" }, "geometry": { "type": "Polygon", "coordinates": [ [ [ 76.771508, 30.7952086 ], [ 76.7755563, 30.7905124 ], [ 76.7827823, 30.7891736 ], [ 76.7872999, 30.7789481 ], [ 76.7795862, 30.7776935 ], [ 76.7834769, 30.7705676 ], [ 76.7904723, 30.7707106 ], [ 76.7916858, 30.7687089 ], [ 76.7983377, 30.7711078 ], [ 76.8021262, 30.7755703 ], [ 76.8074422, 30.7773906 ], [ 76.8091698, 30.7793579 ], [ 76.8135152, 30.7801673 ], [ 76.8154439, 30.7780124 ], [ 76.8186459, 30.7779056 ], [ 76.8181198, 30.7754384 ], [ 76.8195676, 30.773653 ], [ 76.8181222, 30.7712938 ], [ 76.8053722, 30.7649736 ], [ 76.8156055, 30.752707 ], [ 76.8176778, 30.7540924 ], [ 76.8201127, 30.7608495 ], [ 76.8242071, 30.7609639 ], [ 76.8263523, 30.7633008 ], [ 76.8357976, 30.7558084 ], [ 76.8390213, 30.7511956 ], [ 76.8338425, 30.7498257 ], [ 76.8334305, 30.7465522 ], [ 76.8349444, 30.7418352 ], [ 76.8368609, 30.7426606 ], [ 76.8315008, 30.7395112 ], [ 76.8371614, 30.7334546 ], [ 76.8418365, 30.7327207 ], [ 76.8431949, 30.7311136 ], [ 76.8474196, 30.7314144 ], [ 76.8482237, 30.7302963 ], [ 76.8463959, 30.7296788 ], [ 76.8494021, 30.7233933 ], [ 76.8460655, 30.722286 ], [ 76.843574, 30.7192136 ], [ 76.8450288, 30.7171947 ], [ 76.8494453, 30.718273 ], [ 76.8469158, 30.7167709 ], [ 76.8483235, 30.7153029 ], [ 76.8472323, 30.7122828 ], [ 76.8439241, 30.7079815 ], [ 76.8355509, 30.7035805 ], [ 76.8352776, 30.7015545 ], [ 76.8285964, 30.6946527 ], [ 76.8302178, 30.693448 ], [ 76.8273818, 30.6919679 ], [ 76.8275549, 30.6897958 ], [ 76.8251561, 30.6882462 ], [ 76.8262122, 30.6866797 ], [ 76.8276244, 30.6876702 ], [ 76.8318882, 30.6832302 ], [ 76.8291362, 30.6809325 ], [ 76.827447, 30.6821336 ], [ 76.8210485, 30.6776811 ], [ 76.8208395, 30.6748512 ], [ 76.8169052, 30.6729578 ], [ 76.8164999, 30.6713802 ], [ 76.8128804, 30.6706549 ], [ 76.8074635, 30.6669955 ], [ 76.8025908, 30.6664903 ], [ 76.8004681, 30.670205 ], [ 76.7967237, 30.6675143 ], [ 76.7899482, 30.6755965 ], [ 76.7814488, 30.6742744 ], [ 76.7768733, 30.6703495 ], [ 76.7743953, 30.672102 ], [ 76.7701787, 30.6798234 ], [ 76.7643115, 30.6863627 ], [ 76.7568696, 30.6861162 ], [ 76.7527589, 30.6844937 ], [ 76.7502598, 30.6883075 ], [ 76.7477667, 30.687544 ], [ 76.7471714, 30.6955003 ], [ 76.7393191, 30.6928556 ], [ 76.7394556, 30.6979472 ], [ 76.7378973, 30.6998068 ], [ 76.7393593, 30.7003286 ], [ 76.7391047, 30.7057499 ], [ 76.7300294, 30.7068265 ], [ 76.7290899, 30.7117747 ], [ 76.7313667, 30.7125802 ], [ 76.7285532, 30.7157829 ], [ 76.7312101, 30.717406 ], [ 76.7310969, 30.7235577 ], [ 76.7295707, 30.7234846 ], [ 76.7257557, 30.727833 ], [ 76.721268, 30.7299652 ], [ 76.7141885, 30.740925 ], [ 76.7074668, 30.7394561 ], [ 76.7051834, 30.7429199 ], [ 76.7066416, 30.7446463 ], [ 76.7059025, 30.7473979 ], [ 76.7079372, 30.7497275 ], [ 76.70533, 30.7560218 ], [ 76.7107592, 30.7609764 ], [ 76.7139182, 30.7630891 ], [ 76.7206965, 30.763156 ], [ 76.7256777, 30.7664243 ], [ 76.7301911, 30.7646489 ], [ 76.7429896, 30.7694225 ], [ 76.7454987, 30.7722684 ], [ 76.7433082, 30.7759172 ], [ 76.7518683, 30.7800561 ], [ 76.7517115, 30.7842366 ], [ 76.7674446, 30.7942266 ], [ 76.771508, 30.7952086 ] ] ] } }
]
}
