{
"type": "FeatureCollection",
"name": "0507",
"crs": { "type": "name", "properties": { "name": "urn:ogc:def:crs:OGC:1.3:CRS84" } },
"features": [
{ "type": "Feature", "properties": { "code": "0507", "name": "Pithoragarh", "type": "district" }, "geometry": { "type": "Polygon", "coordinates": [ [ [ 80.187561, 30.7898547 ], [ 80.1983602, 30.778838 ], [ 80.2032194, 30.7765154 ], [ 80.2002785, 30.772682 ], [ 80.1993496, 30.768629 ], [ 80.2000977, 30.7647186 ], [ 80.2149091, 30.7490616 ], [ 80.2197734, 30.7503583 ], [ 80.2301847, 30.7591766 ], [ 80.2396635, 30.7620589 ], [ 80.2410663, 30.7507626 ], [ 80.2429023, 30.746633 ], [ 80.2504376, 30.74235 ], [ 80.2502499, 30.732576 ], [ 80.2476215, 30.7178096 ], [ 80.2405712, 30.7123897 ], [ 80.2368744, 30.7074715 ], [ 80.2364221, 30.6903838 ], [ 80.2345748, 30.6882866 ], [ 80.2157168, 30.6846197 ], [ 80.2040715, 30.684852 ], [ 80.1997119, 30.6830471 ], [ 80.1976124, 30.6800084 ], [ 80.1971583, 30.6620922 ], [ 80.2211685, 30.6418156 ], [ 80.2223331, 30.637469 ], [ 80.2218231, 30.6333418 ], [ 80.218716, 30.6286388 ], [ 80.2119261, 30.6248095 ], [ 80.2116708, 30.6224199 ], [ 80.2170887, 30.608363 ], [ 80.2288017, 30.6034945 ], [ 80.229634, 30.6008861 ], [ 80.2273595, 30.5934295 ], [ 80.2268302, 30.578945 ], [ 80.2489085, 30.5687002 ], [ 80.2532542, 30.5654342 ], [ 80.2577601, 30.5588359 ], [ 80.2617071, 30.5650587 ], [ 80.2662304, 30.5666448 ], [ 80.2735925, 30.5650391 ], [ 80.2770259, 30.56583 ], [ 80.2830672, 30.5721934 ], [ 80.3124215, 30.5620719 ], [ 80.3188592, 30.5593795 ], [ 80.3369797, 30.5443495 ], [ 80.3606124, 30.5273491 ], [ 80.3738984, 30.5214517 ], [ 80.3783343, 30.521876 ], [ 80.3814244, 30.5200579 ], [ 80.3828345, 30.516143 ], [ 80.385592, 30.5150499 ], [ 80.3983147, 30.5167577 ], [ 80.4068613, 30.5205033 ], [ 80.412734, 30.5251969 ], [ 80.4155793, 30.5253345 ], [ 80.419477, 30.5151833 ], [ 80.4291674, 30.5109566 ], [ 80.4313293, 30.507184 ], [ 80.4476917, 30.4976501 ], [ 80.4559606, 30.4942224 ], [ 80.4983308, 30.4841734 ], [ 80.509503, 30.475518 ], [ 80.5171042, 30.4731757 ], [ 80.5245863, 30.4626471 ], [ 80.5390784, 30.4491969 ], [ 80.547605, 30.4485888 ], [ 80.5514236, 30.460892 ], [ 80.5555395, 30.4648626 ], [ 80.5600625, 30.4663684 ], [ 80.5698487, 30.4666242 ], [ 80.576594, 30.4781916 ], [ 80.5802036, 30.4809317 ], [ 80.5855625, 30.482144 ], [ 80.5980088, 30.4787663 ], [ 80.6040137, 30.4752667 ], [ 80.6160902, 30.4651515 ], [ 80.6378582, 30.4536933 ], [ 80.6520241, 30.4442911 ], [ 80.6780748, 30.4374467 ], [ 80.7135228, 30.4081687 ], [ 80.7236947, 30.4037038 ], [ 80.7457238, 30.3973729 ], [ 80.7519689, 30.3935039 ], [ 80.7835853, 30.3578486 ], [ 80.7856504, 30.354143 ], [ 80.7846203, 30.3498726 ], [ 80.7873308, 30.3426129 ], [ 80.8006971, 30.3296484 ], [ 80.8215708, 30.3155576 ], [ 80.8627212, 30.2994728 ], [ 80.8962558, 30.2940005 ], [ 80.9330637, 30.2800953 ], [ 80.9574919, 30.2750971 ], [ 80.9883933, 30.2654172 ], [ 81.0055453, 30.2630922 ], [ 81.0124288, 30.2549467 ], [ 81.0214767, 30.2504722 ], [ 81.0298035, 30.2488679 ], [ 81.033208, 30.2463895 ], [ 81.0271002, 30.228455 ], [ 81.0313987, 30.2261002 ], [ 81.0300227, 30.2218418 ], [ 81.0310507, 30.2201542 ], [ 81.0466055, 30.2108736 ], [ 81.0432762, 30.2045587 ], [ 81.0362541, 30.2016295 ], [ 81.0350161, 30.1982249 ], [ 81.0310562, 30.1963796 ], [ 81.0131561, 30.1941028 ], [ 81.0074522, 30.1918283 ], [ 80.999611, 30.1925235 ], [ 80.9600473, 30.1789924 ], [ 80.9500073, 30.178259 ], [ 80.9444234, 30.1786879 ], [ 80.9182811, 30.1898344 ], [ 80.9213101, 30.1983368 ], [ 80.9217037, 30.2051698 ], [ 80.9197187, 30.2141956 ], [ 80.9027327, 30.2153808 ], [ 80.8956098, 30.208387 ], [ 80.8909605, 30.196426 ], [ 80.8819735, 30.1836958 ], [ 80.867764, 30.1738658 ], [ 80.8671686, 30.1703025 ], [ 80.8703961, 30.1591894 ], [ 80.8714536, 30.1475923 ], [ 80.8768308, 30.1343863 ], [ 80.8763345, 30.1287416 ], [ 80.8747717, 30.1264856 ], [ 80.8684464, 30.1261923 ], [ 80.8625384, 30.1210521 ], [ 80.8549602, 30.120469 ], [ 80.8542499, 30.1190786 ], [ 80.8447234, 30.1162266 ], [ 80.8418869, 30.1111706 ], [ 80.8459442, 30.1067831 ], [ 80.8454372, 30.1026668 ], [ 80.8391221, 30.0986483 ], [ 80.8364914, 30.0973545 ], [ 80.8291914, 30.0972928 ], [ 80.8258371, 30.1001081 ], [ 80.8207134, 30.0996927 ], [ 80.8191889, 30.0968271 ], [ 80.8167681, 30.0972286 ], [ 80.8144996, 30.0958155 ], [ 80.81373, 30.0930933 ], [ 80.805614, 30.0899893 ], [ 80.8013923, 30.0853911 ], [ 80.7996229, 30.080932 ], [ 80.7968007, 30.0794916 ], [ 80.7913868, 30.0733177 ], [ 80.7898825, 30.0732946 ], [ 80.7893206, 30.0695803 ], [ 80.779233, 30.05659 ], [ 80.7765089, 30.0544042 ], [ 80.7721323, 30.0540977 ], [ 80.7610318, 30.049517 ], [ 80.7584921, 30.045118 ], [ 80.7591263, 30.0426942 ], [ 80.7558888, 30.0398511 ], [ 80.7556245, 30.0315824 ], [ 80.7580683, 30.028302 ], [ 80.7577221, 30.0241991 ], [ 80.7539103, 30.019839 ], [ 80.7495364, 30.0090145 ], [ 80.7445555, 30.0038529 ], [ 80.7370024, 29.9993636 ], [ 80.718965, 30.0005786 ], [ 80.7122736, 29.9906127 ], [ 80.7053191, 29.9862667 ], [ 80.7000011, 29.979665 ], [ 80.6971863, 29.9797849 ], [ 80.6904125, 29.9746244 ], [ 80.6839799, 29.9669968 ], [ 80.6824345, 29.962395 ], [ 80.6745479, 29.9572147 ], [ 80.6487862, 29.955734 ], [ 80.6405625, 29.9596712 ], [ 80.6370243, 29.9634797 ], [ 80.6295669, 29.9654261 ], [ 80.6191789, 29.9635907 ], [ 80.6086832, 29.9587998 ], [ 80.6039009, 29.9591551 ], [ 80.5952698, 29.9532689 ], [ 80.5813317, 29.9369986 ], [ 80.5786016, 29.9319621 ], [ 80.5778823, 29.927726 ], [ 80.5741099, 29.9240377 ], [ 80.5697065, 29.9087451 ], [ 80.5723855, 29.8948887 ], [ 80.5655461, 29.8792673 ], [ 80.5600173, 29.8749066 ], [ 80.5567767, 29.8703583 ], [ 80.5577012, 29.8684731 ], [ 80.561266, 29.8664455 ], [ 80.5542666, 29.8616407 ], [ 80.5542333, 29.8594634 ], [ 80.5513826, 29.8563617 ], [ 80.5533456, 29.8532614 ], [ 80.5531217, 29.8513358 ], [ 80.5516217, 29.8500184 ], [ 80.5482338, 29.8503644 ], [ 80.5438891, 29.846679 ], [ 80.538727, 29.8474984 ], [ 80.5356626, 29.8388995 ], [ 80.5313766, 29.8386863 ], [ 80.5277901, 29.8336196 ], [ 80.5235985, 29.8324532 ], [ 80.5237578, 29.829477 ], [ 80.52195, 29.8274317 ], [ 80.506677, 29.8230203 ], [ 80.50464, 29.8194799 ], [ 80.5010873, 29.817388 ], [ 80.4975446, 29.811113 ], [ 80.4998903, 29.8082112 ], [ 80.495743, 29.8050257 ], [ 80.4944916, 29.8018954 ], [ 80.4926088, 29.8017307 ], [ 80.4943116, 29.7987495 ], [ 80.4938565, 29.7958049 ], [ 80.4830885, 29.7964397 ], [ 80.4799881, 29.7953929 ], [ 80.4771206, 29.7976497 ], [ 80.4643246, 29.8023787 ], [ 80.4532183, 29.8021703 ], [ 80.4483088, 29.799045 ], [ 80.4434733, 29.7992581 ], [ 80.4394723, 29.8018389 ], [ 80.4360543, 29.8061414 ], [ 80.4339216, 29.805187 ], [ 80.4290997, 29.7981046 ], [ 80.4158843, 29.7956353 ], [ 80.4134672, 29.7918569 ], [ 80.4109993, 29.7919287 ], [ 80.4090595, 29.7944288 ], [ 80.4071102, 29.7948961 ], [ 80.4075636, 29.7916616 ], [ 80.4061423, 29.7886477 ], [ 80.4072447, 29.7840872 ], [ 80.4036808, 29.7819243 ], [ 80.4047491, 29.7780007 ], [ 80.4006712, 29.7745819 ], [ 80.3962691, 29.7652837 ], [ 80.3976392, 29.7591724 ], [ 80.3942532, 29.758269 ], [ 80.3903837, 29.7604916 ], [ 80.3857681, 29.7590573 ], [ 80.3848393, 29.7567564 ], [ 80.3863406, 29.7513523 ], [ 80.3852736, 29.7504571 ], [ 80.3717885, 29.7494018 ], [ 80.3686673, 29.7509733 ], [ 80.3653007, 29.7472497 ], [ 80.3643151, 29.7401451 ], [ 80.3695822, 29.7344425 ], [ 80.3657651, 29.7290664 ], [ 80.3667058, 29.7235452 ], [ 80.3683784, 29.7218932 ], [ 80.3742149, 29.7213956 ], [ 80.3758717, 29.7200451 ], [ 80.3720747, 29.7154878 ], [ 80.3744978, 29.7130787 ], [ 80.3766972, 29.7034968 ], [ 80.379427, 29.7008901 ], [ 80.3802294, 29.6895885 ], [ 80.384863, 29.6854685 ], [ 80.3835104, 29.6793818 ], [ 80.3840177, 29.6754187 ], [ 80.3898678, 29.6712078 ], [ 80.3900927, 29.6648543 ], [ 80.3987974, 29.6621063 ], [ 80.3979972, 29.6597913 ], [ 80.3994288, 29.6585494 ], [ 80.406015, 29.6598598 ], [ 80.4101178, 29.6537967 ], [ 80.4139448, 29.6543069 ], [ 80.4163487, 29.6516292 ], [ 80.4139746, 29.6446455 ], [ 80.4158453, 29.6414563 ], [ 80.4198637, 29.6393337 ], [ 80.4193319, 29.6337131 ], [ 80.4208748, 29.6298512 ], [ 80.418245, 29.6267022 ], [ 80.411437, 29.6259169 ], [ 80.4081799, 29.620663 ], [ 80.4080926, 29.6152062 ], [ 80.4058478, 29.6124041 ], [ 80.4080367, 29.609816 ], [ 80.4089349, 29.6042289 ], [ 80.4076444, 29.5953667 ], [ 80.4027732, 29.5892898 ], [ 80.3912256, 29.5813137 ], [ 80.3898231, 29.5738536 ], [ 80.3880527, 29.571465 ], [ 80.3791063, 29.5715761 ], [ 80.3784856, 29.5610533 ], [ 80.3630681, 29.5639343 ], [ 80.3621151, 29.5621444 ], [ 80.3639965, 29.5580463 ], [ 80.363584, 29.556362 ], [ 80.3571104, 29.5550773 ], [ 80.3486723, 29.5553497 ], [ 80.3424704, 29.5527735 ], [ 80.3456271, 29.5486053 ], [ 80.3413379, 29.542423 ], [ 80.3415226, 29.540544 ], [ 80.3485661, 29.5404392 ], [ 80.3519511, 29.5364949 ], [ 80.3578816, 29.5327674 ], [ 80.3556137, 29.5279493 ], [ 80.3486272, 29.5243582 ], [ 80.3496695, 29.5192085 ], [ 80.341708, 29.5102843 ], [ 80.3385808, 29.5105825 ], [ 80.3345798, 29.5131263 ], [ 80.3321261, 29.5129374 ], [ 80.329202, 29.5057507 ], [ 80.3142225, 29.4994315 ], [ 80.3131318, 29.4961141 ], [ 80.3146236, 29.4903863 ], [ 80.3130617, 29.4848149 ], [ 80.3047017, 29.486229 ], [ 80.3011606, 29.4902889 ], [ 80.2987323, 29.4906084 ], [ 80.2962154, 29.4877505 ], [ 80.2966608, 29.4852627 ], [ 80.293519, 29.4795812 ], [ 80.2869353, 29.4769767 ], [ 80.2871553, 29.4735671 ], [ 80.3023642, 29.4550856 ], [ 80.3017843, 29.4527761 ], [ 80.2975046, 29.4517306 ], [ 80.2944393, 29.4539492 ], [ 80.2881338, 29.4512375 ], [ 80.2808311, 29.4515988 ], [ 80.2789119, 29.4538685 ], [ 80.2799962, 29.4562988 ], [ 80.279283, 29.457839 ], [ 80.2756727, 29.458517 ], [ 80.2690688, 29.4555391 ], [ 80.2692064, 29.4541604 ], [ 80.2745153, 29.4523111 ], [ 80.2743671, 29.4501233 ], [ 80.2660978, 29.4492674 ], [ 80.2573105, 29.451738 ], [ 80.2548138, 29.4479914 ], [ 80.2455929, 29.4470779 ], [ 80.2424254, 29.4437867 ], [ 80.2229541, 29.4497919 ], [ 80.2194273, 29.4522812 ], [ 80.2110566, 29.45322 ], [ 80.2050324, 29.4518327 ], [ 80.1957994, 29.4590995 ], [ 80.1834552, 29.4574843 ], [ 80.1820462, 29.4645229 ], [ 80.1761667, 29.4655814 ], [ 80.1705121, 29.4642363 ], [ 80.1669215, 29.4648585 ], [ 80.1656336, 29.4676241 ], [ 80.1618805, 29.4687012 ], [ 80.1616793, 29.4708056 ], [ 80.163147, 29.4724363 ], [ 80.1609999, 29.474765 ], [ 80.149875, 29.4712172 ], [ 80.1475276, 29.4801926 ], [ 80.1423321, 29.4828824 ], [ 80.1394814, 29.4880288 ], [ 80.1326094, 29.4889807 ], [ 80.1254166, 29.4954732 ], [ 80.1297735, 29.5018532 ], [ 80.1291077, 29.5056493 ], [ 80.1238992, 29.5098184 ], [ 80.1124876, 29.5146031 ], [ 80.1070337, 29.5221978 ], [ 80.1027241, 29.5233979 ], [ 80.092003, 29.5193541 ], [ 80.0872425, 29.5214074 ], [ 80.0747627, 29.5217576 ], [ 80.0715901, 29.525338 ], [ 80.0652129, 29.527837 ], [ 80.0652298, 29.5322438 ], [ 80.0675912, 29.5360637 ], [ 80.0668783, 29.5373631 ], [ 80.0613153, 29.538588 ], [ 80.047846, 29.5458903 ], [ 80.0364306, 29.5479168 ], [ 80.0311991, 29.5509888 ], [ 80.0187596, 29.5498445 ], [ 80.011098, 29.551208 ], [ 80.0045582, 29.558022 ], [ 79.9994161, 29.5595885 ], [ 79.9969696, 29.5801615 ], [ 79.9928902, 29.5884857 ], [ 79.9939983, 29.5937858 ], [ 79.9915471, 29.5973316 ], [ 79.9886009, 29.613796 ], [ 79.9828796, 29.617731 ], [ 79.9824057, 29.6220283 ], [ 79.9770297, 29.6294999 ], [ 79.9703919, 29.6425402 ], [ 79.9686674, 29.6497288 ], [ 79.9589953, 29.6567383 ], [ 79.9595522, 29.659647 ], [ 79.9634902, 29.6638058 ], [ 79.9579513, 29.669341 ], [ 79.9577963, 29.677477 ], [ 79.9508951, 29.683337 ], [ 79.9465501, 29.6853526 ], [ 79.9448407, 29.6847526 ], [ 79.9437521, 29.6818877 ], [ 79.9419285, 29.682177 ], [ 79.94046, 29.6867296 ], [ 79.927257, 29.6951062 ], [ 79.9247937, 29.6988086 ], [ 79.9178617, 29.6959334 ], [ 79.9145625, 29.6979545 ], [ 79.9026906, 29.697682 ], [ 79.8961912, 29.7038775 ], [ 79.8894091, 29.703993 ], [ 79.889466, 29.7065179 ], [ 79.8939939, 29.7122054 ], [ 79.8912317, 29.7181463 ], [ 79.8858549, 29.720481 ], [ 79.8773801, 29.7314189 ], [ 79.8729453, 29.7340066 ], [ 79.8683558, 29.7387866 ], [ 79.8562733, 29.7416257 ], [ 79.8501965, 29.7443368 ], [ 79.8453081, 29.7447172 ], [ 79.840616, 29.7480481 ], [ 79.8326446, 29.7499458 ], [ 79.8266294, 29.7594706 ], [ 79.8270364, 29.7695294 ], [ 79.820948, 29.7732189 ], [ 79.8237246, 29.7771396 ], [ 79.8220587, 29.7815238 ], [ 79.8245479, 29.7817394 ], [ 79.8463257, 29.7764813 ], [ 79.8503491, 29.7714052 ], [ 79.8573184, 29.7679747 ], [ 79.8606849, 29.7690848 ], [ 79.8698634, 29.7674558 ], [ 79.8752747, 29.773355 ], [ 79.8779094, 29.774379 ], [ 79.8811316, 29.7737427 ], [ 79.886938, 29.7760889 ], [ 79.888449, 29.7784746 ], [ 79.8879508, 29.781485 ], [ 79.88976, 29.7863106 ], [ 79.8925887, 29.7893358 ], [ 79.8920968, 29.7936362 ], [ 79.8939169, 29.7947886 ], [ 79.8985912, 29.7918094 ], [ 79.9043623, 29.7985249 ], [ 79.908742, 29.7964994 ], [ 79.9094722, 29.7891722 ], [ 79.9121645, 29.7893476 ], [ 79.9112093, 29.7917716 ], [ 79.912455, 29.7927117 ], [ 79.9168498, 29.7910959 ], [ 79.923977, 29.7915678 ], [ 79.9313983, 29.789953 ], [ 79.9291549, 29.7861197 ], [ 79.9294018, 29.7811803 ], [ 79.9322371, 29.7737721 ], [ 79.9315577, 29.7665326 ], [ 79.9350717, 29.7669173 ], [ 79.9388798, 29.7649174 ], [ 79.9457132, 29.7640255 ], [ 79.964016, 29.7642861 ], [ 79.9751938, 29.759604 ], [ 79.9920116, 29.7653096 ], [ 79.9984192, 29.7642973 ], [ 79.9998019, 29.7744483 ], [ 80.0033519, 29.7779436 ], [ 80.0101969, 29.7763245 ], [ 80.012702, 29.7740107 ], [ 80.0141853, 29.7748198 ], [ 80.0181699, 29.782693 ], [ 80.0222477, 29.7819244 ], [ 80.024722, 29.783378 ], [ 80.0336009, 29.7823156 ], [ 80.0402491, 29.7879746 ], [ 80.0386668, 29.7902245 ], [ 80.038663, 29.7949728 ], [ 80.0338826, 29.7961261 ], [ 80.032449, 29.806496 ], [ 80.0283286, 29.8075576 ], [ 80.0233213, 29.8114401 ], [ 80.0188124, 29.8107366 ], [ 80.0164755, 29.8204204 ], [ 80.020325, 29.8264092 ], [ 80.0196961, 29.8286221 ], [ 80.0021134, 29.8355484 ], [ 79.9984422, 29.8352252 ], [ 79.9946397, 29.8382314 ], [ 79.9935406, 29.845065 ], [ 79.9813313, 29.8409341 ], [ 79.9792308, 29.843233 ], [ 79.9768529, 29.8416221 ], [ 79.9765923, 29.8499598 ], [ 79.9779594, 29.8523017 ], [ 79.9931007, 29.8501316 ], [ 80.0000854, 29.8515099 ], [ 80.0066515, 29.8510343 ], [ 80.0078058, 29.8578003 ], [ 80.0054569, 29.8738009 ], [ 80.012781, 29.8875697 ], [ 80.0240086, 29.8931089 ], [ 80.0266954, 29.8962901 ], [ 80.0322144, 29.8954114 ], [ 80.0376501, 29.8968913 ], [ 80.0449736, 29.8955546 ], [ 80.0534549, 29.9026283 ], [ 80.061472, 29.9030826 ], [ 80.0635175, 29.9015275 ], [ 80.0712925, 29.9007929 ], [ 80.0777498, 29.8905776 ], [ 80.0827523, 29.8870917 ], [ 80.0854487, 29.8869074 ], [ 80.0903495, 29.888331 ], [ 80.0959984, 29.893594 ], [ 80.0958544, 29.8972602 ], [ 80.1005994, 29.899927 ], [ 80.1075306, 29.9064502 ], [ 80.1130489, 29.9049471 ], [ 80.1161555, 29.9055117 ], [ 80.1194057, 29.9026203 ], [ 80.1267057, 29.8993966 ], [ 80.1344078, 29.8994818 ], [ 80.1433929, 29.9020888 ], [ 80.1485923, 29.8977688 ], [ 80.1539254, 29.8998849 ], [ 80.1586321, 29.9043601 ], [ 80.1567319, 29.9118039 ], [ 80.151848, 29.9170197 ], [ 80.1451684, 29.9304282 ], [ 80.1422535, 29.9328991 ], [ 80.1405182, 29.939044 ], [ 80.1385056, 29.9414957 ], [ 80.1310337, 29.9431109 ], [ 80.1292102, 29.9458915 ], [ 80.1196623, 29.9504331 ], [ 80.1150265, 29.954733 ], [ 80.1098207, 29.9560347 ], [ 80.1067583, 29.9594009 ], [ 80.1018246, 29.9600074 ], [ 80.0978583, 29.9625146 ], [ 80.0953844, 29.9672879 ], [ 80.0909761, 29.969009 ], [ 80.0825659, 29.9838039 ], [ 80.0812042, 29.9888138 ], [ 80.0762299, 29.9937523 ], [ 80.075718, 29.998003 ], [ 80.0711922, 30.0007208 ], [ 80.0732277, 30.0098272 ], [ 80.0703353, 30.0117646 ], [ 80.0710799, 30.013817 ], [ 80.0674924, 30.018927 ], [ 80.0695829, 30.0199175 ], [ 80.0697474, 30.0262621 ], [ 80.0716184, 30.0296318 ], [ 80.0704135, 30.0312651 ], [ 80.0718071, 30.0315677 ], [ 80.0717484, 30.0343991 ], [ 80.0749289, 30.0388613 ], [ 80.0753746, 30.0468768 ], [ 80.0816701, 30.0593068 ], [ 80.0847156, 30.0624151 ], [ 80.0855859, 30.0706429 ], [ 80.0835988, 30.0754711 ], [ 80.0815906, 30.0768555 ], [ 80.0821339, 30.0801736 ], [ 80.0797851, 30.0832309 ], [ 80.0844866, 30.0959543 ], [ 80.0822102, 30.1001241 ], [ 80.083251, 30.1070975 ], [ 80.0825059, 30.1110628 ], [ 80.0872331, 30.1197421 ], [ 80.0884086, 30.1249417 ], [ 80.094347, 30.1281785 ], [ 80.0966723, 30.1363916 ], [ 80.099138, 30.1394105 ], [ 80.1006778, 30.1443212 ], [ 80.1042064, 30.1484059 ], [ 80.1049623, 30.152367 ], [ 80.1032427, 30.1545414 ], [ 80.1032198, 30.164064 ], [ 80.105631, 30.1748618 ], [ 80.1078407, 30.1786871 ], [ 80.107319, 30.1833387 ], [ 80.1112242, 30.1917636 ], [ 80.1082362, 30.197002 ], [ 80.1080813, 30.199516 ], [ 80.1132289, 30.2080172 ], [ 80.1170171, 30.2180053 ], [ 80.1161174, 30.2265823 ], [ 80.1104457, 30.2281635 ], [ 80.0971076, 30.2260488 ], [ 80.0930146, 30.2265706 ], [ 80.0775733, 30.237665 ], [ 80.0730901, 30.2431759 ], [ 80.0731453, 30.24993 ], [ 80.0744816, 30.2533221 ], [ 80.0713826, 30.2581876 ], [ 80.0731363, 30.2628249 ], [ 80.0685408, 30.2669364 ], [ 80.0631896, 30.2657253 ], [ 80.0607443, 30.2708434 ], [ 80.0642317, 30.278093 ], [ 80.067904, 30.2811933 ], [ 80.0488637, 30.2869027 ], [ 80.041532, 30.2913996 ], [ 80.0359554, 30.3027439 ], [ 80.0287191, 30.3089314 ], [ 80.0249765, 30.3139215 ], [ 80.0201195, 30.3154106 ], [ 80.0107007, 30.3144917 ], [ 79.9978172, 30.3167014 ], [ 79.9868539, 30.3164636 ], [ 79.9871956, 30.3192318 ], [ 79.9919195, 30.3287115 ], [ 79.9937255, 30.3297561 ], [ 79.9966077, 30.3371148 ], [ 79.9963975, 30.3516576 ], [ 79.9990888, 30.3575602 ], [ 79.9969629, 30.3631144 ], [ 79.9973917, 30.3655829 ], [ 80.008224, 30.3691134 ], [ 80.0176761, 30.382553 ], [ 80.0298661, 30.3920158 ], [ 80.0329661, 30.3927893 ], [ 80.0313912, 30.3968023 ], [ 80.0377922, 30.4069593 ], [ 80.037462, 30.4096471 ], [ 80.0298873, 30.4132996 ], [ 80.0317868, 30.4185914 ], [ 80.0309148, 30.4216758 ], [ 80.0338515, 30.4256785 ], [ 80.0340505, 30.4299994 ], [ 80.032726, 30.4327587 ], [ 80.0371857, 30.4393827 ], [ 80.0375982, 30.4438662 ], [ 80.020009, 30.4488912 ], [ 80.0227319, 30.4535749 ], [ 80.0195806, 30.4600626 ], [ 80.0151915, 30.4648488 ], [ 80.0086053, 30.4692721 ], [ 80.0092608, 30.474076 ], [ 80.0174105, 30.4782639 ], [ 80.0202194, 30.4810625 ], [ 80.0155383, 30.4854516 ], [ 80.0157812, 30.4917661 ], [ 80.0091952, 30.4944484 ], [ 80.0096927, 30.4966048 ], [ 80.0127003, 30.4995771 ], [ 80.0125748, 30.5020967 ], [ 80.0123436, 30.5033445 ], [ 80.0069481, 30.506669 ], [ 80.0074745, 30.5155032 ], [ 80.0063073, 30.5218875 ], [ 80.0039194, 30.5240915 ], [ 80.0033409, 30.5276365 ], [ 79.9963107, 30.5319412 ], [ 79.9949909, 30.537419 ], [ 79.99778, 30.544117 ], [ 79.999874, 30.5446963 ], [ 80.0014798, 30.5487216 ], [ 80.0074637, 30.553744 ], [ 80.0116711, 30.5608008 ], [ 80.0106861, 30.5691155 ], [ 80.0125659, 30.5754714 ], [ 80.0197271, 30.5787508 ], [ 80.0203852, 30.5834846 ], [ 80.0234133, 30.587409 ], [ 80.0274273, 30.5900676 ], [ 80.0338717, 30.5916924 ], [ 80.0427901, 30.5983102 ], [ 80.0415332, 30.6052669 ], [ 80.0396361, 30.6086233 ], [ 80.0307525, 30.613451 ], [ 80.0299102, 30.6151611 ], [ 80.0299569, 30.6164906 ], [ 80.0362831, 30.6208224 ], [ 80.0352991, 30.6248653 ], [ 80.0301636, 30.6286626 ], [ 80.0337802, 30.633334 ], [ 80.0332656, 30.6358965 ], [ 80.029224, 30.6385571 ], [ 80.0212362, 30.6404384 ], [ 80.0196829, 30.6451106 ], [ 80.017509, 30.6477289 ], [ 80.0151616, 30.6482931 ], [ 80.0150977, 30.6527701 ], [ 80.0169748, 30.6570589 ], [ 80.0134563, 30.665658 ], [ 80.0071257, 30.6665914 ], [ 80.0007548, 30.6763668 ], [ 79.9831283, 30.6891016 ], [ 79.9850796, 30.6934747 ], [ 79.9826692, 30.696978 ], [ 79.9833445, 30.7003648 ], [ 79.9799049, 30.7056391 ], [ 79.9794813, 30.7092952 ], [ 79.9807339, 30.710012 ], [ 79.9851942, 30.7086111 ], [ 79.9935733, 30.7167602 ], [ 80.0030114, 30.7199348 ], [ 80.0089987, 30.7242298 ], [ 80.018516, 30.7278351 ], [ 80.0256691, 30.7343361 ], [ 80.0442521, 30.7327031 ], [ 80.055919, 30.7281885 ], [ 80.0804012, 30.7292746 ], [ 80.0859359, 30.7272112 ], [ 80.0875238, 30.7277951 ], [ 80.0914134, 30.7243017 ], [ 80.0943378, 30.723449 ], [ 80.1000441, 30.724864 ], [ 80.1020386, 30.729795 ], [ 80.0958061, 30.7408918 ], [ 80.097316, 30.7443959 ], [ 80.0966532, 30.7470485 ], [ 80.0871142, 30.7571721 ], [ 80.0863115, 30.7638634 ], [ 80.0833149, 30.7701222 ], [ 80.0843881, 30.7754647 ], [ 80.0931254, 30.783922 ], [ 80.1001109, 30.7873842 ], [ 80.1109085, 30.7792951 ], [ 80.1224215, 30.7773563 ], [ 80.1263356, 30.7786082 ], [ 80.1300285, 30.7819837 ], [ 80.137745, 30.7841009 ], [ 80.1435373, 30.7897547 ], [ 80.1537646, 30.7874288 ], [ 80.157372, 30.7887284 ], [ 80.1541995, 30.7997351 ], [ 80.1559672, 30.8048732 ], [ 80.158149, 30.8058846 ], [ 80.1777708, 30.8040546 ], [ 80.1810384, 30.8019516 ], [ 80.1844696, 30.7972423 ], [ 80.187561, 30.7898547 ] ] ] } }
]
}
