{
"type": "FeatureCollection",
"name": "0509",
"crs": { "type": "name", "properties": { "name": "urn:ogc:def:crs:OGC:1.3:CRS84" } },
"features": [
{ "type": "Feature", "properties": { "code": "0509", "name": "Almora", "type": "district" }, "geometry": { "type": "Polygon", "coordinates": [ [ [ 79.4787913, 29.9755824 ], [ 79.4846865, 29.9750093 ], [ 79.4882415, 29.9713392 ], [ 79.4868948, 29.9623013 ], [ 79.4825336, 29.9580515 ], [ 79.4872079, 29.9552105 ], [ 79.4920902, 29.9492354 ], [ 79.4915265, 29.9266263 ], [ 79.494219, 29.8961938 ], [ 79.5053208, 29.8793445 ], [ 79.5077521, 29.8734865 ], [ 79.5117134, 29.8720297 ], [ 79.5196141, 29.8717036 ], [ 79.5226619, 29.8692345 ], [ 79.5282275, 29.8679019 ], [ 79.5416049, 29.86841 ], [ 79.5539674, 29.8643077 ], [ 79.5599004, 29.8594476 ], [ 79.5684052, 29.8632904 ], [ 79.5751319, 29.863945 ], [ 79.5795033, 29.8562122 ], [ 79.5851932, 29.8516353 ], [ 79.5956789, 29.8491038 ], [ 79.5994711, 29.8462153 ], [ 79.6049882, 29.8451197 ], [ 79.6105141, 29.8411959 ], [ 79.6183758, 29.8453302 ], [ 79.6228195, 29.8428239 ], [ 79.6258597, 29.8457089 ], [ 79.6314247, 29.846534 ], [ 79.6353164, 29.8495877 ], [ 79.639481, 29.8483879 ], [ 79.6392501, 29.8411226 ], [ 79.6407182, 29.8407862 ], [ 79.6561572, 29.8409696 ], [ 79.6596478, 29.8389465 ], [ 79.6701578, 29.8432771 ], [ 79.6731667, 29.8411447 ], [ 79.6762561, 29.8344757 ], [ 79.6949384, 29.8272864 ], [ 79.704502, 29.8277845 ], [ 79.7079372, 29.8258622 ], [ 79.7065415, 29.8231913 ], [ 79.6973018, 29.8149199 ], [ 79.6918478, 29.8145698 ], [ 79.6889932, 29.8105071 ], [ 79.6929344, 29.8076798 ], [ 79.6972295, 29.807025 ], [ 79.7037624, 29.7971796 ], [ 79.702477, 29.7883665 ], [ 79.6962585, 29.7825985 ], [ 79.6972889, 29.7769414 ], [ 79.6953431, 29.7728825 ], [ 79.6962319, 29.7655285 ], [ 79.7037787, 29.7616447 ], [ 79.7046859, 29.756956 ], [ 79.708174, 29.7533972 ], [ 79.7085462, 29.7466249 ], [ 79.7145172, 29.7399023 ], [ 79.7205598, 29.7378008 ], [ 79.7217106, 29.730613 ], [ 79.7290503, 29.7277983 ], [ 79.7346058, 29.7187092 ], [ 79.740994, 29.7147281 ], [ 79.7459019, 29.7098371 ], [ 79.7523155, 29.7083364 ], [ 79.7583572, 29.7009081 ], [ 79.7673891, 29.7053115 ], [ 79.7728698, 29.7060538 ], [ 79.780303, 29.7115119 ], [ 79.7939002, 29.7070123 ], [ 79.8045779, 29.7159756 ], [ 79.8064483, 29.7150893 ], [ 79.8069851, 29.7122845 ], [ 79.8146813, 29.7115645 ], [ 79.8168482, 29.7139018 ], [ 79.8193596, 29.7109149 ], [ 79.8207779, 29.7126812 ], [ 79.8225231, 29.7105512 ], [ 79.8236973, 29.7130051 ], [ 79.828486, 29.7097848 ], [ 79.8334955, 29.7102833 ], [ 79.840308, 29.7171575 ], [ 79.8451617, 29.7169485 ], [ 79.8506394, 29.7147394 ], [ 79.8615235, 29.714549 ], [ 79.8647673, 29.7108797 ], [ 79.867589, 29.7141924 ], [ 79.8765176, 29.7152394 ], [ 79.885836, 29.7125402 ], [ 79.8939939, 29.7122054 ], [ 79.889466, 29.7065179 ], [ 79.8894091, 29.703993 ], [ 79.8961912, 29.7038775 ], [ 79.9017601, 29.6980358 ], [ 79.9145625, 29.6979545 ], [ 79.9178617, 29.6959334 ], [ 79.9247937, 29.6988086 ], [ 79.927257, 29.6951062 ], [ 79.94046, 29.6867296 ], [ 79.9419285, 29.682177 ], [ 79.9437521, 29.6818877 ], [ 79.9455676, 29.6854025 ], [ 79.9508951, 29.683337 ], [ 79.9577963, 29.677477 ], [ 79.9579513, 29.669341 ], [ 79.9633547, 29.6649198 ], [ 79.9633045, 29.6628821 ], [ 79.9595522, 29.659647 ], [ 79.9589953, 29.6567383 ], [ 79.9686674, 29.6497288 ], [ 79.9703919, 29.6425402 ], [ 79.9770297, 29.6294999 ], [ 79.9824057, 29.6220283 ], [ 79.9828796, 29.617731 ], [ 79.9886009, 29.613796 ], [ 79.9915471, 29.5973316 ], [ 79.9939983, 29.5937858 ], [ 79.9928902, 29.5884857 ], [ 79.9969696, 29.5801615 ], [ 79.9994161, 29.5595885 ], [ 80.0045582, 29.558022 ], [ 80.011098, 29.551208 ], [ 80.0187596, 29.5498445 ], [ 80.0311991, 29.5509888 ], [ 80.0364306, 29.5479168 ], [ 80.047846, 29.5458903 ], [ 80.0613153, 29.538588 ], [ 80.0668783, 29.5373631 ], [ 80.0675912, 29.5360637 ], [ 80.0652298, 29.5322438 ], [ 80.0652129, 29.527837 ], [ 80.0715901, 29.525338 ], [ 80.0735399, 29.5226115 ], [ 80.0779149, 29.5209163 ], [ 80.0588198, 29.5129258 ], [ 80.0535775, 29.5126856 ], [ 80.0517857, 29.5108904 ], [ 80.0374128, 29.5077484 ], [ 80.0307877, 29.5082211 ], [ 80.029792, 29.4997653 ], [ 80.0234631, 29.498518 ], [ 80.0195626, 29.4931593 ], [ 80.0126261, 29.4927637 ], [ 80.0077192, 29.4893391 ], [ 80.0031981, 29.4897665 ], [ 80.0007022, 29.4851991 ], [ 79.9950543, 29.4877219 ], [ 79.9923778, 29.4861911 ], [ 79.9888434, 29.4891978 ], [ 79.9854716, 29.4846029 ], [ 79.9770155, 29.4855692 ], [ 79.9764864, 29.4820564 ], [ 79.9722915, 29.4774026 ], [ 79.9685137, 29.4782374 ], [ 79.9659111, 29.4759073 ], [ 79.9599114, 29.4772629 ], [ 79.956876, 29.4740795 ], [ 79.9552733, 29.4759281 ], [ 79.9534427, 29.4747851 ], [ 79.9518139, 29.4780472 ], [ 79.9610092, 29.4943478 ], [ 79.9583036, 29.4970715 ], [ 79.9563445, 29.4963826 ], [ 79.9530676, 29.4992106 ], [ 79.9472102, 29.4999386 ], [ 79.9461849, 29.4885974 ], [ 79.9469686, 29.481525 ], [ 79.9458572, 29.4769489 ], [ 79.9446558, 29.4788165 ], [ 79.9425518, 29.476968 ], [ 79.9376873, 29.47621 ], [ 79.9350549, 29.4792629 ], [ 79.9344394, 29.4763062 ], [ 79.93062, 29.4762863 ], [ 79.9270259, 29.4724366 ], [ 79.9187596, 29.4745816 ], [ 79.9196359, 29.4773203 ], [ 79.9167631, 29.4792338 ], [ 79.9172503, 29.4828657 ], [ 79.913786, 29.4832236 ], [ 79.9153856, 29.4874721 ], [ 79.9108421, 29.4866555 ], [ 79.9097175, 29.4898321 ], [ 79.9007849, 29.4875651 ], [ 79.8973743, 29.4844978 ], [ 79.8942551, 29.4860341 ], [ 79.8910385, 29.4825166 ], [ 79.8868254, 29.4835668 ], [ 79.8842928, 29.4786497 ], [ 79.8803983, 29.4769515 ], [ 79.8790837, 29.4742062 ], [ 79.8765132, 29.4729906 ], [ 79.8750761, 29.4680725 ], [ 79.8717285, 29.4651722 ], [ 79.8713122, 29.4613077 ], [ 79.8682744, 29.4573685 ], [ 79.86613, 29.4566453 ], [ 79.8673437, 29.4544891 ], [ 79.8617091, 29.4488491 ], [ 79.8600627, 29.4479904 ], [ 79.8571063, 29.4504678 ], [ 79.8581718, 29.4546382 ], [ 79.8567536, 29.4559954 ], [ 79.853557, 29.4542666 ], [ 79.852704, 29.4515047 ], [ 79.8508812, 29.4527463 ], [ 79.8484561, 29.4471576 ], [ 79.8487386, 29.4440962 ], [ 79.8461021, 29.4445573 ], [ 79.8502626, 29.4361639 ], [ 79.8485978, 29.4320667 ], [ 79.8408249, 29.427194 ], [ 79.8303904, 29.425531 ], [ 79.8259483, 29.4262066 ], [ 79.8232185, 29.4328618 ], [ 79.8157758, 29.4351133 ], [ 79.8085514, 29.4396246 ], [ 79.8064989, 29.438553 ], [ 79.8008912, 29.4386434 ], [ 79.798395, 29.4372309 ], [ 79.7957829, 29.43888 ], [ 79.7955572, 29.4410666 ], [ 79.7915569, 29.4427138 ], [ 79.7876875, 29.448905 ], [ 79.7808021, 29.4490416 ], [ 79.778105, 29.4513463 ], [ 79.7741101, 29.4502229 ], [ 79.7721556, 29.4482156 ], [ 79.7679231, 29.44759 ], [ 79.767193, 29.4372131 ], [ 79.7638969, 29.4333934 ], [ 79.7592581, 29.4349903 ], [ 79.7567983, 29.4330061 ], [ 79.7538177, 29.4347876 ], [ 79.7487709, 29.4337324 ], [ 79.7456421, 29.4305343 ], [ 79.7416945, 29.4298314 ], [ 79.7384169, 29.4336909 ], [ 79.7375166, 29.4316674 ], [ 79.7358062, 29.4314623 ], [ 79.7338551, 29.4356148 ], [ 79.7290658, 29.4405992 ], [ 79.72674, 29.4467344 ], [ 79.7273665, 29.4492451 ], [ 79.7315959, 29.4538261 ], [ 79.7338149, 29.4614124 ], [ 79.7325338, 29.4619111 ], [ 79.7289014, 29.4593129 ], [ 79.7218911, 29.4573581 ], [ 79.7159382, 29.4582652 ], [ 79.7147881, 29.4622838 ], [ 79.7100149, 29.4596308 ], [ 79.7031836, 29.4667288 ], [ 79.6987527, 29.4691491 ], [ 79.6921372, 29.4696088 ], [ 79.6914491, 29.4734527 ], [ 79.6895058, 29.4737188 ], [ 79.6809749, 29.4919659 ], [ 79.6793696, 29.4999727 ], [ 79.6836296, 29.5063329 ], [ 79.6811977, 29.507448 ], [ 79.6820876, 29.5124316 ], [ 79.6809938, 29.5166291 ], [ 79.6836726, 29.5215943 ], [ 79.68152, 29.5218092 ], [ 79.68242, 29.5235731 ], [ 79.6797988, 29.5272808 ], [ 79.6713078, 29.5309516 ], [ 79.6727761, 29.532069 ], [ 79.6650772, 29.5342408 ], [ 79.6654004, 29.5412413 ], [ 79.6600426, 29.542722 ], [ 79.656503, 29.5417352 ], [ 79.6481384, 29.5477045 ], [ 79.6445629, 29.5476271 ], [ 79.6335036, 29.5419317 ], [ 79.6320891, 29.5423959 ], [ 79.6313929, 29.5484589 ], [ 79.6291505, 29.551612 ], [ 79.62643, 29.5539942 ], [ 79.6212413, 29.5558125 ], [ 79.6126867, 29.5568862 ], [ 79.6078554, 29.5537158 ], [ 79.6009062, 29.5527792 ], [ 79.5976703, 29.5502346 ], [ 79.5897168, 29.5502245 ], [ 79.5868972, 29.5488966 ], [ 79.5840472, 29.5450526 ], [ 79.5770762, 29.5431629 ], [ 79.574092, 29.5400805 ], [ 79.5718382, 29.5396116 ], [ 79.5504786, 29.5404727 ], [ 79.5493597, 29.5419018 ], [ 79.5520342, 29.5474935 ], [ 79.5512602, 29.5507071 ], [ 79.5498492, 29.5510082 ], [ 79.5470388, 29.5498083 ], [ 79.5406835, 29.5504689 ], [ 79.5365692, 29.5457336 ], [ 79.5348959, 29.5455106 ], [ 79.530085, 29.5488308 ], [ 79.5273886, 29.5490927 ], [ 79.5233675, 29.5239387 ], [ 79.5166212, 29.511981 ], [ 79.5108052, 29.5054417 ], [ 79.5043528, 29.5017122 ], [ 79.5038396, 29.498821 ], [ 79.5014113, 29.4967896 ], [ 79.4990325, 29.4977266 ], [ 79.496462, 29.5022779 ], [ 79.4942009, 29.5028817 ], [ 79.4819061, 29.4966529 ], [ 79.4807526, 29.4976161 ], [ 79.4802742, 29.5043408 ], [ 79.4754189, 29.5093745 ], [ 79.4731868, 29.5107798 ], [ 79.4669476, 29.5101866 ], [ 79.4647893, 29.5146656 ], [ 79.4603907, 29.5173426 ], [ 79.4507029, 29.5166847 ], [ 79.4498859, 29.5188152 ], [ 79.4433116, 29.5246723 ], [ 79.4416577, 29.5332187 ], [ 79.4389271, 29.5384588 ], [ 79.4344475, 29.5394548 ], [ 79.4315419, 29.544675 ], [ 79.4239583, 29.5511383 ], [ 79.4209856, 29.5518912 ], [ 79.4197972, 29.5539103 ], [ 79.4147628, 29.5566409 ], [ 79.4123611, 29.5566703 ], [ 79.4093646, 29.5623477 ], [ 79.4037556, 29.5618689 ], [ 79.4031997, 29.5639475 ], [ 79.3990957, 29.5637796 ], [ 79.3975775, 29.5684028 ], [ 79.3948634, 29.5697288 ], [ 79.3919314, 29.5753965 ], [ 79.3892044, 29.5748899 ], [ 79.3875802, 29.5765634 ], [ 79.3857171, 29.58234 ], [ 79.3804477, 29.5880079 ], [ 79.3672426, 29.5908579 ], [ 79.3585572, 29.5980004 ], [ 79.3501909, 29.5941494 ], [ 79.348735, 29.5968921 ], [ 79.3537425, 29.5998899 ], [ 79.3485523, 29.6066639 ], [ 79.3406007, 29.6068988 ], [ 79.3359442, 29.6117277 ], [ 79.3321647, 29.6118649 ], [ 79.3227292, 29.6038091 ], [ 79.3078265, 29.6011691 ], [ 79.3057742, 29.5971519 ], [ 79.3012275, 29.5940211 ], [ 79.2996749, 29.5905215 ], [ 79.2932188, 29.5890999 ], [ 79.287142, 29.5900657 ], [ 79.2866425, 29.5782673 ], [ 79.2748552, 29.5737864 ], [ 79.2586594, 29.558194 ], [ 79.253353, 29.5547526 ], [ 79.2500864, 29.5497982 ], [ 79.2468595, 29.5490727 ], [ 79.2453957, 29.5421826 ], [ 79.240572, 29.5363792 ], [ 79.2330672, 29.5375219 ], [ 79.2341103, 29.5356528 ], [ 79.2325182, 29.5325042 ], [ 79.2331276, 29.5313931 ], [ 79.2280684, 29.527734 ], [ 79.2265029, 29.52428 ], [ 79.2223159, 29.5219956 ], [ 79.2163972, 29.5217642 ], [ 79.2150105, 29.524954 ], [ 79.2126997, 29.5255733 ], [ 79.2099594, 29.523926 ], [ 79.203046, 29.5227931 ], [ 79.1975002, 29.5236947 ], [ 79.1888499, 29.5300621 ], [ 79.1786542, 29.5346087 ], [ 79.1678606, 29.5346271 ], [ 79.1586561, 29.538087 ], [ 79.1470002, 29.5397859 ], [ 79.1437239, 29.541777 ], [ 79.1454477, 29.5446628 ], [ 79.1431552, 29.5505433 ], [ 79.1407613, 29.5526533 ], [ 79.1380144, 29.5526865 ], [ 79.1328341, 29.5483962 ], [ 79.1286425, 29.5481473 ], [ 79.1241631, 29.5495631 ], [ 79.1085909, 29.5441029 ], [ 79.1093048, 29.5534011 ], [ 79.1113735, 29.554901 ], [ 79.1099739, 29.5584763 ], [ 79.1040635, 29.5601193 ], [ 79.0931636, 29.5678574 ], [ 79.0906383, 29.5680169 ], [ 79.090616, 29.572953 ], [ 79.0768765, 29.5822264 ], [ 79.075302, 29.5803818 ], [ 79.0719166, 29.5798414 ], [ 79.0636474, 29.5800417 ], [ 79.0590949, 29.5819251 ], [ 79.0565042, 29.5794791 ], [ 79.0412312, 29.5849149 ], [ 79.0370968, 29.5845433 ], [ 79.0388507, 29.588405 ], [ 79.0426734, 29.5914673 ], [ 79.0464715, 29.5910749 ], [ 79.0491039, 29.5880508 ], [ 79.0563862, 29.5864611 ], [ 79.0606751, 29.5879562 ], [ 79.0631767, 29.5993623 ], [ 79.0592861, 29.6037229 ], [ 79.0623045, 29.6055444 ], [ 79.0622464, 29.6104504 ], [ 79.0653056, 29.6123623 ], [ 79.0675804, 29.6170652 ], [ 79.0670826, 29.6204781 ], [ 79.0715266, 29.6217599 ], [ 79.0756275, 29.6168589 ], [ 79.0809371, 29.615807 ], [ 79.0823206, 29.6197742 ], [ 79.0944449, 29.6275887 ], [ 79.0863043, 29.6294153 ], [ 79.08442, 29.6329362 ], [ 79.0807679, 29.6330566 ], [ 79.0788041, 29.6358438 ], [ 79.0780148, 29.6392962 ], [ 79.0793654, 29.6449211 ], [ 79.0811807, 29.6466448 ], [ 79.0812788, 29.6505391 ], [ 79.0844659, 29.6524008 ], [ 79.0833466, 29.6545265 ], [ 79.0858248, 29.6571125 ], [ 79.0874232, 29.6635006 ], [ 79.0903061, 29.6637707 ], [ 79.0967602, 29.6739104 ], [ 79.1013872, 29.6718718 ], [ 79.1034101, 29.6674274 ], [ 79.1007323, 29.6650976 ], [ 79.1012452, 29.661956 ], [ 79.1053416, 29.66057 ], [ 79.1088633, 29.665009 ], [ 79.1083466, 29.6682571 ], [ 79.1100696, 29.6734686 ], [ 79.1091784, 29.6764782 ], [ 79.1159794, 29.6825904 ], [ 79.1135929, 29.6844524 ], [ 79.1145778, 29.6913556 ], [ 79.1120063, 29.6925558 ], [ 79.1098449, 29.6911194 ], [ 79.1067432, 29.6937474 ], [ 79.1068796, 29.6957334 ], [ 79.1047492, 29.6989404 ], [ 79.1077665, 29.700447 ], [ 79.1089508, 29.7029623 ], [ 79.1125267, 29.7040112 ], [ 79.1119948, 29.7063026 ], [ 79.1149184, 29.7093312 ], [ 79.1197885, 29.709658 ], [ 79.1197375, 29.7150825 ], [ 79.1211272, 29.7181208 ], [ 79.1188635, 29.7204338 ], [ 79.1157231, 29.719324 ], [ 79.1153232, 29.7220681 ], [ 79.1172571, 29.7236422 ], [ 79.1151413, 29.7243965 ], [ 79.1160748, 29.725972 ], [ 79.1120138, 29.7281398 ], [ 79.1111153, 29.7313721 ], [ 79.1088116, 29.7307949 ], [ 79.1091869, 29.7324496 ], [ 79.1081093, 29.7328041 ], [ 79.1093513, 29.7374173 ], [ 79.107934, 29.7393714 ], [ 79.1101429, 29.7422063 ], [ 79.1114675, 29.749793 ], [ 79.1099643, 29.7528269 ], [ 79.1120945, 29.7581164 ], [ 79.1124057, 29.764839 ], [ 79.1091875, 29.7751611 ], [ 79.1131276, 29.7732514 ], [ 79.1148191, 29.769847 ], [ 79.1201137, 29.7723786 ], [ 79.127094, 29.7815331 ], [ 79.1270928, 29.7845821 ], [ 79.1241063, 29.7877576 ], [ 79.1248881, 29.7899193 ], [ 79.1229256, 29.7933271 ], [ 79.1227496, 29.7979889 ], [ 79.1183585, 29.8025556 ], [ 79.1178673, 29.8060941 ], [ 79.1200458, 29.8093493 ], [ 79.1165099, 29.8134482 ], [ 79.1165578, 29.8168928 ], [ 79.1143613, 29.818397 ], [ 79.1130349, 29.8243384 ], [ 79.1113956, 29.8257927 ], [ 79.1119033, 29.8284421 ], [ 79.1104213, 29.8324278 ], [ 79.1021916, 29.8366297 ], [ 79.1000944, 29.8410292 ], [ 79.1005466, 29.8429704 ], [ 79.0971475, 29.8464961 ], [ 79.0966527, 29.8487279 ], [ 79.0910706, 29.850144 ], [ 79.0870903, 29.856038 ], [ 79.0769269, 29.8601589 ], [ 79.0731838, 29.8593608 ], [ 79.0673181, 29.862418 ], [ 79.0717887, 29.8710165 ], [ 79.0709144, 29.8727794 ], [ 79.076997, 29.8769231 ], [ 79.0785909, 29.8858899 ], [ 79.0838427, 29.8908636 ], [ 79.0913013, 29.8932581 ], [ 79.1014966, 29.8903647 ], [ 79.1063418, 29.8937539 ], [ 79.1188169, 29.8949386 ], [ 79.1264468, 29.9016075 ], [ 79.128201, 29.9064677 ], [ 79.1356866, 29.9056314 ], [ 79.1397853, 29.9064306 ], [ 79.1551703, 29.9127096 ], [ 79.1587851, 29.915526 ], [ 79.1643148, 29.9152972 ], [ 79.172831, 29.9077665 ], [ 79.1767553, 29.9075623 ], [ 79.1829025, 29.9150375 ], [ 79.1845274, 29.9189531 ], [ 79.1893988, 29.9233961 ], [ 79.1889918, 29.9256507 ], [ 79.1916656, 29.9348523 ], [ 79.1914717, 29.9430072 ], [ 79.1926157, 29.9446949 ], [ 79.1981987, 29.9462646 ], [ 79.1985281, 29.9446315 ], [ 79.2048228, 29.9393217 ], [ 79.2082692, 29.9433409 ], [ 79.2147547, 29.9406398 ], [ 79.218348, 29.9420044 ], [ 79.2215103, 29.9462211 ], [ 79.2254934, 29.9450659 ], [ 79.2286429, 29.9470096 ], [ 79.2290003, 29.9483568 ], [ 79.2264793, 29.9520141 ], [ 79.231595, 29.9607291 ], [ 79.230732, 29.9655202 ], [ 79.2315391, 29.9689016 ], [ 79.2248355, 29.9780099 ], [ 79.2268296, 29.9786845 ], [ 79.2304326, 29.9790846 ], [ 79.2451347, 29.9706747 ], [ 79.2508067, 29.9607217 ], [ 79.2560409, 29.9632028 ], [ 79.2677151, 29.9601231 ], [ 79.2726151, 29.9603435 ], [ 79.2797854, 29.9536777 ], [ 79.284594, 29.9516694 ], [ 79.285218, 29.9489725 ], [ 79.2839649, 29.9427877 ], [ 79.2860196, 29.9386349 ], [ 79.2831809, 29.9337075 ], [ 79.2822872, 29.9255743 ], [ 79.2962558, 29.9285829 ], [ 79.3017968, 29.9284281 ], [ 79.3090961, 29.9317742 ], [ 79.3140062, 29.930455 ], [ 79.3171821, 29.9277726 ], [ 79.3250835, 29.9292011 ], [ 79.3259023, 29.9386917 ], [ 79.333416, 29.9410216 ], [ 79.3351347, 29.9430339 ], [ 79.330325, 29.9507364 ], [ 79.3308992, 29.9524326 ], [ 79.3286624, 29.9620392 ], [ 79.3246908, 29.9693043 ], [ 79.3249325, 29.9728677 ], [ 79.3389101, 29.972597 ], [ 79.3389472, 29.9703959 ], [ 79.345721, 29.9602218 ], [ 79.3502544, 29.9568578 ], [ 79.3517679, 29.9525054 ], [ 79.3561866, 29.9495788 ], [ 79.3573946, 29.9431785 ], [ 79.361849, 29.9394758 ], [ 79.3668261, 29.9384748 ], [ 79.3687426, 29.9329405 ], [ 79.3739834, 29.9269055 ], [ 79.3786802, 29.9291923 ], [ 79.3857073, 29.9286912 ], [ 79.394341, 29.9353342 ], [ 79.3957087, 29.9376704 ], [ 79.4004163, 29.9377959 ], [ 79.4047368, 29.9424274 ], [ 79.4171464, 29.9431546 ], [ 79.4204571, 29.9349081 ], [ 79.4245431, 29.9345909 ], [ 79.4285421, 29.936777 ], [ 79.4329067, 29.9436041 ], [ 79.4363512, 29.9524793 ], [ 79.4471067, 29.9560416 ], [ 79.4493516, 29.9587828 ], [ 79.4483033, 29.9632352 ], [ 79.4490659, 29.9646692 ], [ 79.4537501, 29.9661413 ], [ 79.459375, 29.9712032 ], [ 79.4640899, 29.971836 ], [ 79.4671499, 29.9754919 ], [ 79.4669041, 29.9785593 ], [ 79.4727649, 29.9797052 ], [ 79.4775294, 29.9776357 ], [ 79.4787913, 29.9755824 ] ] ] } }
]
}
