{
"type": "FeatureCollection",
"name": "0604",
"crs": { "type": "name", "properties": { "name": "urn:ogc:def:crs:OGC:1.3:CRS84" } },
"features": [
{ "type": "Feature", "properties": { "code": "0604", "name": "Kurukshetra", "type": "district" }, "geometry": { "type": "Polygon", "coordinates": [ [ [ 76.8507817, 30.2546319 ], [ 76.8644094, 30.2496932 ], [ 76.8643941, 30.2471539 ], [ 76.867771, 30.2436045 ], [ 76.8585883, 30.2329908 ], [ 76.8672007, 30.2282467 ], [ 76.8759058, 30.2198396 ], [ 76.8902077, 30.2120943 ], [ 76.8879843, 30.2074895 ], [ 76.8863308, 30.2094564 ], [ 76.8829581, 30.2080376 ], [ 76.8838351, 30.2071832 ], [ 76.8825887, 30.2053565 ], [ 76.8823962, 30.1998089 ], [ 76.8836526, 30.1988255 ], [ 76.9034593, 30.1898018 ], [ 76.9081612, 30.1991236 ], [ 76.9158903, 30.205499 ], [ 76.9197783, 30.2022278 ], [ 76.9251336, 30.2054822 ], [ 76.9377939, 30.1978001 ], [ 76.9483086, 30.1978757 ], [ 76.953021, 30.1948105 ], [ 76.9607041, 30.1931774 ], [ 76.9602285, 30.1896461 ], [ 76.9562408, 30.1831762 ], [ 76.9482608, 30.182554 ], [ 76.9454477, 30.1835704 ], [ 76.9409324, 30.1779709 ], [ 76.9397812, 30.1721892 ], [ 76.9406338, 30.1663026 ], [ 76.9453044, 30.1647351 ], [ 76.951145, 30.1593373 ], [ 76.9574289, 30.1573896 ], [ 76.961521, 30.152619 ], [ 76.9637408, 30.1580079 ], [ 76.9756052, 30.1622796 ], [ 76.9803641, 30.1664795 ], [ 76.9817306, 30.1693722 ], [ 76.990737, 30.1678779 ], [ 77.0017699, 30.1618429 ], [ 77.0078738, 30.1620154 ], [ 77.0116432, 30.1564799 ], [ 77.0204098, 30.1513317 ], [ 77.0228252, 30.1492769 ], [ 77.022458, 30.147964 ], [ 77.0312011, 30.1443667 ], [ 77.0369518, 30.1436219 ], [ 77.0358945, 30.1363504 ], [ 77.0488169, 30.1278113 ], [ 77.0597575, 30.1236314 ], [ 77.0626469, 30.1245439 ], [ 77.0692535, 30.1312628 ], [ 77.0715062, 30.1298926 ], [ 77.0706831, 30.1262704 ], [ 77.0767571, 30.1196424 ], [ 77.0820914, 30.1177679 ], [ 77.085341, 30.1134704 ], [ 77.0912195, 30.1118709 ], [ 77.0860126, 30.1073364 ], [ 77.085599, 30.103728 ], [ 77.0867096, 30.1022669 ], [ 77.0821709, 30.1016567 ], [ 77.0782969, 30.099558 ], [ 77.0729644, 30.0995245 ], [ 77.0685828, 30.0966765 ], [ 77.0678849, 30.09245 ], [ 77.0700762, 30.0880036 ], [ 77.0683058, 30.0726944 ], [ 77.071896, 30.0696559 ], [ 77.074115, 30.0705723 ], [ 77.0760255, 30.0663152 ], [ 77.0784358, 30.0683637 ], [ 77.0779886, 30.07093 ], [ 77.0806592, 30.0710979 ], [ 77.0796149, 30.0638943 ], [ 77.0816111, 30.0645309 ], [ 77.0884843, 30.0572757 ], [ 77.0865839, 30.0507575 ], [ 77.0982209, 30.0413515 ], [ 77.0944428, 30.0372641 ], [ 77.105087, 30.0301441 ], [ 77.105497, 30.0273296 ], [ 77.1008336, 30.0201436 ], [ 77.1011504, 30.0174599 ], [ 77.1088016, 30.0105645 ], [ 77.1084807, 30.0080521 ], [ 77.1107976, 30.0054273 ], [ 77.1144719, 30.0048547 ], [ 77.1163585, 30.0020899 ], [ 77.1185453, 30.0030417 ], [ 77.119525, 29.9993976 ], [ 77.1227793, 29.9974762 ], [ 77.1223959, 29.9954735 ], [ 77.1193335, 29.994851 ], [ 77.1123126, 29.9903129 ], [ 77.111417, 29.9843184 ], [ 77.1145517, 29.9839714 ], [ 77.1134433, 29.9807011 ], [ 77.1157024, 29.9788204 ], [ 77.115195, 29.9754646 ], [ 77.1135786, 29.975072 ], [ 77.1145633, 29.9709315 ], [ 77.1119266, 29.969118 ], [ 77.1105174, 29.9698711 ], [ 77.108316, 29.9684816 ], [ 77.1045498, 29.9683728 ], [ 77.1026131, 29.9643898 ], [ 77.1042458, 29.9603846 ], [ 77.1024172, 29.9601813 ], [ 77.0995533, 29.9573978 ], [ 77.0991552, 29.9545156 ], [ 77.0966957, 29.9511456 ], [ 77.0869173, 29.9497541 ], [ 77.0848084, 29.9519546 ], [ 77.0833219, 29.9517015 ], [ 77.0830896, 29.9497844 ], [ 77.0808735, 29.9481735 ], [ 77.0743564, 29.9509406 ], [ 77.0647477, 29.9521184 ], [ 77.062357, 29.9484187 ], [ 77.0589608, 29.9461708 ], [ 77.0530044, 29.9463933 ], [ 77.0479756, 29.9527502 ], [ 77.0332787, 29.9552533 ], [ 77.0219692, 29.947117 ], [ 77.0152027, 29.9492451 ], [ 77.0091488, 29.9529386 ], [ 77.0063266, 29.9566348 ], [ 77.0037064, 29.9516707 ], [ 76.9998053, 29.9498518 ], [ 76.9986892, 29.9520976 ], [ 76.9952564, 29.9531472 ], [ 76.9926594, 29.9515303 ], [ 76.9881443, 29.9573258 ], [ 76.9871378, 29.9559961 ], [ 76.9850453, 29.9560656 ], [ 76.9827743, 29.9587648 ], [ 76.9814672, 29.957142 ], [ 76.9842265, 29.9557415 ], [ 76.983364, 29.9533064 ], [ 76.9788144, 29.9515195 ], [ 76.9709919, 29.9447822 ], [ 76.9650963, 29.9429641 ], [ 76.9659114, 29.9395175 ], [ 76.9616946, 29.9381853 ], [ 76.957107, 29.9392618 ], [ 76.9567732, 29.9364338 ], [ 76.9531738, 29.9362872 ], [ 76.9525393, 29.9327739 ], [ 76.9491413, 29.9317699 ], [ 76.9502056, 29.9285308 ], [ 76.9526548, 29.9282045 ], [ 76.9519646, 29.9263557 ], [ 76.9541013, 29.9238916 ], [ 76.9531317, 29.9223586 ], [ 76.9569556, 29.9189643 ], [ 76.9576049, 29.9152968 ], [ 76.9556052, 29.9139179 ], [ 76.9499562, 29.9137408 ], [ 76.9417271, 29.9185219 ], [ 76.9393143, 29.9186404 ], [ 76.9368469, 29.922638 ], [ 76.9357799, 29.9221875 ], [ 76.9310959, 29.9259153 ], [ 76.9290968, 29.9253433 ], [ 76.9305096, 29.9237504 ], [ 76.9302702, 29.921617 ], [ 76.9278424, 29.9173963 ], [ 76.9208945, 29.9143542 ], [ 76.9124552, 29.9149297 ], [ 76.9032087, 29.9187934 ], [ 76.9015371, 29.9207285 ], [ 76.900087, 29.9198582 ], [ 76.898673, 29.9185053 ], [ 76.8988116, 29.9133046 ], [ 76.896604, 29.9045861 ], [ 76.8971878, 29.8997191 ], [ 76.8901779, 29.8968063 ], [ 76.8809467, 29.8804969 ], [ 76.8754705, 29.8808579 ], [ 76.871511, 29.879473 ], [ 76.8652947, 29.8811868 ], [ 76.8577178, 29.8773701 ], [ 76.8568583, 29.8786916 ], [ 76.8494202, 29.8807427 ], [ 76.8469762, 29.8838951 ], [ 76.8396665, 29.8872899 ], [ 76.8375264, 29.8935997 ], [ 76.8387323, 29.8943216 ], [ 76.8334282, 29.9020693 ], [ 76.8324965, 29.9019788 ], [ 76.8325651, 29.8986771 ], [ 76.8295581, 29.8969034 ], [ 76.8290105, 29.894648 ], [ 76.8227056, 29.8941359 ], [ 76.8195366, 29.8958487 ], [ 76.820601, 29.89939 ], [ 76.8148171, 29.9017916 ], [ 76.8098056, 29.9019381 ], [ 76.8071204, 29.8993251 ], [ 76.8076408, 29.8953336 ], [ 76.8030294, 29.8940006 ], [ 76.8024487, 29.8881139 ], [ 76.8063372, 29.8862531 ], [ 76.8032861, 29.8823092 ], [ 76.7969207, 29.8809254 ], [ 76.7962648, 29.8790937 ], [ 76.7941322, 29.8792729 ], [ 76.7934462, 29.8763496 ], [ 76.787592, 29.8769187 ], [ 76.7815965, 29.8734325 ], [ 76.7726387, 29.877508 ], [ 76.766305, 29.8762129 ], [ 76.7626913, 29.8724841 ], [ 76.7600055, 29.8722112 ], [ 76.7550539, 29.8668302 ], [ 76.7510245, 29.8692893 ], [ 76.7418589, 29.8714335 ], [ 76.7322795, 29.8717123 ], [ 76.7300181, 29.8769329 ], [ 76.724293, 29.8813262 ], [ 76.7125193, 29.8831028 ], [ 76.7061416, 29.8884383 ], [ 76.7036198, 29.8938075 ], [ 76.6879568, 29.9040776 ], [ 76.6852207, 29.9085443 ], [ 76.6896535, 29.9178971 ], [ 76.6847516, 29.9210848 ], [ 76.678117, 29.9181694 ], [ 76.6706456, 29.9186683 ], [ 76.6672944, 29.9160849 ], [ 76.655059, 29.9147984 ], [ 76.6478456, 29.9111553 ], [ 76.6417934, 29.9124418 ], [ 76.6295592, 29.9192357 ], [ 76.6189443, 29.9217977 ], [ 76.6153926, 29.91772 ], [ 76.6062442, 29.9128205 ], [ 76.5938229, 29.9141084 ], [ 76.5936253, 29.9165259 ], [ 76.5875039, 29.9201689 ], [ 76.5780409, 29.9151728 ], [ 76.572019, 29.90903 ], [ 76.5612378, 29.9174617 ], [ 76.5595653, 29.917515 ], [ 76.5534444, 29.9112287 ], [ 76.5515831, 29.9075786 ], [ 76.5475297, 29.9070756 ], [ 76.5456636, 29.9034254 ], [ 76.5369071, 29.8998295 ], [ 76.5307241, 29.9016746 ], [ 76.5382525, 29.9125097 ], [ 76.5408192, 29.9204769 ], [ 76.5350828, 29.9252995 ], [ 76.5310896, 29.9261943 ], [ 76.5186015, 29.9195634 ], [ 76.5154005, 29.9013381 ], [ 76.511543, 29.8973385 ], [ 76.5017498, 29.9047902 ], [ 76.4942732, 29.9055757 ], [ 76.4911751, 29.9037743 ], [ 76.4815168, 29.9057761 ], [ 76.4658778, 29.9129237 ], [ 76.4717658, 29.9194101 ], [ 76.4790186, 29.9327649 ], [ 76.4831294, 29.936609 ], [ 76.4841577, 29.9392694 ], [ 76.4815131, 29.9458615 ], [ 76.4812252, 29.952614 ], [ 76.486621, 29.9559654 ], [ 76.4842578, 29.9596344 ], [ 76.4762603, 29.9651301 ], [ 76.4760984, 29.9689282 ], [ 76.4709971, 29.9703753 ], [ 76.4673736, 29.9734812 ], [ 76.4638391, 29.9720493 ], [ 76.4566312, 29.963881 ], [ 76.4427744, 29.9718771 ], [ 76.4391534, 29.9723254 ], [ 76.4334684, 29.9866896 ], [ 76.4326599, 29.9953231 ], [ 76.4331628, 30.0003575 ], [ 76.4398513, 30.0040877 ], [ 76.4425907, 30.0071256 ], [ 76.4407088, 30.0092577 ], [ 76.4392482, 30.0147327 ], [ 76.4284186, 30.0176253 ], [ 76.4266094, 30.0245115 ], [ 76.4217099, 30.0306823 ], [ 76.4229151, 30.0351989 ], [ 76.4293768, 30.0421263 ], [ 76.4296743, 30.0458722 ], [ 76.4383012, 30.0507453 ], [ 76.4445759, 30.0671527 ], [ 76.4527909, 30.0780974 ], [ 76.4541833, 30.0828552 ], [ 76.4571181, 30.0870048 ], [ 76.4594311, 30.0873085 ], [ 76.4648107, 30.0932715 ], [ 76.4656837, 30.0965326 ], [ 76.4679479, 30.0987766 ], [ 76.4979805, 30.0944943 ], [ 76.5020755, 30.0919185 ], [ 76.5103683, 30.0823141 ], [ 76.5087057, 30.0789532 ], [ 76.5092889, 30.074348 ], [ 76.5082976, 30.0703769 ], [ 76.5188845, 30.0740121 ], [ 76.5224759, 30.0741118 ], [ 76.5268504, 30.076958 ], [ 76.5352827, 30.0731002 ], [ 76.5437594, 30.0742736 ], [ 76.5459612, 30.0764005 ], [ 76.5456515, 30.0793182 ], [ 76.5499958, 30.0788533 ], [ 76.5563791, 30.0825055 ], [ 76.560546, 30.0933767 ], [ 76.5677441, 30.0959178 ], [ 76.5752427, 30.1008031 ], [ 76.5767492, 30.0947359 ], [ 76.5857304, 30.0883747 ], [ 76.5856076, 30.0842971 ], [ 76.587527, 30.0832017 ], [ 76.5921323, 30.0839742 ], [ 76.5983875, 30.0824239 ], [ 76.5868477, 30.0691469 ], [ 76.5922002, 30.066239 ], [ 76.5967098, 30.0726766 ], [ 76.6044675, 30.0744866 ], [ 76.615296, 30.07304 ], [ 76.615498, 30.075859 ], [ 76.619548, 30.0817544 ], [ 76.6208704, 30.0867249 ], [ 76.6264046, 30.0903018 ], [ 76.631664, 30.0916818 ], [ 76.63598, 30.0962099 ], [ 76.64248, 30.0987125 ], [ 76.6448149, 30.1018649 ], [ 76.6437733, 30.1077783 ], [ 76.6356343, 30.111577 ], [ 76.6432625, 30.1218914 ], [ 76.6422716, 30.1227531 ], [ 76.6453028, 30.12789 ], [ 76.6392428, 30.130782 ], [ 76.6390981, 30.1346249 ], [ 76.6365661, 30.1378186 ], [ 76.6383265, 30.1476236 ], [ 76.6437439, 30.1502113 ], [ 76.6551381, 30.1528803 ], [ 76.6697447, 30.1683738 ], [ 76.6714831, 30.1669479 ], [ 76.6730199, 30.1676781 ], [ 76.6829625, 30.1801948 ], [ 76.6854078, 30.1886551 ], [ 76.689381, 30.1906829 ], [ 76.6919142, 30.1900367 ], [ 76.6949958, 30.193702 ], [ 76.7112869, 30.1914911 ], [ 76.7130888, 30.1917921 ], [ 76.7171168, 30.1961464 ], [ 76.7186061, 30.195153 ], [ 76.728043, 30.1951481 ], [ 76.731422, 30.1964827 ], [ 76.7345526, 30.1960922 ], [ 76.7364395, 30.1979038 ], [ 76.7540876, 30.1963938 ], [ 76.7601939, 30.1918528 ], [ 76.7634389, 30.1918961 ], [ 76.7648295, 30.1974451 ], [ 76.7668057, 30.1994132 ], [ 76.7727819, 30.1996932 ], [ 76.7756092, 30.2023339 ], [ 76.7777954, 30.2022228 ], [ 76.7770091, 30.2045766 ], [ 76.7847889, 30.2149199 ], [ 76.7887786, 30.213371 ], [ 76.7961883, 30.2148099 ], [ 76.7989105, 30.2135125 ], [ 76.8000288, 30.2112354 ], [ 76.8059109, 30.2137328 ], [ 76.8118586, 30.2196714 ], [ 76.8175415, 30.2178563 ], [ 76.8194305, 30.2204551 ], [ 76.8168688, 30.2224656 ], [ 76.8189921, 30.22423 ], [ 76.8231469, 30.2347905 ], [ 76.8253539, 30.235946 ], [ 76.821783, 30.2403467 ], [ 76.8175483, 30.2421175 ], [ 76.8228244, 30.2514288 ], [ 76.8244175, 30.2513164 ], [ 76.8260137, 30.253058 ], [ 76.8300341, 30.2521448 ], [ 76.8323245, 30.2529292 ], [ 76.833254, 30.251775 ], [ 76.8375066, 30.2541332 ], [ 76.8427885, 30.2457974 ], [ 76.8507817, 30.2546319 ] ] ] } }
]
}
