{
"type": "FeatureCollection",
"name": "0605",
"crs": { "type": "name", "properties": { "name": "urn:ogc:def:crs:OGC:1.3:CRS84" } },
"features": [
{ "type": "Feature", "properties": { "code": "0605", "name": "Kaithal", "type": "district" }, "geometry": { "type": "Polygon", "coordinates": [ [ [ 76.4227375, 30.1922382 ], [ 76.4343318, 30.183107 ], [ 76.4338246, 30.1807124 ], [ 76.4303941, 30.1779708 ], [ 76.4346551, 30.1756731 ], [ 76.4405821, 30.1658407 ], [ 76.4365239, 30.1559464 ], [ 76.4334905, 30.1558352 ], [ 76.4287824, 30.1501164 ], [ 76.4322407, 30.1469522 ], [ 76.4397667, 30.1436667 ], [ 76.4398238, 30.1425923 ], [ 76.4376777, 30.1417226 ], [ 76.4374944, 30.1362341 ], [ 76.4405284, 30.1314232 ], [ 76.4438984, 30.1304613 ], [ 76.4508832, 30.1321573 ], [ 76.4555704, 30.1304226 ], [ 76.4580305, 30.13183 ], [ 76.4580117, 30.1302015 ], [ 76.4599624, 30.1294445 ], [ 76.456326, 30.1154271 ], [ 76.4571151, 30.1101444 ], [ 76.4625486, 30.1010204 ], [ 76.4679479, 30.0987766 ], [ 76.4656837, 30.0965326 ], [ 76.4648107, 30.0932715 ], [ 76.4594311, 30.0873085 ], [ 76.4571181, 30.0870048 ], [ 76.4541833, 30.0828552 ], [ 76.4527909, 30.0780974 ], [ 76.4445759, 30.0671527 ], [ 76.4383012, 30.0507453 ], [ 76.4296743, 30.0458722 ], [ 76.4293768, 30.0421263 ], [ 76.4229151, 30.0351989 ], [ 76.4217099, 30.0306823 ], [ 76.4266094, 30.0245115 ], [ 76.4284186, 30.0176253 ], [ 76.4392482, 30.0147327 ], [ 76.4407088, 30.0092577 ], [ 76.4425907, 30.0071256 ], [ 76.4398513, 30.0040877 ], [ 76.4331628, 30.0003575 ], [ 76.4326599, 29.9953231 ], [ 76.4334684, 29.9866896 ], [ 76.4391534, 29.9723254 ], [ 76.4427744, 29.9718771 ], [ 76.4566312, 29.963881 ], [ 76.4638391, 29.9720493 ], [ 76.4673736, 29.9734812 ], [ 76.4709971, 29.9703753 ], [ 76.4760984, 29.9689282 ], [ 76.4762603, 29.9651301 ], [ 76.4842578, 29.9596344 ], [ 76.486621, 29.9559654 ], [ 76.4812252, 29.952614 ], [ 76.4815131, 29.9458615 ], [ 76.4841577, 29.9392694 ], [ 76.4831294, 29.936609 ], [ 76.4790186, 29.9327649 ], [ 76.4717658, 29.9194101 ], [ 76.4658778, 29.9129237 ], [ 76.4815168, 29.9057761 ], [ 76.4911751, 29.9037743 ], [ 76.4942732, 29.9055757 ], [ 76.5017498, 29.9047902 ], [ 76.511543, 29.8973385 ], [ 76.5154005, 29.9013381 ], [ 76.5186015, 29.9195634 ], [ 76.5310896, 29.9261943 ], [ 76.5350828, 29.9252995 ], [ 76.5408192, 29.9204769 ], [ 76.5382525, 29.9125097 ], [ 76.5307241, 29.9016746 ], [ 76.5369071, 29.8998295 ], [ 76.5456636, 29.9034254 ], [ 76.5475297, 29.9070756 ], [ 76.5515831, 29.9075786 ], [ 76.5534444, 29.9112287 ], [ 76.5595653, 29.917515 ], [ 76.5612378, 29.9174617 ], [ 76.572019, 29.90903 ], [ 76.5780409, 29.9151728 ], [ 76.5875039, 29.9201689 ], [ 76.5936253, 29.9165259 ], [ 76.5938229, 29.9141084 ], [ 76.6062442, 29.9128205 ], [ 76.6153926, 29.91772 ], [ 76.6189443, 29.9217977 ], [ 76.6295592, 29.9192357 ], [ 76.6417934, 29.9124418 ], [ 76.6478456, 29.9111553 ], [ 76.655059, 29.9147984 ], [ 76.6672944, 29.9160849 ], [ 76.6706456, 29.9186683 ], [ 76.678117, 29.9181694 ], [ 76.6847516, 29.9210848 ], [ 76.6896535, 29.9178971 ], [ 76.6852207, 29.9085443 ], [ 76.6887016, 29.9031209 ], [ 76.6948959, 29.8994394 ], [ 76.6941391, 29.8905066 ], [ 76.6933133, 29.8863979 ], [ 76.6882976, 29.8784573 ], [ 76.6878801, 29.8730808 ], [ 76.6848593, 29.8672817 ], [ 76.6833885, 29.8655908 ], [ 76.6800098, 29.8668101 ], [ 76.6756724, 29.8656392 ], [ 76.6744658, 29.8639798 ], [ 76.6876751, 29.8598153 ], [ 76.6942534, 29.8540158 ], [ 76.6914879, 29.8504855 ], [ 76.688974, 29.84382 ], [ 76.6887612, 29.8346726 ], [ 76.6862026, 29.8300549 ], [ 76.6877733, 29.826978 ], [ 76.6940161, 29.8253284 ], [ 76.7044659, 29.8256382 ], [ 76.7094335, 29.8212102 ], [ 76.710263, 29.8172673 ], [ 76.7170044, 29.8131987 ], [ 76.7142007, 29.8070977 ], [ 76.7039607, 29.8017231 ], [ 76.6983036, 29.7958536 ], [ 76.6995822, 29.7836561 ], [ 76.6932687, 29.7763251 ], [ 76.6835125, 29.7686076 ], [ 76.6831533, 29.7646203 ], [ 76.6859853, 29.7627742 ], [ 76.6898308, 29.7534578 ], [ 76.6974386, 29.7513473 ], [ 76.6941263, 29.7457384 ], [ 76.6951014, 29.7431533 ], [ 76.6949947, 29.7273103 ], [ 76.690661, 29.7269758 ], [ 76.6856363, 29.72461 ], [ 76.678925, 29.7182755 ], [ 76.6710061, 29.7136685 ], [ 76.6681776, 29.7090506 ], [ 76.6752456, 29.7078031 ], [ 76.6880916, 29.7008871 ], [ 76.6927055, 29.7010607 ], [ 76.7049097, 29.6952621 ], [ 76.712499, 29.6950136 ], [ 76.7115634, 29.6886 ], [ 76.7098367, 29.6871306 ], [ 76.7078358, 29.6787239 ], [ 76.704439, 29.6750092 ], [ 76.7031947, 29.6677253 ], [ 76.7011633, 29.6670182 ], [ 76.693929, 29.6695888 ], [ 76.6854357, 29.6750194 ], [ 76.6834313, 29.6775755 ], [ 76.680766, 29.6744756 ], [ 76.6775272, 29.6743688 ], [ 76.6727265, 29.6699275 ], [ 76.6661569, 29.6708003 ], [ 76.6587704, 29.6700401 ], [ 76.6562141, 29.6713038 ], [ 76.6528978, 29.6701092 ], [ 76.6497409, 29.6662486 ], [ 76.6446426, 29.6629747 ], [ 76.642488, 29.6585094 ], [ 76.6427034, 29.6544258 ], [ 76.639972, 29.652921 ], [ 76.6381847, 29.6489968 ], [ 76.621567, 29.6432102 ], [ 76.6173689, 29.6439994 ], [ 76.6161813, 29.6430927 ], [ 76.6157223, 29.6359567 ], [ 76.6130221, 29.6339671 ], [ 76.6057371, 29.6318643 ], [ 76.6033112, 29.6278674 ], [ 76.5893923, 29.6270436 ], [ 76.5837538, 29.6285756 ], [ 76.5773892, 29.625619 ], [ 76.563576, 29.6299662 ], [ 76.5581818, 29.6280872 ], [ 76.5573111, 29.6253758 ], [ 76.5538226, 29.6230329 ], [ 76.5500386, 29.6227016 ], [ 76.5462302, 29.6206831 ], [ 76.539948, 29.6135612 ], [ 76.5284191, 29.6153802 ], [ 76.5219256, 29.6147033 ], [ 76.5267259, 29.6100247 ], [ 76.5374523, 29.6042674 ], [ 76.53904, 29.6007004 ], [ 76.5465124, 29.5960363 ], [ 76.5471497, 29.5926852 ], [ 76.5498971, 29.5904945 ], [ 76.5480316, 29.5867811 ], [ 76.5468245, 29.5792925 ], [ 76.543998, 29.5774323 ], [ 76.5440819, 29.5758356 ], [ 76.535721, 29.5713149 ], [ 76.5301447, 29.5703213 ], [ 76.5234055, 29.5494603 ], [ 76.5236999, 29.5416257 ], [ 76.5260794, 29.5366561 ], [ 76.5216828, 29.5333057 ], [ 76.5110072, 29.5317273 ], [ 76.5093606, 29.5281308 ], [ 76.5115206, 29.5245556 ], [ 76.5058115, 29.5241852 ], [ 76.5055237, 29.5144144 ], [ 76.4951916, 29.5164514 ], [ 76.4925174, 29.5213925 ], [ 76.4873758, 29.5263827 ], [ 76.4888508, 29.530909 ], [ 76.4860356, 29.5365635 ], [ 76.4857955, 29.5417744 ], [ 76.4625605, 29.5488642 ], [ 76.4538105, 29.54696 ], [ 76.4520375, 29.5369351 ], [ 76.4475511, 29.5315653 ], [ 76.440473, 29.5296428 ], [ 76.4368518, 29.529171 ], [ 76.4359025, 29.5373044 ], [ 76.4316047, 29.5447357 ], [ 76.4301759, 29.545043 ], [ 76.4213013, 29.5416679 ], [ 76.4140325, 29.54075 ], [ 76.4163676, 29.5365091 ], [ 76.4155672, 29.5343487 ], [ 76.4051671, 29.5304812 ], [ 76.3953259, 29.5315477 ], [ 76.391929, 29.5295628 ], [ 76.3816465, 29.527327 ], [ 76.3733286, 29.5275505 ], [ 76.3674364, 29.5305298 ], [ 76.3616227, 29.5359062 ], [ 76.3602398, 29.5392937 ], [ 76.3616216, 29.5449324 ], [ 76.3602695, 29.5480131 ], [ 76.3547074, 29.5529112 ], [ 76.3490678, 29.5554092 ], [ 76.3512951, 29.5619007 ], [ 76.3585949, 29.5687672 ], [ 76.3565094, 29.5733273 ], [ 76.3509968, 29.5799304 ], [ 76.3453012, 29.5826962 ], [ 76.3420746, 29.5793872 ], [ 76.3284456, 29.5797666 ], [ 76.3161806, 29.5860182 ], [ 76.3096177, 29.5849275 ], [ 76.2978244, 29.5898914 ], [ 76.294534, 29.5823533 ], [ 76.2906825, 29.5780612 ], [ 76.2963695, 29.5644149 ], [ 76.3010543, 29.5574529 ], [ 76.293846, 29.5516703 ], [ 76.2819896, 29.5470662 ], [ 76.2772951, 29.5469861 ], [ 76.2743017, 29.5482966 ], [ 76.2701255, 29.550851 ], [ 76.2661769, 29.5575284 ], [ 76.2684314, 29.5725511 ], [ 76.2652972, 29.5744747 ], [ 76.266131, 29.5764466 ], [ 76.2611464, 29.5808224 ], [ 76.2598519, 29.5847277 ], [ 76.25, 29.5851103 ], [ 76.2487401, 29.5879538 ], [ 76.2424448, 29.588803 ], [ 76.2384503, 29.5933895 ], [ 76.241759, 29.5962343 ], [ 76.242186, 29.6014605 ], [ 76.2404703, 29.6041821 ], [ 76.2407084, 29.6092474 ], [ 76.2346167, 29.6182336 ], [ 76.2326485, 29.6197039 ], [ 76.2243812, 29.6198791 ], [ 76.2220344, 29.6221588 ], [ 76.2180443, 29.6228067 ], [ 76.2171332, 29.6256987 ], [ 76.2126811, 29.6296802 ], [ 76.194107, 29.6406841 ], [ 76.1989606, 29.6475423 ], [ 76.2022064, 29.6646993 ], [ 76.1937418, 29.6729271 ], [ 76.1921243, 29.6795947 ], [ 76.1838669, 29.6835004 ], [ 76.1696867, 29.6858528 ], [ 76.1683463, 29.6893885 ], [ 76.1686629, 29.6927038 ], [ 76.1736111, 29.7012138 ], [ 76.1747768, 29.7075599 ], [ 76.1800675, 29.7163086 ], [ 76.1836609, 29.7197487 ], [ 76.1808021, 29.7270211 ], [ 76.1821288, 29.7334122 ], [ 76.1796706, 29.7369496 ], [ 76.1843492, 29.7388014 ], [ 76.1947697, 29.7469607 ], [ 76.1976696, 29.747144 ], [ 76.198911, 29.7561638 ], [ 76.2030788, 29.7576193 ], [ 76.1962451, 29.7638975 ], [ 76.2013707, 29.7662882 ], [ 76.2063014, 29.7723306 ], [ 76.2064817, 29.7742111 ], [ 76.2084682, 29.7738062 ], [ 76.209884, 29.7763271 ], [ 76.2100722, 29.7808671 ], [ 76.2068726, 29.7877111 ], [ 76.2170943, 29.795095 ], [ 76.2153998, 29.7980435 ], [ 76.2181933, 29.802782 ], [ 76.2169876, 29.8054959 ], [ 76.2190021, 29.8071357 ], [ 76.2200257, 29.8110574 ], [ 76.2146057, 29.8132243 ], [ 76.2187126, 29.8179265 ], [ 76.2182688, 29.8194465 ], [ 76.2149073, 29.820118 ], [ 76.2091602, 29.8238712 ], [ 76.2122903, 29.836783 ], [ 76.2152966, 29.8407875 ], [ 76.217996, 29.8383451 ], [ 76.2205515, 29.8378437 ], [ 76.2206238, 29.8466978 ], [ 76.2272463, 29.8517669 ], [ 76.2304742, 29.851482 ], [ 76.2325323, 29.853666 ], [ 76.2381583, 29.8519948 ], [ 76.2438162, 29.8524081 ], [ 76.2438671, 29.8689275 ], [ 76.2470436, 29.8750769 ], [ 76.2451376, 29.8770533 ], [ 76.2429807, 29.8767076 ], [ 76.2416239, 29.8785374 ], [ 76.2382858, 29.8786949 ], [ 76.2294003, 29.8856299 ], [ 76.2268316, 29.8863336 ], [ 76.2262596, 29.8837856 ], [ 76.2228484, 29.8847799 ], [ 76.221296, 29.8833644 ], [ 76.2173968, 29.8840369 ], [ 76.212945, 29.8870446 ], [ 76.2108361, 29.8913076 ], [ 76.2086755, 29.8873847 ], [ 76.2097711, 29.8858885 ], [ 76.2011412, 29.8838165 ], [ 76.1990894, 29.8858968 ], [ 76.1998386, 29.8884078 ], [ 76.1934554, 29.885622 ], [ 76.1897422, 29.890396 ], [ 76.1863331, 29.8908286 ], [ 76.1856563, 29.8924411 ], [ 76.186345, 29.899187 ], [ 76.1893012, 29.9086665 ], [ 76.1883646, 29.9173373 ], [ 76.1871111, 29.9187913 ], [ 76.1878063, 29.9206265 ], [ 76.1852795, 29.9204872 ], [ 76.1813975, 29.9236163 ], [ 76.1791762, 29.92264 ], [ 76.1754905, 29.9238337 ], [ 76.1719724, 29.9262724 ], [ 76.1725196, 29.9288177 ], [ 76.1781432, 29.9333661 ], [ 76.1782044, 29.9419323 ], [ 76.1799213, 29.9452327 ], [ 76.1837556, 29.9483009 ], [ 76.1914764, 29.9485343 ], [ 76.2035189, 29.944252 ], [ 76.2101758, 29.9396132 ], [ 76.2131191, 29.945091 ], [ 76.2127383, 29.9470914 ], [ 76.2052988, 29.9615847 ], [ 76.2010834, 29.9672421 ], [ 76.1980884, 29.9682593 ], [ 76.20573, 29.9743022 ], [ 76.2047716, 29.9769129 ], [ 76.2059159, 29.9803662 ], [ 76.2018449, 29.9847513 ], [ 76.202413, 29.9893177 ], [ 76.2038302, 29.9895868 ], [ 76.2080567, 29.9860547 ], [ 76.2107377, 29.9881543 ], [ 76.2065293, 29.9934465 ], [ 76.2114761, 29.9954485 ], [ 76.2099643, 29.9981569 ], [ 76.2108546, 30.0017105 ], [ 76.2092554, 30.0040578 ], [ 76.2159947, 30.0070637 ], [ 76.2255564, 30.0076924 ], [ 76.2308025, 30.0123041 ], [ 76.2319944, 30.0152075 ], [ 76.213171, 30.022096 ], [ 76.2145646, 30.0279665 ], [ 76.2139623, 30.0317213 ], [ 76.2200323, 30.034106 ], [ 76.2224077, 30.0366872 ], [ 76.221808, 30.0480686 ], [ 76.22832, 30.0528484 ], [ 76.2262305, 30.0586645 ], [ 76.2290088, 30.0597846 ], [ 76.2367237, 30.0678965 ], [ 76.2463216, 30.0816444 ], [ 76.247844, 30.0810604 ], [ 76.2490453, 30.0821182 ], [ 76.249671, 30.0869082 ], [ 76.2535245, 30.0892471 ], [ 76.2601469, 30.0874128 ], [ 76.2653034, 30.0987823 ], [ 76.2524945, 30.1026407 ], [ 76.2516455, 30.1044445 ], [ 76.2531813, 30.1060811 ], [ 76.2517307, 30.1075026 ], [ 76.248929, 30.1038251 ], [ 76.2421108, 30.1005105 ], [ 76.2368912, 30.1038714 ], [ 76.2383192, 30.105613 ], [ 76.2363437, 30.10657 ], [ 76.2344042, 30.1050046 ], [ 76.2298172, 30.1066854 ], [ 76.2238015, 30.1116188 ], [ 76.2167658, 30.1100103 ], [ 76.2162863, 30.112803 ], [ 76.2202761, 30.1152655 ], [ 76.2170887, 30.122807 ], [ 76.2110669, 30.1205572 ], [ 76.1963781, 30.1234531 ], [ 76.1969487, 30.1324623 ], [ 76.202437, 30.1360486 ], [ 76.2047419, 30.1330723 ], [ 76.208039, 30.1340165 ], [ 76.2090686, 30.1316158 ], [ 76.2132292, 30.128893 ], [ 76.2159273, 30.1237427 ], [ 76.2191881, 30.1259773 ], [ 76.2242828, 30.1270759 ], [ 76.2213529, 30.1306584 ], [ 76.2174441, 30.1323144 ], [ 76.2151556, 30.1348938 ], [ 76.2151923, 30.1395856 ], [ 76.2077278, 30.1442655 ], [ 76.2084382, 30.1476111 ], [ 76.2067522, 30.1498419 ], [ 76.2086473, 30.1549678 ], [ 76.20767, 30.1569935 ], [ 76.2145961, 30.1561716 ], [ 76.2146895, 30.1531975 ], [ 76.2162904, 30.1529346 ], [ 76.2164909, 30.1502347 ], [ 76.219014, 30.1477028 ], [ 76.2243415, 30.1469629 ], [ 76.2268811, 30.144539 ], [ 76.2343819, 30.1449289 ], [ 76.2325215, 30.1397534 ], [ 76.2432209, 30.1323887 ], [ 76.2422749, 30.1293838 ], [ 76.2440091, 30.1281944 ], [ 76.2453362, 30.12806 ], [ 76.24694, 30.1305397 ], [ 76.2556473, 30.1260522 ], [ 76.2554769, 30.1237167 ], [ 76.2531053, 30.1230819 ], [ 76.2536883, 30.1215739 ], [ 76.2677808, 30.1144184 ], [ 76.2751832, 30.1145859 ], [ 76.2785475, 30.1102716 ], [ 76.2853391, 30.1061764 ], [ 76.2906263, 30.1077397 ], [ 76.2966029, 30.1144032 ], [ 76.3075661, 30.1087227 ], [ 76.3195487, 30.0970711 ], [ 76.319298, 30.0957743 ], [ 76.3217633, 30.0950592 ], [ 76.3311901, 30.0996606 ], [ 76.3401254, 30.0989246 ], [ 76.3441515, 30.1008235 ], [ 76.3447342, 30.1047742 ], [ 76.3462581, 30.1038833 ], [ 76.347883, 30.1085317 ], [ 76.3544261, 30.116874 ], [ 76.3602316, 30.1201661 ], [ 76.3521733, 30.1217833 ], [ 76.3424971, 30.1262092 ], [ 76.3335078, 30.1381663 ], [ 76.3339537, 30.1419876 ], [ 76.3378122, 30.1432657 ], [ 76.3468843, 30.1427669 ], [ 76.347495, 30.1453006 ], [ 76.3504903, 30.1468309 ], [ 76.3530649, 30.1430146 ], [ 76.3592906, 30.1397426 ], [ 76.3603569, 30.1319536 ], [ 76.3669452, 30.1241794 ], [ 76.362722, 30.1238984 ], [ 76.3607573, 30.1225473 ], [ 76.362203, 30.1201186 ], [ 76.3679081, 30.1176005 ], [ 76.3888802, 30.1132342 ], [ 76.4000649, 30.1166705 ], [ 76.397828, 30.1195998 ], [ 76.3984489, 30.1205722 ], [ 76.3952804, 30.1218556 ], [ 76.3959788, 30.1261206 ], [ 76.3911078, 30.1348029 ], [ 76.3976454, 30.1401654 ], [ 76.4009027, 30.1388855 ], [ 76.406838, 30.1449126 ], [ 76.4100945, 30.1450355 ], [ 76.4017778, 30.1537913 ], [ 76.3950307, 30.1579687 ], [ 76.3916848, 30.1640767 ], [ 76.3934852, 30.1669405 ], [ 76.3871812, 30.1705939 ], [ 76.3899996, 30.1745884 ], [ 76.3963633, 30.1795782 ], [ 76.4029835, 30.1821062 ], [ 76.4036193, 30.186656 ], [ 76.4065662, 30.190389 ], [ 76.4227375, 30.1922382 ] ] ] } }
]
}
