{
"type": "FeatureCollection",
"name": "0609",
"crs": { "type": "name", "properties": { "name": "urn:ogc:def:crs:OGC:1.3:CRS84" } },
"features": [
{ "type": "Feature", "properties": { "code": "0609", "name": "Jind", "type": "district" }, "geometry": { "type": "Polygon", "coordinates": [ [ [ 76.2021379, 29.8431107 ], [ 76.211222, 29.843161 ], [ 76.2152966, 29.8407875 ], [ 76.2122903, 29.836783 ], [ 76.2091602, 29.8238712 ], [ 76.2188286, 29.8184214 ], [ 76.2146057, 29.8132243 ], [ 76.2200257, 29.8110574 ], [ 76.2190021, 29.8071357 ], [ 76.2169876, 29.8054959 ], [ 76.2181933, 29.802782 ], [ 76.2153998, 29.7980435 ], [ 76.2170943, 29.795095 ], [ 76.2068726, 29.7877111 ], [ 76.2100722, 29.7808671 ], [ 76.209884, 29.7763271 ], [ 76.2084682, 29.7738062 ], [ 76.2064817, 29.7742111 ], [ 76.2063014, 29.7723306 ], [ 76.2013707, 29.7662882 ], [ 76.1962451, 29.7638975 ], [ 76.2030788, 29.7576193 ], [ 76.198911, 29.7561638 ], [ 76.1976696, 29.747144 ], [ 76.1947697, 29.7469607 ], [ 76.1843492, 29.7388014 ], [ 76.1796706, 29.7369496 ], [ 76.1821288, 29.7334122 ], [ 76.1808021, 29.7270211 ], [ 76.1836609, 29.7197487 ], [ 76.1800675, 29.7163086 ], [ 76.1747768, 29.7075599 ], [ 76.1730835, 29.6999058 ], [ 76.1686629, 29.6927038 ], [ 76.1684287, 29.6887976 ], [ 76.1696867, 29.6858528 ], [ 76.1838669, 29.6835004 ], [ 76.1921243, 29.6795947 ], [ 76.1937418, 29.6729271 ], [ 76.2022064, 29.6646993 ], [ 76.1989606, 29.6475423 ], [ 76.194107, 29.6406841 ], [ 76.2126811, 29.6296802 ], [ 76.2171332, 29.6256987 ], [ 76.2180443, 29.6228067 ], [ 76.2220344, 29.6221588 ], [ 76.2243812, 29.6198791 ], [ 76.2326485, 29.6197039 ], [ 76.2346167, 29.6182336 ], [ 76.2407084, 29.6092474 ], [ 76.2404703, 29.6041821 ], [ 76.242186, 29.6014605 ], [ 76.241759, 29.5962343 ], [ 76.2384503, 29.5933895 ], [ 76.2424448, 29.588803 ], [ 76.2487401, 29.5879538 ], [ 76.25, 29.5851103 ], [ 76.2598519, 29.5847277 ], [ 76.2611464, 29.5808224 ], [ 76.2659553, 29.5766855 ], [ 76.2652972, 29.5744747 ], [ 76.2684368, 29.5724158 ], [ 76.2661769, 29.5575284 ], [ 76.2710819, 29.5500415 ], [ 76.2772951, 29.5469861 ], [ 76.2813604, 29.5468717 ], [ 76.293846, 29.5516703 ], [ 76.3010543, 29.5574529 ], [ 76.2963695, 29.5644149 ], [ 76.2906825, 29.5780612 ], [ 76.294534, 29.5823533 ], [ 76.2978244, 29.5898914 ], [ 76.3096177, 29.5849275 ], [ 76.3161806, 29.5860182 ], [ 76.3284456, 29.5797666 ], [ 76.3420746, 29.5793872 ], [ 76.3453012, 29.5826962 ], [ 76.3509968, 29.5799304 ], [ 76.3565094, 29.5733273 ], [ 76.3585949, 29.5687672 ], [ 76.3512951, 29.5619007 ], [ 76.3490678, 29.5554092 ], [ 76.3547074, 29.5529112 ], [ 76.3613015, 29.5464705 ], [ 76.3602398, 29.5392937 ], [ 76.3631807, 29.5340434 ], [ 76.3744203, 29.527219 ], [ 76.3816465, 29.527327 ], [ 76.391929, 29.5295628 ], [ 76.3953259, 29.5315477 ], [ 76.4051671, 29.5304812 ], [ 76.4155672, 29.5343487 ], [ 76.4163676, 29.5365091 ], [ 76.4140325, 29.54075 ], [ 76.4213013, 29.5416679 ], [ 76.4301759, 29.545043 ], [ 76.4316047, 29.5447357 ], [ 76.4359025, 29.5373044 ], [ 76.4368518, 29.529171 ], [ 76.4475511, 29.5315653 ], [ 76.4520375, 29.5369351 ], [ 76.4538105, 29.54696 ], [ 76.4603112, 29.5488025 ], [ 76.4639584, 29.5486737 ], [ 76.4857955, 29.5417744 ], [ 76.4860356, 29.5365635 ], [ 76.4888508, 29.530909 ], [ 76.4873758, 29.5263827 ], [ 76.4925174, 29.5213925 ], [ 76.4964391, 29.5144783 ], [ 76.4981267, 29.5027847 ], [ 76.5002975, 29.5013205 ], [ 76.5035996, 29.4930865 ], [ 76.5028128, 29.486951 ], [ 76.5061286, 29.4864036 ], [ 76.4959222, 29.4789167 ], [ 76.4840253, 29.4805329 ], [ 76.4837803, 29.478007 ], [ 76.4815725, 29.476651 ], [ 76.481303, 29.4704307 ], [ 76.47821, 29.4602612 ], [ 76.4709539, 29.4454844 ], [ 76.4710126, 29.4367062 ], [ 76.4628934, 29.4274736 ], [ 76.4636996, 29.4242387 ], [ 76.4694026, 29.4176669 ], [ 76.4745846, 29.4164767 ], [ 76.4767545, 29.4225242 ], [ 76.4811972, 29.4286059 ], [ 76.4814226, 29.4321874 ], [ 76.4835472, 29.4336787 ], [ 76.498844, 29.4271561 ], [ 76.4999991, 29.4253817 ], [ 76.5105683, 29.4304456 ], [ 76.5178681, 29.432247 ], [ 76.5228364, 29.4315336 ], [ 76.5246399, 29.4368443 ], [ 76.5300076, 29.4444806 ], [ 76.5321283, 29.4530889 ], [ 76.5372785, 29.4576032 ], [ 76.549153, 29.4590855 ], [ 76.5564447, 29.4615298 ], [ 76.5698203, 29.4622893 ], [ 76.573679, 29.466319 ], [ 76.5829525, 29.4658576 ], [ 76.5842314, 29.4646716 ], [ 76.5950221, 29.4755863 ], [ 76.6050593, 29.4753264 ], [ 76.6046927, 29.4787862 ], [ 76.6077753, 29.4806902 ], [ 76.6331134, 29.469328 ], [ 76.6422023, 29.4743432 ], [ 76.6491445, 29.4882085 ], [ 76.6547602, 29.4912206 ], [ 76.6618849, 29.4889137 ], [ 76.6657092, 29.4855655 ], [ 76.6773027, 29.4821422 ], [ 76.6806953, 29.4827814 ], [ 76.6868376, 29.4774693 ], [ 76.6918889, 29.4762218 ], [ 76.7094255, 29.4744299 ], [ 76.7149754, 29.4777734 ], [ 76.7175831, 29.482323 ], [ 76.7344403, 29.4811057 ], [ 76.745665, 29.4777218 ], [ 76.7456106, 29.4753221 ], [ 76.7483014, 29.4709486 ], [ 76.7549128, 29.4653601 ], [ 76.7624537, 29.4657637 ], [ 76.75471, 29.4581065 ], [ 76.7478251, 29.4437439 ], [ 76.7476574, 29.4414346 ], [ 76.7500083, 29.437713 ], [ 76.7471056, 29.4368475 ], [ 76.7457292, 29.4334194 ], [ 76.7410089, 29.4319947 ], [ 76.7419122, 29.4288724 ], [ 76.7310535, 29.4124663 ], [ 76.7327559, 29.409781 ], [ 76.7405164, 29.406689 ], [ 76.7350832, 29.3942751 ], [ 76.7355003, 29.389421 ], [ 76.7345718, 29.3881226 ], [ 76.7176604, 29.3866243 ], [ 76.7105896, 29.3818746 ], [ 76.6900042, 29.3836456 ], [ 76.687026, 29.3816261 ], [ 76.6877198, 29.3790771 ], [ 76.6856221, 29.376773 ], [ 76.6779733, 29.3752516 ], [ 76.6717367, 29.3755924 ], [ 76.662171, 29.3708679 ], [ 76.6512013, 29.3690437 ], [ 76.649429, 29.3666578 ], [ 76.6477747, 29.3610915 ], [ 76.6482844, 29.3383066 ], [ 76.6459664, 29.3326006 ], [ 76.6411064, 29.3304586 ], [ 76.6371567, 29.320977 ], [ 76.631911, 29.3146034 ], [ 76.641761, 29.3053099 ], [ 76.6367009, 29.2974748 ], [ 76.6442075, 29.2883256 ], [ 76.6547498, 29.28356 ], [ 76.6719388, 29.2786831 ], [ 76.6769152, 29.2804992 ], [ 76.6824634, 29.2741138 ], [ 76.6821213, 29.2694992 ], [ 76.6789392, 29.2648 ], [ 76.6728897, 29.2657858 ], [ 76.6660311, 29.2639792 ], [ 76.6536385, 29.2662966 ], [ 76.648613, 29.2695321 ], [ 76.6461185, 29.2735292 ], [ 76.6342542, 29.2748389 ], [ 76.6208663, 29.2847228 ], [ 76.6107804, 29.28917 ], [ 76.6050687, 29.2884295 ], [ 76.5974242, 29.2802226 ], [ 76.5825777, 29.2852937 ], [ 76.5672667, 29.2812147 ], [ 76.5609328, 29.2809096 ], [ 76.560251, 29.2768358 ], [ 76.5616436, 29.2712292 ], [ 76.5542141, 29.2566686 ], [ 76.5577194, 29.2532871 ], [ 76.5617776, 29.2456983 ], [ 76.5641937, 29.2393118 ], [ 76.56256, 29.2361669 ], [ 76.5651298, 29.2303533 ], [ 76.5684291, 29.2266594 ], [ 76.5598222, 29.2087208 ], [ 76.550672, 29.2103894 ], [ 76.5430728, 29.2097444 ], [ 76.5340555, 29.2139654 ], [ 76.5248133, 29.2212261 ], [ 76.5239453, 29.2254163 ], [ 76.5256055, 29.2316172 ], [ 76.5121149, 29.2322862 ], [ 76.4934365, 29.2389253 ], [ 76.4883893, 29.2396043 ], [ 76.4833959, 29.2425836 ], [ 76.4745327, 29.2379891 ], [ 76.4767087, 29.2354789 ], [ 76.4779795, 29.2222356 ], [ 76.4886244, 29.2106931 ], [ 76.4906239, 29.2067047 ], [ 76.4933397, 29.1960892 ], [ 76.4931643, 29.1903699 ], [ 76.4952943, 29.1851392 ], [ 76.4956297, 29.1781328 ], [ 76.4971738, 29.1754128 ], [ 76.5122005, 29.163184 ], [ 76.5108925, 29.1559762 ], [ 76.5053065, 29.1557954 ], [ 76.5042705, 29.1539945 ], [ 76.4999999, 29.1520371 ], [ 76.489387, 29.1368422 ], [ 76.486533, 29.1299472 ], [ 76.4856904, 29.1156703 ], [ 76.4811454, 29.1070668 ], [ 76.4802799, 29.0995158 ], [ 76.4731824, 29.0831033 ], [ 76.4692431, 29.0827948 ], [ 76.4686289, 29.0793397 ], [ 76.4617053, 29.0659148 ], [ 76.4546001, 29.0608351 ], [ 76.4473815, 29.0613761 ], [ 76.4437374, 29.0557256 ], [ 76.4316795, 29.0599176 ], [ 76.4251204, 29.0653787 ], [ 76.4028182, 29.0756707 ], [ 76.3987974, 29.0755587 ], [ 76.3888754, 29.0690235 ], [ 76.3794784, 29.0656363 ], [ 76.371232, 29.0706933 ], [ 76.3602683, 29.0752083 ], [ 76.3501142, 29.0832231 ], [ 76.3373782, 29.0828143 ], [ 76.3216355, 29.0873833 ], [ 76.3138469, 29.0832839 ], [ 76.3013919, 29.0859656 ], [ 76.3018809, 29.0956375 ], [ 76.3151507, 29.1093472 ], [ 76.3180964, 29.1163214 ], [ 76.3102083, 29.1203424 ], [ 76.3051974, 29.1267987 ], [ 76.3057317, 29.1426406 ], [ 76.3051561, 29.1442797 ], [ 76.3031689, 29.1448405 ], [ 76.298466, 29.1554765 ], [ 76.2954268, 29.1774941 ], [ 76.3001345, 29.1773357 ], [ 76.2989151, 29.178083 ], [ 76.2982758, 29.1828497 ], [ 76.3001436, 29.188135 ], [ 76.2928183, 29.1925271 ], [ 76.2899583, 29.1994404 ], [ 76.2849541, 29.2031254 ], [ 76.2831568, 29.2070548 ], [ 76.2805186, 29.208727 ], [ 76.2741995, 29.2072126 ], [ 76.2689805, 29.2089858 ], [ 76.2591214, 29.2073327 ], [ 76.2479833, 29.2125856 ], [ 76.2410836, 29.2123835 ], [ 76.2368884, 29.2135687 ], [ 76.2249586, 29.2191287 ], [ 76.2232779, 29.2232596 ], [ 76.2280726, 29.2388328 ], [ 76.2115468, 29.2479693 ], [ 76.2146513, 29.253318 ], [ 76.213574, 29.2562111 ], [ 76.2062063, 29.2593507 ], [ 76.202818, 29.2635415 ], [ 76.2071135, 29.2651768 ], [ 76.2021398, 29.2702303 ], [ 76.1981312, 29.2777612 ], [ 76.1867039, 29.2860846 ], [ 76.188309, 29.2917964 ], [ 76.1956701, 29.2988917 ], [ 76.1984662, 29.3055809 ], [ 76.2093105, 29.3193176 ], [ 76.2039702, 29.3231788 ], [ 76.2018249, 29.326844 ], [ 76.1913743, 29.3310213 ], [ 76.1777977, 29.340631 ], [ 76.1816846, 29.3436515 ], [ 76.1860652, 29.3496996 ], [ 76.1981305, 29.3601008 ], [ 76.2066611, 29.3645361 ], [ 76.2069944, 29.3713917 ], [ 76.2054673, 29.373824 ], [ 76.2065375, 29.3811331 ], [ 76.2030387, 29.3858981 ], [ 76.2031301, 29.3958511 ], [ 76.1990745, 29.3975707 ], [ 76.1985185, 29.4028776 ], [ 76.1909165, 29.4102826 ], [ 76.1840904, 29.413132 ], [ 76.1697197, 29.4129024 ], [ 76.1645694, 29.4145449 ], [ 76.1613934, 29.4184982 ], [ 76.1555155, 29.4196458 ], [ 76.153261, 29.4185283 ], [ 76.153043, 29.4142887 ], [ 76.1447053, 29.4111433 ], [ 76.1428966, 29.4093134 ], [ 76.1417606, 29.4054245 ], [ 76.1358053, 29.4000201 ], [ 76.1346389, 29.3947552 ], [ 76.1317998, 29.3900956 ], [ 76.1265139, 29.3934163 ], [ 76.1177684, 29.4036335 ], [ 76.1134698, 29.4059166 ], [ 76.1075232, 29.4071328 ], [ 76.0997487, 29.404185 ], [ 76.0942804, 29.4036299 ], [ 76.0859915, 29.4092027 ], [ 76.0820685, 29.419297 ], [ 76.081114, 29.4235824 ], [ 76.0824201, 29.424754 ], [ 76.0802758, 29.4296086 ], [ 76.0828806, 29.4365815 ], [ 76.0800767, 29.4385536 ], [ 76.0804083, 29.4401753 ], [ 76.0772557, 29.441365 ], [ 76.0511042, 29.4398819 ], [ 76.0447172, 29.4323289 ], [ 76.0397979, 29.4306392 ], [ 76.0359993, 29.4271086 ], [ 76.0295741, 29.4273434 ], [ 76.0273206, 29.4226319 ], [ 76.0199252, 29.4273545 ], [ 76.0196691, 29.4368052 ], [ 76.0166002, 29.4397301 ], [ 76.0118851, 29.4425005 ], [ 76.0059084, 29.4423157 ], [ 76.0057128, 29.4449614 ], [ 76.0007624, 29.4469299 ], [ 75.996042, 29.4471323 ], [ 75.9987632, 29.4607211 ], [ 76.0045246, 29.4625052 ], [ 76.0137751, 29.4806783 ], [ 76.0056643, 29.4865562 ], [ 75.9881564, 29.4888307 ], [ 75.9815388, 29.4919932 ], [ 75.9755299, 29.4919788 ], [ 75.9606424, 29.497186 ], [ 75.9573682, 29.4973044 ], [ 75.9497765, 29.4940829 ], [ 75.933017, 29.4990983 ], [ 75.9338625, 29.5051664 ], [ 75.936936, 29.5111781 ], [ 75.9426577, 29.5156211 ], [ 75.9494613, 29.5173562 ], [ 75.955921, 29.5289903 ], [ 75.9604121, 29.5389197 ], [ 75.9593685, 29.5420367 ], [ 75.9635322, 29.5527792 ], [ 75.9630278, 29.5612695 ], [ 75.9642676, 29.5635893 ], [ 75.9608859, 29.5701599 ], [ 75.9601228, 29.5758113 ], [ 75.9604894, 29.5819827 ], [ 75.9623901, 29.5857244 ], [ 75.961418, 29.591442 ], [ 75.9567476, 29.5938097 ], [ 75.9487074, 29.5938305 ], [ 75.9526064, 29.6006787 ], [ 75.9516844, 29.6062709 ], [ 75.9552511, 29.6120189 ], [ 75.9573456, 29.6128606 ], [ 75.9549211, 29.6138493 ], [ 75.9571144, 29.6209962 ], [ 75.9566556, 29.6269835 ], [ 75.9468431, 29.6386477 ], [ 75.9470335, 29.6414179 ], [ 75.9413509, 29.6415007 ], [ 75.9435126, 29.647388 ], [ 75.9487097, 29.6550212 ], [ 75.9486007, 29.6605344 ], [ 75.951409, 29.6702104 ], [ 75.9429229, 29.6818675 ], [ 75.9365052, 29.6817706 ], [ 75.933588, 29.6846352 ], [ 75.9400233, 29.6923625 ], [ 75.9403269, 29.6953857 ], [ 75.9447546, 29.7030087 ], [ 75.947455, 29.7191124 ], [ 75.9473396, 29.7293784 ], [ 75.9507284, 29.731934 ], [ 75.9548523, 29.7319309 ], [ 75.9675732, 29.729409 ], [ 75.9734567, 29.7304018 ], [ 75.9753526, 29.7286364 ], [ 75.9844116, 29.7271084 ], [ 75.9888874, 29.7339271 ], [ 75.9949024, 29.7392608 ], [ 75.998968, 29.7410178 ], [ 76.0071129, 29.7407376 ], [ 76.0167744, 29.742996 ], [ 76.0193778, 29.7476691 ], [ 76.0240644, 29.7489753 ], [ 76.0250894, 29.7547274 ], [ 76.0267791, 29.7562564 ], [ 76.0306835, 29.7547211 ], [ 76.0308203, 29.7479899 ], [ 76.031796, 29.7467994 ], [ 76.0362937, 29.7437174 ], [ 76.0438473, 29.7426771 ], [ 76.0496327, 29.7481047 ], [ 76.049485, 29.7518571 ], [ 76.0543985, 29.7577178 ], [ 76.0568182, 29.7653516 ], [ 76.0602422, 29.7646414 ], [ 76.0621082, 29.7681302 ], [ 76.0663426, 29.7713091 ], [ 76.0670968, 29.7739665 ], [ 76.0725537, 29.7785786 ], [ 76.0739982, 29.776019 ], [ 76.0767787, 29.7748845 ], [ 76.0826487, 29.7811587 ], [ 76.0847176, 29.7845246 ], [ 76.0829594, 29.7879558 ], [ 76.0849957, 29.8007287 ], [ 76.0895303, 29.8011335 ], [ 76.0980828, 29.810605 ], [ 76.1050888, 29.8118256 ], [ 76.1098302, 29.8073483 ], [ 76.1130963, 29.8060376 ], [ 76.1158484, 29.8023056 ], [ 76.1200098, 29.8008662 ], [ 76.1196724, 29.7922837 ], [ 76.1239504, 29.7909116 ], [ 76.1247384, 29.7934529 ], [ 76.1292651, 29.7969321 ], [ 76.1332251, 29.804448 ], [ 76.1417267, 29.8108327 ], [ 76.1418459, 29.8157198 ], [ 76.1454877, 29.8190797 ], [ 76.1532645, 29.8200256 ], [ 76.1608527, 29.8194045 ], [ 76.1644926, 29.8176107 ], [ 76.1737398, 29.8179065 ], [ 76.1848718, 29.8227205 ], [ 76.1978174, 29.8447618 ], [ 76.2021379, 29.8431107 ] ] ] } }
]
}
