{
"type": "FeatureCollection",
"name": "0610",
"crs": { "type": "name", "properties": { "name": "urn:ogc:def:crs:OGC:1.3:CRS84" } },
"features": [
{ "type": "Feature", "properties": { "code": "0610", "name": "Fatehabad", "type": "district" }, "geometry": { "type": "Polygon", "coordinates": [ [ [ 75.8049831, 29.8048361 ], [ 75.811489, 29.805534 ], [ 75.8158292, 29.8041602 ], [ 75.8224268, 29.8077941 ], [ 75.8245134, 29.8137805 ], [ 75.8258527, 29.8145117 ], [ 75.830297, 29.8117844 ], [ 75.8348373, 29.8144605 ], [ 75.8377552, 29.813018 ], [ 75.8349275, 29.8087953 ], [ 75.8354366, 29.8031886 ], [ 75.8379936, 29.7970955 ], [ 75.8370121, 29.794249 ], [ 75.8404944, 29.7886477 ], [ 75.8436846, 29.7898348 ], [ 75.8458277, 29.782271 ], [ 75.8529126, 29.7780368 ], [ 75.8535593, 29.7763814 ], [ 75.8514143, 29.7726959 ], [ 75.8583222, 29.7707979 ], [ 75.8597135, 29.7679969 ], [ 75.866745, 29.7665316 ], [ 75.8682187, 29.7603791 ], [ 75.8703643, 29.7575375 ], [ 75.8692531, 29.7519667 ], [ 75.8702502, 29.7493027 ], [ 75.882383, 29.7510013 ], [ 75.8844958, 29.7495115 ], [ 75.8859508, 29.7453821 ], [ 75.8988399, 29.7462411 ], [ 75.8988911, 29.74789 ], [ 75.9007322, 29.7478068 ], [ 75.9008031, 29.7488754 ], [ 75.9044753, 29.748921 ], [ 75.9026983, 29.751621 ], [ 75.9063117, 29.7533315 ], [ 75.9146099, 29.7479557 ], [ 75.9149666, 29.7430244 ], [ 75.9194422, 29.741335 ], [ 75.9223931, 29.7376626 ], [ 75.9293591, 29.7355451 ], [ 75.9386924, 29.730664 ], [ 75.9411316, 29.7315356 ], [ 75.9473396, 29.7293784 ], [ 75.947455, 29.7191124 ], [ 75.9447546, 29.7030087 ], [ 75.9403269, 29.6953857 ], [ 75.9400233, 29.6923625 ], [ 75.933588, 29.6846352 ], [ 75.9365052, 29.6817706 ], [ 75.9429229, 29.6818675 ], [ 75.951409, 29.6702104 ], [ 75.9486007, 29.6605344 ], [ 75.9487097, 29.6550212 ], [ 75.9435126, 29.647388 ], [ 75.9413509, 29.6415007 ], [ 75.9470335, 29.6414179 ], [ 75.9468431, 29.6386477 ], [ 75.9566556, 29.6269835 ], [ 75.9571144, 29.6209962 ], [ 75.9549211, 29.6138493 ], [ 75.9573456, 29.6128606 ], [ 75.9552511, 29.6120189 ], [ 75.9516844, 29.6062709 ], [ 75.9526064, 29.6006787 ], [ 75.9487074, 29.5938305 ], [ 75.9567476, 29.5938097 ], [ 75.961418, 29.591442 ], [ 75.9623901, 29.5857244 ], [ 75.9604894, 29.5819827 ], [ 75.9601228, 29.5758113 ], [ 75.9608859, 29.5701599 ], [ 75.9642609, 29.5645047 ], [ 75.9640903, 29.562507 ], [ 75.953216, 29.5697002 ], [ 75.9492653, 29.570435 ], [ 75.9464155, 29.575281 ], [ 75.9434731, 29.5749634 ], [ 75.9419491, 29.5760535 ], [ 75.9403409, 29.5796977 ], [ 75.9348225, 29.5802446 ], [ 75.9266164, 29.5760792 ], [ 75.9244667, 29.5717605 ], [ 75.9229592, 29.562798 ], [ 75.9210477, 29.5616155 ], [ 75.9163859, 29.5540475 ], [ 75.9131437, 29.5537104 ], [ 75.8945312, 29.5577974 ], [ 75.8941868, 29.5534778 ], [ 75.8971268, 29.5468938 ], [ 75.8957098, 29.5467062 ], [ 75.8969762, 29.5456918 ], [ 75.8942693, 29.5363522 ], [ 75.8766898, 29.5377871 ], [ 75.8724391, 29.5451652 ], [ 75.8720739, 29.5557696 ], [ 75.8581849, 29.5503428 ], [ 75.8536344, 29.5448428 ], [ 75.852265, 29.539236 ], [ 75.8550578, 29.536307 ], [ 75.8545551, 29.525881 ], [ 75.8479527, 29.5203543 ], [ 75.8397631, 29.5098234 ], [ 75.8342003, 29.5084895 ], [ 75.8243217, 29.5113621 ], [ 75.8163575, 29.5181389 ], [ 75.8054237, 29.5214453 ], [ 75.8018807, 29.5210111 ], [ 75.798777, 29.5154421 ], [ 75.7878446, 29.5181262 ], [ 75.78132, 29.5121386 ], [ 75.7618513, 29.5065673 ], [ 75.7548738, 29.4946188 ], [ 75.7518331, 29.4802774 ], [ 75.7558304, 29.4768614 ], [ 75.7723299, 29.4471875 ], [ 75.7760735, 29.441841 ], [ 75.7792097, 29.4407307 ], [ 75.7809993, 29.4374622 ], [ 75.7716071, 29.4150042 ], [ 75.7684636, 29.4150539 ], [ 75.756841, 29.4087307 ], [ 75.7540355, 29.4049922 ], [ 75.7455629, 29.4014073 ], [ 75.738096, 29.39644 ], [ 75.7310233, 29.3996603 ], [ 75.7241714, 29.4050135 ], [ 75.7306859, 29.4173467 ], [ 75.7195143, 29.4250066 ], [ 75.7166764, 29.4289929 ], [ 75.7105004, 29.4303752 ], [ 75.7013713, 29.4243768 ], [ 75.6943595, 29.4256365 ], [ 75.6715, 29.4242149 ], [ 75.6603404, 29.4249837 ], [ 75.6462816, 29.420531 ], [ 75.6385388, 29.4145983 ], [ 75.6365144, 29.4164265 ], [ 75.6308776, 29.416715 ], [ 75.6240295, 29.4094099 ], [ 75.6239332, 29.407136 ], [ 75.6215721, 29.407869 ], [ 75.6201063, 29.403273 ], [ 75.6160863, 29.4032195 ], [ 75.6141429, 29.3876826 ], [ 75.6165555, 29.384463 ], [ 75.6153104, 29.371448 ], [ 75.6092813, 29.3716807 ], [ 75.6025652, 29.3693827 ], [ 75.5955024, 29.3605607 ], [ 75.5992483, 29.358969 ], [ 75.6046142, 29.3534439 ], [ 75.604994, 29.3444982 ], [ 75.6006139, 29.3379656 ], [ 75.5904153, 29.3368559 ], [ 75.5876439, 29.3376533 ], [ 75.5855367, 29.3402077 ], [ 75.5837723, 29.3460142 ], [ 75.5840321, 29.3545374 ], [ 75.5805094, 29.3582847 ], [ 75.5723633, 29.3597594 ], [ 75.5600976, 29.3568332 ], [ 75.559882, 29.3607375 ], [ 75.5297308, 29.3626476 ], [ 75.5245076, 29.3707594 ], [ 75.516557, 29.3980468 ], [ 75.4907844, 29.3931807 ], [ 75.481957, 29.3897283 ], [ 75.4759605, 29.3837109 ], [ 75.4713388, 29.3765825 ], [ 75.4674509, 29.3657094 ], [ 75.469368, 29.3617339 ], [ 75.473804, 29.3588167 ], [ 75.4496856, 29.3532073 ], [ 75.4473153, 29.3579135 ], [ 75.4408058, 29.3646698 ], [ 75.4388831, 29.3697817 ], [ 75.4278308, 29.3686453 ], [ 75.4274058, 29.3633316 ], [ 75.4236119, 29.3553577 ], [ 75.4157917, 29.3461219 ], [ 75.4103024, 29.3436695 ], [ 75.4005145, 29.3417276 ], [ 75.3984796, 29.3367433 ], [ 75.398506, 29.3177522 ], [ 75.3814734, 29.3126478 ], [ 75.3649724, 29.3098418 ], [ 75.3578389, 29.3099043 ], [ 75.3549416, 29.3076439 ], [ 75.3553437, 29.3046487 ], [ 75.3535896, 29.2996277 ], [ 75.3505023, 29.2974168 ], [ 75.348018, 29.2922738 ], [ 75.3470942, 29.2829132 ], [ 75.3406423, 29.2807706 ], [ 75.3400295, 29.2827988 ], [ 75.3350368, 29.2868845 ], [ 75.3220477, 29.2894919 ], [ 75.3161755, 29.2817757 ], [ 75.3057917, 29.2746027 ], [ 75.2974227, 29.271824 ], [ 75.2874145, 29.2733245 ], [ 75.2849743, 29.269087 ], [ 75.2852712, 29.2588382 ], [ 75.2840472, 29.2584585 ], [ 75.2841124, 29.2545971 ], [ 75.2830887, 29.2545964 ], [ 75.2837681, 29.2497884 ], [ 75.277678, 29.2498332 ], [ 75.2717079, 29.2515207 ], [ 75.2557047, 29.2518141 ], [ 75.2451857, 29.2501815 ], [ 75.2339959, 29.2686482 ], [ 75.2373761, 29.2780192 ], [ 75.2381627, 29.2867788 ], [ 75.2410716, 29.2971741 ], [ 75.2354298, 29.3100983 ], [ 75.2283474, 29.3198207 ], [ 75.2256251, 29.3257592 ], [ 75.2361938, 29.3356388 ], [ 75.2539858, 29.3359561 ], [ 75.2562035, 29.3369415 ], [ 75.25776, 29.3399968 ], [ 75.2651573, 29.3457004 ], [ 75.2635871, 29.3598048 ], [ 75.243258, 29.3763303 ], [ 75.2276718, 29.379749 ], [ 75.2200042, 29.3976406 ], [ 75.2335102, 29.4115373 ], [ 75.2350894, 29.4187264 ], [ 75.2407256, 29.4183606 ], [ 75.2660078, 29.4226124 ], [ 75.2854636, 29.4227756 ], [ 75.3011156, 29.4392544 ], [ 75.3020565, 29.4422457 ], [ 75.292721, 29.4517537 ], [ 75.2809756, 29.4736508 ], [ 75.2810833, 29.4798578 ], [ 75.2876912, 29.4936881 ], [ 75.2803461, 29.4999986 ], [ 75.2739722, 29.5092404 ], [ 75.2779839, 29.5150398 ], [ 75.2891566, 29.5185072 ], [ 75.2956665, 29.5235813 ], [ 75.3022627, 29.5241669 ], [ 75.2997913, 29.5253294 ], [ 75.2960795, 29.5298742 ], [ 75.2948746, 29.5337798 ], [ 75.2969087, 29.5380844 ], [ 75.302833, 29.5418632 ], [ 75.3038335, 29.5497712 ], [ 75.3009605, 29.5562157 ], [ 75.3029893, 29.5596702 ], [ 75.3094755, 29.5608347 ], [ 75.3113003, 29.5801418 ], [ 75.3199402, 29.5874124 ], [ 75.3170384, 29.5899779 ], [ 75.3140248, 29.5892503 ], [ 75.305639, 29.5956696 ], [ 75.3034561, 29.6025835 ], [ 75.2937655, 29.6052618 ], [ 75.2896024, 29.6085567 ], [ 75.2949188, 29.6157095 ], [ 75.2958097, 29.625115 ], [ 75.3073024, 29.6247695 ], [ 75.3111715, 29.6294941 ], [ 75.3161327, 29.6302271 ], [ 75.3190168, 29.6339497 ], [ 75.3234942, 29.6424678 ], [ 75.3210235, 29.6472572 ], [ 75.3222554, 29.6516061 ], [ 75.3318662, 29.6631751 ], [ 75.3332205, 29.6730901 ], [ 75.3410606, 29.6752484 ], [ 75.348656, 29.666576 ], [ 75.3581035, 29.6607451 ], [ 75.3601691, 29.6625993 ], [ 75.3598429, 29.6681339 ], [ 75.3542633, 29.6748947 ], [ 75.353689, 29.6795858 ], [ 75.3488523, 29.6865856 ], [ 75.3457294, 29.6960034 ], [ 75.3514486, 29.6960631 ], [ 75.3586087, 29.6997494 ], [ 75.3579156, 29.7043909 ], [ 75.359078, 29.7055006 ], [ 75.3646533, 29.7039179 ], [ 75.3708173, 29.704464 ], [ 75.3700213, 29.7112751 ], [ 75.3750593, 29.7139636 ], [ 75.3786454, 29.712872 ], [ 75.3802266, 29.714207 ], [ 75.3840245, 29.7121996 ], [ 75.3922664, 29.7132858 ], [ 75.3892491, 29.7161324 ], [ 75.3911354, 29.7169802 ], [ 75.3907533, 29.7190326 ], [ 75.3934721, 29.7219778 ], [ 75.3881604, 29.7279822 ], [ 75.3883055, 29.7302014 ], [ 75.3910863, 29.7324383 ], [ 75.3954847, 29.7335609 ], [ 75.3964473, 29.7394562 ], [ 75.4013319, 29.7402041 ], [ 75.4047842, 29.7389945 ], [ 75.4056227, 29.759445 ], [ 75.4139552, 29.7699932 ], [ 75.4163176, 29.769149 ], [ 75.4193841, 29.7702081 ], [ 75.4214234, 29.7750834 ], [ 75.4217171, 29.7730129 ], [ 75.4278015, 29.7709447 ], [ 75.4377598, 29.7796864 ], [ 75.4473906, 29.7837682 ], [ 75.451205, 29.7814384 ], [ 75.4539769, 29.7820007 ], [ 75.4558558, 29.7842819 ], [ 75.4560522, 29.7904749 ], [ 75.4581811, 29.7947496 ], [ 75.4528756, 29.8018437 ], [ 75.4551904, 29.8057033 ], [ 75.4616159, 29.807729 ], [ 75.4727694, 29.799548 ], [ 75.4795993, 29.7927813 ], [ 75.4855451, 29.7915224 ], [ 75.4921731, 29.7857746 ], [ 75.4972856, 29.7843897 ], [ 75.5027654, 29.7778803 ], [ 75.5189229, 29.7755662 ], [ 75.5197874, 29.7726929 ], [ 75.5232655, 29.7691506 ], [ 75.5219551, 29.7598287 ], [ 75.523039, 29.758403 ], [ 75.5249187, 29.761852 ], [ 75.5271672, 29.761622 ], [ 75.5286647, 29.7631592 ], [ 75.532702, 29.7706155 ], [ 75.5379611, 29.7733332 ], [ 75.5407038, 29.7735792 ], [ 75.5448938, 29.7707915 ], [ 75.5621243, 29.770223 ], [ 75.5651047, 29.7667448 ], [ 75.5697434, 29.7568016 ], [ 75.5721401, 29.743345 ], [ 75.5800993, 29.7390913 ], [ 75.5889916, 29.7468765 ], [ 75.6009622, 29.7494624 ], [ 75.6052692, 29.7519471 ], [ 75.6068799, 29.74893 ], [ 75.616758, 29.7440832 ], [ 75.6205748, 29.7467367 ], [ 75.6274519, 29.7483603 ], [ 75.6344918, 29.7552757 ], [ 75.6351784, 29.7722929 ], [ 75.6377849, 29.7738867 ], [ 75.640264, 29.7724985 ], [ 75.6424632, 29.7750914 ], [ 75.6501118, 29.7756858 ], [ 75.6559751, 29.7737571 ], [ 75.6609813, 29.7768277 ], [ 75.6640844, 29.7752057 ], [ 75.6680817, 29.7773966 ], [ 75.6771746, 29.7765788 ], [ 75.6817126, 29.7722733 ], [ 75.6826695, 29.7669393 ], [ 75.6898689, 29.7594025 ], [ 75.6913603, 29.7559248 ], [ 75.7031463, 29.7522799 ], [ 75.7064467, 29.7531964 ], [ 75.7092472, 29.756534 ], [ 75.7057475, 29.7596843 ], [ 75.7046684, 29.7636202 ], [ 75.7073922, 29.7692776 ], [ 75.7103134, 29.7705976 ], [ 75.7123757, 29.774061 ], [ 75.7098121, 29.7779824 ], [ 75.7101292, 29.7804128 ], [ 75.7142106, 29.7840819 ], [ 75.716649, 29.7887208 ], [ 75.7127504, 29.7926405 ], [ 75.7146003, 29.7959831 ], [ 75.7141712, 29.8018469 ], [ 75.7179769, 29.803004 ], [ 75.718069, 29.8086483 ], [ 75.7209704, 29.8099185 ], [ 75.7206756, 29.8135434 ], [ 75.7326001, 29.8125168 ], [ 75.7378165, 29.8140354 ], [ 75.7468889, 29.8073199 ], [ 75.7506323, 29.8075975 ], [ 75.7561747, 29.8049955 ], [ 75.7719927, 29.818315 ], [ 75.7794325, 29.8222899 ], [ 75.7829721, 29.8208039 ], [ 75.7870679, 29.8160614 ], [ 75.7887946, 29.8111009 ], [ 75.8049831, 29.8048361 ] ] ] } }
]
}
