{
"type": "FeatureCollection",
"name": "0615",
"crs": { "type": "name", "properties": { "name": "urn:ogc:def:crs:OGC:1.3:CRS84" } },
"features": [
{ "type": "Feature", "properties": { "code": "0615", "name": "Jhajjar", "type": "district" }, "geometry": { "type": "Polygon", "coordinates": [ [ [ 76.6693901, 28.8025653 ], [ 76.6706011, 28.7960731 ], [ 76.675107, 28.7941225 ], [ 76.7002837, 28.7874746 ], [ 76.7089327, 28.787131 ], [ 76.710216, 28.778252 ], [ 76.7083086, 28.7686846 ], [ 76.7062175, 28.7660738 ], [ 76.7036732, 28.7665219 ], [ 76.6979319, 28.7638635 ], [ 76.692904, 28.7635414 ], [ 76.6907497, 28.7571227 ], [ 76.6904748, 28.7515785 ], [ 76.6868916, 28.7434704 ], [ 76.6969966, 28.7365991 ], [ 76.7051496, 28.7355839 ], [ 76.7090708, 28.7361679 ], [ 76.7154221, 28.7530256 ], [ 76.7144334, 28.7581422 ], [ 76.7214235, 28.7602711 ], [ 76.7294289, 28.7585328 ], [ 76.7359773, 28.7588975 ], [ 76.7405519, 28.7567553 ], [ 76.7499999, 28.7673234 ], [ 76.7570456, 28.769354 ], [ 76.7640102, 28.7660992 ], [ 76.7675377, 28.7626491 ], [ 76.76727, 28.755651 ], [ 76.7643995, 28.7511445 ], [ 76.771148, 28.7485183 ], [ 76.7795949, 28.743038 ], [ 76.7860095, 28.7484445 ], [ 76.7915265, 28.7564495 ], [ 76.8061949, 28.7709554 ], [ 76.8077513, 28.7741994 ], [ 76.8190404, 28.7837625 ], [ 76.8203708, 28.791163 ], [ 76.8341277, 28.8103875 ], [ 76.8500634, 28.8076169 ], [ 76.8547172, 28.8135689 ], [ 76.8632529, 28.8158278 ], [ 76.8696307, 28.8237487 ], [ 76.885248, 28.8151388 ], [ 76.8870406, 28.8126185 ], [ 76.887497, 28.8045582 ], [ 76.8894899, 28.8000021 ], [ 76.8964332, 28.7952247 ], [ 76.8981683, 28.7973196 ], [ 76.9003295, 28.7953398 ], [ 76.9017661, 28.7960073 ], [ 76.9121086, 28.7934975 ], [ 76.9231661, 28.8009236 ], [ 76.9458582, 28.7980512 ], [ 76.9538477, 28.7909094 ], [ 76.9500661, 28.7832641 ], [ 76.9498111, 28.7770615 ], [ 76.9555727, 28.7677777 ], [ 76.9465064, 28.7587965 ], [ 76.9445025, 28.7539918 ], [ 76.9582803, 28.7432289 ], [ 76.9559347, 28.7382278 ], [ 76.9600605, 28.7327359 ], [ 76.9594017, 28.7292533 ], [ 76.9481975, 28.712988 ], [ 76.96783, 28.6996287 ], [ 76.9580329, 28.6846294 ], [ 76.9558621, 28.6724384 ], [ 76.9537999, 28.6677218 ], [ 76.9524127, 28.6696052 ], [ 76.9488528, 28.6701889 ], [ 76.9353352, 28.6678607 ], [ 76.9308402, 28.6584636 ], [ 76.9249643, 28.6501463 ], [ 76.9364969, 28.6378315 ], [ 76.9444577, 28.6332914 ], [ 76.9429948, 28.6279975 ], [ 76.9352631, 28.6188092 ], [ 76.9274602, 28.6235631 ], [ 76.9242608, 28.6281385 ], [ 76.9197782, 28.6316266 ], [ 76.9142888, 28.6323495 ], [ 76.9064684, 28.6237969 ], [ 76.893269, 28.6316928 ], [ 76.8883336, 28.6319557 ], [ 76.8823964, 28.6227935 ], [ 76.8773413, 28.6088315 ], [ 76.8717647, 28.6028581 ], [ 76.8678826, 28.5906256 ], [ 76.8640369, 28.5859049 ], [ 76.8461111, 28.584801 ], [ 76.8395331, 28.5827923 ], [ 76.8389109, 28.5734745 ], [ 76.8406887, 28.5716591 ], [ 76.8424094, 28.556304 ], [ 76.8452722, 28.5505032 ], [ 76.8647152, 28.5435011 ], [ 76.8673803, 28.535555 ], [ 76.8732064, 28.532754 ], [ 76.8745814, 28.5270139 ], [ 76.8770282, 28.5244037 ], [ 76.8871264, 28.520573 ], [ 76.880409, 28.5062008 ], [ 76.8856851, 28.5024459 ], [ 76.8849286, 28.5004034 ], [ 76.8749627, 28.4980371 ], [ 76.861242, 28.5014203 ], [ 76.8498001, 28.5019646 ], [ 76.8461767, 28.5000872 ], [ 76.8279273, 28.5048415 ], [ 76.8239199, 28.5046742 ], [ 76.8244705, 28.4990223 ], [ 76.8182818, 28.4893588 ], [ 76.813491, 28.4856989 ], [ 76.8139731, 28.4799174 ], [ 76.8106798, 28.4750133 ], [ 76.8051118, 28.4756834 ], [ 76.8002868, 28.470406 ], [ 76.7957446, 28.471654 ], [ 76.7919463, 28.4658712 ], [ 76.7688672, 28.4791566 ], [ 76.7585275, 28.4608138 ], [ 76.7493288, 28.4626284 ], [ 76.7340304, 28.4721737 ], [ 76.7352839, 28.4795085 ], [ 76.7178321, 28.4918967 ], [ 76.7132504, 28.4907673 ], [ 76.7096679, 28.4935713 ], [ 76.7042847, 28.4927039 ], [ 76.7053725, 28.4793897 ], [ 76.7074986, 28.4754363 ], [ 76.7084368, 28.4674278 ], [ 76.7056685, 28.4592816 ], [ 76.711563, 28.4570582 ], [ 76.7109006, 28.4459963 ], [ 76.7134074, 28.4404996 ], [ 76.7170903, 28.4377677 ], [ 76.7078352, 28.4164881 ], [ 76.7064, 28.4081696 ], [ 76.7072467, 28.4013386 ], [ 76.714063, 28.3947428 ], [ 76.7161809, 28.3954498 ], [ 76.7267985, 28.3904794 ], [ 76.7289646, 28.3881543 ], [ 76.7285177, 28.3851635 ], [ 76.7310665, 28.383217 ], [ 76.7298104, 28.3820179 ], [ 76.7333642, 28.3801969 ], [ 76.7346457, 28.3762798 ], [ 76.7320593, 28.371107 ], [ 76.7325566, 28.3685621 ], [ 76.7290694, 28.3651225 ], [ 76.729598, 28.3632813 ], [ 76.7251094, 28.3576453 ], [ 76.7136888, 28.3562681 ], [ 76.7048681, 28.3595897 ], [ 76.7016797, 28.3586801 ], [ 76.6964075, 28.3609162 ], [ 76.6948582, 28.3625368 ], [ 76.696631, 28.3669076 ], [ 76.6895698, 28.3721446 ], [ 76.6803295, 28.3772108 ], [ 76.6659453, 28.37995 ], [ 76.6628091, 28.3827119 ], [ 76.6634331, 28.3873542 ], [ 76.6599098, 28.3928187 ], [ 76.64955, 28.4025165 ], [ 76.65003, 28.4035314 ], [ 76.6423206, 28.4060502 ], [ 76.641959, 28.4106881 ], [ 76.6339634, 28.4145328 ], [ 76.6363671, 28.4164049 ], [ 76.6340301, 28.4180518 ], [ 76.6326933, 28.4216747 ], [ 76.6255751, 28.4260846 ], [ 76.6142136, 28.4298225 ], [ 76.6111465, 28.4276566 ], [ 76.5980543, 28.434156 ], [ 76.5836921, 28.4369236 ], [ 76.5704012, 28.414545 ], [ 76.5643838, 28.4073105 ], [ 76.5624598, 28.4077336 ], [ 76.5606247, 28.4046198 ], [ 76.5526732, 28.4075123 ], [ 76.5481223, 28.4065083 ], [ 76.5355341, 28.4067533 ], [ 76.5092809, 28.4166366 ], [ 76.5065842, 28.4287818 ], [ 76.5005024, 28.430899 ], [ 76.4998387, 28.4291147 ], [ 76.4980035, 28.4290572 ], [ 76.4901018, 28.4325923 ], [ 76.4849316, 28.4276383 ], [ 76.4589376, 28.4258298 ], [ 76.4546143, 28.4180139 ], [ 76.4443338, 28.4216919 ], [ 76.4400235, 28.424789 ], [ 76.4452672, 28.4377869 ], [ 76.4419914, 28.4375423 ], [ 76.4360617, 28.4399053 ], [ 76.4370286, 28.4522343 ], [ 76.4407065, 28.456117 ], [ 76.4256806, 28.4624081 ], [ 76.4192229, 28.4634525 ], [ 76.3987835, 28.4728689 ], [ 76.397777, 28.4698779 ], [ 76.3957906, 28.4685247 ], [ 76.3703139, 28.4707956 ], [ 76.3671081, 28.462765 ], [ 76.3667105, 28.4551405 ], [ 76.3646226, 28.4550456 ], [ 76.3434461, 28.4597435 ], [ 76.3383497, 28.4641996 ], [ 76.3254064, 28.4672228 ], [ 76.3204998, 28.4675999 ], [ 76.3183171, 28.4617708 ], [ 76.3142648, 28.4655701 ], [ 76.3153838, 28.4681347 ], [ 76.3141326, 28.4687432 ], [ 76.3146169, 28.4698893 ], [ 76.2930824, 28.4687638 ], [ 76.2853943, 28.4738887 ], [ 76.2827458, 28.478033 ], [ 76.2856946, 28.487234 ], [ 76.2913233, 28.4984983 ], [ 76.2948831, 28.4980447 ], [ 76.3031757, 28.4997547 ], [ 76.3105101, 28.4985583 ], [ 76.3143105, 28.4972291 ], [ 76.3201451, 28.4922102 ], [ 76.3240821, 28.4928975 ], [ 76.3271857, 28.4958807 ], [ 76.3322001, 28.5100919 ], [ 76.3356783, 28.5380282 ], [ 76.3391454, 28.5434339 ], [ 76.342175, 28.5608941 ], [ 76.342046, 28.5649363 ], [ 76.3400466, 28.5689421 ], [ 76.3373267, 28.5721941 ], [ 76.3347967, 28.5729423 ], [ 76.3354602, 28.5753742 ], [ 76.3341697, 28.5823801 ], [ 76.3426751, 28.580077 ], [ 76.3458635, 28.6021117 ], [ 76.3505089, 28.608555 ], [ 76.3536831, 28.6109059 ], [ 76.3569694, 28.616663 ], [ 76.3585543, 28.6167489 ], [ 76.3601611, 28.6070765 ], [ 76.3731359, 28.5997417 ], [ 76.3936088, 28.5989147 ], [ 76.4014187, 28.5953447 ], [ 76.4027368, 28.5926647 ], [ 76.4020562, 28.5896963 ], [ 76.4039211, 28.586759 ], [ 76.4017515, 28.5776237 ], [ 76.4034965, 28.5669536 ], [ 76.4026622, 28.5621175 ], [ 76.4040237, 28.5516731 ], [ 76.4098783, 28.5489378 ], [ 76.4125564, 28.5511252 ], [ 76.4212017, 28.551154 ], [ 76.4265099, 28.5706958 ], [ 76.4267307, 28.5830526 ], [ 76.4285544, 28.5912718 ], [ 76.4328219, 28.5994583 ], [ 76.4356963, 28.602209 ], [ 76.448259, 28.5983365 ], [ 76.4514794, 28.6053861 ], [ 76.4540448, 28.6042838 ], [ 76.458445, 28.6090362 ], [ 76.4655655, 28.6138633 ], [ 76.4657204, 28.6154096 ], [ 76.4609168, 28.6183508 ], [ 76.4615007, 28.619564 ], [ 76.4577591, 28.6208566 ], [ 76.4580414, 28.6222234 ], [ 76.4471547, 28.635182 ], [ 76.4399359, 28.6378881 ], [ 76.4380305, 28.6411598 ], [ 76.4478443, 28.6446064 ], [ 76.4504767, 28.6540064 ], [ 76.449739, 28.659452 ], [ 76.4372471, 28.6652511 ], [ 76.4011199, 28.666427 ], [ 76.4034147, 28.6782825 ], [ 76.4145266, 28.6932621 ], [ 76.4200002, 28.7028786 ], [ 76.4173593, 28.7140181 ], [ 76.4145415, 28.7188235 ], [ 76.4153366, 28.7234926 ], [ 76.4200863, 28.7242941 ], [ 76.4252494, 28.7224245 ], [ 76.4311221, 28.7271681 ], [ 76.440177, 28.728919 ], [ 76.4453308, 28.7361165 ], [ 76.4657767, 28.7392532 ], [ 76.4709534, 28.741203 ], [ 76.4754582, 28.7415786 ], [ 76.4907247, 28.7390716 ], [ 76.4931691, 28.7368321 ], [ 76.5030539, 28.7429659 ], [ 76.5231199, 28.7374965 ], [ 76.5302382, 28.7507228 ], [ 76.5644199, 28.7404039 ], [ 76.577496, 28.7339088 ], [ 76.5877039, 28.7431551 ], [ 76.5944578, 28.7535538 ], [ 76.5963575, 28.7711845 ], [ 76.5953869, 28.781389 ], [ 76.6038859, 28.7886448 ], [ 76.6041925, 28.7922223 ], [ 76.6150651, 28.7893181 ], [ 76.6267667, 28.7892509 ], [ 76.6327946, 28.7934822 ], [ 76.6399249, 28.8038756 ], [ 76.6452415, 28.8041502 ], [ 76.6453293, 28.80849 ], [ 76.6327507, 28.8208975 ], [ 76.631757, 28.8250656 ], [ 76.6322495, 28.8313141 ], [ 76.643404, 28.8395551 ], [ 76.6454125, 28.8391488 ], [ 76.6523269, 28.830531 ], [ 76.6544262, 28.8265605 ], [ 76.6556481, 28.8183181 ], [ 76.6695893, 28.8131713 ], [ 76.6693901, 28.8025653 ] ] ] } }
]
}
