{
"type": "FeatureCollection",
"name": "0616",
"crs": { "type": "name", "properties": { "name": "urn:ogc:def:crs:OGC:1.3:CRS84" } },
"features": [
{ "type": "Feature", "properties": { "code": "0616", "name": "Mahendragarh", "type": "district" }, "geometry": { "type": "Polygon", "coordinates": [ [ [ 76.2444976, 28.4433136 ], [ 76.2457526, 28.4397416 ], [ 76.249906, 28.4364904 ], [ 76.2542153, 28.4358865 ], [ 76.2553103, 28.4379627 ], [ 76.259087, 28.4382502 ], [ 76.2658093, 28.4373858 ], [ 76.2660979, 28.435319 ], [ 76.274066, 28.4343325 ], [ 76.2828631, 28.4307927 ], [ 76.2849192, 28.431561 ], [ 76.2880751, 28.4293478 ], [ 76.2849368, 28.4168036 ], [ 76.2801447, 28.4056297 ], [ 76.2891632, 28.4026129 ], [ 76.2910608, 28.4033404 ], [ 76.3018791, 28.4015104 ], [ 76.2991161, 28.3979718 ], [ 76.2984619, 28.3923906 ], [ 76.2972686, 28.3917267 ], [ 76.2983995, 28.3868684 ], [ 76.2976322, 28.3827489 ], [ 76.3059058, 28.3761528 ], [ 76.3278833, 28.3717677 ], [ 76.3287129, 28.3641389 ], [ 76.3343483, 28.3627628 ], [ 76.3356035, 28.3644749 ], [ 76.3509455, 28.3669778 ], [ 76.3545315, 28.3656926 ], [ 76.3573638, 28.356196 ], [ 76.3567539, 28.3435093 ], [ 76.3680091, 28.3349607 ], [ 76.3675509, 28.3227296 ], [ 76.3584096, 28.3206896 ], [ 76.3556531, 28.3101681 ], [ 76.3506263, 28.3111824 ], [ 76.3488836, 28.3080239 ], [ 76.3471399, 28.3086462 ], [ 76.3465951, 28.3064805 ], [ 76.3473215, 28.2962979 ], [ 76.3494421, 28.2956441 ], [ 76.3493104, 28.2924227 ], [ 76.351788, 28.2901673 ], [ 76.3526248, 28.2856874 ], [ 76.3516116, 28.2806928 ], [ 76.3462674, 28.272846 ], [ 76.3430975, 28.2729626 ], [ 76.3423298, 28.2668717 ], [ 76.3471968, 28.2653523 ], [ 76.3475286, 28.2629612 ], [ 76.3504031, 28.2605976 ], [ 76.3491201, 28.2561669 ], [ 76.3464863, 28.2541497 ], [ 76.3485207, 28.2489094 ], [ 76.3468352, 28.2450921 ], [ 76.3461699, 28.236777 ], [ 76.3416855, 28.224274 ], [ 76.3406978, 28.2227172 ], [ 76.3370247, 28.2238758 ], [ 76.3273668, 28.223936 ], [ 76.320723, 28.2063289 ], [ 76.3190166, 28.2067523 ], [ 76.3140021, 28.2030506 ], [ 76.3052523, 28.2034931 ], [ 76.3036802, 28.1932642 ], [ 76.3099045, 28.1909347 ], [ 76.3091023, 28.1871174 ], [ 76.31224, 28.1852646 ], [ 76.3116241, 28.1780599 ], [ 76.3077008, 28.1789879 ], [ 76.3052334, 28.1758825 ], [ 76.2922659, 28.1792164 ], [ 76.2893394, 28.1703066 ], [ 76.2824311, 28.1712745 ], [ 76.2806884, 28.16578 ], [ 76.2832812, 28.1639493 ], [ 76.3014337, 28.1600482 ], [ 76.3016328, 28.1585747 ], [ 76.3045632, 28.1593222 ], [ 76.3033597, 28.1548321 ], [ 76.2978669, 28.1521151 ], [ 76.2975829, 28.1491153 ], [ 76.3110876, 28.145551 ], [ 76.3117261, 28.1472497 ], [ 76.3137297, 28.1471034 ], [ 76.3152285, 28.15037 ], [ 76.320969, 28.1485565 ], [ 76.3262818, 28.1461361 ], [ 76.3299032, 28.1427491 ], [ 76.3318179, 28.1392768 ], [ 76.3306304, 28.1370366 ], [ 76.3334815, 28.1362393 ], [ 76.3331459, 28.1335597 ], [ 76.3541321, 28.1278173 ], [ 76.3598612, 28.1249187 ], [ 76.350439, 28.1141986 ], [ 76.3464584, 28.1125645 ], [ 76.3365944, 28.1026078 ], [ 76.3186416, 28.1076804 ], [ 76.3092653, 28.1081883 ], [ 76.3014418, 28.0978693 ], [ 76.3187626, 28.0888139 ], [ 76.323237, 28.0905319 ], [ 76.3288785, 28.0876803 ], [ 76.3328607, 28.0820886 ], [ 76.332529, 28.0806761 ], [ 76.3342213, 28.0799163 ], [ 76.3330156, 28.07684 ], [ 76.3439407, 28.0714176 ], [ 76.343489, 28.0702043 ], [ 76.3515669, 28.0698853 ], [ 76.3527196, 28.0716013 ], [ 76.3556697, 28.0707324 ], [ 76.3551449, 28.0681127 ], [ 76.3566049, 28.0674851 ], [ 76.3485504, 28.0430041 ], [ 76.340627, 28.0286349 ], [ 76.3287681, 28.0187835 ], [ 76.3229791, 28.0215288 ], [ 76.3207624, 28.0159767 ], [ 76.3189543, 28.0155308 ], [ 76.3135692, 28.0170772 ], [ 76.3132051, 28.0188962 ], [ 76.3052605, 28.0205573 ], [ 76.2924081, 28.0257859 ], [ 76.2911747, 28.0345729 ], [ 76.293556, 28.0492018 ], [ 76.2841825, 28.0514989 ], [ 76.284722, 28.0549367 ], [ 76.2831388, 28.0552669 ], [ 76.2838538, 28.0569825 ], [ 76.2609621, 28.0675288 ], [ 76.25552, 28.0677679 ], [ 76.2429375, 28.0643397 ], [ 76.2380426, 28.0497156 ], [ 76.2307205, 28.0511396 ], [ 76.2280974, 28.0483959 ], [ 76.2211466, 28.0502231 ], [ 76.2193422, 28.0492067 ], [ 76.2086104, 28.0522654 ], [ 76.2095892, 28.0558701 ], [ 76.2011336, 28.058423 ], [ 76.1991768, 28.0557132 ], [ 76.1894963, 28.0564546 ], [ 76.1887877, 28.0532144 ], [ 76.1797809, 28.0542744 ], [ 76.1779449, 28.0455982 ], [ 76.1887755, 28.0366116 ], [ 76.1895363, 28.0344536 ], [ 76.1960364, 28.0303947 ], [ 76.2018117, 28.0293485 ], [ 76.2037221, 28.0377506 ], [ 76.2063656, 28.0363997 ], [ 76.2166989, 28.0354801 ], [ 76.2148026, 28.0265827 ], [ 76.2033449, 28.0280261 ], [ 76.2011446, 28.0230146 ], [ 76.1986961, 28.0210459 ], [ 76.1968655, 28.0154831 ], [ 76.1853885, 28.0202855 ], [ 76.1768898, 28.0215494 ], [ 76.1727138, 28.0153051 ], [ 76.1695508, 28.0074228 ], [ 76.1621087, 28.0014298 ], [ 76.1601038, 27.9976435 ], [ 76.1574705, 27.9873766 ], [ 76.1669266, 27.9829858 ], [ 76.1659749, 27.9769106 ], [ 76.1634542, 27.973424 ], [ 76.1866407, 27.9654785 ], [ 76.184001, 27.9618148 ], [ 76.1824539, 27.9620072 ], [ 76.1806582, 27.9571331 ], [ 76.1799347, 27.9528727 ], [ 76.1824087, 27.9519312 ], [ 76.1770485, 27.9297321 ], [ 76.1739503, 27.9298235 ], [ 76.1686801, 27.9152762 ], [ 76.1682069, 27.9033801 ], [ 76.1860923, 27.8989878 ], [ 76.2014647, 27.8925416 ], [ 76.2020883, 27.8873211 ], [ 76.2002757, 27.8782395 ], [ 76.1943686, 27.8773814 ], [ 76.1938058, 27.8595117 ], [ 76.2121637, 27.8464396 ], [ 76.208855, 27.8400133 ], [ 76.2251789, 27.8332565 ], [ 76.2173266, 27.8168105 ], [ 76.2090919, 27.8164851 ], [ 76.2075355, 27.8170449 ], [ 76.2077863, 27.8186585 ], [ 76.1995982, 27.8215579 ], [ 76.1922645, 27.8092564 ], [ 76.1826503, 27.7986173 ], [ 76.1811751, 27.7975345 ], [ 76.1749606, 27.7980735 ], [ 76.1722044, 27.8000371 ], [ 76.1721514, 27.8051525 ], [ 76.1693658, 27.8079515 ], [ 76.1605298, 27.8139377 ], [ 76.1530753, 27.8153732 ], [ 76.1536447, 27.8197486 ], [ 76.1444878, 27.8227278 ], [ 76.1322864, 27.8244738 ], [ 76.1353954, 27.8392863 ], [ 76.1335018, 27.8393687 ], [ 76.1277871, 27.843721 ], [ 76.123335, 27.8510143 ], [ 76.1156028, 27.8520666 ], [ 76.1144098, 27.85088 ], [ 76.1058735, 27.8560989 ], [ 76.0980851, 27.8568623 ], [ 76.0878409, 27.8606613 ], [ 76.0857494, 27.852756 ], [ 76.0856709, 27.8447077 ], [ 76.0792926, 27.8457532 ], [ 76.074892, 27.8438162 ], [ 76.060639, 27.8482758 ], [ 76.0480772, 27.8349836 ], [ 76.0408721, 27.8412798 ], [ 76.0399472, 27.8388316 ], [ 76.0362517, 27.8373981 ], [ 76.0302155, 27.8400487 ], [ 76.0272877, 27.838524 ], [ 76.0095524, 27.8415232 ], [ 76.0064579, 27.8390752 ], [ 76.0046422, 27.8344457 ], [ 75.99857, 27.8382057 ], [ 75.9870298, 27.841671 ], [ 75.9713763, 27.8525083 ], [ 75.9724906, 27.8606018 ], [ 75.9793631, 27.8654518 ], [ 75.9776276, 27.8737851 ], [ 75.9844155, 27.8825916 ], [ 75.9753142, 27.8936589 ], [ 75.9792544, 27.89555 ], [ 75.9813637, 27.8991787 ], [ 75.9874869, 27.904163 ], [ 75.9731746, 27.9020905 ], [ 75.9748036, 27.9117868 ], [ 75.9680738, 27.9143717 ], [ 75.9490476, 27.9150345 ], [ 75.9423346, 27.9131818 ], [ 75.9382766, 27.9140789 ], [ 75.9370687, 27.9177678 ], [ 75.934472, 27.9186288 ], [ 75.9369659, 27.9218709 ], [ 75.9393944, 27.9210881 ], [ 75.9396288, 27.9227934 ], [ 75.9323559, 27.9301384 ], [ 75.9390747, 27.9405987 ], [ 75.9465874, 27.9458976 ], [ 75.9516789, 27.9477268 ], [ 75.9575094, 27.9385346 ], [ 75.9579149, 27.9359088 ], [ 75.9660323, 27.9349766 ], [ 75.9681576, 27.9319261 ], [ 75.9727151, 27.9326664 ], [ 75.9830231, 27.9509941 ], [ 75.977827, 27.9543799 ], [ 75.9819595, 27.9653315 ], [ 75.988643, 27.9682102 ], [ 75.9945557, 27.9754133 ], [ 75.9981655, 27.9752932 ], [ 75.9999352, 27.9775785 ], [ 75.9898864, 27.9823253 ], [ 75.9859391, 27.9786219 ], [ 75.9730282, 27.9811783 ], [ 75.968777, 27.9809416 ], [ 75.9657994, 27.9836118 ], [ 75.9659753, 27.9944903 ], [ 75.965004, 27.9963207 ], [ 75.966718, 28.0000279 ], [ 75.9684572, 27.9991363 ], [ 75.9687295, 28.0003279 ], [ 75.9776051, 28.0002044 ], [ 75.9868925, 27.9975926 ], [ 75.9899315, 27.9946936 ], [ 75.9955319, 28.0068844 ], [ 75.9952019, 28.0087863 ], [ 75.9711151, 28.016075 ], [ 75.9727343, 28.0236376 ], [ 75.976946, 28.0313668 ], [ 75.9834762, 28.0313852 ], [ 75.9890557, 28.0336109 ], [ 75.9896679, 28.0358213 ], [ 75.9935173, 28.0352021 ], [ 75.994622, 28.0385177 ], [ 75.9960063, 28.0382771 ], [ 75.9977381, 28.0330035 ], [ 76.0163922, 28.0305092 ], [ 76.0186727, 28.0420062 ], [ 76.0170698, 28.0525633 ], [ 76.0077615, 28.0557086 ], [ 76.0082767, 28.0583939 ], [ 76.0253595, 28.0542411 ], [ 76.0295923, 28.0614359 ], [ 76.0337142, 28.0633388 ], [ 76.0388245, 28.0693343 ], [ 76.0407931, 28.0740436 ], [ 76.0372843, 28.07597 ], [ 76.0387379, 28.0782189 ], [ 76.0353743, 28.0805157 ], [ 76.0336501, 28.0803625 ], [ 76.0232112, 28.0859333 ], [ 76.0168204, 28.0746621 ], [ 76.0098807, 28.0676272 ], [ 76.0076636, 28.0589301 ], [ 76.0052954, 28.0575574 ], [ 75.9988168, 28.0571443 ], [ 75.9947275, 28.0522039 ], [ 75.9928739, 28.046335 ], [ 75.9866172, 28.046489 ], [ 75.9748389, 28.0509933 ], [ 75.9793011, 28.0579296 ], [ 75.9826463, 28.0574083 ], [ 75.9883319, 28.0663037 ], [ 75.9886859, 28.0690034 ], [ 75.9851626, 28.0726519 ], [ 75.9853918, 28.0748617 ], [ 75.9828908, 28.0766534 ], [ 75.9834335, 28.0813505 ], [ 75.9722802, 28.0832714 ], [ 75.9646282, 28.0804704 ], [ 75.9571012, 28.0823266 ], [ 75.9498635, 28.0861181 ], [ 75.9386033, 28.0879421 ], [ 75.9463173, 28.1079276 ], [ 75.9616954, 28.1147937 ], [ 75.9673931, 28.1138185 ], [ 75.9766727, 28.1247513 ], [ 75.9881912, 28.1250425 ], [ 75.9996925, 28.1234859 ], [ 76.0043113, 28.1319774 ], [ 76.0006074, 28.1332064 ], [ 76.0030226, 28.1431839 ], [ 76.0044308, 28.1438529 ], [ 76.0037257, 28.1461399 ], [ 76.0049251, 28.149448 ], [ 76.0076478, 28.1530699 ], [ 76.0168492, 28.150087 ], [ 76.0262594, 28.1646188 ], [ 76.0300079, 28.1640906 ], [ 76.0317854, 28.1678598 ], [ 76.0422499, 28.1654768 ], [ 76.0602519, 28.1669068 ], [ 76.0706856, 28.1651452 ], [ 76.0696634, 28.1557822 ], [ 76.0653735, 28.1415259 ], [ 76.0730064, 28.1376195 ], [ 76.084412, 28.1369276 ], [ 76.0870709, 28.1380215 ], [ 76.0878797, 28.1399788 ], [ 76.0929434, 28.1400299 ], [ 76.093212, 28.1413771 ], [ 76.094806, 28.1414163 ], [ 76.0958948, 28.1486692 ], [ 76.0938628, 28.152696 ], [ 76.08576, 28.1603472 ], [ 76.0801627, 28.163735 ], [ 76.076178, 28.168549 ], [ 76.0763377, 28.1733431 ], [ 76.0739937, 28.173591 ], [ 76.0743733, 28.1901085 ], [ 76.0721198, 28.1901811 ], [ 76.0719162, 28.1943223 ], [ 76.0514852, 28.1962901 ], [ 76.0509404, 28.1980557 ], [ 76.0473364, 28.1981424 ], [ 76.0474378, 28.2027814 ], [ 76.0524126, 28.2040161 ], [ 76.0557315, 28.2126094 ], [ 76.0558802, 28.2200222 ], [ 76.0378297, 28.2227053 ], [ 76.0372135, 28.2257471 ], [ 76.0277726, 28.2313593 ], [ 76.0278145, 28.2326456 ], [ 76.0162698, 28.2367998 ], [ 76.0154346, 28.2392025 ], [ 76.0165339, 28.2411856 ], [ 76.0131813, 28.2440484 ], [ 76.0129614, 28.2460443 ], [ 76.0160948, 28.2501909 ], [ 76.014743, 28.250157 ], [ 76.0150818, 28.2525341 ], [ 76.0188931, 28.2594874 ], [ 76.0186925, 28.261548 ], [ 76.0226447, 28.267348 ], [ 76.0226112, 28.2703491 ], [ 76.0263195, 28.275032 ], [ 76.0029888, 28.2840411 ], [ 75.9934691, 28.2901735 ], [ 75.9864397, 28.2929585 ], [ 75.981781, 28.2995263 ], [ 75.9779339, 28.3018707 ], [ 75.9788618, 28.305612 ], [ 75.9780452, 28.3093276 ], [ 75.9734171, 28.314911 ], [ 75.9724562, 28.3185697 ], [ 75.9578387, 28.3138292 ], [ 75.9567945, 28.3267458 ], [ 75.952246, 28.3292095 ], [ 75.9523119, 28.3310104 ], [ 75.9551657, 28.331129 ], [ 75.9550156, 28.333772 ], [ 75.9480647, 28.3341706 ], [ 75.9384994, 28.3373417 ], [ 75.9329727, 28.336604 ], [ 75.9319993, 28.3429039 ], [ 75.9285372, 28.3431184 ], [ 75.9300878, 28.3490146 ], [ 75.9295494, 28.3591441 ], [ 75.9273798, 28.3598046 ], [ 75.9271333, 28.3629009 ], [ 75.9235488, 28.3633508 ], [ 75.9223793, 28.3664235 ], [ 75.9166919, 28.3673885 ], [ 75.9182428, 28.3719995 ], [ 75.9085418, 28.3709163 ], [ 75.9082153, 28.3726968 ], [ 75.9048339, 28.3732708 ], [ 75.9006169, 28.3717947 ], [ 75.9002135, 28.3780629 ], [ 75.8984368, 28.3803303 ], [ 75.8993033, 28.38396 ], [ 75.8976053, 28.3838336 ], [ 75.8951764, 28.3876171 ], [ 75.8965461, 28.389837 ], [ 75.8963158, 28.3981101 ], [ 75.9005726, 28.3993322 ], [ 75.8989184, 28.4083422 ], [ 75.9018851, 28.4078713 ], [ 75.9036298, 28.4107616 ], [ 75.9015613, 28.4136366 ], [ 75.8976838, 28.4156841 ], [ 75.9005349, 28.4226379 ], [ 75.8973654, 28.4233313 ], [ 75.8973385, 28.4243785 ], [ 75.8978643, 28.42558 ], [ 75.9037602, 28.4273192 ], [ 75.9035374, 28.4317434 ], [ 75.9278384, 28.435741 ], [ 75.9359426, 28.435338 ], [ 75.944728, 28.4369155 ], [ 75.953414, 28.4359117 ], [ 75.969124, 28.442647 ], [ 75.9787694, 28.4432279 ], [ 75.9833042, 28.4449643 ], [ 75.9844114, 28.4432233 ], [ 75.9895186, 28.4422656 ], [ 75.9893557, 28.4406692 ], [ 76.0134769, 28.4339704 ], [ 76.0130626, 28.4325975 ], [ 76.0143337, 28.4325633 ], [ 76.009994, 28.408642 ], [ 76.0139519, 28.4079213 ], [ 76.0150888, 28.4096199 ], [ 76.0184345, 28.4090188 ], [ 76.0147837, 28.3963495 ], [ 76.0155838, 28.3946241 ], [ 76.0181332, 28.3938423 ], [ 76.0167191, 28.3879183 ], [ 76.0178702, 28.3876841 ], [ 76.0175231, 28.386071 ], [ 76.0217041, 28.3856967 ], [ 76.0273212, 28.3860742 ], [ 76.027646, 28.3874708 ], [ 76.0390739, 28.3897534 ], [ 76.0391824, 28.390935 ], [ 76.0425277, 28.3917218 ], [ 76.0550061, 28.3917792 ], [ 76.0546939, 28.3906534 ], [ 76.059427, 28.3898585 ], [ 76.0821258, 28.3928121 ], [ 76.0819507, 28.3976784 ], [ 76.0886206, 28.4061096 ], [ 76.0872564, 28.4094691 ], [ 76.0903091, 28.4124909 ], [ 76.0891203, 28.4190306 ], [ 76.0903599, 28.4229334 ], [ 76.0922846, 28.4244388 ], [ 76.0932034, 28.4281498 ], [ 76.0982362, 28.4312912 ], [ 76.1054395, 28.4391304 ], [ 76.107717, 28.4474969 ], [ 76.110634, 28.450077 ], [ 76.1187484, 28.4535441 ], [ 76.1301379, 28.4542533 ], [ 76.1415478, 28.451148 ], [ 76.1425937, 28.4529669 ], [ 76.1488899, 28.451569 ], [ 76.1532821, 28.4634052 ], [ 76.1595247, 28.4622058 ], [ 76.159687, 28.4578902 ], [ 76.1614788, 28.457374 ], [ 76.1585579, 28.4508101 ], [ 76.1627955, 28.449366 ], [ 76.1641561, 28.4458569 ], [ 76.1637538, 28.4412843 ], [ 76.1657376, 28.4410733 ], [ 76.1661541, 28.4314658 ], [ 76.1833318, 28.4296168 ], [ 76.1889825, 28.4432549 ], [ 76.2118746, 28.4430846 ], [ 76.2137069, 28.4492824 ], [ 76.2146391, 28.4602627 ], [ 76.2179915, 28.4685007 ], [ 76.2335416, 28.4659599 ], [ 76.2447393, 28.4591557 ], [ 76.2456354, 28.4567468 ], [ 76.2444976, 28.4433136 ] ] ] } }
]
}
