{
"type": "FeatureCollection",
"name": "0620",
"crs": { "type": "name", "properties": { "name": "urn:ogc:def:crs:OGC:1.3:CRS84" } },
"features": [
{ "type": "Feature", "properties": { "code": "0620", "name": "Nuh", "type": "district" }, "geometry": { "type": "Polygon", "coordinates": [ [ [ 76.9774545, 28.335644 ], [ 76.9790485, 28.3299168 ], [ 76.9843857, 28.3318087 ], [ 76.986068, 28.3307336 ], [ 76.9850575, 28.3282833 ], [ 76.9870739, 28.326547 ], [ 76.9929634, 28.3282019 ], [ 76.9999854, 28.3266026 ], [ 77.0001634, 28.319071 ], [ 77.0035089, 28.3141841 ], [ 77.0035322, 28.3110332 ], [ 77.0108077, 28.3054881 ], [ 77.0099337, 28.3036458 ], [ 77.0124829, 28.2960736 ], [ 77.0128997, 28.2890752 ], [ 77.0177361, 28.283307 ], [ 77.0198848, 28.2769453 ], [ 77.0201265, 28.265401 ], [ 77.0215778, 28.2591691 ], [ 77.0209876, 28.2487178 ], [ 77.0231777, 28.2472481 ], [ 77.0313955, 28.247642 ], [ 77.0336749, 28.2453334 ], [ 77.0563632, 28.2440066 ], [ 77.0585052, 28.2404164 ], [ 77.0572594, 28.2366305 ], [ 77.0576869, 28.2290691 ], [ 77.0547414, 28.223058 ], [ 77.0609942, 28.2197352 ], [ 77.0620037, 28.2167451 ], [ 77.064617, 28.2161642 ], [ 77.0656196, 28.2177167 ], [ 77.0717283, 28.2145204 ], [ 77.0765166, 28.2248224 ], [ 77.0816199, 28.2299332 ], [ 77.0868415, 28.2259987 ], [ 77.0867757, 28.224785 ], [ 77.0930571, 28.2226931 ], [ 77.0925786, 28.2215515 ], [ 77.0940925, 28.2199139 ], [ 77.0963941, 28.2206366 ], [ 77.0996985, 28.2267099 ], [ 77.1036004, 28.227049 ], [ 77.1067046, 28.225272 ], [ 77.1059851, 28.2234309 ], [ 77.1149722, 28.2188002 ], [ 77.1168301, 28.2199534 ], [ 77.12063, 28.2179684 ], [ 77.1311691, 28.2253991 ], [ 77.1344293, 28.2263643 ], [ 77.1375873, 28.2245819 ], [ 77.1388762, 28.2251548 ], [ 77.1491434, 28.2166939 ], [ 77.1529841, 28.2171488 ], [ 77.1623496, 28.2127793 ], [ 77.165038, 28.2104233 ], [ 77.1663038, 28.2046299 ], [ 77.1718511, 28.1990039 ], [ 77.1826958, 28.2099252 ], [ 77.1863622, 28.2086557 ], [ 77.1886503, 28.2107842 ], [ 77.1916947, 28.2087254 ], [ 77.1897537, 28.2077744 ], [ 77.189426, 28.205063 ], [ 77.1938584, 28.1995429 ], [ 77.1951471, 28.1997904 ], [ 77.1985046, 28.1963427 ], [ 77.1936526, 28.1883315 ], [ 77.1924938, 28.1837436 ], [ 77.186745, 28.183787 ], [ 77.1726168, 28.1894377 ], [ 77.1647461, 28.1792429 ], [ 77.1651365, 28.1746904 ], [ 77.168369, 28.1725914 ], [ 77.1663155, 28.1689962 ], [ 77.1644766, 28.1664973 ], [ 77.1540887, 28.1596602 ], [ 77.1446898, 28.1473535 ], [ 77.1442908, 28.1421067 ], [ 77.1382989, 28.1347262 ], [ 77.1356573, 28.1331788 ], [ 77.1339577, 28.128889 ], [ 77.1265875, 28.1254687 ], [ 77.1206335, 28.1146314 ], [ 77.1292842, 28.1117483 ], [ 77.1331824, 28.1066383 ], [ 77.1380204, 28.1060674 ], [ 77.1431993, 28.1000165 ], [ 77.1351791, 28.0851555 ], [ 77.1333471, 28.0724213 ], [ 77.1412556, 28.0699044 ], [ 77.1394127, 28.0664946 ], [ 77.1405936, 28.0627223 ], [ 77.1468666, 28.0583554 ], [ 77.1479977, 28.0554978 ], [ 77.1392382, 28.0415627 ], [ 77.1415972, 28.040718 ], [ 77.1404627, 28.0369508 ], [ 77.1456697, 28.0367651 ], [ 77.145536, 28.0291536 ], [ 77.1493134, 28.0269693 ], [ 77.1493583, 28.0233779 ], [ 77.1466527, 28.020026 ], [ 77.1458533, 28.0141878 ], [ 77.137723, 28.0059277 ], [ 77.1352697, 28.0002775 ], [ 77.1475634, 27.9990883 ], [ 77.1520812, 27.9946297 ], [ 77.1480898, 27.9888869 ], [ 77.1520724, 27.9799527 ], [ 77.149952, 27.9750893 ], [ 77.1434508, 27.9692249 ], [ 77.1445474, 27.9628224 ], [ 77.151005, 27.9584583 ], [ 77.1563298, 27.9571758 ], [ 77.1558712, 27.9528129 ], [ 77.1582678, 27.947574 ], [ 77.1645898, 27.9513669 ], [ 77.1660369, 27.9490743 ], [ 77.1676892, 27.9515193 ], [ 77.1713218, 27.950733 ], [ 77.1757659, 27.9469008 ], [ 77.1729446, 27.9436397 ], [ 77.1816561, 27.9402796 ], [ 77.183562, 27.9416279 ], [ 77.1798266, 27.9493808 ], [ 77.1873776, 27.9506003 ], [ 77.2065946, 27.938187 ], [ 77.2088866, 27.9326676 ], [ 77.2216767, 27.9250069 ], [ 77.2207948, 27.9215875 ], [ 77.2215999, 27.9186993 ], [ 77.2262925, 27.9124559 ], [ 77.2296655, 27.9024145 ], [ 77.2349239, 27.8992474 ], [ 77.234286, 27.8961708 ], [ 77.2443041, 27.8947548 ], [ 77.249885, 27.8905027 ], [ 77.2497451, 27.8820945 ], [ 77.2543712, 27.8817396 ], [ 77.2558271, 27.8913068 ], [ 77.2638112, 27.8980307 ], [ 77.2840985, 27.8916289 ], [ 77.2871214, 27.8858287 ], [ 77.2910739, 27.8894288 ], [ 77.2966333, 27.8915691 ], [ 77.311537, 27.884326 ], [ 77.3245268, 27.8719099 ], [ 77.3237756, 27.860323 ], [ 77.3218376, 27.8576602 ], [ 77.3351572, 27.847418 ], [ 77.3351592, 27.8419991 ], [ 77.3319936, 27.8374592 ], [ 77.3329335, 27.8349734 ], [ 77.3364258, 27.8342254 ], [ 77.3207011, 27.8253361 ], [ 77.3125033, 27.8279947 ], [ 77.3108094, 27.8257696 ], [ 77.3064792, 27.8275226 ], [ 77.3035622, 27.8255269 ], [ 77.2964776, 27.8252163 ], [ 77.2985654, 27.8151918 ], [ 77.2973284, 27.8134315 ], [ 77.2901502, 27.8104359 ], [ 77.2837236, 27.8010469 ], [ 77.2687571, 27.8149377 ], [ 77.2612975, 27.8001911 ], [ 77.2523728, 27.7906859 ], [ 77.2478426, 27.7906249 ], [ 77.2417366, 27.7835418 ], [ 77.2338857, 27.7859622 ], [ 77.2349088, 27.7892867 ], [ 77.2383665, 27.7918242 ], [ 77.2325974, 27.7965032 ], [ 77.2265767, 27.7985788 ], [ 77.2223783, 27.7958837 ], [ 77.2134321, 27.8007852 ], [ 77.2106519, 27.8010983 ], [ 77.2133311, 27.8076525 ], [ 77.2067088, 27.8137749 ], [ 77.2033766, 27.8234414 ], [ 77.2020726, 27.8237581 ], [ 77.1978397, 27.8158554 ], [ 77.1913501, 27.8090817 ], [ 77.1926537, 27.8081742 ], [ 77.1914553, 27.8068256 ], [ 77.1985691, 27.7988222 ], [ 77.1926805, 27.7941194 ], [ 77.1904532, 27.794337 ], [ 77.1832952, 27.7867826 ], [ 77.177801, 27.7870962 ], [ 77.177024, 27.7854676 ], [ 77.1690967, 27.7908984 ], [ 77.1735731, 27.7944071 ], [ 77.1789308, 27.8043811 ], [ 77.1824155, 27.802029 ], [ 77.1846997, 27.8025013 ], [ 77.189436, 27.8090197 ], [ 77.1833754, 27.8130649 ], [ 77.1798507, 27.8171452 ], [ 77.1672333, 27.8129491 ], [ 77.1599677, 27.8166509 ], [ 77.1573228, 27.8134797 ], [ 77.1565858, 27.8095905 ], [ 77.1615515, 27.803286 ], [ 77.1608071, 27.7925838 ], [ 77.1575275, 27.7856226 ], [ 77.1565074, 27.7845265 ], [ 77.1513635, 27.7859082 ], [ 77.143576, 27.7855937 ], [ 77.1352192, 27.7750861 ], [ 77.1318004, 27.7780688 ], [ 77.1345151, 27.7860368 ], [ 77.1228515, 27.7926247 ], [ 77.1131007, 27.7864157 ], [ 77.108479, 27.7854768 ], [ 77.0807969, 27.8040828 ], [ 77.0816739, 27.8062488 ], [ 77.0746174, 27.8135604 ], [ 77.0638606, 27.811264 ], [ 77.0555596, 27.8179153 ], [ 77.0537992, 27.8169398 ], [ 77.0447988, 27.8209822 ], [ 77.0427202, 27.8182827 ], [ 77.0458283, 27.8149593 ], [ 77.0443841, 27.812161 ], [ 77.0405728, 27.8125694 ], [ 77.0387073, 27.8101182 ], [ 77.0330338, 27.7984059 ], [ 77.0265766, 27.7792392 ], [ 77.034395, 27.7781119 ], [ 77.035767, 27.7815329 ], [ 77.047643, 27.7744246 ], [ 77.0561369, 27.7711984 ], [ 77.0575782, 27.770008 ], [ 77.0558526, 27.7634196 ], [ 77.0595517, 27.7609127 ], [ 77.0639525, 27.7642085 ], [ 77.0656468, 27.7638979 ], [ 77.0696217, 27.767473 ], [ 77.0720934, 27.7644645 ], [ 77.0745573, 27.7670056 ], [ 77.0763533, 27.7663159 ], [ 77.075933, 27.7648088 ], [ 77.0801968, 27.7572526 ], [ 77.0781908, 27.7511968 ], [ 77.0824785, 27.7458804 ], [ 77.0818296, 27.7449417 ], [ 77.085661, 27.738089 ], [ 77.0772391, 27.7355056 ], [ 77.0728142, 27.7311454 ], [ 77.06962, 27.7304492 ], [ 77.0682502, 27.7317211 ], [ 77.065431, 27.7314041 ], [ 77.0596279, 27.7264879 ], [ 77.0487379, 27.7315268 ], [ 77.0503176, 27.7350381 ], [ 77.0461376, 27.7372962 ], [ 77.0468509, 27.7397196 ], [ 77.0445216, 27.7419021 ], [ 77.0450734, 27.7432831 ], [ 77.0364732, 27.7486112 ], [ 77.0339352, 27.7452165 ], [ 77.0260988, 27.7463797 ], [ 77.0250919, 27.7439019 ], [ 77.0198158, 27.7457705 ], [ 77.011524, 27.7310819 ], [ 77.0036333, 27.7362595 ], [ 77.000098, 27.7369693 ], [ 76.9903896, 27.7094975 ], [ 76.989515, 27.7012571 ], [ 76.9871991, 27.6951536 ], [ 76.9886097, 27.69299 ], [ 76.9858162, 27.6884862 ], [ 76.9853093, 27.683724 ], [ 76.9820596, 27.6761177 ], [ 76.9793729, 27.653599 ], [ 76.9661261, 27.6583856 ], [ 76.9626735, 27.6619903 ], [ 76.9587639, 27.6624292 ], [ 76.9548612, 27.6646863 ], [ 76.9531267, 27.6680364 ], [ 76.9437702, 27.6737228 ], [ 76.9382189, 27.6664679 ], [ 76.9333573, 27.656031 ], [ 76.9322254, 27.6588129 ], [ 76.9269167, 27.6612558 ], [ 76.9155701, 27.652271 ], [ 76.9108282, 27.6546739 ], [ 76.9116353, 27.6582501 ], [ 76.9067084, 27.6616933 ], [ 76.9108931, 27.6680208 ], [ 76.8985897, 27.6775352 ], [ 76.9062283, 27.6862927 ], [ 76.8903265, 27.695707 ], [ 76.8893425, 27.6971509 ], [ 76.889876, 27.7007491 ], [ 76.8944954, 27.7013808 ], [ 76.9088747, 27.69418 ], [ 76.9099964, 27.6954235 ], [ 76.9142121, 27.6958797 ], [ 76.9164161, 27.698128 ], [ 76.920612, 27.6957144 ], [ 76.9247262, 27.6999214 ], [ 76.921025, 27.7030864 ], [ 76.920527, 27.7056248 ], [ 76.9191464, 27.7064065 ], [ 76.9199619, 27.7080964 ], [ 76.9190435, 27.7097967 ], [ 76.9123678, 27.7142481 ], [ 76.9047803, 27.7173355 ], [ 76.8987771, 27.7164704 ], [ 76.894516, 27.7178329 ], [ 76.894365, 27.7243464 ], [ 76.8924051, 27.7256682 ], [ 76.8925455, 27.7323267 ], [ 76.8933252, 27.7348926 ], [ 76.8969767, 27.7381231 ], [ 76.8998581, 27.7367072 ], [ 76.9016934, 27.743974 ], [ 76.9005454, 27.7473741 ], [ 76.900844, 27.7646559 ], [ 76.9016005, 27.7675299 ], [ 76.9036499, 27.7693312 ], [ 76.9021543, 27.7713605 ], [ 76.9022772, 27.7753356 ], [ 76.9063973, 27.7788856 ], [ 76.9076057, 27.7823505 ], [ 76.9061715, 27.7877834 ], [ 76.9090378, 27.7869073 ], [ 76.9133406, 27.7885892 ], [ 76.9115218, 27.7960885 ], [ 76.9136343, 27.8010061 ], [ 76.9190038, 27.8041403 ], [ 76.9186144, 27.8074386 ], [ 76.9140427, 27.8081078 ], [ 76.9099854, 27.8149039 ], [ 76.9135844, 27.831701 ], [ 76.9150218, 27.8345387 ], [ 76.935577, 27.8288657 ], [ 76.942318, 27.8426178 ], [ 76.943, 27.8535725 ], [ 76.9414834, 27.8554999 ], [ 76.9412857, 27.8641809 ], [ 76.9374415, 27.8783847 ], [ 76.937659, 27.8962218 ], [ 76.9416309, 27.8970818 ], [ 76.9505731, 27.8956423 ], [ 76.9496023, 27.9092688 ], [ 76.9516199, 27.9180253 ], [ 76.9315381, 27.9223485 ], [ 76.9302603, 27.9400155 ], [ 76.9307374, 27.9532974 ], [ 76.9332967, 27.9617005 ], [ 76.9336576, 27.9712881 ], [ 76.9379388, 27.9828205 ], [ 76.9335108, 27.9816068 ], [ 76.9328523, 27.9890189 ], [ 76.9309912, 27.993853 ], [ 76.936456, 28.0126587 ], [ 76.9396009, 28.0429812 ], [ 76.9483935, 28.0579515 ], [ 76.953844, 28.0625956 ], [ 76.9545741, 28.0731257 ], [ 76.9579093, 28.0774506 ], [ 76.9579527, 28.0875119 ], [ 76.9614218, 28.0995788 ], [ 76.9619453, 28.111273 ], [ 76.9669122, 28.1297228 ], [ 76.9705488, 28.138428 ], [ 76.9579238, 28.1422217 ], [ 76.9481613, 28.1422138 ], [ 76.9509459, 28.1498822 ], [ 76.931986, 28.1530452 ], [ 76.92703, 28.1574371 ], [ 76.9275754, 28.1586596 ], [ 76.9197339, 28.1669009 ], [ 76.9065392, 28.1718856 ], [ 76.907009, 28.1729598 ], [ 76.9015004, 28.1786588 ], [ 76.9024533, 28.1811085 ], [ 76.8925195, 28.1835871 ], [ 76.8922614, 28.1932332 ], [ 76.8986422, 28.1933495 ], [ 76.9020454, 28.198975 ], [ 76.9061751, 28.1973048 ], [ 76.9067667, 28.2003095 ], [ 76.8908781, 28.2049639 ], [ 76.8888712, 28.2032045 ], [ 76.8789199, 28.2068191 ], [ 76.8727064, 28.2058041 ], [ 76.8709952, 28.206589 ], [ 76.8730578, 28.2110196 ], [ 76.8727369, 28.215053 ], [ 76.8749016, 28.2177691 ], [ 76.8675259, 28.2198398 ], [ 76.8625037, 28.2193928 ], [ 76.8576084, 28.2211969 ], [ 76.8529375, 28.2207136 ], [ 76.858784, 28.2288354 ], [ 76.8577452, 28.2356021 ], [ 76.8609221, 28.2423589 ], [ 76.8654442, 28.2479318 ], [ 76.8673949, 28.2561037 ], [ 76.8698203, 28.2555726 ], [ 76.8752671, 28.2639277 ], [ 76.8927844, 28.2534746 ], [ 76.8972794, 28.2533784 ], [ 76.9027162, 28.2581202 ], [ 76.9069003, 28.2642839 ], [ 76.9122719, 28.2636689 ], [ 76.913423, 28.2653825 ], [ 76.9147168, 28.2728197 ], [ 76.917125, 28.278326 ], [ 76.9102005, 28.2871158 ], [ 76.9038896, 28.2917648 ], [ 76.9059904, 28.2956572 ], [ 76.9033582, 28.3008104 ], [ 76.9046357, 28.3023867 ], [ 76.9094371, 28.2994027 ], [ 76.9109346, 28.3016972 ], [ 76.9154003, 28.3001459 ], [ 76.9319639, 28.324715 ], [ 76.9345166, 28.3219953 ], [ 76.9351737, 28.3188761 ], [ 76.9367088, 28.3194554 ], [ 76.9395605, 28.3168663 ], [ 76.9445139, 28.3187515 ], [ 76.9477853, 28.3166634 ], [ 76.9487991, 28.3182112 ], [ 76.9508199, 28.3140871 ], [ 76.952786, 28.3168201 ], [ 76.9515435, 28.3184144 ], [ 76.9545167, 28.3203335 ], [ 76.9542864, 28.3229789 ], [ 76.9580201, 28.3233927 ], [ 76.9598955, 28.327785 ], [ 76.9627489, 28.3266178 ], [ 76.9677376, 28.3276089 ], [ 76.9703624, 28.3265902 ], [ 76.9724613, 28.3310413 ], [ 76.9759091, 28.3316608 ], [ 76.9774545, 28.335644 ] ] ] } }
]
}
