{
"type": "FeatureCollection",
"name": "0621",
"crs": { "type": "name", "properties": { "name": "urn:ogc:def:crs:OGC:1.3:CRS84" } },
"features": [
{ "type": "Feature", "properties": { "code": "0621", "name": "Palwal", "type": "district" }, "geometry": { "type": "Polygon", "coordinates": [ [ [ 77.2571302, 28.2723447 ], [ 77.2703203, 28.2688548 ], [ 77.2733508, 28.2666232 ], [ 77.2795492, 28.2697104 ], [ 77.2861749, 28.2650971 ], [ 77.2937718, 28.2627087 ], [ 77.2979322, 28.2633561 ], [ 77.2999364, 28.2617163 ], [ 77.3009606, 28.2623834 ], [ 77.3084547, 28.2552225 ], [ 77.3141123, 28.2596226 ], [ 77.3223738, 28.2601659 ], [ 77.327369, 28.2568446 ], [ 77.331799, 28.2500787 ], [ 77.341438, 28.2450654 ], [ 77.3421938, 28.2412138 ], [ 77.3443234, 28.2400098 ], [ 77.344915, 28.2350525 ], [ 77.3553176, 28.2360107 ], [ 77.3648598, 28.2324475 ], [ 77.3679212, 28.2369233 ], [ 77.372873, 28.2357774 ], [ 77.3751946, 28.2264605 ], [ 77.3797995, 28.2213594 ], [ 77.4055049, 28.2111514 ], [ 77.4082682, 28.2143081 ], [ 77.4140684, 28.2069399 ], [ 77.4118004, 28.2030046 ], [ 77.4158042, 28.2004279 ], [ 77.4198223, 28.2052893 ], [ 77.4237206, 28.2071883 ], [ 77.4249238, 28.2059096 ], [ 77.4342281, 28.2138826 ], [ 77.442411, 28.2097484 ], [ 77.4421188, 28.2075083 ], [ 77.4490351, 28.2073739 ], [ 77.4561077, 28.2052178 ], [ 77.459906, 28.2103859 ], [ 77.4663831, 28.2085229 ], [ 77.4710037, 28.2155218 ], [ 77.4785784, 28.2142907 ], [ 77.4778435, 28.2175805 ], [ 77.4834234, 28.2185139 ], [ 77.4848404, 28.221354 ], [ 77.4862123, 28.2213208 ], [ 77.4874707, 28.218202 ], [ 77.4893197, 28.2182038 ], [ 77.490238, 28.2190169 ], [ 77.4891241, 28.2221839 ], [ 77.4937285, 28.2281767 ], [ 77.4981986, 28.2300738 ], [ 77.4936033, 28.2358473 ], [ 77.4935517, 28.244492 ], [ 77.4960258, 28.2474955 ], [ 77.4991537, 28.2473836 ], [ 77.4992165, 28.2500001 ], [ 77.5014508, 28.2524368 ], [ 77.5094772, 28.2494512 ], [ 77.5086313, 28.2465531 ], [ 77.513252, 28.2472125 ], [ 77.518771, 28.2425276 ], [ 77.5219996, 28.2422696 ], [ 77.5247094, 28.2457201 ], [ 77.5323528, 28.2449471 ], [ 77.5387406, 28.2485953 ], [ 77.5423421, 28.2477293 ], [ 77.5446125, 28.2487335 ], [ 77.5497577, 28.24424 ], [ 77.5494738, 28.240014 ], [ 77.5467514, 28.2379897 ], [ 77.5258334, 28.2289994 ], [ 77.5212848, 28.2244415 ], [ 77.5214298, 28.220212 ], [ 77.5328898, 28.2144245 ], [ 77.5352461, 28.2102622 ], [ 77.534663, 28.2036869 ], [ 77.5302608, 28.1986077 ], [ 77.5240256, 28.195678 ], [ 77.5219644, 28.1965866 ], [ 77.5174828, 28.2045861 ], [ 77.5058758, 28.2095224 ], [ 77.5020579, 28.2095878 ], [ 77.4969636, 28.2053497 ], [ 77.4996202, 28.1950245 ], [ 77.498391, 28.1845313 ], [ 77.5011936, 28.1816708 ], [ 77.5032547, 28.1807624 ], [ 77.5065547, 28.1816764 ], [ 77.5085342, 28.186431 ], [ 77.5133701, 28.1918322 ], [ 77.5174791, 28.1931371 ], [ 77.5306224, 28.1858618 ], [ 77.5375966, 28.1903519 ], [ 77.5451548, 28.1908837 ], [ 77.547952, 28.1871055 ], [ 77.5496409, 28.1797526 ], [ 77.5459023, 28.1719414 ], [ 77.5369569, 28.1656342 ], [ 77.5222842, 28.1611957 ], [ 77.5157492, 28.1634046 ], [ 77.5131041, 28.1665298 ], [ 77.5111975, 28.166849 ], [ 77.5021014, 28.1611827 ], [ 77.5004921, 28.1548017 ], [ 77.5046851, 28.1497267 ], [ 77.5042441, 28.1454312 ], [ 77.5024164, 28.143218 ], [ 77.4921948, 28.138693 ], [ 77.4913578, 28.136537 ], [ 77.4937712, 28.1328489 ], [ 77.5037993, 28.1320006 ], [ 77.5090805, 28.1302123 ], [ 77.5123572, 28.1271433 ], [ 77.5123595, 28.1248426 ], [ 77.5093845, 28.1198942 ], [ 77.501796, 28.114773 ], [ 77.4984651, 28.1089156 ], [ 77.497902, 28.1044617 ], [ 77.5005391, 28.0970194 ], [ 77.4993814, 28.0946066 ], [ 77.4921777, 28.0951003 ], [ 77.4906841, 28.0971589 ], [ 77.4898078, 28.1055606 ], [ 77.4880741, 28.1068704 ], [ 77.4826197, 28.1071862 ], [ 77.4818185, 28.0996613 ], [ 77.4788532, 28.0954495 ], [ 77.4787324, 28.0916056 ], [ 77.4742617, 28.0874355 ], [ 77.4782485, 28.0803941 ], [ 77.4865943, 28.0735251 ], [ 77.4896657, 28.072593 ], [ 77.4997927, 28.0633079 ], [ 77.5012418, 28.0585196 ], [ 77.498605, 28.0522506 ], [ 77.4930607, 28.0468278 ], [ 77.4853438, 28.0446414 ], [ 77.4836411, 28.0404514 ], [ 77.4884121, 28.0366981 ], [ 77.5101332, 28.0333428 ], [ 77.5127584, 28.0318873 ], [ 77.5119251, 28.0277522 ], [ 77.5082063, 28.0252353 ], [ 77.5083882, 28.0227733 ], [ 77.521328, 28.0141366 ], [ 77.5240326, 28.0067427 ], [ 77.5242472, 28.0000015 ], [ 77.5424314, 27.9890934 ], [ 77.5425661, 27.9849531 ], [ 77.5412024, 27.9818171 ], [ 77.5377657, 27.9790209 ], [ 77.5294563, 27.9760732 ], [ 77.5211934, 27.9765118 ], [ 77.5188457, 27.9742104 ], [ 77.5169727, 27.9711511 ], [ 77.518724, 27.9621251 ], [ 77.5442304, 27.9622126 ], [ 77.5460773, 27.9579304 ], [ 77.5449857, 27.9533035 ], [ 77.5369525, 27.9379725 ], [ 77.5366092, 27.9339802 ], [ 77.5293013, 27.9252611 ], [ 77.5261954, 27.9253742 ], [ 77.5258286, 27.9272618 ], [ 77.5167576, 27.9330603 ], [ 77.5074921, 27.9256185 ], [ 77.5014655, 27.9252585 ], [ 77.4973243, 27.9297531 ], [ 77.497851, 27.9306493 ], [ 77.4922359, 27.9384733 ], [ 77.4752841, 27.929251 ], [ 77.4759024, 27.9277074 ], [ 77.4775032, 27.9282793 ], [ 77.4756762, 27.9247433 ], [ 77.4796507, 27.9216632 ], [ 77.4770906, 27.9163321 ], [ 77.4804924, 27.9150255 ], [ 77.4788428, 27.9108804 ], [ 77.4790135, 27.9088815 ], [ 77.4806942, 27.9078977 ], [ 77.4792137, 27.9057049 ], [ 77.4791167, 27.8996385 ], [ 77.4780488, 27.8985138 ], [ 77.4794956, 27.8978585 ], [ 77.4787559, 27.894448 ], [ 77.4732673, 27.8845169 ], [ 77.4576452, 27.8744881 ], [ 77.4500369, 27.8711627 ], [ 77.4461451, 27.8735887 ], [ 77.4456591, 27.8758784 ], [ 77.4393593, 27.8795784 ], [ 77.435671, 27.8851703 ], [ 77.4282907, 27.8909217 ], [ 77.4278432, 27.8898435 ], [ 77.4213284, 27.8907708 ], [ 77.4187735, 27.8894496 ], [ 77.4160698, 27.8837925 ], [ 77.4103914, 27.8798056 ], [ 77.4093234, 27.8741705 ], [ 77.4128201, 27.8697839 ], [ 77.4117527, 27.8663913 ], [ 77.4223294, 27.8577927 ], [ 77.4210181, 27.8540438 ], [ 77.4104329, 27.8517594 ], [ 77.3970317, 27.8533504 ], [ 77.3899761, 27.8573129 ], [ 77.3770154, 27.8588568 ], [ 77.3770408, 27.8570746 ], [ 77.3668371, 27.8533024 ], [ 77.3652532, 27.8537852 ], [ 77.360893, 27.8507708 ], [ 77.3560852, 27.8534549 ], [ 77.353735, 27.8527507 ], [ 77.3488762, 27.8557232 ], [ 77.3351572, 27.847418 ], [ 77.3218376, 27.8576602 ], [ 77.3237756, 27.860323 ], [ 77.3245268, 27.8719099 ], [ 77.311537, 27.884326 ], [ 77.2966333, 27.8915691 ], [ 77.2910739, 27.8894288 ], [ 77.2871214, 27.8858287 ], [ 77.2840985, 27.8916289 ], [ 77.2638112, 27.8980307 ], [ 77.2558271, 27.8913068 ], [ 77.2543712, 27.8817396 ], [ 77.2497451, 27.8820945 ], [ 77.249885, 27.8905027 ], [ 77.2443041, 27.8947548 ], [ 77.234286, 27.8961708 ], [ 77.2349239, 27.8992474 ], [ 77.2296655, 27.9024145 ], [ 77.2262925, 27.9124559 ], [ 77.2215999, 27.9186993 ], [ 77.2207948, 27.9215875 ], [ 77.2216767, 27.9250069 ], [ 77.2088866, 27.9326676 ], [ 77.2065946, 27.938187 ], [ 77.1873776, 27.9506003 ], [ 77.1798266, 27.9493808 ], [ 77.183562, 27.9416279 ], [ 77.1816561, 27.9402796 ], [ 77.1729446, 27.9436397 ], [ 77.1757659, 27.9469008 ], [ 77.1713218, 27.950733 ], [ 77.1676892, 27.9515193 ], [ 77.1660369, 27.9490743 ], [ 77.1645898, 27.9513669 ], [ 77.1582678, 27.947574 ], [ 77.1558712, 27.9528129 ], [ 77.1563298, 27.9571758 ], [ 77.151005, 27.9584583 ], [ 77.1445474, 27.9628224 ], [ 77.1434508, 27.9692249 ], [ 77.149952, 27.9750893 ], [ 77.1520724, 27.9799527 ], [ 77.1480898, 27.9888869 ], [ 77.1520812, 27.9946297 ], [ 77.1475634, 27.9990883 ], [ 77.1352697, 28.0002775 ], [ 77.137723, 28.0059277 ], [ 77.1458533, 28.0141878 ], [ 77.1466527, 28.020026 ], [ 77.1493583, 28.0233779 ], [ 77.1493134, 28.0269693 ], [ 77.145536, 28.0291536 ], [ 77.1456697, 28.0367651 ], [ 77.1404627, 28.0369508 ], [ 77.1415972, 28.040718 ], [ 77.1392382, 28.0415627 ], [ 77.1479977, 28.0554978 ], [ 77.1468666, 28.0583554 ], [ 77.1405936, 28.0627223 ], [ 77.1394127, 28.0664946 ], [ 77.1412556, 28.0699044 ], [ 77.1333471, 28.0724213 ], [ 77.1351791, 28.0851555 ], [ 77.1431993, 28.1000165 ], [ 77.1380204, 28.1060674 ], [ 77.1331824, 28.1066383 ], [ 77.1292842, 28.1117483 ], [ 77.121463, 28.1138374 ], [ 77.1210711, 28.1160075 ], [ 77.1265875, 28.1254687 ], [ 77.1339577, 28.128889 ], [ 77.1356573, 28.1331788 ], [ 77.1382989, 28.1347262 ], [ 77.1442908, 28.1421067 ], [ 77.1446898, 28.1473535 ], [ 77.1540887, 28.1596602 ], [ 77.1644766, 28.1664973 ], [ 77.1663155, 28.1689962 ], [ 77.168369, 28.1725914 ], [ 77.1651365, 28.1746904 ], [ 77.1647461, 28.1792429 ], [ 77.1726168, 28.1894377 ], [ 77.186745, 28.183787 ], [ 77.1924938, 28.1837436 ], [ 77.1936526, 28.1883315 ], [ 77.1985046, 28.1963427 ], [ 77.1951471, 28.1997904 ], [ 77.1938584, 28.1995429 ], [ 77.189426, 28.205063 ], [ 77.1894069, 28.2069805 ], [ 77.2032995, 28.212306 ], [ 77.2021643, 28.2131007 ], [ 77.2022989, 28.2160829 ], [ 77.2044824, 28.2188121 ], [ 77.1978669, 28.2224468 ], [ 77.2017835, 28.2289326 ], [ 77.1914617, 28.2348095 ], [ 77.1968518, 28.2429982 ], [ 77.1956845, 28.2449543 ], [ 77.2052337, 28.2510965 ], [ 77.2098028, 28.2495642 ], [ 77.2135028, 28.2570381 ], [ 77.2138156, 28.2616674 ], [ 77.2190979, 28.2637345 ], [ 77.2203907, 28.2630103 ], [ 77.223816, 28.2659395 ], [ 77.2321226, 28.2694511 ], [ 77.2372327, 28.2700559 ], [ 77.2461064, 28.2625726 ], [ 77.2556273, 28.2581386 ], [ 77.2570778, 28.2605317 ], [ 77.2560552, 28.2674347 ], [ 77.2571302, 28.2723447 ] ] ] } }
]
}
