{
"type": "FeatureCollection",
"name": "0714",
"crs": { "type": "name", "properties": { "name": "urn:ogc:def:crs:OGC:1.3:CRS84" } },
"features": [
{ "type": "Feature", "properties": { "code": "0714", "name": "North West B-I", "type": "district" }, "geometry": { "type": "Polygon", "coordinates": [ [ [ 76.951014, 28.8181831 ], [ 76.9658493, 28.8134964 ], [ 76.9677407, 28.8112989 ], [ 76.9667695, 28.8092451 ], [ 76.9691298, 28.8071673 ], [ 76.9665477, 28.800807 ], [ 76.9687066, 28.8003321 ], [ 76.9679674, 28.7980883 ], [ 76.9690574, 28.7972874 ], [ 76.978502, 28.7924401 ], [ 76.9825369, 28.7929046 ], [ 76.9916515, 28.7850082 ], [ 77.0005314, 28.7838564 ], [ 77.0134413, 28.7787554 ], [ 77.0117261, 28.7632494 ], [ 77.0143167, 28.7603787 ], [ 77.0152571, 28.7549785 ], [ 77.0222339, 28.75177 ], [ 77.0395973, 28.7481107 ], [ 77.0504247, 28.7430839 ], [ 77.0584631, 28.7420964 ], [ 77.0818568, 28.7280594 ], [ 77.0894432, 28.737625 ], [ 77.0943083, 28.7368756 ], [ 77.0963218, 28.7392761 ], [ 77.1018205, 28.7372164 ], [ 77.1068356, 28.7371963 ], [ 77.1095654, 28.7358422 ], [ 77.1092175, 28.7344111 ], [ 77.1184027, 28.7208029 ], [ 77.1203507, 28.7150325 ], [ 77.1194485, 28.7135204 ], [ 77.1215516, 28.7121241 ], [ 77.1217307, 28.7071091 ], [ 77.1256968, 28.7060272 ], [ 77.1313335, 28.7092194 ], [ 77.1317982, 28.7104582 ], [ 77.1304146, 28.7122844 ], [ 77.1325488, 28.7158092 ], [ 77.1375138, 28.719959 ], [ 77.1390608, 28.7197041 ], [ 77.140085, 28.7237516 ], [ 77.1452591, 28.7291423 ], [ 77.1516266, 28.7267129 ], [ 77.1605943, 28.732221 ], [ 77.1641644, 28.7269029 ], [ 77.1601231, 28.7188308 ], [ 77.1632947, 28.7167555 ], [ 77.1640513, 28.7126241 ], [ 77.1611155, 28.7099651 ], [ 77.1619998, 28.7075255 ], [ 77.1588781, 28.7042981 ], [ 77.1681815, 28.6990059 ], [ 77.1707386, 28.6998413 ], [ 77.1716396, 28.6985424 ], [ 77.1729045, 28.6988485 ], [ 77.1762104, 28.7016695 ], [ 77.1778123, 28.7000453 ], [ 77.181119, 28.7010169 ], [ 77.1818277, 28.7001942 ], [ 77.179434, 28.6989961 ], [ 77.1796672, 28.6975634 ], [ 77.1857536, 28.6933669 ], [ 77.1853106, 28.691342 ], [ 77.1771093, 28.6840578 ], [ 77.1754921, 28.6839584 ], [ 77.1695573, 28.6890859 ], [ 77.1685934, 28.6886374 ], [ 77.1679628, 28.6839165 ], [ 77.1729857, 28.6793216 ], [ 77.1747321, 28.6742482 ], [ 77.1771327, 28.6752515 ], [ 77.1788571, 28.6743662 ], [ 77.1768596, 28.6706865 ], [ 77.1782432, 28.6676438 ], [ 77.1751228, 28.6655597 ], [ 77.1679455, 28.6561224 ], [ 77.1589344, 28.658082 ], [ 77.163913, 28.6622935 ], [ 77.1598768, 28.67057 ], [ 77.1577223, 28.6712647 ], [ 77.1572863, 28.6754269 ], [ 77.1533392, 28.6723964 ], [ 77.1493932, 28.6728682 ], [ 77.1485029, 28.6691969 ], [ 77.139371, 28.6711843 ], [ 77.1326631, 28.6771329 ], [ 77.1220676, 28.682319 ], [ 77.1207644, 28.6837177 ], [ 77.123038, 28.687383 ], [ 77.1213065, 28.6890692 ], [ 77.1193045, 28.6897014 ], [ 77.1148045, 28.6830568 ], [ 77.1076838, 28.6885277 ], [ 77.1036596, 28.6846783 ], [ 77.0978835, 28.6892961 ], [ 77.0950133, 28.6890017 ], [ 77.092445, 28.685981 ], [ 77.0878694, 28.6888417 ], [ 77.0837231, 28.6884352 ], [ 77.0788099, 28.6837574 ], [ 77.076019, 28.6830221 ], [ 77.0645235, 28.6919884 ], [ 77.0560954, 28.6868321 ], [ 77.0541003, 28.6834155 ], [ 77.0488643, 28.6882364 ], [ 77.0451179, 28.6949749 ], [ 77.0374163, 28.6984593 ], [ 77.0281101, 28.6961123 ], [ 77.0126974, 28.6953118 ], [ 77.0093825, 28.6882559 ], [ 77.0024034, 28.6799389 ], [ 77.0000582, 28.6792077 ], [ 76.9834504, 28.6900531 ], [ 76.9764665, 28.6974552 ], [ 76.9768113, 28.7004393 ], [ 76.9744552, 28.7020509 ], [ 76.9679542, 28.6994283 ], [ 76.953196, 28.7090448 ], [ 76.9481975, 28.712988 ], [ 76.9594017, 28.7292533 ], [ 76.9600605, 28.7327359 ], [ 76.9559347, 28.7382278 ], [ 76.9585023, 28.742779 ], [ 76.9444901, 28.7540727 ], [ 76.9465064, 28.7587965 ], [ 76.9555727, 28.7677777 ], [ 76.9498111, 28.7770615 ], [ 76.9500661, 28.7832641 ], [ 76.9539155, 28.7906761 ], [ 76.9460398, 28.7979694 ], [ 76.9418907, 28.7986617 ], [ 76.9462838, 28.806618 ], [ 76.9459141, 28.8111192 ], [ 76.951014, 28.8181831 ] ] ] } }
]
}
