{
"type": "FeatureCollection",
"name": "0716",
"crs": { "type": "name", "properties": { "name": "urn:ogc:def:crs:OGC:1.3:CRS84" } },
"features": [
{ "type": "Feature", "properties": { "code": "0716", "name": "West B", "type": "district" }, "geometry": { "type": "Polygon", "coordinates": [ [ [ 76.9768113, 28.7004393 ], [ 76.9764665, 28.6974552 ], [ 76.9834504, 28.6900531 ], [ 77.0000582, 28.6792077 ], [ 77.0024034, 28.6799389 ], [ 77.0093825, 28.6882559 ], [ 77.0126974, 28.6953118 ], [ 77.0281101, 28.6961123 ], [ 77.0374163, 28.6984593 ], [ 77.0451179, 28.6949749 ], [ 77.0488643, 28.6882364 ], [ 77.0541003, 28.6834155 ], [ 77.0560954, 28.6868321 ], [ 77.0645235, 28.6919884 ], [ 77.076019, 28.6830221 ], [ 77.0788099, 28.6837574 ], [ 77.0837231, 28.6884352 ], [ 77.0878694, 28.6888417 ], [ 77.092445, 28.685981 ], [ 77.0950133, 28.6890017 ], [ 77.0978835, 28.6892961 ], [ 77.1036596, 28.6846783 ], [ 77.1076838, 28.6885277 ], [ 77.1148045, 28.6830568 ], [ 77.1193045, 28.6897014 ], [ 77.1213065, 28.6890692 ], [ 77.123038, 28.687383 ], [ 77.1207644, 28.6837177 ], [ 77.1220676, 28.682319 ], [ 77.1326631, 28.6771329 ], [ 77.139371, 28.6711843 ], [ 77.1485029, 28.6691969 ], [ 77.1493932, 28.6728682 ], [ 77.1533392, 28.6723964 ], [ 77.1572863, 28.6754269 ], [ 77.1577223, 28.6712647 ], [ 77.1598768, 28.67057 ], [ 77.163913, 28.6622935 ], [ 77.1589187, 28.6580928 ], [ 77.1679455, 28.6561224 ], [ 77.1692788, 28.653077 ], [ 77.1802354, 28.6528557 ], [ 77.1799475, 28.650814 ], [ 77.1811925, 28.6503125 ], [ 77.1754538, 28.641671 ], [ 77.1752394, 28.6332651 ], [ 77.1766567, 28.6301032 ], [ 77.165494, 28.6279575 ], [ 77.1616901, 28.6329982 ], [ 77.1532262, 28.6394919 ], [ 77.1496804, 28.6372532 ], [ 77.1470832, 28.6402055 ], [ 77.145625, 28.6381967 ], [ 77.1362902, 28.6410304 ], [ 77.1252733, 28.6389404 ], [ 77.121961, 28.6317195 ], [ 77.1226492, 28.6286274 ], [ 77.1182427, 28.6273053 ], [ 77.1153063, 28.6181848 ], [ 77.1039419, 28.612761 ], [ 77.08954, 28.6180685 ], [ 77.0795364, 28.6120695 ], [ 77.0640896, 28.6212349 ], [ 77.0611943, 28.6177644 ], [ 77.0531203, 28.618313 ], [ 77.0517957, 28.6163825 ], [ 77.0548948, 28.6116803 ], [ 77.0523289, 28.6074487 ], [ 77.0619405, 28.5996287 ], [ 77.0598073, 28.598423 ], [ 77.0586393, 28.5995327 ], [ 77.0554045, 28.5962173 ], [ 77.053042, 28.5966721 ], [ 77.0363219, 28.6039973 ], [ 77.0326453, 28.6139748 ], [ 77.0341821, 28.616543 ], [ 77.0304873, 28.6190252 ], [ 77.022513, 28.6209738 ], [ 77.0220401, 28.6265161 ], [ 77.0160106, 28.6271939 ], [ 77.0141863, 28.6254101 ], [ 77.0077961, 28.6241107 ], [ 77.0046058, 28.6252188 ], [ 77.0068977, 28.6279986 ], [ 76.9996847, 28.6474007 ], [ 76.9997497, 28.6496087 ], [ 77.0021476, 28.6512845 ], [ 76.9926996, 28.6563065 ], [ 76.9930875, 28.6583 ], [ 76.9887433, 28.6608216 ], [ 76.979676, 28.6542939 ], [ 76.9775145, 28.6570612 ], [ 76.9680115, 28.6585082 ], [ 76.9540467, 28.6671992 ], [ 76.9574663, 28.6833247 ], [ 76.9648252, 28.6962841 ], [ 76.9677439, 28.6995378 ], [ 76.9689793, 28.699226 ], [ 76.9725019, 28.701843 ], [ 76.9744552, 28.7020509 ], [ 76.9768113, 28.7004393 ] ] ] } }
]
}
