{
"type": "FeatureCollection",
"name": "0802",
"crs": { "type": "name", "properties": { "name": "urn:ogc:def:crs:OGC:1.3:CRS84" } },
"features": [
{ "type": "Feature", "properties": { "code": "0802", "name": "Hanumangarh", "type": "district" }, "geometry": { "type": "Polygon", "coordinates": [ [ [ 74.2967285, 29.9554415 ], [ 74.5271591, 29.9429394 ], [ 74.5186018, 29.9295771 ], [ 74.5155252, 29.9159167 ], [ 74.5097916, 29.9084242 ], [ 74.521866, 29.9025434 ], [ 74.5438277, 29.9016836 ], [ 74.5511619, 29.8827118 ], [ 74.5587967, 29.874484 ], [ 74.5611182, 29.8700422 ], [ 74.5513804, 29.8527571 ], [ 74.5441894, 29.8443947 ], [ 74.5335565, 29.8388218 ], [ 74.5079684, 29.8332852 ], [ 74.4835201, 29.8135992 ], [ 74.4764066, 29.7969099 ], [ 74.4735377, 29.7863152 ], [ 74.4736211, 29.7672148 ], [ 74.4778668, 29.7468073 ], [ 74.5067091, 29.7423133 ], [ 74.5227758, 29.7420834 ], [ 74.5339938, 29.7403951 ], [ 74.5461376, 29.7544536 ], [ 74.5524175, 29.7556706 ], [ 74.5773144, 29.7541437 ], [ 74.574817, 29.7487903 ], [ 74.5775048, 29.7478422 ], [ 74.5792994, 29.7490257 ], [ 74.5787885, 29.7522272 ], [ 74.5813989, 29.7525122 ], [ 74.5874882, 29.7669076 ], [ 74.5963444, 29.7673969 ], [ 74.601003, 29.7658958 ], [ 74.6033364, 29.7579122 ], [ 74.6159403, 29.7522663 ], [ 74.6095367, 29.7432252 ], [ 74.6081484, 29.7319038 ], [ 74.6098215, 29.7217603 ], [ 74.6047488, 29.7049048 ], [ 74.6001768, 29.699052 ], [ 74.6012086, 29.6903867 ], [ 74.5931547, 29.6767616 ], [ 74.5854795, 29.6544688 ], [ 74.5865419, 29.6473378 ], [ 74.5913777, 29.6395372 ], [ 74.5892963, 29.6318054 ], [ 74.5815627, 29.6271559 ], [ 74.5827562, 29.623288 ], [ 74.5803182, 29.6171162 ], [ 74.5776215, 29.6000052 ], [ 74.5769801, 29.5718044 ], [ 74.5749724, 29.5643207 ], [ 74.5759242, 29.5601136 ], [ 74.5821454, 29.5559592 ], [ 74.5899147, 29.5479059 ], [ 74.5951904, 29.5449844 ], [ 74.6023008, 29.5439229 ], [ 74.6074444, 29.5403281 ], [ 74.6077029, 29.5388713 ], [ 74.6118481, 29.5384954 ], [ 74.6142804, 29.5353347 ], [ 74.6148328, 29.5311622 ], [ 74.6183613, 29.5314205 ], [ 74.6190329, 29.5325777 ], [ 74.6230893, 29.531055 ], [ 74.6218939, 29.5222475 ], [ 74.6097734, 29.5116847 ], [ 74.6045958, 29.5031812 ], [ 74.6010138, 29.501036 ], [ 74.5997313, 29.493979 ], [ 74.5963782, 29.4914644 ], [ 74.5953918, 29.4891645 ], [ 74.5958805, 29.4804025 ], [ 74.5863913, 29.4650485 ], [ 74.5846647, 29.4584908 ], [ 74.5732261, 29.4651017 ], [ 74.5437688, 29.4679688 ], [ 74.5389613, 29.4637194 ], [ 74.5367783, 29.4595557 ], [ 74.5346564, 29.4477163 ], [ 74.5364402, 29.4432054 ], [ 74.5345843, 29.4352567 ], [ 74.5366228, 29.4245464 ], [ 74.5492611, 29.4247341 ], [ 74.566413, 29.4204815 ], [ 74.5695751, 29.4125631 ], [ 74.5736619, 29.4064796 ], [ 74.5739211, 29.3999416 ], [ 74.57789, 29.3885011 ], [ 74.5852526, 29.3785197 ], [ 74.5897272, 29.3766382 ], [ 74.5952179, 29.3705042 ], [ 74.6029108, 29.364909 ], [ 74.6073436, 29.3562307 ], [ 74.6028288, 29.3435502 ], [ 74.5992864, 29.3274564 ], [ 74.6343844, 29.3296149 ], [ 74.6545091, 29.3329402 ], [ 74.6520932, 29.3512917 ], [ 74.6582259, 29.3719667 ], [ 74.6793265, 29.3692979 ], [ 74.6909747, 29.3659228 ], [ 74.708081, 29.3667646 ], [ 74.7195193, 29.3700067 ], [ 74.7298585, 29.3604882 ], [ 74.7392142, 29.3541439 ], [ 74.762203, 29.3543764 ], [ 74.7700219, 29.3569082 ], [ 74.7818934, 29.3579074 ], [ 74.7875525, 29.3614274 ], [ 74.8203768, 29.3972073 ], [ 74.8448151, 29.3996839 ], [ 74.8496565, 29.4015261 ], [ 74.850576, 29.4035783 ], [ 74.8668227, 29.3976996 ], [ 74.8714024, 29.3948746 ], [ 74.874318, 29.3915741 ], [ 74.8759235, 29.384969 ], [ 74.8776616, 29.3835445 ], [ 74.9003113, 29.3847638 ], [ 74.9167953, 29.3712956 ], [ 74.9382847, 29.3620336 ], [ 74.938147, 29.3512932 ], [ 74.9398946, 29.3400166 ], [ 74.9545302, 29.3327163 ], [ 74.9580701, 29.3281821 ], [ 74.9608953, 29.320254 ], [ 74.9608446, 29.3180473 ], [ 74.9553387, 29.3090967 ], [ 74.9484122, 29.3014721 ], [ 74.9558069, 29.2861539 ], [ 74.9611677, 29.2805822 ], [ 74.9709998, 29.2790775 ], [ 74.9832605, 29.2805733 ], [ 74.9992281, 29.2703065 ], [ 75.019878, 29.2862047 ], [ 75.0348198, 29.2875959 ], [ 75.0500008, 29.286076 ], [ 75.0604115, 29.2760083 ], [ 75.0612421, 29.2639734 ], [ 75.0705802, 29.2528488 ], [ 75.0732092, 29.2478319 ], [ 75.0741939, 29.2432689 ], [ 75.0728728, 29.2378317 ], [ 75.0743911, 29.2313234 ], [ 75.0758078, 29.2296546 ], [ 75.0820853, 29.228002 ], [ 75.1196107, 29.2228652 ], [ 75.1243899, 29.2398696 ], [ 75.1378385, 29.2387328 ], [ 75.1522024, 29.2409465 ], [ 75.1628326, 29.2440162 ], [ 75.1743851, 29.2512488 ], [ 75.1686426, 29.2587481 ], [ 75.1762327, 29.2631887 ], [ 75.1813826, 29.2636603 ], [ 75.1836686, 29.2668891 ], [ 75.1880064, 29.2681908 ], [ 75.1957253, 29.263315 ], [ 75.1985063, 29.2532585 ], [ 75.210142, 29.23465 ], [ 75.2180344, 29.2318659 ], [ 75.224631, 29.232207 ], [ 75.2383945, 29.2302381 ], [ 75.2420722, 29.2364141 ], [ 75.2422975, 29.2446811 ], [ 75.2446868, 29.2500007 ], [ 75.2557047, 29.2518141 ], [ 75.2717079, 29.2515207 ], [ 75.277678, 29.2498332 ], [ 75.2837681, 29.2497884 ], [ 75.2830887, 29.2545964 ], [ 75.2841124, 29.2545971 ], [ 75.2840472, 29.2584585 ], [ 75.2852712, 29.2588382 ], [ 75.2849743, 29.269087 ], [ 75.2874145, 29.2733245 ], [ 75.2974227, 29.271824 ], [ 75.3057917, 29.2746027 ], [ 75.3161755, 29.2817757 ], [ 75.3220477, 29.2894919 ], [ 75.3350368, 29.2868845 ], [ 75.3406115, 29.2811345 ], [ 75.3403207, 29.2734702 ], [ 75.3386537, 29.2734517 ], [ 75.340035, 29.2663382 ], [ 75.3399124, 29.2634556 ], [ 75.3384565, 29.2634688 ], [ 75.3396256, 29.2597701 ], [ 75.3384273, 29.2588631 ], [ 75.3396009, 29.2568605 ], [ 75.3387384, 29.2519748 ], [ 75.3356549, 29.2479579 ], [ 75.3358486, 29.244266 ], [ 75.3343149, 29.2441525 ], [ 75.3338884, 29.241157 ], [ 75.3281223, 29.2353137 ], [ 75.3296264, 29.2326475 ], [ 75.3426887, 29.2292932 ], [ 75.3498418, 29.2237736 ], [ 75.3558943, 29.2230085 ], [ 75.3599782, 29.227199 ], [ 75.3612927, 29.2294067 ], [ 75.3615308, 29.242976 ], [ 75.3647714, 29.2470287 ], [ 75.3752964, 29.2553537 ], [ 75.3772872, 29.2547087 ], [ 75.378023, 29.2568334 ], [ 75.3851838, 29.2580193 ], [ 75.3886051, 29.2612399 ], [ 75.4054735, 29.2605423 ], [ 75.4060743, 29.25701 ], [ 75.407191, 29.2582954 ], [ 75.4106984, 29.2554751 ], [ 75.4119917, 29.2427489 ], [ 75.4086849, 29.241888 ], [ 75.4077611, 29.2359972 ], [ 75.4087813, 29.2350644 ], [ 75.4052635, 29.2315146 ], [ 75.4049828, 29.2281805 ], [ 75.4020821, 29.2271017 ], [ 75.4018204, 29.2246249 ], [ 75.4031529, 29.2246435 ], [ 75.4022954, 29.2224348 ], [ 75.3980142, 29.2234946 ], [ 75.3968234, 29.2175367 ], [ 75.3983303, 29.2174465 ], [ 75.3996388, 29.2152675 ], [ 75.4015317, 29.2152573 ], [ 75.4029282, 29.2132449 ], [ 75.4085766, 29.2133135 ], [ 75.4073691, 29.2110653 ], [ 75.4110223, 29.2074575 ], [ 75.4103996, 29.2047878 ], [ 75.412276, 29.196817 ], [ 75.4113232, 29.1939182 ], [ 75.4117853, 29.1911414 ], [ 75.414072, 29.1893879 ], [ 75.4129442, 29.1877216 ], [ 75.4143807, 29.1843145 ], [ 75.4126985, 29.1815895 ], [ 75.4094481, 29.1802095 ], [ 75.4058814, 29.1728916 ], [ 75.4071933, 29.1717774 ], [ 75.406774, 29.169748 ], [ 75.395264, 29.1677471 ], [ 75.3812521, 29.1689521 ], [ 75.3813672, 29.1527823 ], [ 75.3810987, 29.1510727 ], [ 75.3797045, 29.1507969 ], [ 75.3787426, 29.1422342 ], [ 75.37437, 29.142779 ], [ 75.3733776, 29.14127 ], [ 75.3711048, 29.1410552 ], [ 75.3715002, 29.1381027 ], [ 75.3730372, 29.1381165 ], [ 75.3750057, 29.1352092 ], [ 75.3843908, 29.1294739 ], [ 75.4021633, 29.1279009 ], [ 75.4057924, 29.120164 ], [ 75.3937059, 29.1096941 ], [ 75.3921093, 29.1019863 ], [ 75.3940183, 29.099968 ], [ 75.3937957, 29.0981996 ], [ 75.3969277, 29.0975811 ], [ 75.3968767, 29.0963402 ], [ 75.3956046, 29.0955543 ], [ 75.3957395, 29.0932072 ], [ 75.3929747, 29.0930844 ], [ 75.390988, 29.0853777 ], [ 75.39239, 29.0852247 ], [ 75.3932551, 29.0830334 ], [ 75.3926983, 29.0784455 ], [ 75.394213, 29.078238 ], [ 75.3946923, 29.0759575 ], [ 75.391257, 29.0627313 ], [ 75.3947155, 29.0618051 ], [ 75.4105991, 29.0622313 ], [ 75.4314491, 29.0563127 ], [ 75.4418192, 29.0575381 ], [ 75.4438592, 29.0522342 ], [ 75.4421741, 29.0509575 ], [ 75.4431999, 29.0480434 ], [ 75.4462171, 29.0485695 ], [ 75.4467154, 29.0455439 ], [ 75.4519268, 29.0391684 ], [ 75.4504485, 29.0353945 ], [ 75.4471287, 29.0351625 ], [ 75.4478149, 29.0309825 ], [ 75.4461519, 29.029679 ], [ 75.4449493, 29.0243816 ], [ 75.4429523, 29.0230868 ], [ 75.4429487, 29.0209228 ], [ 75.4456863, 29.0179749 ], [ 75.4457191, 29.0083205 ], [ 75.4586028, 29.0141987 ], [ 75.4626994, 29.0126085 ], [ 75.4726094, 29.0143104 ], [ 75.4848078, 29.0121301 ], [ 75.4977638, 29.0127687 ], [ 75.5051528, 29.0117886 ], [ 75.5153127, 29.0083285 ], [ 75.5219959, 29.0037454 ], [ 75.5203938, 29.0036478 ], [ 75.5207707, 29.0000016 ], [ 75.522844, 28.992587 ], [ 75.526853, 28.9853224 ], [ 75.5280303, 28.9772212 ], [ 75.5274204, 28.9710042 ], [ 75.5243593, 28.9694998 ], [ 75.5211648, 28.9628704 ], [ 75.5187331, 28.9630805 ], [ 75.5160684, 28.9605702 ], [ 75.5147499, 28.9607315 ], [ 75.512138, 28.9569174 ], [ 75.5127347, 28.9552849 ], [ 75.510028, 28.9538796 ], [ 75.5104626, 28.9504559 ], [ 75.5089241, 28.9502787 ], [ 75.5083519, 28.9483067 ], [ 75.5118701, 28.9436948 ], [ 75.5115642, 28.9420615 ], [ 75.5087381, 28.9422441 ], [ 75.5077067, 28.9381199 ], [ 75.50624, 28.9380916 ], [ 75.5056938, 28.9359122 ], [ 75.5004733, 28.9359345 ], [ 75.5008395, 28.9339273 ], [ 75.4941271, 28.9346689 ], [ 75.4933293, 28.9362694 ], [ 75.4907349, 28.934406 ], [ 75.4842156, 28.9346463 ], [ 75.4838199, 28.9333976 ], [ 75.4798691, 28.9332764 ], [ 75.4772183, 28.9346983 ], [ 75.4763329, 28.9320968 ], [ 75.4710692, 28.9339934 ], [ 75.4695447, 28.9429163 ], [ 75.4595168, 28.9515887 ], [ 75.4547228, 28.954737 ], [ 75.4536692, 28.9542835 ], [ 75.4515392, 28.9695772 ], [ 75.453692, 28.971348 ], [ 75.4524341, 28.9723812 ], [ 75.4515897, 28.9705699 ], [ 75.4486107, 28.9711936 ], [ 75.4490538, 28.9763459 ], [ 75.4516609, 28.9763462 ], [ 75.4518492, 28.9842432 ], [ 75.4445804, 28.9864065 ], [ 75.4434305, 28.9899755 ], [ 75.4415582, 28.9914619 ], [ 75.4406179, 28.9912303 ], [ 75.4411413, 28.9899966 ], [ 75.4340862, 28.9906288 ], [ 75.4347707, 28.9935148 ], [ 75.4316087, 28.9934934 ], [ 75.4323725, 28.9986973 ], [ 75.4277636, 28.999842 ], [ 75.4254898, 28.9959454 ], [ 75.4225338, 28.9961307 ], [ 75.4207184, 28.9813295 ], [ 75.4187132, 28.9791831 ], [ 75.4157567, 28.979111 ], [ 75.4122179, 28.9745909 ], [ 75.4087921, 28.9738929 ], [ 75.4075702, 28.9711617 ], [ 75.4028183, 28.969935 ], [ 75.4016795, 28.9634172 ], [ 75.3998142, 28.9614009 ], [ 75.3985912, 28.9569593 ], [ 75.4005956, 28.9457703 ], [ 75.3999456, 28.9408621 ], [ 75.3783045, 28.9380555 ], [ 75.3807723, 28.9241983 ], [ 75.3766171, 28.922354 ], [ 75.37463, 28.9175441 ], [ 75.3752007, 28.9150514 ], [ 75.363512, 28.9123991 ], [ 75.3576479, 28.9134023 ], [ 75.3533818, 28.9122717 ], [ 75.3444175, 28.9142491 ], [ 75.3431529, 28.9149563 ], [ 75.3428542, 28.9176965 ], [ 75.3335398, 28.9147761 ], [ 75.3331632, 28.9204151 ], [ 75.3306273, 28.9214006 ], [ 75.3351386, 28.9333489 ], [ 75.3351625, 28.9391616 ], [ 75.3387456, 28.9413865 ], [ 75.3545676, 28.944216 ], [ 75.3570596, 28.9467773 ], [ 75.3585203, 28.961233 ], [ 75.3576976, 28.967073 ], [ 75.3537407, 28.9666161 ], [ 75.3531743, 28.970607 ], [ 75.3352785, 28.979945 ], [ 75.3342423, 28.9817392 ], [ 75.3179617, 28.9833312 ], [ 75.3164848, 28.9854557 ], [ 75.302252, 28.9819819 ], [ 75.2954644, 28.9829447 ], [ 75.2920435, 28.9692328 ], [ 75.2948881, 28.9625474 ], [ 75.2990611, 28.9628992 ], [ 75.2990891, 28.9619288 ], [ 75.3021884, 28.9618677 ], [ 75.3022209, 28.9606988 ], [ 75.3060208, 28.9598282 ], [ 75.3072483, 28.954974 ], [ 75.3082795, 28.9549265 ], [ 75.3084983, 28.9508327 ], [ 75.300583, 28.9497043 ], [ 75.2982123, 28.9334944 ], [ 75.2988589, 28.9263986 ], [ 75.2963061, 28.9252579 ], [ 75.2955635, 28.9220734 ], [ 75.2938406, 28.9222938 ], [ 75.2952663, 28.9257882 ], [ 75.2941185, 28.926242 ], [ 75.2916847, 28.9217704 ], [ 75.294972, 28.921488 ], [ 75.2941149, 28.9177079 ], [ 75.2903534, 28.9170933 ], [ 75.2909818, 28.9217088 ], [ 75.2831451, 28.9221903 ], [ 75.2834055, 28.923652 ], [ 75.2804724, 28.9240327 ], [ 75.2802449, 28.9252923 ], [ 75.2782056, 28.9242269 ], [ 75.2806695, 28.9267446 ], [ 75.2805224, 28.9292857 ], [ 75.2771414, 28.9310799 ], [ 75.2740107, 28.9305267 ], [ 75.2720088, 28.9281118 ], [ 75.2624834, 28.9264202 ], [ 75.2621376, 28.9276033 ], [ 75.2595974, 28.9272517 ], [ 75.2600844, 28.9291778 ], [ 75.2509994, 28.9270875 ], [ 75.2502005, 28.9297923 ], [ 75.252681, 28.9309159 ], [ 75.2522997, 28.9344638 ], [ 75.2499894, 28.9323108 ], [ 75.244463, 28.9310755 ], [ 75.2441498, 28.9287609 ], [ 75.2406828, 28.9269123 ], [ 75.2433318, 28.9255446 ], [ 75.2402387, 28.9100344 ], [ 75.2408987, 28.902695 ], [ 75.2426316, 28.9024166 ], [ 75.2449637, 28.8996098 ], [ 75.2488279, 28.8898952 ], [ 75.2475883, 28.884008 ], [ 75.2419384, 28.8821543 ], [ 75.240278, 28.8758706 ], [ 75.2350668, 28.8727974 ], [ 75.2306885, 28.8659542 ], [ 75.2259824, 28.8661427 ], [ 75.2255546, 28.8674522 ], [ 75.220372, 28.8653712 ], [ 75.2228023, 28.8582411 ], [ 75.2133962, 28.8587031 ], [ 75.1984527, 28.8615466 ], [ 75.1982241, 28.8680773 ], [ 75.1927594, 28.8683921 ], [ 75.1883005, 28.8664443 ], [ 75.1868461, 28.8615993 ], [ 75.1806933, 28.8581642 ], [ 75.1749734, 28.8528237 ], [ 75.173473, 28.8506594 ], [ 75.1730075, 28.8450728 ], [ 75.1701737, 28.8455683 ], [ 75.1680293, 28.8444202 ], [ 75.1672215, 28.8521205 ], [ 75.1565323, 28.8548321 ], [ 75.1542509, 28.8616405 ], [ 75.1575868, 28.8639924 ], [ 75.1508554, 28.8675835 ], [ 75.1501174, 28.8713753 ], [ 75.1475784, 28.8742123 ], [ 75.1448054, 28.8748336 ], [ 75.140669, 28.872067 ], [ 75.1338704, 28.8720694 ], [ 75.1316473, 28.8736692 ], [ 75.1278122, 28.8737902 ], [ 75.1282152, 28.8762811 ], [ 75.122545, 28.8768189 ], [ 75.1214718, 28.8755065 ], [ 75.1084797, 28.8760457 ], [ 75.1080684, 28.8749764 ], [ 75.0970996, 28.8733736 ], [ 75.0968984, 28.8720649 ], [ 75.0871821, 28.8655231 ], [ 75.0791664, 28.8623147 ], [ 75.0500744, 28.8556899 ], [ 75.046029, 28.8542788 ], [ 75.0452286, 28.8525596 ], [ 75.0423217, 28.8516985 ], [ 75.0424597, 28.8506108 ], [ 75.0343497, 28.8492276 ], [ 75.031592, 28.8497653 ], [ 75.0305109, 28.8514264 ], [ 75.0278246, 28.8506507 ], [ 75.0268679, 28.8580163 ], [ 75.0290736, 28.8810054 ], [ 75.0322927, 28.8854417 ], [ 75.0382241, 28.8890003 ], [ 75.0387588, 28.8927369 ], [ 75.0448164, 28.8955241 ], [ 75.0432629, 28.8962467 ], [ 75.041057, 28.9075887 ], [ 75.0428651, 28.9141456 ], [ 75.0410937, 28.9226577 ], [ 75.039678, 28.9228883 ], [ 75.0394323, 28.9242874 ], [ 75.0421308, 28.924923 ], [ 75.0421629, 28.9282175 ], [ 75.0415022, 28.9308668 ], [ 75.0378806, 28.9314997 ], [ 75.0397028, 28.9342341 ], [ 75.0360613, 28.9367895 ], [ 75.0359233, 28.9384232 ], [ 75.0157653, 28.9352499 ], [ 75.0157652, 28.9339592 ], [ 75.0097113, 28.9313377 ], [ 75.003314, 28.9306204 ], [ 75.0024519, 28.9188821 ], [ 74.9986458, 28.9168106 ], [ 74.9965225, 28.9098018 ], [ 74.9475367, 28.9068085 ], [ 74.943136, 28.8975414 ], [ 74.9431996, 28.8937911 ], [ 74.9231485, 28.8934472 ], [ 74.9233466, 28.895943 ], [ 74.9165409, 28.8964219 ], [ 74.9165203, 28.9030335 ], [ 74.9187512, 28.9031116 ], [ 74.9188727, 28.905138 ], [ 74.9154438, 28.9149563 ], [ 74.9106069, 28.9209465 ], [ 74.8998533, 28.928417 ], [ 74.8995216, 28.9319053 ], [ 74.8981516, 28.9321299 ], [ 74.9020851, 28.9389836 ], [ 74.8924412, 28.9376449 ], [ 74.8776543, 28.9429938 ], [ 74.8718178, 28.9412598 ], [ 74.8715803, 28.942442 ], [ 74.8675999, 28.941671 ], [ 74.8673934, 28.9426456 ], [ 74.8602805, 28.9440103 ], [ 74.8595295, 28.9416718 ], [ 74.8483294, 28.9381305 ], [ 74.8424961, 28.9347571 ], [ 74.8191879, 28.9326924 ], [ 74.8178935, 28.9335887 ], [ 74.803901, 28.9294622 ], [ 74.8005696, 28.9278372 ], [ 74.800765, 28.924913 ], [ 74.7914258, 28.9187883 ], [ 74.7887268, 28.9192399 ], [ 74.7847707, 28.9173562 ], [ 74.784795, 28.9155014 ], [ 74.7826782, 28.9147308 ], [ 74.7829667, 28.9092389 ], [ 74.7788581, 28.9069531 ], [ 74.7797795, 28.90051 ], [ 74.7750012, 28.89978 ], [ 74.7734458, 28.8957608 ], [ 74.7671896, 28.8909979 ], [ 74.7692454, 28.8866238 ], [ 74.768368, 28.8822492 ], [ 74.7693863, 28.880879 ], [ 74.7692476, 28.8740189 ], [ 74.7780664, 28.8740292 ], [ 74.7777162, 28.8723497 ], [ 74.7876143, 28.8685477 ], [ 74.787337, 28.8662501 ], [ 74.7897629, 28.865771 ], [ 74.7918133, 28.8582238 ], [ 74.7935771, 28.8581002 ], [ 74.7941489, 28.856711 ], [ 74.7978587, 28.8575831 ], [ 74.8004847, 28.846187 ], [ 74.8014741, 28.8461253 ], [ 74.7987014, 28.8432464 ], [ 74.7986366, 28.8370092 ], [ 74.8001859, 28.8362443 ], [ 74.8003767, 28.8329049 ], [ 74.7992492, 28.8329258 ], [ 74.7991566, 28.8304164 ], [ 74.7937129, 28.8308595 ], [ 74.7887848, 28.8297145 ], [ 74.7734841, 28.8236964 ], [ 74.7632136, 28.8238773 ], [ 74.7543639, 28.8301031 ], [ 74.7536814, 28.8391821 ], [ 74.755575, 28.840386 ], [ 74.7500006, 28.8537944 ], [ 74.7277914, 28.8513447 ], [ 74.7261033, 28.8500144 ], [ 74.7209374, 28.8503221 ], [ 74.7188294, 28.8461814 ], [ 74.7086637, 28.8447608 ], [ 74.7062045, 28.8424899 ], [ 74.7002369, 28.841168 ], [ 74.7000059, 28.8395022 ], [ 74.6929559, 28.833317 ], [ 74.6902516, 28.8361676 ], [ 74.6857053, 28.8362022 ], [ 74.6841992, 28.8376383 ], [ 74.6751368, 28.8361907 ], [ 74.6741231, 28.8374835 ], [ 74.6683864, 28.8362871 ], [ 74.6520068, 28.8375095 ], [ 74.6509411, 28.8358459 ], [ 74.6358042, 28.836361 ], [ 74.6340935, 28.8345557 ], [ 74.633347, 28.8223594 ], [ 74.6347855, 28.8183963 ], [ 74.6325512, 28.8125639 ], [ 74.6189074, 28.8120161 ], [ 74.6166738, 28.8104753 ], [ 74.6116487, 28.8100412 ], [ 74.6070134, 28.8108718 ], [ 74.603394, 28.8099811 ], [ 74.596491, 28.8115357 ], [ 74.5957786, 28.8169041 ], [ 74.591155, 28.81856 ], [ 74.5906276, 28.8236852 ], [ 74.5876492, 28.8239379 ], [ 74.5876941, 28.8255537 ], [ 74.5851641, 28.8264035 ], [ 74.5830213, 28.8291363 ], [ 74.555914, 28.820976 ], [ 74.5427529, 28.8188921 ], [ 74.5424916, 28.8165445 ], [ 74.5398479, 28.8199338 ], [ 74.5396014, 28.8235389 ], [ 74.5366352, 28.8221658 ], [ 74.5244472, 28.8258963 ], [ 74.4908672, 28.8189817 ], [ 74.4844441, 28.8194311 ], [ 74.4772403, 28.8150755 ], [ 74.4660778, 28.8174507 ], [ 74.4563291, 28.8287124 ], [ 74.4382626, 28.8289272 ], [ 74.4358608, 28.841901 ], [ 74.4323794, 28.8458984 ], [ 74.4299443, 28.8581724 ], [ 74.4282727, 28.860133 ], [ 74.4235116, 28.8756779 ], [ 74.4224353, 28.8756011 ], [ 74.4213876, 28.8777718 ], [ 74.4192515, 28.8847848 ], [ 74.4003905, 28.8814664 ], [ 74.3986932, 28.8779252 ], [ 74.3966795, 28.8785932 ], [ 74.3813489, 28.8751029 ], [ 74.3812008, 28.8724125 ], [ 74.3771487, 28.8683999 ], [ 74.3680435, 28.864156 ], [ 74.3693225, 28.8611879 ], [ 74.3638796, 28.8584366 ], [ 74.36329, 28.8559246 ], [ 74.3618591, 28.8552048 ], [ 74.3620936, 28.8528953 ], [ 74.3516167, 28.8486393 ], [ 74.3489379, 28.8433688 ], [ 74.3372212, 28.840076 ], [ 74.3343656, 28.8369751 ], [ 74.3203687, 28.8314221 ], [ 74.3215015, 28.8290224 ], [ 74.3207674, 28.8276332 ], [ 74.3117265, 28.8254167 ], [ 74.3064012, 28.8224334 ], [ 74.3062518, 28.8202394 ], [ 74.3034831, 28.8189209 ], [ 74.3034198, 28.8168898 ], [ 74.2963736, 28.8146419 ], [ 74.2893955, 28.809966 ], [ 74.2890552, 28.8072655 ], [ 74.274825, 28.8000684 ], [ 74.274341, 28.798202 ], [ 74.2709161, 28.797827 ], [ 74.2703107, 28.7964744 ], [ 74.264123, 28.7955879 ], [ 74.2612437, 28.7977654 ], [ 74.2577152, 28.7982831 ], [ 74.2554545, 28.8006309 ], [ 74.2520884, 28.7991998 ], [ 74.2498297, 28.8083981 ], [ 74.2481714, 28.8074366 ], [ 74.2455463, 28.8119484 ], [ 74.2335718, 28.8070025 ], [ 74.2272964, 28.8103198 ], [ 74.2268075, 28.8119913 ], [ 74.2117291, 28.8070347 ], [ 74.2078427, 28.8073775 ], [ 74.2061931, 28.809376 ], [ 74.1966945, 28.8072394 ], [ 74.1942007, 28.8083934 ], [ 74.1870676, 28.8032195 ], [ 74.1848222, 28.8033819 ], [ 74.1770805, 28.7981722 ], [ 74.1763921, 28.7958078 ], [ 74.1709831, 28.7943757 ], [ 74.1722282, 28.7859262 ], [ 74.167838, 28.7827087 ], [ 74.1661116, 28.7775714 ], [ 74.1618447, 28.7762904 ], [ 74.1600492, 28.7766312 ], [ 74.1571955, 28.7818033 ], [ 74.1516053, 28.782003 ], [ 74.1515074, 28.783979 ], [ 74.1460342, 28.7848922 ], [ 74.1415336, 28.7915021 ], [ 74.1391843, 28.7924935 ], [ 74.1386522, 28.7961455 ], [ 74.1365479, 28.7966149 ], [ 74.1281135, 28.7955814 ], [ 74.1216594, 28.7930124 ], [ 74.1137192, 28.7923603 ], [ 74.1069847, 28.786702 ], [ 74.0943651, 28.7828452 ], [ 74.0926065, 28.7830275 ], [ 74.0912767, 28.7875178 ], [ 74.0884876, 28.7877833 ], [ 74.0860287, 28.7860203 ], [ 74.0701749, 28.7819227 ], [ 74.0686029, 28.778974 ], [ 74.0627947, 28.7766233 ], [ 74.0575145, 28.7765504 ], [ 74.0571925, 28.778755 ], [ 74.0596206, 28.7793044 ], [ 74.0589621, 28.7847558 ], [ 74.0610854, 28.7844682 ], [ 74.0708008, 28.791634 ], [ 74.0723955, 28.8024532 ], [ 74.0755185, 28.8038781 ], [ 74.0757997, 28.8062673 ], [ 74.0796207, 28.8087303 ], [ 74.0830179, 28.8092859 ], [ 74.0830735, 28.8152387 ], [ 74.0903812, 28.8198551 ], [ 74.0899164, 28.8238007 ], [ 74.0923384, 28.8246067 ], [ 74.0922791, 28.8267228 ], [ 74.0961203, 28.8269742 ], [ 74.0978768, 28.8300998 ], [ 74.1046185, 28.8351765 ], [ 74.1062793, 28.8357426 ], [ 74.1088599, 28.8324111 ], [ 74.1144225, 28.8327682 ], [ 74.1168327, 28.8338129 ], [ 74.118398, 28.8365985 ], [ 74.1237002, 28.8374815 ], [ 74.1271634, 28.839485 ], [ 74.1275546, 28.840512 ], [ 74.1260721, 28.8400601 ], [ 74.1264246, 28.8414208 ], [ 74.1195159, 28.8413939 ], [ 74.1200246, 28.8448901 ], [ 74.1188369, 28.8447244 ], [ 74.1185727, 28.8462706 ], [ 74.1216355, 28.8508169 ], [ 74.1233947, 28.8512977 ], [ 74.1235556, 28.8528963 ], [ 74.1217215, 28.8521713 ], [ 74.1210023, 28.8547886 ], [ 74.1234387, 28.8552241 ], [ 74.1241158, 28.8576068 ], [ 74.1227501, 28.8578686 ], [ 74.1227799, 28.862869 ], [ 74.1282027, 28.8648221 ], [ 74.1269871, 28.868578 ], [ 74.1314852, 28.8714275 ], [ 74.131827, 28.8765652 ], [ 74.1310948, 28.8813757 ], [ 74.1280262, 28.8835129 ], [ 74.1268068, 28.882792 ], [ 74.1238361, 28.8866899 ], [ 74.1236519, 28.8915309 ], [ 74.1225608, 28.8926114 ], [ 74.1239975, 28.8955585 ], [ 74.1218849, 28.8979862 ], [ 74.1128912, 28.894845 ], [ 74.1135792, 28.8995699 ], [ 74.1115825, 28.9021967 ], [ 74.1162003, 28.9085901 ], [ 74.1143719, 28.9082847 ], [ 74.1140433, 28.9095371 ], [ 74.1167204, 28.9113598 ], [ 74.115928, 28.9152988 ], [ 74.1105791, 28.9188331 ], [ 74.1106646, 28.9208328 ], [ 74.1084102, 28.9241393 ], [ 74.1133381, 28.9267261 ], [ 74.1133449, 28.9301513 ], [ 74.1118366, 28.9313733 ], [ 74.1150704, 28.9347431 ], [ 74.114449, 28.9372391 ], [ 74.1154785, 28.9392495 ], [ 74.1117296, 28.9384982 ], [ 74.1115495, 28.9397606 ], [ 74.1089677, 28.9399241 ], [ 74.097823, 28.9371827 ], [ 74.0962055, 28.9385528 ], [ 74.0929599, 28.9371681 ], [ 74.091298, 28.9342011 ], [ 74.0833448, 28.9314982 ], [ 74.0810358, 28.9339012 ], [ 74.0770377, 28.9341221 ], [ 74.0753576, 28.9396116 ], [ 74.0713702, 28.9363034 ], [ 74.0672559, 28.9351648 ], [ 74.0649691, 28.9418954 ], [ 74.066447, 28.9464274 ], [ 74.0694485, 28.9487091 ], [ 74.0691412, 28.9566854 ], [ 74.0721701, 28.9565032 ], [ 74.0759652, 28.9630547 ], [ 74.0707909, 28.9695987 ], [ 74.0673585, 28.9689521 ], [ 74.0642808, 28.980217 ], [ 74.0634668, 28.9799902 ], [ 74.0570234, 28.9921654 ], [ 74.0570234, 28.9961231 ], [ 74.0544606, 28.9968497 ], [ 74.0548735, 28.9982921 ], [ 74.0497669, 28.9987705 ], [ 74.0445196, 28.9966846 ], [ 74.0409904, 28.9975529 ], [ 74.0400818, 29.0036701 ], [ 74.0416779, 29.0059288 ], [ 74.0408847, 29.0095549 ], [ 74.0591372, 29.018322 ], [ 74.0613902, 29.018419 ], [ 74.063971, 29.0208917 ], [ 74.0709073, 29.0225962 ], [ 74.0787663, 29.028286 ], [ 74.0824642, 29.0290114 ], [ 74.083745, 29.032153 ], [ 74.0917095, 29.0368631 ], [ 74.0949116, 29.0433903 ], [ 74.1010486, 29.0441281 ], [ 74.1010148, 29.0480358 ], [ 74.1032189, 29.0491065 ], [ 74.1047409, 29.0530562 ], [ 74.1107919, 29.0571172 ], [ 74.1099456, 29.0617687 ], [ 74.1121657, 29.0646218 ], [ 74.1180461, 29.0641056 ], [ 74.121778, 29.0655786 ], [ 74.1288797, 29.0639687 ], [ 74.1359446, 29.0686128 ], [ 74.1374067, 29.0743849 ], [ 74.1355719, 29.0745039 ], [ 74.1345552, 29.0824442 ], [ 74.1379223, 29.083418 ], [ 74.1437203, 29.0880039 ], [ 74.1437687, 29.0920836 ], [ 74.1471191, 29.0932647 ], [ 74.1530625, 29.1034288 ], [ 74.1586856, 29.1070021 ], [ 74.1625514, 29.1112366 ], [ 74.1593722, 29.1211491 ], [ 74.1610917, 29.1283755 ], [ 74.1634857, 29.1310439 ], [ 74.1659767, 29.1388979 ], [ 74.178321, 29.1462801 ], [ 74.2024967, 29.1495761 ], [ 74.2023926, 29.1530683 ], [ 74.2043298, 29.1545148 ], [ 74.2036201, 29.1638833 ], [ 74.20668, 29.172471 ], [ 74.2054649, 29.1740207 ], [ 74.2026923, 29.1734988 ], [ 74.2029087, 29.1761039 ], [ 74.1988577, 29.1845995 ], [ 74.1993184, 29.1888487 ], [ 74.2028531, 29.1886171 ], [ 74.2062673, 29.1900137 ], [ 74.2069055, 29.193957 ], [ 74.2092556, 29.1959926 ], [ 74.2070312, 29.201011 ], [ 74.2092571, 29.2025043 ], [ 74.2085549, 29.2048693 ], [ 74.2103469, 29.2052544 ], [ 74.207461, 29.2079991 ], [ 74.2096161, 29.2100154 ], [ 74.2102917, 29.2171538 ], [ 74.2153163, 29.2199993 ], [ 74.2153982, 29.2220755 ], [ 74.2126387, 29.2237019 ], [ 74.2125246, 29.2292111 ], [ 74.2160321, 29.2381306 ], [ 74.2163215, 29.2420132 ], [ 74.2085961, 29.2443232 ], [ 74.2068518, 29.2523453 ], [ 74.2043252, 29.2523483 ], [ 74.2043905, 29.2572042 ], [ 74.2021065, 29.2571004 ], [ 74.2018028, 29.2591066 ], [ 74.1994545, 29.2593182 ], [ 74.1992764, 29.2639745 ], [ 74.2010898, 29.2651851 ], [ 74.1993489, 29.2668188 ], [ 74.1941006, 29.267043 ], [ 74.1930077, 29.2683518 ], [ 74.1914299, 29.267776 ], [ 74.1909616, 29.2690701 ], [ 74.1894476, 29.2683302 ], [ 74.1872905, 29.273889 ], [ 74.1883868, 29.2774398 ], [ 74.1865086, 29.2779763 ], [ 74.1904695, 29.2808049 ], [ 74.1922586, 29.2798 ], [ 74.1930101, 29.2823828 ], [ 74.198067, 29.2834953 ], [ 74.2008965, 29.2861166 ], [ 74.2002333, 29.2871973 ], [ 74.2033627, 29.2894556 ], [ 74.2144866, 29.294144 ], [ 74.2139818, 29.2956109 ], [ 74.2165089, 29.2975935 ], [ 74.2360487, 29.2978805 ], [ 74.236123, 29.3024211 ], [ 74.2438899, 29.3023502 ], [ 74.2438547, 29.3000813 ], [ 74.2464425, 29.3000611 ], [ 74.2464772, 29.302287 ], [ 74.241372, 29.306912 ], [ 74.2414825, 29.3137204 ], [ 74.2389128, 29.3154306 ], [ 74.2390989, 29.3273618 ], [ 74.229861, 29.3275103 ], [ 74.228665, 29.3317839 ], [ 74.2293028, 29.3365495 ], [ 74.2159322, 29.336649 ], [ 74.216002, 29.3411887 ], [ 74.2056338, 29.3412777 ], [ 74.2055077, 29.3324016 ], [ 74.2029141, 29.3322237 ], [ 74.2028795, 29.3299549 ], [ 74.1951106, 29.3304128 ], [ 74.1936547, 29.3328725 ], [ 74.1899771, 29.3327037 ], [ 74.1873796, 29.3323505 ], [ 74.184745, 29.3301133 ], [ 74.179522, 29.3299197 ], [ 74.168263, 29.3245314 ], [ 74.1665071, 29.3258046 ], [ 74.1661821, 29.3139245 ], [ 74.1644851, 29.3119097 ], [ 74.1611239, 29.3129703 ], [ 74.1538274, 29.3087625 ], [ 74.1524204, 29.3017476 ], [ 74.1413741, 29.3015786 ], [ 74.1402578, 29.3000196 ], [ 74.141375, 29.2970549 ], [ 74.14026, 29.2953308 ], [ 74.1268168, 29.2909815 ], [ 74.1265561, 29.2939236 ], [ 74.1249033, 29.2953979 ], [ 74.1137277, 29.2966238 ], [ 74.1077169, 29.2948646 ], [ 74.1019554, 29.2880964 ], [ 74.1010299, 29.285027 ], [ 74.1016941, 29.2695507 ], [ 74.0960154, 29.2670609 ], [ 74.0966722, 29.2645591 ], [ 74.0950922, 29.2637594 ], [ 74.0948112, 29.2606206 ], [ 74.0917297, 29.257805 ], [ 74.0856453, 29.2591794 ], [ 74.0725627, 29.2650322 ], [ 74.061182, 29.2720328 ], [ 74.0602772, 29.275307 ], [ 74.0542396, 29.2753412 ], [ 74.0451397, 29.2870133 ], [ 74.0323397, 29.2874041 ], [ 74.0252297, 29.282127 ], [ 74.0220181, 29.2831865 ], [ 74.0185356, 29.2867303 ], [ 74.0174778, 29.2886178 ], [ 74.0158508, 29.3085282 ], [ 74.0190958, 29.3169767 ], [ 74.0193197, 29.3280247 ], [ 74.0155539, 29.3330413 ], [ 74.0037555, 29.3336874 ], [ 74.000923, 29.3481653 ], [ 74.0004691, 29.3581025 ], [ 73.9985969, 29.3624268 ], [ 73.993246, 29.3677315 ], [ 73.9930158, 29.3773253 ], [ 73.9892389, 29.3773824 ], [ 73.9897517, 29.3833652 ], [ 73.9865373, 29.3833137 ], [ 73.9868562, 29.3896019 ], [ 73.9842767, 29.3894108 ], [ 73.9845486, 29.4004184 ], [ 73.9724186, 29.3850196 ], [ 73.9552509, 29.3880854 ], [ 73.938762, 29.36885 ], [ 73.9099516, 29.3691997 ], [ 73.9101738, 29.3730054 ], [ 73.9025966, 29.3729297 ], [ 73.9025054, 29.4001471 ], [ 73.9070104, 29.4048408 ], [ 73.9066661, 29.4143814 ], [ 73.9015377, 29.414434 ], [ 73.9013552, 29.4170271 ], [ 73.8938012, 29.4168879 ], [ 73.8935821, 29.4209335 ], [ 73.8865324, 29.4208522 ], [ 73.8858467, 29.4487277 ], [ 73.9224705, 29.4487449 ], [ 73.9225698, 29.4534926 ], [ 73.9281011, 29.4535688 ], [ 73.9282529, 29.4551446 ], [ 73.9366932, 29.4537456 ], [ 73.9433287, 29.4503203 ], [ 73.943463, 29.4577436 ], [ 73.9536924, 29.4577387 ], [ 73.9535056, 29.4648847 ], [ 73.9508965, 29.4648867 ], [ 73.9510385, 29.4836499 ], [ 73.956214, 29.483871 ], [ 73.9563677, 29.4774287 ], [ 73.9589832, 29.4773409 ], [ 73.9590112, 29.4751076 ], [ 73.9642388, 29.4752431 ], [ 73.9641079, 29.4855797 ], [ 73.9692004, 29.4853531 ], [ 73.9694178, 29.4883328 ], [ 73.9666122, 29.4883336 ], [ 73.9665861, 29.4924306 ], [ 73.9634665, 29.4923477 ], [ 73.9639306, 29.504011 ], [ 73.9567917, 29.5039958 ], [ 73.9567337, 29.5061251 ], [ 73.9517446, 29.5062302 ], [ 73.9517704, 29.5107292 ], [ 73.9448105, 29.510823 ], [ 73.944817, 29.5141712 ], [ 73.9497911, 29.5140707 ], [ 73.9499132, 29.5162375 ], [ 73.9577225, 29.5163576 ], [ 73.957746, 29.5185914 ], [ 73.9521956, 29.5185342 ], [ 73.9524107, 29.5282012 ], [ 73.9421709, 29.5280343 ], [ 73.9422357, 29.5307286 ], [ 73.9445816, 29.5308871 ], [ 73.9445509, 29.5373258 ], [ 73.9474305, 29.5372991 ], [ 73.9475501, 29.5401924 ], [ 73.9550122, 29.5401339 ], [ 73.9554824, 29.5526139 ], [ 73.9579429, 29.552737 ], [ 73.9579292, 29.5550697 ], [ 73.9605101, 29.5550223 ], [ 73.9605935, 29.5569587 ], [ 73.9362342, 29.5618556 ], [ 73.9212093, 29.5580434 ], [ 73.9213351, 29.5602826 ], [ 73.9160858, 29.56033 ], [ 73.9156639, 29.5684215 ], [ 73.9206643, 29.568038 ], [ 73.9206035, 29.5708396 ], [ 73.931238, 29.5706954 ], [ 73.9311516, 29.5686056 ], [ 73.9501291, 29.5682381 ], [ 73.9501122, 29.569375 ], [ 73.9553011, 29.5702372 ], [ 73.9552179, 29.5682872 ], [ 73.9626983, 29.5681564 ], [ 73.9627921, 29.5771636 ], [ 73.9598352, 29.5770682 ], [ 73.9597908, 29.5839218 ], [ 73.9622448, 29.5837335 ], [ 73.9622686, 29.5869555 ], [ 73.9449202, 29.5871932 ], [ 73.9454717, 29.6066405 ], [ 73.9484679, 29.6065109 ], [ 73.9485264, 29.6113169 ], [ 73.9431624, 29.6112156 ], [ 73.9432382, 29.6133505 ], [ 73.9376795, 29.6135813 ], [ 73.9376517, 29.6088523 ], [ 73.9404497, 29.6089108 ], [ 73.9404082, 29.6064559 ], [ 73.9348761, 29.6061634 ], [ 73.9344109, 29.5934354 ], [ 73.9131844, 29.6090693 ], [ 73.9098404, 29.609845 ], [ 73.9096919, 29.6034862 ], [ 73.9067563, 29.603277 ], [ 73.9064719, 29.6009194 ], [ 73.9046398, 29.6008411 ], [ 73.9043239, 29.5975897 ], [ 73.8972117, 29.5978512 ], [ 73.8965742, 29.6009277 ], [ 73.8916025, 29.6008862 ], [ 73.891608, 29.5984949 ], [ 73.8885825, 29.5984966 ], [ 73.8886195, 29.5960514 ], [ 73.8855544, 29.5959038 ], [ 73.885416, 29.5934661 ], [ 73.8825725, 29.593361 ], [ 73.8825591, 29.588957 ], [ 73.864433, 29.5890062 ], [ 73.8642358, 29.5964812 ], [ 73.8558361, 29.5909584 ], [ 73.8558517, 29.59187 ], [ 73.8531216, 29.5917833 ], [ 73.8529541, 29.5892504 ], [ 73.8479249, 29.5893243 ], [ 73.8479338, 29.5980869 ], [ 73.8503066, 29.6005485 ], [ 73.8527187, 29.6004701 ], [ 73.8536191, 29.6080492 ], [ 73.8605322, 29.6076575 ], [ 73.8606116, 29.61208 ], [ 73.8578434, 29.6121149 ], [ 73.857661, 29.6255369 ], [ 73.8519716, 29.6253975 ], [ 73.8518758, 29.6301975 ], [ 73.8424475, 29.630454 ], [ 73.8418394, 29.6335078 ], [ 73.8381145, 29.638998 ], [ 73.8341556, 29.6427986 ], [ 73.8313783, 29.6426613 ], [ 73.8311822, 29.6556093 ], [ 73.844463, 29.655667 ], [ 73.8444521, 29.6575259 ], [ 73.8574699, 29.657562 ], [ 73.8575976, 29.6595214 ], [ 73.865047, 29.6595312 ], [ 73.8805709, 29.6688859 ], [ 73.8887395, 29.6693382 ], [ 73.8888307, 29.6713784 ], [ 73.9118385, 29.6718265 ], [ 73.9117668, 29.6693623 ], [ 73.9196934, 29.6692738 ], [ 73.9197487, 29.6670047 ], [ 73.9377157, 29.6667212 ], [ 73.9249636, 29.6721683 ], [ 73.9248355, 29.6827528 ], [ 73.9379017, 29.6829393 ], [ 73.9377738, 29.6803619 ], [ 73.9402569, 29.6805803 ], [ 73.9401517, 29.6738653 ], [ 73.9455623, 29.6737822 ], [ 73.9455021, 29.6691568 ], [ 73.9480644, 29.6691861 ], [ 73.9481279, 29.671524 ], [ 73.9508775, 29.6714375 ], [ 73.9509748, 29.6760091 ], [ 73.9585433, 29.6761183 ], [ 73.958551, 29.7019278 ], [ 73.9792292, 29.6932811 ], [ 73.9789645, 29.7230276 ], [ 73.9819685, 29.722965 ], [ 73.9819601, 29.7186785 ], [ 74.0190769, 29.7190354 ], [ 74.0191007, 29.7234981 ], [ 74.024022, 29.7235074 ], [ 74.0241833, 29.73034 ], [ 74.0292972, 29.7302512 ], [ 74.0292266, 29.7327504 ], [ 74.0373029, 29.732665 ], [ 74.03728, 29.7350698 ], [ 74.0424655, 29.7350759 ], [ 74.0424608, 29.7377516 ], [ 74.0475749, 29.7376666 ], [ 74.0476119, 29.7354018 ], [ 74.052825, 29.7352271 ], [ 74.0528549, 29.7281884 ], [ 74.0704818, 29.7306506 ], [ 74.0731791, 29.7392382 ], [ 74.0810367, 29.7393832 ], [ 74.0811899, 29.7322189 ], [ 74.0889799, 29.732354 ], [ 74.0890674, 29.730112 ], [ 74.1125695, 29.7301318 ], [ 74.1125696, 29.7277764 ], [ 74.1151755, 29.7277352 ], [ 74.1151184, 29.7254065 ], [ 74.1175844, 29.7254049 ], [ 74.1176142, 29.7231761 ], [ 74.1203339, 29.723122 ], [ 74.1204195, 29.7162685 ], [ 74.1327545, 29.7167199 ], [ 74.1331118, 29.7413003 ], [ 74.1357227, 29.7395215 ], [ 74.1349658, 29.7630277 ], [ 74.141061, 29.7629729 ], [ 74.1412255, 29.7573932 ], [ 74.1439912, 29.7573612 ], [ 74.1439537, 29.7505863 ], [ 74.1521985, 29.7504585 ], [ 74.1522663, 29.7525514 ], [ 74.1554299, 29.752465 ], [ 74.155596, 29.7545895 ], [ 74.1611583, 29.7545881 ], [ 74.1612572, 29.7564194 ], [ 74.1642865, 29.7563599 ], [ 74.1644528, 29.7586242 ], [ 74.1696276, 29.7584691 ], [ 74.169732, 29.7606748 ], [ 74.1826199, 29.7603225 ], [ 74.1826185, 29.7579408 ], [ 74.1852447, 29.7578494 ], [ 74.182666, 29.7282665 ], [ 74.1907911, 29.734886 ], [ 74.2011402, 29.7348529 ], [ 74.2006138, 29.7509672 ], [ 74.1978794, 29.7511085 ], [ 74.1986895, 29.7701928 ], [ 74.2088711, 29.7718285 ], [ 74.2101529, 29.8017289 ], [ 74.2320686, 29.8089207 ], [ 74.2255061, 29.8254033 ], [ 74.2297324, 29.8252331 ], [ 74.2288542, 29.8413593 ], [ 74.2321034, 29.8413792 ], [ 74.2320804, 29.8440991 ], [ 74.2371716, 29.8440001 ], [ 74.2372264, 29.8421057 ], [ 74.2510808, 29.8417957 ], [ 74.2511009, 29.8390984 ], [ 74.2676558, 29.8386066 ], [ 74.2678814, 29.8405327 ], [ 74.2760822, 29.8403091 ], [ 74.2762454, 29.8426232 ], [ 74.2817454, 29.8425369 ], [ 74.2819378, 29.8640707 ], [ 74.2767574, 29.8641346 ], [ 74.2768349, 29.8750457 ], [ 74.2580609, 29.8697811 ], [ 74.2578682, 29.8732623 ], [ 74.2551873, 29.8732598 ], [ 74.2552333, 29.8824029 ], [ 74.2535149, 29.8824013 ], [ 74.2535275, 29.8891402 ], [ 74.2583105, 29.8890587 ], [ 74.2583129, 29.8959239 ], [ 74.2632774, 29.8958965 ], [ 74.2633298, 29.8999922 ], [ 74.2659546, 29.8999492 ], [ 74.2660196, 29.9020647 ], [ 74.2684579, 29.9021119 ], [ 74.2687304, 29.9088599 ], [ 74.2738922, 29.9088955 ], [ 74.2743925, 29.9160136 ], [ 74.2767327, 29.9160379 ], [ 74.2768548, 29.9182527 ], [ 74.2793092, 29.918286 ], [ 74.2793434, 29.920424 ], [ 74.2903979, 29.9209187 ], [ 74.2948386, 29.9234247 ], [ 74.2949977, 29.9252652 ], [ 74.2975039, 29.9253884 ], [ 74.2967285, 29.9554415 ] ] ] } }
]
}
