{
"type": "FeatureCollection",
"name": "0806",
"crs": { "type": "name", "properties": { "name": "urn:ogc:def:crs:OGC:1.3:CRS84" } },
"features": [
{ "type": "Feature", "properties": { "code": "0806", "name": "Alwar", "type": "district" }, "geometry": { "type": "Polygon", "coordinates": [ [ [ 76.8966714, 27.7740145 ], [ 76.9020333, 27.7741625 ], [ 76.9036499, 27.7693312 ], [ 76.9016005, 27.7675299 ], [ 76.900844, 27.7646559 ], [ 76.9005454, 27.7473741 ], [ 76.9016934, 27.743974 ], [ 76.8998581, 27.7367072 ], [ 76.8969767, 27.7381231 ], [ 76.8926817, 27.7334574 ], [ 76.8924051, 27.7256682 ], [ 76.894365, 27.7243464 ], [ 76.894516, 27.7178329 ], [ 76.8987771, 27.7164704 ], [ 76.9047803, 27.7173355 ], [ 76.9123678, 27.7142481 ], [ 76.9190435, 27.7097967 ], [ 76.9199619, 27.7080964 ], [ 76.9191464, 27.7064065 ], [ 76.920527, 27.7056248 ], [ 76.921025, 27.7030864 ], [ 76.9247262, 27.6999214 ], [ 76.920612, 27.6957144 ], [ 76.9164161, 27.698128 ], [ 76.9142121, 27.6958797 ], [ 76.9099964, 27.6954235 ], [ 76.9088747, 27.69418 ], [ 76.8944954, 27.7013808 ], [ 76.889876, 27.7007491 ], [ 76.8893425, 27.6971509 ], [ 76.8903265, 27.695707 ], [ 76.9062283, 27.6862927 ], [ 76.8985897, 27.6775352 ], [ 76.9108931, 27.6680208 ], [ 76.9067084, 27.6616933 ], [ 76.9116353, 27.6582501 ], [ 76.9108282, 27.6546739 ], [ 76.9155701, 27.652271 ], [ 76.9269167, 27.6612558 ], [ 76.9322254, 27.6588129 ], [ 76.9333573, 27.656031 ], [ 76.9382189, 27.6664679 ], [ 76.9437702, 27.6737228 ], [ 76.9531267, 27.6680364 ], [ 76.9548612, 27.6646863 ], [ 76.9587639, 27.6624292 ], [ 76.9626735, 27.6619903 ], [ 76.9661261, 27.6583856 ], [ 76.9793729, 27.653599 ], [ 76.9766353, 27.6436703 ], [ 76.9838078, 27.6421374 ], [ 76.9821236, 27.618688 ], [ 76.9673242, 27.6185786 ], [ 76.9562279, 27.6207391 ], [ 76.9441475, 27.6208548 ], [ 76.9365635, 27.6191153 ], [ 76.9358733, 27.6155918 ], [ 76.9374536, 27.6147123 ], [ 76.9441214, 27.6153591 ], [ 76.9485774, 27.6143986 ], [ 76.9498879, 27.6154586 ], [ 76.9669896, 27.6111921 ], [ 76.9664736, 27.6052747 ], [ 76.9598629, 27.6060992 ], [ 76.9535895, 27.6050957 ], [ 76.9382102, 27.6081994 ], [ 76.9350349, 27.6033432 ], [ 76.9362543, 27.6008133 ], [ 76.9400238, 27.5998712 ], [ 76.9419208, 27.5948539 ], [ 76.9438192, 27.5933653 ], [ 76.9440206, 27.5887056 ], [ 76.9459206, 27.5858813 ], [ 76.9403041, 27.5766734 ], [ 76.9445017, 27.5763619 ], [ 76.9467121, 27.5744989 ], [ 76.9510725, 27.5802407 ], [ 76.9598241, 27.5780101 ], [ 76.9612856, 27.576189 ], [ 76.9588582, 27.5701045 ], [ 76.9619591, 27.5676511 ], [ 76.9577616, 27.5593894 ], [ 76.9498527, 27.5628128 ], [ 76.9495194, 27.5617164 ], [ 76.947664, 27.5618733 ], [ 76.9467733, 27.5598913 ], [ 76.9523801, 27.5585627 ], [ 76.9542774, 27.5553457 ], [ 76.9554264, 27.5553295 ], [ 76.9543649, 27.550277 ], [ 76.9585747, 27.5481465 ], [ 76.9578534, 27.5454447 ], [ 76.9596091, 27.5425365 ], [ 76.9631511, 27.5407312 ], [ 76.9674412, 27.5530797 ], [ 76.9687154, 27.5507152 ], [ 76.9731341, 27.5515053 ], [ 76.9794067, 27.5500849 ], [ 76.9814784, 27.5476097 ], [ 76.9839929, 27.5472354 ], [ 76.9835835, 27.5447368 ], [ 76.9851091, 27.5403335 ], [ 76.9864986, 27.5379402 ], [ 76.9884889, 27.5382682 ], [ 76.9884726, 27.5356738 ], [ 76.9914695, 27.5359693 ], [ 76.9950626, 27.532556 ], [ 77.0081961, 27.5357192 ], [ 77.0125304, 27.5393641 ], [ 77.0175084, 27.5370894 ], [ 77.0206939, 27.5408369 ], [ 77.0231483, 27.5414658 ], [ 77.0209097, 27.5427908 ], [ 77.0221926, 27.545869 ], [ 77.0206877, 27.5473885 ], [ 77.0003932, 27.557388 ], [ 77.0005041, 27.5666187 ], [ 77.0016336, 27.5698254 ], [ 77.0183227, 27.5641673 ], [ 77.0196062, 27.5614475 ], [ 77.028241, 27.5586427 ], [ 77.0287415, 27.5594507 ], [ 77.0339525, 27.557875 ], [ 77.0349232, 27.5594548 ], [ 77.0369491, 27.5585041 ], [ 77.0470822, 27.5622552 ], [ 77.0503233, 27.5609483 ], [ 77.0490695, 27.5584029 ], [ 77.0508243, 27.5538556 ], [ 77.0483715, 27.5500279 ], [ 77.0465568, 27.5489155 ], [ 77.0347861, 27.5537559 ], [ 77.0341352, 27.5510708 ], [ 77.0427013, 27.5436401 ], [ 77.0437537, 27.5444619 ], [ 77.0531717, 27.5406543 ], [ 77.0562608, 27.5444397 ], [ 77.0620854, 27.5415429 ], [ 77.0673068, 27.5366179 ], [ 77.0590922, 27.5270259 ], [ 77.0484786, 27.5268491 ], [ 77.0407067, 27.5303912 ], [ 77.0352038, 27.5253838 ], [ 77.0355175, 27.5130116 ], [ 77.0261087, 27.5140656 ], [ 77.0220982, 27.5166663 ], [ 77.0195173, 27.5110873 ], [ 77.0207223, 27.5104926 ], [ 77.0205575, 27.5081236 ], [ 77.0187589, 27.5051081 ], [ 77.0290964, 27.5001251 ], [ 77.0287986, 27.4988614 ], [ 77.0373462, 27.4972565 ], [ 77.0367263, 27.4962954 ], [ 77.039416, 27.4904035 ], [ 77.0442256, 27.4857902 ], [ 77.0441601, 27.4842693 ], [ 77.0505474, 27.4830202 ], [ 77.0525682, 27.4842222 ], [ 77.0557198, 27.4765725 ], [ 77.0511737, 27.4676691 ], [ 77.0590947, 27.459994 ], [ 77.0564063, 27.4557786 ], [ 77.0622336, 27.4525293 ], [ 77.0607391, 27.4464192 ], [ 77.0538209, 27.447284 ], [ 77.0485373, 27.4386214 ], [ 77.0371439, 27.444465 ], [ 77.0371362, 27.4492708 ], [ 77.0392411, 27.4482157 ], [ 77.0413702, 27.4506753 ], [ 77.0423108, 27.4501155 ], [ 77.0468991, 27.4531662 ], [ 77.0507424, 27.4602256 ], [ 77.0459224, 27.4638206 ], [ 77.0343133, 27.4685302 ], [ 77.0331455, 27.4619547 ], [ 77.0289934, 27.4537215 ], [ 77.0182958, 27.4512463 ], [ 77.0118133, 27.4541468 ], [ 77.0097488, 27.4513112 ], [ 77.0085717, 27.4519509 ], [ 77.0079214, 27.4509585 ], [ 77.000958, 27.4538474 ], [ 76.9988242, 27.4533276 ], [ 76.9910389, 27.4566655 ], [ 76.9854872, 27.4573675 ], [ 76.9807846, 27.4597268 ], [ 76.9797356, 27.4644347 ], [ 76.9749229, 27.4663282 ], [ 76.9703226, 27.4613824 ], [ 76.9660582, 27.4639471 ], [ 76.9623392, 27.4670455 ], [ 76.9681255, 27.4758082 ], [ 76.9542573, 27.4823617 ], [ 76.9502034, 27.4820124 ], [ 76.9408025, 27.4851809 ], [ 76.9384647, 27.4874786 ], [ 76.9408519, 27.4952068 ], [ 76.9364046, 27.498423 ], [ 76.9368974, 27.5011371 ], [ 76.9350655, 27.5026879 ], [ 76.936761, 27.5063555 ], [ 76.9297696, 27.5111412 ], [ 76.9274965, 27.5148729 ], [ 76.9285278, 27.5168351 ], [ 76.905488, 27.5211824 ], [ 76.9081603, 27.5285057 ], [ 76.9243234, 27.52419 ], [ 76.9277153, 27.532058 ], [ 76.9267031, 27.5326496 ], [ 76.9268926, 27.5371233 ], [ 76.9245055, 27.5384154 ], [ 76.9148951, 27.5321585 ], [ 76.9110208, 27.5320448 ], [ 76.9094317, 27.5306046 ], [ 76.9014468, 27.5340037 ], [ 76.9015359, 27.5365295 ], [ 76.8972492, 27.5374725 ], [ 76.898017, 27.5359007 ], [ 76.8929551, 27.5226262 ], [ 76.8881588, 27.5233367 ], [ 76.8797219, 27.5102924 ], [ 76.8799249, 27.5085388 ], [ 76.8948517, 27.495665 ], [ 76.8958844, 27.4915535 ], [ 76.897961, 27.4925495 ], [ 76.9020082, 27.4916143 ], [ 76.9052679, 27.4972555 ], [ 76.9088345, 27.495731 ], [ 76.912323, 27.4993563 ], [ 76.913867, 27.4988026 ], [ 76.9144594, 27.4967773 ], [ 76.923036, 27.4932431 ], [ 76.9201781, 27.4831023 ], [ 76.9183084, 27.4803213 ], [ 76.9114203, 27.4819639 ], [ 76.9107507, 27.4751185 ], [ 76.9139584, 27.473662 ], [ 76.9118778, 27.4700761 ], [ 76.9085958, 27.4716238 ], [ 76.9067002, 27.4673087 ], [ 76.9069538, 27.4635237 ], [ 76.9058156, 27.4620547 ], [ 76.9021662, 27.463702 ], [ 76.8971575, 27.4589555 ], [ 76.9092262, 27.4582986 ], [ 76.9110643, 27.4633861 ], [ 76.914528, 27.462418 ], [ 76.9151012, 27.4645536 ], [ 76.9182552, 27.4649794 ], [ 76.9173742, 27.4631866 ], [ 76.9241646, 27.460065 ], [ 76.9221623, 27.4583688 ], [ 76.9337611, 27.4508032 ], [ 76.944463, 27.4475631 ], [ 76.9431361, 27.4431368 ], [ 76.9478642, 27.4376061 ], [ 76.9471894, 27.4354676 ], [ 76.9523982, 27.4342982 ], [ 76.9583926, 27.4306492 ], [ 76.9577802, 27.4280451 ], [ 76.9590308, 27.4272694 ], [ 76.9578989, 27.4258864 ], [ 76.9590168, 27.4253337 ], [ 76.9580774, 27.4236818 ], [ 76.9590733, 27.4230902 ], [ 76.9575804, 27.4210174 ], [ 76.9621428, 27.418512 ], [ 76.9629371, 27.4208202 ], [ 76.9648312, 27.4206943 ], [ 76.9659911, 27.4225145 ], [ 76.969379, 27.4239287 ], [ 76.9747552, 27.4239699 ], [ 76.9774713, 27.4177538 ], [ 76.9787772, 27.4178301 ], [ 76.9796535, 27.4238643 ], [ 76.9888808, 27.4285748 ], [ 76.9899722, 27.4282433 ], [ 76.9893464, 27.4269031 ], [ 76.9940955, 27.424403 ], [ 77.0008368, 27.4233046 ], [ 77.0069387, 27.4181765 ], [ 77.0092692, 27.4178631 ], [ 77.0053523, 27.4059345 ], [ 77.0104205, 27.4031922 ], [ 77.0092561, 27.3964654 ], [ 77.0212228, 27.3925787 ], [ 77.0250985, 27.4032981 ], [ 77.0339104, 27.4021636 ], [ 77.0292441, 27.3944297 ], [ 77.0280862, 27.3891535 ], [ 77.0345874, 27.3872312 ], [ 77.0443461, 27.3818632 ], [ 77.0486333, 27.3860104 ], [ 77.0551306, 27.3825395 ], [ 77.0628922, 27.3818519 ], [ 77.0654783, 27.3841916 ], [ 77.0707412, 27.3948124 ], [ 77.0830436, 27.3900988 ], [ 77.0851775, 27.3855501 ], [ 77.1008182, 27.3767601 ], [ 77.1054558, 27.364349 ], [ 77.1087794, 27.3647817 ], [ 77.1126756, 27.3615641 ], [ 77.1249051, 27.3565007 ], [ 77.1259794, 27.35745 ], [ 77.1376834, 27.3527048 ], [ 77.1388888, 27.3544236 ], [ 77.1525903, 27.3510958 ], [ 77.1526852, 27.3489638 ], [ 77.1550148, 27.3489684 ], [ 77.1670429, 27.3526853 ], [ 77.1738157, 27.3574125 ], [ 77.1770397, 27.3548219 ], [ 77.179155, 27.3588408 ], [ 77.18367, 27.3586815 ], [ 77.1848753, 27.3570233 ], [ 77.1940175, 27.3608911 ], [ 77.198621, 27.3593387 ], [ 77.2017049, 27.3558293 ], [ 77.2034475, 27.3578277 ], [ 77.2067935, 27.3558211 ], [ 77.210751, 27.3507681 ], [ 77.20831, 27.3413268 ], [ 77.1995177, 27.3295309 ], [ 77.1906233, 27.3265754 ], [ 77.1857581, 27.3273465 ], [ 77.1853895, 27.3252947 ], [ 77.1799734, 27.3260561 ], [ 77.1729184, 27.3248981 ], [ 77.1641187, 27.316624 ], [ 77.1468306, 27.320496 ], [ 77.1427397, 27.3118817 ], [ 77.1422777, 27.3028237 ], [ 77.1316236, 27.2942959 ], [ 77.1298612, 27.2869046 ], [ 77.1274185, 27.2840765 ], [ 77.1299903, 27.2823459 ], [ 77.1230475, 27.26349 ], [ 77.1244882, 27.2630485 ], [ 77.1197977, 27.2569423 ], [ 77.1096111, 27.2549303 ], [ 77.1035078, 27.2461284 ], [ 77.091335, 27.2512248 ], [ 77.0828446, 27.2380398 ], [ 77.0818397, 27.2382939 ], [ 77.0805241, 27.235958 ], [ 77.0765894, 27.2366572 ], [ 77.0767676, 27.2326611 ], [ 77.0669875, 27.2336452 ], [ 77.0498604, 27.2383504 ], [ 77.0477009, 27.2312887 ], [ 77.0420992, 27.2225261 ], [ 77.0507886, 27.2160456 ], [ 77.0600422, 27.2117583 ], [ 77.0629784, 27.2105915 ], [ 77.0632203, 27.2127629 ], [ 77.0690355, 27.2111745 ], [ 77.0682591, 27.2073955 ], [ 77.0816445, 27.2028338 ], [ 77.0874982, 27.1995564 ], [ 77.0894993, 27.1937462 ], [ 77.0853628, 27.1865022 ], [ 77.0835048, 27.1869856 ], [ 77.0827892, 27.1843203 ], [ 77.0809328, 27.1840727 ], [ 77.0802233, 27.179828 ], [ 77.0820833, 27.1797282 ], [ 77.081267, 27.1776149 ], [ 77.0821919, 27.1768837 ], [ 77.0860886, 27.1766949 ], [ 77.0936807, 27.1744365 ], [ 77.0935304, 27.1730847 ], [ 77.1006825, 27.1714321 ], [ 77.0973621, 27.1684315 ], [ 77.0951035, 27.1621548 ], [ 77.0747238, 27.1664804 ], [ 77.0705857, 27.1650434 ], [ 77.068986, 27.1614237 ], [ 77.0641768, 27.1583737 ], [ 77.0623448, 27.158879 ], [ 77.0606687, 27.1574416 ], [ 77.0545719, 27.1581131 ], [ 77.0528553, 27.1599658 ], [ 77.0398633, 27.1648754 ], [ 77.0342134, 27.164073 ], [ 77.027647, 27.16503 ], [ 77.0279337, 27.1666594 ], [ 77.0244339, 27.1673011 ], [ 77.0251379, 27.176677 ], [ 77.0122213, 27.1747195 ], [ 76.9925787, 27.1738539 ], [ 76.9816253, 27.1795912 ], [ 76.9674107, 27.1827291 ], [ 76.9667151, 27.1778833 ], [ 76.9607396, 27.1651059 ], [ 76.9599266, 27.1601534 ], [ 76.9567736, 27.1590061 ], [ 76.9609315, 27.1440382 ], [ 76.9456906, 27.1468226 ], [ 76.9437723, 27.1391751 ], [ 76.934904, 27.1405818 ], [ 76.93116, 27.137108 ], [ 76.9277135, 27.1366103 ], [ 76.9156262, 27.1415232 ], [ 76.9185664, 27.151235 ], [ 76.8951737, 27.1613636 ], [ 76.8957862, 27.1686525 ], [ 76.8942134, 27.1705239 ], [ 76.8968806, 27.1751731 ], [ 76.9087803, 27.1755382 ], [ 76.9114799, 27.1809261 ], [ 76.9108618, 27.1828479 ], [ 76.9065622, 27.1837233 ], [ 76.9069822, 27.1867591 ], [ 76.9051259, 27.1879892 ], [ 76.905264, 27.1919586 ], [ 76.9074477, 27.1948395 ], [ 76.9049793, 27.1965834 ], [ 76.9065348, 27.2010976 ], [ 76.9049988, 27.2030724 ], [ 76.9053613, 27.2110324 ], [ 76.8999488, 27.2136105 ], [ 76.9043918, 27.2184284 ], [ 76.8989695, 27.2219362 ], [ 76.9021115, 27.2288972 ], [ 76.8947136, 27.2323369 ], [ 76.8877116, 27.2209999 ], [ 76.8681712, 27.2300356 ], [ 76.8656385, 27.225895 ], [ 76.8635785, 27.2182914 ], [ 76.8584728, 27.2093247 ], [ 76.8564073, 27.2077365 ], [ 76.8545424, 27.2091105 ], [ 76.8462819, 27.2104651 ], [ 76.8458024, 27.2064822 ], [ 76.8425213, 27.2073738 ], [ 76.8409387, 27.2029068 ], [ 76.843696, 27.2008553 ], [ 76.8435454, 27.1932397 ], [ 76.8506574, 27.190867 ], [ 76.848681, 27.1857801 ], [ 76.8477788, 27.176965 ], [ 76.8452738, 27.1703867 ], [ 76.8430013, 27.1690402 ], [ 76.8408324, 27.1626243 ], [ 76.8272207, 27.1629693 ], [ 76.8286314, 27.1520118 ], [ 76.827748, 27.1411293 ], [ 76.8261522, 27.1360505 ], [ 76.8237332, 27.1336992 ], [ 76.8291036, 27.1178027 ], [ 76.8395672, 27.1189612 ], [ 76.8365233, 27.1113788 ], [ 76.8327742, 27.0840076 ], [ 76.8295095, 27.0751507 ], [ 76.8220954, 27.0749446 ], [ 76.8210334, 27.0769214 ], [ 76.8173027, 27.0769201 ], [ 76.8131671, 27.0805884 ], [ 76.8112535, 27.0804099 ], [ 76.8109451, 27.0897602 ], [ 76.8082762, 27.0915456 ], [ 76.801819, 27.1023647 ], [ 76.8073002, 27.1108328 ], [ 76.8116039, 27.1231607 ], [ 76.805911, 27.1260681 ], [ 76.7998488, 27.1260873 ], [ 76.798654, 27.131482 ], [ 76.7938724, 27.1387548 ], [ 76.788627, 27.1283382 ], [ 76.7891432, 27.1246491 ], [ 76.7849904, 27.1124584 ], [ 76.7782891, 27.1134821 ], [ 76.7731318, 27.1126402 ], [ 76.7681461, 27.113732 ], [ 76.7678959, 27.1128912 ], [ 76.7649796, 27.1140922 ], [ 76.7641313, 27.1098472 ], [ 76.7595064, 27.1069176 ], [ 76.7488972, 27.1069914 ], [ 76.7314772, 27.1095089 ], [ 76.7212203, 27.1065887 ], [ 76.7080163, 27.110664 ], [ 76.7082344, 27.11256 ], [ 76.700517, 27.1144769 ], [ 76.6957755, 27.1144305 ], [ 76.6945798, 27.1130638 ], [ 76.68611, 27.1139285 ], [ 76.6857161, 27.1125568 ], [ 76.6820267, 27.1140542 ], [ 76.6795236, 27.1122609 ], [ 76.6769228, 27.1127071 ], [ 76.6753792, 27.110645 ], [ 76.6721568, 27.1106654 ], [ 76.669412, 27.0983411 ], [ 76.6659597, 27.0920657 ], [ 76.6531775, 27.0968272 ], [ 76.6516465, 27.0949 ], [ 76.6377548, 27.0920212 ], [ 76.631618, 27.0949399 ], [ 76.6293824, 27.0990006 ], [ 76.6327843, 27.1030365 ], [ 76.6258765, 27.1076478 ], [ 76.6223006, 27.107626 ], [ 76.6267877, 27.1120647 ], [ 76.6260411, 27.1144924 ], [ 76.6285265, 27.1182546 ], [ 76.628191, 27.1232997 ], [ 76.62248, 27.124255 ], [ 76.6179116, 27.1271554 ], [ 76.6199395, 27.1285672 ], [ 76.6194837, 27.1312398 ], [ 76.6230908, 27.1368621 ], [ 76.622415, 27.1396681 ], [ 76.6282982, 27.1442756 ], [ 76.6297055, 27.1473913 ], [ 76.6467925, 27.1638859 ], [ 76.6394362, 27.1666663 ], [ 76.6304407, 27.1667532 ], [ 76.6307095, 27.1685823 ], [ 76.6296018, 27.1694392 ], [ 76.6191156, 27.1707837 ], [ 76.6081315, 27.1768494 ], [ 76.6059621, 27.174419 ], [ 76.6031342, 27.175688 ], [ 76.6018744, 27.1743936 ], [ 76.5991415, 27.1759637 ], [ 76.5935836, 27.173472 ], [ 76.5849342, 27.1765313 ], [ 76.5815097, 27.1752476 ], [ 76.5814351, 27.1731723 ], [ 76.5783223, 27.1732209 ], [ 76.5782202, 27.1752936 ], [ 76.5683382, 27.1755489 ], [ 76.5693479, 27.1680141 ], [ 76.5648347, 27.1689446 ], [ 76.5642693, 27.1678362 ], [ 76.5620338, 27.1681906 ], [ 76.5620861, 27.1697696 ], [ 76.5592119, 27.1695533 ], [ 76.5543426, 27.1721213 ], [ 76.5514452, 27.1643906 ], [ 76.5528326, 27.1596364 ], [ 76.5512107, 27.1565492 ], [ 76.5488168, 27.1567457 ], [ 76.548568, 27.1548047 ], [ 76.5474887, 27.1548347 ], [ 76.5475669, 27.1524554 ], [ 76.5452721, 27.1481118 ], [ 76.5480381, 27.144913 ], [ 76.5484029, 27.1464886 ], [ 76.5494097, 27.145963 ], [ 76.54994, 27.1423466 ], [ 76.553538, 27.1384119 ], [ 76.5486435, 27.1328334 ], [ 76.5495305, 27.1294793 ], [ 76.5481427, 27.1246745 ], [ 76.5394022, 27.1306288 ], [ 76.5377955, 27.1267469 ], [ 76.5350384, 27.1280138 ], [ 76.5268301, 27.1267944 ], [ 76.5268103, 27.1249668 ], [ 76.5215026, 27.1248709 ], [ 76.5170149, 27.1171386 ], [ 76.5122889, 27.114134 ], [ 76.5032379, 27.1165736 ], [ 76.488335, 27.1132435 ], [ 76.4806735, 27.1090097 ], [ 76.4744871, 27.0972273 ], [ 76.4705138, 27.0957208 ], [ 76.4685511, 27.0890706 ], [ 76.4642548, 27.087125 ], [ 76.464005, 27.0826549 ], [ 76.4555662, 27.0753947 ], [ 76.447974, 27.0774319 ], [ 76.4405445, 27.084328 ], [ 76.4385491, 27.082859 ], [ 76.4313125, 27.0919101 ], [ 76.4274598, 27.1026415 ], [ 76.42782, 27.1095705 ], [ 76.4256461, 27.1175136 ], [ 76.4261321, 27.1279978 ], [ 76.4170509, 27.1294934 ], [ 76.4121309, 27.1269477 ], [ 76.4039026, 27.1264615 ], [ 76.3980044, 27.1239207 ], [ 76.3974912, 27.1219985 ], [ 76.3995571, 27.1185794 ], [ 76.3969249, 27.1125485 ], [ 76.3974241, 27.1027945 ], [ 76.3951312, 27.1025285 ], [ 76.3907727, 27.0922359 ], [ 76.3911374, 27.0858322 ], [ 76.3941176, 27.0854371 ], [ 76.3926027, 27.0828162 ], [ 76.388879, 27.0822031 ], [ 76.391707, 27.0809249 ], [ 76.3919832, 27.0783856 ], [ 76.3899007, 27.0779684 ], [ 76.3882681, 27.0796861 ], [ 76.3854459, 27.079398 ], [ 76.3842881, 27.0816075 ], [ 76.3827791, 27.0810852 ], [ 76.3816043, 27.0798556 ], [ 76.382434, 27.0784392 ], [ 76.3816652, 27.0761855 ], [ 76.3798801, 27.0753455 ], [ 76.3756698, 27.0761586 ], [ 76.3709595, 27.0723456 ], [ 76.367839, 27.0678218 ], [ 76.3596443, 27.0622278 ], [ 76.3577222, 27.057101 ], [ 76.3538169, 27.0564029 ], [ 76.3525096, 27.054583 ], [ 76.3471561, 27.0562909 ], [ 76.3418492, 27.0598035 ], [ 76.3296921, 27.059612 ], [ 76.3276464, 27.0554292 ], [ 76.3170177, 27.0604534 ], [ 76.3034291, 27.0611668 ], [ 76.2768868, 27.0652964 ], [ 76.2755229, 27.072183 ], [ 76.2769045, 27.0784263 ], [ 76.2765561, 27.094394 ], [ 76.2787644, 27.1018935 ], [ 76.2775372, 27.1048566 ], [ 76.2786984, 27.1120587 ], [ 76.2823566, 27.1245685 ], [ 76.2830628, 27.1391544 ], [ 76.2812127, 27.14591 ], [ 76.2824173, 27.1493428 ], [ 76.2805945, 27.1536473 ], [ 76.2806252, 27.1572173 ], [ 76.2747965, 27.1615988 ], [ 76.2759073, 27.1643239 ], [ 76.2740593, 27.1673377 ], [ 76.2744091, 27.1714734 ], [ 76.2720004, 27.1775705 ], [ 76.2656899, 27.1841045 ], [ 76.2641115, 27.1806388 ], [ 76.2598259, 27.1810159 ], [ 76.2504834, 27.1741758 ], [ 76.2355024, 27.1457355 ], [ 76.2135901, 27.1382424 ], [ 76.213552, 27.134813 ], [ 76.2093897, 27.1328165 ], [ 76.2061414, 27.1254408 ], [ 76.2024376, 27.1226 ], [ 76.1983977, 27.114218 ], [ 76.1938456, 27.1165081 ], [ 76.1850012, 27.1175231 ], [ 76.1835452, 27.1201273 ], [ 76.1789471, 27.1224215 ], [ 76.1734277, 27.1287816 ], [ 76.1783369, 27.1328726 ], [ 76.1801716, 27.1408047 ], [ 76.1781984, 27.1598252 ], [ 76.1762695, 27.166775 ], [ 76.1776581, 27.1694052 ], [ 76.1763805, 27.1776724 ], [ 76.1774932, 27.1835155 ], [ 76.1621979, 27.1787418 ], [ 76.1591963, 27.1803174 ], [ 76.1488982, 27.1804053 ], [ 76.1477032, 27.1843178 ], [ 76.1481891, 27.1915691 ], [ 76.1550914, 27.206991 ], [ 76.1528671, 27.2126365 ], [ 76.1543166, 27.2163364 ], [ 76.148154, 27.2163647 ], [ 76.1427287, 27.2198985 ], [ 76.1308762, 27.1955013 ], [ 76.1210813, 27.1938679 ], [ 76.121394, 27.2012637 ], [ 76.1331288, 27.2232296 ], [ 76.1191723, 27.2257612 ], [ 76.1146443, 27.227769 ], [ 76.1139723, 27.2355347 ], [ 76.1172203, 27.2501506 ], [ 76.1310435, 27.2602133 ], [ 76.1304779, 27.270703 ], [ 76.132949, 27.2738019 ], [ 76.1341975, 27.2803501 ], [ 76.1438944, 27.2796482 ], [ 76.1470081, 27.2926264 ], [ 76.1465431, 27.295555 ], [ 76.1516746, 27.3076453 ], [ 76.1505188, 27.3112025 ], [ 76.1685664, 27.30913 ], [ 76.170272, 27.3252832 ], [ 76.1746927, 27.336196 ], [ 76.1761454, 27.3388016 ], [ 76.1795976, 27.3373868 ], [ 76.1916182, 27.3507982 ], [ 76.1913506, 27.354136 ], [ 76.1971727, 27.3601433 ], [ 76.1988569, 27.3639789 ], [ 76.1970777, 27.3682278 ], [ 76.1916596, 27.3692987 ], [ 76.1931039, 27.374337 ], [ 76.1954992, 27.3737613 ], [ 76.2011487, 27.3758387 ], [ 76.2041686, 27.3792609 ], [ 76.2068047, 27.3892174 ], [ 76.2106612, 27.3909352 ], [ 76.2122746, 27.3932818 ], [ 76.214395, 27.4040821 ], [ 76.2195065, 27.4007472 ], [ 76.2243037, 27.4028761 ], [ 76.2238873, 27.4073029 ], [ 76.2275757, 27.417525 ], [ 76.2258535, 27.4200361 ], [ 76.2263826, 27.4271807 ], [ 76.2245172, 27.4304829 ], [ 76.221754, 27.4317438 ], [ 76.2216324, 27.4340197 ], [ 76.2250459, 27.4476744 ], [ 76.2309256, 27.4482273 ], [ 76.2512316, 27.4411686 ], [ 76.2514548, 27.4428667 ], [ 76.2378607, 27.4485128 ], [ 76.2313891, 27.4507523 ], [ 76.224463, 27.4488868 ], [ 76.2219362, 27.4529417 ], [ 76.2139475, 27.4544857 ], [ 76.2160478, 27.4590195 ], [ 76.2179246, 27.4600162 ], [ 76.2207301, 27.4555413 ], [ 76.2243079, 27.4590628 ], [ 76.2270363, 27.4570517 ], [ 76.2274651, 27.4591848 ], [ 76.2250394, 27.4611079 ], [ 76.2293322, 27.4614702 ], [ 76.2309695, 27.4694896 ], [ 76.2282652, 27.4683761 ], [ 76.2252428, 27.4691474 ], [ 76.2252318, 27.4718104 ], [ 76.2338845, 27.47089 ], [ 76.2379019, 27.4740272 ], [ 76.2361253, 27.4776131 ], [ 76.2409369, 27.4820476 ], [ 76.241182, 27.4872132 ], [ 76.2393907, 27.4913002 ], [ 76.2412194, 27.4955084 ], [ 76.2402228, 27.5014208 ], [ 76.2413714, 27.5036402 ], [ 76.227657, 27.5130007 ], [ 76.2339195, 27.519413 ], [ 76.2351616, 27.5236535 ], [ 76.2489071, 27.5201322 ], [ 76.2562816, 27.5153285 ], [ 76.2590152, 27.5117438 ], [ 76.2724097, 27.5090266 ], [ 76.2730179, 27.5002377 ], [ 76.2837851, 27.4895034 ], [ 76.2830886, 27.475678 ], [ 76.2813129, 27.4706897 ], [ 76.2860249, 27.4692444 ], [ 76.2884667, 27.46983 ], [ 76.2916277, 27.4673533 ], [ 76.3009229, 27.465251 ], [ 76.2983355, 27.472403 ], [ 76.3005057, 27.4779105 ], [ 76.3029648, 27.4803866 ], [ 76.3073451, 27.4805868 ], [ 76.3076615, 27.4819949 ], [ 76.3156102, 27.4840902 ], [ 76.3186034, 27.4942322 ], [ 76.3197919, 27.494509 ], [ 76.325871, 27.4926488 ], [ 76.3241501, 27.4867271 ], [ 76.3281898, 27.4850132 ], [ 76.325329, 27.4770147 ], [ 76.3281732, 27.4761024 ], [ 76.3281849, 27.4750782 ], [ 76.3239992, 27.4638474 ], [ 76.3255223, 27.4634524 ], [ 76.3255007, 27.4610745 ], [ 76.3359161, 27.4599638 ], [ 76.3415884, 27.4580801 ], [ 76.3439133, 27.4592558 ], [ 76.3467766, 27.4586363 ], [ 76.3459951, 27.4642978 ], [ 76.3472512, 27.4703721 ], [ 76.3534661, 27.4791362 ], [ 76.3565475, 27.4863585 ], [ 76.3590543, 27.4843172 ], [ 76.364671, 27.4830956 ], [ 76.3670857, 27.4774265 ], [ 76.3636793, 27.4667843 ], [ 76.3629237, 27.4602369 ], [ 76.365502, 27.4569006 ], [ 76.3647325, 27.4532995 ], [ 76.365837, 27.4517575 ], [ 76.3753265, 27.4498353 ], [ 76.3729989, 27.4464583 ], [ 76.3759056, 27.4475438 ], [ 76.3837245, 27.4468919 ], [ 76.4055197, 27.4325518 ], [ 76.4072324, 27.4399325 ], [ 76.4159722, 27.4473584 ], [ 76.417637, 27.4525407 ], [ 76.4206827, 27.4557096 ], [ 76.4143778, 27.4580032 ], [ 76.4133584, 27.4597873 ], [ 76.4150293, 27.4717754 ], [ 76.4200424, 27.4764046 ], [ 76.4201392, 27.4804068 ], [ 76.4174155, 27.4814906 ], [ 76.4161207, 27.4878764 ], [ 76.4199072, 27.4887495 ], [ 76.4217766, 27.4845693 ], [ 76.4281164, 27.4833129 ], [ 76.4319176, 27.4923769 ], [ 76.4409123, 27.4940487 ], [ 76.4451235, 27.4964105 ], [ 76.4500685, 27.5015738 ], [ 76.4519002, 27.5087653 ], [ 76.4496949, 27.517696 ], [ 76.4508087, 27.5183181 ], [ 76.4546891, 27.5163982 ], [ 76.4589992, 27.520777 ], [ 76.4573421, 27.5247081 ], [ 76.4568279, 27.5409567 ], [ 76.4593346, 27.5424216 ], [ 76.4613941, 27.5414141 ], [ 76.462974, 27.54209 ], [ 76.4665556, 27.5453455 ], [ 76.4696724, 27.5436738 ], [ 76.4713456, 27.5466417 ], [ 76.4686171, 27.5526402 ], [ 76.464601, 27.5570783 ], [ 76.4643296, 27.5595196 ], [ 76.4668792, 27.5631231 ], [ 76.4621371, 27.5719383 ], [ 76.4589429, 27.5795974 ], [ 76.4595058, 27.5807341 ], [ 76.4566819, 27.5829287 ], [ 76.4534014, 27.591427 ], [ 76.4491601, 27.5951428 ], [ 76.4511398, 27.6017158 ], [ 76.4492477, 27.6198691 ], [ 76.4502171, 27.622463 ], [ 76.4596343, 27.6225524 ], [ 76.4607255, 27.6509374 ], [ 76.4626017, 27.6591256 ], [ 76.4686085, 27.6731091 ], [ 76.4701543, 27.6731577 ], [ 76.4705586, 27.6718488 ], [ 76.4708122, 27.6662131 ], [ 76.4691311, 27.6620451 ], [ 76.4692233, 27.6572127 ], [ 76.4712705, 27.6515441 ], [ 76.470628, 27.6411441 ], [ 76.4881675, 27.6400615 ], [ 76.4999964, 27.6497478 ], [ 76.5071466, 27.6597254 ], [ 76.5103106, 27.668398 ], [ 76.508872, 27.6821854 ], [ 76.5040356, 27.6835959 ], [ 76.4990443, 27.6819401 ], [ 76.5018051, 27.6903315 ], [ 76.4987047, 27.701613 ], [ 76.4952226, 27.7083769 ], [ 76.4988642, 27.7086926 ], [ 76.5070432, 27.7143129 ], [ 76.5094955, 27.7214419 ], [ 76.511805, 27.7215537 ], [ 76.5121006, 27.7193452 ], [ 76.5184639, 27.7184004 ], [ 76.5163696, 27.7157748 ], [ 76.5188849, 27.7147662 ], [ 76.5189182, 27.7095472 ], [ 76.5155976, 27.7052047 ], [ 76.5183325, 27.6999683 ], [ 76.5174701, 27.6891783 ], [ 76.5220538, 27.6872183 ], [ 76.5228783, 27.6885449 ], [ 76.5281509, 27.6853233 ], [ 76.5350558, 27.6936847 ], [ 76.5359378, 27.6966077 ], [ 76.5460146, 27.7030589 ], [ 76.5505527, 27.7018225 ], [ 76.5528107, 27.7069667 ], [ 76.5575981, 27.7105909 ], [ 76.5619451, 27.7199377 ], [ 76.5661568, 27.7201248 ], [ 76.573555, 27.7236105 ], [ 76.5805903, 27.7226503 ], [ 76.5856151, 27.7201379 ], [ 76.5918093, 27.7241373 ], [ 76.5937417, 27.7290341 ], [ 76.6003609, 27.7353388 ], [ 76.6073229, 27.7404779 ], [ 76.6088636, 27.7401171 ], [ 76.6126382, 27.7485758 ], [ 76.6107719, 27.7486362 ], [ 76.6122274, 27.7556244 ], [ 76.6160769, 27.7582236 ], [ 76.6234364, 27.75604 ], [ 76.6307701, 27.7512346 ], [ 76.6285932, 27.7457407 ], [ 76.6417049, 27.7410007 ], [ 76.6514108, 27.7401992 ], [ 76.6308949, 27.7010325 ], [ 76.6263314, 27.7020428 ], [ 76.6209378, 27.6890821 ], [ 76.6119214, 27.6875805 ], [ 76.6111744, 27.6860281 ], [ 76.6112458, 27.6850209 ], [ 76.6172815, 27.6841924 ], [ 76.6213465, 27.681744 ], [ 76.6220641, 27.6802193 ], [ 76.6206289, 27.6774291 ], [ 76.6260113, 27.6753082 ], [ 76.630053, 27.6720115 ], [ 76.6357859, 27.6754097 ], [ 76.6403825, 27.6726232 ], [ 76.641887, 27.6766412 ], [ 76.6465479, 27.6824853 ], [ 76.6552932, 27.6840062 ], [ 76.660813, 27.6881774 ], [ 76.666774, 27.6966341 ], [ 76.6687801, 27.6962004 ], [ 76.6697051, 27.6980748 ], [ 76.6753889, 27.6995896 ], [ 76.6812626, 27.7040582 ], [ 76.6864726, 27.7141527 ], [ 76.6885242, 27.7134303 ], [ 76.6959716, 27.715425 ], [ 76.7041739, 27.7157587 ], [ 76.7106575, 27.7149482 ], [ 76.7124073, 27.7130267 ], [ 76.7167438, 27.7150398 ], [ 76.7234645, 27.7054932 ], [ 76.7336966, 27.7122472 ], [ 76.7365186, 27.7124239 ], [ 76.7486714, 27.7015308 ], [ 76.7526548, 27.7071423 ], [ 76.7563535, 27.7044158 ], [ 76.7581275, 27.7047827 ], [ 76.7579781, 27.702301 ], [ 76.7443356, 27.6857882 ], [ 76.7491477, 27.6840645 ], [ 76.7524128, 27.6877945 ], [ 76.7575889, 27.689148 ], [ 76.7741013, 27.6747949 ], [ 76.7774652, 27.6696751 ], [ 76.7805996, 27.66917 ], [ 76.7865725, 27.681769 ], [ 76.7869223, 27.6851941 ], [ 76.77474, 27.6885863 ], [ 76.786264, 27.7082755 ], [ 76.7886439, 27.7161643 ], [ 76.7933388, 27.7229491 ], [ 76.7993616, 27.725944 ], [ 76.7996426, 27.7282327 ], [ 76.7977099, 27.7300538 ], [ 76.7993153, 27.7330067 ], [ 76.8002416, 27.7399936 ], [ 76.8017088, 27.7391577 ], [ 76.8059497, 27.7435157 ], [ 76.8075279, 27.7484814 ], [ 76.817062, 27.7602158 ], [ 76.8152694, 27.7641991 ], [ 76.8169411, 27.768405 ], [ 76.8186505, 27.7684147 ], [ 76.8184453, 27.762928 ], [ 76.8205715, 27.7610925 ], [ 76.8211157, 27.7578937 ], [ 76.8287155, 27.7533393 ], [ 76.8295479, 27.7640466 ], [ 76.8241049, 27.7650644 ], [ 76.8234688, 27.7694769 ], [ 76.8365261, 27.7676492 ], [ 76.8391656, 27.7623754 ], [ 76.8384064, 27.7573218 ], [ 76.8482819, 27.7557583 ], [ 76.8500862, 27.7614663 ], [ 76.8599771, 27.7599787 ], [ 76.8703341, 27.7656691 ], [ 76.8737934, 27.7690712 ], [ 76.8869007, 27.7682719 ], [ 76.8949053, 27.7698367 ], [ 76.8966714, 27.7740145 ] ], [ [ 77.0755406, 27.2769167 ], [ 77.0738832, 27.2763658 ], [ 77.0721839, 27.2732369 ], [ 77.0706079, 27.2639511 ], [ 77.0819416, 27.2616576 ], [ 77.0848018, 27.2677338 ], [ 77.0842135, 27.2727378 ], [ 77.0755406, 27.2769167 ] ] ] } }
]
}
