{
"type": "FeatureCollection",
"name": "0810",
"crs": { "type": "name", "properties": { "name": "urn:ogc:def:crs:OGC:1.3:CRS84" } },
"features": [
{ "type": "Feature", "properties": { "code": "0810", "name": "Sawai Madhopur", "type": "district" }, "geometry": { "type": "Polygon", "coordinates": [ [ [ 76.1776298, 26.484104 ], [ 76.1823387, 26.4818317 ], [ 76.1927215, 26.4803034 ], [ 76.2071965, 26.4748686 ], [ 76.2243716, 26.4632641 ], [ 76.2353937, 26.4639658 ], [ 76.2428805, 26.4611583 ], [ 76.2452168, 26.4589513 ], [ 76.2427393, 26.4551829 ], [ 76.2412955, 26.4478104 ], [ 76.2446354, 26.4448159 ], [ 76.2502635, 26.4424808 ], [ 76.2591641, 26.4448086 ], [ 76.2683132, 26.4496389 ], [ 76.2793595, 26.4481998 ], [ 76.291041, 26.4556285 ], [ 76.2995116, 26.453886 ], [ 76.3059066, 26.4575517 ], [ 76.3161726, 26.4584686 ], [ 76.3234831, 26.4561712 ], [ 76.3341283, 26.4469225 ], [ 76.3399049, 26.4356514 ], [ 76.3417248, 26.4252433 ], [ 76.3399995, 26.4199872 ], [ 76.3398087, 26.4134528 ], [ 76.34141, 26.4097409 ], [ 76.3637953, 26.4027629 ], [ 76.3782815, 26.3926529 ], [ 76.3828171, 26.3922074 ], [ 76.3869856, 26.3895625 ], [ 76.3947159, 26.3872305 ], [ 76.4033237, 26.3787415 ], [ 76.401242, 26.3748348 ], [ 76.4125785, 26.3749311 ], [ 76.4187046, 26.373074 ], [ 76.4253853, 26.37396 ], [ 76.4305733, 26.3712316 ], [ 76.436713, 26.3664712 ], [ 76.4700205, 26.3332455 ], [ 76.4845013, 26.3272599 ], [ 76.4869039, 26.3224188 ], [ 76.4836972, 26.3105446 ], [ 76.4900132, 26.3054959 ], [ 76.5029557, 26.3126055 ], [ 76.5121896, 26.3039954 ], [ 76.5206929, 26.3024385 ], [ 76.5233565, 26.2997065 ], [ 76.5294895, 26.3049268 ], [ 76.5341375, 26.3019297 ], [ 76.540509, 26.3054498 ], [ 76.5431862, 26.2996164 ], [ 76.5414086, 26.2943319 ], [ 76.5445332, 26.2916713 ], [ 76.5504887, 26.2925504 ], [ 76.5483937, 26.296184 ], [ 76.555063, 26.3032481 ], [ 76.556184, 26.309185 ], [ 76.5643978, 26.3054846 ], [ 76.5647499, 26.3041086 ], [ 76.5671383, 26.3044572 ], [ 76.5685563, 26.2993006 ], [ 76.5725164, 26.2962601 ], [ 76.5718471, 26.294155 ], [ 76.5685907, 26.2929268 ], [ 76.5670661, 26.2905196 ], [ 76.5696024, 26.2836446 ], [ 76.5680545, 26.2821043 ], [ 76.5573751, 26.2783884 ], [ 76.5513819, 26.2667176 ], [ 76.5537354, 26.2629954 ], [ 76.5557283, 26.2622832 ], [ 76.556687, 26.2635953 ], [ 76.5653248, 26.2652437 ], [ 76.5702685, 26.2684035 ], [ 76.5748173, 26.2678888 ], [ 76.5817747, 26.270367 ], [ 76.5865029, 26.2701479 ], [ 76.5896711, 26.2678785 ], [ 76.5911032, 26.2693702 ], [ 76.592645, 26.2686219 ], [ 76.5924124, 26.2662503 ], [ 76.5965743, 26.2663756 ], [ 76.5978252, 26.2736377 ], [ 76.6048427, 26.272422 ], [ 76.6031624, 26.2660043 ], [ 76.6037914, 26.261136 ], [ 76.6072994, 26.2599548 ], [ 76.6084974, 26.2578877 ], [ 76.6064991, 26.2538207 ], [ 76.606715, 26.2513222 ], [ 76.6035914, 26.244749 ], [ 76.5998433, 26.2415274 ], [ 76.5831453, 26.2329829 ], [ 76.581902, 26.2287627 ], [ 76.5876142, 26.2229136 ], [ 76.5780318, 26.2153621 ], [ 76.603264, 26.2022652 ], [ 76.6288244, 26.1844648 ], [ 76.6341405, 26.1857722 ], [ 76.65601, 26.1833538 ], [ 76.660728, 26.1764495 ], [ 76.663251, 26.1751701 ], [ 76.6645468, 26.1706098 ], [ 76.6680707, 26.1665609 ], [ 76.6752364, 26.1667756 ], [ 76.6848091, 26.1705411 ], [ 76.684353, 26.1736066 ], [ 76.6896596, 26.1811905 ], [ 76.6955618, 26.1797534 ], [ 76.6998102, 26.181915 ], [ 76.7043337, 26.1799432 ], [ 76.7035432, 26.1771812 ], [ 76.7093649, 26.1764261 ], [ 76.7117335, 26.1714691 ], [ 76.7184242, 26.1699676 ], [ 76.7239403, 26.1630907 ], [ 76.7264361, 26.1617338 ], [ 76.7256623, 26.157753 ], [ 76.7240104, 26.1562924 ], [ 76.7245398, 26.1552253 ], [ 76.7290392, 26.1544266 ], [ 76.7321235, 26.1553419 ], [ 76.7348668, 26.1524699 ], [ 76.7372716, 26.1557945 ], [ 76.7401426, 26.1554754 ], [ 76.7407302, 26.1526067 ], [ 76.7439886, 26.1504324 ], [ 76.7543664, 26.1369783 ], [ 76.7584793, 26.1289079 ], [ 76.7638284, 26.1235767 ], [ 76.7635835, 26.1210542 ], [ 76.7694853, 26.1127003 ], [ 76.7739917, 26.11018 ], [ 76.777665, 26.1061357 ], [ 76.7908546, 26.1061926 ], [ 76.8005184, 26.0965002 ], [ 76.8022967, 26.0908812 ], [ 76.8063657, 26.08471 ], [ 76.8071549, 26.0820733 ], [ 76.8056266, 26.0801923 ], [ 76.8077695, 26.0788159 ], [ 76.8090838, 26.0758792 ], [ 76.8103631, 26.0693697 ], [ 76.8135803, 26.0704026 ], [ 76.8203469, 26.0693492 ], [ 76.8246282, 26.0723114 ], [ 76.8276492, 26.0725715 ], [ 76.829965, 26.0678753 ], [ 76.8346352, 26.0661144 ], [ 76.8418292, 26.0547933 ], [ 76.8486894, 26.0508128 ], [ 76.8511041, 26.0433802 ], [ 76.8506249, 26.0417192 ], [ 76.847337, 26.0405372 ], [ 76.8472877, 26.0380283 ], [ 76.8514195, 26.0321012 ], [ 76.8442484, 26.0288827 ], [ 76.8360082, 26.0223548 ], [ 76.8304414, 26.0151728 ], [ 76.826848, 26.0080906 ], [ 76.8192485, 26.0034844 ], [ 76.8054783, 25.9879739 ], [ 76.8025954, 25.976103 ], [ 76.8035801, 25.9745291 ], [ 76.8083091, 25.9732379 ], [ 76.8074548, 25.9653724 ], [ 76.7909634, 25.9426664 ], [ 76.7852361, 25.9392752 ], [ 76.7778979, 25.9379573 ], [ 76.7639757, 25.9379875 ], [ 76.752676, 25.9408375 ], [ 76.7488557, 25.9404695 ], [ 76.7463991, 25.9376769 ], [ 76.7465909, 25.9340999 ], [ 76.7517946, 25.9281692 ], [ 76.757652, 25.9266314 ], [ 76.7566152, 25.9210109 ], [ 76.7527276, 25.9173432 ], [ 76.74379, 25.9133797 ], [ 76.7332255, 25.9063161 ], [ 76.716332, 25.9011593 ], [ 76.7072498, 25.9005128 ], [ 76.6872025, 25.9078611 ], [ 76.6701141, 25.9107221 ], [ 76.6536231, 25.9099679 ], [ 76.6402644, 25.9076099 ], [ 76.6357516, 25.9050023 ], [ 76.6306202, 25.8991379 ], [ 76.6280212, 25.8901259 ], [ 76.6260974, 25.8757347 ], [ 76.6237411, 25.8708996 ], [ 76.6185606, 25.8686058 ], [ 76.6144772, 25.8684436 ], [ 76.5959948, 25.8749901 ], [ 76.5892835, 25.874978 ], [ 76.5827745, 25.8710453 ], [ 76.5788634, 25.8669667 ], [ 76.5660056, 25.8481162 ], [ 76.5580657, 25.8466348 ], [ 76.5523433, 25.84392 ], [ 76.5472781, 25.8383993 ], [ 76.5385792, 25.8399813 ], [ 76.5310273, 25.8434873 ], [ 76.5142457, 25.8407065 ], [ 76.5108004, 25.8384808 ], [ 76.5056044, 25.839406 ], [ 76.4919384, 25.8455236 ], [ 76.4806353, 25.8428045 ], [ 76.4760485, 25.8393889 ], [ 76.4733524, 25.8339587 ], [ 76.473823, 25.8296746 ], [ 76.4781732, 25.8217036 ], [ 76.4784105, 25.8159051 ], [ 76.4500878, 25.7815308 ], [ 76.4415702, 25.7735531 ], [ 76.4317872, 25.7693026 ], [ 76.4057165, 25.7687307 ], [ 76.4011278, 25.7651635 ], [ 76.3943159, 25.7560289 ], [ 76.3879755, 25.7539226 ], [ 76.3680346, 25.7507573 ], [ 76.3561801, 25.7410361 ], [ 76.3464629, 25.7478707 ], [ 76.3455467, 25.7528223 ], [ 76.335774, 25.7584017 ], [ 76.3345069, 25.7632301 ], [ 76.3323065, 25.7652998 ], [ 76.3329331, 25.7700612 ], [ 76.3314737, 25.7728734 ], [ 76.3219975, 25.7788736 ], [ 76.3194645, 25.7932746 ], [ 76.3160656, 25.7975218 ], [ 76.3122558, 25.8115686 ], [ 76.3169617, 25.8172276 ], [ 76.3168844, 25.8188038 ], [ 76.3153809, 25.8186053 ], [ 76.3108715, 25.8226366 ], [ 76.3103245, 25.8245963 ], [ 76.3068447, 25.8256659 ], [ 76.3040834, 25.8235735 ], [ 76.297636, 25.8251254 ], [ 76.2923411, 25.8207396 ], [ 76.2898902, 25.8205627 ], [ 76.2899949, 25.8260828 ], [ 76.2876048, 25.8292414 ], [ 76.2878845, 25.8320333 ], [ 76.2825118, 25.833855 ], [ 76.2798836, 25.8366907 ], [ 76.2766343, 25.8314149 ], [ 76.2759779, 25.8278905 ], [ 76.2715988, 25.8255994 ], [ 76.2690924, 25.8192877 ], [ 76.2612411, 25.8215771 ], [ 76.2529757, 25.8286369 ], [ 76.2499997, 25.8349553 ], [ 76.2435086, 25.8372729 ], [ 76.2426656, 25.8439659 ], [ 76.2408443, 25.846794 ], [ 76.230026, 25.8499558 ], [ 76.2140029, 25.8607732 ], [ 76.2108153, 25.8604597 ], [ 76.2106157, 25.874167 ], [ 76.2121906, 25.8788624 ], [ 76.2108715, 25.8831034 ], [ 76.2137706, 25.8865862 ], [ 76.2102539, 25.8979111 ], [ 76.2077236, 25.8998915 ], [ 76.2076528, 25.9027406 ], [ 76.2092465, 25.9048401 ], [ 76.2071195, 25.9077199 ], [ 76.2083144, 25.9098723 ], [ 76.2070344, 25.9106414 ], [ 76.2089427, 25.9156816 ], [ 76.2147841, 25.9162557 ], [ 76.223687, 25.9140277 ], [ 76.2350473, 25.9139718 ], [ 76.2388281, 25.9151223 ], [ 76.2410172, 25.919189 ], [ 76.2407954, 25.927091 ], [ 76.2411021, 25.928727 ], [ 76.2425369, 25.9284439 ], [ 76.2424439, 25.9314738 ], [ 76.2385046, 25.9319364 ], [ 76.2358744, 25.9339271 ], [ 76.2427421, 25.9579837 ], [ 76.2452594, 25.9594563 ], [ 76.2463164, 25.9673563 ], [ 76.2428663, 25.9736021 ], [ 76.2445698, 25.9807607 ], [ 76.2348478, 25.982907 ], [ 76.2388698, 25.9935173 ], [ 76.2403993, 26.0040766 ], [ 76.2406098, 26.0217211 ], [ 76.2259237, 26.0282747 ], [ 76.2259859, 26.0217556 ], [ 76.2233909, 26.0153041 ], [ 76.216673, 26.0111219 ], [ 76.1954783, 26.0119036 ], [ 76.1870057, 26.0104611 ], [ 76.1865103, 26.0148576 ], [ 76.1809955, 26.0154445 ], [ 76.1800632, 26.0106444 ], [ 76.1791032, 26.0105709 ], [ 76.1775839, 25.9983453 ], [ 76.1722595, 25.9862999 ], [ 76.1569517, 25.987668 ], [ 76.1506667, 25.9899704 ], [ 76.1470583, 25.9832008 ], [ 76.1448606, 25.9826855 ], [ 76.1436422, 25.9801355 ], [ 76.1423237, 25.9805242 ], [ 76.1379664, 25.9725204 ], [ 76.1356209, 25.9640281 ], [ 76.129652, 25.9654878 ], [ 76.1313977, 25.9732962 ], [ 76.1182944, 25.9764648 ], [ 76.1179237, 25.9791108 ], [ 76.1192854, 25.9819557 ], [ 76.1111048, 25.9862984 ], [ 76.1125773, 25.989064 ], [ 76.110599, 25.992108 ], [ 76.0953703, 26.0003388 ], [ 76.0904107, 26.0019945 ], [ 76.0862261, 25.9922037 ], [ 76.0820213, 25.9870877 ], [ 76.0606826, 25.9932138 ], [ 76.0593801, 25.9961352 ], [ 76.061867, 25.9949432 ], [ 76.0630508, 25.9976973 ], [ 76.0649161, 25.9956605 ], [ 76.0649459, 25.9979935 ], [ 76.0669242, 25.9978866 ], [ 76.0665283, 25.9994369 ], [ 76.0682837, 26.0007512 ], [ 76.064154, 26.0014904 ], [ 76.0649592, 26.0032541 ], [ 76.0628906, 26.0015493 ], [ 76.0623692, 26.0024515 ], [ 76.0628816, 26.0049849 ], [ 76.0673965, 26.004297 ], [ 76.0653363, 26.0079509 ], [ 76.0691498, 26.0070243 ], [ 76.0691563, 26.0088526 ], [ 76.0669687, 26.01002 ], [ 76.0699518, 26.0111852 ], [ 76.0687392, 26.0135507 ], [ 76.0722356, 26.0156421 ], [ 76.0751563, 26.0148665 ], [ 76.0803038, 26.018846 ], [ 76.0798162, 26.0239735 ], [ 76.082044, 26.0233654 ], [ 76.0831136, 26.0244815 ], [ 76.0810516, 26.025752 ], [ 76.0804241, 26.0281583 ], [ 76.0817401, 26.0289069 ], [ 76.0832113, 26.0280472 ], [ 76.0850048, 26.0301871 ], [ 76.0868969, 26.0300058 ], [ 76.0869696, 26.0330074 ], [ 76.0899707, 26.0338696 ], [ 76.0858418, 26.0364332 ], [ 76.0861548, 26.0373157 ], [ 76.0896045, 26.0369602 ], [ 76.0910706, 26.0414906 ], [ 76.0895352, 26.0446036 ], [ 76.1011384, 26.0423713 ], [ 76.1016915, 26.0432654 ], [ 76.1003693, 26.0445576 ], [ 76.1025631, 26.0445544 ], [ 76.1039667, 26.0476812 ], [ 76.1076142, 26.0476081 ], [ 76.105663, 26.0606876 ], [ 76.0995658, 26.060206 ], [ 76.0982372, 26.0613763 ], [ 76.0961838, 26.0598525 ], [ 76.0905862, 26.0598859 ], [ 76.0887573, 26.0583106 ], [ 76.0832323, 26.0613272 ], [ 76.0834156, 26.067673 ], [ 76.0793712, 26.0686965 ], [ 76.082959, 26.0859552 ], [ 76.0832019, 26.0900705 ], [ 76.0821078, 26.0907017 ], [ 76.088035, 26.1018257 ], [ 76.088042, 26.1041956 ], [ 76.0832188, 26.1049317 ], [ 76.0780914, 26.1079496 ], [ 76.0805815, 26.1177407 ], [ 76.0770244, 26.1191893 ], [ 76.0633542, 26.1309605 ], [ 76.058928, 26.127052 ], [ 76.0590739, 26.1221664 ], [ 76.0562638, 26.1149685 ], [ 76.0538529, 26.1132255 ], [ 76.0467807, 26.112478 ], [ 76.0394923, 26.1149775 ], [ 76.0308215, 26.109293 ], [ 76.0232325, 26.1082997 ], [ 76.0061204, 26.1122393 ], [ 75.9977333, 26.1167849 ], [ 75.9937716, 26.1166317 ], [ 75.9997404, 26.155762 ], [ 75.9938803, 26.1613779 ], [ 76.0009302, 26.1609454 ], [ 76.0019733, 26.1624189 ], [ 76.0020454, 26.1655875 ], [ 75.9983674, 26.1713418 ], [ 76.0011123, 26.1740675 ], [ 76.0043094, 26.1857691 ], [ 76.0033416, 26.1871993 ], [ 76.0018275, 26.1869105 ], [ 76.0035934, 26.188432 ], [ 76.0007109, 26.1893683 ], [ 76.0010578, 26.1917011 ], [ 75.9957475, 26.1944962 ], [ 75.9897524, 26.1962169 ], [ 75.9830091, 26.1964754 ], [ 75.9808477, 26.1953209 ], [ 75.9796289, 26.1979656 ], [ 75.9831407, 26.2115435 ], [ 75.9873794, 26.2109186 ], [ 75.9901514, 26.2214902 ], [ 76.0069265, 26.2201097 ], [ 76.0279556, 26.2233105 ], [ 76.0258067, 26.2362324 ], [ 76.0260281, 26.2529022 ], [ 76.0458314, 26.2498793 ], [ 76.0585446, 26.244062 ], [ 76.0663696, 26.2441396 ], [ 76.0665717, 26.2454337 ], [ 76.0853133, 26.2404856 ], [ 76.0961876, 26.239595 ], [ 76.1018049, 26.2407483 ], [ 76.1023505, 26.244992 ], [ 76.1040743, 26.2451774 ], [ 76.1045423, 26.2475529 ], [ 76.1121407, 26.2479908 ], [ 76.1171727, 26.2501728 ], [ 76.119874, 26.2533209 ], [ 76.1199214, 26.2557684 ], [ 76.1179142, 26.2582546 ], [ 76.1109653, 26.2602956 ], [ 76.1102166, 26.2762322 ], [ 76.1188745, 26.2777674 ], [ 76.121362, 26.2801777 ], [ 76.1191563, 26.2846888 ], [ 76.1231889, 26.2850255 ], [ 76.1224414, 26.2904355 ], [ 76.1281203, 26.2903916 ], [ 76.131954, 26.2939103 ], [ 76.1322709, 26.2963007 ], [ 76.1364659, 26.2952528 ], [ 76.1378592, 26.2964457 ], [ 76.1402978, 26.3033826 ], [ 76.1403768, 26.3091175 ], [ 76.1427565, 26.3092151 ], [ 76.1449213, 26.3109932 ], [ 76.1433343, 26.31571 ], [ 76.134826, 26.3195403 ], [ 76.1407182, 26.3227667 ], [ 76.1399921, 26.326471 ], [ 76.1292144, 26.3347103 ], [ 76.1249837, 26.3348102 ], [ 76.1266733, 26.3393423 ], [ 76.1240464, 26.3400423 ], [ 76.1240205, 26.3456491 ], [ 76.1256919, 26.3454991 ], [ 76.1283894, 26.3499384 ], [ 76.1365107, 26.3499813 ], [ 76.1407797, 26.3590781 ], [ 76.1382883, 26.3636944 ], [ 76.1294449, 26.3678804 ], [ 76.130075, 26.3752505 ], [ 76.1420188, 26.4008004 ], [ 76.1511413, 26.4118612 ], [ 76.1478757, 26.4182093 ], [ 76.1482516, 26.4257075 ], [ 76.1510337, 26.4283412 ], [ 76.1529551, 26.4388481 ], [ 76.1527601, 26.4428442 ], [ 76.1430744, 26.4446015 ], [ 76.1386263, 26.4473007 ], [ 76.1337788, 26.4542887 ], [ 76.1319583, 26.4601703 ], [ 76.1368001, 26.4605122 ], [ 76.1376151, 26.4656865 ], [ 76.1412198, 26.4680486 ], [ 76.1415817, 26.4702109 ], [ 76.1448883, 26.4703332 ], [ 76.1509051, 26.4673694 ], [ 76.1561683, 26.4740474 ], [ 76.1588071, 26.4742699 ], [ 76.1624483, 26.4792555 ], [ 76.1679299, 26.4837162 ], [ 76.1734717, 26.4847541 ], [ 76.1756733, 26.4865767 ], [ 76.1776298, 26.484104 ] ] ] } }
]
}
