{
"type": "FeatureCollection",
"name": "0811",
"crs": { "type": "name", "properties": { "name": "urn:ogc:def:crs:OGC:1.3:CRS84" } },
"features": [
{ "type": "Feature", "properties": { "code": "0811", "name": "Dausa", "type": "district" }, "geometry": { "type": "Polygon", "coordinates": [ [ [ 76.8947136, 27.2323369 ], [ 76.9021115, 27.2288972 ], [ 76.8989695, 27.2219362 ], [ 76.9043918, 27.2184284 ], [ 76.8999488, 27.2136105 ], [ 76.9053613, 27.2110324 ], [ 76.9049988, 27.2030724 ], [ 76.9065348, 27.2010976 ], [ 76.9049793, 27.1965834 ], [ 76.9074477, 27.1948395 ], [ 76.905264, 27.1919586 ], [ 76.9051259, 27.1879892 ], [ 76.9069822, 27.1867591 ], [ 76.9065622, 27.1837233 ], [ 76.9108618, 27.1828479 ], [ 76.9114799, 27.1809261 ], [ 76.9087803, 27.1755382 ], [ 76.8968806, 27.1751731 ], [ 76.8942134, 27.1705239 ], [ 76.8957862, 27.1686525 ], [ 76.8951737, 27.1613636 ], [ 76.9185664, 27.151235 ], [ 76.9156262, 27.1415232 ], [ 76.9277135, 27.1366103 ], [ 76.93116, 27.137108 ], [ 76.934904, 27.1405818 ], [ 76.9437723, 27.1391751 ], [ 76.9456906, 27.1468226 ], [ 76.9609315, 27.1440382 ], [ 76.9622945, 27.1357249 ], [ 76.9598841, 27.1256367 ], [ 76.9705064, 27.1274104 ], [ 76.9782001, 27.1195224 ], [ 76.9925309, 27.11117 ], [ 76.9910765, 27.1099135 ], [ 76.9921268, 27.109136 ], [ 76.9901489, 27.1042272 ], [ 76.9846412, 27.1064351 ], [ 76.9811305, 27.1046526 ], [ 76.9817912, 27.1040882 ], [ 76.9797459, 27.1016215 ], [ 76.9835252, 27.0983327 ], [ 76.9825373, 27.0966408 ], [ 76.9839877, 27.0956817 ], [ 76.9828587, 27.0939919 ], [ 76.9873127, 27.0895291 ], [ 76.9824248, 27.0842417 ], [ 76.9714079, 27.0818695 ], [ 76.9696693, 27.0767224 ], [ 76.9703074, 27.0711268 ], [ 76.9743934, 27.0701353 ], [ 76.9756915, 27.0676938 ], [ 76.9954978, 27.0609249 ], [ 76.9937939, 27.0497938 ], [ 77.0112163, 27.0428976 ], [ 77.0104436, 27.034963 ], [ 77.0102229, 27.0338877 ], [ 77.0032823, 27.0355028 ], [ 77.0033078, 27.0366577 ], [ 76.9845587, 27.0379432 ], [ 76.9798664, 27.0301573 ], [ 76.9865607, 27.0242777 ], [ 76.9883138, 27.0208188 ], [ 76.9952585, 27.0160499 ], [ 76.9988143, 27.0154083 ], [ 77.0024157, 27.0082361 ], [ 77.0059247, 27.0044091 ], [ 77.0080516, 26.9869131 ], [ 77.0063581, 26.9743291 ], [ 77.0144824, 26.9780429 ], [ 77.0175716, 26.9736954 ], [ 77.0206494, 26.9466274 ], [ 77.0224436, 26.9456762 ], [ 77.0246364, 26.941445 ], [ 77.012883, 26.932117 ], [ 77.017069, 26.9268352 ], [ 77.0292133, 26.924156 ], [ 77.029002, 26.9214595 ], [ 77.0369277, 26.9159036 ], [ 77.0376403, 26.912549 ], [ 77.0393706, 26.9120841 ], [ 77.0411137, 26.9084349 ], [ 77.0479165, 26.912809 ], [ 77.0594952, 26.9143805 ], [ 77.0593629, 26.9111346 ], [ 77.0606625, 26.9105656 ], [ 77.0595832, 26.9053757 ], [ 77.0625375, 26.9014218 ], [ 77.0586113, 26.9005132 ], [ 77.0611164, 26.8977515 ], [ 77.05928, 26.8916514 ], [ 77.0601884, 26.8865482 ], [ 77.0634784, 26.8824523 ], [ 77.0619271, 26.880699 ], [ 77.0644119, 26.8794771 ], [ 77.0645358, 26.8770315 ], [ 77.0669932, 26.8755019 ], [ 77.0671849, 26.8725745 ], [ 77.0719716, 26.8695845 ], [ 77.07539, 26.8583408 ], [ 77.0599205, 26.8658461 ], [ 77.0445085, 26.8683733 ], [ 77.0107872, 26.8649957 ], [ 76.9994358, 26.8711554 ], [ 76.9868004, 26.8610807 ], [ 76.9861626, 26.8576915 ], [ 76.9760568, 26.8601437 ], [ 76.9654908, 26.860449 ], [ 76.9606946, 26.862429 ], [ 76.9536588, 26.8679058 ], [ 76.9542592, 26.8700456 ], [ 76.9525908, 26.8722258 ], [ 76.9579031, 26.8876041 ], [ 76.9563672, 26.8916463 ], [ 76.9575332, 26.8941753 ], [ 76.9574029, 26.8992584 ], [ 76.9535565, 26.9078861 ], [ 76.9527054, 26.9151771 ], [ 76.9416873, 26.9302529 ], [ 76.9239414, 26.946652 ], [ 76.917557, 26.9505568 ], [ 76.912701, 26.9605961 ], [ 76.9021494, 26.9686363 ], [ 76.9019831, 26.9716261 ], [ 76.8821992, 26.9749649 ], [ 76.8816702, 26.9788892 ], [ 76.8800141, 26.9795611 ], [ 76.8801489, 26.983129 ], [ 76.8594004, 26.9941405 ], [ 76.8542097, 26.995256 ], [ 76.8395196, 26.9952635 ], [ 76.8343265, 26.9981112 ], [ 76.8282128, 26.9994995 ], [ 76.8230694, 26.99953 ], [ 76.8166103, 26.9976233 ], [ 76.8150726, 26.9991233 ], [ 76.8101361, 26.9969665 ], [ 76.8007464, 26.9859624 ], [ 76.7981939, 26.9857422 ], [ 76.7971453, 26.9844198 ], [ 76.7960562, 26.9713505 ], [ 76.7980725, 26.9641536 ], [ 76.7960682, 26.945757 ], [ 76.793233, 26.9333417 ], [ 76.7879408, 26.9266167 ], [ 76.7822846, 26.9159156 ], [ 76.7726837, 26.9123494 ], [ 76.7666735, 26.907862 ], [ 76.7681277, 26.9029787 ], [ 76.7754406, 26.8942083 ], [ 76.7725247, 26.8912076 ], [ 76.7537261, 26.8767989 ], [ 76.748685, 26.8760428 ], [ 76.7318409, 26.8681311 ], [ 76.7146732, 26.8629698 ], [ 76.7122895, 26.8587247 ], [ 76.6982723, 26.8524445 ], [ 76.697064, 26.8507123 ], [ 76.6847609, 26.844198 ], [ 76.6706647, 26.8343729 ], [ 76.6425307, 26.8081461 ], [ 76.6300027, 26.801548 ], [ 76.622224, 26.7925023 ], [ 76.6156544, 26.7916793 ], [ 76.6171376, 26.7884624 ], [ 76.6134826, 26.7821357 ], [ 76.6042662, 26.7804396 ], [ 76.6023768, 26.7780282 ], [ 76.5943117, 26.7784352 ], [ 76.5780226, 26.7874187 ], [ 76.5746977, 26.7880876 ], [ 76.5742452, 26.7804424 ], [ 76.5696783, 26.7712406 ], [ 76.5543248, 26.7777377 ], [ 76.542434, 26.772289 ], [ 76.5416131, 26.778522 ], [ 76.5367961, 26.7819189 ], [ 76.5223314, 26.77085 ], [ 76.5185516, 26.7698254 ], [ 76.5145498, 26.7657113 ], [ 76.5102128, 26.7636001 ], [ 76.4988465, 26.7518863 ], [ 76.4989049, 26.7502067 ], [ 76.4949275, 26.7479111 ], [ 76.4814248, 26.7352505 ], [ 76.4799799, 26.7325574 ], [ 76.480249, 26.7244886 ], [ 76.4717276, 26.7146299 ], [ 76.4664159, 26.7017046 ], [ 76.4570114, 26.6892328 ], [ 76.4534639, 26.6881382 ], [ 76.4567158, 26.6833845 ], [ 76.4588053, 26.6829996 ], [ 76.4636491, 26.6779018 ], [ 76.463346, 26.6692332 ], [ 76.4603856, 26.6667485 ], [ 76.4568694, 26.6664888 ], [ 76.455241, 26.6649599 ], [ 76.4502443, 26.651217 ], [ 76.4443756, 26.6464725 ], [ 76.4428853, 26.6400337 ], [ 76.4352601, 26.6262371 ], [ 76.4243122, 26.6099549 ], [ 76.4192155, 26.6072985 ], [ 76.4185651, 26.5997985 ], [ 76.4141489, 26.5893483 ], [ 76.4145204, 26.5868599 ], [ 76.4097089, 26.579999 ], [ 76.4078704, 26.57439 ], [ 76.4051344, 26.5718499 ], [ 76.4038632, 26.5658257 ], [ 76.4070086, 26.5618131 ], [ 76.4064298, 26.5557255 ], [ 76.4158519, 26.5511922 ], [ 76.4147972, 26.5485345 ], [ 76.4122781, 26.5477003 ], [ 76.4112085, 26.54488 ], [ 76.4232949, 26.5429314 ], [ 76.4302358, 26.546837 ], [ 76.4335642, 26.5501661 ], [ 76.4372671, 26.5499479 ], [ 76.4389117, 26.5565404 ], [ 76.4438665, 26.5600039 ], [ 76.447904, 26.5566037 ], [ 76.4489903, 26.552519 ], [ 76.4590603, 26.5445123 ], [ 76.4584107, 26.5345484 ], [ 76.4619212, 26.521409 ], [ 76.4656745, 26.5208256 ], [ 76.4679321, 26.5175752 ], [ 76.4709495, 26.5160142 ], [ 76.4760305, 26.5173477 ], [ 76.4761219, 26.5128123 ], [ 76.479029, 26.5047413 ], [ 76.478989, 26.4999997 ], [ 76.4771599, 26.4930856 ], [ 76.4743709, 26.4903339 ], [ 76.4705376, 26.4906533 ], [ 76.4672692, 26.4848959 ], [ 76.4651284, 26.4758678 ], [ 76.454331, 26.4783434 ], [ 76.4485252, 26.4717221 ], [ 76.4422937, 26.4433619 ], [ 76.4393219, 26.4422725 ], [ 76.4370948, 26.4385665 ], [ 76.4325425, 26.434947 ], [ 76.4267272, 26.4350052 ], [ 76.4241696, 26.4243555 ], [ 76.4215028, 26.4202925 ], [ 76.4174233, 26.4195702 ], [ 76.4118764, 26.4160817 ], [ 76.4139269, 26.4107487 ], [ 76.4138782, 26.4047051 ], [ 76.4125277, 26.4016445 ], [ 76.4137221, 26.4001161 ], [ 76.4133953, 26.3979798 ], [ 76.412103, 26.3947516 ], [ 76.4094404, 26.3934146 ], [ 76.4104731, 26.390141 ], [ 76.4093478, 26.3882652 ], [ 76.4060953, 26.389525 ], [ 76.4064927, 26.3863343 ], [ 76.4048408, 26.3844231 ], [ 76.4060399, 26.3832919 ], [ 76.4035651, 26.3788069 ], [ 76.3947159, 26.3872305 ], [ 76.3869856, 26.3895625 ], [ 76.3828171, 26.3922074 ], [ 76.3782815, 26.3926529 ], [ 76.3657642, 26.4018233 ], [ 76.34141, 26.4097409 ], [ 76.3398087, 26.4134528 ], [ 76.3399995, 26.4199872 ], [ 76.3417248, 26.4252433 ], [ 76.3399049, 26.4356514 ], [ 76.3341283, 26.4469225 ], [ 76.3234831, 26.4561712 ], [ 76.3161726, 26.4584686 ], [ 76.3059066, 26.4575517 ], [ 76.2995116, 26.453886 ], [ 76.2917596, 26.4557574 ], [ 76.2786399, 26.4479715 ], [ 76.2723528, 26.4498964 ], [ 76.2683132, 26.4496389 ], [ 76.2591641, 26.4448086 ], [ 76.2488431, 26.4428272 ], [ 76.2412955, 26.4478104 ], [ 76.2427393, 26.4551829 ], [ 76.2452168, 26.4589513 ], [ 76.2428805, 26.4611583 ], [ 76.2353937, 26.4639658 ], [ 76.2243716, 26.4632641 ], [ 76.2071965, 26.4748686 ], [ 76.1924773, 26.4803756 ], [ 76.1793575, 26.482985 ], [ 76.1685695, 26.495907 ], [ 76.153138, 26.5031677 ], [ 76.1495083, 26.5110064 ], [ 76.1513007, 26.5186613 ], [ 76.1550821, 26.5224767 ], [ 76.1534609, 26.5289584 ], [ 76.1542621, 26.5423315 ], [ 76.1533788, 26.5473493 ], [ 76.1569087, 26.5580054 ], [ 76.1568341, 26.5625742 ], [ 76.1605347, 26.5641826 ], [ 76.1619876, 26.5668882 ], [ 76.1560001, 26.5710041 ], [ 76.1565929, 26.5745473 ], [ 76.1621572, 26.577725 ], [ 76.1630628, 26.5794058 ], [ 76.1657637, 26.5868318 ], [ 76.1676374, 26.6022679 ], [ 76.1709829, 26.6053505 ], [ 76.1751943, 26.6017498 ], [ 76.1766147, 26.6021759 ], [ 76.1835207, 26.61209 ], [ 76.1772673, 26.6158884 ], [ 76.1758176, 26.6189925 ], [ 76.1792501, 26.621677 ], [ 76.1808837, 26.6252295 ], [ 76.1793785, 26.6317375 ], [ 76.1765767, 26.6347625 ], [ 76.1742424, 26.6353777 ], [ 76.1735007, 26.6380019 ], [ 76.1678416, 26.6376783 ], [ 76.1645009, 26.6391186 ], [ 76.1631822, 26.6423253 ], [ 76.1643473, 26.6452769 ], [ 76.1541064, 26.6589159 ], [ 76.1585527, 26.6619176 ], [ 76.158305, 26.6637523 ], [ 76.153036, 26.6673747 ], [ 76.1557672, 26.6701782 ], [ 76.1523722, 26.6763177 ], [ 76.156399, 26.6815031 ], [ 76.1550659, 26.6858428 ], [ 76.1531191, 26.6866351 ], [ 76.1507374, 26.6921524 ], [ 76.1447647, 26.6939024 ], [ 76.1466191, 26.6984195 ], [ 76.1496943, 26.6968734 ], [ 76.1506124, 26.6987212 ], [ 76.1514266, 26.7042216 ], [ 76.150377, 26.7052999 ], [ 76.1515259, 26.7085993 ], [ 76.1648605, 26.7175364 ], [ 76.1672028, 26.7174324 ], [ 76.1686593, 26.7149638 ], [ 76.1762018, 26.714274 ], [ 76.1705217, 26.7103081 ], [ 76.1707182, 26.7083926 ], [ 76.1749445, 26.706367 ], [ 76.1731994, 26.699886 ], [ 76.174297, 26.6995925 ], [ 76.1712369, 26.6898136 ], [ 76.1798104, 26.6869394 ], [ 76.1834524, 26.6960679 ], [ 76.1871684, 26.699183 ], [ 76.1866572, 26.7012637 ], [ 76.1902685, 26.7102342 ], [ 76.1945425, 26.709932 ], [ 76.1959864, 26.7139146 ], [ 76.2038043, 26.7136319 ], [ 76.2077946, 26.7197774 ], [ 76.2060943, 26.7201304 ], [ 76.2062547, 26.7210363 ], [ 76.2082001, 26.7210559 ], [ 76.2092716, 26.722559 ], [ 76.2106569, 26.7209447 ], [ 76.2113531, 26.7235523 ], [ 76.2010179, 26.7273505 ], [ 76.1963779, 26.7239637 ], [ 76.1937012, 26.7256474 ], [ 76.1934954, 26.7247057 ], [ 76.1909776, 26.7247675 ], [ 76.1898476, 26.7267946 ], [ 76.1833151, 26.7255674 ], [ 76.1833823, 26.7276883 ], [ 76.1816215, 26.728037 ], [ 76.1822595, 26.7299456 ], [ 76.1835891, 26.7296953 ], [ 76.1825077, 26.7320741 ], [ 76.1863948, 26.7355805 ], [ 76.1903355, 26.7359989 ], [ 76.1963857, 26.7328695 ], [ 76.1984367, 26.7371901 ], [ 76.1879135, 26.7414359 ], [ 76.1932668, 26.7526409 ], [ 76.1917742, 26.7530657 ], [ 76.1901243, 26.7509501 ], [ 76.1886619, 26.7516096 ], [ 76.1883916, 26.7487353 ], [ 76.1860825, 26.7502299 ], [ 76.1835372, 26.749936 ], [ 76.182765, 26.7502493 ], [ 76.1843654, 26.7538678 ], [ 76.1802224, 26.7517395 ], [ 76.1804458, 26.7563694 ], [ 76.1793806, 26.7573716 ], [ 76.1820448, 26.7573074 ], [ 76.1823272, 26.7591394 ], [ 76.1851568, 26.7581319 ], [ 76.1857279, 26.7638312 ], [ 76.1827668, 26.7634218 ], [ 76.1807119, 26.7657466 ], [ 76.1823756, 26.7652315 ], [ 76.1839904, 26.7673202 ], [ 76.1864788, 26.7671883 ], [ 76.1871887, 26.769002 ], [ 76.1935122, 26.7676543 ], [ 76.1947299, 26.7696167 ], [ 76.1971387, 26.7785371 ], [ 76.1947773, 26.7812548 ], [ 76.1947686, 26.7832991 ], [ 76.1927478, 26.7841078 ], [ 76.193216, 26.7852042 ], [ 76.1963924, 26.7829688 ], [ 76.1980018, 26.7837216 ], [ 76.1987263, 26.7844433 ], [ 76.1970977, 26.7853421 ], [ 76.1993621, 26.7880576 ], [ 76.1985183, 26.7893667 ], [ 76.2003093, 26.7908097 ], [ 76.2052824, 26.790983 ], [ 76.2049576, 26.7939886 ], [ 76.2065917, 26.7936853 ], [ 76.2078048, 26.79544 ], [ 76.2047978, 26.795532 ], [ 76.2044698, 26.8010241 ], [ 76.2081859, 26.8008234 ], [ 76.2083207, 26.7995101 ], [ 76.2135419, 26.8014383 ], [ 76.2199978, 26.8001119 ], [ 76.2192412, 26.8034383 ], [ 76.2214024, 26.8019792 ], [ 76.2210473, 26.8042854 ], [ 76.2224499, 26.8037835 ], [ 76.2236034, 26.8060255 ], [ 76.2259926, 26.8064164 ], [ 76.2267999, 26.8093852 ], [ 76.229425, 26.8093742 ], [ 76.2287119, 26.8049975 ], [ 76.2317114, 26.8020395 ], [ 76.2401861, 26.7983189 ], [ 76.242089, 26.8003706 ], [ 76.2489195, 26.7970841 ], [ 76.2506218, 26.8003073 ], [ 76.2517659, 26.800058 ], [ 76.2553952, 26.8035015 ], [ 76.248889, 26.81064 ], [ 76.2488053, 26.8122466 ], [ 76.2524383, 26.8200481 ], [ 76.2580442, 26.8233837 ], [ 76.2602045, 26.8299229 ], [ 76.2612823, 26.8300216 ], [ 76.2612507, 26.833985 ], [ 76.2569572, 26.8347499 ], [ 76.2564311, 26.833581 ], [ 76.2529745, 26.8335801 ], [ 76.2483923, 26.8348101 ], [ 76.2487828, 26.837761 ], [ 76.2471638, 26.838516 ], [ 76.2475822, 26.8393865 ], [ 76.2429164, 26.8416604 ], [ 76.2434415, 26.8434424 ], [ 76.2407361, 26.8444826 ], [ 76.2429788, 26.8484472 ], [ 76.2450927, 26.8493345 ], [ 76.2487626, 26.8607255 ], [ 76.2492791, 26.8637214 ], [ 76.2474783, 26.8641923 ], [ 76.2484963, 26.8657122 ], [ 76.2535174, 26.863682 ], [ 76.2633365, 26.8664066 ], [ 76.2615724, 26.8725295 ], [ 76.2501272, 26.8725499 ], [ 76.2467643, 26.8739627 ], [ 76.246444, 26.8756643 ], [ 76.2386611, 26.8772637 ], [ 76.2378488, 26.8801659 ], [ 76.235127, 26.8808765 ], [ 76.235559, 26.8903752 ], [ 76.2370775, 26.8939975 ], [ 76.2242417, 26.8974097 ], [ 76.2247873, 26.8997333 ], [ 76.223036, 26.8999465 ], [ 76.2248025, 26.9055951 ], [ 76.2177129, 26.9085376 ], [ 76.219787, 26.9088656 ], [ 76.221323, 26.9157281 ], [ 76.2197427, 26.9160226 ], [ 76.220344, 26.9187116 ], [ 76.2281739, 26.9155608 ], [ 76.2314966, 26.9213796 ], [ 76.2376824, 26.9253142 ], [ 76.2392049, 26.9325285 ], [ 76.235455, 26.933398 ], [ 76.2351549, 26.935289 ], [ 76.2341406, 26.932853 ], [ 76.2295351, 26.9341245 ], [ 76.2338399, 26.9447979 ], [ 76.2354591, 26.9426577 ], [ 76.2368547, 26.9436042 ], [ 76.2380262, 26.9418975 ], [ 76.2459755, 26.9410831 ], [ 76.2486902, 26.9464733 ], [ 76.24716, 26.946971 ], [ 76.2474237, 26.9486495 ], [ 76.2440464, 26.9498843 ], [ 76.2333064, 26.9503352 ], [ 76.2267521, 26.9520864 ], [ 76.2271816, 26.9538189 ], [ 76.2228917, 26.9541153 ], [ 76.2249352, 26.9645919 ], [ 76.2246678, 26.9810493 ], [ 76.2318703, 27.0076573 ], [ 76.2367971, 27.0073872 ], [ 76.2388469, 27.0117491 ], [ 76.2375627, 27.0121699 ], [ 76.2388998, 27.0154409 ], [ 76.2422307, 27.0197334 ], [ 76.245092, 27.019149 ], [ 76.2464799, 27.0213273 ], [ 76.2547351, 27.0201158 ], [ 76.2560006, 27.020619 ], [ 76.2561891, 27.0226124 ], [ 76.2585442, 27.0218421 ], [ 76.2597538, 27.0232034 ], [ 76.2561368, 27.0292434 ], [ 76.26057, 27.031754 ], [ 76.2665348, 27.031055 ], [ 76.2681444, 27.0325616 ], [ 76.2678126, 27.0344287 ], [ 76.2784285, 27.0434095 ], [ 76.2807791, 27.0511019 ], [ 76.2787274, 27.0519917 ], [ 76.2809754, 27.0643836 ], [ 76.3170177, 27.0604534 ], [ 76.3276464, 27.0554292 ], [ 76.3296921, 27.059612 ], [ 76.3418492, 27.0598035 ], [ 76.3471561, 27.0562909 ], [ 76.3525096, 27.054583 ], [ 76.3538169, 27.0564029 ], [ 76.3577222, 27.057101 ], [ 76.3596443, 27.0622278 ], [ 76.367839, 27.0678218 ], [ 76.3709595, 27.0723456 ], [ 76.3756698, 27.0761586 ], [ 76.3798801, 27.0753455 ], [ 76.3816652, 27.0761855 ], [ 76.382434, 27.0784392 ], [ 76.3816043, 27.0798556 ], [ 76.3827791, 27.0810852 ], [ 76.3842881, 27.0816075 ], [ 76.3854459, 27.079398 ], [ 76.3882681, 27.0796861 ], [ 76.3899007, 27.0779684 ], [ 76.3919832, 27.0783856 ], [ 76.391707, 27.0809249 ], [ 76.388879, 27.0822031 ], [ 76.3926027, 27.0828162 ], [ 76.3941176, 27.0854371 ], [ 76.3911374, 27.0858322 ], [ 76.3907727, 27.0922359 ], [ 76.3951312, 27.1025285 ], [ 76.3974241, 27.1027945 ], [ 76.3969249, 27.1125485 ], [ 76.3995571, 27.1185794 ], [ 76.397452, 27.1233078 ], [ 76.4039026, 27.1264615 ], [ 76.4109766, 27.1266118 ], [ 76.4170509, 27.1294934 ], [ 76.4261321, 27.1279978 ], [ 76.4256461, 27.1175136 ], [ 76.42782, 27.1095705 ], [ 76.4274598, 27.1026415 ], [ 76.4331331, 27.0891519 ], [ 76.4385491, 27.082859 ], [ 76.4405445, 27.084328 ], [ 76.447974, 27.0774319 ], [ 76.4555662, 27.0753947 ], [ 76.464005, 27.0826549 ], [ 76.4642548, 27.087125 ], [ 76.4685511, 27.0890706 ], [ 76.4705138, 27.0957208 ], [ 76.4744871, 27.0972273 ], [ 76.4806735, 27.1090097 ], [ 76.488335, 27.1132435 ], [ 76.5032379, 27.1165736 ], [ 76.5122889, 27.114134 ], [ 76.5170149, 27.1171386 ], [ 76.5215026, 27.1248709 ], [ 76.5268103, 27.1249668 ], [ 76.5268301, 27.1267944 ], [ 76.5350384, 27.1280138 ], [ 76.5377955, 27.1267469 ], [ 76.5394022, 27.1306288 ], [ 76.5481427, 27.1246745 ], [ 76.5495305, 27.1294793 ], [ 76.5486435, 27.1328334 ], [ 76.553538, 27.1384119 ], [ 76.54994, 27.1423466 ], [ 76.5494097, 27.145963 ], [ 76.5484029, 27.1464886 ], [ 76.5480381, 27.144913 ], [ 76.5452721, 27.1481118 ], [ 76.5475669, 27.1524554 ], [ 76.5474887, 27.1548347 ], [ 76.548568, 27.1548047 ], [ 76.5488168, 27.1567457 ], [ 76.5512107, 27.1565492 ], [ 76.5528326, 27.1596364 ], [ 76.5514452, 27.1643906 ], [ 76.5541883, 27.1719063 ], [ 76.5592119, 27.1695533 ], [ 76.5620861, 27.1697696 ], [ 76.5620338, 27.1681906 ], [ 76.5642693, 27.1678362 ], [ 76.5648347, 27.1689446 ], [ 76.5693479, 27.1680141 ], [ 76.5683382, 27.1755489 ], [ 76.5782202, 27.1752936 ], [ 76.5783223, 27.1732209 ], [ 76.5814351, 27.1731723 ], [ 76.5815097, 27.1752476 ], [ 76.5849342, 27.1765313 ], [ 76.5935836, 27.173472 ], [ 76.5991415, 27.1759637 ], [ 76.6018744, 27.1743936 ], [ 76.6031342, 27.175688 ], [ 76.6059621, 27.174419 ], [ 76.6081315, 27.1768494 ], [ 76.6191156, 27.1707837 ], [ 76.6296018, 27.1694392 ], [ 76.6307095, 27.1685823 ], [ 76.6304407, 27.1667532 ], [ 76.6394362, 27.1666663 ], [ 76.6467925, 27.1638859 ], [ 76.6297055, 27.1473913 ], [ 76.6282982, 27.1442756 ], [ 76.622415, 27.1396681 ], [ 76.6230908, 27.1368621 ], [ 76.6194837, 27.1312398 ], [ 76.6199395, 27.1285672 ], [ 76.6179116, 27.1271554 ], [ 76.62248, 27.124255 ], [ 76.628191, 27.1232997 ], [ 76.6285265, 27.1182546 ], [ 76.6260411, 27.1144924 ], [ 76.6267877, 27.1120647 ], [ 76.6223006, 27.107626 ], [ 76.6258765, 27.1076478 ], [ 76.6327843, 27.1030365 ], [ 76.6293824, 27.0990006 ], [ 76.631618, 27.0949399 ], [ 76.6377548, 27.0920212 ], [ 76.6516465, 27.0949 ], [ 76.6531775, 27.0968272 ], [ 76.6659597, 27.0920657 ], [ 76.669412, 27.0983411 ], [ 76.6721568, 27.1106654 ], [ 76.6753792, 27.110645 ], [ 76.6769228, 27.1127071 ], [ 76.6795236, 27.1122609 ], [ 76.6820267, 27.1140542 ], [ 76.6857161, 27.1125568 ], [ 76.68611, 27.1139285 ], [ 76.6945798, 27.1130638 ], [ 76.6957755, 27.1144305 ], [ 76.700517, 27.1144769 ], [ 76.7082344, 27.11256 ], [ 76.7080163, 27.110664 ], [ 76.7212203, 27.1065887 ], [ 76.7314772, 27.1095089 ], [ 76.7488972, 27.1069914 ], [ 76.7595064, 27.1069176 ], [ 76.7641313, 27.1098472 ], [ 76.7649796, 27.1140922 ], [ 76.7678959, 27.1128912 ], [ 76.7681461, 27.113732 ], [ 76.7731318, 27.1126402 ], [ 76.7782891, 27.1134821 ], [ 76.7849904, 27.1124584 ], [ 76.7891432, 27.1246491 ], [ 76.788627, 27.1283382 ], [ 76.7938724, 27.1387548 ], [ 76.798654, 27.131482 ], [ 76.7998488, 27.1260873 ], [ 76.805911, 27.1260681 ], [ 76.8116039, 27.1231607 ], [ 76.8073002, 27.1108328 ], [ 76.801819, 27.1023647 ], [ 76.8082762, 27.0915456 ], [ 76.8109451, 27.0897602 ], [ 76.8112535, 27.0804099 ], [ 76.8131671, 27.0805884 ], [ 76.8173027, 27.0769201 ], [ 76.8210334, 27.0769214 ], [ 76.8220954, 27.0749446 ], [ 76.8295095, 27.0751507 ], [ 76.8327742, 27.0840076 ], [ 76.8365233, 27.1113788 ], [ 76.8395672, 27.1189612 ], [ 76.8291036, 27.1178027 ], [ 76.8237332, 27.1336992 ], [ 76.8261522, 27.1360505 ], [ 76.827748, 27.1411293 ], [ 76.8286314, 27.1520118 ], [ 76.8272207, 27.1629693 ], [ 76.8408324, 27.1626243 ], [ 76.8430013, 27.1690402 ], [ 76.8452738, 27.1703867 ], [ 76.8477788, 27.176965 ], [ 76.848681, 27.1857801 ], [ 76.8506574, 27.190867 ], [ 76.8435454, 27.1932397 ], [ 76.843696, 27.2008553 ], [ 76.8409387, 27.2029068 ], [ 76.8425213, 27.2073738 ], [ 76.8458024, 27.2064822 ], [ 76.8462819, 27.2104651 ], [ 76.8545424, 27.2091105 ], [ 76.8564073, 27.2077365 ], [ 76.8584728, 27.2093247 ], [ 76.8635785, 27.2182914 ], [ 76.8656385, 27.225895 ], [ 76.8681712, 27.2300356 ], [ 76.8877116, 27.2209999 ], [ 76.8947136, 27.2323369 ] ] ] } }
]
}
