{
"type": "FeatureCollection",
"name": "0820",
"crs": { "type": "name", "properties": { "name": "urn:ogc:def:crs:OGC:1.3:CRS84" } },
"features": [
{ "type": "Feature", "properties": { "code": "0820", "name": "Pali", "type": "district" }, "geometry": { "type": "Polygon", "coordinates": [ [ [ 73.4025384, 26.1605732 ], [ 73.4053331, 26.1374847 ], [ 73.4045472, 26.1334993 ], [ 73.4093756, 26.1240603 ], [ 73.4158929, 26.1272466 ], [ 73.4284449, 26.1279121 ], [ 73.4280818, 26.1292623 ], [ 73.4314549, 26.1301702 ], [ 73.4316216, 26.127053 ], [ 73.4375754, 26.124924 ], [ 73.4451188, 26.1103446 ], [ 73.4480151, 26.110606 ], [ 73.4490621, 26.1074215 ], [ 73.4535182, 26.1065485 ], [ 73.4640526, 26.0835501 ], [ 73.4761163, 26.0837729 ], [ 73.481867, 26.080105 ], [ 73.4848041, 26.0798696 ], [ 73.4863886, 26.0837546 ], [ 73.491388, 26.0801823 ], [ 73.4970495, 26.0842362 ], [ 73.5053538, 26.0722755 ], [ 73.5076249, 26.0658388 ], [ 73.5145289, 26.0664788 ], [ 73.5255628, 26.0614099 ], [ 73.5275637, 26.0616651 ], [ 73.526221, 26.0699164 ], [ 73.5279684, 26.0732656 ], [ 73.5275847, 26.077568 ], [ 73.52563, 26.0859756 ], [ 73.524288, 26.0869544 ], [ 73.5242391, 26.0916489 ], [ 73.5221929, 26.0913842 ], [ 73.5216539, 26.100059 ], [ 73.5339415, 26.1029244 ], [ 73.5345648, 26.1018519 ], [ 73.542008, 26.1063646 ], [ 73.5513238, 26.1062464 ], [ 73.558202, 26.1030878 ], [ 73.5611987, 26.1045622 ], [ 73.562926, 26.1072246 ], [ 73.5680665, 26.1075737 ], [ 73.5696799, 26.110569 ], [ 73.5744393, 26.1106116 ], [ 73.5763199, 26.1126208 ], [ 73.5786447, 26.1121021 ], [ 73.5772901, 26.1171354 ], [ 73.5779845, 26.1196701 ], [ 73.5733003, 26.1261691 ], [ 73.5749586, 26.127973 ], [ 73.5870088, 26.122963 ], [ 73.5995482, 26.1282638 ], [ 73.6019214, 26.124653 ], [ 73.6055843, 26.1257087 ], [ 73.6053573, 26.1284013 ], [ 73.6122263, 26.1285625 ], [ 73.6129918, 26.133603 ], [ 73.6179798, 26.1342784 ], [ 73.6183932, 26.1365393 ], [ 73.6216194, 26.1381998 ], [ 73.6242764, 26.1431997 ], [ 73.6282994, 26.1447457 ], [ 73.6425808, 26.13156 ], [ 73.6470921, 26.1289121 ], [ 73.6484691, 26.1252821 ], [ 73.6524809, 26.1225435 ], [ 73.6510326, 26.1189097 ], [ 73.6539966, 26.1177005 ], [ 73.650259, 26.1122532 ], [ 73.648803, 26.1062449 ], [ 73.6486737, 26.1035758 ], [ 73.6499369, 26.1019851 ], [ 73.6490221, 26.0928355 ], [ 73.6464495, 26.0887578 ], [ 73.6481156, 26.0773166 ], [ 73.6531553, 26.0767769 ], [ 73.6529399, 26.0707079 ], [ 73.6560549, 26.0706106 ], [ 73.655934, 26.0693816 ], [ 73.6680479, 26.0668892 ], [ 73.6747033, 26.0675193 ], [ 73.6756962, 26.0654519 ], [ 73.6773044, 26.0651145 ], [ 73.6775336, 26.0674008 ], [ 73.6866988, 26.0643923 ], [ 73.6943891, 26.0654461 ], [ 73.7085936, 26.0904835 ], [ 73.7083547, 26.0945031 ], [ 73.7321167, 26.1107257 ], [ 73.7410393, 26.1104924 ], [ 73.740942, 26.1046412 ], [ 73.7444668, 26.1032454 ], [ 73.7454095, 26.1039217 ], [ 73.7486967, 26.1013592 ], [ 73.7509951, 26.0985337 ], [ 73.7527667, 26.0904728 ], [ 73.757758, 26.0901483 ], [ 73.758004, 26.0915045 ], [ 73.7605753, 26.0915489 ], [ 73.759861, 26.0941908 ], [ 73.7675077, 26.0960949 ], [ 73.7835882, 26.0961298 ], [ 73.800099, 26.0920569 ], [ 73.7918135, 26.0778564 ], [ 73.7959929, 26.0755672 ], [ 73.7988581, 26.0685847 ], [ 73.8004933, 26.0489638 ], [ 73.8104991, 26.0371243 ], [ 73.8260924, 26.0372148 ], [ 73.8491596, 26.0401041 ], [ 73.8633917, 26.0358009 ], [ 73.8645002, 26.0372493 ], [ 73.8724478, 26.0359823 ], [ 73.8777285, 26.0136335 ], [ 73.8810718, 26.0145723 ], [ 73.8810635, 26.0038126 ], [ 73.9006123, 26.0066659 ], [ 73.9196639, 26.0013111 ], [ 73.9324166, 26.002428 ], [ 73.9297539, 25.9951478 ], [ 73.9242374, 25.99094 ], [ 73.9324882, 25.9833311 ], [ 73.9392241, 25.9724421 ], [ 73.9518471, 25.9826634 ], [ 73.956719, 25.984109 ], [ 73.9624872, 25.9879193 ], [ 73.9638889, 25.98188 ], [ 73.9672562, 25.977209 ], [ 73.9685374, 25.9660357 ], [ 73.9708147, 25.9637495 ], [ 73.9918391, 25.9608783 ], [ 73.9934197, 25.9559893 ], [ 73.9896235, 25.950581 ], [ 73.9915743, 25.9456885 ], [ 74.0168361, 25.9364293 ], [ 74.025726, 25.9268384 ], [ 74.0331417, 25.9304668 ], [ 74.0386417, 25.9258306 ], [ 74.044497, 25.9158994 ], [ 74.0439349, 25.9055567 ], [ 74.0490983, 25.8971863 ], [ 74.0470448, 25.8927169 ], [ 74.0445901, 25.8922271 ], [ 74.0418323, 25.8859466 ], [ 74.0397235, 25.8839749 ], [ 74.0348864, 25.8830694 ], [ 74.0272961, 25.8752724 ], [ 74.021263, 25.8738639 ], [ 74.0062198, 25.8633029 ], [ 73.9970875, 25.8656708 ], [ 73.9933548, 25.8643841 ], [ 73.9878687, 25.8579946 ], [ 73.9785703, 25.8519251 ], [ 73.9746835, 25.8467285 ], [ 73.9733082, 25.8413239 ], [ 73.9747336, 25.8403362 ], [ 73.9741502, 25.837989 ], [ 73.9690774, 25.8332896 ], [ 73.9666766, 25.8351596 ], [ 73.9672842, 25.8358547 ], [ 73.9541692, 25.8403567 ], [ 73.9432282, 25.8291672 ], [ 73.9420131, 25.8255692 ], [ 73.9446498, 25.82018 ], [ 73.9459049, 25.811941 ], [ 73.945271, 25.8041126 ], [ 73.9250474, 25.7919422 ], [ 73.9247216, 25.7871453 ], [ 73.9299808, 25.7840014 ], [ 73.9318336, 25.7675368 ], [ 73.9258124, 25.7662509 ], [ 73.9250263, 25.7616403 ], [ 73.9075235, 25.74077 ], [ 73.9132493, 25.7250569 ], [ 73.9115973, 25.7187332 ], [ 73.9112692, 25.7060538 ], [ 73.9156608, 25.6971024 ], [ 73.9043384, 25.6776411 ], [ 73.90266, 25.6721432 ], [ 73.8980216, 25.6721805 ], [ 73.893295, 25.666664 ], [ 73.8849703, 25.667797 ], [ 73.8696656, 25.6520724 ], [ 73.8642893, 25.6496424 ], [ 73.8634268, 25.6360603 ], [ 73.8575251, 25.6245563 ], [ 73.845124, 25.6050279 ], [ 73.8375289, 25.6001101 ], [ 73.830279, 25.5833076 ], [ 73.827502, 25.5811861 ], [ 73.8331989, 25.5748074 ], [ 73.8236237, 25.552704 ], [ 73.8125241, 25.5361812 ], [ 73.8077199, 25.5213117 ], [ 73.8059251, 25.5101144 ], [ 73.8021441, 25.5061152 ], [ 73.796855, 25.4946555 ], [ 73.7865664, 25.4869497 ], [ 73.7844183, 25.4868717 ], [ 73.7798257, 25.4839441 ], [ 73.7754308, 25.4768686 ], [ 73.7746957, 25.4699309 ], [ 73.7693605, 25.4587338 ], [ 73.7590013, 25.4413672 ], [ 73.7565584, 25.4385037 ], [ 73.7539594, 25.4378877 ], [ 73.754058, 25.4287254 ], [ 73.7508472, 25.4189511 ], [ 73.7528684, 25.4106163 ], [ 73.7510659, 25.4092111 ], [ 73.7507563, 25.4057535 ], [ 73.7462508, 25.4001513 ], [ 73.7431921, 25.3925363 ], [ 73.7404048, 25.3909909 ], [ 73.7322147, 25.3792632 ], [ 73.7278452, 25.3792228 ], [ 73.7256942, 25.3779717 ], [ 73.7237602, 25.3792555 ], [ 73.7194131, 25.3783883 ], [ 73.716087, 25.3793144 ], [ 73.7145176, 25.378065 ], [ 73.7099014, 25.3804699 ], [ 73.7088935, 25.3792044 ], [ 73.7102547, 25.3781672 ], [ 73.6990615, 25.362718 ], [ 73.6981801, 25.3595772 ], [ 73.6908641, 25.3571424 ], [ 73.6834037, 25.3506093 ], [ 73.6684018, 25.3447626 ], [ 73.6648113, 25.3407917 ], [ 73.6647783, 25.336462 ], [ 73.6615985, 25.332003 ], [ 73.6594528, 25.3316991 ], [ 73.6580778, 25.3293721 ], [ 73.6523755, 25.3253088 ], [ 73.646665, 25.3234035 ], [ 73.6487132, 25.3076124 ], [ 73.6431168, 25.3153454 ], [ 73.6371273, 25.3133437 ], [ 73.626698, 25.303339 ], [ 73.6191905, 25.2982344 ], [ 73.6151648, 25.2913417 ], [ 73.6101998, 25.287548 ], [ 73.609614, 25.282963 ], [ 73.6137015, 25.2766441 ], [ 73.6125303, 25.2735107 ], [ 73.6152426, 25.272531 ], [ 73.6177149, 25.2633367 ], [ 73.6199689, 25.2622674 ], [ 73.6210991, 25.2596807 ], [ 73.6187055, 25.2533109 ], [ 73.6141248, 25.2502579 ], [ 73.6106741, 25.2523569 ], [ 73.6092767, 25.249995 ], [ 73.6067617, 25.2393938 ], [ 73.6077606, 25.2371143 ], [ 73.6046233, 25.228006 ], [ 73.604656, 25.2221781 ], [ 73.6028493, 25.2212888 ], [ 73.6017377, 25.2160332 ], [ 73.6015334, 25.2056839 ], [ 73.5973023, 25.2050976 ], [ 73.5964003, 25.202222 ], [ 73.593236, 25.2018446 ], [ 73.594231, 25.1934073 ], [ 73.5914846, 25.1919004 ], [ 73.5901398, 25.1889035 ], [ 73.5825317, 25.1867734 ], [ 73.5734315, 25.1865763 ], [ 73.5730728, 25.1841485 ], [ 73.5650349, 25.174026 ], [ 73.5638574, 25.1665611 ], [ 73.5558549, 25.167168 ], [ 73.5505276, 25.1632484 ], [ 73.5504945, 25.1580789 ], [ 73.5469728, 25.153882 ], [ 73.5426627, 25.1563678 ], [ 73.5336263, 25.1508928 ], [ 73.5337381, 25.1495254 ], [ 73.5267756, 25.1447709 ], [ 73.5201066, 25.1429843 ], [ 73.5113101, 25.133014 ], [ 73.5017626, 25.1290398 ], [ 73.4972665, 25.1232203 ], [ 73.5006948, 25.118223 ], [ 73.4946684, 25.1159166 ], [ 73.4893405, 25.1161197 ], [ 73.4905161, 25.1080101 ], [ 73.4874704, 25.1044939 ], [ 73.4776588, 25.1024704 ], [ 73.4728026, 25.1030615 ], [ 73.4711531, 25.1013425 ], [ 73.4708335, 25.0979399 ], [ 73.4665176, 25.0969653 ], [ 73.4634861, 25.0935797 ], [ 73.4603788, 25.0931006 ], [ 73.4544207, 25.0894812 ], [ 73.4485682, 25.0904946 ], [ 73.4416107, 25.088327 ], [ 73.4347824, 25.0896591 ], [ 73.4204055, 25.0885586 ], [ 73.4130627, 25.0867151 ], [ 73.4097044, 25.0876588 ], [ 73.4097314, 25.0825037 ], [ 73.4054993, 25.0789686 ], [ 73.3988494, 25.0772809 ], [ 73.3924149, 25.067835 ], [ 73.3894519, 25.0658708 ], [ 73.3887312, 25.0576919 ], [ 73.3872235, 25.0547458 ], [ 73.386336, 25.0532599 ], [ 73.3843735, 25.0536404 ], [ 73.3812543, 25.0451149 ], [ 73.3766909, 25.042063 ], [ 73.3743232, 25.0374822 ], [ 73.3724789, 25.0371776 ], [ 73.3718923, 25.0328193 ], [ 73.3554904, 25.0243459 ], [ 73.3508393, 25.0186921 ], [ 73.3542013, 25.0166166 ], [ 73.3546843, 25.0123469 ], [ 73.3521279, 25.0104993 ], [ 73.3462119, 25.0113049 ], [ 73.3434851, 25.0103491 ], [ 73.3449883, 25.0083434 ], [ 73.3459441, 25.002815 ], [ 73.3442033, 25.0022313 ], [ 73.3435911, 24.9983873 ], [ 73.3444201, 24.9941892 ], [ 73.3463262, 24.9938899 ], [ 73.3459563, 24.9889561 ], [ 73.342216, 24.9860524 ], [ 73.3388572, 24.9861007 ], [ 73.3385214, 24.9838218 ], [ 73.3301081, 24.9734214 ], [ 73.3355785, 24.9684266 ], [ 73.3368652, 24.9651817 ], [ 73.3439937, 24.9627918 ], [ 73.3455951, 24.9611709 ], [ 73.3473265, 24.9616731 ], [ 73.3503982, 24.9585923 ], [ 73.3470334, 24.9561849 ], [ 73.3451327, 24.9527916 ], [ 73.3446732, 24.949008 ], [ 73.3469074, 24.9489335 ], [ 73.3467454, 24.9477128 ], [ 73.3436627, 24.9416383 ], [ 73.3425942, 24.9360106 ], [ 73.3369031, 24.9321371 ], [ 73.3361726, 24.9179538 ], [ 73.3308871, 24.9060852 ], [ 73.3209471, 24.9057795 ], [ 73.3156379, 24.8990745 ], [ 73.3156165, 24.8962709 ], [ 73.3082839, 24.8924681 ], [ 73.2983864, 24.9010636 ], [ 73.2973345, 24.8972822 ], [ 73.290211, 24.8934313 ], [ 73.2842146, 24.8868347 ], [ 73.2802954, 24.8864511 ], [ 73.279378, 24.8819397 ], [ 73.2829514, 24.8783333 ], [ 73.2809312, 24.8726943 ], [ 73.2787766, 24.8746332 ], [ 73.2720277, 24.87386 ], [ 73.2736659, 24.8635141 ], [ 73.2694957, 24.8524285 ], [ 73.2601187, 24.842975 ], [ 73.2582951, 24.8378932 ], [ 73.2405486, 24.8236685 ], [ 73.2405769, 24.8073091 ], [ 73.2391907, 24.8014604 ], [ 73.2404862, 24.7997195 ], [ 73.239973, 24.7957906 ], [ 73.2329822, 24.7844948 ], [ 73.2209035, 24.786821 ], [ 73.2172206, 24.7843349 ], [ 73.2096239, 24.7854721 ], [ 73.2050582, 24.7821536 ], [ 73.2020932, 24.7775722 ], [ 73.1991072, 24.7785656 ], [ 73.1934262, 24.7764973 ], [ 73.1927905, 24.7746478 ], [ 73.182875, 24.7666415 ], [ 73.1703527, 24.7625391 ], [ 73.1618426, 24.7562821 ], [ 73.1604131, 24.7533168 ], [ 73.1560433, 24.7509518 ], [ 73.1462424, 24.7483653 ], [ 73.1471797, 24.7506393 ], [ 73.1542739, 24.7556202 ], [ 73.155302, 24.7609867 ], [ 73.1645108, 24.7688145 ], [ 73.1656428, 24.7728686 ], [ 73.1707263, 24.7775262 ], [ 73.1718847, 24.780136 ], [ 73.1712722, 24.8084098 ], [ 73.1674524, 24.8229889 ], [ 73.162445, 24.8257894 ], [ 73.1484884, 24.8456147 ], [ 73.1335393, 24.8465391 ], [ 73.1277657, 24.838021 ], [ 73.1257245, 24.8372461 ], [ 73.125803, 24.8402399 ], [ 73.1241198, 24.8419703 ], [ 73.1151315, 24.8455496 ], [ 73.1129359, 24.8448403 ], [ 73.1064021, 24.858083 ], [ 73.0836241, 24.8593543 ], [ 73.0787267, 24.8612369 ], [ 73.0666584, 24.8743612 ], [ 73.0640833, 24.8755458 ], [ 73.0559075, 24.8869326 ], [ 73.0516614, 24.8876742 ], [ 73.0423188, 24.8865658 ], [ 73.0390403, 24.8876342 ], [ 73.0124918, 24.9100276 ], [ 73.0014004, 24.9150718 ], [ 72.9919441, 24.9220245 ], [ 72.996372, 24.9353185 ], [ 72.999218, 24.9381057 ], [ 72.9942609, 24.9489082 ], [ 72.9963684, 24.9618505 ], [ 73.003024, 24.9653733 ], [ 73.0095516, 24.964949 ], [ 73.0149535, 24.9693643 ], [ 73.0206346, 24.9669658 ], [ 73.027401, 24.9661717 ], [ 73.0383783, 24.9724722 ], [ 73.0413225, 24.9863945 ], [ 73.0518808, 25.0038711 ], [ 73.0537898, 25.0090871 ], [ 73.0609244, 25.0143396 ], [ 73.0665657, 25.0166159 ], [ 73.0708571, 25.0219123 ], [ 73.0776993, 25.0263117 ], [ 73.103966, 25.0366611 ], [ 73.1115849, 25.0419221 ], [ 73.1167153, 25.0521616 ], [ 73.1298815, 25.0665244 ], [ 73.1320331, 25.0815017 ], [ 73.1299761, 25.0880256 ], [ 73.1313884, 25.0893524 ], [ 73.1315982, 25.0921853 ], [ 73.1360709, 25.0976402 ], [ 73.1304469, 25.1017268 ], [ 73.1219326, 25.114547 ], [ 73.1199882, 25.1110467 ], [ 73.1211765, 25.1095225 ], [ 73.1173677, 25.1079936 ], [ 73.1152493, 25.1077726 ], [ 73.1104345, 25.1104151 ], [ 73.1049299, 25.1150213 ], [ 73.1041286, 25.120685 ], [ 73.0980725, 25.121158 ], [ 73.088886, 25.129395 ], [ 73.0863968, 25.1341701 ], [ 73.0850536, 25.1350871 ], [ 73.0837738, 25.1341678 ], [ 73.0784161, 25.1371768 ], [ 73.0704238, 25.1475179 ], [ 73.062789, 25.1514671 ], [ 73.0539765, 25.1595982 ], [ 73.0437021, 25.1629067 ], [ 73.0419007, 25.1614159 ], [ 73.0420742, 25.1580104 ], [ 73.0379028, 25.1428476 ], [ 73.0432855, 25.1330607 ], [ 73.0448099, 25.126071 ], [ 73.0445153, 25.1184162 ], [ 73.0478603, 25.1054065 ], [ 73.0405966, 25.1023767 ], [ 73.0221294, 25.0892402 ], [ 73.018741, 25.0940427 ], [ 73.0081359, 25.0966495 ], [ 72.9995109, 25.1006093 ], [ 72.996559, 25.1038013 ], [ 72.9946328, 25.1161247 ], [ 72.993728, 25.1290261 ], [ 72.9960901, 25.1334589 ], [ 72.9948743, 25.1350403 ], [ 72.9968211, 25.1412279 ], [ 72.9947382, 25.1415998 ], [ 72.9958701, 25.1460221 ], [ 72.9892039, 25.1485361 ], [ 72.9850085, 25.1485422 ], [ 72.9854015, 25.1451443 ], [ 72.9808524, 25.1443556 ], [ 72.9829996, 25.1377137 ], [ 72.9812903, 25.1373293 ], [ 72.9809802, 25.1389996 ], [ 72.9798516, 25.1388804 ], [ 72.9795516, 25.1372243 ], [ 72.9763706, 25.137384 ], [ 72.9708284, 25.1421017 ], [ 72.9690964, 25.1412881 ], [ 72.9498446, 25.1423988 ], [ 72.9507184, 25.1529508 ], [ 72.9455705, 25.1662819 ], [ 72.9460173, 25.1704119 ], [ 72.9484113, 25.1713974 ], [ 72.9483045, 25.1771779 ], [ 72.9426785, 25.1861178 ], [ 72.9476552, 25.1866248 ], [ 72.9478219, 25.1843748 ], [ 72.9504477, 25.1813014 ], [ 72.9578051, 25.1821118 ], [ 72.9549731, 25.1898135 ], [ 72.9587906, 25.1938111 ], [ 72.9737703, 25.1936109 ], [ 72.9716051, 25.2027348 ], [ 72.9758226, 25.2176921 ], [ 72.9746802, 25.2180646 ], [ 72.9749975, 25.2198789 ], [ 72.9729499, 25.2203744 ], [ 72.9732953, 25.2240848 ], [ 72.9675141, 25.2256077 ], [ 72.9667231, 25.2239403 ], [ 72.955066, 25.2157182 ], [ 72.9533179, 25.2158203 ], [ 72.953427, 25.2170044 ], [ 72.9429178, 25.2185104 ], [ 72.9418316, 25.2237897 ], [ 72.9387277, 25.2242429 ], [ 72.9373493, 25.2300642 ], [ 72.9391749, 25.2389227 ], [ 72.9359786, 25.2436443 ], [ 72.9401493, 25.2426464 ], [ 72.9429041, 25.2443819 ], [ 72.9430619, 25.2429714 ], [ 72.9472287, 25.2424877 ], [ 72.9471375, 25.2440797 ], [ 72.9640126, 25.2445662 ], [ 72.9649572, 25.2432748 ], [ 72.9750274, 25.2474168 ], [ 72.9853894, 25.2492647 ], [ 72.9893206, 25.2570636 ], [ 72.9925002, 25.2592914 ], [ 72.9977264, 25.2783648 ], [ 72.9956566, 25.2865018 ], [ 72.9847043, 25.3042443 ], [ 72.9835647, 25.3082955 ], [ 72.9780728, 25.3157805 ], [ 72.975118, 25.3313116 ], [ 72.972878, 25.3349007 ], [ 72.9651891, 25.3408879 ], [ 72.9616324, 25.3415112 ], [ 72.9543029, 25.3458554 ], [ 72.9488461, 25.3525136 ], [ 72.9401739, 25.3560078 ], [ 72.9365725, 25.3603986 ], [ 72.9407219, 25.3600144 ], [ 72.944918, 25.3627405 ], [ 72.9564486, 25.3747941 ], [ 72.9651347, 25.371719 ], [ 72.9750389, 25.3712418 ], [ 72.9828192, 25.3589545 ], [ 72.9925941, 25.3478945 ], [ 73.0086655, 25.356815 ], [ 73.0052808, 25.3690325 ], [ 73.0030322, 25.3707307 ], [ 72.9966325, 25.3719888 ], [ 72.9906287, 25.3766326 ], [ 72.9917868, 25.3793069 ], [ 73.0020181, 25.3867627 ], [ 72.9989572, 25.3909954 ], [ 73.002023, 25.3921971 ], [ 73.0154559, 25.3838754 ], [ 73.0165213, 25.3804007 ], [ 73.018491, 25.3799669 ], [ 73.0384558, 25.3936987 ], [ 73.047946, 25.408562 ], [ 73.0529574, 25.4133859 ], [ 73.0572712, 25.4239326 ], [ 73.0584227, 25.4240291 ], [ 73.0615725, 25.4340549 ], [ 73.0614838, 25.4374209 ], [ 73.0533867, 25.4445085 ], [ 73.0624116, 25.4477784 ], [ 73.0766604, 25.4586631 ], [ 73.0899512, 25.4655124 ], [ 73.091231, 25.4672759 ], [ 73.0899562, 25.4686585 ], [ 73.087608, 25.4791086 ], [ 73.0828697, 25.490358 ], [ 73.0789965, 25.4896799 ], [ 73.0702182, 25.4943987 ], [ 73.0654908, 25.4939527 ], [ 73.0600041, 25.4965117 ], [ 73.0564502, 25.4991682 ], [ 73.0565808, 25.5027944 ], [ 73.0508978, 25.5085415 ], [ 73.0525869, 25.5120529 ], [ 73.0511384, 25.5158161 ], [ 73.0535652, 25.517392 ], [ 73.0519285, 25.5226375 ], [ 73.0548676, 25.527619 ], [ 73.0526804, 25.5336832 ], [ 73.0541689, 25.5397828 ], [ 73.0517673, 25.5473923 ], [ 73.0544208, 25.5519096 ], [ 73.0536899, 25.557113 ], [ 73.0420821, 25.5619682 ], [ 73.0370167, 25.572638 ], [ 73.0276651, 25.5805914 ], [ 73.018396, 25.585273 ], [ 73.0117445, 25.585115 ], [ 73.0125539, 25.5897478 ], [ 73.0061081, 25.5906756 ], [ 73.0012154, 25.5933845 ], [ 72.9924199, 25.5996821 ], [ 72.9875921, 25.6053322 ], [ 72.9802248, 25.6048141 ], [ 72.978338, 25.6159996 ], [ 72.9758436, 25.6214355 ], [ 72.9712712, 25.6247965 ], [ 72.9673971, 25.6235217 ], [ 72.9630065, 25.6241202 ], [ 72.9617512, 25.6298845 ], [ 72.9365372, 25.6354624 ], [ 72.9358258, 25.636591 ], [ 72.9377911, 25.6473406 ], [ 72.9314098, 25.6477453 ], [ 72.9314213, 25.650837 ], [ 72.9292998, 25.6503187 ], [ 72.9215509, 25.6609368 ], [ 72.9234791, 25.6634276 ], [ 72.9203227, 25.6658342 ], [ 72.9192935, 25.6704652 ], [ 72.9233782, 25.672513 ], [ 72.9279423, 25.6770202 ], [ 72.9315422, 25.6852015 ], [ 72.9292451, 25.683379 ], [ 72.9258691, 25.6857858 ], [ 72.9243943, 25.6846625 ], [ 72.9192295, 25.6856706 ], [ 72.915503, 25.6835596 ], [ 72.913507, 25.6875002 ], [ 72.9116589, 25.6874375 ], [ 72.9092339, 25.6897399 ], [ 72.9076296, 25.6884224 ], [ 72.9057423, 25.6905485 ], [ 72.9040484, 25.6889466 ], [ 72.9013885, 25.6890014 ], [ 72.899028, 25.6920031 ], [ 72.8969757, 25.6920576 ], [ 72.8926217, 25.688935 ], [ 72.8905553, 25.6945227 ], [ 72.8876314, 25.6958951 ], [ 72.8876766, 25.6989687 ], [ 72.8844687, 25.7017401 ], [ 72.8988872, 25.7102099 ], [ 72.8901956, 25.7246718 ], [ 72.8895292, 25.7354406 ], [ 72.8906306, 25.7362483 ], [ 72.8823089, 25.7363303 ], [ 72.8788691, 25.7406293 ], [ 72.8748827, 25.7368672 ], [ 72.8699406, 25.7458174 ], [ 72.8707967, 25.7502853 ], [ 72.8603864, 25.7536122 ], [ 72.8416478, 25.7558086 ], [ 72.841643, 25.7583089 ], [ 72.8364458, 25.7601858 ], [ 72.8319816, 25.7655982 ], [ 72.82377, 25.7643925 ], [ 72.8169285, 25.7727519 ], [ 72.8080457, 25.7768651 ], [ 72.8014521, 25.7819555 ], [ 72.7997068, 25.7930626 ], [ 72.7849683, 25.7974917 ], [ 72.7778395, 25.8025647 ], [ 72.7776738, 25.8055623 ], [ 72.7821911, 25.8100946 ], [ 72.791641, 25.8132216 ], [ 72.7964812, 25.821635 ], [ 72.8018616, 25.8275653 ], [ 72.8060573, 25.8285404 ], [ 72.8070471, 25.8251571 ], [ 72.8152565, 25.8215395 ], [ 72.8187413, 25.8218446 ], [ 72.8186429, 25.8206833 ], [ 72.8251942, 25.8163588 ], [ 72.8338781, 25.8167412 ], [ 72.8367846, 25.8178631 ], [ 72.8406487, 25.8220004 ], [ 72.8429525, 25.8291472 ], [ 72.8497417, 25.8392262 ], [ 72.8374621, 25.8538239 ], [ 72.8355049, 25.8637911 ], [ 72.8404116, 25.8677183 ], [ 72.8425754, 25.877115 ], [ 72.8416633, 25.8817318 ], [ 72.8429758, 25.8866525 ], [ 72.8416902, 25.8895803 ], [ 72.8457026, 25.8914452 ], [ 72.8458444, 25.8935323 ], [ 72.8539011, 25.8924965 ], [ 72.8554011, 25.8972844 ], [ 72.8591825, 25.8989876 ], [ 72.8674775, 25.8988661 ], [ 72.8691634, 25.8902936 ], [ 72.8729521, 25.8888012 ], [ 72.8788159, 25.8926329 ], [ 72.885164, 25.8925452 ], [ 72.8892619, 25.8899331 ], [ 72.9162864, 25.8923775 ], [ 72.9324836, 25.9011844 ], [ 72.9373982, 25.9023601 ], [ 72.9585772, 25.9002499 ], [ 72.9598051, 25.9063194 ], [ 72.9624224, 25.9067579 ], [ 72.9650749, 25.911543 ], [ 72.9741011, 25.9198068 ], [ 72.9741465, 25.9282427 ], [ 72.9726978, 25.9335616 ], [ 72.9813573, 25.9379881 ], [ 72.9927282, 25.9397484 ], [ 72.9987647, 25.9491022 ], [ 72.9962398, 25.9543477 ], [ 73.0251054, 25.9531467 ], [ 73.0428338, 25.964576 ], [ 73.0452973, 25.9713973 ], [ 73.0474847, 25.9713727 ], [ 73.0507647, 25.9762417 ], [ 73.0505457, 25.9810454 ], [ 73.0522978, 25.9835062 ], [ 73.0509942, 25.9901819 ], [ 73.0525648, 25.9918459 ], [ 73.0532796, 26.0000008 ], [ 73.0514653, 26.0073298 ], [ 73.0488649, 26.0114515 ], [ 73.0525459, 26.014489 ], [ 73.0592427, 26.0145745 ], [ 73.0710699, 26.0186053 ], [ 73.0835511, 26.0187082 ], [ 73.0981891, 26.0247735 ], [ 73.0996811, 26.0273612 ], [ 73.1142773, 26.0286673 ], [ 73.1203187, 26.0323207 ], [ 73.1222466, 26.035803 ], [ 73.121551, 26.0365026 ], [ 73.1262834, 26.0417725 ], [ 73.1355717, 26.04586 ], [ 73.1422722, 26.0448902 ], [ 73.1524049, 26.0366026 ], [ 73.1593283, 26.0334775 ], [ 73.1605447, 26.0339623 ], [ 73.1617946, 26.0323038 ], [ 73.1854756, 26.0335826 ], [ 73.1773845, 26.0534529 ], [ 73.1868067, 26.0603869 ], [ 73.1854026, 26.0623282 ], [ 73.1940552, 26.0690129 ], [ 73.1918622, 26.0819662 ], [ 73.1970788, 26.0814041 ], [ 73.1988167, 26.0769214 ], [ 73.2024706, 26.0765652 ], [ 73.2034802, 26.0732874 ], [ 73.2082419, 26.0750031 ], [ 73.2093462, 26.0723899 ], [ 73.2188206, 26.0761045 ], [ 73.2216026, 26.0758951 ], [ 73.2234286, 26.0718012 ], [ 73.2264053, 26.0729256 ], [ 73.2312392, 26.0775075 ], [ 73.2318624, 26.0809364 ], [ 73.2397249, 26.0829057 ], [ 73.2407115, 26.0787607 ], [ 73.2471836, 26.0690496 ], [ 73.2583712, 26.0698666 ], [ 73.2595231, 26.0673393 ], [ 73.2582707, 26.0658528 ], [ 73.2500023, 26.0650982 ], [ 73.2523961, 26.0582802 ], [ 73.2566052, 26.0541289 ], [ 73.2638375, 26.0574072 ], [ 73.2673866, 26.0566509 ], [ 73.2745032, 26.0494331 ], [ 73.2720938, 26.0450667 ], [ 73.278461, 26.0388101 ], [ 73.2803619, 26.0386567 ], [ 73.2818179, 26.0368008 ], [ 73.2843814, 26.0371157 ], [ 73.2886608, 26.0338399 ], [ 73.2946844, 26.0315459 ], [ 73.3042897, 26.0316996 ], [ 73.3075627, 26.0257438 ], [ 73.3078918, 26.0142919 ], [ 73.3175141, 26.0103509 ], [ 73.3199368, 26.0110562 ], [ 73.3229403, 26.0137722 ], [ 73.3174523, 26.0248438 ], [ 73.3158421, 26.0361499 ], [ 73.3237016, 26.0392881 ], [ 73.3270857, 26.0419994 ], [ 73.3261579, 26.0461097 ], [ 73.3291922, 26.0502523 ], [ 73.3287094, 26.0536365 ], [ 73.3435482, 26.0605736 ], [ 73.3467294, 26.063219 ], [ 73.3513001, 26.063005 ], [ 73.35521, 26.0603639 ], [ 73.3585003, 26.0620173 ], [ 73.3571191, 26.0750463 ], [ 73.3639252, 26.078369 ], [ 73.3622984, 26.0810542 ], [ 73.3569799, 26.0792831 ], [ 73.3564019, 26.0823774 ], [ 73.3520819, 26.082125 ], [ 73.3521446, 26.0840712 ], [ 73.348516, 26.0876136 ], [ 73.3436704, 26.103374 ], [ 73.3452393, 26.1037892 ], [ 73.342578, 26.1088682 ], [ 73.3413529, 26.1156156 ], [ 73.3604519, 26.1313793 ], [ 73.366495, 26.1347881 ], [ 73.370567, 26.1332319 ], [ 73.3724586, 26.1363768 ], [ 73.3756246, 26.1374236 ], [ 73.3729261, 26.1481042 ], [ 73.3779442, 26.1494156 ], [ 73.3752109, 26.1535735 ], [ 73.3870174, 26.1526184 ], [ 73.3891835, 26.15768 ], [ 73.4025384, 26.1605732 ] ] ] } }
]
}
