{
"type": "FeatureCollection",
"name": "0821",
"crs": { "type": "name", "properties": { "name": "urn:ogc:def:crs:OGC:1.3:CRS84" } },
"features": [
{ "type": "Feature", "properties": { "code": "0821", "name": "Ajmer", "type": "district" }, "geometry": { "type": "MultiPolygon", "coordinates": [ [ [ [ 74.8698881, 26.9744816 ], [ 74.8927601, 26.9770018 ], [ 74.9090858, 26.9758892 ], [ 74.9108411, 26.9734029 ], [ 74.9104335, 26.9664055 ], [ 74.9226024, 26.9634378 ], [ 74.9274637, 26.9640272 ], [ 74.9460243, 26.9622659 ], [ 74.9487871, 26.9636423 ], [ 74.9574508, 26.9605273 ], [ 74.959496, 26.96102 ], [ 74.9636747, 26.9535138 ], [ 74.964251, 26.9471216 ], [ 74.9678228, 26.9457727 ], [ 74.9693937, 26.9483869 ], [ 74.9762243, 26.9479322 ], [ 74.9810409, 26.9435304 ], [ 74.9802622, 26.9299387 ], [ 74.9790938, 26.9298753 ], [ 74.9791247, 26.9259795 ], [ 74.9776692, 26.9259476 ], [ 74.9766749, 26.9120794 ], [ 74.9757635, 26.9120792 ], [ 74.973314, 26.8999668 ], [ 74.9717082, 26.8983007 ], [ 74.9733059, 26.8913488 ], [ 74.9757479, 26.8908256 ], [ 74.9659047, 26.8750232 ], [ 74.9602067, 26.8738164 ], [ 74.9569673, 26.8673058 ], [ 74.9547178, 26.8657837 ], [ 74.9561933, 26.8511892 ], [ 74.9537323, 26.8508498 ], [ 74.9539093, 26.8488229 ], [ 74.9417058, 26.8466199 ], [ 74.9424163, 26.8447512 ], [ 74.9144602, 26.8377082 ], [ 74.914346, 26.8356495 ], [ 74.9204162, 26.8266875 ], [ 74.9211188, 26.8219252 ], [ 74.9249469, 26.8158373 ], [ 74.9253245, 26.7924934 ], [ 74.9312193, 26.7936702 ], [ 74.9332272, 26.7809979 ], [ 74.9378612, 26.7812586 ], [ 74.9382994, 26.7800308 ], [ 74.9371489, 26.7594309 ], [ 74.9389599, 26.7489537 ], [ 74.9481666, 26.7496481 ], [ 74.950996, 26.7536308 ], [ 74.952198, 26.7531933 ], [ 74.9576674, 26.7578991 ], [ 74.9834294, 26.7629832 ], [ 74.9832679, 26.766369 ], [ 74.9927385, 26.7567044 ], [ 74.9976819, 26.754971 ], [ 74.9973198, 26.7533593 ], [ 75.0084229, 26.7527903 ], [ 75.0075778, 26.7487499 ], [ 75.0031325, 26.7428993 ], [ 75.0004022, 26.7319698 ], [ 74.9774652, 26.7356789 ], [ 74.9445388, 26.7336248 ], [ 74.942724, 26.7332178 ], [ 74.9428492, 26.7240264 ], [ 74.9622349, 26.7233963 ], [ 74.9645833, 26.7210901 ], [ 74.9658425, 26.7130817 ], [ 74.968286, 26.7116286 ], [ 74.9655276, 26.7071089 ], [ 74.9629893, 26.7067697 ], [ 74.9615702, 26.6966524 ], [ 74.963058, 26.6965038 ], [ 74.9627626, 26.6928966 ], [ 74.9648942, 26.6909243 ], [ 74.9647255, 26.6840216 ], [ 74.9689181, 26.6792056 ], [ 74.9777133, 26.6748418 ], [ 74.9846422, 26.6810817 ], [ 74.991924, 26.6831906 ], [ 74.9936827, 26.6870686 ], [ 74.9980701, 26.6870146 ], [ 74.9984269, 26.690238 ], [ 75.0112981, 26.6898673 ], [ 75.009594, 26.6857547 ], [ 75.013162, 26.6839667 ], [ 75.0200142, 26.6685805 ], [ 75.0205753, 26.6639445 ], [ 75.025839, 26.6646152 ], [ 75.0298314, 26.6628047 ], [ 75.0298806, 26.6645299 ], [ 75.0379116, 26.6645363 ], [ 75.0395092, 26.6639806 ], [ 75.040573, 26.6598992 ], [ 75.0444916, 26.6583812 ], [ 75.065321, 26.6549331 ], [ 75.0683547, 26.6448597 ], [ 75.0659514, 26.6328477 ], [ 75.0640228, 26.6334355 ], [ 75.0612705, 26.6249719 ], [ 75.0680296, 26.6133033 ], [ 75.0813932, 26.6116936 ], [ 75.0813813, 26.6090165 ], [ 75.0787864, 26.5967881 ], [ 75.079193, 26.5891989 ], [ 75.078429, 26.5880481 ], [ 75.069329, 26.5859851 ], [ 75.0653277, 26.5783484 ], [ 75.0634517, 26.5726383 ], [ 75.0638204, 26.5675051 ], [ 75.0621079, 26.5665036 ], [ 75.0629696, 26.5632437 ], [ 75.0610495, 26.5587616 ], [ 75.0614894, 26.5552445 ], [ 75.0665222, 26.5513597 ], [ 75.069672, 26.5470062 ], [ 75.0747354, 26.544954 ], [ 75.0754246, 26.5473192 ], [ 75.0772569, 26.547535 ], [ 75.0782577, 26.5502432 ], [ 75.0824523, 26.554167 ], [ 75.0961451, 26.5584699 ], [ 75.0965278, 26.559833 ], [ 75.1097891, 26.5577512 ], [ 75.1185883, 26.5524013 ], [ 75.1181047, 26.5501954 ], [ 75.1207144, 26.5497877 ], [ 75.1201945, 26.5469891 ], [ 75.1219954, 26.5462101 ], [ 75.1216588, 26.5409248 ], [ 75.1211086, 26.5379682 ], [ 75.1152636, 26.5303479 ], [ 75.1137561, 26.5233154 ], [ 75.1235295, 26.5204198 ], [ 75.1276107, 26.5173353 ], [ 75.1279387, 26.5147 ], [ 75.1293829, 26.513546 ], [ 75.1503654, 26.5032728 ], [ 75.1513482, 26.4999374 ], [ 75.1494497, 26.48993 ], [ 75.1458183, 26.4827916 ], [ 75.1440603, 26.4730825 ], [ 75.1462136, 26.4700916 ], [ 75.1530844, 26.4689874 ], [ 75.1559299, 26.4699098 ], [ 75.1564501, 26.4725503 ], [ 75.16196, 26.4739798 ], [ 75.161603, 26.4625672 ], [ 75.1688368, 26.463078 ], [ 75.1706719, 26.4524755 ], [ 75.1745423, 26.4447508 ], [ 75.1710098, 26.4401005 ], [ 75.1692341, 26.4398814 ], [ 75.1677503, 26.4263933 ], [ 75.1685353, 26.4248935 ], [ 75.1641633, 26.4216752 ], [ 75.1652932, 26.4193308 ], [ 75.1685309, 26.418415 ], [ 75.167596, 26.4167863 ], [ 75.1654814, 26.4141613 ], [ 75.1614633, 26.4127573 ], [ 75.1422296, 26.4119876 ], [ 75.1317778, 26.4092283 ], [ 75.1285061, 26.4021361 ], [ 75.128502, 26.3938516 ], [ 75.134009, 26.3832552 ], [ 75.1346097, 26.3782568 ], [ 75.1436364, 26.3738959 ], [ 75.1422448, 26.3712111 ], [ 75.1429949, 26.3698469 ], [ 75.1416299, 26.3642636 ], [ 75.1341474, 26.3641669 ], [ 75.1316469, 26.3600699 ], [ 75.1248141, 26.3534349 ], [ 75.1261206, 26.3520748 ], [ 75.1265467, 26.3429818 ], [ 75.1289848, 26.3410564 ], [ 75.1281097, 26.3381587 ], [ 75.1292668, 26.3378507 ], [ 75.1302081, 26.3237594 ], [ 75.1322143, 26.3213467 ], [ 75.1314662, 26.3198485 ], [ 75.1355111, 26.317303 ], [ 75.13365, 26.3063565 ], [ 75.1290692, 26.2951912 ], [ 75.124508, 26.2920666 ], [ 75.112018, 26.288289 ], [ 75.0974283, 26.294065 ], [ 75.0954975, 26.2910459 ], [ 75.0934892, 26.2910924 ], [ 75.0899784, 26.2849139 ], [ 75.0863608, 26.2826226 ], [ 75.0817076, 26.2818263 ], [ 75.0654179, 26.2848324 ], [ 75.0651449, 26.2893066 ], [ 75.0626138, 26.2951453 ], [ 75.0514074, 26.3020799 ], [ 75.0409082, 26.3012797 ], [ 75.0228149, 26.2966516 ], [ 75.0230395, 26.2925296 ], [ 75.0155398, 26.2788148 ], [ 75.0090045, 26.2800975 ], [ 74.9850531, 26.2765372 ], [ 74.975057, 26.2772846 ], [ 74.9677367, 26.2878545 ], [ 74.9653266, 26.2884769 ], [ 74.9616966, 26.2846495 ], [ 74.9552973, 26.2684788 ], [ 74.9550798, 26.2649859 ], [ 74.95637, 26.2633425 ], [ 74.9549918, 26.2608295 ], [ 74.9567776, 26.2592716 ], [ 74.9559155, 26.2575571 ], [ 74.9604504, 26.2579832 ], [ 74.9639895, 26.2519336 ], [ 74.9596611, 26.2471073 ], [ 74.9487063, 26.2444879 ], [ 74.9397846, 26.2483463 ], [ 74.9349679, 26.2486829 ], [ 74.9326932, 26.2514584 ], [ 74.934094, 26.2534546 ], [ 74.9144971, 26.2669389 ], [ 74.9010254, 26.2568894 ], [ 74.8962792, 26.2507279 ], [ 74.8934674, 26.2431411 ], [ 74.8843727, 26.2360278 ], [ 74.8832878, 26.2296431 ], [ 74.8447553, 26.2350062 ], [ 74.8381898, 26.2368501 ], [ 74.8334791, 26.2402533 ], [ 74.8273561, 26.2336139 ], [ 74.8364939, 26.2323559 ], [ 74.8286389, 26.2088654 ], [ 74.8367924, 26.2050283 ], [ 74.8348006, 26.20136 ], [ 74.8282858, 26.200463 ], [ 74.8257508, 26.1988707 ], [ 74.8169835, 26.1856676 ], [ 74.8140177, 26.1846299 ], [ 74.8103793, 26.1881061 ], [ 74.801026, 26.1913802 ], [ 74.7956396, 26.1895983 ], [ 74.7879046, 26.1915827 ], [ 74.7704267, 26.1931811 ], [ 74.7623266, 26.1922064 ], [ 74.7538346, 26.19342 ], [ 74.7505213, 26.1952331 ], [ 74.7488995, 26.199511 ], [ 74.7439304, 26.1970417 ], [ 74.7346978, 26.18572 ], [ 74.7301027, 26.1819958 ], [ 74.7203311, 26.1795211 ], [ 74.7121649, 26.1796088 ], [ 74.7135006, 26.1674215 ], [ 74.7108106, 26.1586168 ], [ 74.6988895, 26.1564388 ], [ 74.6831812, 26.1596 ], [ 74.6806388, 26.1578344 ], [ 74.6717868, 26.1574993 ], [ 74.6536707, 26.1595608 ], [ 74.6461648, 26.1700484 ], [ 74.6457023, 26.1724356 ], [ 74.6473254, 26.1834104 ], [ 74.6504724, 26.1933507 ], [ 74.6452611, 26.1942272 ], [ 74.6419826, 26.1923107 ], [ 74.6374683, 26.1961808 ], [ 74.6286184, 26.1937067 ], [ 74.6180336, 26.1970063 ], [ 74.6162589, 26.2009926 ], [ 74.6194011, 26.2150554 ], [ 74.611445, 26.2234541 ], [ 74.60519, 26.2273287 ], [ 74.6016263, 26.2272286 ], [ 74.5905853, 26.2382044 ], [ 74.578394, 26.2316048 ], [ 74.5687154, 26.2281223 ], [ 74.5622992, 26.218455 ], [ 74.5582536, 26.2148309 ], [ 74.5521686, 26.211882 ], [ 74.5503908, 26.2082286 ], [ 74.5385685, 26.2020917 ], [ 74.5312989, 26.1953052 ], [ 74.5212048, 26.1917189 ], [ 74.5033221, 26.1900465 ], [ 74.5020197, 26.1915273 ], [ 74.5016511, 26.1958376 ], [ 74.4983149, 26.1977854 ], [ 74.4848589, 26.1953044 ], [ 74.4769261, 26.1977724 ], [ 74.4721464, 26.1967572 ], [ 74.4691726, 26.1992339 ], [ 74.4618569, 26.1979697 ], [ 74.4593586, 26.2047188 ], [ 74.4617703, 26.2124615 ], [ 74.4640999, 26.2174182 ], [ 74.4673288, 26.2172993 ], [ 74.4705768, 26.2151849 ], [ 74.4713491, 26.2159688 ], [ 74.4749883, 26.2203252 ], [ 74.4749514, 26.2274267 ], [ 74.4653032, 26.2290254 ], [ 74.4629101, 26.2247366 ], [ 74.4589028, 26.2242746 ], [ 74.4531374, 26.2262212 ], [ 74.4514461, 26.2271493 ], [ 74.4537685, 26.2304042 ], [ 74.4523518, 26.2325613 ], [ 74.4479877, 26.2344588 ], [ 74.449109, 26.2387295 ], [ 74.4482021, 26.2410059 ], [ 74.4336931, 26.2463715 ], [ 74.4279225, 26.2306467 ], [ 74.4282561, 26.223858 ], [ 74.4272895, 26.2229422 ], [ 74.4144397, 26.2190982 ], [ 74.4081199, 26.2157676 ], [ 74.4026899, 26.2166435 ], [ 74.3986657, 26.2088435 ], [ 74.3933488, 26.202442 ], [ 74.3750446, 26.2000973 ], [ 74.3728585, 26.2036814 ], [ 74.3753286, 26.2106492 ], [ 74.3750639, 26.2264808 ], [ 74.3687318, 26.2292703 ], [ 74.3686502, 26.2397393 ], [ 74.3737525, 26.250241 ], [ 74.3769346, 26.2539086 ], [ 74.3840849, 26.2590532 ], [ 74.3982735, 26.26489 ], [ 74.3983201, 26.2675765 ], [ 74.387264, 26.2778329 ], [ 74.3772605, 26.2819687 ], [ 74.3725655, 26.2857792 ], [ 74.3611418, 26.2913154 ], [ 74.3534768, 26.2874971 ], [ 74.3437599, 26.2762198 ], [ 74.3352182, 26.2696375 ], [ 74.3325136, 26.2689284 ], [ 74.3281871, 26.2636303 ], [ 74.3212098, 26.2607112 ], [ 74.3103895, 26.2515592 ], [ 74.3045242, 26.2505675 ], [ 74.2959838, 26.2515254 ], [ 74.279802, 26.2568439 ], [ 74.2732358, 26.2603787 ], [ 74.2738182, 26.2629482 ], [ 74.2699645, 26.2658787 ], [ 74.2651744, 26.2763848 ], [ 74.2594148, 26.2772231 ], [ 74.2521007, 26.2860894 ], [ 74.2565111, 26.2927298 ], [ 74.271737, 26.3089821 ], [ 74.2788537, 26.3125203 ], [ 74.2893375, 26.3207318 ], [ 74.2944718, 26.3220145 ], [ 74.2972109, 26.3249477 ], [ 74.3043147, 26.3277576 ], [ 74.3066034, 26.3402668 ], [ 74.3068284, 26.3483928 ], [ 74.3033873, 26.3579341 ], [ 74.3041424, 26.3711912 ], [ 74.3026462, 26.3752162 ], [ 74.3045863, 26.3824481 ], [ 74.2929646, 26.3909898 ], [ 74.2924028, 26.4016715 ], [ 74.2887704, 26.4078282 ], [ 74.2876079, 26.4138632 ], [ 74.288944, 26.4356154 ], [ 74.2930873, 26.4507457 ], [ 74.2959691, 26.4508295 ], [ 74.2993655, 26.4535335 ], [ 74.3078866, 26.4548297 ], [ 74.3094538, 26.4561453 ], [ 74.3150227, 26.4553669 ], [ 74.317221, 26.4519522 ], [ 74.3172287, 26.4486414 ], [ 74.322832, 26.4431876 ], [ 74.3278887, 26.4411977 ], [ 74.3329634, 26.4415604 ], [ 74.3421841, 26.4454128 ], [ 74.3429053, 26.4487565 ], [ 74.3501476, 26.453468 ], [ 74.3534563, 26.4693062 ], [ 74.3640485, 26.4750131 ], [ 74.3696455, 26.4760342 ], [ 74.3714517, 26.4839393 ], [ 74.3701103, 26.4874849 ], [ 74.3858784, 26.4885724 ], [ 74.3900961, 26.4876921 ], [ 74.3908798, 26.4853437 ], [ 74.394429, 26.4844249 ], [ 74.3974849, 26.4851044 ], [ 74.3970427, 26.4867853 ], [ 74.3995104, 26.4867488 ], [ 74.399917, 26.4881839 ], [ 74.4036035, 26.4879892 ], [ 74.4040754, 26.4894559 ], [ 74.431149, 26.4863337 ], [ 74.4317829, 26.4905308 ], [ 74.4308112, 26.4904942 ], [ 74.4324474, 26.4951068 ], [ 74.4408469, 26.5036484 ], [ 74.4625324, 26.4870761 ], [ 74.4827363, 26.4985846 ], [ 74.4915456, 26.5125285 ], [ 74.4991071, 26.5184376 ], [ 74.5028802, 26.519751 ], [ 74.506106, 26.5246785 ], [ 74.5105156, 26.5274385 ], [ 74.5092209, 26.5285763 ], [ 74.5122507, 26.5313089 ], [ 74.5156809, 26.5367154 ], [ 74.5159307, 26.5393888 ], [ 74.5201944, 26.5448297 ], [ 74.5299209, 26.5512727 ], [ 74.5369687, 26.5587085 ], [ 74.5388714, 26.5637077 ], [ 74.5489503, 26.5769494 ], [ 74.5499923, 26.5801264 ], [ 74.5584443, 26.5888251 ], [ 74.5640946, 26.6004177 ], [ 74.5716225, 26.6071174 ], [ 74.5787092, 26.6179553 ], [ 74.5884352, 26.6285386 ], [ 74.5924149, 26.6267217 ], [ 74.6029689, 26.614892 ], [ 74.6012268, 26.6132484 ], [ 74.6020945, 26.6121402 ], [ 74.6135841, 26.6036485 ], [ 74.609671, 26.5999467 ], [ 74.6129293, 26.5954832 ], [ 74.6136842, 26.5849022 ], [ 74.6173359, 26.5684162 ], [ 74.6266403, 26.5729983 ], [ 74.627793, 26.5751638 ], [ 74.634676, 26.5800663 ], [ 74.639762, 26.5881738 ], [ 74.6472689, 26.5930773 ], [ 74.6479388, 26.5907765 ], [ 74.6518819, 26.5903709 ], [ 74.6550555, 26.5869837 ], [ 74.6629014, 26.5929481 ], [ 74.6705825, 26.5953362 ], [ 74.6743469, 26.6013266 ], [ 74.6735618, 26.6089769 ], [ 74.6764591, 26.6091821 ], [ 74.6767103, 26.6109479 ], [ 74.6796647, 26.6122773 ], [ 74.6803952, 26.6169063 ], [ 74.6862772, 26.6240478 ], [ 74.6918535, 26.6387185 ], [ 74.6917475, 26.6426369 ], [ 74.6941418, 26.6471746 ], [ 74.7021114, 26.6523471 ], [ 74.7146353, 26.6669907 ], [ 74.7172578, 26.6753296 ], [ 74.715321, 26.6782286 ], [ 74.7160327, 26.6871009 ], [ 74.7198913, 26.6978214 ], [ 74.7218563, 26.6999786 ], [ 74.7126715, 26.7027322 ], [ 74.7129555, 26.703744 ], [ 74.7116078, 26.7039761 ], [ 74.7121818, 26.7055889 ], [ 74.687917, 26.7062825 ], [ 74.6771331, 26.7105787 ], [ 74.6688646, 26.7104287 ], [ 74.6630426, 26.7125323 ], [ 74.6835909, 26.7365648 ], [ 74.6807598, 26.740328 ], [ 74.681132, 26.74571 ], [ 74.6855599, 26.7500434 ], [ 74.6867746, 26.7545212 ], [ 74.6897993, 26.7554578 ], [ 74.6900181, 26.7582482 ], [ 74.6927666, 26.7609583 ], [ 74.692821, 26.7631615 ], [ 74.6974913, 26.7637809 ], [ 74.6949668, 26.771265 ], [ 74.6988477, 26.773842 ], [ 74.7116526, 26.7759226 ], [ 74.7129658, 26.7757357 ], [ 74.7123926, 26.7736805 ], [ 74.7135446, 26.7735744 ], [ 74.7134073, 26.7721567 ], [ 74.7170176, 26.772498 ], [ 74.7187968, 26.770917 ], [ 74.7398525, 26.7719323 ], [ 74.7408595, 26.769212 ], [ 74.7500033, 26.7710997 ], [ 74.751265, 26.7739075 ], [ 74.7513211, 26.7851079 ], [ 74.7575219, 26.7880349 ], [ 74.7590443, 26.7911976 ], [ 74.7694981, 26.793251 ], [ 74.7759735, 26.7900291 ], [ 74.7801333, 26.7979268 ], [ 74.779267, 26.8010719 ], [ 74.7761051, 26.8024439 ], [ 74.7768396, 26.8126882 ], [ 74.7746133, 26.8139803 ], [ 74.7758253, 26.8193589 ], [ 74.7690289, 26.8237224 ], [ 74.7677162, 26.8283746 ], [ 74.7655519, 26.8286555 ], [ 74.7721267, 26.8396677 ], [ 74.7702306, 26.8416329 ], [ 74.7694893, 26.8498073 ], [ 74.7853615, 26.8532903 ], [ 74.7992445, 26.853705 ], [ 74.8047023, 26.856844 ], [ 74.8072999, 26.8625041 ], [ 74.8137504, 26.8669955 ], [ 74.8192097, 26.8810332 ], [ 74.81847, 26.8839711 ], [ 74.8159614, 26.8848933 ], [ 74.8225756, 26.8929226 ], [ 74.8279444, 26.9041306 ], [ 74.8273074, 26.9090956 ], [ 74.8234705, 26.9122373 ], [ 74.8255952, 26.9190024 ], [ 74.8243425, 26.9214431 ], [ 74.8262268, 26.9275082 ], [ 74.8337586, 26.9326772 ], [ 74.8329621, 26.940003 ], [ 74.8369075, 26.9459259 ], [ 74.839321, 26.9560633 ], [ 74.8418321, 26.9579712 ], [ 74.8536136, 26.978673 ], [ 74.8698881, 26.9744816 ] ] ], [ [ [ 75.1425522, 26.229254 ], [ 75.1418649, 26.227986 ], [ 75.1373808, 26.2289114 ], [ 75.1311718, 26.2273912 ], [ 75.127265, 26.2252908 ], [ 75.1265849, 26.2212417 ], [ 75.1194421, 26.2262772 ], [ 75.1179741, 26.224924 ], [ 75.1155555, 26.234258 ], [ 75.1146821, 26.2522862 ], [ 75.0976326, 26.2568948 ], [ 75.0949751, 26.2644859 ], [ 75.1011363, 26.2728024 ], [ 75.1065928, 26.276153 ], [ 75.1064141, 26.2779093 ], [ 75.1122865, 26.2810381 ], [ 75.1132707, 26.2837462 ], [ 75.1148468, 26.2822144 ], [ 75.1132638, 26.276658 ], [ 75.1184541, 26.268893 ], [ 75.1178159, 26.2616518 ], [ 75.117007, 26.2589301 ], [ 75.1155395, 26.2585069 ], [ 75.1174743, 26.2556068 ], [ 75.1213222, 26.2532424 ], [ 75.1327235, 26.2493045 ], [ 75.1340734, 26.2476598 ], [ 75.1403838, 26.2451391 ], [ 75.1407529, 26.2398565 ], [ 75.1395881, 26.2371216 ], [ 75.1425522, 26.229254 ] ] ] ] } }
]
}
