{
"type": "FeatureCollection",
"name": "0822",
"crs": { "type": "name", "properties": { "name": "urn:ogc:def:crs:OGC:1.3:CRS84" } },
"features": [
{ "type": "Feature", "properties": { "code": "0822", "name": "Tonk", "type": "district" }, "geometry": { "type": "Polygon", "coordinates": [ [ [ 75.2910956, 26.5569559 ], [ 75.3006527, 26.5604439 ], [ 75.3134051, 26.5590665 ], [ 75.3288735, 26.5613612 ], [ 75.3306752, 26.5576822 ], [ 75.3314673, 26.5503307 ], [ 75.3336806, 26.5501991 ], [ 75.3336164, 26.5470842 ], [ 75.3351766, 26.5467826 ], [ 75.3344236, 26.541552 ], [ 75.3357215, 26.5408627 ], [ 75.3339542, 26.5372056 ], [ 75.3383268, 26.5341119 ], [ 75.3347532, 26.5219807 ], [ 75.3449021, 26.5191259 ], [ 75.3435226, 26.5058203 ], [ 75.346203, 26.5027981 ], [ 75.3481806, 26.503019 ], [ 75.3480166, 26.4999217 ], [ 75.3499266, 26.4971008 ], [ 75.3663633, 26.4887473 ], [ 75.3783765, 26.490422 ], [ 75.3873891, 26.4812706 ], [ 75.3898525, 26.4839992 ], [ 75.4105795, 26.4831832 ], [ 75.4073521, 26.4927001 ], [ 75.4088057, 26.4951383 ], [ 75.4139427, 26.4874025 ], [ 75.4183467, 26.4871145 ], [ 75.4238105, 26.4845147 ], [ 75.4247852, 26.4852179 ], [ 75.4335315, 26.4822666 ], [ 75.4378009, 26.4858302 ], [ 75.4392835, 26.4905602 ], [ 75.4457383, 26.4903154 ], [ 75.4548748, 26.4960761 ], [ 75.4649795, 26.4915669 ], [ 75.4672201, 26.4885845 ], [ 75.4736542, 26.4879313 ], [ 75.4818163, 26.4823675 ], [ 75.501808, 26.4825953 ], [ 75.5002147, 26.4789141 ], [ 75.5036405, 26.4734085 ], [ 75.5115232, 26.4706531 ], [ 75.5105087, 26.4686672 ], [ 75.5110857, 26.4656573 ], [ 75.5191529, 26.4656429 ], [ 75.5213341, 26.4632513 ], [ 75.5312222, 26.4702259 ], [ 75.5342855, 26.4764084 ], [ 75.5416088, 26.4805567 ], [ 75.5455264, 26.4812248 ], [ 75.5461436, 26.485835 ], [ 75.5504172, 26.486744 ], [ 75.5523997, 26.4837568 ], [ 75.555752, 26.4834189 ], [ 75.5604866, 26.4796306 ], [ 75.564422, 26.4790914 ], [ 75.5693974, 26.4758483 ], [ 75.5727829, 26.4758008 ], [ 75.5710666, 26.4701363 ], [ 75.5699278, 26.4478521 ], [ 75.578636, 26.4447424 ], [ 75.5786431, 26.4461548 ], [ 75.5810016, 26.4457051 ], [ 75.5815427, 26.4480873 ], [ 75.5880308, 26.4481267 ], [ 75.5965156, 26.4442064 ], [ 75.6145713, 26.4402585 ], [ 75.6174514, 26.44233 ], [ 75.626002, 26.4449058 ], [ 75.6458258, 26.4426819 ], [ 75.6519958, 26.4535006 ], [ 75.6529612, 26.4574961 ], [ 75.6512103, 26.4578629 ], [ 75.6521369, 26.4660773 ], [ 75.6559739, 26.4651749 ], [ 75.6584343, 26.461236 ], [ 75.6817628, 26.4604855 ], [ 75.6811126, 26.4582404 ], [ 75.6827297, 26.4535016 ], [ 75.6870219, 26.453341 ], [ 75.6942334, 26.4507555 ], [ 75.6950355, 26.4473568 ], [ 75.7098206, 26.4466566 ], [ 75.7185952, 26.4552804 ], [ 75.7271641, 26.4668752 ], [ 75.7370704, 26.4550599 ], [ 75.7374384, 26.4529994 ], [ 75.7358647, 26.4500145 ], [ 75.7409381, 26.4470366 ], [ 75.7437605, 26.4506319 ], [ 75.7481202, 26.4605546 ], [ 75.7470246, 26.4628075 ], [ 75.7471, 26.4695196 ], [ 75.7567721, 26.4690734 ], [ 75.7686729, 26.4664998 ], [ 75.7708225, 26.4714495 ], [ 75.7711179, 26.4743778 ], [ 75.7685647, 26.4811722 ], [ 75.7739558, 26.4876889 ], [ 75.7647699, 26.4967356 ], [ 75.7692316, 26.4984722 ], [ 75.7664746, 26.5041436 ], [ 75.7609663, 26.5073196 ], [ 75.7600066, 26.5177935 ], [ 75.7622295, 26.5170187 ], [ 75.7683945, 26.5182 ], [ 75.7691006, 26.5198452 ], [ 75.7725715, 26.5201794 ], [ 75.7792047, 26.5242633 ], [ 75.7798129, 26.5271848 ], [ 75.7767153, 26.5281084 ], [ 75.7775465, 26.5307274 ], [ 75.7758186, 26.532081 ], [ 75.7699587, 26.5309316 ], [ 75.7704541, 26.5350831 ], [ 75.7721832, 26.5354605 ], [ 75.7716598, 26.5394479 ], [ 75.7731043, 26.5396042 ], [ 75.7724787, 26.5428624 ], [ 75.7751531, 26.5434934 ], [ 75.7783634, 26.5424557 ], [ 75.7810759, 26.5450095 ], [ 75.7829135, 26.543609 ], [ 75.7902903, 26.5485364 ], [ 75.7956352, 26.5470405 ], [ 75.7966998, 26.5506788 ], [ 75.8033216, 26.5457978 ], [ 75.8039571, 26.5448056 ], [ 75.8022447, 26.5429675 ], [ 75.804551, 26.5428701 ], [ 75.8050697, 26.5416844 ], [ 75.8028504, 26.5394036 ], [ 75.803581, 26.5362124 ], [ 75.8025085, 26.5342547 ], [ 75.7944702, 26.530142 ], [ 75.8037045, 26.5265556 ], [ 75.8047314, 26.5248524 ], [ 75.8071629, 26.5252269 ], [ 75.8089505, 26.5232304 ], [ 75.8113027, 26.5237453 ], [ 75.8151198, 26.5206447 ], [ 75.8228853, 26.5188847 ], [ 75.8250286, 26.5168544 ], [ 75.8341566, 26.5176004 ], [ 75.8445377, 26.5133229 ], [ 75.84971, 26.5200004 ], [ 75.8531419, 26.5192622 ], [ 75.8557809, 26.5219053 ], [ 75.8585116, 26.5213381 ], [ 75.8578039, 26.5199746 ], [ 75.8608941, 26.5178252 ], [ 75.8653261, 26.5179744 ], [ 75.8650527, 26.5189873 ], [ 75.8697726, 26.5200465 ], [ 75.8773909, 26.5198451 ], [ 75.8815551, 26.5187418 ], [ 75.8813065, 26.5151568 ], [ 75.8930801, 26.5101381 ], [ 75.8947247, 26.511929 ], [ 75.9028984, 26.5086995 ], [ 75.9047197, 26.5125296 ], [ 75.9063983, 26.5128801 ], [ 75.9201933, 26.5092571 ], [ 75.9284134, 26.5087975 ], [ 75.9328615, 26.5072517 ], [ 75.9328813, 26.5016269 ], [ 75.9351862, 26.5006412 ], [ 75.9351557, 26.4968675 ], [ 75.9373344, 26.4951829 ], [ 75.9556845, 26.4925377 ], [ 75.9552859, 26.4886131 ], [ 75.9613132, 26.4858775 ], [ 75.9623735, 26.4861006 ], [ 75.9691232, 26.5019451 ], [ 75.9733194, 26.5070754 ], [ 75.9835262, 26.5047311 ], [ 75.9849204, 26.5093711 ], [ 75.9903575, 26.507301 ], [ 75.9903082, 26.5051537 ], [ 75.9961163, 26.5031812 ], [ 75.9959483, 26.5016144 ], [ 76.0089914, 26.499845 ], [ 76.0129511, 26.5108541 ], [ 76.0179541, 26.5074916 ], [ 76.0197431, 26.5117943 ], [ 76.0225668, 26.5110835 ], [ 76.0252125, 26.5208512 ], [ 76.0309732, 26.5208593 ], [ 76.0321787, 26.5149029 ], [ 76.0403339, 26.5133114 ], [ 76.047854, 26.5137258 ], [ 76.0518797, 26.5122381 ], [ 76.0500356, 26.5097373 ], [ 76.0524379, 26.5085279 ], [ 76.0628832, 26.5089696 ], [ 76.0706735, 26.5277172 ], [ 76.0832007, 26.5225532 ], [ 76.0854971, 26.5250276 ], [ 76.0871237, 26.5251009 ], [ 76.0888465, 26.5289925 ], [ 76.0961015, 26.5304356 ], [ 76.100442, 26.5388119 ], [ 76.108353, 26.535839 ], [ 76.1138749, 26.53548 ], [ 76.1211918, 26.5282408 ], [ 76.1313327, 26.5322459 ], [ 76.1463421, 26.5241181 ], [ 76.1515399, 26.5190024 ], [ 76.1495083, 26.5110064 ], [ 76.1525919, 26.5037499 ], [ 76.168537, 26.4959313 ], [ 76.1756733, 26.4865767 ], [ 76.1734717, 26.4847541 ], [ 76.1679138, 26.4837047 ], [ 76.1624483, 26.4792555 ], [ 76.1588071, 26.4742699 ], [ 76.1561683, 26.4740474 ], [ 76.1509188, 26.4673748 ], [ 76.1448883, 26.4703332 ], [ 76.1415948, 26.470216 ], [ 76.1412198, 26.4680486 ], [ 76.1376151, 26.4656865 ], [ 76.1368001, 26.4605122 ], [ 76.1319553, 26.460155 ], [ 76.1337788, 26.4542887 ], [ 76.139948, 26.4460637 ], [ 76.1527476, 26.4428512 ], [ 76.153035, 26.4413801 ], [ 76.1510337, 26.4283412 ], [ 76.1482593, 26.4257463 ], [ 76.1479726, 26.42141 ], [ 76.1478921, 26.4181419 ], [ 76.1511413, 26.4118612 ], [ 76.1420188, 26.4008004 ], [ 76.130075, 26.3752505 ], [ 76.1294449, 26.3678804 ], [ 76.1382883, 26.3636944 ], [ 76.1407797, 26.3590781 ], [ 76.1365107, 26.3499813 ], [ 76.1283894, 26.3499384 ], [ 76.1256919, 26.3454991 ], [ 76.1240205, 26.3456491 ], [ 76.1240464, 26.3400423 ], [ 76.1266733, 26.3393423 ], [ 76.1249837, 26.3348102 ], [ 76.1292144, 26.3347103 ], [ 76.1399921, 26.326471 ], [ 76.1407182, 26.3227667 ], [ 76.134826, 26.3195403 ], [ 76.1433343, 26.31571 ], [ 76.1449213, 26.3109932 ], [ 76.1427565, 26.3092151 ], [ 76.1403768, 26.3091175 ], [ 76.1402978, 26.3033826 ], [ 76.1378592, 26.2964457 ], [ 76.1364659, 26.2952528 ], [ 76.1322709, 26.2963007 ], [ 76.131954, 26.2939103 ], [ 76.1281203, 26.2903916 ], [ 76.1224414, 26.2904355 ], [ 76.1231889, 26.2850255 ], [ 76.1191563, 26.2846888 ], [ 76.121362, 26.2801777 ], [ 76.1188745, 26.2777674 ], [ 76.1102243, 26.2762449 ], [ 76.1109653, 26.2602956 ], [ 76.1178296, 26.2583144 ], [ 76.1202208, 26.253989 ], [ 76.1173491, 26.2503023 ], [ 76.1143263, 26.2488225 ], [ 76.1045423, 26.2475529 ], [ 76.1040743, 26.2451774 ], [ 76.1023505, 26.244992 ], [ 76.1018049, 26.2407483 ], [ 76.0970239, 26.2396338 ], [ 76.0876572, 26.2400706 ], [ 76.0665717, 26.2454337 ], [ 76.0663696, 26.2441396 ], [ 76.0585446, 26.244062 ], [ 76.0458314, 26.2498793 ], [ 76.0260281, 26.2529022 ], [ 76.0258067, 26.2362324 ], [ 76.0279556, 26.2233105 ], [ 76.0069265, 26.2201097 ], [ 75.9901514, 26.2214902 ], [ 75.9873794, 26.2109186 ], [ 75.9831407, 26.2115435 ], [ 75.9796289, 26.1979656 ], [ 75.9808477, 26.1953209 ], [ 75.9830091, 26.1964754 ], [ 75.9897524, 26.1962169 ], [ 75.9957475, 26.1944962 ], [ 76.0010578, 26.1917011 ], [ 76.0007109, 26.1893683 ], [ 76.0035934, 26.188432 ], [ 76.0018275, 26.1869105 ], [ 76.0033416, 26.1871993 ], [ 76.0043094, 26.1857691 ], [ 76.0011123, 26.1740675 ], [ 75.9983674, 26.1713418 ], [ 76.0020454, 26.1655875 ], [ 76.0019733, 26.1624189 ], [ 76.0009302, 26.1609454 ], [ 75.9938803, 26.1613779 ], [ 75.9997404, 26.155762 ], [ 75.9937716, 26.1166317 ], [ 75.9977333, 26.1167849 ], [ 76.0061204, 26.1122393 ], [ 76.0232325, 26.1082997 ], [ 76.0308215, 26.109293 ], [ 76.0394923, 26.1149775 ], [ 76.0467807, 26.112478 ], [ 76.0538529, 26.1132255 ], [ 76.0562638, 26.1149685 ], [ 76.0590739, 26.1221664 ], [ 76.058928, 26.127052 ], [ 76.0633542, 26.1309605 ], [ 76.0770244, 26.1191893 ], [ 76.0805815, 26.1177407 ], [ 76.0780914, 26.1079496 ], [ 76.0832188, 26.1049317 ], [ 76.088042, 26.1041956 ], [ 76.0882053, 26.1023932 ], [ 76.0821078, 26.0907017 ], [ 76.0832019, 26.0900705 ], [ 76.082959, 26.0859552 ], [ 76.0793712, 26.0686965 ], [ 76.0834156, 26.067673 ], [ 76.0832323, 26.0613272 ], [ 76.0866466, 26.0586877 ], [ 76.0961838, 26.0598525 ], [ 76.0982372, 26.0613763 ], [ 76.0995658, 26.060206 ], [ 76.105663, 26.0606876 ], [ 76.1076961, 26.0478151 ], [ 76.1039667, 26.0476812 ], [ 76.1025631, 26.0445544 ], [ 76.1003693, 26.0445576 ], [ 76.1016915, 26.0432654 ], [ 76.1011384, 26.0423713 ], [ 76.0895352, 26.0446036 ], [ 76.0910706, 26.0414906 ], [ 76.0896045, 26.0369602 ], [ 76.0861548, 26.0373157 ], [ 76.0858418, 26.0364332 ], [ 76.0899707, 26.0338696 ], [ 76.0869696, 26.0330074 ], [ 76.0868969, 26.0300058 ], [ 76.0850048, 26.0301871 ], [ 76.0832113, 26.0280472 ], [ 76.0817401, 26.0289069 ], [ 76.0804241, 26.0281583 ], [ 76.0810516, 26.025752 ], [ 76.0831136, 26.0244815 ], [ 76.082044, 26.0233654 ], [ 76.0798162, 26.0239735 ], [ 76.0803038, 26.018846 ], [ 76.0751563, 26.0148665 ], [ 76.0722356, 26.0156421 ], [ 76.0687392, 26.0135507 ], [ 76.0699518, 26.0111852 ], [ 76.0669687, 26.01002 ], [ 76.0691563, 26.0088526 ], [ 76.0691498, 26.0070243 ], [ 76.0651695, 26.0077399 ], [ 76.0673965, 26.004297 ], [ 76.0626543, 26.0047157 ], [ 76.0626762, 26.0015915 ], [ 76.0648146, 26.0032823 ], [ 76.064154, 26.0014904 ], [ 76.0682922, 26.0011393 ], [ 76.0665283, 25.9994369 ], [ 76.0669676, 25.997933 ], [ 76.0649649, 25.9980211 ], [ 76.064798, 25.9956175 ], [ 76.0629864, 25.9976988 ], [ 76.0620228, 25.9950145 ], [ 76.059231, 25.9956713 ], [ 76.0606826, 25.9932138 ], [ 76.0632669, 25.9920102 ], [ 76.0820213, 25.9870877 ], [ 76.0862261, 25.9922037 ], [ 76.0904107, 26.0019945 ], [ 76.0953703, 26.0003388 ], [ 76.110599, 25.992108 ], [ 76.1125773, 25.989064 ], [ 76.1111048, 25.9862984 ], [ 76.1192854, 25.9819557 ], [ 76.1179237, 25.9791108 ], [ 76.1182944, 25.9764648 ], [ 76.1313977, 25.9732962 ], [ 76.1296536, 25.9654865 ], [ 76.1359451, 25.9643236 ], [ 76.1379664, 25.9725204 ], [ 76.1423237, 25.9805242 ], [ 76.1436422, 25.9801355 ], [ 76.1448606, 25.9826855 ], [ 76.1470583, 25.9832008 ], [ 76.1506667, 25.9899704 ], [ 76.1569517, 25.987668 ], [ 76.1722595, 25.9862999 ], [ 76.1775839, 25.9983453 ], [ 76.1791032, 26.0105709 ], [ 76.1800632, 26.0106444 ], [ 76.1809955, 26.0154445 ], [ 76.1865103, 26.0148576 ], [ 76.1870057, 26.0104611 ], [ 76.1954783, 26.0119036 ], [ 76.216673, 26.0111219 ], [ 76.2233909, 26.0153041 ], [ 76.2259859, 26.0217556 ], [ 76.2259237, 26.0282747 ], [ 76.2406098, 26.0217211 ], [ 76.2403993, 26.0040766 ], [ 76.2388698, 25.9935173 ], [ 76.2348478, 25.982907 ], [ 76.2445698, 25.9807607 ], [ 76.2428663, 25.9736021 ], [ 76.2463164, 25.9673563 ], [ 76.2452594, 25.9594563 ], [ 76.2427421, 25.9579837 ], [ 76.2358744, 25.9339271 ], [ 76.2385046, 25.9319364 ], [ 76.2424439, 25.9314738 ], [ 76.2425369, 25.9284439 ], [ 76.2411021, 25.928727 ], [ 76.2407954, 25.927091 ], [ 76.2410172, 25.919189 ], [ 76.2388281, 25.9151223 ], [ 76.2350473, 25.9139718 ], [ 76.223687, 25.9140277 ], [ 76.2147841, 25.9162557 ], [ 76.2089427, 25.9156816 ], [ 76.2070344, 25.9106414 ], [ 76.2083144, 25.9098723 ], [ 76.2071195, 25.9077199 ], [ 76.2092465, 25.9048401 ], [ 76.2076528, 25.9027406 ], [ 76.2077236, 25.8998915 ], [ 76.2102539, 25.8979111 ], [ 76.2137706, 25.8865862 ], [ 76.2108715, 25.8831034 ], [ 76.2121906, 25.8788624 ], [ 76.2106157, 25.874167 ], [ 76.2104, 25.8608424 ], [ 76.2116071, 25.8598256 ], [ 76.2140029, 25.8607732 ], [ 76.230026, 25.8499558 ], [ 76.2408443, 25.846794 ], [ 76.2426656, 25.8439659 ], [ 76.2435086, 25.8372729 ], [ 76.2499997, 25.8349553 ], [ 76.2529757, 25.8286369 ], [ 76.2612411, 25.8215771 ], [ 76.2690924, 25.8192877 ], [ 76.2715988, 25.8255994 ], [ 76.2759779, 25.8278905 ], [ 76.2766343, 25.8314149 ], [ 76.2798836, 25.8366907 ], [ 76.2825118, 25.833855 ], [ 76.2878845, 25.8320333 ], [ 76.2876048, 25.8292414 ], [ 76.2899949, 25.8260828 ], [ 76.2898902, 25.8205627 ], [ 76.2923411, 25.8207396 ], [ 76.297636, 25.8251254 ], [ 76.3040834, 25.8235735 ], [ 76.3068447, 25.8256659 ], [ 76.3103245, 25.8245963 ], [ 76.3108715, 25.8226366 ], [ 76.3153809, 25.8186053 ], [ 76.3168844, 25.8188038 ], [ 76.3169617, 25.8172276 ], [ 76.3063956, 25.8042856 ], [ 76.2986098, 25.8037415 ], [ 76.2908899, 25.7982169 ], [ 76.2920583, 25.7914576 ], [ 76.2881256, 25.7869962 ], [ 76.2862978, 25.7816538 ], [ 76.2801645, 25.785807 ], [ 76.2805827, 25.7913153 ], [ 76.2758244, 25.7944675 ], [ 76.2745803, 25.7979771 ], [ 76.2669206, 25.8054882 ], [ 76.2593683, 25.8062716 ], [ 76.2567579, 25.803712 ], [ 76.255492, 25.7976375 ], [ 76.2499331, 25.7968277 ], [ 76.2456045, 25.7930005 ], [ 76.2362689, 25.7948769 ], [ 76.2349097, 25.7970102 ], [ 76.2355379, 25.7998806 ], [ 76.2275171, 25.8045532 ], [ 76.2241068, 25.80367 ], [ 76.2162476, 25.8105708 ], [ 76.2165377, 25.8155342 ], [ 76.2139179, 25.826165 ], [ 76.2149761, 25.8277046 ], [ 76.2132129, 25.8294258 ], [ 76.2138175, 25.8305087 ], [ 76.2108736, 25.8314 ], [ 76.2099091, 25.8356471 ], [ 76.2078206, 25.8377772 ], [ 76.2014786, 25.8405926 ], [ 76.1879701, 25.842189 ], [ 76.1888593, 25.8353198 ], [ 76.1790708, 25.8196081 ], [ 76.1742356, 25.8143563 ], [ 76.1685692, 25.8143117 ], [ 76.1672239, 25.8129275 ], [ 76.1632885, 25.8123902 ], [ 76.1617929, 25.8083753 ], [ 76.1651891, 25.8022265 ], [ 76.162899, 25.7980373 ], [ 76.1639947, 25.7968729 ], [ 76.162146, 25.7939577 ], [ 76.1633119, 25.7912984 ], [ 76.1620181, 25.7895256 ], [ 76.1624416, 25.78745 ], [ 76.1592233, 25.7851959 ], [ 76.1598507, 25.7835612 ], [ 76.1576333, 25.7816647 ], [ 76.1589417, 25.7813563 ], [ 76.1588048, 25.7795877 ], [ 76.1566487, 25.777316 ], [ 76.1591287, 25.773924 ], [ 76.1586817, 25.7705101 ], [ 76.1597991, 25.7700542 ], [ 76.1584848, 25.7661416 ], [ 76.1604693, 25.7600131 ], [ 76.1587968, 25.7571959 ], [ 76.1489714, 25.7634722 ], [ 76.1508097, 25.7710872 ], [ 76.1380277, 25.7848621 ], [ 76.1309144, 25.7856354 ], [ 76.1267096, 25.7839255 ], [ 76.1207324, 25.7851544 ], [ 76.1177985, 25.7833577 ], [ 76.1072005, 25.7869149 ], [ 76.1045998, 25.7941624 ], [ 76.1057748, 25.7982572 ], [ 76.105411, 25.805271 ], [ 76.0955337, 25.8082757 ], [ 76.0840421, 25.8098697 ], [ 76.0758652, 25.8074023 ], [ 76.0717685, 25.8038616 ], [ 76.0677464, 25.8052681 ], [ 76.060284, 25.8051331 ], [ 76.0448885, 25.8131586 ], [ 76.0489702, 25.8269393 ], [ 76.0531732, 25.8345882 ], [ 76.0521671, 25.8347625 ], [ 76.0514215, 25.8412824 ], [ 76.0489559, 25.8417291 ], [ 76.0481745, 25.8458972 ], [ 76.0502719, 25.850076 ], [ 76.0510991, 25.8556004 ], [ 76.0539859, 25.8559226 ], [ 76.0545134, 25.8574582 ], [ 76.0521682, 25.8636421 ], [ 76.0505625, 25.8615003 ], [ 76.0449294, 25.8609766 ], [ 76.0415608, 25.8654702 ], [ 76.0354532, 25.8614734 ], [ 76.0112205, 25.8664793 ], [ 76.0113949, 25.8758233 ], [ 76.0076695, 25.8808152 ], [ 75.9806561, 25.875479 ], [ 75.9793489, 25.8730996 ], [ 75.9762072, 25.8715406 ], [ 75.9712602, 25.8731675 ], [ 75.9712966, 25.8709099 ], [ 75.9683003, 25.8675801 ], [ 75.966441, 25.8684458 ], [ 75.967363, 25.8695277 ], [ 75.9666312, 25.8703497 ], [ 75.9640782, 25.868755 ], [ 75.9634876, 25.8703751 ], [ 75.9621511, 25.8692508 ], [ 75.9629412, 25.8682343 ], [ 75.960532, 25.8689771 ], [ 75.9613592, 25.8682177 ], [ 75.9601333, 25.8665689 ], [ 75.9587635, 25.8668759 ], [ 75.9591573, 25.8705347 ], [ 75.9529512, 25.8701196 ], [ 75.951002, 25.8741053 ], [ 75.9504175, 25.8727818 ], [ 75.9471571, 25.8719453 ], [ 75.9460498, 25.8726433 ], [ 75.946577, 25.8736737 ], [ 75.9428507, 25.874488 ], [ 75.9400089, 25.8729444 ], [ 75.9356238, 25.8731262 ], [ 75.9331173, 25.8710431 ], [ 75.9296993, 25.8717196 ], [ 75.9280511, 25.8606828 ], [ 75.9285416, 25.8525804 ], [ 75.931455, 25.8423225 ], [ 75.9292715, 25.8368015 ], [ 75.930231, 25.8357299 ], [ 75.9281985, 25.834831 ], [ 75.9252588, 25.8269581 ], [ 75.9243008, 25.8275692 ], [ 75.9177895, 25.8222199 ], [ 75.9108673, 25.8217578 ], [ 75.908218, 25.8230024 ], [ 75.9033955, 25.8175999 ], [ 75.8919318, 25.8210671 ], [ 75.88708, 25.8186227 ], [ 75.880903, 25.8204165 ], [ 75.8828915, 25.8329553 ], [ 75.8821383, 25.8343053 ], [ 75.8869681, 25.8430976 ], [ 75.8896048, 25.8414201 ], [ 75.8931599, 25.8491229 ], [ 75.8875015, 25.8524036 ], [ 75.8837956, 25.8586114 ], [ 75.8790135, 25.8590422 ], [ 75.8793528, 25.8610582 ], [ 75.8736514, 25.8626999 ], [ 75.8705864, 25.866628 ], [ 75.8689509, 25.8749809 ], [ 75.8621203, 25.8758614 ], [ 75.8560992, 25.8720551 ], [ 75.8528589, 25.8718394 ], [ 75.8500915, 25.869368 ], [ 75.8505078, 25.8654784 ], [ 75.8455065, 25.8575933 ], [ 75.8313334, 25.8565691 ], [ 75.8303181, 25.8548096 ], [ 75.8226954, 25.8557469 ], [ 75.8188395, 25.854464 ], [ 75.8161344, 25.847829 ], [ 75.8166649, 25.8444219 ], [ 75.8116028, 25.8447257 ], [ 75.8076129, 25.8302375 ], [ 75.80868, 25.8286966 ], [ 75.8088123, 25.822479 ], [ 75.8110691, 25.822787 ], [ 75.813652, 25.819707 ], [ 75.8141627, 25.8163407 ], [ 75.8137638, 25.8105143 ], [ 75.8111152, 25.8090393 ], [ 75.8087248, 25.8051879 ], [ 75.8058108, 25.8057369 ], [ 75.8037952, 25.8034319 ], [ 75.80111, 25.8031578 ], [ 75.795807, 25.7999724 ], [ 75.7904038, 25.8027108 ], [ 75.7915652, 25.8108627 ], [ 75.7901174, 25.8114213 ], [ 75.7921844, 25.81397 ], [ 75.7881186, 25.8206604 ], [ 75.7798188, 25.8261048 ], [ 75.7762208, 25.826994 ], [ 75.7752667, 25.8233977 ], [ 75.7709989, 25.8237545 ], [ 75.7663531, 25.8204021 ], [ 75.7654447, 25.8071379 ], [ 75.767465, 25.7986529 ], [ 75.76139, 25.7970415 ], [ 75.7614452, 25.7947522 ], [ 75.7535178, 25.7856465 ], [ 75.7566054, 25.7841902 ], [ 75.7590604, 25.7726646 ], [ 75.7578076, 25.7638447 ], [ 75.753713, 25.757342 ], [ 75.7419371, 25.7541563 ], [ 75.7335718, 25.7566547 ], [ 75.7303905, 25.7606528 ], [ 75.7191652, 25.7619458 ], [ 75.7076868, 25.759257 ], [ 75.7012326, 25.7537169 ], [ 75.6977113, 25.7551695 ], [ 75.6917048, 25.7613971 ], [ 75.6852497, 25.7599377 ], [ 75.6673555, 25.7509865 ], [ 75.6538012, 25.7493821 ], [ 75.6516465, 25.7428 ], [ 75.6510825, 25.7344319 ], [ 75.6414482, 25.7226004 ], [ 75.6400804, 25.7175406 ], [ 75.6311187, 25.7137059 ], [ 75.6289323, 25.7111599 ], [ 75.6290394, 25.7078229 ], [ 75.6267265, 25.7058327 ], [ 75.6279964, 25.7037594 ], [ 75.635677, 25.7002045 ], [ 75.6308433, 25.6936066 ], [ 75.6278206, 25.692089 ], [ 75.6245406, 25.6880396 ], [ 75.6222368, 25.6829205 ], [ 75.6155662, 25.6802218 ], [ 75.6153228, 25.6813515 ], [ 75.6046206, 25.6863627 ], [ 75.5923149, 25.6877361 ], [ 75.5873724, 25.6949304 ], [ 75.5879495, 25.6957498 ], [ 75.5862818, 25.6961087 ], [ 75.5873852, 25.701608 ], [ 75.5860001, 25.7057357 ], [ 75.5885414, 25.7077075 ], [ 75.5893735, 25.7106886 ], [ 75.5937788, 25.7126212 ], [ 75.5836082, 25.7109059 ], [ 75.5744245, 25.7111997 ], [ 75.5715266, 25.7096941 ], [ 75.5709747, 25.7057728 ], [ 75.5673626, 25.7017821 ], [ 75.5598794, 25.6989982 ], [ 75.5544094, 25.7004593 ], [ 75.553184, 25.6994752 ], [ 75.5330681, 25.7133525 ], [ 75.5289599, 25.7164015 ], [ 75.5256912, 25.7222647 ], [ 75.5245939, 25.7311948 ], [ 75.5202965, 25.7402041 ], [ 75.5206812, 25.7449931 ], [ 75.5164039, 25.7496181 ], [ 75.5101571, 25.7472697 ], [ 75.5076469, 25.7396392 ], [ 75.5010926, 25.7375127 ], [ 75.4940624, 25.737162 ], [ 75.4857847, 25.7328555 ], [ 75.4814548, 25.7333033 ], [ 75.4732245, 25.7369964 ], [ 75.4739959, 25.7309966 ], [ 75.4609938, 25.7208267 ], [ 75.4533867, 25.7310455 ], [ 75.4422032, 25.7410851 ], [ 75.438197, 25.7470345 ], [ 75.4350996, 25.7479874 ], [ 75.4327688, 25.7445223 ], [ 75.4270659, 25.7459885 ], [ 75.4225997, 25.7518349 ], [ 75.4228325, 25.7556313 ], [ 75.421502, 25.7586332 ], [ 75.415492, 25.7666691 ], [ 75.4016895, 25.7724148 ], [ 75.4028606, 25.7736577 ], [ 75.4013307, 25.7739509 ], [ 75.4012652, 25.7752469 ], [ 75.3975602, 25.775248 ], [ 75.3899291, 25.7671236 ], [ 75.3889562, 25.765415 ], [ 75.3920431, 25.7640296 ], [ 75.3902998, 25.760034 ], [ 75.3911167, 25.7597925 ], [ 75.3893447, 25.7561085 ], [ 75.3878147, 25.7563248 ], [ 75.3855409, 25.7500595 ], [ 75.3794735, 25.7516195 ], [ 75.3802981, 25.7538252 ], [ 75.3706459, 25.7584176 ], [ 75.371402, 25.7601278 ], [ 75.36105, 25.7609628 ], [ 75.3598486, 25.7593765 ], [ 75.3544005, 25.7582385 ], [ 75.3512795, 25.7599663 ], [ 75.3503779, 25.7585688 ], [ 75.3391964, 25.7627537 ], [ 75.3314836, 25.7594213 ], [ 75.3250829, 25.7617158 ], [ 75.3177066, 25.7665993 ], [ 75.3219257, 25.7724325 ], [ 75.3253129, 25.7820871 ], [ 75.3294897, 25.7884755 ], [ 75.3323481, 25.7905323 ], [ 75.337108, 25.8018676 ], [ 75.3348458, 25.8115259 ], [ 75.335583, 25.8199989 ], [ 75.3423964, 25.8283583 ], [ 75.3496003, 25.8317635 ], [ 75.3462223, 25.8333292 ], [ 75.3439549, 25.8324903 ], [ 75.3325149, 25.8342101 ], [ 75.3288845, 25.8384353 ], [ 75.3252657, 25.8396625 ], [ 75.3212703, 25.8437439 ], [ 75.3200947, 25.8481848 ], [ 75.3156758, 25.8545651 ], [ 75.3121252, 25.8573133 ], [ 75.3077056, 25.8579142 ], [ 75.3056337, 25.8594537 ], [ 75.3033379, 25.8593321 ], [ 75.2978805, 25.8540744 ], [ 75.2932203, 25.8562691 ], [ 75.2876577, 25.8567995 ], [ 75.28634, 25.8587164 ], [ 75.2802613, 25.8605343 ], [ 75.273516, 25.8590256 ], [ 75.2711788, 25.856023 ], [ 75.2663233, 25.8536978 ], [ 75.2637554, 25.8545738 ], [ 75.2653111, 25.885309 ], [ 75.2591059, 25.8871352 ], [ 75.2535927, 25.8905086 ], [ 75.2437943, 25.9001604 ], [ 75.2443977, 25.9143725 ], [ 75.2487514, 25.933531 ], [ 75.247368, 25.9382018 ], [ 75.2506538, 25.9406072 ], [ 75.2542664, 25.9393277 ], [ 75.2643127, 25.945739 ], [ 75.2655823, 25.9484728 ], [ 75.2703401, 25.947868 ], [ 75.2704814, 25.950694 ], [ 75.2853986, 25.9465974 ], [ 75.2873472, 25.9490723 ], [ 75.2965063, 25.9451439 ], [ 75.2998219, 25.9450603 ], [ 75.3068352, 25.959376 ], [ 75.3077827, 25.9664894 ], [ 75.3073424, 25.9681203 ], [ 75.302366, 25.9713815 ], [ 75.3018222, 25.9775048 ], [ 75.2984385, 25.9784029 ], [ 75.3037072, 25.9879259 ], [ 75.3069477, 25.9911607 ], [ 75.3161354, 25.9969922 ], [ 75.3242565, 25.9979675 ], [ 75.3268087, 26.0013163 ], [ 75.3318605, 26.0033274 ], [ 75.346012, 26.0024184 ], [ 75.3484172, 26.0098712 ], [ 75.349272, 26.0116796 ], [ 75.350576, 26.0116403 ], [ 75.3520612, 26.0158054 ], [ 75.3652844, 26.0144167 ], [ 75.3755636, 26.0116092 ], [ 75.3748519, 26.0077689 ], [ 75.3816224, 26.0063471 ], [ 75.3864821, 26.0027809 ], [ 75.3921215, 26.002382 ], [ 75.3973106, 25.9988553 ], [ 75.398042, 25.994975 ], [ 75.4018985, 25.9905217 ], [ 75.4052349, 25.9830177 ], [ 75.4131691, 25.9763539 ], [ 75.4182207, 25.9683165 ], [ 75.4172154, 25.9608653 ], [ 75.4186831, 25.9592718 ], [ 75.4257659, 25.9581225 ], [ 75.4397575, 25.9494211 ], [ 75.4464936, 25.9465967 ], [ 75.4490317, 25.9508735 ], [ 75.4511028, 25.9505195 ], [ 75.4515473, 25.9518499 ], [ 75.4595514, 25.9515268 ], [ 75.4606214, 25.9505617 ], [ 75.4565385, 25.9368811 ], [ 75.4583633, 25.9310059 ], [ 75.4580776, 25.9227398 ], [ 75.4631829, 25.9172789 ], [ 75.4644494, 25.9130309 ], [ 75.4644427, 25.9036805 ], [ 75.4678075, 25.8999269 ], [ 75.4714664, 25.8974047 ], [ 75.4961884, 25.888604 ], [ 75.5012121, 25.8880133 ], [ 75.5035746, 25.8860366 ], [ 75.518005, 25.8862251 ], [ 75.5222087, 25.8808147 ], [ 75.5273279, 25.877103 ], [ 75.5347551, 25.8750758 ], [ 75.5420418, 25.875139 ], [ 75.548164, 25.8802404 ], [ 75.5509495, 25.886799 ], [ 75.5569387, 25.8920721 ], [ 75.553853, 25.9025448 ], [ 75.5548732, 25.9061438 ], [ 75.5593359, 25.9092915 ], [ 75.5544361, 25.9141006 ], [ 75.5510189, 25.9200236 ], [ 75.5441458, 25.924745 ], [ 75.5429124, 25.9301629 ], [ 75.5435862, 25.9398899 ], [ 75.5424372, 25.9463233 ], [ 75.5388798, 25.9579759 ], [ 75.5355728, 25.9633202 ], [ 75.5373553, 25.9697878 ], [ 75.5453305, 25.9803452 ], [ 75.5535909, 25.9853253 ], [ 75.5639663, 25.9874433 ], [ 75.5759523, 25.984755 ], [ 75.6112699, 25.9800727 ], [ 75.6207324, 25.9775674 ], [ 75.6356093, 25.9769881 ], [ 75.638796, 25.9797371 ], [ 75.6438726, 25.9901121 ], [ 75.6561075, 25.9992853 ], [ 75.6611763, 26.0015963 ], [ 75.6830652, 26.0199869 ], [ 75.6893614, 26.0294424 ], [ 75.6909638, 26.0368434 ], [ 75.6871036, 26.0493269 ], [ 75.6866971, 26.0627691 ], [ 75.6822998, 26.0697577 ], [ 75.6785846, 26.079268 ], [ 75.6754671, 26.0831066 ], [ 75.6750412, 26.0873072 ], [ 75.6710975, 26.09361 ], [ 75.668746, 26.1003614 ], [ 75.6534496, 26.1209056 ], [ 75.6529956, 26.1246954 ], [ 75.6560918, 26.1304909 ], [ 75.6321754, 26.1428672 ], [ 75.6318016, 26.1466304 ], [ 75.6344303, 26.1588054 ], [ 75.632326, 26.1684083 ], [ 75.6122125, 26.1739922 ], [ 75.6005499, 26.1798581 ], [ 75.5934201, 26.1798988 ], [ 75.5891371, 26.1839233 ], [ 75.5889464, 26.1927638 ], [ 75.5877508, 26.1928364 ], [ 75.5854337, 26.1965143 ], [ 75.5809446, 26.1967602 ], [ 75.5781213, 26.2006362 ], [ 75.5693044, 26.2049693 ], [ 75.5691596, 26.212234 ], [ 75.5708988, 26.2188952 ], [ 75.5524588, 26.2276684 ], [ 75.5439396, 26.2251849 ], [ 75.5400471, 26.2212492 ], [ 75.5371801, 26.2203841 ], [ 75.5358796, 26.2249623 ], [ 75.5297691, 26.2285515 ], [ 75.5221925, 26.2256583 ], [ 75.5182257, 26.2262595 ], [ 75.5154024, 26.2103238 ], [ 75.5160552, 26.2062628 ], [ 75.5184931, 26.2030672 ], [ 75.5126988, 26.1998278 ], [ 75.508512, 26.1887366 ], [ 75.504004, 26.1842603 ], [ 75.4988551, 26.1701607 ], [ 75.4834232, 26.1733466 ], [ 75.4740108, 26.1767865 ], [ 75.4662784, 26.1812949 ], [ 75.4649583, 26.1803059 ], [ 75.4587377, 26.1851476 ], [ 75.4571415, 26.1851527 ], [ 75.4549018, 26.1831005 ], [ 75.4491152, 26.1812366 ], [ 75.4431788, 26.1820135 ], [ 75.44367, 26.1835605 ], [ 75.4335966, 26.1847064 ], [ 75.4319602, 26.1846707 ], [ 75.4306468, 26.1826745 ], [ 75.4215529, 26.1835276 ], [ 75.4118074, 26.1812353 ], [ 75.4069753, 26.1687026 ], [ 75.4035751, 26.1707076 ], [ 75.3983392, 26.1773906 ], [ 75.3973966, 26.1886258 ], [ 75.3911735, 26.1921734 ], [ 75.3888778, 26.1955748 ], [ 75.3866642, 26.2087276 ], [ 75.3883024, 26.2106917 ], [ 75.3851842, 26.2122125 ], [ 75.386257, 26.2157491 ], [ 75.3849848, 26.2185155 ], [ 75.3857639, 26.2240576 ], [ 75.3835486, 26.2262396 ], [ 75.384863, 26.2332248 ], [ 75.3797033, 26.2336675 ], [ 75.3757674, 26.2317455 ], [ 75.3717974, 26.2316339 ], [ 75.371507, 26.2300455 ], [ 75.3685182, 26.2299719 ], [ 75.3682724, 26.2266046 ], [ 75.352581, 26.2204632 ], [ 75.3416877, 26.2045299 ], [ 75.3227613, 26.2059919 ], [ 75.3225153, 26.1975627 ], [ 75.3100769, 26.1872784 ], [ 75.3061041, 26.1874223 ], [ 75.3033982, 26.1860149 ], [ 75.3023378, 26.1822834 ], [ 75.2982406, 26.1826487 ], [ 75.2956606, 26.1873809 ], [ 75.2800856, 26.1947622 ], [ 75.279375, 26.2115404 ], [ 75.2653701, 26.211269 ], [ 75.2564801, 26.215362 ], [ 75.2536074, 26.215507 ], [ 75.2519667, 26.2183136 ], [ 75.2480347, 26.2193678 ], [ 75.247104, 26.2218707 ], [ 75.2417752, 26.2228685 ], [ 75.239077, 26.2227781 ], [ 75.2397655, 26.2192148 ], [ 75.2350005, 26.2168389 ], [ 75.2260459, 26.2090291 ], [ 75.2248005, 26.2016313 ], [ 75.2259555, 26.1958867 ], [ 75.2270356, 26.1953973 ], [ 75.2244321, 26.1869272 ], [ 75.214985, 26.1872396 ], [ 75.2145265, 26.1855834 ], [ 75.2117635, 26.185118 ], [ 75.2078873, 26.1861846 ], [ 75.2066601, 26.1854956 ], [ 75.2065111, 26.1833016 ], [ 75.2001226, 26.1812203 ], [ 75.2009397, 26.1791379 ], [ 75.2000235, 26.1788411 ], [ 75.2028216, 26.1736768 ], [ 75.2019746, 26.1699036 ], [ 75.1993077, 26.1698802 ], [ 75.1949452, 26.1640576 ], [ 75.1834607, 26.1689486 ], [ 75.1677304, 26.1724081 ], [ 75.1676891, 26.1750584 ], [ 75.156266, 26.1817778 ], [ 75.1616822, 26.1876255 ], [ 75.1576114, 26.1894765 ], [ 75.1581121, 26.2008081 ], [ 75.1552539, 26.2042154 ], [ 75.1525868, 26.2160696 ], [ 75.1526935, 26.2210763 ], [ 75.1410926, 26.2268626 ], [ 75.1425983, 26.2300892 ], [ 75.1395881, 26.2371216 ], [ 75.1407529, 26.2398565 ], [ 75.1403838, 26.2451391 ], [ 75.1174743, 26.2556068 ], [ 75.1155395, 26.2585069 ], [ 75.117007, 26.2589301 ], [ 75.1178159, 26.2616518 ], [ 75.1183945, 26.2693039 ], [ 75.1132339, 26.2767664 ], [ 75.1148468, 26.2822144 ], [ 75.112018, 26.288289 ], [ 75.124508, 26.2920666 ], [ 75.1290692, 26.2951912 ], [ 75.13365, 26.3063565 ], [ 75.1355111, 26.317303 ], [ 75.1314662, 26.3198485 ], [ 75.1322143, 26.3213467 ], [ 75.1302081, 26.3237594 ], [ 75.1292668, 26.3378507 ], [ 75.1281097, 26.3381587 ], [ 75.1289848, 26.3410564 ], [ 75.1265467, 26.3429818 ], [ 75.1261206, 26.3520748 ], [ 75.1248997, 26.3537373 ], [ 75.1316469, 26.3600699 ], [ 75.1341474, 26.3641669 ], [ 75.1416299, 26.3642636 ], [ 75.1429949, 26.3698469 ], [ 75.1422448, 26.3712111 ], [ 75.1436364, 26.3738959 ], [ 75.1346097, 26.3782568 ], [ 75.134009, 26.3832552 ], [ 75.128502, 26.3938516 ], [ 75.1286169, 26.4025694 ], [ 75.1317778, 26.4092283 ], [ 75.1422296, 26.4119876 ], [ 75.1614633, 26.4127573 ], [ 75.1654814, 26.4141613 ], [ 75.167596, 26.4167863 ], [ 75.1685309, 26.418415 ], [ 75.1652932, 26.4193308 ], [ 75.1641633, 26.4216752 ], [ 75.1685353, 26.4248935 ], [ 75.1677503, 26.4263933 ], [ 75.1692341, 26.4398814 ], [ 75.1710098, 26.4401005 ], [ 75.1745423, 26.4447508 ], [ 75.1706719, 26.4524755 ], [ 75.1688368, 26.463078 ], [ 75.1717212, 26.4633274 ], [ 75.171725, 26.4692732 ], [ 75.1771375, 26.4790949 ], [ 75.1801456, 26.4811137 ], [ 75.1823686, 26.4846503 ], [ 75.189141, 26.4874902 ], [ 75.1971779, 26.4814297 ], [ 75.1993249, 26.4813365 ], [ 75.1952715, 26.499256 ], [ 75.1962724, 26.5036338 ], [ 75.2011664, 26.5075141 ], [ 75.2027048, 26.5177239 ], [ 75.2199411, 26.5195358 ], [ 75.2258754, 26.5234316 ], [ 75.2348002, 26.5243292 ], [ 75.2402178, 26.527977 ], [ 75.2509096, 26.5311413 ], [ 75.2520725, 26.532751 ], [ 75.2502031, 26.5386232 ], [ 75.250918, 26.5442516 ], [ 75.2605174, 26.5496654 ], [ 75.2701391, 26.5492141 ], [ 75.2701709, 26.5542252 ], [ 75.2742073, 26.5565018 ], [ 75.277978, 26.5609639 ], [ 75.2840804, 26.5641708 ], [ 75.2883817, 26.5637513 ], [ 75.287822, 26.5587593 ], [ 75.2910956, 26.5569559 ] ] ] } }
]
}
