{
"type": "FeatureCollection",
"name": "0826",
"crs": { "type": "name", "properties": { "name": "urn:ogc:def:crs:OGC:1.3:CRS84" } },
"features": [
{ "type": "Feature", "properties": { "code": "0826", "name": "Udaipur", "type": "district" }, "geometry": { "type": "Polygon", "coordinates": [ [ [ 73.4874704, 25.1044939 ], [ 73.4910749, 25.1004496 ], [ 73.4982066, 25.0982376 ], [ 73.502636, 25.0944 ], [ 73.5036634, 25.0902254 ], [ 73.4993375, 25.0843761 ], [ 73.5039748, 25.0805178 ], [ 73.5048443, 25.0783145 ], [ 73.5021898, 25.0748522 ], [ 73.499632, 25.0740408 ], [ 73.4996613, 25.0655403 ], [ 73.4952809, 25.0544941 ], [ 73.4965779, 25.0537985 ], [ 73.4830884, 25.0384429 ], [ 73.476877, 25.0286055 ], [ 73.4727051, 25.0249917 ], [ 73.4817794, 25.0179789 ], [ 73.4796004, 25.0094467 ], [ 73.4905947, 25.0053151 ], [ 73.496981, 25.0154427 ], [ 73.5032659, 25.0225804 ], [ 73.5321466, 25.0109635 ], [ 73.5232932, 24.9952193 ], [ 73.5189683, 24.9935962 ], [ 73.5186009, 24.9907754 ], [ 73.5080148, 24.9739883 ], [ 73.5138938, 24.9706928 ], [ 73.5240552, 24.9682298 ], [ 73.5264896, 24.9656036 ], [ 73.5263604, 24.9627311 ], [ 73.5279532, 24.9624759 ], [ 73.5281471, 24.9557511 ], [ 73.5342629, 24.9532381 ], [ 73.5323242, 24.9400815 ], [ 73.5365295, 24.9340868 ], [ 73.5354889, 24.9241037 ], [ 73.5378003, 24.9149256 ], [ 73.5400602, 24.9147084 ], [ 73.5406886, 24.912218 ], [ 73.5430458, 24.9108776 ], [ 73.544436, 24.9122185 ], [ 73.5481618, 24.909835 ], [ 73.5481822, 24.9123227 ], [ 73.5499156, 24.9126827 ], [ 73.5539248, 24.9114576 ], [ 73.5682766, 24.9131175 ], [ 73.5662676, 24.8960127 ], [ 73.5688649, 24.8926776 ], [ 73.572899, 24.8903453 ], [ 73.5801828, 24.8918599 ], [ 73.5816204, 24.8989019 ], [ 73.5834861, 24.898952 ], [ 73.5836549, 24.8976476 ], [ 73.5880254, 24.8952293 ], [ 73.5879517, 24.8935773 ], [ 73.5922872, 24.8920797 ], [ 73.5917881, 24.8888838 ], [ 73.5941189, 24.8892002 ], [ 73.5964597, 24.8877021 ], [ 73.5964653, 24.8849803 ], [ 73.6060163, 24.881637 ], [ 73.605616, 24.8781884 ], [ 73.6089619, 24.869766 ], [ 73.6122172, 24.8733908 ], [ 73.6159973, 24.8722807 ], [ 73.618887, 24.8730257 ], [ 73.6189265, 24.8747861 ], [ 73.623449, 24.8790607 ], [ 73.6242752, 24.8758875 ], [ 73.6402481, 24.8816644 ], [ 73.6462503, 24.881921 ], [ 73.6472249, 24.8802462 ], [ 73.6532371, 24.8809133 ], [ 73.6650803, 24.8726276 ], [ 73.6656846, 24.8747715 ], [ 73.6678272, 24.8749515 ], [ 73.6690431, 24.871656 ], [ 73.6712401, 24.8716328 ], [ 73.6735939, 24.8683505 ], [ 73.676552, 24.8669275 ], [ 73.6845571, 24.8664597 ], [ 73.6890718, 24.8616054 ], [ 73.6875261, 24.8576114 ], [ 73.6884155, 24.8552999 ], [ 73.6872134, 24.8552192 ], [ 73.6877851, 24.8513099 ], [ 73.6854774, 24.8461876 ], [ 73.6874852, 24.8451441 ], [ 73.6841304, 24.8432091 ], [ 73.6840487, 24.8379414 ], [ 73.6810051, 24.8346746 ], [ 73.6761173, 24.8328076 ], [ 73.6652212, 24.8345217 ], [ 73.6630274, 24.8262619 ], [ 73.6646495, 24.8255754 ], [ 73.6648217, 24.8228309 ], [ 73.6614115, 24.8143006 ], [ 73.6573952, 24.81232 ], [ 73.6484479, 24.795139 ], [ 73.6511423, 24.7941119 ], [ 73.6548831, 24.7889084 ], [ 73.6553284, 24.7843027 ], [ 73.6531552, 24.7780888 ], [ 73.6687351, 24.7769233 ], [ 73.6715907, 24.7753233 ], [ 73.6722657, 24.7695141 ], [ 73.6716175, 24.7649032 ], [ 73.6694287, 24.7614931 ], [ 73.6613346, 24.7568654 ], [ 73.6514653, 24.7564428 ], [ 73.6473161, 24.7492222 ], [ 73.6453649, 24.7404006 ], [ 73.6508585, 24.7380076 ], [ 73.6550471, 24.7296024 ], [ 73.6684299, 24.7262273 ], [ 73.669736, 24.7298418 ], [ 73.6666466, 24.7372414 ], [ 73.6811127, 24.7394778 ], [ 73.6876817, 24.7443033 ], [ 73.6903294, 24.7379017 ], [ 73.6920851, 24.7368966 ], [ 73.6975702, 24.7371114 ], [ 73.6982109, 24.7425214 ], [ 73.6929359, 24.7477173 ], [ 73.7030218, 24.7491414 ], [ 73.7043284, 24.7523493 ], [ 73.7007924, 24.7579131 ], [ 73.707173, 24.7624269 ], [ 73.7145693, 24.7634112 ], [ 73.7157299, 24.768764 ], [ 73.7096779, 24.7675713 ], [ 73.7066348, 24.770823 ], [ 73.7039901, 24.77133 ], [ 73.7004188, 24.7763467 ], [ 73.7015889, 24.781826 ], [ 73.7006958, 24.7846341 ], [ 73.7052025, 24.7885408 ], [ 73.7097807, 24.7806209 ], [ 73.7176284, 24.7756646 ], [ 73.719695, 24.7691045 ], [ 73.7236599, 24.7692013 ], [ 73.7270396, 24.7669105 ], [ 73.7335878, 24.7586319 ], [ 73.7325596, 24.753067 ], [ 73.7380339, 24.7427879 ], [ 73.7375521, 24.7388951 ], [ 73.7398475, 24.7390527 ], [ 73.7442527, 24.7299252 ], [ 73.7500029, 24.7310163 ], [ 73.7546921, 24.728834 ], [ 73.7577596, 24.730466 ], [ 73.759586, 24.7275559 ], [ 73.7599419, 24.7167995 ], [ 73.7630152, 24.7172397 ], [ 73.7673603, 24.7156675 ], [ 73.7726307, 24.7184046 ], [ 73.7746928, 24.7229264 ], [ 73.7837256, 24.7244262 ], [ 73.7868775, 24.7352501 ], [ 73.7909488, 24.7421791 ], [ 73.7990146, 24.743321 ], [ 73.8107662, 24.7477997 ], [ 73.8102669, 24.750414 ], [ 73.8014236, 24.7520658 ], [ 73.796716, 24.7473609 ], [ 73.7900767, 24.7458044 ], [ 73.7877475, 24.7509118 ], [ 73.7791051, 24.7544266 ], [ 73.7816689, 24.7592334 ], [ 73.7806021, 24.7677129 ], [ 73.7843098, 24.7713777 ], [ 73.7831063, 24.7740995 ], [ 73.7757548, 24.7769201 ], [ 73.7756767, 24.779335 ], [ 73.778611, 24.7796705 ], [ 73.7798231, 24.7821501 ], [ 73.7823543, 24.7812271 ], [ 73.7846434, 24.7838373 ], [ 73.7834737, 24.7881577 ], [ 73.7819696, 24.7892291 ], [ 73.7822234, 24.7936242 ], [ 73.7840755, 24.7938966 ], [ 73.7849166, 24.7999536 ], [ 73.7889378, 24.8035305 ], [ 73.7951096, 24.8036661 ], [ 73.7999015, 24.7996727 ], [ 73.8076479, 24.7980505 ], [ 73.8116446, 24.8016673 ], [ 73.8032778, 24.8132719 ], [ 73.800544, 24.8125773 ], [ 73.8031565, 24.8181697 ], [ 73.8126435, 24.8172701 ], [ 73.8217058, 24.8225521 ], [ 73.8246491, 24.8325354 ], [ 73.8216308, 24.836223 ], [ 73.8226522, 24.8396625 ], [ 73.8199683, 24.8414473 ], [ 73.817456, 24.8465249 ], [ 73.8120396, 24.8458228 ], [ 73.8099835, 24.848687 ], [ 73.8101642, 24.8556596 ], [ 73.8058059, 24.8601579 ], [ 73.7970529, 24.8631127 ], [ 73.80236, 24.865467 ], [ 73.8032498, 24.8691719 ], [ 73.8223087, 24.8889772 ], [ 73.8277878, 24.8921583 ], [ 73.8278726, 24.893667 ], [ 73.8346656, 24.8940227 ], [ 73.8372703, 24.8960296 ], [ 73.8369607, 24.9037072 ], [ 73.8392593, 24.9067185 ], [ 73.8414521, 24.9051508 ], [ 73.8469488, 24.9049722 ], [ 73.8486744, 24.9030712 ], [ 73.853012, 24.9024183 ], [ 73.8578178, 24.8971545 ], [ 73.8601217, 24.8985447 ], [ 73.8638447, 24.8984918 ], [ 73.868032, 24.8953044 ], [ 73.8714599, 24.8950369 ], [ 73.8759686, 24.8923981 ], [ 73.8722938, 24.8909707 ], [ 73.8725269, 24.8892838 ], [ 73.8763445, 24.8880619 ], [ 73.87621, 24.8897947 ], [ 73.8775522, 24.8908026 ], [ 73.8789439, 24.8868805 ], [ 73.8873555, 24.8855618 ], [ 73.8970831, 24.8753803 ], [ 73.9014702, 24.8751508 ], [ 73.9079081, 24.8797944 ], [ 73.9140383, 24.891935 ], [ 73.9291194, 24.8846753 ], [ 73.9279339, 24.8798041 ], [ 73.9290893, 24.8703622 ], [ 73.9318067, 24.8651487 ], [ 73.9330477, 24.8589448 ], [ 73.9375755, 24.8514413 ], [ 73.9375984, 24.8481905 ], [ 73.9420069, 24.846488 ], [ 73.9473345, 24.8478621 ], [ 73.9526727, 24.8456285 ], [ 73.9600377, 24.8548547 ], [ 73.9582596, 24.8639043 ], [ 73.9602654, 24.8749623 ], [ 73.958367, 24.881785 ], [ 73.9596703, 24.8922375 ], [ 73.95735, 24.8973912 ], [ 73.951908, 24.9010961 ], [ 73.9586492, 24.9000732 ], [ 73.9640197, 24.9013432 ], [ 73.9717026, 24.9067468 ], [ 73.9729569, 24.9113112 ], [ 73.9811739, 24.9084688 ], [ 73.9844375, 24.9089471 ], [ 73.9896095, 24.9121835 ], [ 73.9951808, 24.9207158 ], [ 74.0038896, 24.9116299 ], [ 74.0087511, 24.9104286 ], [ 74.0116221, 24.9081172 ], [ 74.0109431, 24.905596 ], [ 74.0135834, 24.9039781 ], [ 74.0133628, 24.9006326 ], [ 74.0169352, 24.8957017 ], [ 74.0206331, 24.895734 ], [ 74.0203668, 24.8932622 ], [ 74.0334885, 24.9030521 ], [ 74.0461081, 24.9040479 ], [ 74.0558162, 24.9076818 ], [ 74.0595549, 24.9033133 ], [ 74.0611447, 24.8984714 ], [ 74.0643614, 24.8815504 ], [ 74.0701268, 24.8776873 ], [ 74.0690215, 24.8731881 ], [ 74.0749783, 24.8740524 ], [ 74.0782348, 24.8719636 ], [ 74.0775033, 24.871178 ], [ 74.0805867, 24.8676716 ], [ 74.0996948, 24.8662496 ], [ 74.1078275, 24.8748948 ], [ 74.1165009, 24.8814541 ], [ 74.125576, 24.8852775 ], [ 74.1431662, 24.8807057 ], [ 74.1373536, 24.8712998 ], [ 74.1365547, 24.8594831 ], [ 74.1137474, 24.8647092 ], [ 74.1051923, 24.8616781 ], [ 74.1057404, 24.857726 ], [ 74.1117335, 24.8507992 ], [ 74.1176073, 24.8508205 ], [ 74.1252998, 24.8483643 ], [ 74.129236, 24.8487485 ], [ 74.1301552, 24.8432633 ], [ 74.1279361, 24.8379403 ], [ 74.1250634, 24.8369392 ], [ 74.1232154, 24.8337677 ], [ 74.1198883, 24.8249523 ], [ 74.1122374, 24.8155333 ], [ 74.1079569, 24.8080892 ], [ 74.1090531, 24.7993632 ], [ 74.1140153, 24.7902084 ], [ 74.1091028, 24.7889421 ], [ 74.1072534, 24.7826683 ], [ 74.1056375, 24.7824826 ], [ 74.1075746, 24.7633356 ], [ 74.1089307, 24.7631811 ], [ 74.1095811, 24.7607376 ], [ 74.1128491, 24.7580434 ], [ 74.1177924, 24.7554626 ], [ 74.1185305, 24.7517689 ], [ 74.1159741, 24.7503722 ], [ 74.1125979, 24.7411861 ], [ 74.1049655, 24.7344937 ], [ 74.1066622, 24.7318718 ], [ 74.1107964, 24.7296251 ], [ 74.1135072, 24.7328877 ], [ 74.1216903, 24.7306421 ], [ 74.126632, 24.7302375 ], [ 74.1284333, 24.7314084 ], [ 74.1285554, 24.7294946 ], [ 74.1334138, 24.722551 ], [ 74.1365151, 24.7201486 ], [ 74.1438712, 24.7208275 ], [ 74.1492986, 24.7245474 ], [ 74.1704361, 24.7113228 ], [ 74.1721707, 24.7054082 ], [ 74.1713782, 24.7019269 ], [ 74.1740926, 24.6987901 ], [ 74.1719772, 24.6868216 ], [ 74.1699534, 24.6834691 ], [ 74.1603637, 24.6852716 ], [ 74.1556663, 24.6849021 ], [ 74.1525356, 24.6764903 ], [ 74.1538195, 24.6707674 ], [ 74.1524337, 24.6667048 ], [ 74.1543522, 24.6665214 ], [ 74.1566839, 24.6688058 ], [ 74.1581617, 24.6680239 ], [ 74.1670284, 24.6699788 ], [ 74.1713328, 24.6691718 ], [ 74.1776038, 24.6661041 ], [ 74.180844, 24.6610058 ], [ 74.1815285, 24.6575823 ], [ 74.1832069, 24.6563001 ], [ 74.1846468, 24.6567368 ], [ 74.1841491, 24.6595744 ], [ 74.1899489, 24.6650875 ], [ 74.1913893, 24.665461 ], [ 74.1954177, 24.662963 ], [ 74.2006309, 24.6629321 ], [ 74.2047063, 24.652961 ], [ 74.2057973, 24.6437372 ], [ 74.200119, 24.6416841 ], [ 74.1989015, 24.6342723 ], [ 74.1973604, 24.6342415 ], [ 74.1962897, 24.6324883 ], [ 74.1963372, 24.614246 ], [ 74.2128192, 24.6158955 ], [ 74.2124658, 24.6226443 ], [ 74.2133917, 24.6238683 ], [ 74.211371, 24.6247157 ], [ 74.2128627, 24.630246 ], [ 74.2170513, 24.6390504 ], [ 74.2256161, 24.6489295 ], [ 74.2426132, 24.6405405 ], [ 74.241627, 24.6353202 ], [ 74.2431698, 24.6334359 ], [ 74.2429414, 24.6278988 ], [ 74.2511198, 24.6167916 ], [ 74.249217, 24.6151604 ], [ 74.2391864, 24.6125 ], [ 74.2144422, 24.6146442 ], [ 74.211686, 24.6012503 ], [ 74.2153651, 24.591796 ], [ 74.2184822, 24.5916361 ], [ 74.2295597, 24.5955766 ], [ 74.236555, 24.6000826 ], [ 74.2449579, 24.5841038 ], [ 74.2587835, 24.5790382 ], [ 74.2717236, 24.5764611 ], [ 74.2674603, 24.5745757 ], [ 74.2652352, 24.5676812 ], [ 74.2668225, 24.5585189 ], [ 74.2626077, 24.547057 ], [ 74.2680858, 24.5412446 ], [ 74.2728975, 24.539567 ], [ 74.2740665, 24.5345724 ], [ 74.2743347, 24.5295735 ], [ 74.2714658, 24.5295737 ], [ 74.2703089, 24.526386 ], [ 74.2693599, 24.5223949 ], [ 74.2715599, 24.5206498 ], [ 74.2693014, 24.5155291 ], [ 74.2589699, 24.5156931 ], [ 74.2529424, 24.5140723 ], [ 74.2507206, 24.5150893 ], [ 74.250671, 24.5059046 ], [ 74.2542327, 24.5061693 ], [ 74.250611, 24.501598 ], [ 74.246702, 24.4996677 ], [ 74.2420571, 24.5019187 ], [ 74.2424382, 24.5031417 ], [ 74.2408258, 24.5041134 ], [ 74.2391824, 24.5033925 ], [ 74.238653, 24.4961982 ], [ 74.2416024, 24.4849831 ], [ 74.2429576, 24.4836504 ], [ 74.2400967, 24.4836525 ], [ 74.2400982, 24.4853995 ], [ 74.2386441, 24.4863665 ], [ 74.2319164, 24.4809952 ], [ 74.2221778, 24.4785191 ], [ 74.2195688, 24.4788413 ], [ 74.2182745, 24.4811634 ], [ 74.2172483, 24.4758725 ], [ 74.2140647, 24.4724122 ], [ 74.2150872, 24.4677079 ], [ 74.2091416, 24.4637976 ], [ 74.2064145, 24.4640564 ], [ 74.2057437, 24.4623323 ], [ 74.2070189, 24.4607518 ], [ 74.2047976, 24.4574216 ], [ 74.204559, 24.4544469 ], [ 74.2006812, 24.4516231 ], [ 74.2019182, 24.4504353 ], [ 74.201197, 24.4482418 ], [ 74.1983954, 24.4470379 ], [ 74.2058516, 24.4398838 ], [ 74.2225999, 24.4312836 ], [ 74.2223462, 24.4282954 ], [ 74.2306196, 24.42866 ], [ 74.2404124, 24.4365003 ], [ 74.2458786, 24.4382996 ], [ 74.2445757, 24.4422053 ], [ 74.247843, 24.4505177 ], [ 74.2507836, 24.4513213 ], [ 74.250509, 24.4549368 ], [ 74.2518796, 24.4552088 ], [ 74.2530013, 24.4528308 ], [ 74.2553771, 24.4539927 ], [ 74.257067, 24.4504505 ], [ 74.2611479, 24.452968 ], [ 74.2610556, 24.456823 ], [ 74.2596287, 24.4586004 ], [ 74.2610818, 24.4660633 ], [ 74.2569834, 24.4660602 ], [ 74.2575868, 24.4642234 ], [ 74.256428, 24.4640329 ], [ 74.2556622, 24.4656167 ], [ 74.2520081, 24.4652256 ], [ 74.2524978, 24.4737802 ], [ 74.2542929, 24.4740525 ], [ 74.2544284, 24.4768016 ], [ 74.253002, 24.4778252 ], [ 74.2523625, 24.4812508 ], [ 74.2550359, 24.4812124 ], [ 74.2562954, 24.4845041 ], [ 74.2579775, 24.4844468 ], [ 74.2583303, 24.4816799 ], [ 74.2601453, 24.4818167 ], [ 74.2617105, 24.4801161 ], [ 74.2640867, 24.481296 ], [ 74.2682426, 24.4780895 ], [ 74.268334, 24.469057 ], [ 74.2641434, 24.4673114 ], [ 74.2644414, 24.4650275 ], [ 74.2671887, 24.4645284 ], [ 74.2638427, 24.4615062 ], [ 74.2685637, 24.4540523 ], [ 74.2728263, 24.4577162 ], [ 74.2751244, 24.4640645 ], [ 74.2837058, 24.4773019 ], [ 74.2871805, 24.4742421 ], [ 74.29172, 24.4637765 ], [ 74.2980871, 24.4634594 ], [ 74.300944, 24.4609871 ], [ 74.3054607, 24.4623705 ], [ 74.3083708, 24.4616722 ], [ 74.3133404, 24.4645497 ], [ 74.3157615, 24.4641211 ], [ 74.316164, 24.4699181 ], [ 74.3210997, 24.4845185 ], [ 74.3410867, 24.4834769 ], [ 74.3426776, 24.4781116 ], [ 74.3333173, 24.4705873 ], [ 74.3286932, 24.46451 ], [ 74.3298599, 24.4564978 ], [ 74.3223405, 24.4538276 ], [ 74.3197646, 24.4464688 ], [ 74.3133893, 24.4452701 ], [ 74.3091061, 24.4416299 ], [ 74.3103116, 24.4368681 ], [ 74.3137802, 24.4321839 ], [ 74.3103395, 24.4305981 ], [ 74.3075738, 24.4205304 ], [ 74.3102155, 24.4127131 ], [ 74.3094151, 24.4064381 ], [ 74.3249332, 24.406751 ], [ 74.3310152, 24.4098902 ], [ 74.3323444, 24.4149644 ], [ 74.3350844, 24.4184501 ], [ 74.3433427, 24.4161679 ], [ 74.3526571, 24.4059857 ], [ 74.3613386, 24.4010708 ], [ 74.3656528, 24.3854974 ], [ 74.3665063, 24.3717384 ], [ 74.3591533, 24.3730198 ], [ 74.353388, 24.3680084 ], [ 74.3486714, 24.3704453 ], [ 74.344018, 24.3688455 ], [ 74.3448386, 24.3655107 ], [ 74.342572, 24.364323 ], [ 74.3419532, 24.3562562 ], [ 74.3418648, 24.3547259 ], [ 74.343619, 24.3551325 ], [ 74.3425854, 24.3501035 ], [ 74.3384074, 24.3489604 ], [ 74.3357572, 24.3461972 ], [ 74.3340089, 24.3437364 ], [ 74.333867, 24.3406848 ], [ 74.3313943, 24.3388244 ], [ 74.3288142, 24.3340295 ], [ 74.3212323, 24.332611 ], [ 74.3175381, 24.3424492 ], [ 74.3138866, 24.3435085 ], [ 74.3107317, 24.3466311 ], [ 74.2989684, 24.3417368 ], [ 74.2939013, 24.3450748 ], [ 74.299397, 24.3512996 ], [ 74.2995898, 24.3575095 ], [ 74.2972607, 24.3627944 ], [ 74.2973669, 24.366487 ], [ 74.2932508, 24.3684215 ], [ 74.2780375, 24.3687872 ], [ 74.2777751, 24.3705025 ], [ 74.2806035, 24.3709692 ], [ 74.2814443, 24.3735246 ], [ 74.2806971, 24.3773008 ], [ 74.2790109, 24.3787438 ], [ 74.278979, 24.3816395 ], [ 74.2717281, 24.382804 ], [ 74.269824, 24.3849198 ], [ 74.2590252, 24.3902927 ], [ 74.2574708, 24.3868427 ], [ 74.2473667, 24.3811634 ], [ 74.2444426, 24.3743901 ], [ 74.2384794, 24.3711822 ], [ 74.2327519, 24.3734283 ], [ 74.2316008, 24.3759345 ], [ 74.2203948, 24.3773684 ], [ 74.2118569, 24.3818199 ], [ 74.2095791, 24.3807288 ], [ 74.2060954, 24.3896462 ], [ 74.2041248, 24.3911368 ], [ 74.1935505, 24.3878648 ], [ 74.184947, 24.3822529 ], [ 74.1754302, 24.3829877 ], [ 74.1676818, 24.3817441 ], [ 74.1590163, 24.3744639 ], [ 74.1523794, 24.3854584 ], [ 74.14784, 24.3845473 ], [ 74.136965, 24.3608765 ], [ 74.1391184, 24.3609575 ], [ 74.1465783, 24.3562709 ], [ 74.1386051, 24.3538117 ], [ 74.1351362, 24.3546471 ], [ 74.1326476, 24.3502459 ], [ 74.1318247, 24.3514196 ], [ 74.1245371, 24.3495871 ], [ 74.1225219, 24.34575 ], [ 74.122453, 24.3399674 ], [ 74.1148851, 24.3407707 ], [ 74.1153577, 24.3465668 ], [ 74.1128545, 24.3490539 ], [ 74.1120657, 24.3533423 ], [ 74.1137839, 24.3690517 ], [ 74.1125416, 24.3739494 ], [ 74.1068634, 24.3803408 ], [ 74.1051289, 24.3783635 ], [ 74.1018365, 24.3796812 ], [ 74.1025022, 24.3774332 ], [ 74.0954544, 24.3780729 ], [ 74.0954734, 24.3806279 ], [ 74.0916544, 24.3784469 ], [ 74.0866642, 24.3705595 ], [ 74.0865419, 24.3677156 ], [ 74.0826357, 24.3624917 ], [ 74.0843668, 24.3577704 ], [ 74.0685281, 24.3608711 ], [ 74.0527212, 24.3582055 ], [ 74.0506593, 24.3620597 ], [ 74.0494503, 24.3563668 ], [ 74.0441679, 24.348717 ], [ 74.0406287, 24.3512438 ], [ 74.0369432, 24.3504239 ], [ 74.0355126, 24.3528697 ], [ 74.0335491, 24.3492392 ], [ 74.0285728, 24.3489743 ], [ 74.0302548, 24.3464791 ], [ 74.0258851, 24.3391723 ], [ 74.0210106, 24.3473172 ], [ 74.0177323, 24.3493327 ], [ 74.017717, 24.3558737 ], [ 74.0127159, 24.3554322 ], [ 74.0058492, 24.3582302 ], [ 74.0027413, 24.3566478 ], [ 73.9946069, 24.3582701 ], [ 73.9859483, 24.3555573 ], [ 73.983507, 24.3532742 ], [ 73.9800387, 24.3549126 ], [ 73.9781281, 24.3540689 ], [ 73.9761501, 24.3548638 ], [ 73.9709811, 24.3583328 ], [ 73.9693668, 24.3610808 ], [ 73.9648497, 24.3631362 ], [ 73.9611092, 24.3527702 ], [ 73.96094, 24.346321 ], [ 73.9511019, 24.3314336 ], [ 73.9455362, 24.3328536 ], [ 73.9448543, 24.3336797 ], [ 73.9466621, 24.3361622 ], [ 73.9390295, 24.3437085 ], [ 73.9336344, 24.3517442 ], [ 73.9223314, 24.3583019 ], [ 73.9136065, 24.3595085 ], [ 73.9095127, 24.3592443 ], [ 73.8942145, 24.3511142 ], [ 73.8886134, 24.3507669 ], [ 73.8829699, 24.3524857 ], [ 73.8775002, 24.3456362 ], [ 73.8773591, 24.3398419 ], [ 73.8761676, 24.3419508 ], [ 73.8693506, 24.3431825 ], [ 73.8656611, 24.3485012 ], [ 73.8584691, 24.3491832 ], [ 73.854988, 24.3542774 ], [ 73.8590772, 24.3572161 ], [ 73.8566953, 24.360097 ], [ 73.8532036, 24.3613981 ], [ 73.8528555, 24.3661185 ], [ 73.8516553, 24.3674685 ], [ 73.8525301, 24.3694032 ], [ 73.8495603, 24.3707443 ], [ 73.8467123, 24.3689797 ], [ 73.8455618, 24.3708268 ], [ 73.8431863, 24.3713144 ], [ 73.8319047, 24.3882686 ], [ 73.8196259, 24.4028977 ], [ 73.8028091, 24.4001107 ], [ 73.7959564, 24.4093894 ], [ 73.79085, 24.4138323 ], [ 73.7871858, 24.4149092 ], [ 73.7789682, 24.4223384 ], [ 73.7688278, 24.4250331 ], [ 73.7528677, 24.4487877 ], [ 73.749445, 24.4581759 ], [ 73.7395834, 24.4585179 ], [ 73.7108986, 24.4682591 ], [ 73.7136998, 24.457806 ], [ 73.7124914, 24.4455271 ], [ 73.7156815, 24.4388511 ], [ 73.7127392, 24.436321 ], [ 73.7131884, 24.4307709 ], [ 73.7114502, 24.4267108 ], [ 73.6982312, 24.4382074 ], [ 73.6960307, 24.4369932 ], [ 73.689694, 24.4428852 ], [ 73.6983058, 24.4063919 ], [ 73.6947217, 24.4006513 ], [ 73.693364, 24.3938413 ], [ 73.6885947, 24.3920153 ], [ 73.6871718, 24.3865015 ], [ 73.6884804, 24.3850679 ], [ 73.6830553, 24.3794976 ], [ 73.6847009, 24.3780487 ], [ 73.6879328, 24.3782953 ], [ 73.6869815, 24.3761285 ], [ 73.6889146, 24.3759981 ], [ 73.6994933, 24.3656004 ], [ 73.7052238, 24.3686306 ], [ 73.7171876, 24.3666994 ], [ 73.7177663, 24.3577769 ], [ 73.7107349, 24.3503376 ], [ 73.705723, 24.3471251 ], [ 73.7027423, 24.3415618 ], [ 73.7021264, 24.337101 ], [ 73.7231816, 24.3467042 ], [ 73.7267698, 24.344504 ], [ 73.7313037, 24.3438477 ], [ 73.7277224, 24.3411361 ], [ 73.7230095, 24.3253863 ], [ 73.7265768, 24.3187251 ], [ 73.7273569, 24.3075894 ], [ 73.7319609, 24.3003601 ], [ 73.7280587, 24.2955726 ], [ 73.7278082, 24.280407 ], [ 73.724764, 24.2775483 ], [ 73.7237321, 24.2716751 ], [ 73.7249054, 24.2685196 ], [ 73.7238607, 24.266976 ], [ 73.7295105, 24.2641767 ], [ 73.7296715, 24.2591432 ], [ 73.7280802, 24.2570378 ], [ 73.7360834, 24.2571836 ], [ 73.7338887, 24.2529392 ], [ 73.7357989, 24.2509167 ], [ 73.737553, 24.2516004 ], [ 73.7382557, 24.2505759 ], [ 73.7328946, 24.2485971 ], [ 73.7065252, 24.2497329 ], [ 73.7021084, 24.2512996 ], [ 73.6987697, 24.2438806 ], [ 73.6998582, 24.2225284 ], [ 73.6862994, 24.2186282 ], [ 73.6778636, 24.2197879 ], [ 73.6741098, 24.2185722 ], [ 73.6720786, 24.2060158 ], [ 73.6670023, 24.2027792 ], [ 73.6645477, 24.1974027 ], [ 73.6622722, 24.1862076 ], [ 73.6598407, 24.18196 ], [ 73.662575, 24.1746332 ], [ 73.6641049, 24.1723394 ], [ 73.667004, 24.1718319 ], [ 73.6866954, 24.1742198 ], [ 73.6966583, 24.1643853 ], [ 73.6972047, 24.1609764 ], [ 73.7007105, 24.1607805 ], [ 73.704126, 24.1510114 ], [ 73.7053894, 24.1511305 ], [ 73.7088789, 24.1471505 ], [ 73.7130397, 24.1473617 ], [ 73.7166191, 24.1451839 ], [ 73.7239392, 24.146347 ], [ 73.7279437, 24.139481 ], [ 73.7318208, 24.1394998 ], [ 73.7336815, 24.1349231 ], [ 73.7429356, 24.1254451 ], [ 73.7500072, 24.1232365 ], [ 73.75, 24.1253215 ], [ 73.7548581, 24.1214462 ], [ 73.7541598, 24.1192493 ], [ 73.7554877, 24.1154869 ], [ 73.7496341, 24.1115062 ], [ 73.7515619, 24.0991579 ], [ 73.7557012, 24.100541 ], [ 73.7602815, 24.095478 ], [ 73.7631644, 24.0874809 ], [ 73.768359, 24.0820782 ], [ 73.7704391, 24.078082 ], [ 73.7696263, 24.0770168 ], [ 73.7719654, 24.0721625 ], [ 73.7848365, 24.0798224 ], [ 73.788616, 24.0805077 ], [ 73.7894933, 24.0843065 ], [ 73.7857941, 24.0859114 ], [ 73.7837099, 24.0939116 ], [ 73.7864724, 24.0961518 ], [ 73.7867652, 24.1074394 ], [ 73.7897565, 24.1159883 ], [ 73.7931534, 24.115867 ], [ 73.7967183, 24.1130338 ], [ 73.8045098, 24.1132767 ], [ 73.8068829, 24.1078384 ], [ 73.8183809, 24.106864 ], [ 73.8154265, 24.1016439 ], [ 73.8183805, 24.0875994 ], [ 73.8239376, 24.0837573 ], [ 73.8259102, 24.0779385 ], [ 73.8288926, 24.0740155 ], [ 73.8339981, 24.0704921 ], [ 73.8418891, 24.0609649 ], [ 73.842916, 24.0588282 ], [ 73.8418532, 24.0546132 ], [ 73.8458624, 24.0511281 ], [ 73.83995, 24.0476554 ], [ 73.8389437, 24.0494605 ], [ 73.8355425, 24.048912 ], [ 73.8342121, 24.0501697 ], [ 73.8291732, 24.0507438 ], [ 73.8270545, 24.0491131 ], [ 73.8309822, 24.0455917 ], [ 73.8307417, 24.0411324 ], [ 73.8334555, 24.0416839 ], [ 73.8371608, 24.0452334 ], [ 73.8391028, 24.0445829 ], [ 73.8370031, 24.0402849 ], [ 73.8378172, 24.037813 ], [ 73.8359922, 24.0324717 ], [ 73.8400157, 24.0296386 ], [ 73.8414936, 24.0204989 ], [ 73.8438991, 24.0187531 ], [ 73.8583996, 24.0188713 ], [ 73.8563108, 24.0218012 ], [ 73.8595683, 24.0223682 ], [ 73.8570547, 24.028328 ], [ 73.8585947, 24.0310859 ], [ 73.8630674, 24.0284481 ], [ 73.8684485, 24.0279649 ], [ 73.8737429, 24.0297315 ], [ 73.876637, 24.0226255 ], [ 73.8808449, 24.0179953 ], [ 73.883628, 24.0162607 ], [ 73.8909033, 24.0150412 ], [ 73.8914844, 24.0093368 ], [ 73.8868396, 24.003857 ], [ 73.8845409, 23.9978366 ], [ 73.8916003, 23.9839009 ], [ 73.8961078, 23.9831057 ], [ 73.8951651, 23.9815102 ], [ 73.8959632, 23.9800125 ], [ 73.8990485, 23.9778061 ], [ 73.8935646, 23.9740665 ], [ 73.890165, 23.9693457 ], [ 73.8761738, 23.9649044 ], [ 73.8763888, 23.9616412 ], [ 73.8741143, 23.9593081 ], [ 73.8670838, 23.9586377 ], [ 73.8651039, 23.9563518 ], [ 73.8606215, 23.9419455 ], [ 73.8565477, 23.9364785 ], [ 73.8375121, 23.934114 ], [ 73.830167, 23.9358102 ], [ 73.8266939, 23.939044 ], [ 73.8198559, 23.941132 ], [ 73.8102376, 23.9356301 ], [ 73.8054446, 23.9445111 ], [ 73.7928338, 23.9449272 ], [ 73.7870561, 23.9480787 ], [ 73.7851931, 23.9471247 ], [ 73.7789071, 23.9379491 ], [ 73.7737565, 23.93556 ], [ 73.7673497, 23.9366647 ], [ 73.7521202, 23.9484264 ], [ 73.746023, 23.9458843 ], [ 73.7390933, 23.9395511 ], [ 73.7354174, 23.9396608 ], [ 73.7316771, 23.9418516 ], [ 73.7291647, 23.9460527 ], [ 73.7154725, 23.9475102 ], [ 73.7110666, 23.9498619 ], [ 73.7058366, 23.9501114 ], [ 73.7043592, 23.9509523 ], [ 73.7034649, 23.9543945 ], [ 73.6995688, 23.9563484 ], [ 73.6934722, 23.9572313 ], [ 73.6753494, 23.9420624 ], [ 73.67101, 23.9397943 ], [ 73.6691982, 23.9401895 ], [ 73.6663257, 23.9476917 ], [ 73.6636695, 23.9499037 ], [ 73.6514692, 23.9462253 ], [ 73.6510077, 23.9428935 ], [ 73.6362057, 23.9461402 ], [ 73.6336717, 23.9497661 ], [ 73.6309815, 23.9500266 ], [ 73.6238985, 23.9549753 ], [ 73.6225708, 23.9546202 ], [ 73.6197238, 23.9571413 ], [ 73.6149404, 23.9587823 ], [ 73.612657, 23.9604866 ], [ 73.6137782, 23.961314 ], [ 73.6104047, 23.9629632 ], [ 73.6029175, 23.9633287 ], [ 73.6011595, 23.9623193 ], [ 73.5871665, 23.9649815 ], [ 73.5876057, 23.9625474 ], [ 73.5765009, 23.9576676 ], [ 73.5727418, 23.962166 ], [ 73.5636329, 23.9510278 ], [ 73.5508697, 23.941733 ], [ 73.5459375, 23.9351574 ], [ 73.5240848, 23.9289032 ], [ 73.5148487, 23.9298888 ], [ 73.5098159, 23.9198525 ], [ 73.5028161, 23.9141563 ], [ 73.5009275, 23.9103339 ], [ 73.4977465, 23.9084763 ], [ 73.4992763, 23.9050465 ], [ 73.4872076, 23.8845782 ], [ 73.4871476, 23.8819085 ], [ 73.4820282, 23.8696595 ], [ 73.4714696, 23.8695795 ], [ 73.4688198, 23.8613502 ], [ 73.4696696, 23.8476713 ], [ 73.4686597, 23.8448515 ], [ 73.4629504, 23.839752 ], [ 73.4473723, 23.8367522 ], [ 73.4346739, 23.8380422 ], [ 73.4308444, 23.8371323 ], [ 73.4268649, 23.8320328 ], [ 73.4236752, 23.8305228 ], [ 73.4225054, 23.8275831 ], [ 73.4150463, 23.8261832 ], [ 73.4144864, 23.8176639 ], [ 73.4112067, 23.8078947 ], [ 73.4059173, 23.8065948 ], [ 73.4018678, 23.8028051 ], [ 73.400638, 23.8056949 ], [ 73.3944088, 23.8088048 ], [ 73.3893694, 23.8091347 ], [ 73.3816704, 23.8122745 ], [ 73.3791707, 23.8073149 ], [ 73.3743913, 23.8137145 ], [ 73.3679121, 23.8142344 ], [ 73.3681121, 23.8226037 ], [ 73.3663823, 23.8221838 ], [ 73.3650825, 23.8237637 ], [ 73.3664923, 23.8293032 ], [ 73.3685521, 23.831883 ], [ 73.3668624, 23.8366426 ], [ 73.3677122, 23.8394624 ], [ 73.3578335, 23.8466118 ], [ 73.353844, 23.8528514 ], [ 73.3560738, 23.8545713 ], [ 73.3557238, 23.8592309 ], [ 73.3581336, 23.8619407 ], [ 73.3611233, 23.8726998 ], [ 73.3652028, 23.8754795 ], [ 73.3660527, 23.8783293 ], [ 73.3680224, 23.8783293 ], [ 73.3710121, 23.8911382 ], [ 73.3745317, 23.893258 ], [ 73.3759615, 23.8958679 ], [ 73.3777113, 23.8961478 ], [ 73.3786312, 23.9045272 ], [ 73.3838206, 23.9088568 ], [ 73.3874602, 23.9159062 ], [ 73.3951593, 23.9190159 ], [ 73.4003886, 23.916826 ], [ 73.4065179, 23.9165061 ], [ 73.4089876, 23.9215757 ], [ 73.4145469, 23.9215856 ], [ 73.4200549, 23.9248747 ], [ 73.4208262, 23.9308248 ], [ 73.4169167, 23.9346546 ], [ 73.4162968, 23.9378743 ], [ 73.4132372, 23.9391642 ], [ 73.414637, 23.9404641 ], [ 73.414907, 23.9445838 ], [ 73.4130272, 23.9459637 ], [ 73.4142071, 23.955003 ], [ 73.4132272, 23.9588327 ], [ 73.4143772, 23.967172 ], [ 73.4157869, 23.9678119 ], [ 73.416037, 23.9701617 ], [ 73.4145072, 23.979531 ], [ 73.4149572, 23.9857805 ], [ 73.4045785, 23.9908002 ], [ 73.3978793, 23.9895103 ], [ 73.4037487, 23.9933 ], [ 73.4079948, 24.0080926 ], [ 73.4066558, 24.0185166 ], [ 73.4008888, 24.0322052 ], [ 73.4042677, 24.0413281 ], [ 73.3862498, 24.0647285 ], [ 73.3703006, 24.0763714 ], [ 73.3673702, 24.0758342 ], [ 73.3653197, 24.0790573 ], [ 73.3608695, 24.0812825 ], [ 73.3620492, 24.0862755 ], [ 73.3607116, 24.0874897 ], [ 73.3608828, 24.0963062 ], [ 73.3628397, 24.1006265 ], [ 73.3619934, 24.1046623 ], [ 73.3477802, 24.106376 ], [ 73.3440833, 24.1001726 ], [ 73.3390332, 24.0984065 ], [ 73.3357527, 24.0997871 ], [ 73.3348863, 24.1028837 ], [ 73.3334009, 24.103249 ], [ 73.3330108, 24.1086929 ], [ 73.3270055, 24.1092241 ], [ 73.3237196, 24.0982172 ], [ 73.3221219, 24.0968172 ], [ 73.3259502, 24.07696 ], [ 73.3239747, 24.0741288 ], [ 73.3240551, 24.0696371 ], [ 73.3163218, 24.0575992 ], [ 73.3160083, 24.0549221 ], [ 73.3173855, 24.0532072 ], [ 73.3080678, 24.0473348 ], [ 73.3073165, 24.0456596 ], [ 73.3003705, 24.0460989 ], [ 73.2973635, 24.0435287 ], [ 73.295955, 24.0396095 ], [ 73.2906308, 24.0332641 ], [ 73.2898486, 24.0266637 ], [ 73.2867289, 24.0246666 ], [ 73.2861412, 24.0217681 ], [ 73.2831058, 24.0188726 ], [ 73.2793844, 24.0203105 ], [ 73.275483, 24.0190982 ], [ 73.2704734, 24.0210315 ], [ 73.2653283, 24.0203192 ], [ 73.2609957, 24.0177113 ], [ 73.2584354, 24.0119672 ], [ 73.2523734, 24.009484 ], [ 73.2493301, 24.0031891 ], [ 73.2427915, 24.0022819 ], [ 73.2398785, 24.0034308 ], [ 73.2374103, 24.0074369 ], [ 73.2379184, 24.0096892 ], [ 73.2366332, 24.01234 ], [ 73.2335274, 24.0125454 ], [ 73.2297459, 24.0156676 ], [ 73.2293728, 24.0221053 ], [ 73.2159202, 24.0279601 ], [ 73.2107404, 24.0288479 ], [ 73.2105654, 24.0318095 ], [ 73.2089104, 24.0338915 ], [ 73.1995531, 24.0362348 ], [ 73.1931412, 24.0409961 ], [ 73.2023835, 24.0509863 ], [ 73.2053053, 24.0613903 ], [ 73.2132257, 24.0780405 ], [ 73.2032881, 24.0831701 ], [ 73.1983208, 24.084267 ], [ 73.1965699, 24.086843 ], [ 73.1831802, 24.0896558 ], [ 73.1751421, 24.0942181 ], [ 73.1718769, 24.094147 ], [ 73.1589203, 24.0983262 ], [ 73.1558874, 24.1038073 ], [ 73.1568027, 24.1059559 ], [ 73.1549936, 24.1086919 ], [ 73.1571922, 24.1095312 ], [ 73.1535339, 24.1127822 ], [ 73.1381211, 24.1222103 ], [ 73.1300103, 24.1222786 ], [ 73.1252195, 24.1248609 ], [ 73.1221601, 24.1306527 ], [ 73.1104223, 24.1423126 ], [ 73.1063688, 24.1420052 ], [ 73.1034268, 24.1437519 ], [ 73.1038636, 24.1498778 ], [ 73.1008963, 24.1539448 ], [ 73.0991585, 24.1594655 ], [ 73.0766471, 24.1791199 ], [ 73.0674433, 24.194691 ], [ 73.0714141, 24.1967284 ], [ 73.076801, 24.2022691 ], [ 73.0770263, 24.2051763 ], [ 73.0792707, 24.2051047 ], [ 73.0784536, 24.219374 ], [ 73.0922254, 24.223341 ], [ 73.0971217, 24.2310839 ], [ 73.0901355, 24.2338272 ], [ 73.0880436, 24.2326349 ], [ 73.0879104, 24.2338221 ], [ 73.0878706, 24.2349191 ], [ 73.0933787, 24.2379809 ], [ 73.093997, 24.2463731 ], [ 73.0953552, 24.2493481 ], [ 73.1036011, 24.2554889 ], [ 73.1071452, 24.2639355 ], [ 73.1183422, 24.2686807 ], [ 73.1202922, 24.2720439 ], [ 73.1239509, 24.2712449 ], [ 73.125448, 24.2734297 ], [ 73.1309889, 24.2886695 ], [ 73.135438, 24.3084324 ], [ 73.1408665, 24.3110863 ], [ 73.1665165, 24.2992494 ], [ 73.1692209, 24.3003049 ], [ 73.173593, 24.3085871 ], [ 73.1737154, 24.3190555 ], [ 73.1762251, 24.3247335 ], [ 73.1745621, 24.3300744 ], [ 73.1749229, 24.3327286 ], [ 73.1765591, 24.3342763 ], [ 73.1763488, 24.3378787 ], [ 73.1816625, 24.3433209 ], [ 73.1862084, 24.3397394 ], [ 73.1865906, 24.3354598 ], [ 73.1885013, 24.3336262 ], [ 73.1985657, 24.3319333 ], [ 73.2021464, 24.3384048 ], [ 73.2062589, 24.3512634 ], [ 73.2090336, 24.3521647 ], [ 73.2192034, 24.364523 ], [ 73.2157864, 24.3687233 ], [ 73.2066782, 24.3746556 ], [ 73.1991882, 24.3765104 ], [ 73.1968667, 24.3760826 ], [ 73.1933358, 24.3721524 ], [ 73.1877169, 24.3708233 ], [ 73.181466, 24.3662529 ], [ 73.1781325, 24.3613111 ], [ 73.1713743, 24.3554179 ], [ 73.1648158, 24.3560022 ], [ 73.1585572, 24.3541033 ], [ 73.1553352, 24.3561354 ], [ 73.1525702, 24.3538428 ], [ 73.1508164, 24.3555178 ], [ 73.145889, 24.3567284 ], [ 73.1334722, 24.3666473 ], [ 73.1309981, 24.3656047 ], [ 73.1242961, 24.3672887 ], [ 73.1209154, 24.370092 ], [ 73.1118621, 24.3734139 ], [ 73.1076035, 24.3775305 ], [ 73.1053407, 24.3825906 ], [ 73.1022653, 24.3817189 ], [ 73.1026883, 24.3874339 ], [ 73.0991577, 24.3907843 ], [ 73.095359, 24.3878706 ], [ 73.0874978, 24.3866275 ], [ 73.0818573, 24.3929278 ], [ 73.0765029, 24.3966007 ], [ 73.0811151, 24.4012832 ], [ 73.0867214, 24.4125295 ], [ 73.0901916, 24.4140921 ], [ 73.0923499, 24.4180199 ], [ 73.1002512, 24.4260971 ], [ 73.1028287, 24.4330085 ], [ 73.1001058, 24.4392422 ], [ 73.098393, 24.4480128 ], [ 73.1000587, 24.4542697 ], [ 73.1032787, 24.4557597 ], [ 73.1018213, 24.4708096 ], [ 73.0938064, 24.4715395 ], [ 73.0911274, 24.4751006 ], [ 73.0958887, 24.4901198 ], [ 73.0878806, 24.4976522 ], [ 73.0817785, 24.4971721 ], [ 73.0804426, 24.4942376 ], [ 73.0778624, 24.4947741 ], [ 73.0723486, 24.4916485 ], [ 73.0730559, 24.486778 ], [ 73.0701309, 24.4868719 ], [ 73.0683803, 24.4855035 ], [ 73.0680311, 24.4832598 ], [ 73.060864, 24.4836091 ], [ 73.0610775, 24.4807518 ], [ 73.0573008, 24.4776941 ], [ 73.0485726, 24.4742638 ], [ 73.0491627, 24.468766 ], [ 73.0434564, 24.4687811 ], [ 73.0370709, 24.4667688 ], [ 73.0372106, 24.4644351 ], [ 73.0352284, 24.4638472 ], [ 73.032346, 24.4668834 ], [ 73.0289442, 24.4652652 ], [ 73.0206632, 24.4658512 ], [ 73.0201021, 24.4644469 ], [ 73.0110157, 24.4666027 ], [ 73.0038154, 24.466376 ], [ 73.0014501, 24.4692767 ], [ 73.0060728, 24.4732075 ], [ 73.0066576, 24.475438 ], [ 73.0042499, 24.4814715 ], [ 73.0009826, 24.4835452 ], [ 73.0027506, 24.4865124 ], [ 73.0113269, 24.4883382 ], [ 73.0156584, 24.4934423 ], [ 73.0132069, 24.4988304 ], [ 73.0218977, 24.5128784 ], [ 73.0217891, 24.5190444 ], [ 73.0381672, 24.5299652 ], [ 73.049282, 24.5420551 ], [ 73.0480913, 24.5523736 ], [ 73.050607, 24.5545597 ], [ 73.0556957, 24.5539256 ], [ 73.0617843, 24.566897 ], [ 73.0713632, 24.5823793 ], [ 73.0707155, 24.5843923 ], [ 73.0743264, 24.590984 ], [ 73.0782613, 24.5902314 ], [ 73.078463, 24.5923125 ], [ 73.0878536, 24.6064574 ], [ 73.0887656, 24.6112695 ], [ 73.0879736, 24.6182118 ], [ 73.0903222, 24.6245771 ], [ 73.0873232, 24.6299615 ], [ 73.0877475, 24.6313971 ], [ 73.0895297, 24.6332618 ], [ 73.0957714, 24.6355608 ], [ 73.1043434, 24.6432223 ], [ 73.1081647, 24.652323 ], [ 73.1086531, 24.6571665 ], [ 73.1139431, 24.6570677 ], [ 73.1236884, 24.6680189 ], [ 73.1345806, 24.6682758 ], [ 73.1388888, 24.674717 ], [ 73.1382567, 24.6771139 ], [ 73.1420659, 24.679402 ], [ 73.1384874, 24.6832433 ], [ 73.1456335, 24.6895889 ], [ 73.149441, 24.7189504 ], [ 73.146974, 24.7210108 ], [ 73.1463471, 24.7248839 ], [ 73.1479141, 24.7270909 ], [ 73.1500907, 24.7372966 ], [ 73.1463009, 24.7432195 ], [ 73.1462424, 24.7483653 ], [ 73.1560433, 24.7509518 ], [ 73.1604131, 24.7533168 ], [ 73.1618426, 24.7562821 ], [ 73.1703527, 24.7625391 ], [ 73.182875, 24.7666415 ], [ 73.1927905, 24.7746478 ], [ 73.1934262, 24.7764973 ], [ 73.1991072, 24.7785656 ], [ 73.2020932, 24.7775722 ], [ 73.2050582, 24.7821536 ], [ 73.2096239, 24.7854721 ], [ 73.2172206, 24.7843349 ], [ 73.2209035, 24.786821 ], [ 73.2329822, 24.7844948 ], [ 73.239973, 24.7957906 ], [ 73.2404862, 24.7997195 ], [ 73.2391907, 24.8014604 ], [ 73.2405769, 24.8073091 ], [ 73.2405486, 24.8236685 ], [ 73.2582951, 24.8378932 ], [ 73.2601187, 24.842975 ], [ 73.2694957, 24.8524285 ], [ 73.2736659, 24.8635141 ], [ 73.2720277, 24.87386 ], [ 73.2787766, 24.8746332 ], [ 73.2809312, 24.8726943 ], [ 73.2829514, 24.8783333 ], [ 73.279378, 24.8819397 ], [ 73.2802954, 24.8864511 ], [ 73.2842146, 24.8868347 ], [ 73.290211, 24.8934313 ], [ 73.2973345, 24.8972822 ], [ 73.2983864, 24.9010636 ], [ 73.3082839, 24.8924681 ], [ 73.3156165, 24.8962709 ], [ 73.3156379, 24.8990745 ], [ 73.3209471, 24.9057795 ], [ 73.3308871, 24.9060852 ], [ 73.3361726, 24.9179538 ], [ 73.3369031, 24.9321371 ], [ 73.3425942, 24.9360106 ], [ 73.3436627, 24.9416383 ], [ 73.3467454, 24.9477128 ], [ 73.3469074, 24.9489335 ], [ 73.3446732, 24.949008 ], [ 73.3451327, 24.9527916 ], [ 73.3470334, 24.9561849 ], [ 73.3503982, 24.9585923 ], [ 73.3473265, 24.9616731 ], [ 73.3455951, 24.9611709 ], [ 73.3439937, 24.9627918 ], [ 73.3368652, 24.9651817 ], [ 73.3355785, 24.9684266 ], [ 73.3301081, 24.9734214 ], [ 73.3385214, 24.9838218 ], [ 73.3388572, 24.9861007 ], [ 73.342216, 24.9860524 ], [ 73.3459563, 24.9889561 ], [ 73.3463262, 24.9938899 ], [ 73.3444201, 24.9941892 ], [ 73.3435911, 24.9983873 ], [ 73.3442033, 25.0022313 ], [ 73.3459441, 25.002815 ], [ 73.3449883, 25.0083434 ], [ 73.3434851, 25.0103491 ], [ 73.3462119, 25.0113049 ], [ 73.3521279, 25.0104993 ], [ 73.3546843, 25.0123469 ], [ 73.3542013, 25.0166166 ], [ 73.3508393, 25.0186921 ], [ 73.3560867, 25.0249619 ], [ 73.3718923, 25.0328193 ], [ 73.3724789, 25.0371776 ], [ 73.3743232, 25.0374822 ], [ 73.3766909, 25.042063 ], [ 73.3812543, 25.0451149 ], [ 73.3843735, 25.0536404 ], [ 73.386336, 25.0532599 ], [ 73.3872235, 25.0547458 ], [ 73.3887312, 25.0576919 ], [ 73.3894519, 25.0658708 ], [ 73.3924149, 25.067835 ], [ 73.3988494, 25.0772809 ], [ 73.4054993, 25.0789686 ], [ 73.4097314, 25.0825037 ], [ 73.4097044, 25.0876588 ], [ 73.4130627, 25.0867151 ], [ 73.4204055, 25.0885586 ], [ 73.4347824, 25.0896591 ], [ 73.4416107, 25.088327 ], [ 73.4485682, 25.0904946 ], [ 73.4544207, 25.0894812 ], [ 73.4603788, 25.0931006 ], [ 73.4634861, 25.0935797 ], [ 73.4665176, 25.0969653 ], [ 73.4708335, 25.0979399 ], [ 73.4711531, 25.1013425 ], [ 73.4734145, 25.1032935 ], [ 73.4776588, 25.1024704 ], [ 73.4874704, 25.1044939 ] ] ] } }
]
}
