{
"type": "FeatureCollection",
"name": "0827",
"crs": { "type": "name", "properties": { "name": "urn:ogc:def:crs:OGC:1.3:CRS84" } },
"features": [
{ "type": "Feature", "properties": { "code": "0827", "name": "Dungarpur", "type": "district" }, "geometry": { "type": "Polygon", "coordinates": [ [ [ 74.1604663, 23.9940122 ], [ 74.1629814, 23.9747578 ], [ 74.1654319, 23.9711185 ], [ 74.1737918, 23.9665657 ], [ 74.1871155, 23.9635471 ], [ 74.1985754, 23.9544118 ], [ 74.2061398, 23.9384164 ], [ 74.2111086, 23.9308869 ], [ 74.2138595, 23.9195842 ], [ 74.2181802, 23.9134465 ], [ 74.2193164, 23.9074778 ], [ 74.2328402, 23.9131501 ], [ 74.2408009, 23.9219189 ], [ 74.2499997, 23.9279874 ], [ 74.2675543, 23.9342733 ], [ 74.268975, 23.9358788 ], [ 74.2702638, 23.946967 ], [ 74.2751562, 23.9560266 ], [ 74.2836633, 23.957611 ], [ 74.2919413, 23.9534991 ], [ 74.2948302, 23.9535983 ], [ 74.2979303, 23.9564214 ], [ 74.3003807, 23.9625703 ], [ 74.3045573, 23.9582561 ], [ 74.3090339, 23.9474124 ], [ 74.3136163, 23.9455541 ], [ 74.3173319, 23.9414209 ], [ 74.3324927, 23.9393892 ], [ 74.337986, 23.9348765 ], [ 74.3487231, 23.934221 ], [ 74.3530441, 23.9357255 ], [ 74.3563699, 23.9331763 ], [ 74.3636763, 23.9360653 ], [ 74.3650301, 23.9325123 ], [ 74.372378, 23.9248292 ], [ 74.3808478, 23.9052414 ], [ 74.3741841, 23.8996914 ], [ 74.3642203, 23.9022202 ], [ 74.3570145, 23.9012238 ], [ 74.355263, 23.8988094 ], [ 74.3582948, 23.8876133 ], [ 74.3567885, 23.8853174 ], [ 74.3371618, 23.8787807 ], [ 74.3149232, 23.8572741 ], [ 74.3003876, 23.8563777 ], [ 74.2966321, 23.8548779 ], [ 74.2930487, 23.8512411 ], [ 74.2884328, 23.8429211 ], [ 74.2853496, 23.840793 ], [ 74.2813494, 23.8402407 ], [ 74.2632258, 23.8326238 ], [ 74.2471182, 23.8209325 ], [ 74.236966, 23.8160189 ], [ 74.2298279, 23.8136848 ], [ 74.2229024, 23.8136185 ], [ 74.2161597, 23.8117012 ], [ 74.1955783, 23.7982009 ], [ 74.1795457, 23.7963778 ], [ 74.1631, 23.7909472 ], [ 74.152527, 23.7889837 ], [ 74.1404465, 23.7767465 ], [ 74.1356904, 23.7665366 ], [ 74.1322601, 23.7540353 ], [ 74.1307556, 23.7397204 ], [ 74.1264879, 23.7323173 ], [ 74.1199886, 23.7264187 ], [ 74.118583, 23.7224457 ], [ 74.1188024, 23.7182607 ], [ 74.1222092, 23.7119848 ], [ 74.1323519, 23.6993838 ], [ 74.1337113, 23.6918091 ], [ 74.1326638, 23.687075 ], [ 74.1263958, 23.6769104 ], [ 74.1280313, 23.6683754 ], [ 74.1270775, 23.6569491 ], [ 74.1284642, 23.6452199 ], [ 74.1241483, 23.6366829 ], [ 74.1165602, 23.6103793 ], [ 74.1127192, 23.6065504 ], [ 74.1078401, 23.605538 ], [ 74.0827982, 23.6061778 ], [ 74.078162, 23.6055091 ], [ 74.07258, 23.6027437 ], [ 74.0694929, 23.5999389 ], [ 74.0659964, 23.5933697 ], [ 74.0647765, 23.5808938 ], [ 74.0608776, 23.5676294 ], [ 74.0524423, 23.5606372 ], [ 74.0395156, 23.5550303 ], [ 74.0318089, 23.5491659 ], [ 74.0299028, 23.5445613 ], [ 74.0281896, 23.526401 ], [ 74.0199877, 23.5076489 ], [ 74.0193215, 23.4940559 ], [ 74.0169781, 23.4801627 ], [ 74.0106003, 23.4690747 ], [ 74.0141191, 23.4513842 ], [ 74.0110842, 23.4408719 ], [ 74.0043079, 23.4293318 ], [ 73.9979014, 23.4216629 ], [ 73.9859833, 23.4155229 ], [ 73.9802066, 23.4105156 ], [ 73.9776662, 23.3961063 ], [ 73.9690636, 23.391254 ], [ 73.9535884, 23.3759668 ], [ 73.9380077, 23.3679377 ], [ 73.9369675, 23.3605791 ], [ 73.9394095, 23.3444107 ], [ 73.935657, 23.3397305 ], [ 73.9286789, 23.33725 ], [ 73.9102311, 23.3349393 ], [ 73.9009419, 23.3359706 ], [ 73.893862, 23.3338407 ], [ 73.8899656, 23.3355703 ], [ 73.8928324, 23.3478275 ], [ 73.8907838, 23.3488887 ], [ 73.8883741, 23.3561893 ], [ 73.8863742, 23.3579593 ], [ 73.8803448, 23.3584969 ], [ 73.8759048, 23.3615987 ], [ 73.8742865, 23.3639397 ], [ 73.8740759, 23.3707275 ], [ 73.8724571, 23.3724657 ], [ 73.8737678, 23.3755764 ], [ 73.8724767, 23.3758653 ], [ 73.873758, 23.3768586 ], [ 73.8729657, 23.3794546 ], [ 73.8719093, 23.3772558 ], [ 73.867757, 23.3780458 ], [ 73.8670479, 23.3785379 ], [ 73.8692095, 23.381906 ], [ 73.8663581, 23.3812557 ], [ 73.8658494, 23.3842173 ], [ 73.8617801, 23.3836257 ], [ 73.8608408, 23.3856663 ], [ 73.8633792, 23.3872466 ], [ 73.8636089, 23.3894859 ], [ 73.8618717, 23.3895878 ], [ 73.8609079, 23.3916574 ], [ 73.8592701, 23.3921358 ], [ 73.8581691, 23.396235 ], [ 73.8500386, 23.4019768 ], [ 73.8493188, 23.4054755 ], [ 73.8455616, 23.4075246 ], [ 73.8456098, 23.4103561 ], [ 73.8408737, 23.4133522 ], [ 73.8406432, 23.4161919 ], [ 73.8391117, 23.4171352 ], [ 73.8396298, 23.4188238 ], [ 73.8350943, 23.4204435 ], [ 73.8341344, 23.4236216 ], [ 73.8302343, 23.4262346 ], [ 73.830854, 23.4311648 ], [ 73.8324345, 23.4310524 ], [ 73.8314604, 23.4323117 ], [ 73.8331326, 23.4358246 ], [ 73.8318003, 23.4404518 ], [ 73.8286823, 23.4438325 ], [ 73.8287055, 23.4476926 ], [ 73.8245627, 23.4426123 ], [ 73.8186046, 23.4384613 ], [ 73.8034368, 23.4377735 ], [ 73.7944671, 23.4311235 ], [ 73.7862774, 23.4302253 ], [ 73.7789767, 23.4313045 ], [ 73.7765697, 23.4377907 ], [ 73.7722883, 23.4378241 ], [ 73.7705581, 23.4480713 ], [ 73.7672314, 23.453121 ], [ 73.7557307, 23.4543227 ], [ 73.7550123, 23.4532116 ], [ 73.7564536, 23.4501833 ], [ 73.7498808, 23.4407425 ], [ 73.7365841, 23.4298126 ], [ 73.7349952, 23.4254931 ], [ 73.7287457, 23.4232131 ], [ 73.7208056, 23.4101346 ], [ 73.713705, 23.4138138 ], [ 73.7131382, 23.4147938 ], [ 73.7145093, 23.4167344 ], [ 73.7120794, 23.4190156 ], [ 73.7112154, 23.421865 ], [ 73.7080796, 23.4223227 ], [ 73.7104495, 23.4253643 ], [ 73.7079874, 23.4311625 ], [ 73.7116489, 23.4339234 ], [ 73.7116353, 23.4355036 ], [ 73.7051099, 23.4382024 ], [ 73.7068565, 23.4456417 ], [ 73.7042665, 23.45144 ], [ 73.6973992, 23.4566713 ], [ 73.6953868, 23.4559097 ], [ 73.6921198, 23.45843 ], [ 73.6852321, 23.4535931 ], [ 73.6739136, 23.4541119 ], [ 73.6605232, 23.4480343 ], [ 73.647456, 23.4364522 ], [ 73.6461944, 23.441423 ], [ 73.6360176, 23.449063 ], [ 73.6272095, 23.4485713 ], [ 73.6268964, 23.4502418 ], [ 73.6297592, 23.4541018 ], [ 73.6306695, 23.4579212 ], [ 73.6343158, 23.4623815 ], [ 73.6334354, 23.4699527 ], [ 73.640328, 23.4827196 ], [ 73.6391684, 23.4870809 ], [ 73.6407164, 23.4964081 ], [ 73.6453278, 23.4976896 ], [ 73.6497304, 23.496667 ], [ 73.6541249, 23.5020479 ], [ 73.6563648, 23.5074575 ], [ 73.6553249, 23.5123972 ], [ 73.6505155, 23.5185467 ], [ 73.6330678, 23.5286858 ], [ 73.6351375, 23.5383551 ], [ 73.6331078, 23.5550938 ], [ 73.6366174, 23.5646031 ], [ 73.6405769, 23.5680228 ], [ 73.6471862, 23.5660629 ], [ 73.6496758, 23.5681027 ], [ 73.6450664, 23.5703526 ], [ 73.6441566, 23.5722624 ], [ 73.6476061, 23.5746222 ], [ 73.6462763, 23.5854114 ], [ 73.6438966, 23.5877712 ], [ 73.6433568, 23.5943706 ], [ 73.6450266, 23.5967804 ], [ 73.6448466, 23.6041099 ], [ 73.6489762, 23.6083695 ], [ 73.6556554, 23.6212885 ], [ 73.6406673, 23.628208 ], [ 73.626779, 23.641867 ], [ 73.6207199, 23.6457367 ], [ 73.61943, 23.6488165 ], [ 73.6154805, 23.6521162 ], [ 73.5981827, 23.6538862 ], [ 73.5790151, 23.6526064 ], [ 73.5726559, 23.6537663 ], [ 73.5685463, 23.6528964 ], [ 73.5464689, 23.6259886 ], [ 73.5330106, 23.6195492 ], [ 73.5311808, 23.6141796 ], [ 73.5248716, 23.6118398 ], [ 73.5230817, 23.6069003 ], [ 73.5063939, 23.6190293 ], [ 73.5034642, 23.6183194 ], [ 73.5027043, 23.6227991 ], [ 73.5037942, 23.6244289 ], [ 73.4967151, 23.6288386 ], [ 73.4937655, 23.6323383 ], [ 73.4971152, 23.6352481 ], [ 73.505734, 23.6388378 ], [ 73.5087737, 23.6443873 ], [ 73.5058241, 23.6470071 ], [ 73.5018846, 23.6478371 ], [ 73.4994349, 23.6468171 ], [ 73.4995149, 23.648727 ], [ 73.4966053, 23.649157 ], [ 73.5038844, 23.6567163 ], [ 73.508414, 23.6954932 ], [ 73.5051845, 23.698813 ], [ 73.5073942, 23.7030427 ], [ 73.4983453, 23.7042525 ], [ 73.4906563, 23.7069024 ], [ 73.4814075, 23.7042027 ], [ 73.4735184, 23.7052326 ], [ 73.4714188, 23.7197315 ], [ 73.4603701, 23.7273109 ], [ 73.4567406, 23.7335204 ], [ 73.4526011, 23.7342504 ], [ 73.4501115, 23.7333604 ], [ 73.4492116, 23.7348104 ], [ 73.4466819, 23.7443996 ], [ 73.4486816, 23.7510869 ], [ 73.4477318, 23.7528689 ], [ 73.4452522, 23.7548188 ], [ 73.4394529, 23.7549688 ], [ 73.4365833, 23.7569587 ], [ 73.4318938, 23.7565188 ], [ 73.4306341, 23.7580386 ], [ 73.4311539, 23.7612483 ], [ 73.4270245, 23.7600885 ], [ 73.4243348, 23.7616384 ], [ 73.4192754, 23.7695077 ], [ 73.4164059, 23.7703177 ], [ 73.4186256, 23.7752773 ], [ 73.4180157, 23.7768071 ], [ 73.4107765, 23.7801569 ], [ 73.4085768, 23.7791671 ], [ 73.4002479, 23.7850566 ], [ 73.399188, 23.7831168 ], [ 73.3944587, 23.7829268 ], [ 73.3862397, 23.7766573 ], [ 73.38282, 23.768238 ], [ 73.3707715, 23.7652583 ], [ 73.3715214, 23.7704879 ], [ 73.3672419, 23.7743676 ], [ 73.3665621, 23.7770374 ], [ 73.3637724, 23.7781473 ], [ 73.3633325, 23.782227 ], [ 73.3560634, 23.7850168 ], [ 73.351844, 23.7913963 ], [ 73.3587232, 23.7956759 ], [ 73.3679121, 23.8142344 ], [ 73.3743913, 23.8137145 ], [ 73.3791707, 23.8073149 ], [ 73.3816704, 23.8122745 ], [ 73.3893694, 23.8091347 ], [ 73.3944088, 23.8088048 ], [ 73.400638, 23.8056949 ], [ 73.4018678, 23.8028051 ], [ 73.4059173, 23.8065948 ], [ 73.4112067, 23.8078947 ], [ 73.4144864, 23.8176639 ], [ 73.4150463, 23.8261832 ], [ 73.4225054, 23.8275831 ], [ 73.4236752, 23.8305228 ], [ 73.4268649, 23.8320328 ], [ 73.4308444, 23.8371323 ], [ 73.4346739, 23.8380422 ], [ 73.4473723, 23.8367522 ], [ 73.4638104, 23.8401719 ], [ 73.4695296, 23.8467514 ], [ 73.4688198, 23.8613502 ], [ 73.4714696, 23.8695795 ], [ 73.4820282, 23.8696595 ], [ 73.4871476, 23.8819085 ], [ 73.4872076, 23.8845782 ], [ 73.4992763, 23.9050465 ], [ 73.4977465, 23.9084763 ], [ 73.5009275, 23.9103339 ], [ 73.5028161, 23.9141563 ], [ 73.5098159, 23.9198525 ], [ 73.5148487, 23.9298888 ], [ 73.5240848, 23.9289032 ], [ 73.5459375, 23.9351574 ], [ 73.5508697, 23.941733 ], [ 73.5636329, 23.9510278 ], [ 73.5727418, 23.962166 ], [ 73.5765009, 23.9576676 ], [ 73.5876057, 23.9625474 ], [ 73.5871665, 23.9649815 ], [ 73.6011595, 23.9623193 ], [ 73.6029175, 23.9633287 ], [ 73.6104047, 23.9629632 ], [ 73.6137782, 23.961314 ], [ 73.612657, 23.9604866 ], [ 73.6149404, 23.9587823 ], [ 73.6197238, 23.9571413 ], [ 73.6225708, 23.9546202 ], [ 73.6238985, 23.9549753 ], [ 73.6309815, 23.9500266 ], [ 73.6336717, 23.9497661 ], [ 73.6362057, 23.9461402 ], [ 73.6510077, 23.9428935 ], [ 73.6514692, 23.9462253 ], [ 73.6636695, 23.9499037 ], [ 73.6663257, 23.9476917 ], [ 73.6691982, 23.9401895 ], [ 73.67101, 23.9397943 ], [ 73.6753494, 23.9420624 ], [ 73.6934722, 23.9572313 ], [ 73.6995688, 23.9563484 ], [ 73.7034649, 23.9543945 ], [ 73.7043592, 23.9509523 ], [ 73.7058366, 23.9501114 ], [ 73.7110666, 23.9498619 ], [ 73.7154725, 23.9475102 ], [ 73.7291647, 23.9460527 ], [ 73.7316771, 23.9418516 ], [ 73.7354174, 23.9396608 ], [ 73.7390933, 23.9395511 ], [ 73.746023, 23.9458843 ], [ 73.7521202, 23.9484264 ], [ 73.7673497, 23.9366647 ], [ 73.7737565, 23.93556 ], [ 73.7789071, 23.9379491 ], [ 73.7851931, 23.9471247 ], [ 73.7870561, 23.9480787 ], [ 73.7928338, 23.9449272 ], [ 73.8054446, 23.9445111 ], [ 73.8102376, 23.9356301 ], [ 73.8198559, 23.941132 ], [ 73.8266939, 23.939044 ], [ 73.830167, 23.9358102 ], [ 73.8375121, 23.934114 ], [ 73.8565477, 23.9364785 ], [ 73.8606215, 23.9419455 ], [ 73.8651039, 23.9563518 ], [ 73.8670838, 23.9586377 ], [ 73.8741143, 23.9593081 ], [ 73.8763888, 23.9616412 ], [ 73.8761738, 23.9649044 ], [ 73.890165, 23.9693457 ], [ 73.8965521, 23.9764135 ], [ 73.9065703, 23.981913 ], [ 73.9162276, 23.9854224 ], [ 73.9236215, 23.985172 ], [ 73.9409258, 23.976225 ], [ 73.956959, 23.9802048 ], [ 73.972538, 23.9796145 ], [ 73.9852184, 23.9719861 ], [ 73.9967812, 23.9682509 ], [ 74.001793, 23.9689655 ], [ 74.009405, 23.9734854 ], [ 74.0184642, 23.9719179 ], [ 74.0330236, 23.978084 ], [ 74.043444, 23.9798833 ], [ 74.0539362, 23.9759294 ], [ 74.0638846, 23.9689458 ], [ 74.0716863, 23.9664915 ], [ 74.0762359, 23.9680091 ], [ 74.0820371, 23.9725281 ], [ 74.0856021, 23.9771148 ], [ 74.0886197, 23.984787 ], [ 74.0937153, 23.9898658 ], [ 74.0992939, 23.991285 ], [ 74.108473, 23.9880647 ], [ 74.1146368, 23.9887236 ], [ 74.1270173, 23.9990093 ], [ 74.1462143, 24.0099335 ], [ 74.1531732, 24.0111467 ], [ 74.1577924, 24.0095343 ], [ 74.1610837, 24.0053486 ], [ 74.1616269, 24.0000014 ], [ 74.1604663, 23.9940122 ] ] ] } }
]
}
