{
"type": "FeatureCollection",
"name": "0828",
"crs": { "type": "name", "properties": { "name": "urn:ogc:def:crs:OGC:1.3:CRS84" } },
"features": [
{ "type": "Feature", "properties": { "code": "0828", "name": "Banswara", "type": "district" }, "geometry": { "type": "Polygon", "coordinates": [ [ [ 74.4833046, 23.9214035 ], [ 74.4907556, 23.8992724 ], [ 74.4933271, 23.896079 ], [ 74.5046828, 23.8897483 ], [ 74.519537, 23.8839968 ], [ 74.5242874, 23.8783212 ], [ 74.5248796, 23.8694806 ], [ 74.5233822, 23.863058 ], [ 74.5142376, 23.8451655 ], [ 74.5141147, 23.8394998 ], [ 74.5166565, 23.8342151 ], [ 74.5225591, 23.8297455 ], [ 74.5415077, 23.8284296 ], [ 74.5421221, 23.8191075 ], [ 74.543945, 23.8151855 ], [ 74.5426162, 23.8059708 ], [ 74.5545693, 23.8048571 ], [ 74.5542226, 23.79288 ], [ 74.5561341, 23.7867412 ], [ 74.5560196, 23.7805653 ], [ 74.5519178, 23.764239 ], [ 74.5516815, 23.7569752 ], [ 74.5521844, 23.7521267 ], [ 74.5565892, 23.7419577 ], [ 74.5564389, 23.7385852 ], [ 74.5547972, 23.7363814 ], [ 74.5500948, 23.7352777 ], [ 74.5406049, 23.7365775 ], [ 74.5327637, 23.7361622 ], [ 74.5291067, 23.7342323 ], [ 74.5260445, 23.7306504 ], [ 74.5261206, 23.7270884 ], [ 74.5334754, 23.706859 ], [ 74.5295108, 23.690857 ], [ 74.5330867, 23.6738936 ], [ 74.5309297, 23.6672243 ], [ 74.520359, 23.6526581 ], [ 74.5167479, 23.6456897 ], [ 74.5154981, 23.6401044 ], [ 74.5177858, 23.6349322 ], [ 74.5211389, 23.6333318 ], [ 74.5285239, 23.6325737 ], [ 74.5393621, 23.6340156 ], [ 74.5438567, 23.6321534 ], [ 74.5454138, 23.6339194 ], [ 74.544575, 23.6354675 ], [ 74.5487371, 23.6409368 ], [ 74.5582587, 23.6407786 ], [ 74.5667964, 23.6381321 ], [ 74.5751803, 23.6396247 ], [ 74.5838052, 23.6389094 ], [ 74.5862937, 23.6417813 ], [ 74.5912675, 23.6426132 ], [ 74.6012109, 23.6410664 ], [ 74.6054934, 23.6447148 ], [ 74.6089374, 23.6541055 ], [ 74.6145684, 23.6554287 ], [ 74.6169061, 23.6555959 ], [ 74.6240959, 23.6513433 ], [ 74.6241547, 23.6480838 ], [ 74.6344851, 23.6435555 ], [ 74.6433503, 23.644769 ], [ 74.644703, 23.6463174 ], [ 74.6468909, 23.658854 ], [ 74.6485077, 23.6554318 ], [ 74.6503651, 23.654989 ], [ 74.6519826, 23.656149 ], [ 74.6521644, 23.6584106 ], [ 74.6498906, 23.6596256 ], [ 74.6493518, 23.6614495 ], [ 74.650906, 23.6645417 ], [ 74.6502202, 23.6660316 ], [ 74.6515978, 23.6674128 ], [ 74.6510593, 23.671169 ], [ 74.6532515, 23.6765274 ], [ 74.6567269, 23.6768563 ], [ 74.6607407, 23.6739841 ], [ 74.6646915, 23.6745339 ], [ 74.6658906, 23.6683487 ], [ 74.6746088, 23.664423 ], [ 74.6771846, 23.6588422 ], [ 74.6908274, 23.6582317 ], [ 74.6906841, 23.6525191 ], [ 74.6972677, 23.6380064 ], [ 74.703359, 23.6300848 ], [ 74.7126839, 23.6229829 ], [ 74.7171436, 23.617432 ], [ 74.7238636, 23.614394 ], [ 74.7343042, 23.6177809 ], [ 74.7439369, 23.6129439 ], [ 74.7638112, 23.5976473 ], [ 74.7705806, 23.5859995 ], [ 74.7691882, 23.5813396 ], [ 74.7623634, 23.5717728 ], [ 74.7711175, 23.5509395 ], [ 74.7709185, 23.5423888 ], [ 74.767227, 23.5355691 ], [ 74.766893, 23.5308602 ], [ 74.7623725, 23.5263965 ], [ 74.7616817, 23.5212674 ], [ 74.7352881, 23.5205652 ], [ 74.7346806, 23.5182112 ], [ 74.7391218, 23.5137926 ], [ 74.7336297, 23.5074332 ], [ 74.7315655, 23.4989162 ], [ 74.7272966, 23.4958919 ], [ 74.7228333, 23.4969318 ], [ 74.7187212, 23.5032294 ], [ 74.7113704, 23.5032295 ], [ 74.7049705, 23.5051008 ], [ 74.6967388, 23.5026597 ], [ 74.6865273, 23.4947358 ], [ 74.6803375, 23.4947774 ], [ 74.6821659, 23.4878891 ], [ 74.6813105, 23.4852272 ], [ 74.6770272, 23.4827254 ], [ 74.6660597, 23.4825035 ], [ 74.6664199, 23.4775182 ], [ 74.664162, 23.4758558 ], [ 74.6589548, 23.4672995 ], [ 74.6518837, 23.4622797 ], [ 74.6392856, 23.4635469 ], [ 74.6361481, 23.4679164 ], [ 74.6327705, 23.4695073 ], [ 74.633541, 23.4670748 ], [ 74.6318725, 23.4613937 ], [ 74.6162258, 23.4597753 ], [ 74.6126996, 23.4619299 ], [ 74.6038866, 23.457265 ], [ 74.6097375, 23.4536711 ], [ 74.6099148, 23.4516256 ], [ 74.6061714, 23.4445345 ], [ 74.5993158, 23.4372592 ], [ 74.5990674, 23.4287497 ], [ 74.5965677, 23.4282826 ], [ 74.5942506, 23.4241531 ], [ 74.5901725, 23.4245264 ], [ 74.5871808, 23.4265147 ], [ 74.5847905, 23.4255464 ], [ 74.5851483, 23.4238176 ], [ 74.581842, 23.4215641 ], [ 74.575073, 23.4232124 ], [ 74.5723502, 23.4206667 ], [ 74.5699537, 23.4126029 ], [ 74.5730399, 23.3963568 ], [ 74.5665701, 23.386141 ], [ 74.5694868, 23.3783853 ], [ 74.5689407, 23.3763017 ], [ 74.5651309, 23.3728542 ], [ 74.559246, 23.3711802 ], [ 74.5576861, 23.3680008 ], [ 74.5586083, 23.3642909 ], [ 74.5577014, 23.3619081 ], [ 74.55469, 23.3612944 ], [ 74.5466256, 23.3648979 ], [ 74.5414927, 23.3638216 ], [ 74.5398166, 23.3618656 ], [ 74.5413729, 23.3602262 ], [ 74.5415585, 23.3574853 ], [ 74.5382255, 23.3466677 ], [ 74.5399326, 23.3352868 ], [ 74.5352675, 23.3308198 ], [ 74.5140368, 23.3280456 ], [ 74.5148425, 23.3162692 ], [ 74.5236228, 23.3211332 ], [ 74.5297326, 23.320673 ], [ 74.5310806, 23.3128048 ], [ 74.527919, 23.3107539 ], [ 74.5319247, 23.3063624 ], [ 74.5342673, 23.3006516 ], [ 74.539571, 23.2997007 ], [ 74.5414686, 23.2867305 ], [ 74.5438321, 23.2804098 ], [ 74.5466691, 23.277121 ], [ 74.5496707, 23.2786065 ], [ 74.553483, 23.2774702 ], [ 74.5564718, 23.2784317 ], [ 74.5599366, 23.2818333 ], [ 74.5633607, 23.2882774 ], [ 74.5623805, 23.2910131 ], [ 74.5632111, 23.2926865 ], [ 74.5682392, 23.2951845 ], [ 74.5743658, 23.2951696 ], [ 74.5736904, 23.2892151 ], [ 74.5768531, 23.2848065 ], [ 74.5793423, 23.28461 ], [ 74.5852788, 23.2795086 ], [ 74.5849935, 23.276938 ], [ 74.5874569, 23.2771161 ], [ 74.5892159, 23.2790357 ], [ 74.5928195, 23.2788825 ], [ 74.5947472, 23.2767964 ], [ 74.5982863, 23.276941 ], [ 74.6016792, 23.2802331 ], [ 74.6079501, 23.2824574 ], [ 74.6168913, 23.2793812 ], [ 74.6218502, 23.2736708 ], [ 74.6248415, 23.2738677 ], [ 74.6239265, 23.2718167 ], [ 74.626765, 23.2590627 ], [ 74.6385555, 23.2554093 ], [ 74.6485552, 23.2559288 ], [ 74.6566668, 23.260802 ], [ 74.6637773, 23.267407 ], [ 74.6731425, 23.269956 ], [ 74.6768244, 23.2736943 ], [ 74.678105, 23.2717864 ], [ 74.6862154, 23.2675889 ], [ 74.6882631, 23.267855 ], [ 74.6924279, 23.2658398 ], [ 74.695327, 23.2657596 ], [ 74.6999554, 23.2683656 ], [ 74.7010734, 23.2646551 ], [ 74.6987826, 23.2573068 ], [ 74.7076747, 23.254835 ], [ 74.7127675, 23.2505311 ], [ 74.7129748, 23.2427992 ], [ 74.7151279, 23.2369948 ], [ 74.7095056, 23.2332674 ], [ 74.7088058, 23.2314234 ], [ 74.7058879, 23.2315218 ], [ 74.7039581, 23.2289934 ], [ 74.6916619, 23.224792 ], [ 74.6920658, 23.2191516 ], [ 74.7022162, 23.2145101 ], [ 74.7156642, 23.2191419 ], [ 74.716937, 23.2157793 ], [ 74.7228282, 23.216788 ], [ 74.726365, 23.2150056 ], [ 74.732908, 23.2175732 ], [ 74.7337673, 23.2204246 ], [ 74.7412847, 23.224755 ], [ 74.7409883, 23.2264347 ], [ 74.7475219, 23.2266531 ], [ 74.7491392, 23.2241806 ], [ 74.7435691, 23.2210597 ], [ 74.7405556, 23.2176809 ], [ 74.7442851, 23.2120593 ], [ 74.7436726, 23.2103421 ], [ 74.7250451, 23.200889 ], [ 74.7245262, 23.1965974 ], [ 74.7216108, 23.1958651 ], [ 74.7152454, 23.1907454 ], [ 74.7080753, 23.1942281 ], [ 74.6988111, 23.1923047 ], [ 74.6818731, 23.1938747 ], [ 74.6776672, 23.1955689 ], [ 74.6750304, 23.1989283 ], [ 74.6715441, 23.1999599 ], [ 74.6642465, 23.1951615 ], [ 74.6493036, 23.1752199 ], [ 74.6327101, 23.1639494 ], [ 74.6249446, 23.161718 ], [ 74.618397, 23.1503747 ], [ 74.6066146, 23.1425592 ], [ 74.5964991, 23.1378906 ], [ 74.5854902, 23.1397454 ], [ 74.5767753, 23.1341804 ], [ 74.572227, 23.1331474 ], [ 74.5393733, 23.1293016 ], [ 74.5394192, 23.1272919 ], [ 74.5439582, 23.1222691 ], [ 74.5447921, 23.1197061 ], [ 74.5464216, 23.1143497 ], [ 74.5455139, 23.109844 ], [ 74.5393398, 23.1033449 ], [ 74.5314351, 23.0990715 ], [ 74.5233842, 23.0962562 ], [ 74.5148548, 23.0962754 ], [ 74.510277, 23.0944637 ], [ 74.5069097, 23.0913955 ], [ 74.5090844, 23.0867502 ], [ 74.5058633, 23.0851413 ], [ 74.499203, 23.0868772 ], [ 74.4917422, 23.0858959 ], [ 74.4892408, 23.0876809 ], [ 74.474718, 23.0836452 ], [ 74.4743889, 23.0816568 ], [ 74.4670169, 23.0830322 ], [ 74.4638438, 23.081793 ], [ 74.4577303, 23.0846266 ], [ 74.4540833, 23.0883311 ], [ 74.4407165, 23.0906826 ], [ 74.4403854, 23.0951844 ], [ 74.4318101, 23.1049952 ], [ 74.4273793, 23.1066955 ], [ 74.421579, 23.1043709 ], [ 74.406307, 23.1120239 ], [ 74.4000693, 23.1114493 ], [ 74.3984297, 23.110263 ], [ 74.3921654, 23.1111706 ], [ 74.3898892, 23.109773 ], [ 74.3890489, 23.1114657 ], [ 74.386202, 23.1115179 ], [ 74.3774124, 23.1063663 ], [ 74.3696654, 23.0986846 ], [ 74.356287, 23.0886538 ], [ 74.3543906, 23.08604 ], [ 74.3558897, 23.0798134 ], [ 74.3499135, 23.0760041 ], [ 74.3416008, 23.0678988 ], [ 74.3328087, 23.0621937 ], [ 74.3299236, 23.0613008 ], [ 74.3275535, 23.0628152 ], [ 74.3233218, 23.0608888 ], [ 74.3209031, 23.0614204 ], [ 74.3189011, 23.0586612 ], [ 74.3143927, 23.0699329 ], [ 74.3073383, 23.0777698 ], [ 74.2946895, 23.0854414 ], [ 74.2828739, 23.0885317 ], [ 74.2788903, 23.0921854 ], [ 74.2771584, 23.0956235 ], [ 74.2771235, 23.0993991 ], [ 74.2857687, 23.1125676 ], [ 74.2871216, 23.1171218 ], [ 74.2783684, 23.1249902 ], [ 74.2743674, 23.1307528 ], [ 74.2703784, 23.1432494 ], [ 74.2674735, 23.1583477 ], [ 74.2611022, 23.164966 ], [ 74.2473599, 23.1714311 ], [ 74.2428628, 23.1773399 ], [ 74.2407986, 23.1846916 ], [ 74.2316357, 23.1772668 ], [ 74.2308164, 23.178658 ], [ 74.2237912, 23.1815069 ], [ 74.2125165, 23.1836672 ], [ 74.2125577, 23.1869315 ], [ 74.2071234, 23.189088 ], [ 74.2029241, 23.1903092 ], [ 74.2012141, 23.1893033 ], [ 74.2013255, 23.1876688 ], [ 74.1957786, 23.180538 ], [ 74.1885986, 23.1781482 ], [ 74.1887046, 23.1752 ], [ 74.1829335, 23.1663442 ], [ 74.1854244, 23.1568214 ], [ 74.1821564, 23.1535629 ], [ 74.1788777, 23.1472794 ], [ 74.1724405, 23.1545369 ], [ 74.1667917, 23.1557214 ], [ 74.1544827, 23.1564874 ], [ 74.1540716, 23.1520448 ], [ 74.1527339, 23.1523882 ], [ 74.1479353, 23.1576579 ], [ 74.1452784, 23.1682638 ], [ 74.141204, 23.1731538 ], [ 74.1346899, 23.1750867 ], [ 74.1214756, 23.1761932 ], [ 74.116377, 23.1846584 ], [ 74.1190187, 23.1919048 ], [ 74.1192089, 23.2040001 ], [ 74.1268335, 23.2080229 ], [ 74.1273171, 23.2097249 ], [ 74.130072, 23.2111471 ], [ 74.1281378, 23.213883 ], [ 74.1286215, 23.2166597 ], [ 74.1344692, 23.2230253 ], [ 74.1311575, 23.2292289 ], [ 74.1337272, 23.2298563 ], [ 74.1325011, 23.23159 ], [ 74.132575, 23.2407777 ], [ 74.1306354, 23.2424077 ], [ 74.1300786, 23.2451166 ], [ 74.1320135, 23.2472023 ], [ 74.1307092, 23.2504665 ], [ 74.1320872, 23.2528274 ], [ 74.130773, 23.256489 ], [ 74.1323661, 23.2592475 ], [ 74.1326402, 23.2661912 ], [ 74.1279345, 23.2689906 ], [ 74.1092176, 23.2743626 ], [ 74.1075548, 23.2844394 ], [ 74.1005791, 23.2938113 ], [ 74.0961656, 23.2932463 ], [ 74.0859296, 23.2980388 ], [ 74.0829779, 23.2960922 ], [ 74.0713831, 23.2988247 ], [ 74.0482862, 23.2933209 ], [ 74.0381639, 23.2934466 ], [ 74.0388302, 23.2985712 ], [ 74.0423973, 23.3002887 ], [ 74.0448558, 23.3088094 ], [ 74.0408622, 23.3087305 ], [ 74.0355218, 23.3050075 ], [ 74.0330674, 23.3059903 ], [ 74.0307456, 23.3129146 ], [ 74.0248051, 23.3210601 ], [ 74.0286547, 23.3316722 ], [ 74.0043914, 23.3359176 ], [ 73.9875833, 23.33576 ], [ 73.9813954, 23.3381391 ], [ 73.9791531, 23.3590078 ], [ 73.9804126, 23.3623794 ], [ 73.9770647, 23.3648467 ], [ 73.9755343, 23.371516 ], [ 73.9711446, 23.3743089 ], [ 73.9668071, 23.3748984 ], [ 73.9617634, 23.3724396 ], [ 73.9598642, 23.3777061 ], [ 73.9574983, 23.3795449 ], [ 73.9690636, 23.391254 ], [ 73.9776662, 23.3961063 ], [ 73.9802066, 23.4105156 ], [ 73.9859833, 23.4155229 ], [ 73.9979014, 23.4216629 ], [ 74.0043079, 23.4293318 ], [ 74.0117924, 23.4424028 ], [ 74.0141191, 23.4513842 ], [ 74.0106003, 23.4690747 ], [ 74.0169781, 23.4801627 ], [ 74.0193215, 23.4940559 ], [ 74.0199877, 23.5076489 ], [ 74.0281896, 23.526401 ], [ 74.0299028, 23.5445613 ], [ 74.0318089, 23.5491659 ], [ 74.0395156, 23.5550303 ], [ 74.0524423, 23.5606372 ], [ 74.0608776, 23.5676294 ], [ 74.0647765, 23.5808938 ], [ 74.0659964, 23.5933697 ], [ 74.0694929, 23.5999389 ], [ 74.07258, 23.6027437 ], [ 74.078162, 23.6055091 ], [ 74.0827982, 23.6061778 ], [ 74.1078401, 23.605538 ], [ 74.1127192, 23.6065504 ], [ 74.1165602, 23.6103793 ], [ 74.1241483, 23.6366829 ], [ 74.1284642, 23.6452199 ], [ 74.1270775, 23.6569491 ], [ 74.1280313, 23.6683754 ], [ 74.1263958, 23.6769104 ], [ 74.1326638, 23.687075 ], [ 74.1337113, 23.6918091 ], [ 74.1323519, 23.6993838 ], [ 74.1222092, 23.7119848 ], [ 74.1188024, 23.7182607 ], [ 74.118583, 23.7224457 ], [ 74.1199886, 23.7264187 ], [ 74.1264879, 23.7323173 ], [ 74.1307556, 23.7397204 ], [ 74.1322601, 23.7540353 ], [ 74.1383397, 23.7732846 ], [ 74.1497961, 23.787063 ], [ 74.152527, 23.7889837 ], [ 74.1631, 23.7909472 ], [ 74.1766051, 23.7957344 ], [ 74.1955783, 23.7982009 ], [ 74.2161597, 23.8117012 ], [ 74.2229024, 23.8136185 ], [ 74.2298279, 23.8136848 ], [ 74.236966, 23.8160189 ], [ 74.2471182, 23.8209325 ], [ 74.2632258, 23.8326238 ], [ 74.2875229, 23.8419778 ], [ 74.2930487, 23.8512411 ], [ 74.2966321, 23.8548779 ], [ 74.3003876, 23.8563777 ], [ 74.3149232, 23.8572741 ], [ 74.3371618, 23.8787807 ], [ 74.3567885, 23.8853174 ], [ 74.3582948, 23.8876133 ], [ 74.355263, 23.8988094 ], [ 74.3576663, 23.9015109 ], [ 74.3642203, 23.9022202 ], [ 74.3741841, 23.8996914 ], [ 74.3796759, 23.9047761 ], [ 74.3828213, 23.9054526 ], [ 74.3947383, 23.9022665 ], [ 74.4005547, 23.9021493 ], [ 74.4146153, 23.9092304 ], [ 74.4278427, 23.9050802 ], [ 74.4323471, 23.9050518 ], [ 74.4358226, 23.9067175 ], [ 74.4424736, 23.9159003 ], [ 74.4474276, 23.9200323 ], [ 74.4646164, 23.922595 ], [ 74.4735276, 23.9251819 ], [ 74.4792055, 23.924298 ], [ 74.4833046, 23.9214035 ] ] ] } }
]
}
