{
"type": "FeatureCollection",
"name": "0836",
"crs": { "type": "name", "properties": { "name": "urn:ogc:def:crs:OGC:1.3:CRS84" } },
"features": [
{ "type": "Feature", "properties": { "code": "0836", "name": "Beawar", "type": "district" }, "geometry": { "type": "GeometryCollection", "geometries": [ { "type": "MultiPolygon", "coordinates": [ [ [ [ 74.4000114, 25.7706467 ], [ 74.3997452, 25.7671533 ], [ 74.4011344, 25.7627945 ], [ 74.3980053, 25.7558012 ], [ 74.3986921, 25.7511078 ], [ 74.3890887, 25.7508977 ], [ 74.3851975, 25.7498657 ], [ 74.3852689, 25.7482185 ], [ 74.3834093, 25.7489617 ], [ 74.3802921, 25.7463685 ], [ 74.3712184, 25.7498992 ], [ 74.3742858, 25.752181 ], [ 74.3763078, 25.758366 ], [ 74.3735397, 25.7603315 ], [ 74.3640078, 25.7623312 ], [ 74.371222, 25.7696855 ], [ 74.3713326, 25.7735399 ], [ 74.3795842, 25.771367 ], [ 74.4000114, 25.7706467 ] ] ], [ [ [ 74.4000114, 25.7706467 ], [ 74.4007945, 25.7759684 ], [ 74.3945333, 25.787879 ], [ 74.390907, 25.7900202 ], [ 74.3864446, 25.7906216 ], [ 74.36899, 25.7823748 ], [ 74.3626201, 25.7902716 ], [ 74.3523401, 25.795959 ], [ 74.3397304, 25.7880955 ], [ 74.3387753, 25.7865825 ], [ 74.3393578, 25.7834193 ], [ 74.3293525, 25.7871629 ], [ 74.3202677, 25.7883661 ], [ 74.3173528, 25.7906101 ], [ 74.3109092, 25.7922537 ], [ 74.3052029, 25.787936 ], [ 74.3048372, 25.783182 ], [ 74.305146, 25.7769914 ], [ 74.3108509, 25.7692586 ], [ 74.311405, 25.7655578 ], [ 74.2999249, 25.7633813 ], [ 74.2802302, 25.7563213 ], [ 74.2757191, 25.7577609 ], [ 74.2721345, 25.7546932 ], [ 74.2674755, 25.7542208 ], [ 74.26416, 25.7574245 ], [ 74.2573055, 25.7532339 ], [ 74.2498682, 25.7428935 ], [ 74.249124, 25.7441821 ], [ 74.2350936, 25.7401625 ], [ 74.2231554, 25.7347182 ], [ 74.2223091, 25.7331611 ], [ 74.2110743, 25.7314167 ], [ 74.1991506, 25.7201121 ], [ 74.196209, 25.7120163 ], [ 74.1925039, 25.7095257 ], [ 74.1874249, 25.7083752 ], [ 74.1872264, 25.7122962 ], [ 74.1789932, 25.7197865 ], [ 74.1740427, 25.7362387 ], [ 74.1824706, 25.7369936 ], [ 74.1826347, 25.7393452 ], [ 74.1841151, 25.7399015 ], [ 74.1952011, 25.7395685 ], [ 74.190842, 25.7617081 ], [ 74.1886965, 25.7622616 ], [ 74.1871052, 25.7647646 ], [ 74.1893368, 25.7683743 ], [ 74.1955673, 25.7676119 ], [ 74.2028886, 25.7733997 ], [ 74.2073269, 25.7747042 ], [ 74.2025241, 25.7831284 ], [ 74.1992571, 25.7926298 ], [ 74.1983465, 25.8006541 ], [ 74.2032863, 25.8017025 ], [ 74.2130168, 25.8071918 ], [ 74.1952128, 25.8149015 ], [ 74.1939082, 25.8204035 ], [ 74.1811648, 25.8178021 ], [ 74.1749855, 25.8150337 ], [ 74.1713465, 25.8116015 ], [ 74.1728408, 25.8264116 ], [ 74.1759442, 25.8275011 ], [ 74.1802685, 25.8340299 ], [ 74.1792731, 25.839065 ], [ 74.18405, 25.8463492 ], [ 74.1840932, 25.8486073 ], [ 74.1794917, 25.8463242 ], [ 74.1576495, 25.8523458 ], [ 74.151666, 25.857325 ], [ 74.1377088, 25.8566833 ], [ 74.1269282, 25.8635096 ], [ 74.1175762, 25.8642469 ], [ 74.1121198, 25.8616035 ], [ 74.1109985, 25.8570774 ], [ 74.1087502, 25.8544286 ], [ 74.0975729, 25.8476914 ], [ 74.0935836, 25.8511882 ], [ 74.0878167, 25.8447766 ], [ 74.0836366, 25.8462195 ], [ 74.0820301, 25.8449381 ], [ 74.0802191, 25.8457392 ], [ 74.0785119, 25.8410283 ], [ 74.0750506, 25.8388271 ], [ 74.0626305, 25.8331113 ], [ 74.0610546, 25.832912 ], [ 74.0607917, 25.834614 ], [ 74.0561108, 25.8324023 ], [ 74.0538976, 25.8292458 ], [ 74.059369, 25.8257975 ], [ 74.0630324, 25.8194474 ], [ 74.0649112, 25.8157057 ], [ 74.063545, 25.812497 ], [ 74.0660826, 25.8065294 ], [ 74.0769975, 25.800523 ], [ 74.07766, 25.7962648 ], [ 74.0827682, 25.7954777 ], [ 74.0909069, 25.7903284 ], [ 74.091584, 25.7859537 ], [ 74.0955128, 25.7820651 ], [ 74.0913946, 25.7759581 ], [ 74.0944408, 25.7691716 ], [ 74.0907972, 25.7666734 ], [ 74.0850206, 25.7678748 ], [ 74.0711729, 25.7621843 ], [ 74.0636369, 25.7571955 ], [ 74.0529951, 25.7542106 ], [ 74.0493068, 25.7538187 ], [ 74.0492908, 25.755351 ], [ 74.0444895, 25.7604293 ], [ 74.0430561, 25.7580245 ], [ 74.0366621, 25.7582278 ], [ 74.0214023, 25.7477196 ], [ 74.0093117, 25.7425318 ], [ 74.0068723, 25.7397522 ], [ 74.004238, 25.7328584 ], [ 73.9778186, 25.7115198 ], [ 73.9872266, 25.7069173 ], [ 73.9936458, 25.7080227 ], [ 73.9991929, 25.7067652 ], [ 74.0073805, 25.7069363 ], [ 74.0129509, 25.7050216 ], [ 74.0147196, 25.7020853 ], [ 74.011951, 25.6994255 ], [ 74.0108362, 25.6961877 ], [ 73.9992781, 25.6900162 ], [ 73.9900492, 25.6830497 ], [ 73.9854167, 25.6752748 ], [ 73.9885558, 25.6687278 ], [ 73.9869164, 25.6664229 ], [ 73.9845817, 25.6679823 ], [ 73.9831041, 25.6671639 ], [ 73.9785954, 25.6683694 ], [ 73.9693377, 25.6587152 ], [ 73.961201, 25.6560932 ], [ 73.9578322, 25.6522633 ], [ 73.9505049, 25.6477277 ], [ 73.9479272, 25.6497363 ], [ 73.9449682, 25.6497646 ], [ 73.9465134, 25.6553152 ], [ 73.9401408, 25.6622668 ], [ 73.9393408, 25.6665545 ], [ 73.9352578, 25.6696985 ], [ 73.9292263, 25.6717718 ], [ 73.9328456, 25.6775253 ], [ 73.9321088, 25.6782436 ], [ 73.9181825, 25.6810627 ], [ 73.9091591, 25.6849638 ], [ 73.9156608, 25.6971024 ], [ 73.9112692, 25.7060538 ], [ 73.9115973, 25.7187332 ], [ 73.9132493, 25.7250569 ], [ 73.9075235, 25.74077 ], [ 73.9250263, 25.7616403 ], [ 73.9258124, 25.7662509 ], [ 73.9318336, 25.7675368 ], [ 73.9299808, 25.7840014 ], [ 73.9247216, 25.7871453 ], [ 73.9250474, 25.7919422 ], [ 73.945271, 25.8041126 ], [ 73.9459049, 25.811941 ], [ 73.9446498, 25.82018 ], [ 73.9420131, 25.8255692 ], [ 73.9432282, 25.8291672 ], [ 73.9541692, 25.8403567 ], [ 73.9672842, 25.8358547 ], [ 73.9666766, 25.8351596 ], [ 73.9690774, 25.8332896 ], [ 73.9741502, 25.837989 ], [ 73.9747336, 25.8403362 ], [ 73.9733082, 25.8413239 ], [ 73.9746835, 25.8467285 ], [ 73.9785703, 25.8519251 ], [ 73.9878687, 25.8579946 ], [ 73.9933548, 25.8643841 ], [ 73.9970875, 25.8656708 ], [ 74.0062198, 25.8633029 ], [ 74.021263, 25.8738639 ], [ 74.0272961, 25.8752724 ], [ 74.0348864, 25.8830694 ], [ 74.0397235, 25.8839749 ], [ 74.0418323, 25.8859466 ], [ 74.0445901, 25.8922271 ], [ 74.0470448, 25.8927169 ], [ 74.0490983, 25.8971863 ], [ 74.0439349, 25.9055567 ], [ 74.044497, 25.9158994 ], [ 74.0386417, 25.9258306 ], [ 74.0331417, 25.9304668 ], [ 74.025726, 25.9268384 ], [ 74.0168361, 25.9364293 ], [ 73.9915743, 25.9456885 ], [ 73.9896235, 25.950581 ], [ 73.9934197, 25.9559893 ], [ 73.9918391, 25.9608783 ], [ 73.9708147, 25.9637495 ], [ 73.9685374, 25.9660357 ], [ 73.9672562, 25.977209 ], [ 73.9638889, 25.98188 ], [ 73.9624872, 25.9879193 ], [ 73.956719, 25.984109 ], [ 73.9518471, 25.9826634 ], [ 73.9392241, 25.9724421 ], [ 73.9324882, 25.9833311 ], [ 73.9242374, 25.99094 ], [ 73.9297539, 25.9951478 ], [ 73.9324166, 26.002428 ], [ 73.9196639, 26.0013111 ], [ 73.9006123, 26.0066659 ], [ 73.8810635, 26.0038126 ], [ 73.8810718, 26.0145723 ], [ 73.8777285, 26.0136335 ], [ 73.8724478, 26.0359823 ], [ 73.8645002, 26.0372493 ], [ 73.8633917, 26.0358009 ], [ 73.8491596, 26.0401041 ], [ 73.8260924, 26.0372148 ], [ 73.8104991, 26.0371243 ], [ 73.8002421, 26.049518 ], [ 73.7988581, 26.0685847 ], [ 73.7959929, 26.0755672 ], [ 73.7918135, 26.0778564 ], [ 73.8112675, 26.1106454 ], [ 73.8088869, 26.111611 ], [ 73.8099151, 26.1139958 ], [ 73.8058073, 26.1180412 ], [ 73.8054845, 26.1276556 ], [ 73.8038857, 26.127473 ], [ 73.8029609, 26.1310031 ], [ 73.7990793, 26.1338982 ], [ 73.79486, 26.1404602 ], [ 73.7943874, 26.1434921 ], [ 73.7915736, 26.1436997 ], [ 73.7917292, 26.1465971 ], [ 73.7836732, 26.1488362 ], [ 73.7849671, 26.159234 ], [ 73.7836607, 26.1630486 ], [ 73.7874805, 26.1634605 ], [ 73.7878998, 26.1646654 ], [ 73.7901145, 26.1727888 ], [ 73.7913955, 26.1864472 ], [ 73.7985352, 26.2008254 ], [ 73.8041061, 26.2001349 ], [ 73.7984754, 26.2157295 ], [ 73.7928471, 26.2249063 ], [ 73.791501, 26.2240114 ], [ 73.7866902, 26.2336426 ], [ 73.7903204, 26.2355336 ], [ 73.7893045, 26.2397151 ], [ 73.7907668, 26.2473558 ], [ 73.8078495, 26.2634782 ], [ 73.8043247, 26.2752173 ], [ 73.8101883, 26.2830484 ], [ 73.8105025, 26.2861252 ], [ 73.8079174, 26.2921075 ], [ 73.808142, 26.2975715 ], [ 73.7998083, 26.2980708 ], [ 73.8035977, 26.3065439 ], [ 73.8034441, 26.3093053 ], [ 73.8017186, 26.3115028 ], [ 73.7964934, 26.3130616 ], [ 73.7954234, 26.3104615 ], [ 73.7939613, 26.3109006 ], [ 73.7952712, 26.3135479 ], [ 73.7860874, 26.318129 ], [ 73.7868839, 26.3190837 ], [ 73.796067, 26.3179694 ], [ 73.8015182, 26.3158844 ], [ 73.8013251, 26.314208 ], [ 73.8034605, 26.3111246 ], [ 73.8067339, 26.3108585 ], [ 73.8100828, 26.3169353 ], [ 73.8089114, 26.3183385 ], [ 73.8099082, 26.3198003 ], [ 73.807582, 26.3239114 ], [ 73.8089476, 26.3285046 ], [ 73.8108612, 26.3304706 ], [ 73.8113022, 26.334379 ], [ 73.8097773, 26.3379912 ], [ 73.8068616, 26.3379895 ], [ 73.8113414, 26.3462289 ], [ 73.8122142, 26.3544653 ], [ 73.8111908, 26.3560594 ], [ 73.8231309, 26.3630194 ], [ 73.8261702, 26.36276 ], [ 73.8325366, 26.369502 ], [ 73.8414409, 26.3700754 ], [ 73.8463215, 26.3731438 ], [ 73.8486013, 26.3772294 ], [ 73.8389938, 26.3817607 ], [ 73.8436013, 26.4052398 ], [ 73.8448943, 26.406776 ], [ 73.8465421, 26.4064282 ], [ 73.8621536, 26.414462 ], [ 73.8635467, 26.4160575 ], [ 73.861926, 26.4172183 ], [ 73.8619404, 26.4193265 ], [ 73.8652729, 26.4204996 ], [ 73.8679735, 26.4242677 ], [ 73.8671642, 26.4265274 ], [ 73.8700669, 26.429128 ], [ 73.8811585, 26.4248906 ], [ 73.8894673, 26.4242467 ], [ 73.8952321, 26.4243455 ], [ 73.9118005, 26.4288242 ], [ 73.914637, 26.4252254 ], [ 73.9158904, 26.4263003 ], [ 73.9179806, 26.4247497 ], [ 73.9315194, 26.4234837 ], [ 73.9356862, 26.4212532 ], [ 73.936506, 26.4220673 ], [ 73.9393696, 26.4208833 ], [ 73.9414121, 26.4228621 ], [ 73.9443387, 26.4230192 ], [ 73.9462254, 26.421742 ], [ 73.9511759, 26.4215166 ], [ 73.9513594, 26.4195272 ], [ 73.9543074, 26.4195172 ], [ 73.9620736, 26.4228511 ], [ 73.9677912, 26.4293884 ], [ 73.9697791, 26.4347657 ], [ 73.9775011, 26.4296433 ], [ 73.9787704, 26.4306997 ], [ 73.9839308, 26.423157 ], [ 73.9884141, 26.4253376 ], [ 74.0000005, 26.4242006 ], [ 74.0003967, 26.4230655 ], [ 74.0145665, 26.4247303 ], [ 74.0197311, 26.4240886 ], [ 74.0284838, 26.4266538 ], [ 74.0291828, 26.4252094 ], [ 74.0309095, 26.4255868 ], [ 74.0329543, 26.4208832 ], [ 74.0306827, 26.4161279 ], [ 74.0365036, 26.4124745 ], [ 74.0419325, 26.4131475 ], [ 74.0459125, 26.4193135 ], [ 74.062802, 26.4244542 ], [ 74.0781834, 26.4233398 ], [ 74.0829343, 26.4210951 ], [ 74.0830366, 26.4195699 ], [ 74.0890918, 26.4178255 ], [ 74.0901559, 26.4157512 ], [ 74.1023781, 26.4158465 ], [ 74.1039962, 26.4231518 ], [ 74.1015616, 26.433226 ], [ 74.1024084, 26.4442959 ], [ 74.1128384, 26.4548704 ], [ 74.1222346, 26.4571585 ], [ 74.1274728, 26.4462253 ], [ 74.1306822, 26.4442314 ], [ 74.131462, 26.440557 ], [ 74.1344904, 26.43793 ], [ 74.136256, 26.438532 ], [ 74.1387233, 26.4371655 ], [ 74.1389097, 26.4350223 ], [ 74.1371981, 26.4345831 ], [ 74.1392559, 26.4302798 ], [ 74.1459972, 26.4306453 ], [ 74.1461706, 26.4282176 ], [ 74.157109, 26.4244047 ], [ 74.1573043, 26.4168443 ], [ 74.1600106, 26.4100706 ], [ 74.1722654, 26.4153832 ], [ 74.172682, 26.423042 ], [ 74.1840303, 26.4242132 ], [ 74.191924, 26.4268358 ], [ 74.1899519, 26.4378126 ], [ 74.1943121, 26.4381758 ], [ 74.1945893, 26.4401412 ], [ 74.1983172, 26.4405729 ], [ 74.1984444, 26.4417519 ], [ 74.2038895, 26.4411548 ], [ 74.2039763, 26.4431191 ], [ 74.209771, 26.4434763 ], [ 74.2109112, 26.4454147 ], [ 74.2159938, 26.4443006 ], [ 74.2186671, 26.4449833 ], [ 74.2271655, 26.4535211 ], [ 74.2268236, 26.4544086 ], [ 74.2292239, 26.4532027 ], [ 74.2371459, 26.4611228 ], [ 74.2638849, 26.4529774 ], [ 74.2723668, 26.4538383 ], [ 74.2746283, 26.4575232 ], [ 74.2778973, 26.4561423 ], [ 74.2789396, 26.4533251 ], [ 74.2890682, 26.4514844 ], [ 74.292133, 26.4479611 ], [ 74.288944, 26.4356154 ], [ 74.2876079, 26.4138632 ], [ 74.2887704, 26.4078282 ], [ 74.2924028, 26.4016715 ], [ 74.2929646, 26.3909898 ], [ 74.3045863, 26.3824481 ], [ 74.3026462, 26.3752162 ], [ 74.3041424, 26.3711912 ], [ 74.3033873, 26.3579341 ], [ 74.3069761, 26.3457889 ], [ 74.3043147, 26.3277576 ], [ 74.2972109, 26.3249477 ], [ 74.2944718, 26.3220145 ], [ 74.2893375, 26.3207318 ], [ 74.2788537, 26.3125203 ], [ 74.271737, 26.3089821 ], [ 74.2565111, 26.2927298 ], [ 74.2521007, 26.2860894 ], [ 74.2594148, 26.2772231 ], [ 74.2651744, 26.2763848 ], [ 74.2699645, 26.2658787 ], [ 74.2738182, 26.2629482 ], [ 74.2732358, 26.2603787 ], [ 74.279802, 26.2568439 ], [ 74.2959838, 26.2515254 ], [ 74.3045242, 26.2505675 ], [ 74.3103895, 26.2515592 ], [ 74.3212098, 26.2607112 ], [ 74.3281871, 26.2636303 ], [ 74.3325136, 26.2689284 ], [ 74.3352182, 26.2696375 ], [ 74.3437599, 26.2762198 ], [ 74.3534768, 26.2874971 ], [ 74.3611418, 26.2913154 ], [ 74.3725655, 26.2857792 ], [ 74.3772605, 26.2819687 ], [ 74.387264, 26.2778329 ], [ 74.3983201, 26.2675765 ], [ 74.3982735, 26.26489 ], [ 74.3840849, 26.2590532 ], [ 74.3769346, 26.2539086 ], [ 74.3737525, 26.250241 ], [ 74.3686502, 26.2397393 ], [ 74.3687318, 26.2292703 ], [ 74.3750639, 26.2264808 ], [ 74.3753286, 26.2106492 ], [ 74.3728585, 26.2036814 ], [ 74.3750446, 26.2000973 ], [ 74.3933488, 26.202442 ], [ 74.3986657, 26.2088435 ], [ 74.4026899, 26.2166435 ], [ 74.4081199, 26.2157676 ], [ 74.4144397, 26.2190982 ], [ 74.4272895, 26.2229422 ], [ 74.4282561, 26.223858 ], [ 74.4279225, 26.2306467 ], [ 74.4336931, 26.2463715 ], [ 74.4482021, 26.2410059 ], [ 74.449109, 26.2387295 ], [ 74.4479877, 26.2344588 ], [ 74.4523518, 26.2325613 ], [ 74.4537685, 26.2304042 ], [ 74.4514461, 26.2271493 ], [ 74.4531374, 26.2262212 ], [ 74.4589028, 26.2242746 ], [ 74.4629101, 26.2247366 ], [ 74.4653032, 26.2290254 ], [ 74.4749514, 26.2274267 ], [ 74.4749883, 26.2203252 ], [ 74.4713491, 26.2159688 ], [ 74.4705768, 26.2151849 ], [ 74.4673288, 26.2172993 ], [ 74.4640999, 26.2174182 ], [ 74.4617703, 26.2124615 ], [ 74.4593586, 26.2047188 ], [ 74.4618569, 26.1979697 ], [ 74.4691726, 26.1992339 ], [ 74.4721464, 26.1967572 ], [ 74.4769261, 26.1977724 ], [ 74.4848589, 26.1953044 ], [ 74.4983149, 26.1977854 ], [ 74.5016511, 26.1958376 ], [ 74.5020197, 26.1915273 ], [ 74.5033221, 26.1900465 ], [ 74.5212048, 26.1917189 ], [ 74.5312989, 26.1953052 ], [ 74.5385685, 26.2020917 ], [ 74.5503908, 26.2082286 ], [ 74.5521686, 26.211882 ], [ 74.5582536, 26.2148309 ], [ 74.5622992, 26.218455 ], [ 74.5687154, 26.2281223 ], [ 74.578394, 26.2316048 ], [ 74.5905853, 26.2382044 ], [ 74.6016263, 26.2272286 ], [ 74.60519, 26.2273287 ], [ 74.611445, 26.2234541 ], [ 74.6194011, 26.2150554 ], [ 74.6162589, 26.2009926 ], [ 74.6180336, 26.1970063 ], [ 74.6286184, 26.1937067 ], [ 74.6374683, 26.1961808 ], [ 74.6419826, 26.1923107 ], [ 74.6452611, 26.1942272 ], [ 74.6504724, 26.1933507 ], [ 74.6473254, 26.1834104 ], [ 74.6457023, 26.1724356 ], [ 74.6461648, 26.1700484 ], [ 74.6536707, 26.1595608 ], [ 74.6438895, 26.1416584 ], [ 74.6481329, 26.1327611 ], [ 74.6476417, 26.1247552 ], [ 74.6431207, 26.1115202 ], [ 74.639887, 26.1060447 ], [ 74.6288846, 26.1000753 ], [ 74.6283997, 26.1016182 ], [ 74.6200973, 26.103714 ], [ 74.6093956, 26.1084575 ], [ 74.6067198, 26.1085947 ], [ 74.6016502, 26.1038493 ], [ 74.5961475, 26.0811923 ], [ 74.6030045, 26.0789087 ], [ 74.6095403, 26.078439 ], [ 74.6100213, 26.0720653 ], [ 74.6073216, 26.0721348 ], [ 74.6059849, 26.0667359 ], [ 74.6076617, 26.0630835 ], [ 74.6058709, 26.0574802 ], [ 74.6067476, 26.0508955 ], [ 74.6030522, 26.0469665 ], [ 74.6038512, 26.0456639 ], [ 74.6014136, 26.0452554 ], [ 74.6009929, 26.0425634 ], [ 74.6023272, 26.0411133 ], [ 74.6007259, 26.0402194 ], [ 74.6000428, 26.0368088 ], [ 74.5974148, 26.0333781 ], [ 74.5959668, 26.0216276 ], [ 74.6049987, 26.0224156 ], [ 74.6220124, 26.0196303 ], [ 74.6309321, 26.0227279 ], [ 74.6344068, 26.0253825 ], [ 74.6413136, 26.0251424 ], [ 74.6444005, 26.0272359 ], [ 74.6529007, 26.0187732 ], [ 74.6523281, 26.0163609 ], [ 74.6543858, 26.0149842 ], [ 74.6552929, 26.0037895 ], [ 74.6572366, 25.9967593 ], [ 74.6611468, 25.9904709 ], [ 74.6690968, 25.9897805 ], [ 74.674328, 25.9876703 ], [ 74.6913745, 25.9908726 ], [ 74.6911601, 25.9888089 ], [ 74.6984841, 25.9847067 ], [ 74.7043592, 25.9745332 ], [ 74.708395, 25.972582 ], [ 74.7128217, 25.9679766 ], [ 74.7059364, 25.9529281 ], [ 74.6997875, 25.9435515 ], [ 74.6953416, 25.9324761 ], [ 74.6948186, 25.9261451 ], [ 74.6981942, 25.9260077 ], [ 74.7037781, 25.9233102 ], [ 74.703826, 25.9201454 ], [ 74.6934964, 25.9180967 ], [ 74.6825299, 25.919107 ], [ 74.6596446, 25.9170008 ], [ 74.6291475, 25.9066364 ], [ 74.6199362, 25.9053529 ], [ 74.6137216, 25.905192 ], [ 74.6156174, 25.9132697 ], [ 74.6132689, 25.9139046 ], [ 74.5933865, 25.9161122 ], [ 74.5923073, 25.9090839 ], [ 74.5768605, 25.9135501 ], [ 74.5634282, 25.9143184 ], [ 74.5595013, 25.9137467 ], [ 74.5588325, 25.9115355 ], [ 74.5399964, 25.9027416 ], [ 74.5272979, 25.9031075 ], [ 74.5243921, 25.9119472 ], [ 74.5074682, 25.9191461 ], [ 74.4908429, 25.9238112 ], [ 74.4841039, 25.9281081 ], [ 74.4764663, 25.9266088 ], [ 74.4695919, 25.9096802 ], [ 74.4678268, 25.9069919 ], [ 74.4663092, 25.9069818 ], [ 74.4682833, 25.9031559 ], [ 74.4692221, 25.8941522 ], [ 74.4553256, 25.8865744 ], [ 74.4356726, 25.8923867 ], [ 74.4361962, 25.880921 ], [ 74.4405479, 25.8767706 ], [ 74.4434065, 25.8759463 ], [ 74.4459786, 25.8712697 ], [ 74.4505918, 25.8731339 ], [ 74.4569898, 25.8663328 ], [ 74.4597847, 25.8625923 ], [ 74.4541295, 25.8585692 ], [ 74.4607612, 25.8508084 ], [ 74.4627964, 25.8505066 ], [ 74.4653619, 25.8432427 ], [ 74.46136, 25.8414209 ], [ 74.4556807, 25.8335508 ], [ 74.44743, 25.8364748 ], [ 74.443059, 25.8412075 ], [ 74.434094, 25.8455861 ], [ 74.4339816, 25.850659 ], [ 74.4329189, 25.8512271 ], [ 74.4321367, 25.8495884 ], [ 74.4290342, 25.8496907 ], [ 74.4259633, 25.8472476 ], [ 74.4248606, 25.8478248 ], [ 74.4229542, 25.841749 ], [ 74.4256089, 25.8393718 ], [ 74.4250056, 25.8352298 ], [ 74.4277473, 25.8332078 ], [ 74.4266169, 25.8304947 ], [ 74.4215362, 25.8289757 ], [ 74.4199646, 25.8300084 ], [ 74.4201327, 25.8322471 ], [ 74.4156482, 25.8337926 ], [ 74.4152001, 25.8326775 ], [ 74.417092, 25.8302279 ], [ 74.4164044, 25.8292391 ], [ 74.4179957, 25.8287165 ], [ 74.4185854, 25.8267175 ], [ 74.4169711, 25.8247669 ], [ 74.4148139, 25.8288726 ], [ 74.4114401, 25.8256346 ], [ 74.4086863, 25.8269643 ], [ 74.4033664, 25.8195457 ], [ 74.398167, 25.8176015 ], [ 74.4005703, 25.81193 ], [ 74.3956029, 25.8074223 ], [ 74.3963512, 25.8012396 ], [ 74.402358, 25.7964371 ], [ 74.409538, 25.7882262 ], [ 74.4105699, 25.7823295 ], [ 74.4092866, 25.7784066 ], [ 74.4055488, 25.7775467 ], [ 74.4024341, 25.770346 ], [ 74.4000114, 25.7706467 ] ], [ [ 74.2347887, 25.8517229 ], [ 74.2371819, 25.8549482 ], [ 74.2457513, 25.8608986 ], [ 74.2493356, 25.8654769 ], [ 74.2556357, 25.8689735 ], [ 74.2482842, 25.8749036 ], [ 74.2407274, 25.8853209 ], [ 74.2336631, 25.8868609 ], [ 74.2275006, 25.8914246 ], [ 74.2246096, 25.8948036 ], [ 74.2253319, 25.8961214 ], [ 74.2208336, 25.8973302 ], [ 74.2187885, 25.8928541 ], [ 74.2120505, 25.8922814 ], [ 74.2109343, 25.8866974 ], [ 74.2085364, 25.8859325 ], [ 74.208314, 25.8820255 ], [ 74.206276, 25.8809834 ], [ 74.2079354, 25.8773123 ], [ 74.2043252, 25.8751917 ], [ 74.2052719, 25.8716474 ], [ 74.2016644, 25.8703238 ], [ 74.1985212, 25.8649207 ], [ 74.1945404, 25.8614309 ], [ 74.1956215, 25.8595482 ], [ 74.1943921, 25.8537161 ], [ 74.199726, 25.8519051 ], [ 74.2026272, 25.8543719 ], [ 74.2117254, 25.8534423 ], [ 74.2125386, 25.8555493 ], [ 74.2131975, 25.8510044 ], [ 74.2273319, 25.8431163 ], [ 74.2346325, 25.8479881 ], [ 74.2347887, 25.8517229 ] ], [ [ 74.2691239, 25.8715117 ], [ 74.280954, 25.8776477 ], [ 74.2917049, 25.8892043 ], [ 74.2958714, 25.8910937 ], [ 74.300255, 25.8900448 ], [ 74.3071246, 25.8965836 ], [ 74.3114349, 25.8952903 ], [ 74.3166003, 25.8867638 ], [ 74.3278734, 25.8923787 ], [ 74.3324065, 25.8975329 ], [ 74.3447642, 25.9014133 ], [ 74.346811, 25.9031834 ], [ 74.3483259, 25.9109421 ], [ 74.3471641, 25.9197453 ], [ 74.3435183, 25.921783 ], [ 74.329928, 25.9227412 ], [ 74.3280861, 25.9288412 ], [ 74.3301055, 25.9337355 ], [ 74.3290042, 25.9368772 ], [ 74.3371917, 25.9415877 ], [ 74.3396737, 25.9398698 ], [ 74.3445051, 25.9401401 ], [ 74.3481139, 25.9422152 ], [ 74.3506485, 25.9480641 ], [ 74.35373, 25.9507281 ], [ 74.3708181, 25.9527763 ], [ 74.3758668, 25.9546989 ], [ 74.3885808, 25.963557 ], [ 74.3863026, 25.9714121 ], [ 74.3864836, 25.9750202 ], [ 74.3916293, 25.9855072 ], [ 74.3909178, 25.9878745 ], [ 74.3853881, 25.9926277 ], [ 74.3880326, 25.9999844 ], [ 74.3863049, 26.00558 ], [ 74.3844699, 26.0058476 ], [ 74.3802053, 26.0102041 ], [ 74.3791902, 26.0075045 ], [ 74.3757453, 26.0117697 ], [ 74.3738016, 26.0117703 ], [ 74.3693473, 26.0159677 ], [ 74.362373, 26.0185782 ], [ 74.3579414, 26.0157369 ], [ 74.3497051, 26.0242465 ], [ 74.3455151, 26.0219973 ], [ 74.3463049, 26.0201408 ], [ 74.3440862, 26.0156702 ], [ 74.3365532, 26.0188909 ], [ 74.3323795, 26.0147362 ], [ 74.3231523, 26.0136233 ], [ 74.3175883, 26.008947 ], [ 74.3198656, 26.0039102 ], [ 74.322362, 26.0024592 ], [ 74.3217566, 26.0000003 ], [ 74.3125148, 25.9981779 ], [ 74.3115438, 25.9950627 ], [ 74.3108649, 25.9958224 ], [ 74.3087794, 25.9936544 ], [ 74.3089636, 25.9920661 ], [ 74.3031117, 25.9898755 ], [ 74.2965321, 25.9824259 ], [ 74.2934742, 25.9817248 ], [ 74.2918057, 25.9725788 ], [ 74.2944027, 25.9709481 ], [ 74.2945523, 25.969301 ], [ 74.2884609, 25.9673163 ], [ 74.2827897, 25.9619609 ], [ 74.2883324, 25.9612885 ], [ 74.2884023, 25.9571352 ], [ 74.2904834, 25.9532131 ], [ 74.2899015, 25.9494856 ], [ 74.2916166, 25.9466045 ], [ 74.2924598, 25.9408705 ], [ 74.2909412, 25.9393054 ], [ 74.292058, 25.932918 ], [ 74.291282, 25.9265755 ], [ 74.2948016, 25.9241276 ], [ 74.2984003, 25.9242895 ], [ 74.3002, 25.9230431 ], [ 74.3000133, 25.9149337 ], [ 74.2887689, 25.911064 ], [ 74.2851645, 25.9185227 ], [ 74.286497, 25.9202675 ], [ 74.2851089, 25.9244368 ], [ 74.2830082, 25.9267063 ], [ 74.2842868, 25.9307805 ], [ 74.2826173, 25.9368445 ], [ 74.2831916, 25.9392989 ], [ 74.2809126, 25.9388271 ], [ 74.2784336, 25.9400247 ], [ 74.2752006, 25.94367 ], [ 74.2772845, 25.9491342 ], [ 74.276642, 25.9512981 ], [ 74.27076, 25.9503657 ], [ 74.2684541, 25.9453246 ], [ 74.2724287, 25.9437419 ], [ 74.272176, 25.9426074 ], [ 74.2701171, 25.9412517 ], [ 74.2708932, 25.9392827 ], [ 74.2668488, 25.9344134 ], [ 74.2562673, 25.936188 ], [ 74.2504013, 25.9328755 ], [ 74.250829, 25.9363179 ], [ 74.2474739, 25.9386553 ], [ 74.241688, 25.9335728 ], [ 74.2286879, 25.9346657 ], [ 74.2301562, 25.9289573 ], [ 74.2328566, 25.927239 ], [ 74.2328316, 25.9164895 ], [ 74.2355912, 25.9151977 ], [ 74.2361437, 25.9124335 ], [ 74.2401395, 25.9080661 ], [ 74.2432302, 25.9096626 ], [ 74.2450517, 25.9080968 ], [ 74.2449081, 25.9043734 ], [ 74.2474451, 25.9025014 ], [ 74.2481664, 25.8985907 ], [ 74.2457293, 25.8951468 ], [ 74.2478672, 25.8947543 ], [ 74.2483101, 25.892269 ], [ 74.2612512, 25.8799642 ], [ 74.2617565, 25.8757635 ], [ 74.2691239, 25.8715117 ] ] ] ] }, { "type": "LineString", "coordinates": [ [ 74.292133, 26.4479611 ], [ 74.292133, 26.4479612 ] ] } ] } }
]
}
