{
"type": "FeatureCollection",
"name": "0838",
"crs": { "type": "name", "properties": { "name": "urn:ogc:def:crs:OGC:1.3:CRS84" } },
"features": [
{ "type": "Feature", "properties": { "code": "0838", "name": "Didwana-Kuchaman", "type": "district" }, "geometry": { "type": "Polygon", "coordinates": [ [ [ 74.6090519, 27.7076233 ], [ 74.6151109, 27.6991141 ], [ 74.6163275, 27.6993848 ], [ 74.6192172, 27.6965425 ], [ 74.6238859, 27.6987083 ], [ 74.6261163, 27.6973547 ], [ 74.6268259, 27.695049 ], [ 74.6219344, 27.6901083 ], [ 74.6224413, 27.6883486 ], [ 74.6054323, 27.6783937 ], [ 74.6073587, 27.6746896 ], [ 74.611591, 27.6721451 ], [ 74.6126053, 27.6654583 ], [ 74.6151648, 27.6613752 ], [ 74.6173948, 27.6585327 ], [ 74.6202375, 27.6597511 ], [ 74.6235314, 27.6542418 ], [ 74.6246716, 27.6542689 ], [ 74.6270023, 27.648349 ], [ 74.6374205, 27.6536141 ], [ 74.6475603, 27.6547408 ], [ 74.6600324, 27.6602475 ], [ 74.6648722, 27.6610854 ], [ 74.6648727, 27.6623487 ], [ 74.6678177, 27.6643782 ], [ 74.6719737, 27.665505 ], [ 74.6712649, 27.6672694 ], [ 74.6726847, 27.6689835 ], [ 74.6744334, 27.6695514 ], [ 74.675091, 27.6670199 ], [ 74.6811275, 27.6685065 ], [ 74.6831504, 27.6604246 ], [ 74.684492, 27.6581003 ], [ 74.6870258, 27.658415 ], [ 74.687581, 27.6543945 ], [ 74.6919946, 27.6544827 ], [ 74.6934628, 27.6524966 ], [ 74.7027919, 27.6531233 ], [ 74.7126161, 27.6392609 ], [ 74.7100816, 27.637593 ], [ 74.7109416, 27.6360087 ], [ 74.7088638, 27.6353331 ], [ 74.7114434, 27.6299577 ], [ 74.7034056, 27.6257888 ], [ 74.7000094, 27.6226277 ], [ 74.6992198, 27.616239 ], [ 74.7017967, 27.6070735 ], [ 74.7047057, 27.6024018 ], [ 74.7033363, 27.5996457 ], [ 74.704955, 27.5969374 ], [ 74.7076136, 27.5965523 ], [ 74.7130918, 27.60084 ], [ 74.7304012, 27.6093467 ], [ 74.7413666, 27.5849545 ], [ 74.7556522, 27.593442 ], [ 74.760976, 27.5798509 ], [ 74.7583547, 27.5785915 ], [ 74.7610771, 27.5659572 ], [ 74.7370263, 27.5496461 ], [ 74.7224263, 27.5439268 ], [ 74.7218121, 27.541996 ], [ 74.7186058, 27.5396383 ], [ 74.7194653, 27.5325266 ], [ 74.7214062, 27.5293577 ], [ 74.7228434, 27.5291717 ], [ 74.7232769, 27.5271364 ], [ 74.72288, 27.5248265 ], [ 74.7201006, 27.5238132 ], [ 74.7213668, 27.5190745 ], [ 74.7232078, 27.517688 ], [ 74.7225029, 27.5161228 ], [ 74.7237141, 27.5123271 ], [ 74.7216357, 27.5083625 ], [ 74.7193374, 27.5073623 ], [ 74.7202689, 27.501929 ], [ 74.7232989, 27.5006635 ], [ 74.725111, 27.5012894 ], [ 74.7286123, 27.4955763 ], [ 74.7313175, 27.4935889 ], [ 74.7394459, 27.4957934 ], [ 74.7500021, 27.5006922 ], [ 74.7528415, 27.4956068 ], [ 74.7544534, 27.4877779 ], [ 74.7711529, 27.4944148 ], [ 74.7745189, 27.4895362 ], [ 74.7796893, 27.4907948 ], [ 74.7828956, 27.4896804 ], [ 74.7834012, 27.487352 ], [ 74.7854078, 27.4862356 ], [ 74.7896065, 27.4874563 ], [ 74.7906627, 27.4856658 ], [ 74.7965817, 27.4872319 ], [ 74.8007506, 27.479808 ], [ 74.8004501, 27.4780155 ], [ 74.8024575, 27.4762263 ], [ 74.8002526, 27.4696689 ], [ 74.7982463, 27.4681448 ], [ 74.7991484, 27.4646116 ], [ 74.7977495, 27.4630839 ], [ 74.8003545, 27.4552739 ], [ 74.8004091, 27.4502183 ], [ 74.8193414, 27.4512147 ], [ 74.8303686, 27.4534088 ], [ 74.8425911, 27.4515363 ], [ 74.8510638, 27.4535498 ], [ 74.8536753, 27.4531057 ], [ 74.8547779, 27.449613 ], [ 74.8589312, 27.4502357 ], [ 74.8636799, 27.431733 ], [ 74.872248, 27.4157841 ], [ 74.8731988, 27.4114876 ], [ 74.8682845, 27.4096097 ], [ 74.8681347, 27.4080387 ], [ 74.8591242, 27.4018321 ], [ 74.8591716, 27.4003561 ], [ 74.8553619, 27.3974903 ], [ 74.8548595, 27.3949438 ], [ 74.8479041, 27.388689 ], [ 74.8457501, 27.3848813 ], [ 74.8463467, 27.3776414 ], [ 74.8499059, 27.3780922 ], [ 74.8514607, 27.3762567 ], [ 74.8545648, 27.3766572 ], [ 74.8566733, 27.3728089 ], [ 74.8591258, 27.3726308 ], [ 74.8627795, 27.3701788 ], [ 74.8719982, 27.3734918 ], [ 74.8742039, 27.3725098 ], [ 74.8743538, 27.3696435 ], [ 74.8733032, 27.3687036 ], [ 74.8756567, 27.366557 ], [ 74.8764529, 27.355259 ], [ 74.8796079, 27.3455024 ], [ 74.8760003, 27.3440231 ], [ 74.8758507, 27.3421271 ], [ 74.8695398, 27.3398056 ], [ 74.866535, 27.3374735 ], [ 74.8662341, 27.3354599 ], [ 74.8690909, 27.3304024 ], [ 74.8752992, 27.3245397 ], [ 74.8792973, 27.3102878 ], [ 74.8841537, 27.3102874 ], [ 74.8911656, 27.312708 ], [ 74.8943217, 27.3153016 ], [ 74.8982783, 27.3157017 ], [ 74.8974253, 27.3200888 ], [ 74.8989858, 27.3213404 ], [ 74.8978797, 27.3316362 ], [ 74.9021401, 27.332217 ], [ 74.903412, 27.3342989 ], [ 74.9109768, 27.3366287 ], [ 74.9311603, 27.3364415 ], [ 74.9390292, 27.3387202 ], [ 74.9427935, 27.3415837 ], [ 74.9437933, 27.3438637 ], [ 74.9429926, 27.3477139 ], [ 74.9455097, 27.3485094 ], [ 74.9464592, 27.3502973 ], [ 74.9518186, 27.3485478 ], [ 74.9631976, 27.3496618 ], [ 74.966499, 27.348498 ], [ 74.9747692, 27.349073 ], [ 74.9784246, 27.3471416 ], [ 74.982883, 27.3483023 ], [ 75.0065414, 27.3470528 ], [ 75.0199536, 27.352166 ], [ 75.0256511, 27.3521199 ], [ 75.0268142, 27.3537312 ], [ 75.0352116, 27.3545735 ], [ 75.0352576, 27.3560541 ], [ 75.0375326, 27.3562431 ], [ 75.0386467, 27.3615423 ], [ 75.0405069, 27.3606841 ], [ 75.043703, 27.3627461 ], [ 75.0441146, 27.3679281 ], [ 75.0464168, 27.3721073 ], [ 75.0455595, 27.3775877 ], [ 75.0777147, 27.3857304 ], [ 75.0850727, 27.3859879 ], [ 75.0850771, 27.3850896 ], [ 75.0868117, 27.3851788 ], [ 75.0868814, 27.3838516 ], [ 75.0924189, 27.3841325 ], [ 75.0938838, 27.382204 ], [ 75.1058574, 27.3813919 ], [ 75.1058159, 27.3802589 ], [ 75.1076363, 27.3803027 ], [ 75.1073864, 27.3781497 ], [ 75.1151575, 27.3773219 ], [ 75.1176583, 27.3704043 ], [ 75.1152709, 27.3695892 ], [ 75.1138321, 27.3569736 ], [ 75.1138361, 27.3558948 ], [ 75.1157921, 27.3554553 ], [ 75.1156974, 27.3518802 ], [ 75.1143982, 27.3519445 ], [ 75.1135925, 27.3450883 ], [ 75.1118961, 27.3421149 ], [ 75.1063093, 27.3409952 ], [ 75.1068701, 27.3354019 ], [ 75.1216053, 27.3363423 ], [ 75.1261422, 27.3298877 ], [ 75.1342255, 27.3268331 ], [ 75.1351277, 27.3247242 ], [ 75.1380234, 27.3244731 ], [ 75.1389893, 27.3209015 ], [ 75.1604138, 27.3178902 ], [ 75.1634094, 27.3135397 ], [ 75.1648861, 27.3035224 ], [ 75.1596419, 27.2947225 ], [ 75.155815, 27.2781804 ], [ 75.1401042, 27.2790321 ], [ 75.1329929, 27.2807409 ], [ 75.1313442, 27.2750185 ], [ 75.1291839, 27.2722579 ], [ 75.1225256, 27.2676279 ], [ 75.114531, 27.2596853 ], [ 75.1141537, 27.2562323 ], [ 75.1023056, 27.2470101 ], [ 75.0999087, 27.243721 ], [ 75.0863479, 27.2434682 ], [ 75.0794323, 27.2342363 ], [ 75.081058, 27.2335899 ], [ 75.0801658, 27.2288776 ], [ 75.0742489, 27.2234865 ], [ 75.0692906, 27.2160226 ], [ 75.0899762, 27.2145708 ], [ 75.1118365, 27.2170875 ], [ 75.1139335, 27.2136596 ], [ 75.1211113, 27.2117125 ], [ 75.1210394, 27.2105885 ], [ 75.1229829, 27.2102528 ], [ 75.1229809, 27.2084517 ], [ 75.1244685, 27.2087019 ], [ 75.1191326, 27.2026859 ], [ 75.1220743, 27.2012072 ], [ 75.122249, 27.1947338 ], [ 75.1165063, 27.1823427 ], [ 75.1161291, 27.1787407 ], [ 75.1223634, 27.1792726 ], [ 75.1276539, 27.1665289 ], [ 75.1328165, 27.1661269 ], [ 75.1338841, 27.1641712 ], [ 75.1401663, 27.1632442 ], [ 75.1555239, 27.163246 ], [ 75.1557321, 27.1605463 ], [ 75.1593346, 27.1598968 ], [ 75.1595323, 27.1569804 ], [ 75.168193, 27.1575345 ], [ 75.1766686, 27.1558087 ], [ 75.1790904, 27.1523568 ], [ 75.1769092, 27.1483736 ], [ 75.1728616, 27.1480039 ], [ 75.1700873, 27.1453981 ], [ 75.1697068, 27.1406993 ], [ 75.1707792, 27.1391225 ], [ 75.1794816, 27.1381592 ], [ 75.1795152, 27.1371344 ], [ 75.1926255, 27.1380831 ], [ 75.1944634, 27.1358551 ], [ 75.1953177, 27.128094 ], [ 75.1979924, 27.1284649 ], [ 75.1969842, 27.1261099 ], [ 75.2014186, 27.1259185 ], [ 75.2013798, 27.1268259 ], [ 75.2043074, 27.127544 ], [ 75.2033773, 27.1293826 ], [ 75.2285766, 27.1308471 ], [ 75.228544, 27.129696 ], [ 75.2327071, 27.1300413 ], [ 75.2332843, 27.123743 ], [ 75.2503401, 27.1253027 ], [ 75.2502693, 27.1274651 ], [ 75.2615169, 27.1282662 ], [ 75.2617917, 27.1292678 ], [ 75.2671988, 27.1286572 ], [ 75.2675093, 27.1297852 ], [ 75.2721675, 27.1282866 ], [ 75.2769491, 27.1216007 ], [ 75.2831587, 27.1213085 ], [ 75.2975039, 27.1260593 ], [ 75.2979948, 27.1399439 ], [ 75.3154384, 27.141883 ], [ 75.3153684, 27.143919 ], [ 75.3286877, 27.1432114 ], [ 75.3286349, 27.1355193 ], [ 75.3323451, 27.1361155 ], [ 75.3385209, 27.1344441 ], [ 75.3397392, 27.1318726 ], [ 75.3403861, 27.1255647 ], [ 75.3381911, 27.1220805 ], [ 75.3375966, 27.1139474 ], [ 75.3436444, 27.1137251 ], [ 75.3439798, 27.1079145 ], [ 75.3465673, 27.1078495 ], [ 75.3465661, 27.1058136 ], [ 75.3574208, 27.1072761 ], [ 75.3574963, 27.1088107 ], [ 75.3618282, 27.108434 ], [ 75.3645344, 27.1013759 ], [ 75.3650623, 27.0899717 ], [ 75.3643806, 27.083482 ], [ 75.349456, 27.082924 ], [ 75.3430553, 27.0842986 ], [ 75.339287, 27.0856439 ], [ 75.3394524, 27.0869617 ], [ 75.3363753, 27.0884633 ], [ 75.3343324, 27.0917364 ], [ 75.3312567, 27.0920507 ], [ 75.3309466, 27.0895099 ], [ 75.3257964, 27.0892285 ], [ 75.3178429, 27.0856986 ], [ 75.2972567, 27.0859648 ], [ 75.2784755, 27.0880843 ], [ 75.2664822, 27.0859813 ], [ 75.2484729, 27.08624 ], [ 75.2189425, 27.0803078 ], [ 75.2190709, 27.076308 ], [ 75.2204218, 27.0759944 ], [ 75.2187221, 27.0706748 ], [ 75.2200733, 27.0705779 ], [ 75.2202163, 27.0689074 ], [ 75.219851, 27.0522414 ], [ 75.2393035, 27.0479708 ], [ 75.2395583, 27.0444989 ], [ 75.2413346, 27.0429113 ], [ 75.241323, 27.0374852 ], [ 75.2562704, 27.0354003 ], [ 75.2549349, 27.0311277 ], [ 75.2511374, 27.0303265 ], [ 75.2483094, 27.0234337 ], [ 75.2463689, 27.0235049 ], [ 75.2456516, 27.0204455 ], [ 75.2425825, 27.0207126 ], [ 75.2418945, 27.0171972 ], [ 75.2403468, 27.0170554 ], [ 75.2404605, 27.0136379 ], [ 75.223472, 27.0145236 ], [ 75.2210962, 27.0135929 ], [ 75.220975, 27.0108845 ], [ 75.2147797, 27.0102892 ], [ 75.2148717, 27.0083027 ], [ 75.2019641, 27.0080465 ], [ 75.2017769, 27.0048597 ], [ 75.2001847, 27.005047 ], [ 75.1997016, 26.9911753 ], [ 75.2011599, 26.975301 ], [ 75.181414, 26.9751382 ], [ 75.1591145, 26.971969 ], [ 75.1605214, 26.9657241 ], [ 75.1630953, 26.96536 ], [ 75.1629245, 26.9622273 ], [ 75.1642167, 26.9604336 ], [ 75.1615984, 26.9331521 ], [ 75.0107543, 26.9461326 ], [ 75.0125958, 26.9266034 ], [ 75.0102979, 26.9118958 ], [ 75.0110315, 26.8952468 ], [ 75.0081061, 26.8937618 ], [ 74.9970395, 26.8932248 ], [ 74.9970396, 26.8911347 ], [ 74.9887778, 26.8897393 ], [ 74.9733059, 26.8913488 ], [ 74.9717082, 26.8983007 ], [ 74.973314, 26.8999668 ], [ 74.9757635, 26.9120792 ], [ 74.9766749, 26.9120794 ], [ 74.9776692, 26.9259476 ], [ 74.9791247, 26.9259795 ], [ 74.9790938, 26.9298753 ], [ 74.9802622, 26.9299387 ], [ 74.9810654, 26.9434212 ], [ 74.9762243, 26.9479322 ], [ 74.9693937, 26.9483869 ], [ 74.9678228, 26.9457727 ], [ 74.964251, 26.9471216 ], [ 74.9636747, 26.9535138 ], [ 74.959496, 26.96102 ], [ 74.9574508, 26.9605273 ], [ 74.9487871, 26.9636423 ], [ 74.9460243, 26.9622659 ], [ 74.9168282, 26.964396 ], [ 74.9104335, 26.9664055 ], [ 74.9108411, 26.9734029 ], [ 74.9090858, 26.9758892 ], [ 74.9043598, 26.9757506 ], [ 74.9041472, 26.9769107 ], [ 74.8927601, 26.9770018 ], [ 74.8698881, 26.9744816 ], [ 74.8536136, 26.978673 ], [ 74.8418321, 26.9579712 ], [ 74.839321, 26.9560633 ], [ 74.8369075, 26.9459259 ], [ 74.8329621, 26.940003 ], [ 74.8337586, 26.9326772 ], [ 74.8262268, 26.9275082 ], [ 74.8241273, 26.9205851 ], [ 74.8255952, 26.9190024 ], [ 74.8234705, 26.9122373 ], [ 74.8273074, 26.9090956 ], [ 74.8279444, 26.9041306 ], [ 74.8225756, 26.8929226 ], [ 74.8159614, 26.8848933 ], [ 74.81847, 26.8839711 ], [ 74.8192097, 26.8810332 ], [ 74.8137504, 26.8669955 ], [ 74.8072999, 26.8625041 ], [ 74.8047023, 26.856844 ], [ 74.7992445, 26.853705 ], [ 74.7853615, 26.8532903 ], [ 74.7694893, 26.8498073 ], [ 74.7702306, 26.8416329 ], [ 74.7721267, 26.8396677 ], [ 74.7655519, 26.8286555 ], [ 74.7677162, 26.8283746 ], [ 74.7690289, 26.8237224 ], [ 74.7758253, 26.8193589 ], [ 74.7746133, 26.8139803 ], [ 74.7768396, 26.8126882 ], [ 74.7761051, 26.8024439 ], [ 74.779267, 26.8010719 ], [ 74.7801333, 26.7979268 ], [ 74.7759735, 26.7900291 ], [ 74.7694981, 26.793251 ], [ 74.7590443, 26.7911976 ], [ 74.7575219, 26.7880349 ], [ 74.7513211, 26.7851079 ], [ 74.751265, 26.7739075 ], [ 74.7500033, 26.7710997 ], [ 74.7408595, 26.769212 ], [ 74.7398525, 26.7719323 ], [ 74.7187968, 26.770917 ], [ 74.7170176, 26.772498 ], [ 74.7134073, 26.7721567 ], [ 74.7135446, 26.7735744 ], [ 74.7123926, 26.7736805 ], [ 74.7129658, 26.7757357 ], [ 74.7116526, 26.7759226 ], [ 74.6988477, 26.773842 ], [ 74.6949668, 26.771265 ], [ 74.6974913, 26.7637809 ], [ 74.692821, 26.7631615 ], [ 74.6927666, 26.7609583 ], [ 74.6900181, 26.7582482 ], [ 74.6897993, 26.7554578 ], [ 74.6867746, 26.7545212 ], [ 74.6855599, 26.7500434 ], [ 74.681132, 26.74571 ], [ 74.6807598, 26.740328 ], [ 74.6835909, 26.7365648 ], [ 74.6630426, 26.7125323 ], [ 74.6688646, 26.7104287 ], [ 74.6771331, 26.7105787 ], [ 74.687917, 26.7062825 ], [ 74.7121818, 26.7055889 ], [ 74.7116078, 26.7039761 ], [ 74.7129555, 26.703744 ], [ 74.7126715, 26.7027322 ], [ 74.7218563, 26.6999786 ], [ 74.7198913, 26.6978214 ], [ 74.7160327, 26.6871009 ], [ 74.715321, 26.6782286 ], [ 74.7172578, 26.6753296 ], [ 74.7146353, 26.6669907 ], [ 74.7021114, 26.6523471 ], [ 74.6941418, 26.6471746 ], [ 74.6917475, 26.6426369 ], [ 74.6918535, 26.6387185 ], [ 74.6862772, 26.6240478 ], [ 74.6803952, 26.6169063 ], [ 74.6796647, 26.6122773 ], [ 74.6767103, 26.6109479 ], [ 74.6764591, 26.6091821 ], [ 74.6735618, 26.6089769 ], [ 74.6743469, 26.6013266 ], [ 74.6732499, 26.5985477 ], [ 74.6698158, 26.5947837 ], [ 74.6629014, 26.5929481 ], [ 74.6550555, 26.5869837 ], [ 74.6518819, 26.5903709 ], [ 74.6479388, 26.5907765 ], [ 74.6472689, 26.5930773 ], [ 74.639762, 26.5881738 ], [ 74.634676, 26.5800663 ], [ 74.627793, 26.5751638 ], [ 74.6266403, 26.5729983 ], [ 74.6173359, 26.5684162 ], [ 74.6136842, 26.5849022 ], [ 74.6129293, 26.5954832 ], [ 74.609671, 26.5999467 ], [ 74.6135841, 26.6036485 ], [ 74.6020945, 26.6121402 ], [ 74.6012268, 26.6132484 ], [ 74.6029689, 26.614892 ], [ 74.5924149, 26.6267217 ], [ 74.5888316, 26.6286661 ], [ 74.5787092, 26.6179553 ], [ 74.5716225, 26.6071174 ], [ 74.5640946, 26.6004177 ], [ 74.5575456, 26.5874861 ], [ 74.5508364, 26.5812622 ], [ 74.5489503, 26.5769494 ], [ 74.5388714, 26.5637077 ], [ 74.5369687, 26.5587085 ], [ 74.5353362, 26.5577191 ], [ 74.5280707, 26.5642367 ], [ 74.5226676, 26.5657717 ], [ 74.5175054, 26.5660838 ], [ 74.5046634, 26.5625907 ], [ 74.4972126, 26.5777377 ], [ 74.4991273, 26.5900329 ], [ 74.5045028, 26.594083 ], [ 74.5003827, 26.6034377 ], [ 74.5020083, 26.6077351 ], [ 74.5056656, 26.6109531 ], [ 74.5089272, 26.6163275 ], [ 74.5080263, 26.6214573 ], [ 74.5093093, 26.6315244 ], [ 74.5334331, 26.642052 ], [ 74.5340822, 26.6455032 ], [ 74.530784, 26.6473658 ], [ 74.5302626, 26.6507906 ], [ 74.5255013, 26.651646 ], [ 74.5254134, 26.6534605 ], [ 74.5190601, 26.6565225 ], [ 74.5166261, 26.6677913 ], [ 74.5242689, 26.6689638 ], [ 74.5238036, 26.6696935 ], [ 74.5265774, 26.6708946 ], [ 74.5334786, 26.6728722 ], [ 74.531186, 26.6866697 ], [ 74.5269331, 26.6930751 ], [ 74.5232068, 26.6947826 ], [ 74.5249607, 26.7057359 ], [ 74.5233104, 26.7061231 ], [ 74.5250129, 26.7125347 ], [ 74.5230728, 26.7148983 ], [ 74.5256273, 26.7365081 ], [ 74.5242471, 26.7395417 ], [ 74.5180348, 26.7402069 ], [ 74.5178357, 26.7528465 ], [ 74.5141868, 26.7559624 ], [ 74.5115491, 26.7612984 ], [ 74.5084049, 26.7615674 ], [ 74.5075959, 26.7672527 ], [ 74.4999997, 26.7631722 ], [ 74.4846739, 26.7459041 ], [ 74.4758806, 26.7489868 ], [ 74.4777843, 26.7538377 ], [ 74.4835216, 26.7572174 ], [ 74.4812162, 26.7687973 ], [ 74.47004, 26.7658306 ], [ 74.4690939, 26.7605679 ], [ 74.4630371, 26.756744 ], [ 74.4554077, 26.7569451 ], [ 74.4560702, 26.7624913 ], [ 74.4469654, 26.7671509 ], [ 74.4449534, 26.7806815 ], [ 74.438479, 26.7799111 ], [ 74.4374396, 26.7815908 ], [ 74.4364094, 26.7905657 ], [ 74.43398, 26.7905515 ], [ 74.433986, 26.7923819 ], [ 74.4217568, 26.7905382 ], [ 74.4215832, 26.7920453 ], [ 74.4170179, 26.792627 ], [ 74.413878, 26.8006585 ], [ 74.4058878, 26.8144885 ], [ 74.4018802, 26.8131174 ], [ 74.3974678, 26.8206779 ], [ 74.4126426, 26.8295312 ], [ 74.4135323, 26.8277562 ], [ 74.4168846, 26.8304741 ], [ 74.4160843, 26.8315091 ], [ 74.4186972, 26.8322241 ], [ 74.415828, 26.8383156 ], [ 74.4179183, 26.8408793 ], [ 74.4132129, 26.8496987 ], [ 74.4034215, 26.8531112 ], [ 74.4008157, 26.8595691 ], [ 74.3995129, 26.857505 ], [ 74.3969362, 26.8565145 ], [ 74.3948233, 26.8572819 ], [ 74.391346, 26.8562422 ], [ 74.3900252, 26.8594642 ], [ 74.3957947, 26.8658044 ], [ 74.395734, 26.8677543 ], [ 74.4028291, 26.8739148 ], [ 74.4058329, 26.8809065 ], [ 74.3969442, 26.8891569 ], [ 74.3870133, 26.8953077 ], [ 74.3879781, 26.8965849 ], [ 74.3866701, 26.8982675 ], [ 74.3832507, 26.8974626 ], [ 74.3803723, 26.8981226 ], [ 74.3804917, 26.9002313 ], [ 74.3795326, 26.8997486 ], [ 74.3779926, 26.903299 ], [ 74.3785127, 26.9057841 ], [ 74.3773897, 26.9058198 ], [ 74.3757348, 26.9110128 ], [ 74.3758392, 26.9140062 ], [ 74.3779336, 26.9140741 ], [ 74.3770945, 26.9210765 ], [ 74.3785977, 26.9242972 ], [ 74.376558, 26.9261435 ], [ 74.3759144, 26.9305285 ], [ 74.3772003, 26.9311571 ], [ 74.3741008, 26.9361135 ], [ 74.3723246, 26.9448992 ], [ 74.3629035, 26.9622862 ], [ 74.363411, 26.9643063 ], [ 74.3616182, 26.9695482 ], [ 74.3575676, 26.9722112 ], [ 74.3533378, 26.9832966 ], [ 74.3634899, 26.9914773 ], [ 74.3683017, 26.9933588 ], [ 74.3624215, 27.0031189 ], [ 74.3614081, 27.0139031 ], [ 74.354042, 27.0328694 ], [ 74.3557417, 27.0335859 ], [ 74.3545241, 27.0349481 ], [ 74.3637647, 27.0393147 ], [ 74.3646844, 27.0425058 ], [ 74.3632734, 27.0450996 ], [ 74.3641296, 27.0452344 ], [ 74.3630541, 27.051793 ], [ 74.3651612, 27.0536307 ], [ 74.3644948, 27.0555914 ], [ 74.3630755, 27.055138 ], [ 74.3617633, 27.0571634 ], [ 74.3607518, 27.0568158 ], [ 74.3573724, 27.066781 ], [ 74.3552565, 27.0691051 ], [ 74.3561705, 27.0697503 ], [ 74.3556162, 27.0714451 ], [ 74.3542382, 27.0708113 ], [ 74.3526026, 27.073756 ], [ 74.3489631, 27.0735406 ], [ 74.3484438, 27.0804989 ], [ 74.3425574, 27.0876172 ], [ 74.3394734, 27.096658 ], [ 74.3421446, 27.0987244 ], [ 74.3481094, 27.1086335 ], [ 74.3464266, 27.1109007 ], [ 74.3580625, 27.1173373 ], [ 74.3550913, 27.1269928 ], [ 74.3507455, 27.1264762 ], [ 74.350458, 27.127337 ], [ 74.3503265, 27.1282663 ], [ 74.3567184, 27.1291895 ], [ 74.3559085, 27.132287 ], [ 74.3530087, 27.1312038 ], [ 74.351008, 27.1351715 ], [ 74.3485083, 27.1355661 ], [ 74.3423533, 27.1337679 ], [ 74.3383176, 27.1439507 ], [ 74.3350108, 27.1425493 ], [ 74.3331998, 27.1441883 ], [ 74.3316824, 27.1430977 ], [ 74.3303892, 27.1450416 ], [ 74.3313745, 27.1482061 ], [ 74.3293733, 27.1503904 ], [ 74.330818, 27.1577642 ], [ 74.3307808, 27.1766957 ], [ 74.3284593, 27.183397 ], [ 74.3257947, 27.1833255 ], [ 74.3188201, 27.1939403 ], [ 74.3130697, 27.2064024 ], [ 74.3172749, 27.2097588 ], [ 74.3313735, 27.2127292 ], [ 74.3294104, 27.221012 ], [ 74.3314409, 27.2234232 ], [ 74.3389378, 27.2262303 ], [ 74.3374495, 27.2336849 ], [ 74.3338728, 27.2381684 ], [ 74.3319292, 27.2389039 ], [ 74.3280152, 27.2500019 ], [ 74.3289543, 27.2523175 ], [ 74.3268856, 27.2595116 ], [ 74.3212706, 27.2756911 ], [ 74.3205991, 27.2771083 ], [ 74.3115747, 27.2784779 ], [ 74.3109795, 27.2816032 ], [ 74.3073855, 27.283782 ], [ 74.29861, 27.2809435 ], [ 74.2975858, 27.2836631 ], [ 74.2961401, 27.2834218 ], [ 74.294806, 27.2854616 ], [ 74.2928931, 27.2903258 ], [ 74.2908467, 27.3059391 ], [ 74.2698697, 27.3079446 ], [ 74.2668619, 27.3138486 ], [ 74.2656995, 27.3135151 ], [ 74.2619122, 27.3217953 ], [ 74.2618319, 27.3250598 ], [ 74.2344741, 27.3199123 ], [ 74.2303142, 27.3244123 ], [ 74.211779, 27.3290801 ], [ 74.2106528, 27.3368105 ], [ 74.2140068, 27.3421241 ], [ 74.2154945, 27.351932 ], [ 74.2178041, 27.3520217 ], [ 74.2253063, 27.364314 ], [ 74.2123649, 27.3955674 ], [ 74.2114303, 27.4004145 ], [ 74.2054149, 27.4014411 ], [ 74.206644, 27.4056639 ], [ 74.2108882, 27.4069654 ], [ 74.211074, 27.4057207 ], [ 74.2140749, 27.4061845 ], [ 74.2366191, 27.415387 ], [ 74.2466814, 27.4165882 ], [ 74.2479976, 27.4186762 ], [ 74.264578, 27.4281986 ], [ 74.2655281, 27.4268931 ], [ 74.271276, 27.4287034 ], [ 74.2695935, 27.4332741 ], [ 74.2660038, 27.4390255 ], [ 74.2646772, 27.4386229 ], [ 74.2485416, 27.4727678 ], [ 74.2424498, 27.4703696 ], [ 74.2281867, 27.4692937 ], [ 74.2160604, 27.4652042 ], [ 74.2144995, 27.4669513 ], [ 74.2098924, 27.4679724 ], [ 74.2089573, 27.4706573 ], [ 74.2066906, 27.4698906 ], [ 74.2035884, 27.4720304 ], [ 74.2015426, 27.4771192 ], [ 74.1955162, 27.4769807 ], [ 74.194354, 27.4795152 ], [ 74.1926364, 27.4790945 ], [ 74.1914622, 27.4811821 ], [ 74.194008, 27.4825555 ], [ 74.1935797, 27.4885563 ], [ 74.1971964, 27.4902382 ], [ 74.1960516, 27.4987264 ], [ 74.2040621, 27.5032727 ], [ 74.2072271, 27.5066354 ], [ 74.2089955, 27.5063927 ], [ 74.2145088, 27.5105856 ], [ 74.216414, 27.5139049 ], [ 74.2191367, 27.5147553 ], [ 74.2193697, 27.5161739 ], [ 74.2254389, 27.517738 ], [ 74.226891, 27.5222101 ], [ 74.2385089, 27.5253571 ], [ 74.2361788, 27.5306479 ], [ 74.2391178, 27.5332504 ], [ 74.2375619, 27.5378639 ], [ 74.2407195, 27.5411131 ], [ 74.2407963, 27.545415 ], [ 74.2450614, 27.5467021 ], [ 74.243015, 27.5534255 ], [ 74.243552, 27.555622 ], [ 74.2478588, 27.55681 ], [ 74.2533641, 27.5612766 ], [ 74.2531685, 27.5624807 ], [ 74.2566521, 27.5633796 ], [ 74.2547454, 27.5749651 ], [ 74.2577189, 27.5764525 ], [ 74.2554872, 27.5858832 ], [ 74.2541524, 27.6012226 ], [ 74.264013, 27.6056084 ], [ 74.2685961, 27.6090089 ], [ 74.2678575, 27.6103501 ], [ 74.2749185, 27.6137859 ], [ 74.2755903, 27.6218058 ], [ 74.2788008, 27.6237002 ], [ 74.278603, 27.6252835 ], [ 74.2906194, 27.6306219 ], [ 74.3121291, 27.6368734 ], [ 74.3087408, 27.6453739 ], [ 74.3109631, 27.6466308 ], [ 74.3100753, 27.6491811 ], [ 74.3225138, 27.6533409 ], [ 74.3336796, 27.6610502 ], [ 74.3342943, 27.6675303 ], [ 74.3332686, 27.6736505 ], [ 74.3367626, 27.6743578 ], [ 74.3428443, 27.6781196 ], [ 74.3417206, 27.6811881 ], [ 74.3536844, 27.6858439 ], [ 74.3567808, 27.6843959 ], [ 74.362511, 27.6851581 ], [ 74.3672192, 27.6837895 ], [ 74.3672554, 27.6827921 ], [ 74.3716299, 27.6838953 ], [ 74.372398, 27.6828522 ], [ 74.3883739, 27.691806 ], [ 74.3909893, 27.694756 ], [ 74.3954037, 27.6970322 ], [ 74.3951754, 27.697961 ], [ 74.4037113, 27.7005257 ], [ 74.4098073, 27.6891276 ], [ 74.4151892, 27.6906806 ], [ 74.4153055, 27.6897874 ], [ 74.4185557, 27.6898146 ], [ 74.4340643, 27.6923117 ], [ 74.4397332, 27.6923573 ], [ 74.4398899, 27.6914642 ], [ 74.443141, 27.6933235 ], [ 74.4507864, 27.6946449 ], [ 74.4510208, 27.6934046 ], [ 74.4538085, 27.6936458 ], [ 74.4563952, 27.6874045 ], [ 74.4598646, 27.6882034 ], [ 74.4629999, 27.6816526 ], [ 74.4743625, 27.685903 ], [ 74.4919264, 27.6882209 ], [ 74.4950492, 27.6784601 ], [ 74.4946275, 27.6665151 ], [ 74.5265611, 27.6760998 ], [ 74.5385115, 27.6638123 ], [ 74.5431774, 27.66562 ], [ 74.5452058, 27.6638164 ], [ 74.5553149, 27.6651979 ], [ 74.5608423, 27.6676416 ], [ 74.5597769, 27.6696716 ], [ 74.5627163, 27.6696729 ], [ 74.5683396, 27.6737407 ], [ 74.5841556, 27.6915417 ], [ 74.5847642, 27.6909103 ], [ 74.5903389, 27.6942958 ], [ 74.5953302, 27.7006454 ], [ 74.6090519, 27.7076233 ] ] ] } }
]
}
