{
"type": "FeatureCollection",
"name": "0844",
"crs": { "type": "name", "properties": { "name": "urn:ogc:def:crs:OGC:1.3:CRS84" } },
"features": [
{ "type": "Feature", "properties": { "code": "0844", "name": "Khairthal-Tijara", "type": "district" }, "geometry": { "type": "Polygon", "coordinates": [ [ [ 76.8469302, 28.2214644 ], [ 76.8549752, 28.2201274 ], [ 76.8576084, 28.2211969 ], [ 76.8648977, 28.219181 ], [ 76.8675259, 28.2198398 ], [ 76.8749016, 28.2177691 ], [ 76.8727369, 28.215053 ], [ 76.8730578, 28.2110196 ], [ 76.8709952, 28.206589 ], [ 76.8727064, 28.2058041 ], [ 76.8789199, 28.2068191 ], [ 76.8888712, 28.2032045 ], [ 76.8908781, 28.2049639 ], [ 76.9067667, 28.2003095 ], [ 76.9061751, 28.1973048 ], [ 76.9020454, 28.198975 ], [ 76.8986422, 28.1933495 ], [ 76.8922614, 28.1932332 ], [ 76.8925195, 28.1835871 ], [ 76.9024533, 28.1811085 ], [ 76.9015004, 28.1786588 ], [ 76.907009, 28.1729598 ], [ 76.9065392, 28.1718856 ], [ 76.9197339, 28.1669009 ], [ 76.9275754, 28.1586596 ], [ 76.92703, 28.1574371 ], [ 76.931986, 28.1530452 ], [ 76.9509459, 28.1498822 ], [ 76.9481613, 28.1422138 ], [ 76.9579238, 28.1422217 ], [ 76.9705488, 28.138428 ], [ 76.9669122, 28.1297228 ], [ 76.9619453, 28.111273 ], [ 76.9614218, 28.0995788 ], [ 76.9579527, 28.0875119 ], [ 76.9579093, 28.0774506 ], [ 76.9545741, 28.0731257 ], [ 76.953844, 28.0625956 ], [ 76.9483935, 28.0579515 ], [ 76.9396009, 28.0429812 ], [ 76.936456, 28.0126587 ], [ 76.9309912, 27.993853 ], [ 76.9328523, 27.9890189 ], [ 76.9335108, 27.9816068 ], [ 76.9379388, 27.9828205 ], [ 76.9336576, 27.9712881 ], [ 76.9332967, 27.9617005 ], [ 76.9307374, 27.9532974 ], [ 76.9302603, 27.9400155 ], [ 76.9315381, 27.9223485 ], [ 76.9516199, 27.9180253 ], [ 76.9496023, 27.9092688 ], [ 76.9505731, 27.8956423 ], [ 76.9416309, 27.8970818 ], [ 76.937659, 27.8962218 ], [ 76.9374415, 27.8783847 ], [ 76.9412857, 27.8641809 ], [ 76.9414834, 27.8554999 ], [ 76.943, 27.8535725 ], [ 76.942318, 27.8426178 ], [ 76.935577, 27.8288657 ], [ 76.9150218, 27.8345387 ], [ 76.9099854, 27.8149039 ], [ 76.9140427, 27.8081078 ], [ 76.9178941, 27.8080705 ], [ 76.9191665, 27.8049884 ], [ 76.9181611, 27.8031975 ], [ 76.9136343, 27.8010061 ], [ 76.9115218, 27.7960885 ], [ 76.9133406, 27.7885892 ], [ 76.9090378, 27.7869073 ], [ 76.9061715, 27.7877834 ], [ 76.9076062, 27.7839794 ], [ 76.9063973, 27.7788856 ], [ 76.9020333, 27.7741625 ], [ 76.8966714, 27.7740145 ], [ 76.8949053, 27.7698367 ], [ 76.8847753, 27.7680014 ], [ 76.8737934, 27.7690712 ], [ 76.8703341, 27.7656691 ], [ 76.8599771, 27.7599787 ], [ 76.8500862, 27.7614663 ], [ 76.8482819, 27.7557583 ], [ 76.8384064, 27.7573218 ], [ 76.8391656, 27.7623754 ], [ 76.8365261, 27.7676492 ], [ 76.8234688, 27.7694769 ], [ 76.8241049, 27.7650644 ], [ 76.8295479, 27.7640466 ], [ 76.8287155, 27.7533393 ], [ 76.8211157, 27.7578937 ], [ 76.8205715, 27.7610925 ], [ 76.8184453, 27.762928 ], [ 76.8186505, 27.7684147 ], [ 76.8169411, 27.768405 ], [ 76.8152694, 27.7641991 ], [ 76.817062, 27.7602158 ], [ 76.8075279, 27.7484814 ], [ 76.8059497, 27.7435157 ], [ 76.8017088, 27.7391577 ], [ 76.8002416, 27.7399936 ], [ 76.7993153, 27.7330067 ], [ 76.7977099, 27.7300538 ], [ 76.7996426, 27.7282327 ], [ 76.7993616, 27.725944 ], [ 76.7933388, 27.7229491 ], [ 76.7886439, 27.7161643 ], [ 76.786264, 27.7082755 ], [ 76.77474, 27.6885863 ], [ 76.7869223, 27.6851941 ], [ 76.7865725, 27.681769 ], [ 76.7805996, 27.66917 ], [ 76.7774652, 27.6696751 ], [ 76.7741013, 27.6747949 ], [ 76.7575889, 27.689148 ], [ 76.7524128, 27.6877945 ], [ 76.7491477, 27.6840645 ], [ 76.7443356, 27.6857882 ], [ 76.7579781, 27.702301 ], [ 76.7581275, 27.7047827 ], [ 76.7563535, 27.7044158 ], [ 76.7526548, 27.7071423 ], [ 76.7486714, 27.7015308 ], [ 76.7365186, 27.7124239 ], [ 76.7336966, 27.7122472 ], [ 76.7234645, 27.7054932 ], [ 76.7167438, 27.7150398 ], [ 76.7124073, 27.7130267 ], [ 76.7106575, 27.7149482 ], [ 76.7041739, 27.7157587 ], [ 76.6959716, 27.715425 ], [ 76.6885242, 27.7134303 ], [ 76.6864726, 27.7141527 ], [ 76.6812626, 27.7040582 ], [ 76.6753889, 27.6995896 ], [ 76.6697051, 27.6980748 ], [ 76.6687801, 27.6962004 ], [ 76.666774, 27.6966341 ], [ 76.660813, 27.6881774 ], [ 76.6552932, 27.6840062 ], [ 76.6465479, 27.6824853 ], [ 76.641887, 27.6766412 ], [ 76.6403825, 27.6726232 ], [ 76.6357859, 27.6754097 ], [ 76.630053, 27.6720115 ], [ 76.6260113, 27.6753082 ], [ 76.6206289, 27.6774291 ], [ 76.6220641, 27.6802193 ], [ 76.6213465, 27.681744 ], [ 76.6172815, 27.6841924 ], [ 76.6112458, 27.6850209 ], [ 76.6111744, 27.6860281 ], [ 76.6119214, 27.6875805 ], [ 76.6209378, 27.6890821 ], [ 76.6263314, 27.7020428 ], [ 76.6308949, 27.7010325 ], [ 76.6514108, 27.7401992 ], [ 76.6417049, 27.7410007 ], [ 76.6285932, 27.7457407 ], [ 76.6307701, 27.7512346 ], [ 76.6234364, 27.75604 ], [ 76.6160769, 27.7582236 ], [ 76.6122274, 27.7556244 ], [ 76.6107719, 27.7486362 ], [ 76.6126382, 27.7485758 ], [ 76.6088636, 27.7401171 ], [ 76.6073229, 27.7404779 ], [ 76.6003609, 27.7353388 ], [ 76.5937417, 27.7290341 ], [ 76.5918093, 27.7241373 ], [ 76.5856151, 27.7201379 ], [ 76.5805903, 27.7226503 ], [ 76.573555, 27.7236105 ], [ 76.5661568, 27.7201248 ], [ 76.5619451, 27.7199377 ], [ 76.5575981, 27.7105909 ], [ 76.5528107, 27.7069667 ], [ 76.5505527, 27.7018225 ], [ 76.5460146, 27.7030589 ], [ 76.5359378, 27.6966077 ], [ 76.5350558, 27.6936847 ], [ 76.5281509, 27.6853233 ], [ 76.5228783, 27.6885449 ], [ 76.5220538, 27.6872183 ], [ 76.5174701, 27.6891783 ], [ 76.5171759, 27.6905684 ], [ 76.5183325, 27.6999683 ], [ 76.5155976, 27.7052047 ], [ 76.5189182, 27.7095472 ], [ 76.5188849, 27.7147662 ], [ 76.5163696, 27.7157748 ], [ 76.5184639, 27.7184004 ], [ 76.5121006, 27.7193452 ], [ 76.511805, 27.7215537 ], [ 76.5086301, 27.7214 ], [ 76.5074647, 27.7339138 ], [ 76.5012137, 27.7352183 ], [ 76.4976819, 27.734405 ], [ 76.4962052, 27.7380159 ], [ 76.4989544, 27.7428115 ], [ 76.5064555, 27.7491669 ], [ 76.5089395, 27.7546563 ], [ 76.4945529, 27.7655857 ], [ 76.4968051, 27.7700066 ], [ 76.4842968, 27.7754713 ], [ 76.4823123, 27.7705644 ], [ 76.4793106, 27.7718286 ], [ 76.4829859, 27.7783285 ], [ 76.4802777, 27.7791744 ], [ 76.4858707, 27.7912225 ], [ 76.4835241, 27.7918119 ], [ 76.4840516, 27.7936655 ], [ 76.4701275, 27.7975015 ], [ 76.4686722, 27.8009874 ], [ 76.4695335, 27.8046473 ], [ 76.4666027, 27.8112763 ], [ 76.4598382, 27.8132615 ], [ 76.4603731, 27.8179628 ], [ 76.4543595, 27.8203414 ], [ 76.4536692, 27.827583 ], [ 76.4437228, 27.8305124 ], [ 76.4420083, 27.8290727 ], [ 76.4412161, 27.8159889 ], [ 76.4379065, 27.805955 ], [ 76.4330594, 27.8055586 ], [ 76.4286553, 27.8033251 ], [ 76.4224956, 27.8030593 ], [ 76.4118928, 27.7983031 ], [ 76.4117122, 27.7964952 ], [ 76.4094218, 27.7955889 ], [ 76.3969027, 27.8011949 ], [ 76.4013193, 27.812365 ], [ 76.4008254, 27.8173839 ], [ 76.40291, 27.8267568 ], [ 76.3992189, 27.8305469 ], [ 76.3931255, 27.8329098 ], [ 76.3868354, 27.8313034 ], [ 76.3846034, 27.8318358 ], [ 76.3847406, 27.834646 ], [ 76.3817452, 27.8354342 ], [ 76.3810627, 27.8336539 ], [ 76.3748995, 27.834451 ], [ 76.3735532, 27.8299424 ], [ 76.3752307, 27.8281114 ], [ 76.3752538, 27.8255117 ], [ 76.3721703, 27.8160515 ], [ 76.3686484, 27.8148995 ], [ 76.3620023, 27.8180025 ], [ 76.3659807, 27.824805 ], [ 76.3670204, 27.8243253 ], [ 76.36807, 27.8266617 ], [ 76.370017, 27.8260738 ], [ 76.3718447, 27.829314 ], [ 76.371636, 27.831699 ], [ 76.3699864, 27.8325277 ], [ 76.3673674, 27.8301437 ], [ 76.3697443, 27.8338659 ], [ 76.3708281, 27.8352768 ], [ 76.3736637, 27.8350906 ], [ 76.3747251, 27.8367273 ], [ 76.371903, 27.8371841 ], [ 76.3686502, 27.8356775 ], [ 76.3587151, 27.8405911 ], [ 76.3578521, 27.8389659 ], [ 76.3602301, 27.8378999 ], [ 76.3599523, 27.8343509 ], [ 76.3507678, 27.8347119 ], [ 76.354466, 27.8438913 ], [ 76.3434326, 27.8508364 ], [ 76.3413993, 27.8540477 ], [ 76.3440894, 27.8591019 ], [ 76.3624754, 27.8598418 ], [ 76.3802256, 27.8586694 ], [ 76.3882627, 27.8566615 ], [ 76.4013431, 27.8491768 ], [ 76.402967, 27.8501039 ], [ 76.403983, 27.8536949 ], [ 76.4094683, 27.8616585 ], [ 76.4114898, 27.8616965 ], [ 76.4133193, 27.8645435 ], [ 76.4151854, 27.8724587 ], [ 76.4122334, 27.8740093 ], [ 76.4127073, 27.8756968 ], [ 76.4088433, 27.877722 ], [ 76.4101785, 27.8823883 ], [ 76.4063556, 27.8840746 ], [ 76.4062713, 27.888954 ], [ 76.3913199, 27.9006183 ], [ 76.3955055, 27.9112942 ], [ 76.3984974, 27.9124462 ], [ 76.4000844, 27.9149619 ], [ 76.4016044, 27.9217384 ], [ 76.400872, 27.9235703 ], [ 76.4036545, 27.9294076 ], [ 76.4041229, 27.9373433 ], [ 76.4028309, 27.9393446 ], [ 76.4107996, 27.9636159 ], [ 76.422605, 27.9634249 ], [ 76.4248672, 27.9624108 ], [ 76.4301653, 27.9681294 ], [ 76.4311059, 27.972068 ], [ 76.4469886, 27.9699244 ], [ 76.4500388, 27.9731986 ], [ 76.4596432, 27.9726666 ], [ 76.4608413, 27.9760157 ], [ 76.4665768, 27.97524 ], [ 76.4704711, 27.9883984 ], [ 76.4717569, 27.9882679 ], [ 76.4752339, 27.9927361 ], [ 76.4815421, 28.0087987 ], [ 76.477973, 28.0137735 ], [ 76.4843945, 28.0241458 ], [ 76.4889737, 28.0272236 ], [ 76.4914748, 28.0267703 ], [ 76.4951947, 28.0295373 ], [ 76.5012503, 28.0299375 ], [ 76.5025744, 28.0314326 ], [ 76.5100712, 28.0296614 ], [ 76.5175494, 28.0310209 ], [ 76.5227739, 28.0337591 ], [ 76.5303702, 28.0402435 ], [ 76.5438199, 28.0342061 ], [ 76.5409603, 28.030049 ], [ 76.5392725, 28.023199 ], [ 76.5428051, 28.017769 ], [ 76.5454616, 28.0072895 ], [ 76.5440534, 28.007415 ], [ 76.5407175, 28.0021702 ], [ 76.5363937, 28.0000007 ], [ 76.5427478, 27.9994843 ], [ 76.5410918, 27.9847791 ], [ 76.5359525, 27.9795151 ], [ 76.5380863, 27.9676954 ], [ 76.5447159, 27.9636748 ], [ 76.561687, 27.966129 ], [ 76.5644194, 27.9781047 ], [ 76.5803926, 27.9789049 ], [ 76.5837422, 27.9916654 ], [ 76.5879858, 27.9932953 ], [ 76.5898853, 27.9978574 ], [ 76.595177, 27.9976871 ], [ 76.6018559, 27.9995202 ], [ 76.6061861, 28.0038458 ], [ 76.6406772, 28.002321 ], [ 76.6591826, 28.0081018 ], [ 76.6681832, 28.014285 ], [ 76.6653913, 28.025588 ], [ 76.6630235, 28.0298523 ], [ 76.6595059, 28.0328988 ], [ 76.654391, 28.0346821 ], [ 76.6586497, 28.0429198 ], [ 76.6585696, 28.0469218 ], [ 76.6555862, 28.0531172 ], [ 76.6519202, 28.0563304 ], [ 76.6516468, 28.0616228 ], [ 76.6555775, 28.0757395 ], [ 76.6572654, 28.089297 ], [ 76.663371, 28.0912039 ], [ 76.6873569, 28.0876532 ], [ 76.6880045, 28.0902336 ], [ 76.6849985, 28.0915795 ], [ 76.6981894, 28.1119799 ], [ 76.7030203, 28.1075962 ], [ 76.7120565, 28.1254529 ], [ 76.7157582, 28.1277379 ], [ 76.7433198, 28.1212288 ], [ 76.7531262, 28.1351146 ], [ 76.7624478, 28.1426391 ], [ 76.7714803, 28.1450104 ], [ 76.7763676, 28.1441071 ], [ 76.7820609, 28.1470662 ], [ 76.7838086, 28.1509115 ], [ 76.7900804, 28.1504507 ], [ 76.7948108, 28.1483826 ], [ 76.8006297, 28.1623408 ], [ 76.8002871, 28.1644611 ], [ 76.7960648, 28.1669267 ], [ 76.7974333, 28.1684388 ], [ 76.7950193, 28.1693895 ], [ 76.7957292, 28.180421 ], [ 76.7924879, 28.1841909 ], [ 76.7975235, 28.1918142 ], [ 76.8003645, 28.192488 ], [ 76.8012335, 28.1877377 ], [ 76.8062246, 28.1865356 ], [ 76.8091572, 28.1870378 ], [ 76.812251, 28.1909103 ], [ 76.8123768, 28.1935858 ], [ 76.8047765, 28.1972954 ], [ 76.8056211, 28.1985319 ], [ 76.8048024, 28.2045412 ], [ 76.8083992, 28.2108638 ], [ 76.8127907, 28.2090026 ], [ 76.8312124, 28.2091675 ], [ 76.8381763, 28.2199526 ], [ 76.8412475, 28.2207383 ], [ 76.8460563, 28.2195348 ], [ 76.8469302, 28.2214644 ] ] ] } }
]
}
