{
"type": "FeatureCollection",
"name": "0911",
"crs": { "type": "name", "properties": { "name": "urn:ogc:def:crs:OGC:1.3:CRS84" } },
"features": [
{ "type": "Feature", "properties": { "code": "0911", "name": "Bulandshahr", "type": "district" }, "geometry": { "type": "Polygon", "coordinates": [ [ [ 77.9629166, 28.7153555 ], [ 77.9670506, 28.7142772 ], [ 77.9708918, 28.7109598 ], [ 77.9724413, 28.7124056 ], [ 77.9755205, 28.7085004 ], [ 77.9782243, 28.7087525 ], [ 77.9831151, 28.7039998 ], [ 77.9829434, 28.70177 ], [ 77.9866024, 28.698307 ], [ 77.9898241, 28.7009167 ], [ 77.9994903, 28.7009134 ], [ 78.0031984, 28.698424 ], [ 78.0089586, 28.6995631 ], [ 78.012879, 28.693577 ], [ 78.0131218, 28.6917258 ], [ 78.011422, 28.6891565 ], [ 78.0183839, 28.683332 ], [ 78.0207046, 28.6860097 ], [ 78.0323339, 28.6794457 ], [ 78.0368883, 28.6788974 ], [ 78.0519017, 28.6721646 ], [ 78.054028, 28.6730622 ], [ 78.068142, 28.6663959 ], [ 78.0713681, 28.6723153 ], [ 78.0735085, 28.6729692 ], [ 78.0746728, 28.6753647 ], [ 78.0794763, 28.6740404 ], [ 78.0839303, 28.671817 ], [ 78.0875085, 28.6677117 ], [ 78.0866802, 28.665864 ], [ 78.0901396, 28.6629505 ], [ 78.0870557, 28.6567075 ], [ 78.089023, 28.6547798 ], [ 78.1037626, 28.6472686 ], [ 78.1129195, 28.6446055 ], [ 78.1198899, 28.6441213 ], [ 78.1301743, 28.635334 ], [ 78.134946, 28.6420711 ], [ 78.1408322, 28.6459946 ], [ 78.1476583, 28.6424839 ], [ 78.1516852, 28.6454837 ], [ 78.1676019, 28.6349527 ], [ 78.172479, 28.6291294 ], [ 78.1753544, 28.6308466 ], [ 78.1820453, 28.6294647 ], [ 78.1842901, 28.6273343 ], [ 78.2105639, 28.6268366 ], [ 78.2066461, 28.6203124 ], [ 78.2009519, 28.6198782 ], [ 78.1985376, 28.6104634 ], [ 78.199121, 28.6037313 ], [ 78.2044575, 28.6025542 ], [ 78.2057787, 28.596581 ], [ 78.2031109, 28.5811488 ], [ 78.2043596, 28.5773912 ], [ 78.2001483, 28.5707019 ], [ 78.1996832, 28.5635424 ], [ 78.2048896, 28.5489363 ], [ 78.2034062, 28.5451236 ], [ 78.2093755, 28.5293284 ], [ 78.2151209, 28.5230942 ], [ 78.2162019, 28.5193447 ], [ 78.2214209, 28.5151661 ], [ 78.2333521, 28.5101363 ], [ 78.2446646, 28.5098858 ], [ 78.2500492, 28.511386 ], [ 78.2549247, 28.5047748 ], [ 78.2558054, 28.5053007 ], [ 78.2601971, 28.5013165 ], [ 78.2629678, 28.5009791 ], [ 78.2617149, 28.4966633 ], [ 78.2691327, 28.4892949 ], [ 78.2607832, 28.4833173 ], [ 78.2589213, 28.4806051 ], [ 78.2547417, 28.4794811 ], [ 78.2558716, 28.4644805 ], [ 78.258041, 28.4600094 ], [ 78.2641761, 28.4555187 ], [ 78.2722994, 28.4562291 ], [ 78.2769861, 28.4536387 ], [ 78.2894029, 28.4506163 ], [ 78.3050193, 28.4363777 ], [ 78.3110521, 28.4234449 ], [ 78.3114416, 28.4136445 ], [ 78.3080011, 28.4093885 ], [ 78.3073274, 28.4065646 ], [ 78.303118, 28.4037583 ], [ 78.2990525, 28.3968332 ], [ 78.2852488, 28.3932002 ], [ 78.2795906, 28.3895492 ], [ 78.2766139, 28.3807904 ], [ 78.271943, 28.3744433 ], [ 78.2656955, 28.3801955 ], [ 78.2605949, 28.3788877 ], [ 78.258667, 28.3765549 ], [ 78.2584856, 28.3739522 ], [ 78.2598891, 28.3670321 ], [ 78.2694965, 28.357456 ], [ 78.2837346, 28.3471415 ], [ 78.2874707, 28.3324117 ], [ 78.3008844, 28.3192764 ], [ 78.3028583, 28.3127518 ], [ 78.303021, 28.3062962 ], [ 78.3040972, 28.3051808 ], [ 78.3034719, 28.3025117 ], [ 78.3057289, 28.2999284 ], [ 78.3058078, 28.2959631 ], [ 78.3124095, 28.2886643 ], [ 78.3127891, 28.2845916 ], [ 78.3088029, 28.281268 ], [ 78.3129781, 28.2743078 ], [ 78.3162622, 28.2713927 ], [ 78.3208399, 28.2697065 ], [ 78.3349893, 28.2698551 ], [ 78.3464075, 28.2717639 ], [ 78.3544888, 28.2697982 ], [ 78.3588907, 28.2591379 ], [ 78.3675404, 28.2541887 ], [ 78.36749, 28.252321 ], [ 78.3654121, 28.2509186 ], [ 78.3668773, 28.2438224 ], [ 78.3662413, 28.239271 ], [ 78.3687484, 28.2349649 ], [ 78.3722935, 28.2319001 ], [ 78.3767333, 28.2251912 ], [ 78.3826388, 28.2224651 ], [ 78.382221, 28.2188296 ], [ 78.3880496, 28.2150776 ], [ 78.3934542, 28.2135793 ], [ 78.395916, 28.211134 ], [ 78.3997074, 28.1985377 ], [ 78.3964697, 28.1909334 ], [ 78.3984244, 28.1850385 ], [ 78.4014675, 28.1814439 ], [ 78.4126044, 28.1719427 ], [ 78.4332452, 28.1665411 ], [ 78.4348448, 28.1652062 ], [ 78.4347163, 28.1604685 ], [ 78.4425868, 28.1565308 ], [ 78.4462717, 28.1524653 ], [ 78.456799, 28.1521401 ], [ 78.4606047, 28.1481573 ], [ 78.4621721, 28.1308155 ], [ 78.4661969, 28.1277549 ], [ 78.4664847, 28.1230857 ], [ 78.4774771, 28.1130567 ], [ 78.4519709, 28.0901471 ], [ 78.4446577, 28.0816858 ], [ 78.4307846, 28.0881976 ], [ 78.4296037, 28.0876681 ], [ 78.424342, 28.0934671 ], [ 78.4123561, 28.0832399 ], [ 78.4067242, 28.0894706 ], [ 78.4010526, 28.0872863 ], [ 78.3980422, 28.091751 ], [ 78.3991472, 28.0931737 ], [ 78.396704, 28.0952086 ], [ 78.394463, 28.0945454 ], [ 78.3935144, 28.0958057 ], [ 78.3934971, 28.0972318 ], [ 78.3955522, 28.0978889 ], [ 78.3950323, 28.0991721 ], [ 78.3926594, 28.0997865 ], [ 78.3875757, 28.1048596 ], [ 78.383588, 28.1052938 ], [ 78.3770742, 28.0990172 ], [ 78.3773853, 28.0975111 ], [ 78.376263, 28.0978158 ], [ 78.3710014, 28.0936021 ], [ 78.3658024, 28.0979611 ], [ 78.365597, 28.1006085 ], [ 78.3667432, 28.1034105 ], [ 78.3691742, 28.1044811 ], [ 78.369363, 28.1078478 ], [ 78.3739236, 28.1122559 ], [ 78.367911, 28.1204204 ], [ 78.3675522, 28.1221026 ], [ 78.3695902, 28.1231864 ], [ 78.3689347, 28.1243761 ], [ 78.3706418, 28.1267586 ], [ 78.3677371, 28.1294316 ], [ 78.3687705, 28.1304814 ], [ 78.3659071, 28.1343323 ], [ 78.3629752, 28.1331701 ], [ 78.3627923, 28.1348524 ], [ 78.3602481, 28.1370168 ], [ 78.3565729, 28.1367987 ], [ 78.3485015, 28.1454109 ], [ 78.3445826, 28.1421135 ], [ 78.3394488, 28.1465804 ], [ 78.3351984, 28.1451583 ], [ 78.3323666, 28.1423591 ], [ 78.3311724, 28.1369957 ], [ 78.3253777, 28.1288046 ], [ 78.3225216, 28.1304903 ], [ 78.3192979, 28.1298149 ], [ 78.3175365, 28.1282918 ], [ 78.3161776, 28.1240114 ], [ 78.313174, 28.1217006 ], [ 78.3114488, 28.1212344 ], [ 78.3080208, 28.1231916 ], [ 78.2991643, 28.1164275 ], [ 78.2977885, 28.1172654 ], [ 78.2952929, 28.1137855 ], [ 78.2904867, 28.1181507 ], [ 78.2841711, 28.1132803 ], [ 78.2758049, 28.111357 ], [ 78.2738924, 28.1163704 ], [ 78.2689453, 28.1178982 ], [ 78.2635676, 28.1154453 ], [ 78.2580528, 28.1154414 ], [ 78.25777, 28.1113016 ], [ 78.2497112, 28.1082296 ], [ 78.2453641, 28.1112079 ], [ 78.233362, 28.112476 ], [ 78.2269381, 28.109744 ], [ 78.2262865, 28.1081153 ], [ 78.2274846, 28.1075147 ], [ 78.2264325, 28.1065899 ], [ 78.2282549, 28.1032729 ], [ 78.2249342, 28.1008273 ], [ 78.2218559, 28.1013281 ], [ 78.2160163, 28.0987596 ], [ 78.2139641, 28.0970206 ], [ 78.2131268, 28.0935007 ], [ 78.2097814, 28.0940612 ], [ 78.2092897, 28.0961652 ], [ 78.2086016, 28.0946304 ], [ 78.2057787, 28.0958894 ], [ 78.2061134, 28.0997816 ], [ 78.203842, 28.1009524 ], [ 78.195594, 28.0943101 ], [ 78.1799754, 28.0770196 ], [ 78.1776333, 28.0769613 ], [ 78.174771, 28.0748503 ], [ 78.1728949, 28.0756946 ], [ 78.1701652, 28.0742306 ], [ 78.1645486, 28.0747641 ], [ 78.1619613, 28.0756945 ], [ 78.1587518, 28.0803015 ], [ 78.1513131, 28.0731937 ], [ 78.1495313, 28.0748575 ], [ 78.1481925, 28.0693791 ], [ 78.1439325, 28.0658186 ], [ 78.1375804, 28.0633198 ], [ 78.1353428, 28.0598458 ], [ 78.1257867, 28.059198 ], [ 78.1194469, 28.061831 ], [ 78.1132806, 28.0670555 ], [ 78.1128295, 28.0687189 ], [ 78.1156474, 28.0737036 ], [ 78.1210365, 28.0788681 ], [ 78.1200256, 28.0823511 ], [ 78.1214965, 28.0836909 ], [ 78.1198391, 28.08767 ], [ 78.112466, 28.0963198 ], [ 78.1052348, 28.0990516 ], [ 78.1049067, 28.103125 ], [ 78.0992307, 28.109795 ], [ 78.0902839, 28.1027296 ], [ 78.0860391, 28.1016868 ], [ 78.08311, 28.1028321 ], [ 78.0809557, 28.100917 ], [ 78.0779142, 28.1012896 ], [ 78.0775875, 28.1075197 ], [ 78.0813146, 28.1110752 ], [ 78.0820724, 28.1125957 ], [ 78.0811032, 28.1132766 ], [ 78.0837464, 28.1168977 ], [ 78.0804903, 28.1196605 ], [ 78.0769528, 28.1187677 ], [ 78.0715463, 28.1124368 ], [ 78.0612209, 28.1130668 ], [ 78.0594918, 28.1180832 ], [ 78.0513218, 28.1250672 ], [ 78.0467162, 28.1220827 ], [ 78.0365224, 28.1278446 ], [ 78.0318348, 28.1289516 ], [ 78.0270242, 28.127727 ], [ 78.0202905, 28.1234795 ], [ 78.0207203, 28.122131 ], [ 78.0170309, 28.1185273 ], [ 78.018487, 28.1162786 ], [ 78.0178704, 28.1137364 ], [ 78.0206956, 28.1124807 ], [ 78.0214698, 28.11068 ], [ 78.0091761, 28.0988927 ], [ 78.0018334, 28.0940147 ], [ 78.0049015, 28.0841982 ], [ 77.9937552, 28.077827 ], [ 77.9901377, 28.0786212 ], [ 77.9872216, 28.082908 ], [ 77.9792008, 28.0872824 ], [ 77.9733065, 28.0848189 ], [ 77.966723, 28.0850213 ], [ 77.9604004, 28.0906122 ], [ 77.9539561, 28.0855337 ], [ 77.9522117, 28.0876275 ], [ 77.9481737, 28.0882367 ], [ 77.9465941, 28.0871293 ], [ 77.9441026, 28.088209 ], [ 77.938673, 28.0851571 ], [ 77.9367351, 28.0867186 ], [ 77.9343819, 28.0852083 ], [ 77.9332391, 28.0867241 ], [ 77.9320704, 28.0858261 ], [ 77.9313567, 28.0869713 ], [ 77.9347689, 28.0898558 ], [ 77.9352624, 28.0957328 ], [ 77.9235675, 28.1044097 ], [ 77.9150539, 28.099076 ], [ 77.9031815, 28.1134468 ], [ 77.9042902, 28.1143122 ], [ 77.9012504, 28.1149278 ], [ 77.8993334, 28.1171139 ], [ 77.8954513, 28.1145938 ], [ 77.8946249, 28.1158468 ], [ 77.8913842, 28.1150357 ], [ 77.8816437, 28.1250751 ], [ 77.8728, 28.1284271 ], [ 77.8680622, 28.1349505 ], [ 77.8688827, 28.1354464 ], [ 77.8640388, 28.14057 ], [ 77.8537633, 28.1414874 ], [ 77.8529195, 28.1394939 ], [ 77.8477969, 28.1359002 ], [ 77.8425654, 28.1375199 ], [ 77.8387091, 28.142281 ], [ 77.839776, 28.1452544 ], [ 77.8420102, 28.1487875 ], [ 77.8496035, 28.1549521 ], [ 77.849752, 28.1567664 ], [ 77.8486471, 28.16061 ], [ 77.8426671, 28.1641238 ], [ 77.8431544, 28.1665129 ], [ 77.8474893, 28.1720529 ], [ 77.8398898, 28.1797205 ], [ 77.8366009, 28.1749287 ], [ 77.8298109, 28.1706297 ], [ 77.8243879, 28.1723496 ], [ 77.8223449, 28.1700537 ], [ 77.8231412, 28.1670717 ], [ 77.8221264, 28.1664824 ], [ 77.8187584, 28.1673123 ], [ 77.8143662, 28.1646095 ], [ 77.8053951, 28.1627187 ], [ 77.8069746, 28.1567039 ], [ 77.8096607, 28.1528585 ], [ 77.8077743, 28.1508881 ], [ 77.8085817, 28.1479252 ], [ 77.8045145, 28.1480577 ], [ 77.7930581, 28.145293 ], [ 77.7852928, 28.1487548 ], [ 77.7822972, 28.1480076 ], [ 77.7788762, 28.1453511 ], [ 77.7786075, 28.1433705 ], [ 77.7726362, 28.136558 ], [ 77.7663434, 28.1413418 ], [ 77.7657085, 28.1459929 ], [ 77.7621636, 28.148271 ], [ 77.7610291, 28.1518609 ], [ 77.762082, 28.1533195 ], [ 77.7594433, 28.1578221 ], [ 77.7606355, 28.159445 ], [ 77.7542592, 28.1608512 ], [ 77.7432477, 28.1519826 ], [ 77.745034, 28.1463508 ], [ 77.7415889, 28.1365044 ], [ 77.7320283, 28.1314407 ], [ 77.7254121, 28.1341018 ], [ 77.7244269, 28.1369087 ], [ 77.72002, 28.1370016 ], [ 77.7193384, 28.1451328 ], [ 77.7232104, 28.1495149 ], [ 77.7289534, 28.1511896 ], [ 77.7320825, 28.1553336 ], [ 77.7319367, 28.1574812 ], [ 77.7252524, 28.1632874 ], [ 77.7190104, 28.1622536 ], [ 77.7157695, 28.1649172 ], [ 77.7066918, 28.1637176 ], [ 77.707896, 28.1679397 ], [ 77.7127274, 28.1751644 ], [ 77.7076334, 28.1786364 ], [ 77.7067796, 28.181028 ], [ 77.7096796, 28.1854475 ], [ 77.7130062, 28.1877781 ], [ 77.7131152, 28.1907735 ], [ 77.7201053, 28.2026748 ], [ 77.7249203, 28.2060822 ], [ 77.7282545, 28.2105429 ], [ 77.7222329, 28.2144161 ], [ 77.7197474, 28.2141875 ], [ 77.7153592, 28.2167976 ], [ 77.7152988, 28.224683 ], [ 77.7142416, 28.2277647 ], [ 77.7112076, 28.2301212 ], [ 77.7143482, 28.2343823 ], [ 77.7139416, 28.2355464 ], [ 77.7074154, 28.2337681 ], [ 77.6982999, 28.2374355 ], [ 77.6967531, 28.240382 ], [ 77.6975745, 28.2424792 ], [ 77.6967115, 28.2476852 ], [ 77.690986, 28.2564181 ], [ 77.6969009, 28.2626727 ], [ 77.6907896, 28.2765131 ], [ 77.6881312, 28.279853 ], [ 77.6971813, 28.2853167 ], [ 77.7045685, 28.2878751 ], [ 77.7101834, 28.2919232 ], [ 77.7127559, 28.2902206 ], [ 77.7241218, 28.2951801 ], [ 77.7253524, 28.2974847 ], [ 77.7243758, 28.2997818 ], [ 77.7251658, 28.3050599 ], [ 77.7234343, 28.3068207 ], [ 77.7379186, 28.3178765 ], [ 77.734944, 28.3205589 ], [ 77.7329149, 28.3256811 ], [ 77.7257278, 28.3317253 ], [ 77.7211596, 28.3282256 ], [ 77.7160646, 28.3326731 ], [ 77.7163003, 28.334085 ], [ 77.7132699, 28.3382647 ], [ 77.7161641, 28.3416104 ], [ 77.7127195, 28.3448882 ], [ 77.7163322, 28.3472635 ], [ 77.7153167, 28.3525788 ], [ 77.7165107, 28.353354 ], [ 77.7070396, 28.359328 ], [ 77.6960915, 28.3627685 ], [ 77.6869118, 28.3733347 ], [ 77.6801656, 28.3778988 ], [ 77.6768141, 28.3779768 ], [ 77.6721022, 28.3814796 ], [ 77.6674341, 28.3805066 ], [ 77.6727646, 28.3909131 ], [ 77.6689948, 28.3921685 ], [ 77.6695107, 28.3934993 ], [ 77.6670981, 28.3948536 ], [ 77.6674322, 28.4009983 ], [ 77.6706692, 28.4059103 ], [ 77.6732463, 28.4065501 ], [ 77.6820332, 28.4138133 ], [ 77.6829187, 28.4193864 ], [ 77.6748218, 28.4255482 ], [ 77.6725457, 28.4265184 ], [ 77.666569, 28.4245716 ], [ 77.6607118, 28.4288863 ], [ 77.667201, 28.4351781 ], [ 77.6719328, 28.436178 ], [ 77.6733984, 28.4378062 ], [ 77.6726074, 28.4381764 ], [ 77.6777896, 28.4413867 ], [ 77.6775661, 28.4434531 ], [ 77.6747946, 28.443788 ], [ 77.6759136, 28.4460705 ], [ 77.6632826, 28.4529458 ], [ 77.6610461, 28.451056 ], [ 77.6611375, 28.4498739 ], [ 77.6625875, 28.4507217 ], [ 77.6676757, 28.447923 ], [ 77.6673174, 28.4453606 ], [ 77.6627166, 28.4405526 ], [ 77.6591382, 28.4394708 ], [ 77.6562587, 28.436927 ], [ 77.6557118, 28.4345135 ], [ 77.6579876, 28.4326676 ], [ 77.6591968, 28.4282185 ], [ 77.6567706, 28.4250795 ], [ 77.6467129, 28.4305315 ], [ 77.6446913, 28.4279648 ], [ 77.6368112, 28.4267701 ], [ 77.6328203, 28.427411 ], [ 77.6301207, 28.4305739 ], [ 77.6311059, 28.4344266 ], [ 77.6380528, 28.4390828 ], [ 77.6417652, 28.4480283 ], [ 77.649521, 28.4568714 ], [ 77.6486894, 28.4582402 ], [ 77.6512838, 28.4617957 ], [ 77.645796, 28.4666346 ], [ 77.6423127, 28.4674679 ], [ 77.6400611, 28.4677367 ], [ 77.634598, 28.4648074 ], [ 77.6321068, 28.467403 ], [ 77.6311898, 28.4745317 ], [ 77.6240683, 28.4759686 ], [ 77.6215904, 28.4750354 ], [ 77.6229085, 28.4788069 ], [ 77.6370177, 28.4894491 ], [ 77.6387845, 28.4890789 ], [ 77.6450102, 28.493346 ], [ 77.6506119, 28.4915991 ], [ 77.6528953, 28.4942604 ], [ 77.6532587, 28.4973327 ], [ 77.655439, 28.4961412 ], [ 77.6626562, 28.4998524 ], [ 77.6683599, 28.4973738 ], [ 77.6674122, 28.5026527 ], [ 77.6703254, 28.505651 ], [ 77.6760173, 28.507102 ], [ 77.6778251, 28.5104249 ], [ 77.6806342, 28.509622 ], [ 77.6861376, 28.5116816 ], [ 77.6866739, 28.5126336 ], [ 77.6835734, 28.5164931 ], [ 77.6849167, 28.5225747 ], [ 77.6873718, 28.5268216 ], [ 77.685711, 28.5280381 ], [ 77.6909778, 28.5321796 ], [ 77.6926025, 28.5352248 ], [ 77.6879, 28.5387552 ], [ 77.6896909, 28.547345 ], [ 77.6884034, 28.5485 ], [ 77.6893001, 28.5514076 ], [ 77.6853785, 28.555865 ], [ 77.686615, 28.556747 ], [ 77.6903988, 28.5558673 ], [ 77.6914106, 28.5569026 ], [ 77.6957053, 28.5561873 ], [ 77.6964872, 28.5572655 ], [ 77.7002938, 28.5556703 ], [ 77.704563, 28.5556405 ], [ 77.7122152, 28.5570694 ], [ 77.7151605, 28.555359 ], [ 77.7198289, 28.5495382 ], [ 77.7340586, 28.5607676 ], [ 77.7478647, 28.5589169 ], [ 77.7491211, 28.5622548 ], [ 77.7482426, 28.5631473 ], [ 77.7521901, 28.5666875 ], [ 77.7506776, 28.5704283 ], [ 77.75418, 28.5741042 ], [ 77.7525809, 28.5748917 ], [ 77.7536468, 28.5761332 ], [ 77.7526866, 28.5806823 ], [ 77.7551576, 28.5831136 ], [ 77.7575467, 28.5827009 ], [ 77.7583003, 28.5845161 ], [ 77.7609071, 28.5828185 ], [ 77.7645097, 28.5889715 ], [ 77.7682443, 28.5891074 ], [ 77.7718204, 28.587124 ], [ 77.7781766, 28.5870956 ], [ 77.782816, 28.5927376 ], [ 77.7859284, 28.5945682 ], [ 77.7847811, 28.5950635 ], [ 77.7878684, 28.5991623 ], [ 77.7871873, 28.6019563 ], [ 77.7895118, 28.6067993 ], [ 77.7902692, 28.6063967 ], [ 77.7946806, 28.6118863 ], [ 77.7959409, 28.617182 ], [ 77.7980064, 28.6161485 ], [ 77.8044305, 28.6240696 ], [ 77.8150882, 28.6282494 ], [ 77.8173624, 28.625965 ], [ 77.8214205, 28.6288895 ], [ 77.8279317, 28.6286814 ], [ 77.8341513, 28.6341458 ], [ 77.838319, 28.6327956 ], [ 77.8482914, 28.6424522 ], [ 77.8480789, 28.64573 ], [ 77.8550884, 28.6550863 ], [ 77.8655007, 28.6481728 ], [ 77.8673234, 28.6443768 ], [ 77.8722136, 28.6463285 ], [ 77.8747455, 28.6426202 ], [ 77.8919849, 28.6357369 ], [ 77.894715, 28.6333234 ], [ 77.9018051, 28.6337376 ], [ 77.9017305, 28.6381581 ], [ 77.8996085, 28.640469 ], [ 77.9112476, 28.6511113 ], [ 77.9083645, 28.6541268 ], [ 77.9040834, 28.6540011 ], [ 77.9003011, 28.6569091 ], [ 77.8991642, 28.6613957 ], [ 77.900906, 28.6659698 ], [ 77.9047869, 28.6695668 ], [ 77.9104302, 28.667264 ], [ 77.9150855, 28.6708862 ], [ 77.9114081, 28.6737194 ], [ 77.9216904, 28.6856802 ], [ 77.9304893, 28.7004715 ], [ 77.9402051, 28.7052891 ], [ 77.9455805, 28.7032314 ], [ 77.9472499, 28.7036731 ], [ 77.9486685, 28.7022546 ], [ 77.9519348, 28.7033358 ], [ 77.956019, 28.709261 ], [ 77.9617442, 28.7131321 ], [ 77.9607568, 28.7141512 ], [ 77.9629166, 28.7153555 ] ] ] } }
]
}
