{
"type": "FeatureCollection",
"name": "0916",
"crs": { "type": "name", "properties": { "name": "urn:ogc:def:crs:OGC:1.3:CRS84" } },
"features": [
{ "type": "Feature", "properties": { "code": "0916", "name": "Firozabad", "type": "district" }, "geometry": { "type": "Polygon", "coordinates": [ [ [ 78.609156, 27.510163 ], [ 78.6124715, 27.5090357 ], [ 78.6193453, 27.5031624 ], [ 78.6233307, 27.5031109 ], [ 78.6279342, 27.4901 ], [ 78.6300261, 27.4882692 ], [ 78.6326897, 27.4895439 ], [ 78.6327987, 27.4912515 ], [ 78.6439407, 27.4891903 ], [ 78.6513493, 27.4931774 ], [ 78.6530319, 27.4907479 ], [ 78.658912, 27.4913977 ], [ 78.6618291, 27.4898579 ], [ 78.6647188, 27.4787379 ], [ 78.6640721, 27.4730279 ], [ 78.6630623, 27.4720806 ], [ 78.6597601, 27.4739017 ], [ 78.6493022, 27.4606363 ], [ 78.6460591, 27.4447927 ], [ 78.6439878, 27.4418448 ], [ 78.6437722, 27.4384145 ], [ 78.6409586, 27.4363706 ], [ 78.6408166, 27.4318176 ], [ 78.6394111, 27.4321469 ], [ 78.6430581, 27.4280083 ], [ 78.6410064, 27.4262268 ], [ 78.643261, 27.4205439 ], [ 78.6503817, 27.4192216 ], [ 78.6595521, 27.4194597 ], [ 78.6639876, 27.4148222 ], [ 78.6685438, 27.4177624 ], [ 78.6729913, 27.4129067 ], [ 78.6706859, 27.4110097 ], [ 78.675028, 27.4001659 ], [ 78.6734552, 27.3952595 ], [ 78.6750379, 27.3931798 ], [ 78.6825085, 27.3878727 ], [ 78.6824285, 27.3863925 ], [ 78.6852895, 27.3834626 ], [ 78.6882218, 27.3832594 ], [ 78.6904004, 27.3814379 ], [ 78.7067119, 27.3768857 ], [ 78.7121345, 27.3798467 ], [ 78.7136896, 27.3770874 ], [ 78.7133308, 27.3727062 ], [ 78.7181339, 27.368751 ], [ 78.7191657, 27.3633583 ], [ 78.7158383, 27.3541641 ], [ 78.7180585, 27.3443275 ], [ 78.7150075, 27.3420881 ], [ 78.7118588, 27.3427441 ], [ 78.7095402, 27.3401438 ], [ 78.7141032, 27.3357218 ], [ 78.7153819, 27.3202616 ], [ 78.7124569, 27.3173591 ], [ 78.7147776, 27.3162331 ], [ 78.7116594, 27.3115011 ], [ 78.7117549, 27.3075174 ], [ 78.7126093, 27.2993683 ], [ 78.7191148, 27.2973297 ], [ 78.7186799, 27.2955548 ], [ 78.7204232, 27.2940002 ], [ 78.7169892, 27.286478 ], [ 78.7183968, 27.2839521 ], [ 78.7154596, 27.2803521 ], [ 78.7024937, 27.2828801 ], [ 78.6961576, 27.2781107 ], [ 78.6883852, 27.2696975 ], [ 78.6898372, 27.2678184 ], [ 78.6957749, 27.268982 ], [ 78.7033552, 27.2654909 ], [ 78.7194806, 27.2636591 ], [ 78.727847, 27.2545839 ], [ 78.7277232, 27.2483697 ], [ 78.737003, 27.2455108 ], [ 78.7402278, 27.2421138 ], [ 78.7432436, 27.2412664 ], [ 78.7531909, 27.2323177 ], [ 78.7590544, 27.229583 ], [ 78.7608624, 27.2250262 ], [ 78.7585346, 27.2179586 ], [ 78.7511532, 27.2075174 ], [ 78.7458366, 27.2092451 ], [ 78.7368937, 27.209768 ], [ 78.7323176, 27.2064291 ], [ 78.7266301, 27.2048012 ], [ 78.7245325, 27.1966312 ], [ 78.7254573, 27.1944843 ], [ 78.7359542, 27.1904582 ], [ 78.7391247, 27.1870874 ], [ 78.7398238, 27.1841622 ], [ 78.7420917, 27.1843635 ], [ 78.7415639, 27.1811611 ], [ 78.7454567, 27.1788608 ], [ 78.7475713, 27.1800553 ], [ 78.7499411, 27.1792355 ], [ 78.7541604, 27.1800364 ], [ 78.7670753, 27.1739125 ], [ 78.7776246, 27.164087 ], [ 78.7774392, 27.1628248 ], [ 78.7807861, 27.1622534 ], [ 78.7851072, 27.1655548 ], [ 78.7960884, 27.1609115 ], [ 78.8033629, 27.1537897 ], [ 78.8071939, 27.1559249 ], [ 78.8083367, 27.1553583 ], [ 78.8112343, 27.1534333 ], [ 78.808417, 27.1504118 ], [ 78.8152895, 27.1488988 ], [ 78.8203854, 27.1449262 ], [ 78.819519, 27.1428433 ], [ 78.8214228, 27.1397149 ], [ 78.8195271, 27.1368484 ], [ 78.8139696, 27.139757 ], [ 78.809858, 27.1450561 ], [ 78.806633, 27.1415568 ], [ 78.8057018, 27.1459836 ], [ 78.8011907, 27.1461908 ], [ 78.7954524, 27.1430771 ], [ 78.7912762, 27.1386784 ], [ 78.7894478, 27.134602 ], [ 78.793807, 27.1343833 ], [ 78.7954309, 27.1288654 ], [ 78.7930211, 27.12396 ], [ 78.7980298, 27.1209412 ], [ 78.799701, 27.1204451 ], [ 78.8019884, 27.1223116 ], [ 78.805956, 27.1211687 ], [ 78.806553, 27.1197221 ], [ 78.8021447, 27.1139266 ], [ 78.8031076, 27.112243 ], [ 78.7992541, 27.1055713 ], [ 78.8001972, 27.1035035 ], [ 78.7991563, 27.1002602 ], [ 78.793839, 27.0984404 ], [ 78.7903584, 27.1005723 ], [ 78.78743, 27.1053475 ], [ 78.7816193, 27.1068396 ], [ 78.7789902, 27.1101711 ], [ 78.775041, 27.1112973 ], [ 78.7729573, 27.1140635 ], [ 78.7649031, 27.1058892 ], [ 78.772975, 27.1010048 ], [ 78.7765952, 27.094583 ], [ 78.7762668, 27.0902813 ], [ 78.7743365, 27.0882879 ], [ 78.7737872, 27.0848923 ], [ 78.767607, 27.0830436 ], [ 78.7726603, 27.0807164 ], [ 78.7663542, 27.0658122 ], [ 78.7694891, 27.0630088 ], [ 78.7707846, 27.0635329 ], [ 78.7763195, 27.0607337 ], [ 78.7702302, 27.0550104 ], [ 78.7642978, 27.053193 ], [ 78.764276, 27.051803 ], [ 78.7712315, 27.0475059 ], [ 78.7725702, 27.0448441 ], [ 78.7809459, 27.0459033 ], [ 78.7883676, 27.0422402 ], [ 78.7871628, 27.0405563 ], [ 78.7876871, 27.0388488 ], [ 78.7866853, 27.0381779 ], [ 78.782804, 27.0397066 ], [ 78.7744086, 27.0325172 ], [ 78.7732598, 27.029057 ], [ 78.7763789, 27.0220211 ], [ 78.7747983, 27.0206786 ], [ 78.7769557, 27.0174695 ], [ 78.7780161, 27.0170092 ], [ 78.7819976, 27.0209641 ], [ 78.7813627, 27.0249076 ], [ 78.7875077, 27.0194377 ], [ 78.7916884, 27.0188426 ], [ 78.7932277, 27.0166856 ], [ 78.7938823, 27.0141674 ], [ 78.7817528, 27.0081729 ], [ 78.7837897, 27.0059379 ], [ 78.7816929, 27.0027621 ], [ 78.7964767, 26.9903619 ], [ 78.7940905, 26.9870657 ], [ 78.8039651, 26.9807153 ], [ 78.8058684, 26.9833546 ], [ 78.8066301, 26.9878941 ], [ 78.8123331, 26.9924315 ], [ 78.8177104, 26.9884507 ], [ 78.8172437, 26.9852405 ], [ 78.8185839, 26.9843934 ], [ 78.8162683, 26.9810461 ], [ 78.8026284, 26.9677885 ], [ 78.8068601, 26.9644311 ], [ 78.8100296, 26.9579549 ], [ 78.8053741, 26.9576235 ], [ 78.8005547, 26.9531124 ], [ 78.7952918, 26.9504135 ], [ 78.7905416, 26.9508442 ], [ 78.7896067, 26.9497149 ], [ 78.7907641, 26.9490784 ], [ 78.7878842, 26.94494 ], [ 78.782667, 26.9471481 ], [ 78.7811592, 26.9455967 ], [ 78.7775601, 26.9492563 ], [ 78.7768276, 26.9487893 ], [ 78.7664984, 26.9371586 ], [ 78.760907, 26.9336087 ], [ 78.7499666, 26.9168797 ], [ 78.7457797, 26.9153701 ], [ 78.7384097, 26.9225717 ], [ 78.7351278, 26.9231695 ], [ 78.7325371, 26.9219407 ], [ 78.7306266, 26.9200329 ], [ 78.7301087, 26.9046277 ], [ 78.7239817, 26.9003905 ], [ 78.7143716, 26.9011779 ], [ 78.7105142, 26.9032401 ], [ 78.7100262, 26.9136847 ], [ 78.7077337, 26.9184572 ], [ 78.7029968, 26.9187001 ], [ 78.6990553, 26.9157886 ], [ 78.6971208, 26.9119073 ], [ 78.6932537, 26.9105062 ], [ 78.6817163, 26.9196102 ], [ 78.6754076, 26.9199397 ], [ 78.6713456, 26.9136242 ], [ 78.670846, 26.9035337 ], [ 78.671731, 26.8983269 ], [ 78.6758903, 26.8910539 ], [ 78.6759788, 26.8826191 ], [ 78.6747761, 26.8796695 ], [ 78.6717874, 26.8780337 ], [ 78.6685773, 26.8782682 ], [ 78.6613685, 26.8854347 ], [ 78.6494798, 26.8812057 ], [ 78.6445722, 26.8807608 ], [ 78.6355199, 26.8840044 ], [ 78.6343982, 26.8881621 ], [ 78.6350723, 26.8984558 ], [ 78.6333367, 26.9075204 ], [ 78.6314734, 26.9096785 ], [ 78.6208136, 26.9140144 ], [ 78.6178004, 26.9186988 ], [ 78.6169484, 26.9227379 ], [ 78.6184507, 26.9310857 ], [ 78.6243056, 26.9415854 ], [ 78.6199041, 26.9459556 ], [ 78.6024984, 26.9511367 ], [ 78.5985049, 26.9510005 ], [ 78.5961674, 26.9492887 ], [ 78.5965691, 26.943434 ], [ 78.6059881, 26.9359281 ], [ 78.6083706, 26.9315202 ], [ 78.6094066, 26.9250872 ], [ 78.6043589, 26.9189022 ], [ 78.5980553, 26.9187656 ], [ 78.5947332, 26.9209102 ], [ 78.5857314, 26.9353244 ], [ 78.5712666, 26.9443938 ], [ 78.571309, 26.9485816 ], [ 78.5773096, 26.9578361 ], [ 78.5772613, 26.9601306 ], [ 78.5744481, 26.9627826 ], [ 78.5595616, 26.9632106 ], [ 78.5508424, 26.9601913 ], [ 78.5447316, 26.9606784 ], [ 78.5374382, 26.9644357 ], [ 78.5253456, 26.9754553 ], [ 78.5186753, 26.9757147 ], [ 78.5135765, 26.9721638 ], [ 78.5120134, 26.9676598 ], [ 78.5145859, 26.964604 ], [ 78.5230819, 26.9617247 ], [ 78.5261985, 26.9581706 ], [ 78.5246095, 26.9424531 ], [ 78.5262257, 26.9385828 ], [ 78.5236443, 26.9380219 ], [ 78.5198974, 26.9397142 ], [ 78.5144261, 26.940022 ], [ 78.5154064, 26.9560761 ], [ 78.5115702, 26.9616162 ], [ 78.5058324, 26.9628099 ], [ 78.4931789, 26.9608641 ], [ 78.4833112, 26.9649639 ], [ 78.4818845, 26.9695521 ], [ 78.4852292, 26.9826906 ], [ 78.4844222, 26.9870373 ], [ 78.4804448, 26.9916657 ], [ 78.4764429, 26.9917429 ], [ 78.4637875, 26.9840791 ], [ 78.4568617, 26.984694 ], [ 78.4512737, 26.983619 ], [ 78.4487421, 26.9879749 ], [ 78.4489069, 26.9902734 ], [ 78.4516259, 26.9968258 ], [ 78.4535085, 27.0078733 ], [ 78.4506159, 27.0134946 ], [ 78.4435864, 27.018661 ], [ 78.4358852, 27.029575 ], [ 78.4333663, 27.0438416 ], [ 78.4297295, 27.0484897 ], [ 78.4234681, 27.0533388 ], [ 78.4156589, 27.0562776 ], [ 78.3982462, 27.0559817 ], [ 78.3926382, 27.0572799 ], [ 78.3821425, 27.064733 ], [ 78.3640364, 27.0813368 ], [ 78.3603912, 27.08261 ], [ 78.3554183, 27.0799675 ], [ 78.351989, 27.0738975 ], [ 78.3497331, 27.0724836 ], [ 78.334297, 27.0758754 ], [ 78.3299257, 27.0744547 ], [ 78.3257748, 27.0702562 ], [ 78.3232561, 27.0615886 ], [ 78.3194183, 27.0545656 ], [ 78.3162414, 27.0522253 ], [ 78.3113302, 27.0535468 ], [ 78.3101845, 27.0601219 ], [ 78.312701, 27.0723123 ], [ 78.3089691, 27.084428 ], [ 78.3112329, 27.0980435 ], [ 78.3189518, 27.1007743 ], [ 78.3300822, 27.098885 ], [ 78.3343576, 27.0995208 ], [ 78.3370364, 27.1019112 ], [ 78.3417529, 27.1130081 ], [ 78.3443396, 27.114716 ], [ 78.3546348, 27.110763 ], [ 78.3632439, 27.1107437 ], [ 78.3676191, 27.1131148 ], [ 78.3702758, 27.1165037 ], [ 78.3720757, 27.120992 ], [ 78.3705407, 27.1227204 ], [ 78.3647327, 27.1251039 ], [ 78.3567875, 27.12553 ], [ 78.3410122, 27.1291801 ], [ 78.3359121, 27.1255651 ], [ 78.3331887, 27.1211393 ], [ 78.332587, 27.1174991 ], [ 78.3284344, 27.1117726 ], [ 78.3232617, 27.1098824 ], [ 78.3206719, 27.110727 ], [ 78.3171525, 27.1142779 ], [ 78.315599, 27.1226556 ], [ 78.3134615, 27.126094 ], [ 78.3052085, 27.1267321 ], [ 78.301572, 27.1253484 ], [ 78.3006176, 27.1230851 ], [ 78.2952842, 27.1191846 ], [ 78.2918462, 27.1129152 ], [ 78.2911569, 27.1053401 ], [ 78.2949105, 27.0882579 ], [ 78.2904967, 27.0832565 ], [ 78.2835172, 27.0807163 ], [ 78.2770636, 27.0810091 ], [ 78.2716352, 27.0834297 ], [ 78.269884, 27.0909329 ], [ 78.2654594, 27.1004599 ], [ 78.2587162, 27.1087481 ], [ 78.2459173, 27.1129146 ], [ 78.2409171, 27.1130141 ], [ 78.2386948, 27.1107635 ], [ 78.2392917, 27.1031921 ], [ 78.2544289, 27.0957773 ], [ 78.2573818, 27.092176 ], [ 78.2589358, 27.0869602 ], [ 78.257376, 27.0825301 ], [ 78.2535527, 27.0785069 ], [ 78.2473481, 27.0753946 ], [ 78.2379709, 27.0738677 ], [ 78.2273355, 27.0751104 ], [ 78.2231144, 27.077707 ], [ 78.2232389, 27.0815744 ], [ 78.228345, 27.0882033 ], [ 78.2288053, 27.0950253 ], [ 78.2231081, 27.1007737 ], [ 78.2094746, 27.104751 ], [ 78.2048256, 27.1089349 ], [ 78.199906, 27.1214081 ], [ 78.2013012, 27.1241508 ], [ 78.2003889, 27.1271554 ], [ 78.2015958, 27.1307872 ], [ 78.2082504, 27.1363083 ], [ 78.208569, 27.1406639 ], [ 78.2159929, 27.1481597 ], [ 78.2206765, 27.1565206 ], [ 78.2185837, 27.1657959 ], [ 78.2150299, 27.1714586 ], [ 78.21023, 27.1738457 ], [ 78.2086326, 27.1786728 ], [ 78.2059818, 27.1814452 ], [ 78.1968559, 27.1848942 ], [ 78.197257, 27.1880241 ], [ 78.1942214, 27.1916848 ], [ 78.1997788, 27.2047065 ], [ 78.2040895, 27.2084417 ], [ 78.204224, 27.2116731 ], [ 78.2056342, 27.2118031 ], [ 78.2074019, 27.2144357 ], [ 78.2058025, 27.2163935 ], [ 78.2112085, 27.2215563 ], [ 78.2017748, 27.2292671 ], [ 78.2013401, 27.232929 ], [ 78.2020836, 27.2359013 ], [ 78.2048108, 27.2390387 ], [ 78.2061663, 27.2385696 ], [ 78.2177993, 27.2465767 ], [ 78.2181316, 27.2478629 ], [ 78.214064, 27.2506938 ], [ 78.2113675, 27.2513413 ], [ 78.2104401, 27.2499568 ], [ 78.2067177, 27.2521639 ], [ 78.2046019, 27.255427 ], [ 78.2051933, 27.2580803 ], [ 78.2116139, 27.2650522 ], [ 78.2073457, 27.2691141 ], [ 78.2075496, 27.2705136 ], [ 78.2158352, 27.2819065 ], [ 78.2157362, 27.2834011 ], [ 78.2199692, 27.2878085 ], [ 78.2083886, 27.2917934 ], [ 78.1985481, 27.2983828 ], [ 78.1970778, 27.3049893 ], [ 78.193984, 27.307809 ], [ 78.1946107, 27.3084539 ], [ 78.2000837, 27.3119309 ], [ 78.2011448, 27.3098908 ], [ 78.2059038, 27.311574 ], [ 78.2054965, 27.3100969 ], [ 78.2075426, 27.306781 ], [ 78.2052126, 27.3022444 ], [ 78.2063471, 27.3011819 ], [ 78.20821, 27.3025219 ], [ 78.209582, 27.3011868 ], [ 78.2111089, 27.3026505 ], [ 78.2102482, 27.3033944 ], [ 78.2109182, 27.3064831 ], [ 78.2179555, 27.3092816 ], [ 78.2186834, 27.3119565 ], [ 78.221596, 27.3111314 ], [ 78.2251801, 27.3064095 ], [ 78.2304191, 27.309964 ], [ 78.2329421, 27.3077662 ], [ 78.2354383, 27.3139506 ], [ 78.2427944, 27.3114124 ], [ 78.2502866, 27.3018083 ], [ 78.2592269, 27.3014341 ], [ 78.2599385, 27.3025753 ], [ 78.2638364, 27.301889 ], [ 78.2673497, 27.3032365 ], [ 78.2674643, 27.3044755 ], [ 78.2655686, 27.3052727 ], [ 78.2654119, 27.3094447 ], [ 78.2672425, 27.312577 ], [ 78.2667101, 27.3136159 ], [ 78.2687639, 27.3149561 ], [ 78.2678807, 27.315863 ], [ 78.2705524, 27.3195544 ], [ 78.2739177, 27.3222098 ], [ 78.2773381, 27.3227035 ], [ 78.2783935, 27.3243631 ], [ 78.2776301, 27.3334312 ], [ 78.274664, 27.3376611 ], [ 78.2790546, 27.3414668 ], [ 78.2785389, 27.3437001 ], [ 78.2798755, 27.3427095 ], [ 78.2829121, 27.3447727 ], [ 78.2842328, 27.3481772 ], [ 78.2830144, 27.3534382 ], [ 78.2882624, 27.3566882 ], [ 78.2841331, 27.361959 ], [ 78.2871785, 27.3666592 ], [ 78.2859299, 27.3741272 ], [ 78.2916412, 27.3753009 ], [ 78.2906073, 27.3779687 ], [ 78.2953608, 27.3830464 ], [ 78.2943955, 27.3852731 ], [ 78.2907338, 27.3873149 ], [ 78.2947573, 27.3886895 ], [ 78.2986588, 27.3935101 ], [ 78.3005051, 27.3935441 ], [ 78.3186827, 27.3753941 ], [ 78.3229856, 27.3752297 ], [ 78.3219206, 27.3778449 ], [ 78.3232505, 27.3830058 ], [ 78.3291853, 27.3893553 ], [ 78.3324174, 27.3909752 ], [ 78.338207, 27.3885873 ], [ 78.3522663, 27.3969036 ], [ 78.3567616, 27.3954239 ], [ 78.3632732, 27.3893362 ], [ 78.3633212, 27.3849284 ], [ 78.3656218, 27.3785211 ], [ 78.3758166, 27.3701559 ], [ 78.3803749, 27.3692532 ], [ 78.3821361, 27.3646187 ], [ 78.3849845, 27.3643393 ], [ 78.3870687, 27.3621423 ], [ 78.3914756, 27.3684349 ], [ 78.3952917, 27.3681858 ], [ 78.3994012, 27.3720761 ], [ 78.4056003, 27.3693012 ], [ 78.4169386, 27.3691974 ], [ 78.427515, 27.3630868 ], [ 78.4340517, 27.3609043 ], [ 78.4410393, 27.3654546 ], [ 78.4452148, 27.3723792 ], [ 78.4565338, 27.3745157 ], [ 78.4597898, 27.3673804 ], [ 78.4698116, 27.3565625 ], [ 78.4717019, 27.3485171 ], [ 78.4776806, 27.3429415 ], [ 78.4900518, 27.353512 ], [ 78.4833184, 27.3577881 ], [ 78.4887077, 27.3639785 ], [ 78.4843947, 27.3748099 ], [ 78.4843067, 27.3801806 ], [ 78.4860675, 27.3828265 ], [ 78.4845838, 27.3837552 ], [ 78.4860262, 27.3835976 ], [ 78.4914529, 27.3875358 ], [ 78.490297, 27.393154 ], [ 78.4889389, 27.3942841 ], [ 78.4868785, 27.3925784 ], [ 78.4846674, 27.3927572 ], [ 78.4750472, 27.4020086 ], [ 78.471188, 27.410015 ], [ 78.46421, 27.4177195 ], [ 78.4636745, 27.4248579 ], [ 78.4677011, 27.4281544 ], [ 78.4717082, 27.4291219 ], [ 78.4755875, 27.4287451 ], [ 78.4796648, 27.4252412 ], [ 78.4892809, 27.4244477 ], [ 78.4912324, 27.4232663 ], [ 78.4941092, 27.4290371 ], [ 78.5042772, 27.4365914 ], [ 78.5031968, 27.4395778 ], [ 78.506628, 27.4399496 ], [ 78.5048657, 27.45633 ], [ 78.5109337, 27.4640768 ], [ 78.5176965, 27.4626421 ], [ 78.5218365, 27.4566593 ], [ 78.5228207, 27.449714 ], [ 78.5287884, 27.4498545 ], [ 78.5306344, 27.4517658 ], [ 78.5345889, 27.4493995 ], [ 78.5361666, 27.4457955 ], [ 78.5394771, 27.4443278 ], [ 78.5403922, 27.4418767 ], [ 78.5437615, 27.442134 ], [ 78.5486555, 27.4515932 ], [ 78.5534745, 27.456613 ], [ 78.5521449, 27.4607 ], [ 78.5639505, 27.4724268 ], [ 78.569767, 27.474826 ], [ 78.5786377, 27.4732381 ], [ 78.5827109, 27.4737979 ], [ 78.5866935, 27.4765049 ], [ 78.5879701, 27.4869195 ], [ 78.5872604, 27.4908708 ], [ 78.590107, 27.4940906 ], [ 78.594043, 27.4919772 ], [ 78.5987239, 27.4983227 ], [ 78.5962857, 27.5068057 ], [ 78.5974564, 27.5093688 ], [ 78.609156, 27.510163 ] ] ] } }
]
}
