{
"type": "FeatureCollection",
"name": "0918",
"crs": { "type": "name", "properties": { "name": "urn:ogc:def:crs:OGC:1.3:CRS84" } },
"features": [
{ "type": "Feature", "properties": { "code": "0918", "name": "Mainpuri", "type": "district" }, "geometry": { "type": "Polygon", "coordinates": [ [ [ 78.8903945, 27.4708433 ], [ 78.8962047, 27.4705105 ], [ 78.9036635, 27.466909 ], [ 78.902723, 27.4662043 ], [ 78.9070854, 27.4606731 ], [ 78.9091943, 27.46098 ], [ 78.9104797, 27.4596898 ], [ 78.9082142, 27.4585538 ], [ 78.9092882, 27.4564503 ], [ 78.913373, 27.4576963 ], [ 78.9183791, 27.4534114 ], [ 78.9219483, 27.4532247 ], [ 78.9260143, 27.4460184 ], [ 78.9347115, 27.4527835 ], [ 78.9394767, 27.4510619 ], [ 78.9402604, 27.4487776 ], [ 78.9357749, 27.4475783 ], [ 78.9371491, 27.4464997 ], [ 78.9366231, 27.4441254 ], [ 78.9377121, 27.4423303 ], [ 78.9357149, 27.4374617 ], [ 78.9400467, 27.4374258 ], [ 78.9408391, 27.436262 ], [ 78.9386756, 27.4316845 ], [ 78.9485549, 27.4265544 ], [ 78.9513984, 27.4281809 ], [ 78.9521052, 27.4263506 ], [ 78.9549717, 27.429601 ], [ 78.9582268, 27.4298905 ], [ 78.9585045, 27.4249234 ], [ 78.9560251, 27.422179 ], [ 78.9571618, 27.4200593 ], [ 78.9608707, 27.4182569 ], [ 78.9681263, 27.4232896 ], [ 78.972541, 27.4175051 ], [ 78.975431, 27.4178973 ], [ 78.9747012, 27.4203771 ], [ 78.9767599, 27.4223066 ], [ 78.975524, 27.4243608 ], [ 78.9768438, 27.4276495 ], [ 78.9844905, 27.4294688 ], [ 78.9939755, 27.4244632 ], [ 78.9945557, 27.4224533 ], [ 78.9896666, 27.4217077 ], [ 78.9935127, 27.4209041 ], [ 78.9989289, 27.4262971 ], [ 78.9971844, 27.4305405 ], [ 78.9985522, 27.4324653 ], [ 79.0094468, 27.4281696 ], [ 79.0121441, 27.430112 ], [ 79.0200215, 27.4274774 ], [ 79.0265596, 27.4282383 ], [ 79.0296591, 27.4299183 ], [ 79.0318957, 27.4280805 ], [ 79.0355759, 27.4299306 ], [ 79.0451002, 27.4247495 ], [ 79.0485647, 27.4249916 ], [ 79.0565757, 27.4204172 ], [ 79.0577484, 27.4228588 ], [ 79.0615879, 27.4226633 ], [ 79.0613266, 27.4197258 ], [ 79.0630515, 27.4179938 ], [ 79.065749, 27.4195728 ], [ 79.0692769, 27.4176806 ], [ 79.0715156, 27.4189907 ], [ 79.0719796, 27.4209445 ], [ 79.0934872, 27.4293174 ], [ 79.0994696, 27.4304023 ], [ 79.1071138, 27.4346337 ], [ 79.1077403, 27.4333678 ], [ 79.1055787, 27.431905 ], [ 79.1058417, 27.4306672 ], [ 79.1087702, 27.4272009 ], [ 79.1117402, 27.4262929 ], [ 79.109665, 27.4224416 ], [ 79.1096754, 27.4187295 ], [ 79.1118587, 27.4170576 ], [ 79.117475, 27.4176866 ], [ 79.1186432, 27.4128845 ], [ 79.1171358, 27.4110626 ], [ 79.1152389, 27.4132356 ], [ 79.1141594, 27.4123399 ], [ 79.1151968, 27.406146 ], [ 79.1182068, 27.407447 ], [ 79.1201777, 27.4055099 ], [ 79.1231978, 27.4054818 ], [ 79.1281467, 27.4024688 ], [ 79.1293433, 27.4041521 ], [ 79.1325949, 27.4035549 ], [ 79.1337732, 27.4017331 ], [ 79.1354502, 27.4035874 ], [ 79.1373285, 27.397443 ], [ 79.1410528, 27.3980784 ], [ 79.1409018, 27.3966874 ], [ 79.1386875, 27.3961108 ], [ 79.138046, 27.3946666 ], [ 79.1384611, 27.3912608 ], [ 79.14009, 27.3911601 ], [ 79.1390062, 27.3867814 ], [ 79.1402829, 27.3864177 ], [ 79.1410757, 27.3878038 ], [ 79.1430112, 27.3863398 ], [ 79.14256, 27.3812231 ], [ 79.1398781, 27.3828178 ], [ 79.1388451, 27.381363 ], [ 79.1420404, 27.3799101 ], [ 79.1408453, 27.3780163 ], [ 79.1453488, 27.3791824 ], [ 79.1511308, 27.3783079 ], [ 79.1494446, 27.3753401 ], [ 79.1511777, 27.3742355 ], [ 79.152134, 27.3779088 ], [ 79.1548733, 27.3775697 ], [ 79.1568495, 27.3756171 ], [ 79.1553474, 27.3786422 ], [ 79.1568142, 27.3794758 ], [ 79.1594722, 27.3757743 ], [ 79.1589537, 27.3799169 ], [ 79.1600619, 27.3807569 ], [ 79.1617632, 27.3803868 ], [ 79.1627341, 27.3777379 ], [ 79.1663417, 27.3774031 ], [ 79.1676536, 27.3745472 ], [ 79.1703938, 27.37468 ], [ 79.1736276, 27.3767216 ], [ 79.1755817, 27.3725258 ], [ 79.1722201, 27.3714353 ], [ 79.1762586, 27.3703697 ], [ 79.1760753, 27.3721661 ], [ 79.1779005, 27.3733042 ], [ 79.1792614, 27.3702879 ], [ 79.1771617, 27.3682289 ], [ 79.1809064, 27.3667576 ], [ 79.1801203, 27.3653323 ], [ 79.1815115, 27.3660363 ], [ 79.1818019, 27.364547 ], [ 79.1851593, 27.3626555 ], [ 79.1859546, 27.36507 ], [ 79.1880906, 27.3663769 ], [ 79.190132, 27.3629877 ], [ 79.1899374, 27.3605206 ], [ 79.1915642, 27.362173 ], [ 79.1932186, 27.3595343 ], [ 79.1959284, 27.3613316 ], [ 79.1961974, 27.3582815 ], [ 79.1949646, 27.3571885 ], [ 79.1975403, 27.3567836 ], [ 79.1949856, 27.350264 ], [ 79.1999826, 27.3454686 ], [ 79.2030343, 27.3474069 ], [ 79.2037001, 27.3456825 ], [ 79.2056905, 27.3453164 ], [ 79.2065547, 27.3442758 ], [ 79.203873, 27.3429944 ], [ 79.2077392, 27.3431113 ], [ 79.2051476, 27.3411477 ], [ 79.2077126, 27.3411467 ], [ 79.2060689, 27.3396894 ], [ 79.2083968, 27.3389486 ], [ 79.2074645, 27.3372022 ], [ 79.2096045, 27.3365721 ], [ 79.2089194, 27.3351892 ], [ 79.2123568, 27.3327682 ], [ 79.2149956, 27.3321543 ], [ 79.2162626, 27.3339998 ], [ 79.2170915, 27.3323459 ], [ 79.2186036, 27.3323812 ], [ 79.2204341, 27.3363753 ], [ 79.2241315, 27.3335094 ], [ 79.2246779, 27.3308647 ], [ 79.2268588, 27.3298862 ], [ 79.228874, 27.3317771 ], [ 79.2290395, 27.3289494 ], [ 79.231622, 27.3285998 ], [ 79.2332701, 27.3267686 ], [ 79.2374069, 27.3271649 ], [ 79.2348893, 27.3284067 ], [ 79.234991, 27.3296194 ], [ 79.2382165, 27.3286318 ], [ 79.2391744, 27.326212 ], [ 79.2404387, 27.3285451 ], [ 79.2423857, 27.3288471 ], [ 79.2448566, 27.3236757 ], [ 79.2480014, 27.3283307 ], [ 79.2506379, 27.3275126 ], [ 79.249932, 27.3255295 ], [ 79.2513714, 27.3248392 ], [ 79.2540106, 27.3269988 ], [ 79.2561065, 27.3313587 ], [ 79.2587004, 27.3306459 ], [ 79.25815, 27.3282846 ], [ 79.2602225, 27.3260357 ], [ 79.258543, 27.3251355 ], [ 79.2607609, 27.3246719 ], [ 79.2645872, 27.3201548 ], [ 79.2619934, 27.3155696 ], [ 79.2634621, 27.3151582 ], [ 79.2671819, 27.3192745 ], [ 79.2686818, 27.3188632 ], [ 79.2671996, 27.3162184 ], [ 79.2651133, 27.3155673 ], [ 79.2675935, 27.312874 ], [ 79.2651294, 27.3128067 ], [ 79.2674897, 27.3080288 ], [ 79.2661319, 27.3054849 ], [ 79.2702617, 27.3034127 ], [ 79.28257, 27.3042162 ], [ 79.283693, 27.3022186 ], [ 79.2871217, 27.3027082 ], [ 79.2888246, 27.3049746 ], [ 79.2904206, 27.3040615 ], [ 79.2910958, 27.3004953 ], [ 79.2880381, 27.300621 ], [ 79.2897783, 27.2962787 ], [ 79.28917, 27.2935153 ], [ 79.2907924, 27.2934389 ], [ 79.2913077, 27.2960904 ], [ 79.2934009, 27.2955142 ], [ 79.2867921, 27.284436 ], [ 79.2879752, 27.2786895 ], [ 79.2910138, 27.2801218 ], [ 79.2885117, 27.2813654 ], [ 79.291338, 27.2834695 ], [ 79.296248, 27.2811213 ], [ 79.2982884, 27.27876 ], [ 79.2964831, 27.2781106 ], [ 79.297049, 27.2773044 ], [ 79.3000782, 27.2765929 ], [ 79.3003196, 27.2780441 ], [ 79.3033018, 27.2776322 ], [ 79.3063434, 27.2803225 ], [ 79.3101131, 27.281092 ], [ 79.3071312, 27.2845368 ], [ 79.3082795, 27.2855736 ], [ 79.3110362, 27.2833828 ], [ 79.3141986, 27.2848223 ], [ 79.3204446, 27.2771917 ], [ 79.325446, 27.2750659 ], [ 79.3244909, 27.2728867 ], [ 79.3229904, 27.2735495 ], [ 79.3211913, 27.2717292 ], [ 79.3242475, 27.2723691 ], [ 79.3231071, 27.2698544 ], [ 79.3244084, 27.2656213 ], [ 79.3230985, 27.2603922 ], [ 79.3203066, 27.2576752 ], [ 79.3213801, 27.2552258 ], [ 79.3188265, 27.2546013 ], [ 79.317599, 27.2509429 ], [ 79.3160123, 27.2502946 ], [ 79.315515, 27.248392 ], [ 79.3181117, 27.2467469 ], [ 79.3173868, 27.2448193 ], [ 79.3154434, 27.2464015 ], [ 79.3148872, 27.243476 ], [ 79.3197217, 27.2400911 ], [ 79.3226875, 27.2406885 ], [ 79.3224374, 27.2368155 ], [ 79.3270177, 27.2385956 ], [ 79.3295383, 27.2358292 ], [ 79.3282154, 27.2336312 ], [ 79.331722, 27.23503 ], [ 79.3369645, 27.2325674 ], [ 79.3384411, 27.2257252 ], [ 79.3357545, 27.2179311 ], [ 79.3362331, 27.2149611 ], [ 79.3381161, 27.2142138 ], [ 79.3408034, 27.2158817 ], [ 79.3449289, 27.2112256 ], [ 79.3517333, 27.2119072 ], [ 79.3536456, 27.2208939 ], [ 79.3565344, 27.220516 ], [ 79.3554253, 27.2192129 ], [ 79.3563532, 27.2186639 ], [ 79.3594625, 27.221723 ], [ 79.3605468, 27.2173668 ], [ 79.3652071, 27.2220872 ], [ 79.3673266, 27.2176135 ], [ 79.3712653, 27.2136961 ], [ 79.3697182, 27.2115364 ], [ 79.3725612, 27.2104857 ], [ 79.371314, 27.2064388 ], [ 79.3760543, 27.2037843 ], [ 79.3816551, 27.20373 ], [ 79.3844695, 27.1989259 ], [ 79.3826272, 27.1970185 ], [ 79.3855487, 27.1960187 ], [ 79.3863515, 27.1982755 ], [ 79.3909874, 27.1968318 ], [ 79.3901715, 27.2009219 ], [ 79.3922929, 27.201466 ], [ 79.3946766, 27.2003341 ], [ 79.3952529, 27.1987971 ], [ 79.3932937, 27.1971893 ], [ 79.3957452, 27.1970039 ], [ 79.3983019, 27.1910223 ], [ 79.3902082, 27.1828222 ], [ 79.393795, 27.1782974 ], [ 79.3960812, 27.1697253 ], [ 79.3929356, 27.1659568 ], [ 79.3949614, 27.1636564 ], [ 79.3942096, 27.1614852 ], [ 79.3922971, 27.158643 ], [ 79.3888249, 27.1604413 ], [ 79.3893862, 27.1569597 ], [ 79.40052, 27.1474783 ], [ 79.412389, 27.1412375 ], [ 79.4132126, 27.1384272 ], [ 79.4121363, 27.1357676 ], [ 79.4067538, 27.1308633 ], [ 79.4050046, 27.1266907 ], [ 79.3940956, 27.1221723 ], [ 79.3888353, 27.1238818 ], [ 79.3876556, 27.1171488 ], [ 79.3838305, 27.1173957 ], [ 79.3821565, 27.1147091 ], [ 79.3856988, 27.1136997 ], [ 79.3919671, 27.1173298 ], [ 79.3940879, 27.1166306 ], [ 79.3904858, 27.108955 ], [ 79.3918325, 27.1061828 ], [ 79.3911303, 27.1050837 ], [ 79.3921389, 27.1046978 ], [ 79.3916921, 27.1015139 ], [ 79.3899561, 27.1004352 ], [ 79.396835, 27.0948853 ], [ 79.4093954, 27.0975908 ], [ 79.4201859, 27.094097 ], [ 79.422234, 27.0953187 ], [ 79.4220497, 27.0969261 ], [ 79.4267167, 27.0986666 ], [ 79.4364246, 27.0950315 ], [ 79.4362857, 27.0916713 ], [ 79.431659, 27.0872308 ], [ 79.4326478, 27.085139 ], [ 79.4284207, 27.082437 ], [ 79.4277189, 27.0812406 ], [ 79.4289999, 27.0806849 ], [ 79.4262808, 27.0771332 ], [ 79.433157, 27.0684062 ], [ 79.4306619, 27.0684788 ], [ 79.4310573, 27.0652642 ], [ 79.4261643, 27.0645642 ], [ 79.4211632, 27.0588993 ], [ 79.4189322, 27.0590372 ], [ 79.4171133, 27.0608714 ], [ 79.4144163, 27.0593342 ], [ 79.4124169, 27.0607814 ], [ 79.4092074, 27.0586448 ], [ 79.4086781, 27.0554997 ], [ 79.4055986, 27.0573599 ], [ 79.4010404, 27.0554318 ], [ 79.4018254, 27.0533453 ], [ 79.3984851, 27.045686 ], [ 79.3960746, 27.0450661 ], [ 79.3960531, 27.043872 ], [ 79.3977755, 27.0405179 ], [ 79.4020555, 27.0382646 ], [ 79.3990647, 27.0315652 ], [ 79.3886093, 27.0195921 ], [ 79.3855572, 27.009965 ], [ 79.3806179, 27.0040075 ], [ 79.3810062, 26.9998821 ], [ 79.3829044, 26.9971289 ], [ 79.3814243, 26.9879134 ], [ 79.3751457, 26.9819012 ], [ 79.3709347, 26.9806184 ], [ 79.3714962, 26.9781589 ], [ 79.3691761, 26.9753361 ], [ 79.3550611, 26.9653997 ], [ 79.3550878, 26.9583317 ], [ 79.3434999, 26.9623488 ], [ 79.3355932, 26.9591328 ], [ 79.3249727, 26.9603695 ], [ 79.318872, 26.9651717 ], [ 79.3195262, 26.9709451 ], [ 79.322439, 26.9727688 ], [ 79.3167764, 26.9752764 ], [ 79.3173027, 26.9775426 ], [ 79.3074629, 26.9814306 ], [ 79.3029325, 26.9848395 ], [ 79.3017879, 26.983044 ], [ 79.2999386, 26.9840205 ], [ 79.2979477, 26.9830647 ], [ 79.2940315, 26.9783171 ], [ 79.289473, 26.9796681 ], [ 79.2895453, 26.9807762 ], [ 79.2875471, 26.9817789 ], [ 79.2875343, 26.9840472 ], [ 79.2851314, 26.9857772 ], [ 79.2839744, 26.9857016 ], [ 79.2831821, 26.9836055 ], [ 79.2776315, 26.9850043 ], [ 79.2744387, 26.9841984 ], [ 79.272458, 26.9875038 ], [ 79.2734649, 26.9897944 ], [ 79.2713056, 26.9900305 ], [ 79.2693854, 26.9896348 ], [ 79.2665623, 26.9844634 ], [ 79.2567705, 26.9816743 ], [ 79.2554879, 26.9796285 ], [ 79.2482426, 26.9841308 ], [ 79.2422474, 26.9808974 ], [ 79.2401705, 26.9816401 ], [ 79.2332972, 26.9754994 ], [ 79.2311667, 26.9764297 ], [ 79.2256909, 26.975321 ], [ 79.2172006, 26.9710785 ], [ 79.2135817, 26.9724451 ], [ 79.2110256, 26.970104 ], [ 79.209006, 26.9700703 ], [ 79.2060058, 26.9723791 ], [ 79.2035148, 26.972202 ], [ 79.1946857, 26.9782592 ], [ 79.1932732, 26.9858247 ], [ 79.1946805, 26.98729 ], [ 79.1946699, 26.9971925 ], [ 79.1913508, 27.001451 ], [ 79.1780096, 27.0064476 ], [ 79.169569, 27.0054228 ], [ 79.1672052, 27.0062001 ], [ 79.1639067, 27.0015297 ], [ 79.1637485, 26.9974895 ], [ 79.1617198, 26.9984037 ], [ 79.1606527, 26.997473 ], [ 79.1576688, 26.9992331 ], [ 79.1530534, 26.9980243 ], [ 79.1501157, 26.9990445 ], [ 79.1464435, 26.9975107 ], [ 79.1345654, 27.0011822 ], [ 79.1313239, 26.9977941 ], [ 79.1249495, 26.9941083 ], [ 79.1206346, 26.9953312 ], [ 79.1170756, 27.0003756 ], [ 79.112505, 26.9934453 ], [ 79.1087958, 26.9942489 ], [ 79.1054948, 26.9967732 ], [ 79.1022988, 26.9962336 ], [ 79.0944664, 26.9999938 ], [ 79.0929933, 26.9994638 ], [ 79.0940428, 26.9939833 ], [ 79.0986818, 26.9861811 ], [ 79.0988808, 26.9836588 ], [ 79.0973427, 26.982226 ], [ 79.0908859, 26.9804305 ], [ 79.0867104, 26.9767472 ], [ 79.0842926, 26.9784287 ], [ 79.0833051, 26.9842811 ], [ 79.0765911, 26.9911819 ], [ 79.0737512, 26.9890743 ], [ 79.0639924, 26.9884262 ], [ 79.0605757, 26.9855038 ], [ 79.0517504, 26.9816219 ], [ 79.0496583, 26.9719249 ], [ 79.0479376, 26.9707969 ], [ 79.0451127, 26.9721497 ], [ 79.0423895, 26.9679654 ], [ 79.0411609, 26.9682463 ], [ 79.0394143, 26.9663864 ], [ 79.0346429, 26.9672585 ], [ 79.0250758, 26.9526745 ], [ 79.0115192, 26.9451393 ], [ 79.0094852, 26.9489234 ], [ 79.0079983, 26.9489628 ], [ 79.008306, 26.9513368 ], [ 79.0066394, 26.9534709 ], [ 78.9994738, 26.9574547 ], [ 78.9998869, 26.9613809 ], [ 79.0033512, 26.9686896 ], [ 79.000961, 26.9722893 ], [ 78.9922539, 26.9779149 ], [ 78.9912293, 26.9801991 ], [ 78.988352, 26.9761501 ], [ 78.9779285, 26.9779752 ], [ 78.9762919, 26.9768415 ], [ 78.9636296, 26.9831014 ], [ 78.9598592, 26.9877139 ], [ 78.9580583, 26.9882273 ], [ 78.9508963, 26.9853313 ], [ 78.9509661, 26.9825662 ], [ 78.955458, 26.9803505 ], [ 78.9518699, 26.9769998 ], [ 78.9497466, 26.9786906 ], [ 78.9472561, 26.9771771 ], [ 78.9443519, 26.9692453 ], [ 78.9387071, 26.9722115 ], [ 78.9363783, 26.9721646 ], [ 78.9352883, 26.9804742 ], [ 78.9312006, 26.982848 ], [ 78.9272648, 26.9823327 ], [ 78.9264009, 26.9839951 ], [ 78.9237578, 26.9845232 ], [ 78.9235244, 26.9833468 ], [ 78.9260261, 26.9821581 ], [ 78.9190382, 26.9740124 ], [ 78.9210678, 26.9710948 ], [ 78.9254373, 26.9682451 ], [ 78.9218133, 26.9625029 ], [ 78.9199627, 26.9642845 ], [ 78.914659, 26.9617468 ], [ 78.9096324, 26.965517 ], [ 78.9073053, 26.9639415 ], [ 78.8965659, 26.9676925 ], [ 78.8864039, 26.9624416 ], [ 78.8840193, 26.9634851 ], [ 78.8770524, 26.9611691 ], [ 78.8720437, 26.9613224 ], [ 78.8667025, 26.9585983 ], [ 78.8637632, 26.96036 ], [ 78.8621033, 26.9632092 ], [ 78.8578869, 26.9653745 ], [ 78.8556498, 26.9707456 ], [ 78.853086, 26.9723069 ], [ 78.8511691, 26.9683757 ], [ 78.8481374, 26.967568 ], [ 78.8466651, 26.9654712 ], [ 78.844785, 26.9664984 ], [ 78.8450348, 26.9647712 ], [ 78.8413914, 26.963959 ], [ 78.8393864, 26.9604621 ], [ 78.8365418, 26.959403 ], [ 78.8390674, 26.9584992 ], [ 78.8384755, 26.956317 ], [ 78.841114, 26.9532709 ], [ 78.8383938, 26.9534192 ], [ 78.8351963, 26.9502606 ], [ 78.8317656, 26.9490444 ], [ 78.8282052, 26.9490167 ], [ 78.8207275, 26.954157 ], [ 78.8147037, 26.9540091 ], [ 78.8097364, 26.9575485 ], [ 78.8068601, 26.9644311 ], [ 78.8026284, 26.9677885 ], [ 78.8162683, 26.9810461 ], [ 78.8185839, 26.9843934 ], [ 78.8172437, 26.9852405 ], [ 78.8182769, 26.9868916 ], [ 78.8128059, 26.9926539 ], [ 78.8066301, 26.9878941 ], [ 78.8058684, 26.9833546 ], [ 78.8039651, 26.9807153 ], [ 78.7957338, 26.9853564 ], [ 78.7940302, 26.9871539 ], [ 78.7964767, 26.9903619 ], [ 78.7946107, 26.9926545 ], [ 78.7879342, 26.9967019 ], [ 78.7817138, 27.0025135 ], [ 78.7837897, 27.0059379 ], [ 78.7817528, 27.0081729 ], [ 78.7938823, 27.0141674 ], [ 78.7923526, 27.0182908 ], [ 78.7875077, 27.0194377 ], [ 78.7819276, 27.0248374 ], [ 78.7819976, 27.0209641 ], [ 78.7780161, 27.0170092 ], [ 78.7747983, 27.0206786 ], [ 78.7763789, 27.0220211 ], [ 78.7732598, 27.029057 ], [ 78.7737778, 27.0317495 ], [ 78.782804, 27.0397066 ], [ 78.7874302, 27.0386313 ], [ 78.7883676, 27.0422402 ], [ 78.7809459, 27.0459033 ], [ 78.7725702, 27.0448441 ], [ 78.7712315, 27.0475059 ], [ 78.764276, 27.051803 ], [ 78.7642978, 27.053193 ], [ 78.7702302, 27.0550104 ], [ 78.7763195, 27.0607337 ], [ 78.7707846, 27.0635329 ], [ 78.7694891, 27.0630088 ], [ 78.7663542, 27.0658122 ], [ 78.7726603, 27.0807164 ], [ 78.767607, 27.0830436 ], [ 78.7737872, 27.0848923 ], [ 78.7743365, 27.0882879 ], [ 78.7762668, 27.0902813 ], [ 78.7765952, 27.094583 ], [ 78.772975, 27.1010048 ], [ 78.7649031, 27.1058892 ], [ 78.7729573, 27.1140635 ], [ 78.775041, 27.1112973 ], [ 78.7789902, 27.1101711 ], [ 78.7816193, 27.1068396 ], [ 78.78743, 27.1053475 ], [ 78.7903584, 27.1005723 ], [ 78.793839, 27.0984404 ], [ 78.7991563, 27.1002602 ], [ 78.8001972, 27.1035035 ], [ 78.7992541, 27.1055713 ], [ 78.8031076, 27.112243 ], [ 78.8021447, 27.1139266 ], [ 78.806553, 27.1197221 ], [ 78.805956, 27.1211687 ], [ 78.8019884, 27.1223116 ], [ 78.799701, 27.1204451 ], [ 78.7980298, 27.1209412 ], [ 78.7930211, 27.12396 ], [ 78.7954309, 27.1288654 ], [ 78.793807, 27.1343833 ], [ 78.7894478, 27.134602 ], [ 78.7912762, 27.1386784 ], [ 78.7998126, 27.1456148 ], [ 78.8057018, 27.1459836 ], [ 78.806633, 27.1415568 ], [ 78.809858, 27.1450561 ], [ 78.8139696, 27.139757 ], [ 78.8195271, 27.1368484 ], [ 78.8214228, 27.1397149 ], [ 78.819519, 27.1428433 ], [ 78.8203854, 27.1449262 ], [ 78.8152895, 27.1488988 ], [ 78.808417, 27.1504118 ], [ 78.8112343, 27.1534333 ], [ 78.8083367, 27.1553583 ], [ 78.8071939, 27.1559249 ], [ 78.8033629, 27.1537897 ], [ 78.7969141, 27.1602839 ], [ 78.7910107, 27.1635989 ], [ 78.7851072, 27.1655548 ], [ 78.7807861, 27.1622534 ], [ 78.7774392, 27.1628248 ], [ 78.7776246, 27.164087 ], [ 78.767791, 27.1733961 ], [ 78.7587679, 27.1786223 ], [ 78.7523535, 27.180197 ], [ 78.7454567, 27.1788608 ], [ 78.7415639, 27.1811611 ], [ 78.7420917, 27.1843635 ], [ 78.7398238, 27.1841622 ], [ 78.7391247, 27.1870874 ], [ 78.7359542, 27.1904582 ], [ 78.7254573, 27.1944843 ], [ 78.7245325, 27.1966312 ], [ 78.7266301, 27.2048012 ], [ 78.7323176, 27.2064291 ], [ 78.7368937, 27.209768 ], [ 78.7458366, 27.2092451 ], [ 78.7511532, 27.2075174 ], [ 78.7585346, 27.2179586 ], [ 78.7608624, 27.2250262 ], [ 78.7600307, 27.2283429 ], [ 78.7531909, 27.2323177 ], [ 78.737003, 27.2455108 ], [ 78.7282532, 27.247891 ], [ 78.727847, 27.2545839 ], [ 78.7194806, 27.2636591 ], [ 78.7033552, 27.2654909 ], [ 78.6957749, 27.268982 ], [ 78.6898372, 27.2678184 ], [ 78.6883852, 27.2696975 ], [ 78.6961576, 27.2781107 ], [ 78.7024937, 27.2828801 ], [ 78.7154596, 27.2803521 ], [ 78.7183968, 27.2839521 ], [ 78.7169892, 27.286478 ], [ 78.7204232, 27.2940002 ], [ 78.7186799, 27.2955548 ], [ 78.7191148, 27.2973297 ], [ 78.7124707, 27.2998365 ], [ 78.7116594, 27.3115011 ], [ 78.7147776, 27.3162331 ], [ 78.7124569, 27.3173591 ], [ 78.7153819, 27.3202616 ], [ 78.7141032, 27.3357218 ], [ 78.7095402, 27.3401438 ], [ 78.7118588, 27.3427441 ], [ 78.7150075, 27.3420881 ], [ 78.7180585, 27.3443275 ], [ 78.7271609, 27.340815 ], [ 78.734607, 27.3319542 ], [ 78.7435418, 27.3352618 ], [ 78.7544467, 27.3452407 ], [ 78.7658288, 27.3362913 ], [ 78.7750577, 27.334487 ], [ 78.7760492, 27.33606 ], [ 78.7794134, 27.3363227 ], [ 78.7820342, 27.3418192 ], [ 78.7820634, 27.3473189 ], [ 78.792794, 27.3484558 ], [ 78.8038768, 27.3523358 ], [ 78.8099184, 27.3569537 ], [ 78.8169847, 27.3527672 ], [ 78.8210026, 27.3561428 ], [ 78.8251567, 27.3566824 ], [ 78.8275761, 27.3551357 ], [ 78.8297563, 27.3587512 ], [ 78.834828, 27.3618603 ], [ 78.8352557, 27.3653067 ], [ 78.8443845, 27.3739897 ], [ 78.8544363, 27.3923143 ], [ 78.8528794, 27.3923487 ], [ 78.8516166, 27.3945566 ], [ 78.8454582, 27.3976543 ], [ 78.842852, 27.4004707 ], [ 78.8395241, 27.398435 ], [ 78.8409312, 27.4052614 ], [ 78.8378796, 27.4105465 ], [ 78.8516139, 27.4175957 ], [ 78.8527117, 27.4198595 ], [ 78.8618571, 27.4273211 ], [ 78.8605576, 27.4291833 ], [ 78.8627901, 27.4322652 ], [ 78.8641746, 27.4322472 ], [ 78.8661196, 27.4369263 ], [ 78.8676893, 27.4380619 ], [ 78.8715431, 27.4374542 ], [ 78.8715616, 27.4450318 ], [ 78.8760428, 27.4512241 ], [ 78.8807177, 27.4556415 ], [ 78.8858626, 27.4563599 ], [ 78.8835103, 27.4588764 ], [ 78.8824588, 27.4624899 ], [ 78.8867202, 27.4664008 ], [ 78.8853776, 27.4679502 ], [ 78.8870173, 27.4698453 ], [ 78.8855924, 27.4724657 ], [ 78.8893552, 27.473093 ], [ 78.8903945, 27.4708433 ] ] ] } }
]
}
