{
"type": "FeatureCollection",
"name": "0919",
"crs": { "type": "name", "properties": { "name": "urn:ogc:def:crs:OGC:1.3:CRS84" } },
"features": [
{ "type": "Feature", "properties": { "code": "0919", "name": "Budaun", "type": "district" }, "geometry": { "type": "Polygon", "coordinates": [ [ [ 78.8828259, 28.4722547 ], [ 78.88945, 28.4679801 ], [ 78.8939552, 28.4625971 ], [ 78.8978661, 28.4618336 ], [ 78.9063177, 28.4710055 ], [ 78.9112354, 28.4669867 ], [ 78.9097783, 28.4651186 ], [ 78.9121809, 28.4627505 ], [ 78.9138657, 28.4622907 ], [ 78.9166605, 28.4645063 ], [ 78.9208139, 28.4626572 ], [ 78.924651, 28.4585114 ], [ 78.9350243, 28.4635175 ], [ 78.9410306, 28.4598586 ], [ 78.9399406, 28.4551283 ], [ 78.9414718, 28.4523356 ], [ 78.9408132, 28.4497031 ], [ 78.9426279, 28.4482729 ], [ 78.9420969, 28.4465563 ], [ 78.9438069, 28.4466013 ], [ 78.9443607, 28.4455862 ], [ 78.943299, 28.4447967 ], [ 78.9450472, 28.4449928 ], [ 78.9441233, 28.4438537 ], [ 78.9469329, 28.4413497 ], [ 78.946772, 28.4398089 ], [ 78.9494695, 28.4394049 ], [ 78.949283, 28.4380763 ], [ 78.9517912, 28.4351661 ], [ 78.9518442, 28.430562 ], [ 78.9492182, 28.4290577 ], [ 78.9492997, 28.4276208 ], [ 78.9503836, 28.4223444 ], [ 78.952728, 28.4194522 ], [ 78.9568665, 28.4179312 ], [ 78.9581553, 28.4194424 ], [ 78.9595123, 28.4174752 ], [ 78.9630056, 28.4185664 ], [ 78.9623072, 28.4212621 ], [ 78.9668229, 28.4190844 ], [ 78.9688986, 28.4231443 ], [ 78.9701296, 28.4182806 ], [ 78.9712117, 28.4192119 ], [ 78.9732193, 28.4178241 ], [ 78.9729354, 28.4159903 ], [ 78.9789233, 28.4146802 ], [ 78.9788922, 28.4133312 ], [ 78.9830755, 28.4110334 ], [ 78.986676, 28.4119706 ], [ 78.9873581, 28.4138201 ], [ 78.9882125, 28.4132784 ], [ 78.987337, 28.4123786 ], [ 78.9901338, 28.4132122 ], [ 78.9918347, 28.4114204 ], [ 78.9956464, 28.4112519 ], [ 78.9973494, 28.4089954 ], [ 78.996156, 28.4054408 ], [ 78.9993249, 28.4053617 ], [ 78.9987671, 28.3998008 ], [ 79.0003054, 28.3993722 ], [ 79.0002822, 28.397702 ], [ 79.0034621, 28.3975597 ], [ 79.0043752, 28.3954035 ], [ 79.0031828, 28.3940264 ], [ 79.0070983, 28.390276 ], [ 79.0089597, 28.3903305 ], [ 79.0095014, 28.3927964 ], [ 79.0131964, 28.3916549 ], [ 79.0126227, 28.3928838 ], [ 79.0161444, 28.3938696 ], [ 79.0137274, 28.3951288 ], [ 79.0168781, 28.3952724 ], [ 79.0178139, 28.3943094 ], [ 79.016917, 28.3917077 ], [ 79.0183849, 28.3917072 ], [ 79.0200137, 28.3877132 ], [ 79.0209025, 28.3930756 ], [ 79.0228907, 28.3907208 ], [ 79.0272789, 28.3940882 ], [ 79.0376557, 28.3900518 ], [ 79.0387364, 28.3909245 ], [ 79.0403876, 28.3892021 ], [ 79.043247, 28.3906987 ], [ 79.043159, 28.3884552 ], [ 79.0448659, 28.3886086 ], [ 79.0460052, 28.386055 ], [ 79.0502462, 28.3854289 ], [ 79.0508264, 28.3829364 ], [ 79.0549432, 28.3851419 ], [ 79.0565505, 28.3831136 ], [ 79.0576257, 28.3843608 ], [ 79.061074, 28.3807732 ], [ 79.061253, 28.3784978 ], [ 79.0591496, 28.3787169 ], [ 79.0608525, 28.3761498 ], [ 79.06077, 28.3738586 ], [ 79.0619074, 28.3750846 ], [ 79.0634486, 28.3746308 ], [ 79.0677481, 28.3715324 ], [ 79.06574, 28.3716447 ], [ 79.0626042, 28.3660139 ], [ 79.0636651, 28.3626889 ], [ 79.0615742, 28.3605672 ], [ 79.0628044, 28.3569664 ], [ 79.0571864, 28.3521917 ], [ 79.0582305, 28.3518065 ], [ 79.056937, 28.3487825 ], [ 79.0613144, 28.3434678 ], [ 79.0622676, 28.3379562 ], [ 79.0606536, 28.3323626 ], [ 79.0641404, 28.3313522 ], [ 79.0672264, 28.3283921 ], [ 79.0724236, 28.3323552 ], [ 79.0760924, 28.3322525 ], [ 79.0829771, 28.3261378 ], [ 79.0841422, 28.3246601 ], [ 79.080644, 28.3206833 ], [ 79.0816093, 28.3199682 ], [ 79.0772546, 28.3136858 ], [ 79.0790779, 28.3107229 ], [ 79.0809741, 28.3110107 ], [ 79.0862216, 28.3073147 ], [ 79.0871998, 28.3052188 ], [ 79.0854093, 28.3015381 ], [ 79.0884776, 28.2993506 ], [ 79.086404, 28.2923749 ], [ 79.0826309, 28.2884919 ], [ 79.0806544, 28.2889005 ], [ 79.0777228, 28.283552 ], [ 79.0815446, 28.2778464 ], [ 79.0776846, 28.2733946 ], [ 79.0801946, 28.2715333 ], [ 79.0784314, 28.26938 ], [ 79.0785603, 28.265061 ], [ 79.0820567, 28.2598998 ], [ 79.088316, 28.2550551 ], [ 79.0955402, 28.2505044 ], [ 79.0983535, 28.2513271 ], [ 79.1016087, 28.2495555 ], [ 79.1013776, 28.2482288 ], [ 79.1087101, 28.2454844 ], [ 79.1142264, 28.2386117 ], [ 79.1087918, 28.2340394 ], [ 79.113124, 28.2302485 ], [ 79.1133518, 28.2270401 ], [ 79.1107678, 28.2245784 ], [ 79.1098731, 28.2254818 ], [ 79.1071473, 28.224437 ], [ 79.1011622, 28.2205275 ], [ 79.1011066, 28.218771 ], [ 79.1027546, 28.2176296 ], [ 79.1018094, 28.2160498 ], [ 79.1105228, 28.2110116 ], [ 79.1123496, 28.2039362 ], [ 79.1116097, 28.202297 ], [ 79.1128447, 28.2013123 ], [ 79.1146335, 28.2014903 ], [ 79.11564, 28.2036054 ], [ 79.1228679, 28.2020277 ], [ 79.129296, 28.2048094 ], [ 79.139765, 28.1995253 ], [ 79.1395736, 28.1929493 ], [ 79.1429622, 28.1901486 ], [ 79.1492464, 28.1950175 ], [ 79.1538169, 28.1960661 ], [ 79.156736, 28.1941401 ], [ 79.1589627, 28.1949546 ], [ 79.1617884, 28.1912545 ], [ 79.1655776, 28.1925228 ], [ 79.1686918, 28.1897201 ], [ 79.1766016, 28.1864119 ], [ 79.181138, 28.1914386 ], [ 79.1803544, 28.1921252 ], [ 79.1819977, 28.1973993 ], [ 79.1862121, 28.2034695 ], [ 79.2059438, 28.2029824 ], [ 79.2105794, 28.1992905 ], [ 79.2212756, 28.1973168 ], [ 79.2244757, 28.1974444 ], [ 79.2281628, 28.1994045 ], [ 79.2336734, 28.1935819 ], [ 79.23398, 28.190447 ], [ 79.2383911, 28.1888455 ], [ 79.2419026, 28.1908313 ], [ 79.2403304, 28.1881431 ], [ 79.2418693, 28.1846868 ], [ 79.243465, 28.1862633 ], [ 79.2453199, 28.1864175 ], [ 79.2474161, 28.1846169 ], [ 79.2516538, 28.1859776 ], [ 79.2516318, 28.1847915 ], [ 79.2491645, 28.1840322 ], [ 79.2547497, 28.1829328 ], [ 79.255464, 28.1801774 ], [ 79.2581464, 28.1789781 ], [ 79.2580023, 28.1738854 ], [ 79.259451, 28.1747559 ], [ 79.2601031, 28.1775692 ], [ 79.2618548, 28.1763913 ], [ 79.2624518, 28.1737643 ], [ 79.2657799, 28.174364 ], [ 79.2674675, 28.1791416 ], [ 79.2750572, 28.1791778 ], [ 79.2818561, 28.1846641 ], [ 79.2900795, 28.1826483 ], [ 79.295243, 28.1849143 ], [ 79.2980253, 28.1809853 ], [ 79.3030301, 28.1804401 ], [ 79.3081603, 28.1862779 ], [ 79.3106582, 28.1868301 ], [ 79.3218152, 28.1812454 ], [ 79.3245642, 28.1783694 ], [ 79.3236701, 28.1713128 ], [ 79.3183563, 28.1653976 ], [ 79.3214532, 28.1637551 ], [ 79.3235046, 28.1650586 ], [ 79.3307555, 28.1602678 ], [ 79.3369541, 28.1706004 ], [ 79.3416261, 28.1704093 ], [ 79.3466121, 28.1733176 ], [ 79.3515784, 28.1664308 ], [ 79.3588128, 28.1675172 ], [ 79.3604639, 28.1687357 ], [ 79.3609964, 28.172631 ], [ 79.3651875, 28.1756008 ], [ 79.3704912, 28.1733271 ], [ 79.3736019, 28.1734426 ], [ 79.3751028, 28.1756658 ], [ 79.373744, 28.1799146 ], [ 79.3884853, 28.1788779 ], [ 79.3895553, 28.1762164 ], [ 79.3933628, 28.1766048 ], [ 79.3966907, 28.1726173 ], [ 79.4034241, 28.1677711 ], [ 79.4141528, 28.1749474 ], [ 79.4191189, 28.1732202 ], [ 79.4241471, 28.1737025 ], [ 79.4248491, 28.1657008 ], [ 79.4275765, 28.1606055 ], [ 79.4472964, 28.1549846 ], [ 79.4511579, 28.1489046 ], [ 79.4529077, 28.1410208 ], [ 79.4582982, 28.1362353 ], [ 79.4670438, 28.1304118 ], [ 79.4757101, 28.1293378 ], [ 79.4874167, 28.1240643 ], [ 79.495328, 28.1227489 ], [ 79.4965556, 28.1210509 ], [ 79.505427, 28.1038488 ], [ 79.5030724, 28.0928927 ], [ 79.5078216, 28.0855412 ], [ 79.5100006, 28.0752215 ], [ 79.5047564, 28.0604243 ], [ 79.4944222, 28.052598 ], [ 79.4875955, 28.0524472 ], [ 79.4880834, 28.0464763 ], [ 79.4854434, 28.0455909 ], [ 79.4854908, 28.0405259 ], [ 79.4873193, 28.0338263 ], [ 79.4913086, 28.0323844 ], [ 79.4914197, 28.0277049 ], [ 79.4977422, 28.0248711 ], [ 79.5031717, 28.0182636 ], [ 79.5080802, 28.0000713 ], [ 79.4817773, 27.9997891 ], [ 79.4737525, 27.9923632 ], [ 79.4701057, 27.9864216 ], [ 79.4752966, 27.9811714 ], [ 79.4748418, 27.9783514 ], [ 79.4633046, 27.9651502 ], [ 79.4571963, 27.9607359 ], [ 79.4597208, 27.9584534 ], [ 79.4646133, 27.9634992 ], [ 79.4669419, 27.9628213 ], [ 79.4713767, 27.9658758 ], [ 79.4762695, 27.9561928 ], [ 79.4763727, 27.9538168 ], [ 79.4895153, 27.9469241 ], [ 79.4894714, 27.9424197 ], [ 79.4883012, 27.9396249 ], [ 79.486003, 27.9388714 ], [ 79.4861803, 27.9420934 ], [ 79.4840192, 27.9458168 ], [ 79.4817744, 27.9471636 ], [ 79.4812901, 27.9439565 ], [ 79.4842361, 27.9300614 ], [ 79.4805315, 27.9308227 ], [ 79.4654334, 27.9248387 ], [ 79.4660707, 27.9212106 ], [ 79.4616944, 27.9126422 ], [ 79.4650123, 27.9074701 ], [ 79.4635868, 27.8991195 ], [ 79.4625471, 27.8971698 ], [ 79.4539814, 27.8939072 ], [ 79.4536537, 27.8870958 ], [ 79.4653558, 27.8837089 ], [ 79.4608872, 27.8746969 ], [ 79.4705628, 27.8711734 ], [ 79.4684124, 27.8652245 ], [ 79.4720309, 27.8620583 ], [ 79.4754848, 27.861591 ], [ 79.4733953, 27.8559186 ], [ 79.4854443, 27.8487825 ], [ 79.4825248, 27.8434731 ], [ 79.4747912, 27.8426185 ], [ 79.4709614, 27.8444575 ], [ 79.4658788, 27.8509487 ], [ 79.4627821, 27.8484509 ], [ 79.4564049, 27.8508141 ], [ 79.4526728, 27.8443895 ], [ 79.4556763, 27.8402693 ], [ 79.4527649, 27.8381312 ], [ 79.4415686, 27.83594 ], [ 79.4371343, 27.8424279 ], [ 79.4328419, 27.8433798 ], [ 79.4169754, 27.83029 ], [ 79.4155045, 27.8325509 ], [ 79.4167935, 27.8359827 ], [ 79.4138831, 27.8404216 ], [ 79.4045843, 27.8447536 ], [ 79.3993662, 27.837797 ], [ 79.402683, 27.8388123 ], [ 79.4047135, 27.8365536 ], [ 79.3987931, 27.8335741 ], [ 79.4022423, 27.8335042 ], [ 79.4042408, 27.8314112 ], [ 79.395507, 27.8286742 ], [ 79.3953555, 27.822086 ], [ 79.3918817, 27.8208843 ], [ 79.3936956, 27.8184038 ], [ 79.3924879, 27.8175977 ], [ 79.3899006, 27.8193842 ], [ 79.3860994, 27.8152791 ], [ 79.3844489, 27.8161019 ], [ 79.3856827, 27.8179031 ], [ 79.3792259, 27.8168553 ], [ 79.3829464, 27.8183899 ], [ 79.3797941, 27.8211939 ], [ 79.3818047, 27.8229706 ], [ 79.3788376, 27.8232681 ], [ 79.371491, 27.8199502 ], [ 79.3706549, 27.8135412 ], [ 79.373578, 27.8129723 ], [ 79.3757011, 27.810825 ], [ 79.3708123, 27.8086322 ], [ 79.372447, 27.8047692 ], [ 79.3697014, 27.8009719 ], [ 79.368456, 27.8015473 ], [ 79.3698407, 27.8041509 ], [ 79.361184, 27.8019907 ], [ 79.362321, 27.8045906 ], [ 79.359128, 27.8033064 ], [ 79.3589154, 27.7975788 ], [ 79.3532545, 27.7930231 ], [ 79.3508878, 27.7876678 ], [ 79.3552315, 27.7825446 ], [ 79.3526819, 27.7778794 ], [ 79.3462312, 27.7525768 ], [ 79.352536, 27.7528872 ], [ 79.3554668, 27.7514121 ], [ 79.3556844, 27.7419907 ], [ 79.3573737, 27.7396699 ], [ 79.3592008, 27.739326 ], [ 79.3605556, 27.7348518 ], [ 79.3566645, 27.7336722 ], [ 79.3560788, 27.7372491 ], [ 79.3522875, 27.7358063 ], [ 79.3480682, 27.7385504 ], [ 79.3440805, 27.7369529 ], [ 79.3413886, 27.7375785 ], [ 79.3396212, 27.7359462 ], [ 79.3373485, 27.7378079 ], [ 79.3340323, 27.7352029 ], [ 79.3294704, 27.734964 ], [ 79.3228867, 27.7255391 ], [ 79.3321168, 27.7198469 ], [ 79.333829, 27.7168357 ], [ 79.3372165, 27.715181 ], [ 79.3394816, 27.7112377 ], [ 79.3374002, 27.7033577 ], [ 79.3389825, 27.702754 ], [ 79.3370997, 27.6997157 ], [ 79.3417031, 27.6991306 ], [ 79.343184, 27.6941518 ], [ 79.3391, 27.683853 ], [ 79.3412715, 27.6829019 ], [ 79.3438318, 27.6789377 ], [ 79.3467421, 27.6787521 ], [ 79.3489964, 27.6765529 ], [ 79.350245, 27.6734835 ], [ 79.348829, 27.6707985 ], [ 79.3568672, 27.6683981 ], [ 79.3519947, 27.6578044 ], [ 79.3459506, 27.6611454 ], [ 79.3089917, 27.6709478 ], [ 79.3057268, 27.6728661 ], [ 79.3084817, 27.6766774 ], [ 79.3031151, 27.6796625 ], [ 79.3020446, 27.6815025 ], [ 79.303099, 27.6829853 ], [ 79.2915785, 27.6859847 ], [ 79.2898118, 27.6844834 ], [ 79.2895056, 27.6819346 ], [ 79.2996054, 27.6697852 ], [ 79.2982288, 27.6690763 ], [ 79.2938094, 27.6702206 ], [ 79.2833108, 27.6799379 ], [ 79.2788347, 27.6822894 ], [ 79.2735434, 27.6806182 ], [ 79.2561018, 27.687356 ], [ 79.2582313, 27.6941738 ], [ 79.2523502, 27.6976247 ], [ 79.2433321, 27.6968246 ], [ 79.235131, 27.7084896 ], [ 79.2301415, 27.7047954 ], [ 79.2310701, 27.6963811 ], [ 79.2295717, 27.6964609 ], [ 79.2274526, 27.6924085 ], [ 79.2191464, 27.6983936 ], [ 79.2202215, 27.7001347 ], [ 79.2192146, 27.700849 ], [ 79.1897293, 27.7130062 ], [ 79.1814335, 27.7153259 ], [ 79.1960688, 27.7501842 ], [ 79.1935186, 27.7519141 ], [ 79.1881656, 27.7603418 ], [ 79.1870333, 27.7647273 ], [ 79.1754466, 27.7695831 ], [ 79.1754406, 27.7705007 ], [ 79.1704321, 27.7710645 ], [ 79.1742384, 27.7756255 ], [ 79.1699614, 27.7768485 ], [ 79.1653605, 27.7824609 ], [ 79.1639393, 27.7968984 ], [ 79.141766, 27.8141902 ], [ 79.1337537, 27.8140621 ], [ 79.1339647, 27.815505 ], [ 79.1473429, 27.8291151 ], [ 79.1428348, 27.8315156 ], [ 79.1434153, 27.832764 ], [ 79.1411988, 27.8338346 ], [ 79.1385914, 27.8382113 ], [ 79.1366114, 27.837021 ], [ 79.128652, 27.8409588 ], [ 79.1219077, 27.8470819 ], [ 79.1205775, 27.8477299 ], [ 79.115103, 27.8443591 ], [ 79.1100651, 27.8382361 ], [ 79.0970909, 27.829905 ], [ 79.0893539, 27.8346502 ], [ 79.0732856, 27.8390667 ], [ 79.0727492, 27.8418816 ], [ 79.0699364, 27.8438313 ], [ 79.0628434, 27.8410955 ], [ 79.0650809, 27.8373077 ], [ 79.0584753, 27.834385 ], [ 79.0326288, 27.8371735 ], [ 79.0209797, 27.8420702 ], [ 79.0109191, 27.8384689 ], [ 79.0108989, 27.8410246 ], [ 79.0008595, 27.8378232 ], [ 79.0095175, 27.8511159 ], [ 79.0126786, 27.8518565 ], [ 79.0160308, 27.8563993 ], [ 79.0039217, 27.8614162 ], [ 79.000656, 27.8645414 ], [ 78.984194, 27.8741663 ], [ 78.9714617, 27.8648065 ], [ 78.9708592, 27.8610589 ], [ 78.9637393, 27.8471773 ], [ 78.9502077, 27.8531236 ], [ 78.9353869, 27.8449989 ], [ 78.9292913, 27.8502043 ], [ 78.9175132, 27.8500493 ], [ 78.9205408, 27.8530875 ], [ 78.9183715, 27.8533231 ], [ 78.9187262, 27.8578833 ], [ 78.9169239, 27.859599 ], [ 78.9197841, 27.8624983 ], [ 78.9204066, 27.875111 ], [ 78.9102874, 27.883973 ], [ 78.8876094, 27.9159713 ], [ 78.8687751, 27.9097396 ], [ 78.8622739, 27.9123138 ], [ 78.8548506, 27.9169401 ], [ 78.8463402, 27.9285108 ], [ 78.8213502, 27.9397597 ], [ 78.8147472, 27.9520086 ], [ 78.8030185, 27.9555732 ], [ 78.7988652, 27.9509512 ], [ 78.7877261, 27.953354 ], [ 78.7869669, 27.9517303 ], [ 78.7774658, 27.9553379 ], [ 78.7775851, 27.9588865 ], [ 78.7756078, 27.9608271 ], [ 78.7657128, 27.9630867 ], [ 78.7573719, 27.9485377 ], [ 78.7494772, 27.9570892 ], [ 78.7453821, 27.9577229 ], [ 78.7416222, 27.955579 ], [ 78.7347695, 27.9625065 ], [ 78.731229, 27.9604352 ], [ 78.7222925, 27.9636324 ], [ 78.7195042, 27.968229 ], [ 78.7174312, 27.9694026 ], [ 78.7181701, 27.971496 ], [ 78.7164959, 27.9757284 ], [ 78.7124401, 27.9760775 ], [ 78.7108853, 27.9774329 ], [ 78.7051288, 27.9845099 ], [ 78.7035973, 27.9932557 ], [ 78.6996898, 27.9956398 ], [ 78.692698, 27.9982116 ], [ 78.6701829, 28.0001215 ], [ 78.6615478, 28.0023465 ], [ 78.6534737, 28.0078965 ], [ 78.6590116, 28.0106004 ], [ 78.6598752, 28.0131926 ], [ 78.6660542, 28.0159595 ], [ 78.6533954, 28.0144433 ], [ 78.6553483, 28.0124112 ], [ 78.6505033, 28.0123084 ], [ 78.6522034, 28.0138181 ], [ 78.6449522, 28.0179173 ], [ 78.6358715, 28.0186339 ], [ 78.628075, 28.0279454 ], [ 78.6235757, 28.0247142 ], [ 78.6171605, 28.0160187 ], [ 78.6102738, 28.019368 ], [ 78.6077205, 28.0179949 ], [ 78.595406, 28.0331617 ], [ 78.5890245, 28.0337321 ], [ 78.5959359, 28.0344808 ], [ 78.6047977, 28.0373992 ], [ 78.6045289, 28.0386056 ], [ 78.5909128, 28.0414013 ], [ 78.5870173, 28.0456576 ], [ 78.5819776, 28.0487023 ], [ 78.5730951, 28.0498011 ], [ 78.5828013, 28.0608945 ], [ 78.5802567, 28.0631821 ], [ 78.581053, 28.0663429 ], [ 78.5831741, 28.071148 ], [ 78.5883145, 28.0758286 ], [ 78.5901011, 28.0836419 ], [ 78.5913135, 28.0846178 ], [ 78.5891079, 28.0863597 ], [ 78.5907311, 28.0900214 ], [ 78.5856942, 28.0920716 ], [ 78.585648, 28.0952648 ], [ 78.5835876, 28.097457 ], [ 78.5816095, 28.096799 ], [ 78.5719679, 28.0989899 ], [ 78.5722411, 28.1022793 ], [ 78.5725818, 28.1031808 ], [ 78.5794935, 28.1029936 ], [ 78.5804812, 28.104328 ], [ 78.5797827, 28.1075508 ], [ 78.5851292, 28.1109922 ], [ 78.5890769, 28.1157509 ], [ 78.581762, 28.1231043 ], [ 78.5938644, 28.1330923 ], [ 78.5831779, 28.140229 ], [ 78.5766745, 28.1360913 ], [ 78.5744109, 28.1389298 ], [ 78.5746577, 28.1425764 ], [ 78.5780376, 28.1477952 ], [ 78.5859653, 28.1466201 ], [ 78.5872316, 28.1541313 ], [ 78.5929079, 28.1608832 ], [ 78.6014444, 28.1593791 ], [ 78.6110679, 28.1659976 ], [ 78.6119313, 28.1691576 ], [ 78.6103018, 28.1727761 ], [ 78.6055719, 28.1707251 ], [ 78.6020421, 28.1710707 ], [ 78.6041187, 28.1744304 ], [ 78.5968946, 28.176318 ], [ 78.5983564, 28.1799351 ], [ 78.5944048, 28.179169 ], [ 78.5920169, 28.1823555 ], [ 78.5922442, 28.1856255 ], [ 78.5997193, 28.1954231 ], [ 78.6016264, 28.1967383 ], [ 78.6066934, 28.1957304 ], [ 78.609883, 28.1985342 ], [ 78.6116567, 28.2033735 ], [ 78.6170863, 28.205432 ], [ 78.6170323, 28.2089436 ], [ 78.6323818, 28.2158142 ], [ 78.6368499, 28.2222806 ], [ 78.6307965, 28.2277704 ], [ 78.6311002, 28.2301781 ], [ 78.6355513, 28.233644 ], [ 78.6353513, 28.235981 ], [ 78.6335692, 28.236962 ], [ 78.6325272, 28.2440995 ], [ 78.6360527, 28.2514189 ], [ 78.6406096, 28.2545676 ], [ 78.641606, 28.2584729 ], [ 78.6392016, 28.2608084 ], [ 78.6513678, 28.2697249 ], [ 78.6468341, 28.2760775 ], [ 78.6478786, 28.2768683 ], [ 78.6464292, 28.2784444 ], [ 78.6480236, 28.2803318 ], [ 78.6439165, 28.283985 ], [ 78.6448835, 28.2850332 ], [ 78.6428199, 28.287572 ], [ 78.6435493, 28.2902215 ], [ 78.6494078, 28.2951483 ], [ 78.652078, 28.29496 ], [ 78.6572172, 28.2989248 ], [ 78.6560645, 28.3003422 ], [ 78.6573756, 28.3011722 ], [ 78.655387, 28.3028707 ], [ 78.6623312, 28.3087312 ], [ 78.6525118, 28.3180281 ], [ 78.6619915, 28.3274679 ], [ 78.6627061, 28.3267007 ], [ 78.6653498, 28.3293138 ], [ 78.6637677, 28.3318813 ], [ 78.6643153, 28.3337917 ], [ 78.6676264, 28.3365402 ], [ 78.6760331, 28.3358917 ], [ 78.6774624, 28.3343023 ], [ 78.6800911, 28.3351922 ], [ 78.6822666, 28.3382602 ], [ 78.6817424, 28.339165 ], [ 78.6869768, 28.3434982 ], [ 78.6880957, 28.3432666 ], [ 78.6927962, 28.3481048 ], [ 78.698908, 28.3576283 ], [ 78.6975752, 28.3586201 ], [ 78.6981255, 28.36022 ], [ 78.7029749, 28.3622035 ], [ 78.7070187, 28.3664362 ], [ 78.7084972, 28.3655752 ], [ 78.7112608, 28.3683347 ], [ 78.7155386, 28.3654668 ], [ 78.7172579, 28.3677089 ], [ 78.7196577, 28.3674103 ], [ 78.7209898, 28.3647878 ], [ 78.7264384, 28.3711312 ], [ 78.7297258, 28.3698912 ], [ 78.7287255, 28.3708513 ], [ 78.7336687, 28.3756329 ], [ 78.7349494, 28.3729378 ], [ 78.7368762, 28.3726848 ], [ 78.7412057, 28.367293 ], [ 78.7430601, 28.3687096 ], [ 78.7426967, 28.3712703 ], [ 78.7441712, 28.3723551 ], [ 78.7469533, 28.3720789 ], [ 78.7520035, 28.3681815 ], [ 78.7590771, 28.3718125 ], [ 78.7614775, 28.374181 ], [ 78.7603197, 28.3763839 ], [ 78.7636752, 28.3787448 ], [ 78.7693828, 28.3866194 ], [ 78.7596729, 28.3950617 ], [ 78.7617985, 28.3993147 ], [ 78.7668534, 28.4024791 ], [ 78.7668064, 28.4049627 ], [ 78.7711014, 28.4015849 ], [ 78.7729762, 28.4025893 ], [ 78.7795692, 28.4002428 ], [ 78.7813376, 28.3984227 ], [ 78.7833629, 28.3991359 ], [ 78.7847873, 28.3959894 ], [ 78.7871396, 28.3948304 ], [ 78.794259, 28.3980527 ], [ 78.7943553, 28.4015245 ], [ 78.7974855, 28.4019737 ], [ 78.7930278, 28.4064306 ], [ 78.7939282, 28.4076737 ], [ 78.7930145, 28.4094105 ], [ 78.8047193, 28.4202011 ], [ 78.802999, 28.4274217 ], [ 78.8008884, 28.4307353 ], [ 78.8060707, 28.4386151 ], [ 78.8122212, 28.4445592 ], [ 78.823024, 28.4386283 ], [ 78.8255097, 28.4388378 ], [ 78.8343288, 28.4467793 ], [ 78.8363293, 28.4452631 ], [ 78.8375956, 28.4465261 ], [ 78.8393969, 28.4447595 ], [ 78.8453834, 28.4495471 ], [ 78.8459829, 28.4486785 ], [ 78.8497567, 28.4529116 ], [ 78.8526621, 28.4481804 ], [ 78.8577941, 28.4470103 ], [ 78.8593467, 28.4486452 ], [ 78.8587627, 28.4555796 ], [ 78.8606235, 28.4557437 ], [ 78.8609077, 28.4577512 ], [ 78.8660833, 28.4609862 ], [ 78.8659144, 28.4652272 ], [ 78.8701777, 28.4657375 ], [ 78.8756367, 28.4641421 ], [ 78.8788399, 28.4695934 ], [ 78.8828259, 28.4722547 ] ] ] } }
]
}
