{
"type": "FeatureCollection",
"name": "0924",
"crs": { "type": "name", "properties": { "name": "urn:ogc:def:crs:OGC:1.3:CRS84" } },
"features": [
{ "type": "Feature", "properties": { "code": "0924", "name": "Sitapur", "type": "district" }, "geometry": { "type": "Polygon", "coordinates": [ [ [ 80.9856949, 27.8860237 ], [ 80.9964496, 27.8879559 ], [ 81.0101877, 27.8776765 ], [ 80.9983893, 27.8720103 ], [ 80.9962493, 27.8693936 ], [ 80.9978558, 27.8672705 ], [ 80.994229, 27.8564442 ], [ 80.9959274, 27.8546387 ], [ 80.9857303, 27.8419901 ], [ 80.9881768, 27.8264431 ], [ 80.9903687, 27.8240796 ], [ 80.9966089, 27.8230067 ], [ 80.9992816, 27.8253734 ], [ 81.0043622, 27.8246648 ], [ 81.0153664, 27.8205357 ], [ 81.0208294, 27.8153219 ], [ 81.0238625, 27.8207611 ], [ 81.0267878, 27.8226318 ], [ 81.0294096, 27.8194422 ], [ 81.0309917, 27.8205517 ], [ 81.0346771, 27.8191979 ], [ 81.0382907, 27.8123626 ], [ 81.0469124, 27.8182779 ], [ 81.0552026, 27.8158669 ], [ 81.0603269, 27.8111205 ], [ 81.068801, 27.8242438 ], [ 81.0737266, 27.8238605 ], [ 81.0808014, 27.8203599 ], [ 81.0828559, 27.8214657 ], [ 81.0845248, 27.8204278 ], [ 81.0839252, 27.8147633 ], [ 81.0892188, 27.8145404 ], [ 81.0931858, 27.8125069 ], [ 81.0920454, 27.8109984 ], [ 81.0931239, 27.8084014 ], [ 81.0918766, 27.803651 ], [ 81.1043561, 27.797919 ], [ 81.1061266, 27.7906281 ], [ 81.1087334, 27.7890235 ], [ 81.1149205, 27.7891901 ], [ 81.1162916, 27.7930531 ], [ 81.1216853, 27.7924085 ], [ 81.1267677, 27.8037802 ], [ 81.1309304, 27.8002979 ], [ 81.1410716, 27.8057307 ], [ 81.1439733, 27.8019772 ], [ 81.1425623, 27.7938689 ], [ 81.1463383, 27.78542 ], [ 81.1505386, 27.7804437 ], [ 81.1525965, 27.7819451 ], [ 81.1587099, 27.7770014 ], [ 81.1702183, 27.7773368 ], [ 81.1709759, 27.7798742 ], [ 81.1773855, 27.7842359 ], [ 81.1795098, 27.7843835 ], [ 81.1865506, 27.7806215 ], [ 81.1973941, 27.7716746 ], [ 81.2138958, 27.76539 ], [ 81.2244086, 27.7631395 ], [ 81.2276866, 27.7607112 ], [ 81.2290934, 27.7572007 ], [ 81.2281574, 27.7552714 ], [ 81.2181295, 27.7492044 ], [ 81.2081945, 27.7487898 ], [ 81.2096789, 27.7502028 ], [ 81.2035544, 27.7565032 ], [ 81.1949811, 27.7534413 ], [ 81.1955502, 27.7501992 ], [ 81.1924041, 27.7451261 ], [ 81.1913151, 27.7398 ], [ 81.1845868, 27.7354732 ], [ 81.1860158, 27.7290833 ], [ 81.1968335, 27.7254549 ], [ 81.2013087, 27.7255585 ], [ 81.2010724, 27.7228217 ], [ 81.2031093, 27.7186927 ], [ 81.2052369, 27.7214305 ], [ 81.2075797, 27.7157441 ], [ 81.2114139, 27.7170017 ], [ 81.2168527, 27.7148702 ], [ 81.2198027, 27.720809 ], [ 81.2227596, 27.7238519 ], [ 81.2275182, 27.7236858 ], [ 81.2300276, 27.7289661 ], [ 81.2353298, 27.7262208 ], [ 81.2435026, 27.7290165 ], [ 81.2457139, 27.7239067 ], [ 81.2455382, 27.7199046 ], [ 81.2474232, 27.7168211 ], [ 81.2543639, 27.7146065 ], [ 81.2648845, 27.7136978 ], [ 81.2666583, 27.7118909 ], [ 81.2697351, 27.7056888 ], [ 81.2689985, 27.7013352 ], [ 81.272382, 27.6983107 ], [ 81.2663603, 27.700514 ], [ 81.2638435, 27.6999245 ], [ 81.2510785, 27.687553 ], [ 81.2492363, 27.6812319 ], [ 81.250498, 27.6788902 ], [ 81.2595865, 27.6797943 ], [ 81.2731111, 27.6755201 ], [ 81.2743562, 27.6768271 ], [ 81.2748638, 27.6841758 ], [ 81.2783731, 27.6851021 ], [ 81.2777961, 27.6784268 ], [ 81.2791212, 27.6757792 ], [ 81.2939679, 27.666372 ], [ 81.2932775, 27.6611014 ], [ 81.2916825, 27.6595078 ], [ 81.2908775, 27.6518999 ], [ 81.2928385, 27.6519867 ], [ 81.2966474, 27.6470346 ], [ 81.2969393, 27.642798 ], [ 81.3003103, 27.6402866 ], [ 81.3015668, 27.6327431 ], [ 81.3009142, 27.6313258 ], [ 81.2980163, 27.6314687 ], [ 81.2890339, 27.6378796 ], [ 81.2776397, 27.6318619 ], [ 81.2710127, 27.6323173 ], [ 81.2738875, 27.6298874 ], [ 81.274032, 27.6269953 ], [ 81.2693731, 27.6145789 ], [ 81.2700531, 27.613289 ], [ 81.266231, 27.6111112 ], [ 81.2615174, 27.6041317 ], [ 81.2718863, 27.6030163 ], [ 81.2663779, 27.5957836 ], [ 81.2657693, 27.5914741 ], [ 81.2723883, 27.5861729 ], [ 81.272507, 27.5892367 ], [ 81.2842912, 27.564938 ], [ 81.290493, 27.5656593 ], [ 81.2973866, 27.5618822 ], [ 81.3068457, 27.5595905 ], [ 81.3070625, 27.552705 ], [ 81.3041384, 27.5417119 ], [ 81.3021512, 27.5384983 ], [ 81.3151002, 27.5372681 ], [ 81.3172548, 27.53097 ], [ 81.3226815, 27.5295328 ], [ 81.3190868, 27.5215718 ], [ 81.3195389, 27.5182556 ], [ 81.3224802, 27.516479 ], [ 81.3208169, 27.512864 ], [ 81.3203153, 27.5038576 ], [ 81.3188704, 27.5002048 ], [ 81.3321884, 27.4902237 ], [ 81.3314179, 27.4812503 ], [ 81.3340341, 27.4732821 ], [ 81.3309845, 27.4642613 ], [ 81.3313793, 27.4617743 ], [ 81.3358002, 27.4568025 ], [ 81.341032, 27.4566044 ], [ 81.3420976, 27.452329 ], [ 81.34648, 27.449177 ], [ 81.3527021, 27.4409467 ], [ 81.3539774, 27.4378472 ], [ 81.350736, 27.4267282 ], [ 81.3564517, 27.4248324 ], [ 81.3598262, 27.425325 ], [ 81.3588136, 27.4212574 ], [ 81.3689585, 27.411908 ], [ 81.3732381, 27.4096085 ], [ 81.3755328, 27.4036031 ], [ 81.3754752, 27.3991062 ], [ 81.3834781, 27.3866461 ], [ 81.3918901, 27.3791877 ], [ 81.3963744, 27.3767379 ], [ 81.4049151, 27.3748916 ], [ 81.4103782, 27.369457 ], [ 81.4147423, 27.3600388 ], [ 81.416318, 27.3509725 ], [ 81.4134213, 27.3445569 ], [ 81.4125927, 27.3341867 ], [ 81.3953061, 27.3407857 ], [ 81.3944745, 27.3345062 ], [ 81.400144, 27.3289945 ], [ 81.3997722, 27.3258299 ], [ 81.3979915, 27.3245675 ], [ 81.3930205, 27.3247992 ], [ 81.3911483, 27.3233648 ], [ 81.3897599, 27.3195767 ], [ 81.3841487, 27.3193965 ], [ 81.3798616, 27.3161627 ], [ 81.380822, 27.3152839 ], [ 81.3846712, 27.3166804 ], [ 81.389042, 27.3156617 ], [ 81.3912601, 27.3105592 ], [ 81.3909845, 27.3086759 ], [ 81.3891668, 27.307919 ], [ 81.3833562, 27.3123768 ], [ 81.382135, 27.3121619 ], [ 81.3836046, 27.3039922 ], [ 81.3822358, 27.3021136 ], [ 81.3825712, 27.2947991 ], [ 81.3771094, 27.2956416 ], [ 81.3734201, 27.2929515 ], [ 81.3716652, 27.2826463 ], [ 81.3812931, 27.2775982 ], [ 81.3758224, 27.2737961 ], [ 81.3727498, 27.2732505 ], [ 81.3767711, 27.2680262 ], [ 81.3760853, 27.2664406 ], [ 81.370414, 27.2675077 ], [ 81.3638578, 27.2652296 ], [ 81.3605035, 27.2589683 ], [ 81.3581247, 27.2572926 ], [ 81.3479914, 27.2573423 ], [ 81.3411274, 27.2537499 ], [ 81.3382352, 27.2588211 ], [ 81.3353778, 27.2716913 ], [ 81.3258908, 27.2730281 ], [ 81.3210627, 27.2704354 ], [ 81.3148708, 27.2785812 ], [ 81.3218026, 27.2970776 ], [ 81.3177775, 27.2989564 ], [ 81.3136559, 27.2953764 ], [ 81.3061611, 27.2988854 ], [ 81.3055076, 27.3011136 ], [ 81.3085937, 27.3061724 ], [ 81.3127589, 27.3094912 ], [ 81.3155597, 27.320482 ], [ 81.3059921, 27.3282412 ], [ 81.3024152, 27.3291779 ], [ 81.2968987, 27.3359063 ], [ 81.294817, 27.3424781 ], [ 81.2957322, 27.3452955 ], [ 81.2985383, 27.3477985 ], [ 81.2918321, 27.3593078 ], [ 81.2894421, 27.3531937 ], [ 81.2845617, 27.3540184 ], [ 81.2834699, 27.3500045 ], [ 81.2841486, 27.3466097 ], [ 81.2770631, 27.337193 ], [ 81.27737, 27.3342142 ], [ 81.2806166, 27.3323385 ], [ 81.2732781, 27.3314246 ], [ 81.2719801, 27.3285731 ], [ 81.2580491, 27.3347096 ], [ 81.2539533, 27.3297341 ], [ 81.2550028, 27.3251661 ], [ 81.2523189, 27.318054 ], [ 81.2482727, 27.3139765 ], [ 81.2408908, 27.3225396 ], [ 81.2358962, 27.318941 ], [ 81.2313303, 27.3190163 ], [ 81.2304318, 27.3223509 ], [ 81.2283403, 27.3238329 ], [ 81.2238575, 27.3162697 ], [ 81.2251189, 27.3114865 ], [ 81.2399382, 27.3069008 ], [ 81.2312486, 27.2987081 ], [ 81.2327602, 27.2944621 ], [ 81.2355483, 27.2940046 ], [ 81.2356058, 27.290835 ], [ 81.2372407, 27.2903071 ], [ 81.2377465, 27.287649 ], [ 81.2396524, 27.287634 ], [ 81.2393767, 27.2866458 ], [ 81.2425548, 27.2846796 ], [ 81.2383605, 27.2809782 ], [ 81.2366616, 27.27497 ], [ 81.2419787, 27.2704611 ], [ 81.2328486, 27.26267 ], [ 81.2279948, 27.2693633 ], [ 81.2281077, 27.2718582 ], [ 81.2252768, 27.272415 ], [ 81.2227941, 27.2677794 ], [ 81.220952, 27.2674767 ], [ 81.2177941, 27.2637275 ], [ 81.2158842, 27.2586912 ], [ 81.2096549, 27.2555189 ], [ 81.2072994, 27.2524865 ], [ 81.21371, 27.2476845 ], [ 81.2088763, 27.2382476 ], [ 81.2071794, 27.2371973 ], [ 81.2042222, 27.2388098 ], [ 81.2012775, 27.2365147 ], [ 81.1955383, 27.2373931 ], [ 81.1830128, 27.2454037 ], [ 81.183978, 27.2556332 ], [ 81.1766279, 27.2602365 ], [ 81.176643, 27.2638136 ], [ 81.1734814, 27.2669471 ], [ 81.1678246, 27.2686528 ], [ 81.1624555, 27.2655431 ], [ 81.1586631, 27.2661341 ], [ 81.1536231, 27.2602088 ], [ 81.1485817, 27.2579239 ], [ 81.1403998, 27.2621628 ], [ 81.1392323, 27.2653801 ], [ 81.1315912, 27.2715259 ], [ 81.1240579, 27.2716391 ], [ 81.1238024, 27.2728096 ], [ 81.116694, 27.2721693 ], [ 81.112815, 27.2745538 ], [ 81.1106827, 27.2714987 ], [ 81.1007135, 27.2651591 ], [ 81.0967771, 27.2685934 ], [ 81.0915532, 27.2641333 ], [ 81.0893448, 27.259364 ], [ 81.0909045, 27.2554603 ], [ 81.090445, 27.2510066 ], [ 81.0876047, 27.2505113 ], [ 81.0846556, 27.247702 ], [ 81.0795612, 27.2359548 ], [ 81.0851723, 27.2286825 ], [ 81.08218, 27.2262133 ], [ 81.076626, 27.2295417 ], [ 81.0725351, 27.2235432 ], [ 81.0667175, 27.2191234 ], [ 81.0618957, 27.221937 ], [ 81.0567499, 27.2175981 ], [ 81.0534843, 27.2175423 ], [ 81.054659, 27.2276642 ], [ 81.0535175, 27.2286293 ], [ 81.049218, 27.2269078 ], [ 81.0420485, 27.229205 ], [ 81.0387694, 27.2266265 ], [ 81.0322147, 27.2298757 ], [ 81.0293866, 27.2254382 ], [ 81.0269033, 27.2252785 ], [ 81.0193742, 27.2284858 ], [ 81.0166333, 27.2283844 ], [ 81.0158945, 27.2251214 ], [ 81.0074523, 27.2276009 ], [ 81.0022994, 27.2267797 ], [ 80.9968233, 27.2311769 ], [ 80.9882983, 27.2321497 ], [ 80.9743413, 27.2386175 ], [ 80.968648, 27.2399977 ], [ 80.9673985, 27.2368849 ], [ 80.9667716, 27.2234475 ], [ 80.9649264, 27.2198163 ], [ 80.965641, 27.2170948 ], [ 80.9639447, 27.2166221 ], [ 80.9612611, 27.2186814 ], [ 80.9563757, 27.2192799 ], [ 80.954015, 27.2143583 ], [ 80.9504049, 27.2121898 ], [ 80.9455569, 27.1997427 ], [ 80.9415554, 27.2003087 ], [ 80.9372121, 27.1943723 ], [ 80.9324953, 27.1973616 ], [ 80.9308818, 27.1999885 ], [ 80.927052, 27.2009826 ], [ 80.9266018, 27.1987311 ], [ 80.9280293, 27.1973002 ], [ 80.92826, 27.1943399 ], [ 80.9239271, 27.1870269 ], [ 80.9249091, 27.1825728 ], [ 80.9303529, 27.1814472 ], [ 80.9317289, 27.1783691 ], [ 80.9314599, 27.1752693 ], [ 80.934031, 27.1714056 ], [ 80.9334171, 27.1646869 ], [ 80.9302458, 27.1585242 ], [ 80.9274858, 27.1571038 ], [ 80.9225879, 27.1582337 ], [ 80.9150982, 27.1483538 ], [ 80.9073865, 27.151501 ], [ 80.8993083, 27.1415211 ], [ 80.8978496, 27.1360973 ], [ 80.8941973, 27.1321901 ], [ 80.8947714, 27.1270865 ], [ 80.8923961, 27.1276192 ], [ 80.8892438, 27.1261485 ], [ 80.8867729, 27.1282742 ], [ 80.8806201, 27.1288115 ], [ 80.8769031, 27.125707 ], [ 80.8682794, 27.1233649 ], [ 80.8669681, 27.12378 ], [ 80.8667663, 27.1257564 ], [ 80.8646229, 27.1259954 ], [ 80.8601755, 27.1211396 ], [ 80.8549611, 27.1208411 ], [ 80.8530758, 27.1168473 ], [ 80.8475905, 27.1119819 ], [ 80.8360796, 27.1081346 ], [ 80.8355, 27.1073041 ], [ 80.8374212, 27.1071422 ], [ 80.8367258, 27.1058289 ], [ 80.838123, 27.1044304 ], [ 80.8279448, 27.0994411 ], [ 80.8265627, 27.1006996 ], [ 80.8236409, 27.1132989 ], [ 80.821691, 27.1157388 ], [ 80.8162868, 27.1143512 ], [ 80.8100305, 27.1076279 ], [ 80.8064076, 27.1092857 ], [ 80.8103603, 27.1221723 ], [ 80.8048861, 27.1261857 ], [ 80.8042023, 27.1309099 ], [ 80.806556, 27.1335283 ], [ 80.81736, 27.1353047 ], [ 80.8215782, 27.1387287 ], [ 80.8216429, 27.1406148 ], [ 80.817161, 27.1461318 ], [ 80.8163825, 27.1495518 ], [ 80.8172077, 27.1535683 ], [ 80.821045, 27.1564803 ], [ 80.8217301, 27.1587278 ], [ 80.8137288, 27.1607205 ], [ 80.8121948, 27.1692558 ], [ 80.8097356, 27.172806 ], [ 80.807349, 27.1732109 ], [ 80.805676, 27.1699701 ], [ 80.8046769, 27.1701637 ], [ 80.8038413, 27.1750276 ], [ 80.8056118, 27.1758122 ], [ 80.7973546, 27.1997697 ], [ 80.7957513, 27.2007961 ], [ 80.7904039, 27.2001399 ], [ 80.7889753, 27.2025064 ], [ 80.7885115, 27.2082205 ], [ 80.7843855, 27.2053852 ], [ 80.7825906, 27.2024389 ], [ 80.7783455, 27.2027082 ], [ 80.7756627, 27.2042611 ], [ 80.7708969, 27.2011057 ], [ 80.7664328, 27.2018973 ], [ 80.7641413, 27.2083394 ], [ 80.7597454, 27.2084487 ], [ 80.7526692, 27.2134378 ], [ 80.751606, 27.2164827 ], [ 80.752029, 27.221907 ], [ 80.747584, 27.2280231 ], [ 80.7451661, 27.2233548 ], [ 80.7410264, 27.2226634 ], [ 80.7262485, 27.2353682 ], [ 80.7173434, 27.2350268 ], [ 80.7048457, 27.2299039 ], [ 80.696847, 27.2175082 ], [ 80.6926868, 27.2154752 ], [ 80.684947, 27.2204243 ], [ 80.6755082, 27.2203242 ], [ 80.6671965, 27.2258946 ], [ 80.6568588, 27.2261131 ], [ 80.6542826, 27.2277352 ], [ 80.651763, 27.2327901 ], [ 80.6509523, 27.2416473 ], [ 80.643279, 27.2437828 ], [ 80.6416536, 27.2457369 ], [ 80.6430527, 27.2494955 ], [ 80.6462894, 27.2521963 ], [ 80.6519596, 27.2529174 ], [ 80.651703, 27.2567438 ], [ 80.6497898, 27.2588921 ], [ 80.6437664, 27.2605626 ], [ 80.6325821, 27.2579239 ], [ 80.630946, 27.2535515 ], [ 80.6275733, 27.2529424 ], [ 80.6188325, 27.2707435 ], [ 80.6165602, 27.2716098 ], [ 80.6051791, 27.2654718 ], [ 80.6026851, 27.2629219 ], [ 80.6008018, 27.2628359 ], [ 80.5974108, 27.2663558 ], [ 80.5972652, 27.2708356 ], [ 80.5947285, 27.2710026 ], [ 80.5903427, 27.2687674 ], [ 80.5857633, 27.2726702 ], [ 80.5866782, 27.2788425 ], [ 80.5814925, 27.277018 ], [ 80.5807814, 27.2746082 ], [ 80.579094, 27.2764352 ], [ 80.5692454, 27.2786922 ], [ 80.5775447, 27.2859827 ], [ 80.5772205, 27.2880402 ], [ 80.5720648, 27.2861838 ], [ 80.5742996, 27.2917122 ], [ 80.571829, 27.2929135 ], [ 80.5664958, 27.2927244 ], [ 80.5651027, 27.291158 ], [ 80.5594426, 27.2796897 ], [ 80.5577017, 27.2691841 ], [ 80.5550138, 27.2693552 ], [ 80.5502867, 27.2723615 ], [ 80.546853, 27.2720979 ], [ 80.5438191, 27.2706387 ], [ 80.5399646, 27.2660248 ], [ 80.530834, 27.2614028 ], [ 80.5222314, 27.2597993 ], [ 80.5153933, 27.2611798 ], [ 80.5133866, 27.2581372 ], [ 80.5136123, 27.2549374 ], [ 80.5077827, 27.2564295 ], [ 80.496876, 27.2548606 ], [ 80.4950357, 27.2560495 ], [ 80.4947015, 27.2570877 ], [ 80.4983381, 27.2604227 ], [ 80.5026236, 27.2616512 ], [ 80.5098851, 27.2672382 ], [ 80.5156222, 27.2647985 ], [ 80.5172092, 27.2685676 ], [ 80.5122901, 27.2732708 ], [ 80.5117412, 27.2875872 ], [ 80.505901, 27.2940847 ], [ 80.5062529, 27.3004338 ], [ 80.4994927, 27.3040027 ], [ 80.4953468, 27.3119255 ], [ 80.4958086, 27.319221 ], [ 80.5015896, 27.3226392 ], [ 80.5017431, 27.3245912 ], [ 80.5000015, 27.3261587 ], [ 80.4936071, 27.3268675 ], [ 80.4872398, 27.3300373 ], [ 80.4836268, 27.3363837 ], [ 80.4845677, 27.341897 ], [ 80.4825698, 27.3450791 ], [ 80.4740689, 27.3463396 ], [ 80.4700266, 27.3451963 ], [ 80.4656371, 27.3400027 ], [ 80.4605449, 27.3416577 ], [ 80.4555248, 27.3391471 ], [ 80.4559698, 27.3413586 ], [ 80.4628429, 27.3437488 ], [ 80.4636362, 27.3455687 ], [ 80.4623081, 27.3488527 ], [ 80.4564135, 27.3535397 ], [ 80.4541059, 27.3600284 ], [ 80.4597913, 27.3609491 ], [ 80.4658913, 27.3558289 ], [ 80.4661235, 27.362316 ], [ 80.4679481, 27.3671525 ], [ 80.4653235, 27.3696138 ], [ 80.4576308, 27.3666622 ], [ 80.4542418, 27.3706308 ], [ 80.4486568, 27.3834495 ], [ 80.4501389, 27.3872719 ], [ 80.4489272, 27.3907636 ], [ 80.4514783, 27.3939132 ], [ 80.4514553, 27.3956313 ], [ 80.4472074, 27.3977259 ], [ 80.4512431, 27.4014889 ], [ 80.4455213, 27.4035034 ], [ 80.4356645, 27.4021252 ], [ 80.4320192, 27.4082406 ], [ 80.4233309, 27.4138001 ], [ 80.4217372, 27.419635 ], [ 80.4258295, 27.4199453 ], [ 80.429372, 27.4183634 ], [ 80.4309306, 27.4198274 ], [ 80.4306056, 27.4229719 ], [ 80.4257596, 27.4251516 ], [ 80.4172364, 27.4345493 ], [ 80.4125398, 27.4337808 ], [ 80.4099776, 27.4348547 ], [ 80.4083474, 27.4437166 ], [ 80.4049444, 27.4463542 ], [ 80.4077755, 27.4472059 ], [ 80.4079002, 27.4496785 ], [ 80.4044332, 27.4505984 ], [ 80.4022103, 27.4484696 ], [ 80.4016423, 27.4505677 ], [ 80.404015, 27.4539454 ], [ 80.4027634, 27.4546514 ], [ 80.3984138, 27.4531788 ], [ 80.3974252, 27.4540402 ], [ 80.4030057, 27.4591418 ], [ 80.4026708, 27.4632053 ], [ 80.391054, 27.4657697 ], [ 80.3909325, 27.4736046 ], [ 80.3876201, 27.4742754 ], [ 80.3866661, 27.4769847 ], [ 80.3850007, 27.4760257 ], [ 80.384013, 27.4772775 ], [ 80.3814375, 27.4743424 ], [ 80.3812987, 27.4766594 ], [ 80.3790839, 27.4772373 ], [ 80.3762086, 27.4812786 ], [ 80.3747918, 27.4796939 ], [ 80.3694297, 27.4812162 ], [ 80.3691891, 27.478718 ], [ 80.3675821, 27.4777327 ], [ 80.3620869, 27.4809353 ], [ 80.3565427, 27.4800108 ], [ 80.3560685, 27.4876382 ], [ 80.351776, 27.48593 ], [ 80.3524231, 27.4878286 ], [ 80.3501539, 27.4888575 ], [ 80.3502165, 27.490367 ], [ 80.3527894, 27.4925736 ], [ 80.348104, 27.4964622 ], [ 80.3490147, 27.4987767 ], [ 80.3463559, 27.501447 ], [ 80.3488383, 27.5036156 ], [ 80.3465254, 27.504975 ], [ 80.3440644, 27.5105758 ], [ 80.3381412, 27.5140619 ], [ 80.3367941, 27.5181277 ], [ 80.3318397, 27.5177105 ], [ 80.3299715, 27.5203354 ], [ 80.3250649, 27.5229829 ], [ 80.3247907, 27.5250862 ], [ 80.32683, 27.5257947 ], [ 80.3272351, 27.5279678 ], [ 80.3257643, 27.5307864 ], [ 80.3209057, 27.5348039 ], [ 80.3237487, 27.5372928 ], [ 80.3207622, 27.5401689 ], [ 80.3219723, 27.5446567 ], [ 80.32034, 27.5469765 ], [ 80.3225059, 27.5501795 ], [ 80.3203505, 27.5510749 ], [ 80.3203995, 27.5546385 ], [ 80.3176577, 27.5570452 ], [ 80.3188189, 27.5580051 ], [ 80.3176001, 27.5650138 ], [ 80.306319, 27.5763685 ], [ 80.3050213, 27.5821732 ], [ 80.3052693, 27.5871879 ], [ 80.3082695, 27.5882868 ], [ 80.3095025, 27.5905876 ], [ 80.3122992, 27.5901544 ], [ 80.3206578, 27.592169 ], [ 80.3201021, 27.5937025 ], [ 80.3243495, 27.5988006 ], [ 80.3242345, 27.6006896 ], [ 80.3177254, 27.6032328 ], [ 80.317448, 27.6041955 ], [ 80.3194489, 27.6050468 ], [ 80.3185726, 27.6062602 ], [ 80.3150338, 27.606185 ], [ 80.3121883, 27.6031973 ], [ 80.3104299, 27.6033789 ], [ 80.3099423, 27.605096 ], [ 80.3057588, 27.6057399 ], [ 80.3070813, 27.6071272 ], [ 80.3036491, 27.60945 ], [ 80.3071263, 27.6091939 ], [ 80.3036179, 27.6123199 ], [ 80.3060657, 27.6161281 ], [ 80.3049914, 27.618197 ], [ 80.3017931, 27.6181675 ], [ 80.3032485, 27.6249142 ], [ 80.2986269, 27.6316578 ], [ 80.2989101, 27.633047 ], [ 80.3014278, 27.632579 ], [ 80.302584, 27.6344151 ], [ 80.3065814, 27.6340867 ], [ 80.302831, 27.6373722 ], [ 80.3068688, 27.6371862 ], [ 80.3109151, 27.6403854 ], [ 80.308047, 27.6447953 ], [ 80.3108917, 27.6470703 ], [ 80.3088949, 27.6481076 ], [ 80.309582, 27.6510994 ], [ 80.3067442, 27.6516751 ], [ 80.3074282, 27.6533841 ], [ 80.3062365, 27.6557844 ], [ 80.3102326, 27.6546364 ], [ 80.310204, 27.6570648 ], [ 80.307806, 27.6598436 ], [ 80.3102843, 27.6593755 ], [ 80.3114095, 27.6615825 ], [ 80.3079377, 27.664618 ], [ 80.3111372, 27.6646831 ], [ 80.3124457, 27.6661758 ], [ 80.3076566, 27.6712006 ], [ 80.3066491, 27.674563 ], [ 80.309087, 27.6738099 ], [ 80.3099198, 27.6797931 ], [ 80.3205625, 27.6889785 ], [ 80.3280068, 27.6929705 ], [ 80.3338421, 27.6992353 ], [ 80.3377775, 27.6993148 ], [ 80.3437178, 27.7030136 ], [ 80.3471479, 27.7017261 ], [ 80.3485007, 27.704448 ], [ 80.3539678, 27.7034759 ], [ 80.355691, 27.7057476 ], [ 80.3589638, 27.7053136 ], [ 80.3614906, 27.7092903 ], [ 80.366816, 27.7047613 ], [ 80.3679434, 27.7048441 ], [ 80.3700618, 27.7100221 ], [ 80.371283, 27.7090888 ], [ 80.3723685, 27.7100505 ], [ 80.3780435, 27.7069033 ], [ 80.3844485, 27.7134544 ], [ 80.3868027, 27.712844 ], [ 80.3889636, 27.7141866 ], [ 80.3929649, 27.7213861 ], [ 80.3932593, 27.7266997 ], [ 80.395666, 27.7272971 ], [ 80.4085807, 27.7391848 ], [ 80.4089362, 27.7413208 ], [ 80.4138643, 27.7441889 ], [ 80.4173834, 27.7440764 ], [ 80.4213358, 27.746304 ], [ 80.4287011, 27.739949 ], [ 80.4323202, 27.7425074 ], [ 80.4353038, 27.7419881 ], [ 80.4371166, 27.7460042 ], [ 80.4447949, 27.7461812 ], [ 80.4501488, 27.7491658 ], [ 80.450221, 27.7515738 ], [ 80.452241, 27.7521928 ], [ 80.4507913, 27.7548396 ], [ 80.451665, 27.7618354 ], [ 80.447669, 27.7632589 ], [ 80.4452437, 27.7619472 ], [ 80.4436622, 27.7636625 ], [ 80.4424679, 27.7657264 ], [ 80.4454622, 27.76732 ], [ 80.4456323, 27.7684783 ], [ 80.4436679, 27.7691997 ], [ 80.4457292, 27.7705686 ], [ 80.4450431, 27.771593 ], [ 80.4553215, 27.7680646 ], [ 80.4558521, 27.7601044 ], [ 80.4640031, 27.7573824 ], [ 80.4683738, 27.7735311 ], [ 80.4701721, 27.7728101 ], [ 80.4719173, 27.7742554 ], [ 80.47463, 27.7795795 ], [ 80.4852725, 27.7734803 ], [ 80.4897505, 27.7753639 ], [ 80.4907729, 27.7773748 ], [ 80.4887977, 27.7799908 ], [ 80.4944711, 27.7820958 ], [ 80.4962545, 27.7888634 ], [ 80.5015119, 27.7970041 ], [ 80.5075256, 27.796133 ], [ 80.5125996, 27.7986367 ], [ 80.5159233, 27.8034446 ], [ 80.515148, 27.8059185 ], [ 80.5173236, 27.8103779 ], [ 80.5347642, 27.8009059 ], [ 80.5341086, 27.7999652 ], [ 80.5399311, 27.7962304 ], [ 80.5360873, 27.7846325 ], [ 80.54086, 27.7805489 ], [ 80.5394751, 27.7793267 ], [ 80.54182, 27.7750922 ], [ 80.5415363, 27.7720364 ], [ 80.5429875, 27.770379 ], [ 80.5461358, 27.7739206 ], [ 80.5476481, 27.7729154 ], [ 80.548905, 27.7738012 ], [ 80.5544574, 27.7704283 ], [ 80.5534382, 27.7621573 ], [ 80.5624999, 27.757234 ], [ 80.5637296, 27.7523782 ], [ 80.5695826, 27.7528429 ], [ 80.572855, 27.7496641 ], [ 80.5777496, 27.7552612 ], [ 80.5859178, 27.7520592 ], [ 80.5892657, 27.7524444 ], [ 80.5972909, 27.7485423 ], [ 80.599314, 27.7504828 ], [ 80.6051062, 27.7507032 ], [ 80.6065145, 27.7582312 ], [ 80.6031445, 27.7623791 ], [ 80.6092504, 27.774376 ], [ 80.613598, 27.7768486 ], [ 80.6136267, 27.7812044 ], [ 80.6202328, 27.7895999 ], [ 80.6220377, 27.795358 ], [ 80.6295354, 27.8038471 ], [ 80.6283286, 27.8103332 ], [ 80.634728, 27.8276441 ], [ 80.6370674, 27.8303158 ], [ 80.6354266, 27.8318447 ], [ 80.6418219, 27.8391976 ], [ 80.6440309, 27.8363144 ], [ 80.6477588, 27.8356063 ], [ 80.6491767, 27.833036 ], [ 80.6485271, 27.8309567 ], [ 80.6508126, 27.8281186 ], [ 80.6489376, 27.8263312 ], [ 80.6491476, 27.8248609 ], [ 80.6508442, 27.8242408 ], [ 80.6507165, 27.8208659 ], [ 80.6542049, 27.8169996 ], [ 80.6603426, 27.8177776 ], [ 80.6641604, 27.8251663 ], [ 80.6634104, 27.8265796 ], [ 80.665792, 27.8268067 ], [ 80.6670535, 27.8285282 ], [ 80.6663983, 27.8302805 ], [ 80.6689045, 27.8305654 ], [ 80.6706595, 27.8294697 ], [ 80.6699003, 27.8264356 ], [ 80.6709729, 27.8264329 ], [ 80.6716106, 27.8222591 ], [ 80.6761983, 27.822235 ], [ 80.678942, 27.8208552 ], [ 80.6852676, 27.8246335 ], [ 80.6857307, 27.8228478 ], [ 80.6877442, 27.8241967 ], [ 80.6895401, 27.823121 ], [ 80.69399, 27.8236668 ], [ 80.6984989, 27.8187506 ], [ 80.7104788, 27.8135403 ], [ 80.7166266, 27.8122907 ], [ 80.7196297, 27.8091869 ], [ 80.7255226, 27.8060415 ], [ 80.7271382, 27.8026699 ], [ 80.7337238, 27.8015746 ], [ 80.7439513, 27.795726 ], [ 80.7448185, 27.8004306 ], [ 80.7421599, 27.8066915 ], [ 80.7481153, 27.8122872 ], [ 80.7609869, 27.8059485 ], [ 80.763699, 27.8094579 ], [ 80.7631566, 27.8106194 ], [ 80.7656035, 27.815862 ], [ 80.7751027, 27.8095106 ], [ 80.7768046, 27.8119788 ], [ 80.782638, 27.8110413 ], [ 80.78879, 27.8181227 ], [ 80.8075675, 27.8072808 ], [ 80.8158383, 27.799514 ], [ 80.8156718, 27.7970311 ], [ 80.8183322, 27.7936211 ], [ 80.8258002, 27.7908383 ], [ 80.829763, 27.7941124 ], [ 80.8328931, 27.7950207 ], [ 80.8354572, 27.7985901 ], [ 80.8389542, 27.7978246 ], [ 80.8442201, 27.8044492 ], [ 80.8425849, 27.807542 ], [ 80.8447121, 27.8116431 ], [ 80.8463798, 27.8112809 ], [ 80.8473182, 27.81277 ], [ 80.8457946, 27.8175885 ], [ 80.8465994, 27.8255342 ], [ 80.8551213, 27.8248793 ], [ 80.8560478, 27.8258116 ], [ 80.8643297, 27.8241535 ], [ 80.8660218, 27.8267011 ], [ 80.8643113, 27.82879 ], [ 80.8724113, 27.8355087 ], [ 80.874137, 27.8392807 ], [ 80.8811476, 27.8428148 ], [ 80.8839031, 27.8409047 ], [ 80.8945235, 27.8516488 ], [ 80.8994351, 27.8503714 ], [ 80.9049832, 27.845205 ], [ 80.903501, 27.8417031 ], [ 80.9007113, 27.8412077 ], [ 80.9008893, 27.8375202 ], [ 80.9064988, 27.8341832 ], [ 80.9147545, 27.8420635 ], [ 80.9198739, 27.8492496 ], [ 80.9287705, 27.8450593 ], [ 80.9344604, 27.8535575 ], [ 80.9398642, 27.8578639 ], [ 80.9363599, 27.8631766 ], [ 80.9393798, 27.8678674 ], [ 80.9370183, 27.8734479 ], [ 80.9446434, 27.870858 ], [ 80.9493983, 27.8724938 ], [ 80.9513543, 27.874611 ], [ 80.9517521, 27.8785857 ], [ 80.9539545, 27.8824008 ], [ 80.9529141, 27.8868146 ], [ 80.9593237, 27.8957275 ], [ 80.9574742, 27.8996577 ], [ 80.9613083, 27.9027471 ], [ 80.970248, 27.9062936 ], [ 80.9786827, 27.9040494 ], [ 80.9823477, 27.9001986 ], [ 80.9732431, 27.8968014 ], [ 80.9723086, 27.8950123 ], [ 80.9800884, 27.8884326 ], [ 80.9856949, 27.8860237 ] ] ] } }
]
}
