{
"type": "FeatureCollection",
"name": "0938",
"crs": { "type": "name", "properties": { "name": "urn:ogc:def:crs:OGC:1.3:CRS84" } },
"features": [
{ "type": "Feature", "properties": { "code": "0938", "name": "Hamirpur", "type": "district" }, "geometry": { "type": "Polygon", "coordinates": [ [ [ 79.9559146, 26.0759453 ], [ 79.9610847, 26.0730494 ], [ 79.9908608, 26.065433 ], [ 80.0197341, 26.066593 ], [ 80.0418938, 26.0731174 ], [ 80.0455024, 26.0724018 ], [ 80.050037, 26.0683987 ], [ 80.061745, 26.0691522 ], [ 80.0699491, 26.0681748 ], [ 80.0937206, 26.062235 ], [ 80.1016436, 26.0580453 ], [ 80.1097613, 26.0516121 ], [ 80.1117702, 26.0460791 ], [ 80.1061267, 26.0288849 ], [ 80.1019644, 26.0221573 ], [ 80.0956691, 26.015502 ], [ 80.0857543, 26.0091822 ], [ 80.0829976, 26.0050492 ], [ 80.0822533, 26.0020001 ], [ 80.0851937, 25.9971433 ], [ 80.1187542, 25.9861367 ], [ 80.1321664, 25.9773902 ], [ 80.1538877, 25.960427 ], [ 80.1657581, 25.9551844 ], [ 80.1834932, 25.9503042 ], [ 80.1930156, 25.9461886 ], [ 80.2060946, 25.924532 ], [ 80.2139569, 25.9199601 ], [ 80.2201054, 25.9197351 ], [ 80.2375364, 25.9224627 ], [ 80.2369424, 25.9234876 ], [ 80.2463191, 25.9268374 ], [ 80.2574489, 25.9327466 ], [ 80.2660678, 25.9338951 ], [ 80.27207, 25.9309028 ], [ 80.2816665, 25.9203936 ], [ 80.2876466, 25.9121742 ], [ 80.2960613, 25.896076 ], [ 80.3064387, 25.8897808 ], [ 80.3125415, 25.8884477 ], [ 80.320524, 25.8898681 ], [ 80.3369918, 25.8976362 ], [ 80.3457887, 25.9000304 ], [ 80.3495492, 25.8850117 ], [ 80.350164, 25.8796185 ], [ 80.3485532, 25.8767298 ], [ 80.3515129, 25.8709572 ], [ 80.3479916, 25.8665289 ], [ 80.342958, 25.8673719 ], [ 80.3395165, 25.8650828 ], [ 80.3366853, 25.8568722 ], [ 80.3331703, 25.8534235 ], [ 80.3288645, 25.843836 ], [ 80.3247837, 25.8459514 ], [ 80.3127827, 25.8473729 ], [ 80.3025879, 25.847314 ], [ 80.3016466, 25.8450298 ], [ 80.3004367, 25.847015 ], [ 80.2967729, 25.8461465 ], [ 80.2868621, 25.8397907 ], [ 80.2884183, 25.8357007 ], [ 80.2940547, 25.8299766 ], [ 80.2975505, 25.8239959 ], [ 80.2853748, 25.8149037 ], [ 80.2760754, 25.8206656 ], [ 80.2592933, 25.807524 ], [ 80.2504829, 25.8123144 ], [ 80.2360539, 25.8051735 ], [ 80.2316907, 25.7990748 ], [ 80.2369073, 25.7953925 ], [ 80.2557927, 25.7916656 ], [ 80.262285, 25.7865306 ], [ 80.2705037, 25.782854 ], [ 80.2677667, 25.777567 ], [ 80.2700465, 25.7755647 ], [ 80.2712767, 25.771111 ], [ 80.2871547, 25.7682744 ], [ 80.2935939, 25.7692124 ], [ 80.2990802, 25.7635414 ], [ 80.3047181, 25.7626243 ], [ 80.3123928, 25.7549146 ], [ 80.3197956, 25.7511084 ], [ 80.323434, 25.7450838 ], [ 80.3266316, 25.7423763 ], [ 80.3280639, 25.7368106 ], [ 80.3265261, 25.7345955 ], [ 80.3281271, 25.7321632 ], [ 80.3382577, 25.7275438 ], [ 80.3456926, 25.72029 ], [ 80.3468472, 25.7123064 ], [ 80.3491979, 25.7117063 ], [ 80.3507351, 25.7036969 ], [ 80.347165, 25.7034198 ], [ 80.3417265, 25.7076084 ], [ 80.3292246, 25.7121713 ], [ 80.3235492, 25.7123072 ], [ 80.3074237, 25.7005416 ], [ 80.3054189, 25.6971001 ], [ 80.3052191, 25.681519 ], [ 80.3066655, 25.6782384 ], [ 80.3152386, 25.66984 ], [ 80.3182723, 25.663761 ], [ 80.3199037, 25.654636 ], [ 80.3183683, 25.6474013 ], [ 80.3127872, 25.6402491 ], [ 80.3018756, 25.6327601 ], [ 80.2910356, 25.6322106 ], [ 80.2834584, 25.6298699 ], [ 80.2786544, 25.6268297 ], [ 80.2777765, 25.6253688 ], [ 80.2787508, 25.6216144 ], [ 80.2911692, 25.6132377 ], [ 80.2938276, 25.6087936 ], [ 80.2822187, 25.5951019 ], [ 80.2793701, 25.584034 ], [ 80.2687277, 25.5850338 ], [ 80.2683067, 25.5867358 ], [ 80.2624518, 25.5877086 ], [ 80.2602113, 25.5905492 ], [ 80.2570062, 25.5898497 ], [ 80.2548492, 25.5918645 ], [ 80.2495404, 25.5865796 ], [ 80.2509029, 25.5854081 ], [ 80.2459451, 25.576576 ], [ 80.2430469, 25.5772125 ], [ 80.2418588, 25.5759903 ], [ 80.241285, 25.5666231 ], [ 80.2370582, 25.5670665 ], [ 80.2328261, 25.5586544 ], [ 80.2205855, 25.5582566 ], [ 80.2172528, 25.559588 ], [ 80.2128837, 25.5521232 ], [ 80.212604, 25.5507107 ], [ 80.2141035, 25.5498748 ], [ 80.2080146, 25.5293784 ], [ 80.2147028, 25.5293699 ], [ 80.2244083, 25.526624 ], [ 80.2191288, 25.5134891 ], [ 80.2104506, 25.5167213 ], [ 80.2061482, 25.5167688 ], [ 80.2038764, 25.5189523 ], [ 80.1911188, 25.520448 ], [ 80.1876888, 25.5149296 ], [ 80.1860755, 25.506454 ], [ 80.170831, 25.5117177 ], [ 80.1703918, 25.5142093 ], [ 80.1645208, 25.5162826 ], [ 80.1634046, 25.5178716 ], [ 80.1602475, 25.5140044 ], [ 80.159559, 25.5153879 ], [ 80.1554815, 25.509738 ], [ 80.1616069, 25.510822 ], [ 80.1618968, 25.507394 ], [ 80.1557742, 25.50682 ], [ 80.1512933, 25.5086307 ], [ 80.1459099, 25.5119084 ], [ 80.1447963, 25.514488 ], [ 80.1453513, 25.5174171 ], [ 80.1436305, 25.5188413 ], [ 80.1461854, 25.5229369 ], [ 80.1455247, 25.5281071 ], [ 80.1470954, 25.5350937 ], [ 80.1293906, 25.5421565 ], [ 80.1126039, 25.5510385 ], [ 80.1083433, 25.5455587 ], [ 80.1056915, 25.5452695 ], [ 80.1037417, 25.5423943 ], [ 80.0880394, 25.5462568 ], [ 80.0882063, 25.5537198 ], [ 80.086628, 25.5567005 ], [ 80.0889448, 25.5630018 ], [ 80.0792692, 25.575885 ], [ 80.0773742, 25.585956 ], [ 80.0759378, 25.5874405 ], [ 80.0702881, 25.5893521 ], [ 80.0596167, 25.5862402 ], [ 80.0565925, 25.5875206 ], [ 80.0563565, 25.5911312 ], [ 80.0523085, 25.5938711 ], [ 80.0405309, 25.5926462 ], [ 80.0285411, 25.5894861 ], [ 80.0206395, 25.5901668 ], [ 80.0092562, 25.5937914 ], [ 80.0060529, 25.5992839 ], [ 79.9991707, 25.6049266 ], [ 79.9990875, 25.6082326 ], [ 80.0014332, 25.6095638 ], [ 79.9994793, 25.6119655 ], [ 80.0033598, 25.6166921 ], [ 79.9938044, 25.6181787 ], [ 79.9881811, 25.6223498 ], [ 79.9885934, 25.6257965 ], [ 79.9854376, 25.625938 ], [ 79.9644324, 25.6373076 ], [ 79.9540253, 25.6396511 ], [ 79.9535858, 25.643245 ], [ 79.9496719, 25.641867 ], [ 79.949143, 25.6336094 ], [ 79.9447666, 25.6282114 ], [ 79.9573187, 25.6271797 ], [ 79.9568455, 25.6231914 ], [ 79.9513747, 25.6180271 ], [ 79.9562039, 25.6102538 ], [ 79.9548123, 25.6055643 ], [ 79.950301, 25.5998779 ], [ 79.9496027, 25.5968156 ], [ 79.9445285, 25.5921463 ], [ 79.9451792, 25.5890798 ], [ 79.9363995, 25.5890205 ], [ 79.9300573, 25.5913998 ], [ 79.9258835, 25.5947293 ], [ 79.9196768, 25.5947021 ], [ 79.9172832, 25.5977013 ], [ 79.9159713, 25.5954439 ], [ 79.909168, 25.5970698 ], [ 79.9062137, 25.5933049 ], [ 79.8962207, 25.5860884 ], [ 79.8914059, 25.5793134 ], [ 79.8763344, 25.5801473 ], [ 79.8706516, 25.5770702 ], [ 79.8606378, 25.5833011 ], [ 79.8571099, 25.5868753 ], [ 79.8520828, 25.586734 ], [ 79.8476841, 25.5904319 ], [ 79.8411875, 25.5933584 ], [ 79.8454743, 25.6060127 ], [ 79.8448259, 25.6090292 ], [ 79.8278838, 25.611731 ], [ 79.8146769, 25.6153166 ], [ 79.7989599, 25.6247826 ], [ 79.7973734, 25.6234002 ], [ 79.7885483, 25.601316 ], [ 79.7891295, 25.5945945 ], [ 79.7865633, 25.5892061 ], [ 79.7839855, 25.5872072 ], [ 79.7796285, 25.5905239 ], [ 79.7710774, 25.5814772 ], [ 79.7637515, 25.5858595 ], [ 79.7619644, 25.5856687 ], [ 79.750038, 25.5751779 ], [ 79.7473635, 25.5740948 ], [ 79.7324787, 25.5789801 ], [ 79.7307473, 25.5818037 ], [ 79.7268402, 25.5842109 ], [ 79.7238348, 25.5844999 ], [ 79.7186397, 25.5875995 ], [ 79.7145342, 25.5878718 ], [ 79.7109492, 25.5926161 ], [ 79.7091032, 25.592894 ], [ 79.7082695, 25.5827853 ], [ 79.7137974, 25.5737595 ], [ 79.7105886, 25.5685423 ], [ 79.7107034, 25.5659785 ], [ 79.7092275, 25.5642339 ], [ 79.7031663, 25.5639085 ], [ 79.6991196, 25.5601724 ], [ 79.6933281, 25.5603021 ], [ 79.6917333, 25.5587155 ], [ 79.6943352, 25.5553451 ], [ 79.6985575, 25.5542065 ], [ 79.6993969, 25.5503554 ], [ 79.6933265, 25.5500657 ], [ 79.6895941, 25.546329 ], [ 79.6828801, 25.5479398 ], [ 79.6798872, 25.5461156 ], [ 79.6726069, 25.5449915 ], [ 79.6698721, 25.5460463 ], [ 79.668456, 25.5508953 ], [ 79.6663648, 25.5533711 ], [ 79.6614636, 25.5531193 ], [ 79.656713, 25.5501231 ], [ 79.6570875, 25.5434925 ], [ 79.6589241, 25.540286 ], [ 79.6636554, 25.5404433 ], [ 79.6652306, 25.5390333 ], [ 79.6630497, 25.5303293 ], [ 79.6602571, 25.5289242 ], [ 79.6592545, 25.5267724 ], [ 79.6621393, 25.5265661 ], [ 79.6636582, 25.5241272 ], [ 79.6652967, 25.5183797 ], [ 79.663095, 25.5160533 ], [ 79.6660463, 25.5100426 ], [ 79.6607558, 25.5111724 ], [ 79.6558435, 25.5087088 ], [ 79.652258, 25.5091369 ], [ 79.6482522, 25.5115828 ], [ 79.6423304, 25.5089122 ], [ 79.6407041, 25.5048336 ], [ 79.6414065, 25.5015607 ], [ 79.6443244, 25.5003453 ], [ 79.6422099, 25.4938418 ], [ 79.6439596, 25.4894318 ], [ 79.6399709, 25.484955 ], [ 79.6270569, 25.4871944 ], [ 79.6260474, 25.4856373 ], [ 79.6235015, 25.4859668 ], [ 79.620866, 25.4833986 ], [ 79.6189217, 25.4837506 ], [ 79.6173604, 25.4816517 ], [ 79.6156101, 25.4815118 ], [ 79.6081109, 25.4861058 ], [ 79.607061, 25.4909396 ], [ 79.6008833, 25.49756 ], [ 79.5952484, 25.4987144 ], [ 79.592121, 25.4960959 ], [ 79.5911174, 25.4926112 ], [ 79.5885211, 25.4938834 ], [ 79.5863439, 25.4907957 ], [ 79.584344, 25.4931286 ], [ 79.5823948, 25.4927715 ], [ 79.5802028, 25.4896836 ], [ 79.5774776, 25.4899175 ], [ 79.570372, 25.4774895 ], [ 79.5688409, 25.4766178 ], [ 79.5621029, 25.4774636 ], [ 79.5594667, 25.4791099 ], [ 79.5593103, 25.4832848 ], [ 79.5605971, 25.4853571 ], [ 79.5604218, 25.4877401 ], [ 79.5591882, 25.4882766 ], [ 79.5604502, 25.4903579 ], [ 79.5596688, 25.4915807 ], [ 79.5487793, 25.4895715 ], [ 79.5418998, 25.4927001 ], [ 79.5409331, 25.4883485 ], [ 79.5348559, 25.4821255 ], [ 79.5325381, 25.4830448 ], [ 79.5282771, 25.4824056 ], [ 79.5233275, 25.484668 ], [ 79.5227753, 25.4967005 ], [ 79.5140951, 25.4935078 ], [ 79.5120187, 25.4911005 ], [ 79.5114949, 25.4875119 ], [ 79.5084568, 25.4872523 ], [ 79.5008539, 25.4916557 ], [ 79.4935132, 25.4940906 ], [ 79.4887442, 25.4942614 ], [ 79.4830666, 25.4905782 ], [ 79.4665772, 25.5045596 ], [ 79.4542683, 25.5050001 ], [ 79.4492468, 25.5079726 ], [ 79.4424984, 25.5093254 ], [ 79.4416075, 25.5082741 ], [ 79.4391708, 25.5090019 ], [ 79.4387822, 25.5074901 ], [ 79.4341122, 25.5078982 ], [ 79.4330721, 25.5066574 ], [ 79.4296855, 25.5076291 ], [ 79.4257906, 25.5060643 ], [ 79.4215385, 25.5066616 ], [ 79.4167848, 25.5098224 ], [ 79.4156515, 25.5120073 ], [ 79.4122052, 25.513466 ], [ 79.4090314, 25.5116208 ], [ 79.4044521, 25.5184235 ], [ 79.4024279, 25.5190062 ], [ 79.3974483, 25.5162132 ], [ 79.3933155, 25.5194544 ], [ 79.393495, 25.5221761 ], [ 79.3918837, 25.5244826 ], [ 79.4009877, 25.5293287 ], [ 79.4080122, 25.5313944 ], [ 79.4111784, 25.5390214 ], [ 79.4094096, 25.5471911 ], [ 79.4012726, 25.5581739 ], [ 79.3990985, 25.5593388 ], [ 79.3977361, 25.564385 ], [ 79.4036588, 25.5700121 ], [ 79.4172047, 25.5721347 ], [ 79.4198233, 25.57523 ], [ 79.416655, 25.5797218 ], [ 79.4119079, 25.5813615 ], [ 79.406906, 25.5801486 ], [ 79.3950706, 25.5738591 ], [ 79.3888453, 25.5738688 ], [ 79.385994, 25.5762612 ], [ 79.3758174, 25.5940805 ], [ 79.3753396, 25.5973436 ], [ 79.3689237, 25.6027461 ], [ 79.3686347, 25.6086495 ], [ 79.3749316, 25.6151941 ], [ 79.3751257, 25.6214045 ], [ 79.3723876, 25.6244781 ], [ 79.3636752, 25.6263507 ], [ 79.3618031, 25.6277949 ], [ 79.3579936, 25.6346187 ], [ 79.3552686, 25.6438979 ], [ 79.3600929, 25.6490527 ], [ 79.3666904, 25.6530114 ], [ 79.3719887, 25.6519284 ], [ 79.3785566, 25.6475233 ], [ 79.3841035, 25.6459434 ], [ 79.3970596, 25.6452785 ], [ 79.4028015, 25.6489334 ], [ 79.4036636, 25.6517947 ], [ 79.4024495, 25.6554778 ], [ 79.3959718, 25.6605473 ], [ 79.3893985, 25.661505 ], [ 79.3828447, 25.660341 ], [ 79.3782981, 25.6637714 ], [ 79.3773023, 25.6672286 ], [ 79.3793393, 25.6717194 ], [ 79.3858841, 25.6781505 ], [ 79.3874287, 25.6833001 ], [ 79.3836437, 25.6890097 ], [ 79.3725059, 25.6928599 ], [ 79.3688442, 25.7009612 ], [ 79.3685697, 25.7108545 ], [ 79.3706072, 25.7150925 ], [ 79.3790224, 25.7215511 ], [ 79.3912949, 25.7264245 ], [ 79.398142, 25.731492 ], [ 79.3999968, 25.7371469 ], [ 79.3980839, 25.7398011 ], [ 79.3915066, 25.7436473 ], [ 79.3764767, 25.7444381 ], [ 79.3750963, 25.7471912 ], [ 79.3777877, 25.7566109 ], [ 79.3752309, 25.7626361 ], [ 79.3714131, 25.7650236 ], [ 79.3600637, 25.765718 ], [ 79.358304, 25.7679474 ], [ 79.3586724, 25.771382 ], [ 79.370346, 25.7754402 ], [ 79.3786605, 25.7751198 ], [ 79.3888389, 25.7724564 ], [ 79.3937641, 25.7750645 ], [ 79.4023604, 25.7870639 ], [ 79.3962701, 25.7955499 ], [ 79.3960163, 25.797811 ], [ 79.3973935, 25.8040978 ], [ 79.4026046, 25.8078203 ], [ 79.4228677, 25.8072328 ], [ 79.4328418, 25.8012581 ], [ 79.436916, 25.7930694 ], [ 79.4415395, 25.7878996 ], [ 79.4542064, 25.7871666 ], [ 79.4598512, 25.7892395 ], [ 79.4637234, 25.7940799 ], [ 79.4635489, 25.8074754 ], [ 79.4633269, 25.8106077 ], [ 79.4602213, 25.811738 ], [ 79.4575818, 25.8162798 ], [ 79.4593071, 25.8232472 ], [ 79.4696751, 25.8366361 ], [ 79.4826657, 25.8462312 ], [ 79.4894759, 25.8536186 ], [ 79.4978301, 25.8577549 ], [ 79.5042619, 25.8571499 ], [ 79.5083712, 25.8529018 ], [ 79.5127571, 25.8513121 ], [ 79.51519, 25.847216 ], [ 79.5258628, 25.8422951 ], [ 79.5287742, 25.8314247 ], [ 79.538332, 25.8211089 ], [ 79.5511173, 25.8215943 ], [ 79.5587332, 25.8283272 ], [ 79.5624692, 25.8360871 ], [ 79.5634186, 25.8423339 ], [ 79.5649246, 25.842867 ], [ 79.5717328, 25.8533359 ], [ 79.5658108, 25.8559603 ], [ 79.5632392, 25.8614699 ], [ 79.5598554, 25.8644787 ], [ 79.5529866, 25.8641461 ], [ 79.5397297, 25.8608759 ], [ 79.5321864, 25.8621846 ], [ 79.5239176, 25.865898 ], [ 79.5204446, 25.872697 ], [ 79.5192652, 25.8806845 ], [ 79.5218577, 25.8884762 ], [ 79.5269375, 25.8940445 ], [ 79.536183, 25.8943528 ], [ 79.5494526, 25.8912732 ], [ 79.5537848, 25.8890007 ], [ 79.5601518, 25.8884486 ], [ 79.5674434, 25.8840287 ], [ 79.5706017, 25.8838268 ], [ 79.5755451, 25.886031 ], [ 79.5821058, 25.8869899 ], [ 79.5982441, 25.897338 ], [ 79.6107636, 25.8971638 ], [ 79.6124948, 25.8993618 ], [ 79.6128285, 25.9054592 ], [ 79.6108418, 25.9111997 ], [ 79.6044679, 25.9178966 ], [ 79.6034888, 25.923231 ], [ 79.6064775, 25.9286699 ], [ 79.6146077, 25.9321097 ], [ 79.6232127, 25.9326652 ], [ 79.6321819, 25.9304671 ], [ 79.6388345, 25.9250552 ], [ 79.6538679, 25.9071537 ], [ 79.658977, 25.9041919 ], [ 79.6681396, 25.906085 ], [ 79.6726668, 25.9088908 ], [ 79.6766361, 25.9136689 ], [ 79.6781157, 25.9188268 ], [ 79.682786, 25.9269894 ], [ 79.6863909, 25.9296191 ], [ 79.6921191, 25.9265837 ], [ 79.7034554, 25.9140855 ], [ 79.7090373, 25.9036388 ], [ 79.7113275, 25.9032358 ], [ 79.7192338, 25.9057853 ], [ 79.7249394, 25.9079794 ], [ 79.7272323, 25.9107579 ], [ 79.7356985, 25.9134326 ], [ 79.7484829, 25.9089044 ], [ 79.7598319, 25.8870384 ], [ 79.7576948, 25.883706 ], [ 79.7586855, 25.8808003 ], [ 79.7688563, 25.8718402 ], [ 79.7854252, 25.8634974 ], [ 79.8003251, 25.8641467 ], [ 79.8080447, 25.8685689 ], [ 79.8137877, 25.8762529 ], [ 79.8147016, 25.8841649 ], [ 79.8088682, 25.9039934 ], [ 79.8114485, 25.9125877 ], [ 79.8152104, 25.9143405 ], [ 79.8202607, 25.9144327 ], [ 79.8242293, 25.9117532 ], [ 79.8361642, 25.8878415 ], [ 79.840042, 25.8845072 ], [ 79.848225, 25.8815798 ], [ 79.8595755, 25.8795911 ], [ 79.8642353, 25.8794155 ], [ 79.8675729, 25.8807336 ], [ 79.870731, 25.8823765 ], [ 79.8636799, 25.8974458 ], [ 79.8623861, 25.9118111 ], [ 79.8663617, 25.9365031 ], [ 79.850587, 25.9449094 ], [ 79.852638, 25.9483036 ], [ 79.8451792, 25.9515834 ], [ 79.8441304, 25.9534832 ], [ 79.8501671, 25.9718665 ], [ 79.8539064, 25.9745072 ], [ 79.8599932, 25.9718588 ], [ 79.8662043, 25.9732628 ], [ 79.8725129, 25.971488 ], [ 79.8732995, 25.9645248 ], [ 79.8719994, 25.9629147 ], [ 79.8688807, 25.9621939 ], [ 79.8654217, 25.9567717 ], [ 79.8606849, 25.9528191 ], [ 79.8702445, 25.9514239 ], [ 79.8763448, 25.9485354 ], [ 79.8787852, 25.9548149 ], [ 79.8871904, 25.9641744 ], [ 79.8888615, 25.9641684 ], [ 79.8893257, 25.9629995 ], [ 79.897928, 25.9633548 ], [ 79.8985964, 25.9606604 ], [ 79.8969386, 25.9589366 ], [ 79.8981464, 25.95691 ], [ 79.899839, 25.9578665 ], [ 79.9040794, 25.9655155 ], [ 79.9060465, 25.9654745 ], [ 79.9084544, 25.9704745 ], [ 79.9146, 25.9685323 ], [ 79.9233201, 25.9629062 ], [ 79.9333919, 25.9764645 ], [ 79.9342784, 25.9818122 ], [ 79.9277489, 25.9859534 ], [ 79.9323378, 25.9959212 ], [ 79.931785, 25.9989 ], [ 79.936955, 26.0010642 ], [ 79.9435067, 26.0000097 ], [ 79.9544047, 26.0233595 ], [ 79.9418557, 26.029788 ], [ 79.9350479, 26.0219292 ], [ 79.9312966, 26.0217683 ], [ 79.9305251, 26.0172013 ], [ 79.9276433, 26.0175408 ], [ 79.919409, 26.0103181 ], [ 79.9070981, 26.0131782 ], [ 79.91309, 26.0231733 ], [ 79.916315, 26.0321084 ], [ 79.9368595, 26.0283731 ], [ 79.9399574, 26.0297438 ], [ 79.9420326, 26.0334391 ], [ 79.9393752, 26.0430397 ], [ 79.9413692, 26.0439865 ], [ 79.9445525, 26.0538958 ], [ 79.9430392, 26.0548578 ], [ 79.9443195, 26.0569964 ], [ 79.9432715, 26.0593347 ], [ 79.9442818, 26.0607603 ], [ 79.9382772, 26.0635161 ], [ 79.9398024, 26.0656186 ], [ 79.9356856, 26.0669201 ], [ 79.9353669, 26.0691317 ], [ 79.9308872, 26.0745989 ], [ 79.9292478, 26.0739947 ], [ 79.9323731, 26.07815 ], [ 79.9303748, 26.0793648 ], [ 79.9273136, 26.0847817 ], [ 79.9233261, 26.0863176 ], [ 79.9187147, 26.0905975 ], [ 79.9224645, 26.0937735 ], [ 79.927448, 26.1057585 ], [ 79.9328702, 26.1232987 ], [ 79.9363587, 26.1497618 ], [ 79.9396051, 26.1607405 ], [ 79.9419767, 26.1626665 ], [ 79.9521375, 26.1607931 ], [ 79.9609456, 26.155756 ], [ 79.9649319, 26.150189 ], [ 79.9656836, 26.1459056 ], [ 79.965747, 26.1309313 ], [ 79.9550561, 26.0921659 ], [ 79.954259, 26.0811544 ], [ 79.9559146, 26.0759453 ] ] ] } }
]
}
