{
"type": "FeatureCollection",
"name": "0944",
"crs": { "type": "name", "properties": { "name": "urn:ogc:def:crs:OGC:1.3:CRS84" } },
"features": [
{ "type": "Feature", "properties": { "code": "0944", "name": "Kaushambi", "type": "district" }, "geometry": { "type": "Polygon", "coordinates": [ [ [ 81.3500876, 25.7914407 ], [ 81.3572343, 25.7800943 ], [ 81.3613878, 25.77587 ], [ 81.3696635, 25.7764212 ], [ 81.3729391, 25.7747106 ], [ 81.3803972, 25.7748233 ], [ 81.3912302, 25.772972 ], [ 81.3983282, 25.7678706 ], [ 81.4019457, 25.7604991 ], [ 81.4023487, 25.757064 ], [ 81.39954, 25.7453329 ], [ 81.4001375, 25.7423402 ], [ 81.3962385, 25.7342071 ], [ 81.3748785, 25.7180359 ], [ 81.36869, 25.7119693 ], [ 81.3677235, 25.7086246 ], [ 81.3686856, 25.7030637 ], [ 81.3738174, 25.6948849 ], [ 81.3861323, 25.6865341 ], [ 81.3986411, 25.6854539 ], [ 81.4154419, 25.6783997 ], [ 81.4227276, 25.6735407 ], [ 81.433811, 25.6637824 ], [ 81.4355001, 25.6551966 ], [ 81.4382415, 25.6498104 ], [ 81.4484462, 25.642209 ], [ 81.4506403, 25.6391294 ], [ 81.4521008, 25.6334549 ], [ 81.4609247, 25.6269727 ], [ 81.4646807, 25.6223573 ], [ 81.4753815, 25.6174981 ], [ 81.4806536, 25.6169528 ], [ 81.4901404, 25.6192296 ], [ 81.4949992, 25.6236312 ], [ 81.5091966, 25.6248695 ], [ 81.522792, 25.622045 ], [ 81.5266734, 25.6186488 ], [ 81.5312416, 25.609051 ], [ 81.5361297, 25.6034163 ], [ 81.5380528, 25.5945207 ], [ 81.5402503, 25.5913443 ], [ 81.5449216, 25.5880067 ], [ 81.5513335, 25.5868319 ], [ 81.5546098, 25.5849243 ], [ 81.5573218, 25.5775726 ], [ 81.5652978, 25.5724077 ], [ 81.5762512, 25.5744069 ], [ 81.5895722, 25.5830818 ], [ 81.604776, 25.5952676 ], [ 81.6107094, 25.5979404 ], [ 81.6251706, 25.59772 ], [ 81.6338171, 25.5937792 ], [ 81.6379234, 25.5896668 ], [ 81.6421434, 25.5824307 ], [ 81.643456, 25.5728928 ], [ 81.6420558, 25.5611615 ], [ 81.6444686, 25.5560471 ], [ 81.6456766, 25.5489151 ], [ 81.6452229, 25.5430336 ], [ 81.6410218, 25.5307204 ], [ 81.6416083, 25.5265494 ], [ 81.6440159, 25.5251228 ], [ 81.6615123, 25.5225737 ], [ 81.6721884, 25.5223901 ], [ 81.6995094, 25.5127237 ], [ 81.6900727, 25.5032446 ], [ 81.6838955, 25.5043756 ], [ 81.6782441, 25.5027257 ], [ 81.6739039, 25.5080987 ], [ 81.6705107, 25.506082 ], [ 81.6667732, 25.4948811 ], [ 81.6633603, 25.4924443 ], [ 81.6600999, 25.4918463 ], [ 81.6596909, 25.4886994 ], [ 81.657542, 25.4862717 ], [ 81.6518583, 25.486539 ], [ 81.6483386, 25.488065 ], [ 81.6432445, 25.4793639 ], [ 81.6371476, 25.4728652 ], [ 81.6375253, 25.4705904 ], [ 81.640205, 25.4690194 ], [ 81.6453673, 25.4770843 ], [ 81.646089, 25.4811554 ], [ 81.648123, 25.4825182 ], [ 81.6541785, 25.4802173 ], [ 81.6520647, 25.475806 ], [ 81.6556345, 25.4742166 ], [ 81.659437, 25.4700588 ], [ 81.6589588, 25.4665203 ], [ 81.6544374, 25.4589115 ], [ 81.6538788, 25.4512162 ], [ 81.6498556, 25.4441804 ], [ 81.64559, 25.4405973 ], [ 81.6545206, 25.4374024 ], [ 81.6533127, 25.43207 ], [ 81.6503795, 25.4297732 ], [ 81.6458905, 25.4184215 ], [ 81.6559829, 25.4165926 ], [ 81.663408, 25.4169069 ], [ 81.6638995, 25.4155753 ], [ 81.6620933, 25.4082684 ], [ 81.6573163, 25.4032143 ], [ 81.6575356, 25.4011142 ], [ 81.6596011, 25.3996255 ], [ 81.659054, 25.3981227 ], [ 81.6611953, 25.3966418 ], [ 81.6603199, 25.3936495 ], [ 81.6624015, 25.3922633 ], [ 81.658622, 25.3810707 ], [ 81.669223, 25.3766627 ], [ 81.674602, 25.3728109 ], [ 81.6766796, 25.3748233 ], [ 81.6772182, 25.3795442 ], [ 81.6796052, 25.3845714 ], [ 81.6814939, 25.3861053 ], [ 81.6931114, 25.3875899 ], [ 81.6941933, 25.394107 ], [ 81.7007952, 25.3912195 ], [ 81.7133553, 25.3897457 ], [ 81.7080754, 25.3778691 ], [ 81.6994668, 25.3720513 ], [ 81.6978743, 25.3675159 ], [ 81.6979492, 25.3574237 ], [ 81.6737509, 25.3565308 ], [ 81.66162, 25.3544311 ], [ 81.6452577, 25.3545606 ], [ 81.6286667, 25.3507253 ], [ 81.5986787, 25.3338964 ], [ 81.56589, 25.3033299 ], [ 81.5284967, 25.2783861 ], [ 81.5063107, 25.2691666 ], [ 81.4774444, 25.2661743 ], [ 81.4706402, 25.2675599 ], [ 81.4661618, 25.2609092 ], [ 81.4610737, 25.2586695 ], [ 81.4558868, 25.2583565 ], [ 81.425758, 25.2683629 ], [ 81.3972217, 25.2714211 ], [ 81.3883049, 25.2737203 ], [ 81.3848745, 25.2760362 ], [ 81.3831892, 25.2799713 ], [ 81.3842419, 25.2848233 ], [ 81.3995608, 25.3032224 ], [ 81.4021453, 25.3132836 ], [ 81.4015655, 25.3195491 ], [ 81.3987756, 25.3263476 ], [ 81.3935462, 25.331088 ], [ 81.3864586, 25.3349166 ], [ 81.3560926, 25.3446794 ], [ 81.3307312, 25.3488555 ], [ 81.303939, 25.3399893 ], [ 81.2963239, 25.3417457 ], [ 81.289858, 25.3404602 ], [ 81.2805186, 25.3343177 ], [ 81.2760391, 25.3270879 ], [ 81.266031, 25.3255136 ], [ 81.2610768, 25.3286693 ], [ 81.2562881, 25.3349846 ], [ 81.2473379, 25.3525048 ], [ 81.2426875, 25.3587413 ], [ 81.2357449, 25.3619019 ], [ 81.2069235, 25.3688091 ], [ 81.1900361, 25.370465 ], [ 81.173816, 25.3768947 ], [ 81.1565075, 25.3889109 ], [ 81.1514547, 25.3941931 ], [ 81.147247, 25.4029915 ], [ 81.1466622, 25.4097583 ], [ 81.1500991, 25.4245531 ], [ 81.1530624, 25.4289802 ], [ 81.1563692, 25.4311477 ], [ 81.1649249, 25.432712 ], [ 81.1876113, 25.4477129 ], [ 81.1905984, 25.4459421 ], [ 81.1970892, 25.4503401 ], [ 81.2011949, 25.4485505 ], [ 81.2048351, 25.4497629 ], [ 81.2092661, 25.4441361 ], [ 81.2213327, 25.43836 ], [ 81.2225677, 25.4410404 ], [ 81.2209426, 25.4416644 ], [ 81.2191408, 25.4454166 ], [ 81.2172567, 25.4457157 ], [ 81.2164888, 25.4491918 ], [ 81.2252438, 25.4606199 ], [ 81.2258716, 25.4622941 ], [ 81.2246592, 25.4632338 ], [ 81.2274227, 25.4677323 ], [ 81.225953, 25.4704642 ], [ 81.2288084, 25.4716133 ], [ 81.2317807, 25.4756014 ], [ 81.231879, 25.4799752 ], [ 81.2348077, 25.4849203 ], [ 81.2418032, 25.482852 ], [ 81.2484471, 25.4922355 ], [ 81.2552466, 25.4889146 ], [ 81.2597911, 25.4902227 ], [ 81.2624006, 25.491949 ], [ 81.2646735, 25.4974802 ], [ 81.2674331, 25.4984844 ], [ 81.2697901, 25.5048651 ], [ 81.2690167, 25.5076271 ], [ 81.2651698, 25.5095427 ], [ 81.2590155, 25.5105896 ], [ 81.247804, 25.5153254 ], [ 81.249371, 25.52406 ], [ 81.2545642, 25.5247054 ], [ 81.2604423, 25.5479654 ], [ 81.2546675, 25.5507548 ], [ 81.2556902, 25.5580907 ], [ 81.2513882, 25.5605335 ], [ 81.2491376, 25.5664131 ], [ 81.2450467, 25.5690785 ], [ 81.2454785, 25.5729194 ], [ 81.2364189, 25.5765918 ], [ 81.2385134, 25.5810724 ], [ 81.2383091, 25.5859971 ], [ 81.2374371, 25.5850679 ], [ 81.2317693, 25.58681 ], [ 81.230366, 25.5928911 ], [ 81.2215326, 25.5956055 ], [ 81.2115616, 25.5953906 ], [ 81.2072573, 25.5977808 ], [ 81.2071048, 25.6004531 ], [ 81.2087485, 25.6017882 ], [ 81.2139561, 25.6158998 ], [ 81.2151308, 25.6221191 ], [ 81.2132695, 25.6232623 ], [ 81.2169845, 25.6371579 ], [ 81.2095722, 25.6404439 ], [ 81.2091307, 25.6429131 ], [ 81.2076423, 25.6438258 ], [ 81.2105349, 25.6498365 ], [ 81.2173995, 25.6588283 ], [ 81.2159411, 25.6600569 ], [ 81.2165381, 25.6656265 ], [ 81.215222, 25.6708679 ], [ 81.2229282, 25.6714858 ], [ 81.2281272, 25.669925 ], [ 81.2338573, 25.6721507 ], [ 81.2377677, 25.6776635 ], [ 81.2310057, 25.6807153 ], [ 81.2299734, 25.6794206 ], [ 81.2272533, 25.6849428 ], [ 81.2199919, 25.6872949 ], [ 81.2147092, 25.6844095 ], [ 81.2041978, 25.6842485 ], [ 81.2048838, 25.6894254 ], [ 81.2037944, 25.6919356 ], [ 81.1954442, 25.6995185 ], [ 81.1940162, 25.7028774 ], [ 81.1985072, 25.7142001 ], [ 81.1984512, 25.7203975 ], [ 81.2023277, 25.7198178 ], [ 81.2036041, 25.7209185 ], [ 81.2109143, 25.7207248 ], [ 81.2119514, 25.7216856 ], [ 81.2144111, 25.7190707 ], [ 81.2265214, 25.7149598 ], [ 81.2288209, 25.7233582 ], [ 81.2309711, 25.7261642 ], [ 81.2311084, 25.7292786 ], [ 81.2353675, 25.7327736 ], [ 81.2350417, 25.741562 ], [ 81.2419512, 25.7484627 ], [ 81.2395048, 25.7493312 ], [ 81.2469537, 25.7615082 ], [ 81.2531602, 25.7556115 ], [ 81.2623192, 25.7530957 ], [ 81.2630259, 25.7543195 ], [ 81.2696543, 25.7554935 ], [ 81.2703346, 25.7584008 ], [ 81.2749495, 25.7594919 ], [ 81.2772534, 25.7583966 ], [ 81.2812605, 25.7589905 ], [ 81.282556, 25.7597046 ], [ 81.2831403, 25.7648325 ], [ 81.2867004, 25.7637244 ], [ 81.2896259, 25.7644799 ], [ 81.2903872, 25.7665747 ], [ 81.288926, 25.7674088 ], [ 81.2947429, 25.7683105 ], [ 81.2993848, 25.767049 ], [ 81.3006252, 25.7686069 ], [ 81.2990591, 25.7697572 ], [ 81.3019834, 25.7729454 ], [ 81.3080322, 25.7699873 ], [ 81.3134434, 25.7752572 ], [ 81.3128346, 25.7763266 ], [ 81.3141495, 25.7787917 ], [ 81.3113914, 25.7808939 ], [ 81.3116843, 25.7830786 ], [ 81.317863, 25.7906281 ], [ 81.3189702, 25.7900373 ], [ 81.3219002, 25.793884 ], [ 81.3248862, 25.7954649 ], [ 81.3270915, 25.7922654 ], [ 81.3291606, 25.7925007 ], [ 81.330273, 25.7911741 ], [ 81.3342503, 25.7958741 ], [ 81.3383733, 25.8107025 ], [ 81.3423746, 25.8078328 ], [ 81.3466614, 25.7946132 ], [ 81.3500876, 25.7914407 ] ] ] } }
]
}
