{
"type": "FeatureCollection",
"name": "0945",
"crs": { "type": "name", "properties": { "name": "urn:ogc:def:crs:OGC:1.3:CRS84" } },
"features": [
{ "type": "Feature", "properties": { "code": "0945", "name": "Prayagraj", "type": "district" }, "geometry": { "type": "Polygon", "coordinates": [ [ [ 81.947136, 25.7400833 ], [ 81.9493852, 25.742497 ], [ 81.9596464, 25.7412411 ], [ 81.963132, 25.7436133 ], [ 81.9649683, 25.7399064 ], [ 81.9675087, 25.7381399 ], [ 81.9793396, 25.7372519 ], [ 81.981581, 25.7469366 ], [ 81.9846028, 25.7484555 ], [ 81.9880135, 25.7446478 ], [ 81.991297, 25.7436252 ], [ 81.9911809, 25.7422035 ], [ 81.9940525, 25.742991 ], [ 81.994299, 25.7402329 ], [ 81.9992944, 25.744264 ], [ 82.0032829, 25.7426245 ], [ 82.0046009, 25.745099 ], [ 82.0095106, 25.7440153 ], [ 82.0145377, 25.7452738 ], [ 82.0214812, 25.7435368 ], [ 82.0213731, 25.7417765 ], [ 82.0245847, 25.7389715 ], [ 82.0287866, 25.7376926 ], [ 82.0314571, 25.7319172 ], [ 82.035968, 25.7301374 ], [ 82.0438228, 25.7201675 ], [ 82.0442793, 25.7154649 ], [ 82.042403, 25.7126159 ], [ 82.0451015, 25.7076979 ], [ 82.0342383, 25.7047443 ], [ 82.0186064, 25.703813 ], [ 82.0119007, 25.6989065 ], [ 82.012004, 25.6950206 ], [ 82.0186401, 25.6939243 ], [ 82.0224446, 25.6953939 ], [ 82.0277849, 25.695059 ], [ 82.0298029, 25.6942886 ], [ 82.0321866, 25.6908781 ], [ 82.0356794, 25.6895713 ], [ 82.0446025, 25.6869273 ], [ 82.0473765, 25.68752 ], [ 82.0541031, 25.683985 ], [ 82.0597662, 25.6841456 ], [ 82.0626461, 25.6823461 ], [ 82.0646157, 25.6782532 ], [ 82.067564, 25.6785117 ], [ 82.0623096, 25.6593639 ], [ 82.0636464, 25.6551129 ], [ 82.0740984, 25.6557488 ], [ 82.0870514, 25.6537352 ], [ 82.0889928, 25.6558525 ], [ 82.0941861, 25.6580698 ], [ 82.0956247, 25.6603267 ], [ 82.0973528, 25.6599525 ], [ 82.0986382, 25.6573982 ], [ 82.1052216, 25.6564108 ], [ 82.1105856, 25.6509683 ], [ 82.1148429, 25.6518217 ], [ 82.116526, 25.6527109 ], [ 82.1149721, 25.6553241 ], [ 82.1184229, 25.657915 ], [ 82.1232682, 25.659224 ], [ 82.1260371, 25.6578565 ], [ 82.1269136, 25.6640082 ], [ 82.1229393, 25.671401 ], [ 82.1231135, 25.6764289 ], [ 82.1270632, 25.6817727 ], [ 82.1369449, 25.6789831 ], [ 82.1431911, 25.6812977 ], [ 82.1555651, 25.6783997 ], [ 82.1561251, 25.6769267 ], [ 82.1542017, 25.6736594 ], [ 82.1551425, 25.6715605 ], [ 82.1536774, 25.6677064 ], [ 82.1441104, 25.6679065 ], [ 82.138561, 25.6547236 ], [ 82.1450891, 25.6533372 ], [ 82.1464183, 25.6517303 ], [ 82.1455916, 25.6506833 ], [ 82.1428377, 25.649456 ], [ 82.1390834, 25.6517131 ], [ 82.1360404, 25.6452322 ], [ 82.126983, 25.64674 ], [ 82.1225216, 25.6449573 ], [ 82.1240055, 25.6404032 ], [ 82.1313045, 25.6328703 ], [ 82.13699, 25.6303651 ], [ 82.1381248, 25.6278509 ], [ 82.1370987, 25.6223357 ], [ 82.1403295, 25.6209904 ], [ 82.1462321, 25.6119178 ], [ 82.1475615, 25.6129286 ], [ 82.1548362, 25.6005786 ], [ 82.1615797, 25.597508 ], [ 82.1714449, 25.5981056 ], [ 82.1733644, 25.5934561 ], [ 82.1714769, 25.5903515 ], [ 82.1743813, 25.585282 ], [ 82.1777203, 25.5842383 ], [ 82.1787838, 25.5807445 ], [ 82.181501, 25.5806486 ], [ 82.1856846, 25.5771807 ], [ 82.1930829, 25.5830584 ], [ 82.2019819, 25.5839883 ], [ 82.2022096, 25.5821061 ], [ 82.203553, 25.5817533 ], [ 82.202318, 25.5804722 ], [ 82.2039875, 25.5763505 ], [ 82.2013843, 25.5755305 ], [ 82.2044631, 25.5729832 ], [ 82.2086403, 25.5760049 ], [ 82.2097715, 25.5783062 ], [ 82.2117218, 25.5777093 ], [ 82.2114859, 25.5816766 ], [ 82.2137583, 25.5859404 ], [ 82.2212891, 25.5870189 ], [ 82.2240234, 25.5894182 ], [ 82.2308882, 25.5854958 ], [ 82.2460375, 25.5804291 ], [ 82.2512596, 25.5778329 ], [ 82.2510029, 25.5710052 ], [ 82.2481503, 25.572686 ], [ 82.2456072, 25.5681755 ], [ 82.2506599, 25.5609781 ], [ 82.2564345, 25.5621381 ], [ 82.2607344, 25.5656747 ], [ 82.2640382, 25.5652982 ], [ 82.2686274, 25.5625489 ], [ 82.2694663, 25.5590704 ], [ 82.2728962, 25.5564194 ], [ 82.2766486, 25.5544455 ], [ 82.2858571, 25.5534856 ], [ 82.2904119, 25.5417691 ], [ 82.2953167, 25.5411401 ], [ 82.2997694, 25.5477217 ], [ 82.310514, 25.5473072 ], [ 82.3120272, 25.5455525 ], [ 82.318588, 25.5455821 ], [ 82.3235933, 25.5428493 ], [ 82.3258117, 25.5428727 ], [ 82.3295591, 25.537337 ], [ 82.3327083, 25.5355554 ], [ 82.3251001, 25.5312797 ], [ 82.3263803, 25.5265509 ], [ 82.3302258, 25.5234927 ], [ 82.3327594, 25.5169095 ], [ 82.3372912, 25.5129848 ], [ 82.3390426, 25.5093029 ], [ 82.3361658, 25.5019197 ], [ 82.3315787, 25.4979017 ], [ 82.3293161, 25.497373 ], [ 82.3244012, 25.5016633 ], [ 82.3201132, 25.5167655 ], [ 82.3170381, 25.5203564 ], [ 82.3009749, 25.5203492 ], [ 82.2987659, 25.5217786 ], [ 82.2997674, 25.5186518 ], [ 82.2964562, 25.5174091 ], [ 82.2960352, 25.5144712 ], [ 82.2994042, 25.5109126 ], [ 82.3037411, 25.5098317 ], [ 82.3058442, 25.5105728 ], [ 82.3112059, 25.5083279 ], [ 82.3156539, 25.5034788 ], [ 82.3149282, 25.4983291 ], [ 82.311145, 25.4957458 ], [ 82.3009562, 25.4939627 ], [ 82.2937621, 25.4984001 ], [ 82.2867894, 25.4987978 ], [ 82.2834924, 25.4919985 ], [ 82.2827269, 25.4849028 ], [ 82.2865499, 25.4795522 ], [ 82.2887527, 25.479522 ], [ 82.2898259, 25.480827 ], [ 82.2927354, 25.4797634 ], [ 82.3025539, 25.4834246 ], [ 82.3072182, 25.4833275 ], [ 82.3106126, 25.4775924 ], [ 82.3110827, 25.4725872 ], [ 82.3101916, 25.4653517 ], [ 82.3072553, 25.46155 ], [ 82.3172065, 25.4559214 ], [ 82.323844, 25.4545969 ], [ 82.3225239, 25.4491983 ], [ 82.3248114, 25.4472132 ], [ 82.330746, 25.4499639 ], [ 82.3342166, 25.4478841 ], [ 82.3356479, 25.4491618 ], [ 82.3373993, 25.4443103 ], [ 82.3421921, 25.441495 ], [ 82.3418056, 25.4369183 ], [ 82.3462602, 25.4335792 ], [ 82.3473901, 25.4267189 ], [ 82.350596, 25.4260966 ], [ 82.3498112, 25.4238036 ], [ 82.3527339, 25.4223236 ], [ 82.3476677, 25.407541 ], [ 82.3453421, 25.4074367 ], [ 82.3446272, 25.4044396 ], [ 82.3405837, 25.3989007 ], [ 82.3280856, 25.4007657 ], [ 82.3244369, 25.3920535 ], [ 82.3196113, 25.3937623 ], [ 82.3179061, 25.395725 ], [ 82.3132292, 25.3882127 ], [ 82.3120236, 25.3847141 ], [ 82.3150346, 25.3844897 ], [ 82.318295, 25.3823516 ], [ 82.3180351, 25.3751344 ], [ 82.3142404, 25.3732371 ], [ 82.3126471, 25.3703026 ], [ 82.3093392, 25.3689246 ], [ 82.3081082, 25.3669607 ], [ 82.3123548, 25.3592398 ], [ 82.3156279, 25.3566469 ], [ 82.3140128, 25.3514908 ], [ 82.3167702, 25.3504132 ], [ 82.3181868, 25.348333 ], [ 82.3160928, 25.3440081 ], [ 82.3189297, 25.3421181 ], [ 82.3160656, 25.3385829 ], [ 82.3135362, 25.3315452 ], [ 82.3141676, 25.3302275 ], [ 82.3104006, 25.3256311 ], [ 82.3040327, 25.3278668 ], [ 82.3001313, 25.3243985 ], [ 82.3016429, 25.3214113 ], [ 82.3004504, 25.3144868 ], [ 82.3047819, 25.3119388 ], [ 82.3030344, 25.3113919 ], [ 82.2991172, 25.3022905 ], [ 82.2942004, 25.304179 ], [ 82.289955, 25.297149 ], [ 82.2835287, 25.2994381 ], [ 82.2828993, 25.2978173 ], [ 82.2795571, 25.2987314 ], [ 82.2781305, 25.294587 ], [ 82.2768741, 25.2950736 ], [ 82.2765126, 25.2938095 ], [ 82.2749032, 25.2947699 ], [ 82.2690183, 25.2907667 ], [ 82.2645671, 25.2939184 ], [ 82.2636553, 25.2920311 ], [ 82.2612322, 25.2923722 ], [ 82.2601934, 25.288404 ], [ 82.2543474, 25.2810241 ], [ 82.2512585, 25.2723465 ], [ 82.2434394, 25.2741711 ], [ 82.2381613, 25.2726767 ], [ 82.2342519, 25.2751621 ], [ 82.2301006, 25.2737434 ], [ 82.227391, 25.2746255 ], [ 82.2261319, 25.2767838 ], [ 82.2221365, 25.2776982 ], [ 82.2210482, 25.2698995 ], [ 82.2121973, 25.2484773 ], [ 82.1982069, 25.2324344 ], [ 82.195598, 25.2174233 ], [ 82.1963262, 25.2069874 ], [ 82.200759, 25.194496 ], [ 82.2098411, 25.1856894 ], [ 82.2185628, 25.1807914 ], [ 82.2307032, 25.1781789 ], [ 82.248144, 25.1788199 ], [ 82.2681697, 25.1828123 ], [ 82.2686153, 25.1610161 ], [ 82.2716494, 25.1563738 ], [ 82.2767042, 25.1548064 ], [ 82.2787989, 25.158658 ], [ 82.2916614, 25.1543733 ], [ 82.2889326, 25.1490818 ], [ 82.2969428, 25.146888 ], [ 82.2994529, 25.1535109 ], [ 82.3023649, 25.1518468 ], [ 82.2965641, 25.1343849 ], [ 82.2978472, 25.1282289 ], [ 82.3054241, 25.1264949 ], [ 82.3037867, 25.1203601 ], [ 82.3027158, 25.1203099 ], [ 82.3038574, 25.1179317 ], [ 82.3027041, 25.1149069 ], [ 82.3040185, 25.1138108 ], [ 82.3019056, 25.1072242 ], [ 82.3058586, 25.1035475 ], [ 82.3110244, 25.1027012 ], [ 82.3170513, 25.0941051 ], [ 82.3247869, 25.0866242 ], [ 82.3254621, 25.0715577 ], [ 82.3187747, 25.0653444 ], [ 82.3166054, 25.0594235 ], [ 82.3124654, 25.0570953 ], [ 82.3069754, 25.0563255 ], [ 82.3032716, 25.0515708 ], [ 82.2978562, 25.0510399 ], [ 82.2958108, 25.0491883 ], [ 82.2975527, 25.0449733 ], [ 82.3006068, 25.0418289 ], [ 82.3037088, 25.0410405 ], [ 82.3053948, 25.0385181 ], [ 82.3026233, 25.0335697 ], [ 82.3028273, 25.0319629 ], [ 82.3052356, 25.0310342 ], [ 82.303791, 25.0276437 ], [ 82.3029738, 25.0187648 ], [ 82.3037822, 25.0170589 ], [ 82.3019505, 25.0151668 ], [ 82.301621, 25.0110997 ], [ 82.2976486, 25.0107004 ], [ 82.2950319, 25.0050569 ], [ 82.2909943, 25.0061606 ], [ 82.2896536, 25.0038306 ], [ 82.290562, 25.0009288 ], [ 82.2859209, 24.9926993 ], [ 82.2843481, 24.9907727 ], [ 82.2817746, 24.9921025 ], [ 82.2737985, 24.9820927 ], [ 82.2696657, 24.9761748 ], [ 82.2690261, 24.9745629 ], [ 82.2704613, 24.9740351 ], [ 82.2648699, 24.9665044 ], [ 82.2649785, 24.9648686 ], [ 82.2600933, 24.9636441 ], [ 82.2580433, 24.9647532 ], [ 82.2564957, 24.9633115 ], [ 82.2540814, 24.9552452 ], [ 82.251161, 24.9518979 ], [ 82.2481461, 24.9518083 ], [ 82.2392762, 24.9605503 ], [ 82.2307504, 24.9494662 ], [ 82.2319374, 24.948048 ], [ 82.2301135, 24.9457427 ], [ 82.2304391, 24.9385746 ], [ 82.2258974, 24.9299293 ], [ 82.2147372, 24.933245 ], [ 82.2087103, 24.9371169 ], [ 82.2037158, 24.9301458 ], [ 82.204646, 24.9293464 ], [ 82.1994723, 24.9197075 ], [ 82.2017529, 24.9178557 ], [ 82.1952453, 24.9111197 ], [ 82.190057, 24.9085537 ], [ 82.1881916, 24.9096558 ], [ 82.1900047, 24.912738 ], [ 82.1869715, 24.9143914 ], [ 82.1796227, 24.9060392 ], [ 82.1805429, 24.905285 ], [ 82.1798081, 24.8998958 ], [ 82.174061, 24.8965756 ], [ 82.1666643, 24.8872432 ], [ 82.1600682, 24.8879626 ], [ 82.1565159, 24.8906491 ], [ 82.1553291, 24.8944455 ], [ 82.1511626, 24.8956966 ], [ 82.1484597, 24.8914089 ], [ 82.1470099, 24.8920094 ], [ 82.1461138, 24.8899423 ], [ 82.1448371, 24.8898928 ], [ 82.1443962, 24.8867331 ], [ 82.1409615, 24.8832263 ], [ 82.1386258, 24.8825584 ], [ 82.1353745, 24.8790335 ], [ 82.1319603, 24.8787673 ], [ 82.1313021, 24.8770475 ], [ 82.1325786, 24.8748944 ], [ 82.1303717, 24.8719514 ], [ 82.1302973, 24.868363 ], [ 82.127482, 24.8685616 ], [ 82.1229747, 24.8648603 ], [ 82.1204169, 24.8648286 ], [ 82.1190807, 24.8710396 ], [ 82.1149886, 24.8745241 ], [ 82.1114654, 24.8760585 ], [ 82.1086897, 24.8752277 ], [ 82.1114858, 24.8711384 ], [ 82.1102051, 24.8645706 ], [ 82.1118677, 24.8619076 ], [ 82.1096218, 24.8609098 ], [ 82.1063512, 24.8623584 ], [ 82.1056983, 24.861257 ], [ 82.1017155, 24.8620914 ], [ 82.1023545, 24.8581554 ], [ 82.0982644, 24.8522371 ], [ 82.0919478, 24.8491213 ], [ 82.0932444, 24.8471355 ], [ 82.096168, 24.8471045 ], [ 82.0993978, 24.8498089 ], [ 82.1090344, 24.8503248 ], [ 82.1157225, 24.8536611 ], [ 82.1169445, 24.8527449 ], [ 82.1168014, 24.8477796 ], [ 82.1187358, 24.8448277 ], [ 82.1140065, 24.8459965 ], [ 82.1094957, 24.8410894 ], [ 82.094879, 24.838099 ], [ 82.0947319, 24.8331924 ], [ 82.0930157, 24.8324067 ], [ 82.0882718, 24.8337101 ], [ 82.0801358, 24.831794 ], [ 82.0875415, 24.8281578 ], [ 82.089293, 24.8257749 ], [ 82.0948624, 24.8251758 ], [ 82.094591, 24.8230588 ], [ 82.1025108, 24.8148314 ], [ 82.1034807, 24.8114506 ], [ 82.1066561, 24.8094198 ], [ 82.1055732, 24.8083183 ], [ 82.1065824, 24.804612 ], [ 82.0976541, 24.8161487 ], [ 82.0750452, 24.8219386 ], [ 82.0715744, 24.8191794 ], [ 82.0514285, 24.8305231 ], [ 82.0487722, 24.8307249 ], [ 82.0470543, 24.8283413 ], [ 82.0452141, 24.8286189 ], [ 82.0312308, 24.8402437 ], [ 82.0240029, 24.8412004 ], [ 82.0170142, 24.8459216 ], [ 82.010721, 24.8469099 ], [ 82.0031081, 24.8414466 ], [ 81.9922513, 24.8422371 ], [ 81.9853085, 24.8392497 ], [ 81.9715371, 24.8389342 ], [ 81.9687501, 24.836178 ], [ 81.9679187, 24.8290195 ], [ 81.9652662, 24.8270395 ], [ 81.9621554, 24.8345164 ], [ 81.9593568, 24.8375832 ], [ 81.9441741, 24.8412378 ], [ 81.9423954, 24.8451973 ], [ 81.9435735, 24.846578 ], [ 81.9410264, 24.847509 ], [ 81.9389748, 24.8501144 ], [ 81.9379357, 24.8497266 ], [ 81.9364973, 24.8520112 ], [ 81.937818, 24.8518617 ], [ 81.93768, 24.8528503 ], [ 81.9327208, 24.8587384 ], [ 81.9345901, 24.8682633 ], [ 81.9337159, 24.8707042 ], [ 81.9280125, 24.874033 ], [ 81.9255031, 24.8722012 ], [ 81.9200612, 24.8743245 ], [ 81.9212495, 24.876396 ], [ 81.9205671, 24.8773892 ], [ 81.9164997, 24.8772008 ], [ 81.9146255, 24.8807176 ], [ 81.9078862, 24.8813466 ], [ 81.9065655, 24.8834459 ], [ 81.9089117, 24.8857384 ], [ 81.9049482, 24.8867774 ], [ 81.9035486, 24.8900096 ], [ 81.9044198, 24.8913861 ], [ 81.9028363, 24.8916753 ], [ 81.9057414, 24.8926904 ], [ 81.9062712, 24.8937961 ], [ 81.9047918, 24.8950738 ], [ 81.9078555, 24.8965447 ], [ 81.9035258, 24.8987484 ], [ 81.9064312, 24.9002644 ], [ 81.9057981, 24.9019392 ], [ 81.9071752, 24.9048397 ], [ 81.91835, 24.9195175 ], [ 81.9175831, 24.9203301 ], [ 81.9190241, 24.9219005 ], [ 81.9175544, 24.9232776 ], [ 81.919645, 24.9281249 ], [ 81.9174777, 24.9305449 ], [ 81.9180276, 24.9319982 ], [ 81.9146028, 24.9340168 ], [ 81.9140589, 24.9362603 ], [ 81.9103613, 24.9373761 ], [ 81.9108817, 24.9394208 ], [ 81.9091792, 24.9414208 ], [ 81.9100635, 24.9524252 ], [ 81.9089349, 24.9532966 ], [ 81.9090452, 24.9581625 ], [ 81.9074957, 24.9595079 ], [ 81.9093924, 24.9607036 ], [ 81.9080514, 24.9634935 ], [ 81.9075135, 24.9707563 ], [ 81.9040823, 24.9722014 ], [ 81.9078576, 24.9801178 ], [ 81.9051739, 24.9813687 ], [ 81.905927, 24.9827226 ], [ 81.9029856, 24.9837388 ], [ 81.9014114, 24.9868987 ], [ 81.905776, 24.9932036 ], [ 81.9078094, 25.0048288 ], [ 81.9012029, 25.0095921 ], [ 81.8981178, 25.0106391 ], [ 81.8955982, 25.0095317 ], [ 81.8948417, 25.0078231 ], [ 81.8989376, 25.0010885 ], [ 81.901583, 25.0005979 ], [ 81.9016864, 24.9993976 ], [ 81.8970045, 24.9913907 ], [ 81.8923338, 24.9888861 ], [ 81.8904172, 24.98927 ], [ 81.8909033, 24.9957607 ], [ 81.8768771, 24.9993996 ], [ 81.8768771, 24.9957931 ], [ 81.8741926, 24.9951749 ], [ 81.8727762, 24.996258 ], [ 81.8725532, 24.9997562 ], [ 81.866416, 25.0023495 ], [ 81.8652125, 25.0008689 ], [ 81.8595509, 25.0031388 ], [ 81.8534686, 25.0026776 ], [ 81.848648, 25.0082197 ], [ 81.8487414, 25.0116412 ], [ 81.8448677, 25.0122498 ], [ 81.8437923, 25.0144207 ], [ 81.8348153, 25.0169721 ], [ 81.8318993, 25.012128 ], [ 81.8256808, 25.0167887 ], [ 81.8230503, 25.0171173 ], [ 81.8194899, 25.014137 ], [ 81.817721, 25.015197 ], [ 81.8140131, 25.0106908 ], [ 81.8103811, 25.0126933 ], [ 81.8046389, 25.0059021 ], [ 81.8055854, 25.0052435 ], [ 81.8037662, 25.0017048 ], [ 81.7922127, 25.0044074 ], [ 81.7808887, 25.0188762 ], [ 81.7580042, 25.0273864 ], [ 81.7551713, 25.0316857 ], [ 81.7550038, 25.0348363 ], [ 81.7458027, 25.0334693 ], [ 81.7466983, 25.0374181 ], [ 81.741879, 25.0389386 ], [ 81.7425552, 25.0414387 ], [ 81.7401298, 25.0437244 ], [ 81.740413, 25.0448347 ], [ 81.7315077, 25.0486419 ], [ 81.7304363, 25.0474645 ], [ 81.7238783, 25.0501682 ], [ 81.7190854, 25.0418409 ], [ 81.7216771, 25.0423204 ], [ 81.7214113, 25.0382537 ], [ 81.713314, 25.036074 ], [ 81.7071007, 25.0352289 ], [ 81.6897523, 25.0389478 ], [ 81.6887221, 25.039544 ], [ 81.6934391, 25.0487997 ], [ 81.6916657, 25.0497573 ], [ 81.691508, 25.0514816 ], [ 81.6886243, 25.0517402 ], [ 81.6857387, 25.0583947 ], [ 81.6823159, 25.0611945 ], [ 81.6779654, 25.0620402 ], [ 81.6708833, 25.0599075 ], [ 81.667197, 25.0613621 ], [ 81.6685584, 25.0717116 ], [ 81.6665425, 25.075111 ], [ 81.6649515, 25.074633 ], [ 81.6641628, 25.0725931 ], [ 81.6626667, 25.0741687 ], [ 81.6605101, 25.0716054 ], [ 81.6526983, 25.0708186 ], [ 81.6514846, 25.0671567 ], [ 81.6412249, 25.0567631 ], [ 81.6333116, 25.0593365 ], [ 81.6319635, 25.0562989 ], [ 81.6303383, 25.0561906 ], [ 81.6272656, 25.0527261 ], [ 81.6114341, 25.0565015 ], [ 81.6103186, 25.0610737 ], [ 81.6169243, 25.0587904 ], [ 81.6174544, 25.0609209 ], [ 81.6092982, 25.0655181 ], [ 81.6105357, 25.0686479 ], [ 81.6003506, 25.0738463 ], [ 81.6054297, 25.0784781 ], [ 81.6116149, 25.0785827 ], [ 81.6157878, 25.0803433 ], [ 81.6214326, 25.0901564 ], [ 81.6283711, 25.0910454 ], [ 81.6286094, 25.094745 ], [ 81.6408635, 25.0984924 ], [ 81.6335722, 25.1030022 ], [ 81.6320555, 25.1064282 ], [ 81.6296866, 25.1056955 ], [ 81.6283385, 25.1067948 ], [ 81.6317087, 25.1117815 ], [ 81.6329435, 25.1171211 ], [ 81.6240816, 25.120037 ], [ 81.6206485, 25.115889 ], [ 81.6236483, 25.1122278 ], [ 81.6231423, 25.1109917 ], [ 81.6189682, 25.110134 ], [ 81.6163161, 25.1077326 ], [ 81.6146561, 25.1000366 ], [ 81.6114743, 25.0950577 ], [ 81.6083167, 25.0960549 ], [ 81.6102284, 25.1087611 ], [ 81.608493, 25.1117446 ], [ 81.610109, 25.1125166 ], [ 81.6063853, 25.1162715 ], [ 81.6006146, 25.1162707 ], [ 81.5969553, 25.1190866 ], [ 81.5980354, 25.122287 ], [ 81.5999984, 25.1231268 ], [ 81.5984963, 25.1237985 ], [ 81.6005883, 25.1240298 ], [ 81.6023279, 25.1272528 ], [ 81.5980643, 25.1313357 ], [ 81.6025791, 25.1361539 ], [ 81.6104627, 25.1390977 ], [ 81.6145878, 25.1443926 ], [ 81.6184954, 25.1427408 ], [ 81.6206129, 25.1402945 ], [ 81.6233203, 25.1410394 ], [ 81.6257104, 25.1448489 ], [ 81.6241788, 25.1561442 ], [ 81.6262105, 25.1604667 ], [ 81.6204186, 25.1624161 ], [ 81.6196894, 25.1660134 ], [ 81.6153978, 25.1690131 ], [ 81.6118236, 25.1639186 ], [ 81.608937, 25.1646856 ], [ 81.6046274, 25.1630286 ], [ 81.594356, 25.1637263 ], [ 81.5884634, 25.1657697 ], [ 81.5950767, 25.1774886 ], [ 81.595588, 25.181778 ], [ 81.5785742, 25.1908538 ], [ 81.5701703, 25.1920786 ], [ 81.5629057, 25.1865059 ], [ 81.5559726, 25.1836276 ], [ 81.5541061, 25.1860867 ], [ 81.5459755, 25.1860176 ], [ 81.5454556, 25.1850622 ], [ 81.5398152, 25.1860925 ], [ 81.5394946, 25.1905878 ], [ 81.5299384, 25.1931186 ], [ 81.5272654, 25.1919885 ], [ 81.5234386, 25.194509 ], [ 81.5170179, 25.1961113 ], [ 81.5170236, 25.2065379 ], [ 81.5180696, 25.2075271 ], [ 81.5170799, 25.2101669 ], [ 81.5194627, 25.2201437 ], [ 81.5186194, 25.2256317 ], [ 81.5216561, 25.2257196 ], [ 81.5231181, 25.227824 ], [ 81.5225855, 25.2356908 ], [ 81.5282841, 25.2336816 ], [ 81.5436767, 25.234887 ], [ 81.5523468, 25.2335736 ], [ 81.5539692, 25.2341386 ], [ 81.5542561, 25.2356869 ], [ 81.5621995, 25.2386966 ], [ 81.5553053, 25.2494269 ], [ 81.5574785, 25.2503261 ], [ 81.556733, 25.2522366 ], [ 81.5541898, 25.255756 ], [ 81.5521052, 25.2558498 ], [ 81.554056, 25.2639843 ], [ 81.5522533, 25.273674 ], [ 81.553843, 25.2800932 ], [ 81.5494768, 25.2842073 ], [ 81.5512186, 25.2855533 ], [ 81.5499733, 25.2921741 ], [ 81.5676916, 25.3048111 ], [ 81.5986787, 25.3338964 ], [ 81.6286667, 25.3507253 ], [ 81.6452577, 25.3545606 ], [ 81.66162, 25.3544311 ], [ 81.6737509, 25.3565308 ], [ 81.6979492, 25.3574237 ], [ 81.6978743, 25.3675159 ], [ 81.6994668, 25.3720513 ], [ 81.7080754, 25.3778691 ], [ 81.7133553, 25.3897457 ], [ 81.7007952, 25.3912195 ], [ 81.6941933, 25.394107 ], [ 81.6931114, 25.3875899 ], [ 81.6814939, 25.3861053 ], [ 81.6796052, 25.3845714 ], [ 81.6772182, 25.3795442 ], [ 81.6766796, 25.3748233 ], [ 81.674602, 25.3728109 ], [ 81.669223, 25.3766627 ], [ 81.6584433, 25.3813821 ], [ 81.6624015, 25.3922633 ], [ 81.6603199, 25.3936495 ], [ 81.6611953, 25.3966418 ], [ 81.659054, 25.3981227 ], [ 81.6596011, 25.3996255 ], [ 81.6575356, 25.4011142 ], [ 81.6573163, 25.4032143 ], [ 81.6620933, 25.4082684 ], [ 81.6638995, 25.4155753 ], [ 81.663408, 25.4169069 ], [ 81.6559829, 25.4165926 ], [ 81.6458905, 25.4184215 ], [ 81.6503795, 25.4297732 ], [ 81.6533127, 25.43207 ], [ 81.6545206, 25.4374024 ], [ 81.64559, 25.4405973 ], [ 81.6498556, 25.4441804 ], [ 81.6538788, 25.4512162 ], [ 81.6544374, 25.4589115 ], [ 81.6589588, 25.4665203 ], [ 81.659437, 25.4700588 ], [ 81.6556345, 25.4742166 ], [ 81.6520647, 25.475806 ], [ 81.6541785, 25.4802173 ], [ 81.648123, 25.4825182 ], [ 81.646089, 25.4811554 ], [ 81.6453673, 25.4770843 ], [ 81.640205, 25.4690194 ], [ 81.6375253, 25.4705904 ], [ 81.6371476, 25.4728652 ], [ 81.6432445, 25.4793639 ], [ 81.6483386, 25.488065 ], [ 81.6518583, 25.486539 ], [ 81.657542, 25.4862717 ], [ 81.6596909, 25.4886994 ], [ 81.6600999, 25.4918463 ], [ 81.6633603, 25.4924443 ], [ 81.6667732, 25.4948811 ], [ 81.6705107, 25.506082 ], [ 81.6739039, 25.5080987 ], [ 81.6782441, 25.5027257 ], [ 81.6838955, 25.5043756 ], [ 81.6900727, 25.5032446 ], [ 81.6995094, 25.5127237 ], [ 81.6728002, 25.522241 ], [ 81.6440159, 25.5251228 ], [ 81.64127, 25.5270325 ], [ 81.6417784, 25.5345887 ], [ 81.6449142, 25.5418871 ], [ 81.6456766, 25.5489151 ], [ 81.6444686, 25.5560471 ], [ 81.6420558, 25.5611615 ], [ 81.643456, 25.5728928 ], [ 81.6419991, 25.5830672 ], [ 81.6371818, 25.5905741 ], [ 81.6283514, 25.5966817 ], [ 81.6224525, 25.5982255 ], [ 81.6107094, 25.5979404 ], [ 81.6099071, 25.604535 ], [ 81.6107978, 25.6080107 ], [ 81.6040266, 25.6107543 ], [ 81.604106, 25.6121987 ], [ 81.6079473, 25.6179753 ], [ 81.6134755, 25.6199408 ], [ 81.6164521, 25.6239043 ], [ 81.6183989, 25.623927 ], [ 81.6203356, 25.628504 ], [ 81.618264, 25.6314154 ], [ 81.616974, 25.6369175 ], [ 81.6186818, 25.6391069 ], [ 81.6187414, 25.6443654 ], [ 81.6161036, 25.6430304 ], [ 81.6111467, 25.6468159 ], [ 81.6064054, 25.6480386 ], [ 81.6052021, 25.6471511 ], [ 81.6082845, 25.6460096 ], [ 81.6049766, 25.6455423 ], [ 81.601067, 25.6471485 ], [ 81.600224, 25.653576 ], [ 81.6035153, 25.6575983 ], [ 81.5964675, 25.6591679 ], [ 81.5965618, 25.6607403 ], [ 81.5994408, 25.6599629 ], [ 81.6049839, 25.6612051 ], [ 81.6067866, 25.6629792 ], [ 81.6068769, 25.6684724 ], [ 81.6087296, 25.6677957 ], [ 81.6094765, 25.6686534 ], [ 81.6198855, 25.6649261 ], [ 81.6247013, 25.6647772 ], [ 81.6287658, 25.6666727 ], [ 81.6339693, 25.6660859 ], [ 81.6356751, 25.6671733 ], [ 81.639298, 25.6650428 ], [ 81.6392029, 25.6613283 ], [ 81.6421456, 25.6578302 ], [ 81.6357939, 25.6586558 ], [ 81.6329176, 25.6528527 ], [ 81.6341771, 25.6465294 ], [ 81.6384543, 25.6457979 ], [ 81.6397993, 25.6420644 ], [ 81.6351701, 25.6427809 ], [ 81.6316401, 25.6391308 ], [ 81.6277784, 25.6390871 ], [ 81.6341912, 25.6361125 ], [ 81.6345295, 25.6316984 ], [ 81.6388654, 25.6271261 ], [ 81.6363909, 25.6252983 ], [ 81.6370429, 25.6234749 ], [ 81.6384616, 25.6224096 ], [ 81.6420694, 25.6231814 ], [ 81.6482581, 25.6177867 ], [ 81.6510958, 25.6182285 ], [ 81.6522594, 25.6126994 ], [ 81.6556688, 25.6103744 ], [ 81.6569432, 25.6108841 ], [ 81.6581522, 25.6084646 ], [ 81.6612205, 25.6119927 ], [ 81.6609876, 25.6155362 ], [ 81.6647523, 25.6180945 ], [ 81.6687118, 25.6274723 ], [ 81.6740339, 25.627263 ], [ 81.6749742, 25.6311639 ], [ 81.6782874, 25.6313777 ], [ 81.6804241, 25.6332139 ], [ 81.6814543, 25.632559 ], [ 81.6838495, 25.6349742 ], [ 81.6900577, 25.6325284 ], [ 81.6985473, 25.6340092 ], [ 81.7036202, 25.6331039 ], [ 81.7131048, 25.6262878 ], [ 81.7249998, 25.6219068 ], [ 81.726367, 25.6256707 ], [ 81.725606, 25.6266732 ], [ 81.7305407, 25.6383017 ], [ 81.7207487, 25.6421993 ], [ 81.721014, 25.643928 ], [ 81.7187247, 25.6458343 ], [ 81.7195744, 25.6498239 ], [ 81.7180513, 25.6508089 ], [ 81.7196489, 25.6558226 ], [ 81.7174783, 25.6568893 ], [ 81.718555, 25.6582067 ], [ 81.7129183, 25.659817 ], [ 81.7090371, 25.6579506 ], [ 81.7052727, 25.6591353 ], [ 81.7045548, 25.6581382 ], [ 81.7030759, 25.6587303 ], [ 81.7033805, 25.6598631 ], [ 81.6923855, 25.6636376 ], [ 81.6951759, 25.6656584 ], [ 81.6967572, 25.6697877 ], [ 81.7065267, 25.6723058 ], [ 81.7142802, 25.6695208 ], [ 81.7197083, 25.6751958 ], [ 81.731338, 25.6735353 ], [ 81.744222, 25.6679875 ], [ 81.7522971, 25.6697069 ], [ 81.7508066, 25.6708205 ], [ 81.751058, 25.6734387 ], [ 81.7528709, 25.6785499 ], [ 81.7550971, 25.6789534 ], [ 81.753824, 25.6818186 ], [ 81.7550366, 25.6846904 ], [ 81.7522797, 25.6865883 ], [ 81.7529723, 25.6913555 ], [ 81.7479739, 25.6960824 ], [ 81.7419068, 25.6972068 ], [ 81.7402448, 25.6993521 ], [ 81.7466342, 25.70642 ], [ 81.7470654, 25.7090918 ], [ 81.7544013, 25.711989 ], [ 81.7552487, 25.7164989 ], [ 81.7535927, 25.7182172 ], [ 81.7540794, 25.7197885 ], [ 81.7492615, 25.7238196 ], [ 81.7497129, 25.7258918 ], [ 81.7515209, 25.7267239 ], [ 81.7508046, 25.7301988 ], [ 81.752557, 25.7320645 ], [ 81.7523953, 25.7341272 ], [ 81.7552143, 25.7359756 ], [ 81.7594751, 25.7362183 ], [ 81.7633438, 25.7401934 ], [ 81.7699161, 25.7418864 ], [ 81.7710213, 25.7432278 ], [ 81.7781969, 25.7449795 ], [ 81.7792544, 25.7439917 ], [ 81.78433, 25.7481341 ], [ 81.7863244, 25.7472145 ], [ 81.7880569, 25.7500412 ], [ 81.794447, 25.749765 ], [ 81.7964913, 25.7485881 ], [ 81.7979309, 25.7499429 ], [ 81.8018, 25.7478189 ], [ 81.8084644, 25.7470594 ], [ 81.810853, 25.7448939 ], [ 81.8163216, 25.7429598 ], [ 81.8252785, 25.7416181 ], [ 81.8216087, 25.733835 ], [ 81.8200176, 25.7261521 ], [ 81.8268996, 25.7259334 ], [ 81.8305168, 25.7278077 ], [ 81.8394426, 25.7262981 ], [ 81.8431637, 25.7313273 ], [ 81.8573183, 25.7234849 ], [ 81.8572293, 25.7188266 ], [ 81.8604485, 25.7173872 ], [ 81.8622872, 25.7170803 ], [ 81.8673244, 25.7248489 ], [ 81.8771913, 25.7219693 ], [ 81.8787361, 25.7210621 ], [ 81.8784868, 25.7160157 ], [ 81.8858661, 25.7118311 ], [ 81.891383, 25.718723 ], [ 81.8970133, 25.71582 ], [ 81.9007704, 25.7157607 ], [ 81.9047114, 25.7139861 ], [ 81.9108859, 25.7165711 ], [ 81.9147922, 25.7156358 ], [ 81.9132689, 25.7202672 ], [ 81.9141767, 25.72307 ], [ 81.9195099, 25.725858 ], [ 81.9219091, 25.731698 ], [ 81.9197626, 25.7354677 ], [ 81.9222967, 25.7415288 ], [ 81.9253334, 25.7449628 ], [ 81.9254147, 25.7487271 ], [ 81.9287315, 25.7538991 ], [ 81.9355081, 25.749265 ], [ 81.9363184, 25.7449676 ], [ 81.947136, 25.7400833 ] ] ] } }
]
}
