{
"type": "FeatureCollection",
"name": "0953",
"crs": { "type": "name", "properties": { "name": "urn:ogc:def:crs:OGC:1.3:CRS84" } },
"features": [
{ "type": "Feature", "properties": { "code": "0953", "name": "Gonda", "type": "district" }, "geometry": { "type": "Polygon", "coordinates": [ [ [ 81.9706007, 27.436308 ], [ 81.9739125, 27.4355342 ], [ 81.9772764, 27.4364297 ], [ 81.9782156, 27.4348632 ], [ 81.9773849, 27.4335914 ], [ 81.9800296, 27.4333683 ], [ 81.9819538, 27.4307182 ], [ 81.9806218, 27.4285308 ], [ 81.9812727, 27.4270367 ], [ 81.98538, 27.4282203 ], [ 81.9903008, 27.4238033 ], [ 81.9921174, 27.4249885 ], [ 81.9927761, 27.4213691 ], [ 81.9943093, 27.4224373 ], [ 81.9964167, 27.4213525 ], [ 81.9955693, 27.4185782 ], [ 81.9943352, 27.4183221 ], [ 82.0004653, 27.4131394 ], [ 81.999185, 27.4098807 ], [ 82.0010316, 27.4084972 ], [ 82.0038971, 27.4093254 ], [ 82.0054248, 27.4084378 ], [ 82.0091992, 27.4102684 ], [ 82.0088975, 27.4087115 ], [ 82.0110162, 27.40819 ], [ 82.0115151, 27.4096025 ], [ 82.0134368, 27.4090672 ], [ 82.0131518, 27.4108897 ], [ 82.014359, 27.4120187 ], [ 82.0174273, 27.4124046 ], [ 82.0190772, 27.4156273 ], [ 82.0243665, 27.414404 ], [ 82.0270348, 27.4156151 ], [ 82.0279264, 27.4134861 ], [ 82.0318995, 27.4140528 ], [ 82.0329647, 27.4160251 ], [ 82.0372805, 27.4181621 ], [ 82.0396669, 27.4179245 ], [ 82.0402557, 27.4148928 ], [ 82.0452375, 27.411954 ], [ 82.0538749, 27.4155051 ], [ 82.0557817, 27.4143601 ], [ 82.0573984, 27.4161746 ], [ 82.0605363, 27.4101077 ], [ 82.0607404, 27.4069134 ], [ 82.0664516, 27.4090635 ], [ 82.0713103, 27.4078789 ], [ 82.0710786, 27.4062095 ], [ 82.0720692, 27.4065752 ], [ 82.0737234, 27.4044147 ], [ 82.0727496, 27.4003628 ], [ 82.0776687, 27.3986454 ], [ 82.0798787, 27.3962188 ], [ 82.0796618, 27.3947795 ], [ 82.0822552, 27.3941126 ], [ 82.086145, 27.4008092 ], [ 82.0882271, 27.4021634 ], [ 82.090487, 27.4011533 ], [ 82.0880913, 27.4000834 ], [ 82.0884152, 27.3989059 ], [ 82.0940916, 27.3993178 ], [ 82.0965795, 27.3960609 ], [ 82.1004921, 27.3946494 ], [ 82.1027551, 27.4018913 ], [ 82.1047971, 27.4035926 ], [ 82.1038162, 27.4044542 ], [ 82.1057573, 27.404838 ], [ 82.1068185, 27.4069317 ], [ 82.1109586, 27.4075051 ], [ 82.1130672, 27.4028807 ], [ 82.1173487, 27.404248 ], [ 82.1195884, 27.3990505 ], [ 82.1178548, 27.3945296 ], [ 82.1224294, 27.3922332 ], [ 82.1204632, 27.3893681 ], [ 82.1213832, 27.3871213 ], [ 82.1197154, 27.3848382 ], [ 82.1155409, 27.3827715 ], [ 82.1152934, 27.3799245 ], [ 82.1126906, 27.3796897 ], [ 82.1118166, 27.3768562 ], [ 82.1152787, 27.3750517 ], [ 82.1171235, 27.3722726 ], [ 82.1214796, 27.375625 ], [ 82.1254721, 27.3707839 ], [ 82.1333251, 27.3681803 ], [ 82.1325364, 27.3631451 ], [ 82.140025, 27.3614887 ], [ 82.1426471, 27.3574862 ], [ 82.143702, 27.3511245 ], [ 82.1473797, 27.347537 ], [ 82.1469941, 27.3401872 ], [ 82.1439879, 27.3385723 ], [ 82.1437301, 27.3372414 ], [ 82.1466696, 27.3333156 ], [ 82.1509274, 27.3298497 ], [ 82.1541503, 27.329204 ], [ 82.1565488, 27.3256344 ], [ 82.1589637, 27.3265769 ], [ 82.1685203, 27.3242462 ], [ 82.1763511, 27.3262828 ], [ 82.1792652, 27.3250365 ], [ 82.1810465, 27.3214217 ], [ 82.1873808, 27.3211484 ], [ 82.1904055, 27.3197212 ], [ 82.1915846, 27.3147306 ], [ 82.1936909, 27.3147386 ], [ 82.195335, 27.3107944 ], [ 82.1993803, 27.3101336 ], [ 82.2028157, 27.3114627 ], [ 82.206143, 27.3097147 ], [ 82.207019, 27.3057482 ], [ 82.2058554, 27.3031501 ], [ 82.2105674, 27.3029578 ], [ 82.2202133, 27.2964815 ], [ 82.2276478, 27.2971034 ], [ 82.227457, 27.2928081 ], [ 82.2309557, 27.2918806 ], [ 82.231503, 27.2886362 ], [ 82.2363397, 27.2874864 ], [ 82.2429728, 27.2804874 ], [ 82.2445133, 27.2762179 ], [ 82.2506303, 27.2759801 ], [ 82.249542, 27.2737906 ], [ 82.2508611, 27.2728171 ], [ 82.2526126, 27.2734865 ], [ 82.2519395, 27.2748667 ], [ 82.2533775, 27.2759192 ], [ 82.2540763, 27.2742368 ], [ 82.2580412, 27.273446 ], [ 82.2576238, 27.2718257 ], [ 82.2549992, 27.2705961 ], [ 82.2562895, 27.2634045 ], [ 82.2581277, 27.2632978 ], [ 82.2573622, 27.2613163 ], [ 82.2601688, 27.2621578 ], [ 82.2590918, 27.2636416 ], [ 82.2595694, 27.2655958 ], [ 82.2623267, 27.2653724 ], [ 82.2647374, 27.2632174 ], [ 82.2700559, 27.2616738 ], [ 82.2712553, 27.2587146 ], [ 82.2753344, 27.2594035 ], [ 82.2752774, 27.2554055 ], [ 82.2766507, 27.2554335 ], [ 82.2748645, 27.2540515 ], [ 82.2759121, 27.2514125 ], [ 82.2874925, 27.2534372 ], [ 82.2882943, 27.247762 ], [ 82.2898637, 27.2485662 ], [ 82.2907075, 27.2477454 ], [ 82.2884617, 27.2466657 ], [ 82.2889926, 27.2455423 ], [ 82.2907197, 27.2449523 ], [ 82.2967918, 27.2468285 ], [ 82.293808, 27.2400943 ], [ 82.296824, 27.2368607 ], [ 82.2972701, 27.2342709 ], [ 82.298361, 27.2334908 ], [ 82.2989859, 27.2350344 ], [ 82.3016869, 27.2346433 ], [ 82.3062542, 27.2284004 ], [ 82.3084059, 27.2279173 ], [ 82.3039999, 27.2172222 ], [ 82.3012408, 27.2144411 ], [ 82.3013735, 27.2122933 ], [ 82.2896207, 27.2165598 ], [ 82.2884995, 27.2174526 ], [ 82.2905905, 27.2222414 ], [ 82.2822197, 27.2246909 ], [ 82.2775919, 27.2294799 ], [ 82.2791956, 27.231128 ], [ 82.2719531, 27.235193 ], [ 82.2703416, 27.2310765 ], [ 82.2663766, 27.2283526 ], [ 82.2457545, 27.2221535 ], [ 82.244205, 27.2174846 ], [ 82.2358473, 27.2079477 ], [ 82.2351336, 27.2057778 ], [ 82.2372459, 27.2034612 ], [ 82.2370698, 27.198949 ], [ 82.2285613, 27.18235 ], [ 82.227157, 27.1751041 ], [ 82.2277676, 27.1696662 ], [ 82.2299589, 27.1660456 ], [ 82.2349367, 27.1643767 ], [ 82.2314596, 27.1632332 ], [ 82.2322031, 27.1599838 ], [ 82.2348121, 27.1607624 ], [ 82.2362326, 27.1586855 ], [ 82.2340622, 27.1574102 ], [ 82.2337928, 27.1552716 ], [ 82.238971, 27.1528398 ], [ 82.2385601, 27.155543 ], [ 82.2416981, 27.1558698 ], [ 82.2424931, 27.1539649 ], [ 82.2412159, 27.1530139 ], [ 82.242854, 27.1517174 ], [ 82.2394743, 27.1517383 ], [ 82.2399214, 27.1499195 ], [ 82.2455091, 27.1486693 ], [ 82.2497323, 27.1441463 ], [ 82.2533087, 27.1439554 ], [ 82.2534626, 27.1416452 ], [ 82.2557726, 27.1417194 ], [ 82.256304, 27.1400458 ], [ 82.2574467, 27.1420999 ], [ 82.2587354, 27.1397726 ], [ 82.2615494, 27.1401313 ], [ 82.2624337, 27.1385527 ], [ 82.2639967, 27.1391225 ], [ 82.2653352, 27.1372148 ], [ 82.2679685, 27.1367746 ], [ 82.2646974, 27.1293988 ], [ 82.2718401, 27.1279106 ], [ 82.2716471, 27.1239485 ], [ 82.270206, 27.1225441 ], [ 82.2716488, 27.1220488 ], [ 82.2704348, 27.1206536 ], [ 82.2715115, 27.1178927 ], [ 82.2730691, 27.1185256 ], [ 82.2759957, 27.1165151 ], [ 82.2747323, 27.1138609 ], [ 82.2800158, 27.1154078 ], [ 82.2837446, 27.1126352 ], [ 82.2876763, 27.1144743 ], [ 82.2878853, 27.1115955 ], [ 82.290996, 27.1123419 ], [ 82.290153, 27.1135688 ], [ 82.2912017, 27.1139033 ], [ 82.2922458, 27.1134076 ], [ 82.2920001, 27.1115754 ], [ 82.2950758, 27.1119833 ], [ 82.2959846, 27.1103323 ], [ 82.2941292, 27.1100199 ], [ 82.2937332, 27.1067707 ], [ 82.2919228, 27.1070359 ], [ 82.2904222, 27.1042597 ], [ 82.2942633, 27.1058459 ], [ 82.2940028, 27.1034271 ], [ 82.2961156, 27.1032974 ], [ 82.2951179, 27.1024485 ], [ 82.2971516, 27.0998911 ], [ 82.2985419, 27.1018728 ], [ 82.2996779, 27.0995225 ], [ 82.3015686, 27.0997627 ], [ 82.305381, 27.10661 ], [ 82.3080386, 27.1062639 ], [ 82.3086145, 27.1045945 ], [ 82.3103679, 27.1065808 ], [ 82.3150538, 27.10374 ], [ 82.3172971, 27.1046976 ], [ 82.3169122, 27.0982762 ], [ 82.3193874, 27.0990488 ], [ 82.3202105, 27.0965538 ], [ 82.3230588, 27.0972362 ], [ 82.3246376, 27.09568 ], [ 82.3232068, 27.0935677 ], [ 82.3253053, 27.090861 ], [ 82.3222969, 27.0875838 ], [ 82.3240771, 27.0863842 ], [ 82.3239217, 27.0847461 ], [ 82.3201391, 27.0774345 ], [ 82.3215867, 27.0759594 ], [ 82.3238838, 27.0792679 ], [ 82.3246653, 27.0788757 ], [ 82.3226921, 27.0728598 ], [ 82.32515, 27.0658348 ], [ 82.3282605, 27.0646536 ], [ 82.3319601, 27.0650519 ], [ 82.3337421, 27.071239 ], [ 82.33831, 27.0683658 ], [ 82.3379463, 27.0706626 ], [ 82.3400335, 27.0697381 ], [ 82.3428913, 27.0704382 ], [ 82.3471419, 27.0651549 ], [ 82.3476415, 27.0628357 ], [ 82.3512006, 27.0599258 ], [ 82.3539477, 27.058956 ], [ 82.3543505, 27.0614966 ], [ 82.3587512, 27.0577473 ], [ 82.3616341, 27.0584471 ], [ 82.3611858, 27.0564073 ], [ 82.3652583, 27.0555413 ], [ 82.3652333, 27.0534475 ], [ 82.3639279, 27.0534294 ], [ 82.365813, 27.0517193 ], [ 82.3702227, 27.0542555 ], [ 82.3700312, 27.0557898 ], [ 82.371077, 27.0531036 ], [ 82.3757282, 27.0580049 ], [ 82.3784612, 27.0587527 ], [ 82.3800472, 27.0617282 ], [ 82.3749161, 27.0647795 ], [ 82.3787497, 27.067674 ], [ 82.3782512, 27.069671 ], [ 82.3801733, 27.0700537 ], [ 82.3819316, 27.0739376 ], [ 82.392596, 27.066778 ], [ 82.3966421, 27.0741262 ], [ 82.4004409, 27.0724904 ], [ 82.404227, 27.0742164 ], [ 82.4005752, 27.0769896 ], [ 82.3980524, 27.0812818 ], [ 82.3991743, 27.0824447 ], [ 82.3974073, 27.0823963 ], [ 82.3952095, 27.0847333 ], [ 82.3969988, 27.0862999 ], [ 82.3968252, 27.0892589 ], [ 82.3995273, 27.0930057 ], [ 82.4014221, 27.0921717 ], [ 82.4053577, 27.0934313 ], [ 82.4066649, 27.0896722 ], [ 82.4058169, 27.0868237 ], [ 82.4123842, 27.0856595 ], [ 82.4125374, 27.0816679 ], [ 82.4138564, 27.0819208 ], [ 82.415577, 27.0857159 ], [ 82.4213828, 27.0850147 ], [ 82.4205783, 27.0919537 ], [ 82.42269, 27.0935628 ], [ 82.4236115, 27.0976649 ], [ 82.4275068, 27.098759 ], [ 82.4313865, 27.1059722 ], [ 82.4361867, 27.1072717 ], [ 82.4381588, 27.1091166 ], [ 82.4389058, 27.1124022 ], [ 82.435979, 27.1138635 ], [ 82.4355473, 27.1123764 ], [ 82.4311591, 27.1121955 ], [ 82.4330559, 27.1188829 ], [ 82.4307528, 27.1184476 ], [ 82.4316946, 27.1235783 ], [ 82.4363302, 27.1311756 ], [ 82.4326154, 27.1332569 ], [ 82.4353691, 27.1404529 ], [ 82.4400713, 27.1405789 ], [ 82.4415319, 27.1370388 ], [ 82.4451226, 27.1349372 ], [ 82.4454589, 27.1362658 ], [ 82.44761, 27.1365411 ], [ 82.4506182, 27.1355681 ], [ 82.4517453, 27.130474 ], [ 82.4513088, 27.1237919 ], [ 82.4604425, 27.1206309 ], [ 82.4687148, 27.1339261 ], [ 82.4620265, 27.1387302 ], [ 82.4598311, 27.1446372 ], [ 82.4559795, 27.1474462 ], [ 82.455786, 27.1512691 ], [ 82.4594864, 27.1550844 ], [ 82.4609851, 27.1557469 ], [ 82.4625834, 27.1547261 ], [ 82.4645822, 27.1562275 ], [ 82.4722444, 27.1556087 ], [ 82.4806496, 27.1513429 ], [ 82.4789684, 27.1551932 ], [ 82.4812339, 27.1557285 ], [ 82.4749097, 27.1577097 ], [ 82.4706404, 27.1617196 ], [ 82.479572, 27.1641861 ], [ 82.4819468, 27.1627673 ], [ 82.4815704, 27.1648614 ], [ 82.4826359, 27.1658443 ], [ 82.485068, 27.1611044 ], [ 82.4896575, 27.1649814 ], [ 82.4876623, 27.1574473 ], [ 82.4894472, 27.1565569 ], [ 82.4931534, 27.1598343 ], [ 82.4947802, 27.1573782 ], [ 82.4942017, 27.154229 ], [ 82.4969133, 27.1520472 ], [ 82.4932622, 27.1481832 ], [ 82.4935167, 27.1456244 ], [ 82.494898, 27.1448968 ], [ 82.4978308, 27.1469339 ], [ 82.4991976, 27.1430765 ], [ 82.4974758, 27.1402547 ], [ 82.5004562, 27.136133 ], [ 82.5023294, 27.1342846 ], [ 82.5097245, 27.1331086 ], [ 82.5059085, 27.1312598 ], [ 82.507165, 27.1258414 ], [ 82.5051487, 27.1249147 ], [ 82.5048903, 27.121327 ], [ 82.5110768, 27.1274782 ], [ 82.5130745, 27.1270059 ], [ 82.516895, 27.1240849 ], [ 82.5147327, 27.122901 ], [ 82.5152898, 27.1204963 ], [ 82.5234856, 27.1192977 ], [ 82.5294458, 27.1140584 ], [ 82.5331848, 27.1173053 ], [ 82.5406499, 27.1149681 ], [ 82.5442071, 27.1121092 ], [ 82.5441594, 27.1083278 ], [ 82.54762, 27.1061819 ], [ 82.5460382, 27.1040511 ], [ 82.5462314, 27.1017724 ], [ 82.5484862, 27.1002033 ], [ 82.5495451, 27.1001858 ], [ 82.5511957, 27.1050015 ], [ 82.5527539, 27.1048263 ], [ 82.5547273, 27.1018852 ], [ 82.5548492, 27.1004232 ], [ 82.5503153, 27.0944013 ], [ 82.5531687, 27.0947908 ], [ 82.556654, 27.0925138 ], [ 82.556151, 27.0906634 ], [ 82.5525019, 27.0889649 ], [ 82.5525548, 27.0852241 ], [ 82.5563198, 27.0866655 ], [ 82.5582157, 27.0860887 ], [ 82.55906, 27.0820008 ], [ 82.5626159, 27.078907 ], [ 82.5634287, 27.0766285 ], [ 82.5626882, 27.075658 ], [ 82.5603133, 27.0766497 ], [ 82.5593065, 27.0742847 ], [ 82.5644385, 27.0737049 ], [ 82.567585, 27.0717478 ], [ 82.5658112, 27.0706956 ], [ 82.5661244, 27.0694052 ], [ 82.5640826, 27.070009 ], [ 82.5674932, 27.0638825 ], [ 82.5671564, 27.062118 ], [ 82.5647124, 27.0611919 ], [ 82.5653109, 27.0635386 ], [ 82.5630272, 27.0643093 ], [ 82.5602455, 27.0632341 ], [ 82.558692, 27.0564826 ], [ 82.5606141, 27.0531939 ], [ 82.5591983, 27.0525705 ], [ 82.5579476, 27.0537748 ], [ 82.554446, 27.051923 ], [ 82.5544021, 27.0496035 ], [ 82.5555318, 27.0483992 ], [ 82.5598709, 27.0485096 ], [ 82.5618182, 27.0450269 ], [ 82.5653906, 27.0463191 ], [ 82.5611717, 27.0388355 ], [ 82.5637166, 27.0387283 ], [ 82.564915, 27.0404932 ], [ 82.5690438, 27.0372052 ], [ 82.5702051, 27.0326301 ], [ 82.5719595, 27.0308889 ], [ 82.571865, 27.0284567 ], [ 82.5686749, 27.0294482 ], [ 82.5694179, 27.0246968 ], [ 82.5667328, 27.0237481 ], [ 82.5683159, 27.0218354 ], [ 82.5668049, 27.0207202 ], [ 82.5694909, 27.0196879 ], [ 82.56856, 27.0173004 ], [ 82.5700225, 27.0144626 ], [ 82.5717054, 27.014355 ], [ 82.5710562, 27.0128476 ], [ 82.5738367, 27.0139046 ], [ 82.5727825, 27.0165259 ], [ 82.5759214, 27.0164865 ], [ 82.5758268, 27.0140542 ], [ 82.5776054, 27.0137569 ], [ 82.5806966, 27.0194753 ], [ 82.581584, 27.017454 ], [ 82.5802896, 27.0163796 ], [ 82.5867695, 27.0146172 ], [ 82.587899, 27.0118016 ], [ 82.5897429, 27.0116938 ], [ 82.588882, 27.0098661 ], [ 82.5937282, 27.0110494 ], [ 82.5957388, 27.0094615 ], [ 82.5969175, 27.0107071 ], [ 82.6013768, 27.007292 ], [ 82.6049941, 27.0068188 ], [ 82.6065312, 27.0039175 ], [ 82.6083547, 27.0049691 ], [ 82.6093373, 27.0033808 ], [ 82.6102942, 27.0051859 ], [ 82.6123095, 27.0037466 ], [ 82.6104154, 27.0031237 ], [ 82.6112064, 27.0020273 ], [ 82.6138915, 27.0022396 ], [ 82.6136043, 27.0002552 ], [ 82.6084029, 26.9985568 ], [ 82.5841426, 27.0004857 ], [ 82.5816979, 26.9972976 ], [ 82.5833186, 26.9965856 ], [ 82.5831434, 26.9920993 ], [ 82.5789158, 26.9930611 ], [ 82.5773257, 26.9915036 ], [ 82.5747629, 26.9913311 ], [ 82.5697282, 26.9859325 ], [ 82.5676664, 26.985714 ], [ 82.5658902, 26.9885172 ], [ 82.5631517, 26.9866753 ], [ 82.5622322, 26.9845571 ], [ 82.5644592, 26.9792274 ], [ 82.5646087, 26.9749853 ], [ 82.5624608, 26.9707653 ], [ 82.5632877, 26.9668995 ], [ 82.5620371, 26.9648801 ], [ 82.5482268, 26.9615878 ], [ 82.5484936, 26.9589357 ], [ 82.54539, 26.9543026 ], [ 82.5429604, 26.9542946 ], [ 82.5391645, 26.950446 ], [ 82.5279602, 26.9498977 ], [ 82.5202581, 26.9516736 ], [ 82.5111195, 26.946837 ], [ 82.510019, 26.9432339 ], [ 82.5061496, 26.9406444 ], [ 82.5000808, 26.9301624 ], [ 82.5012778, 26.9259938 ], [ 82.5008424, 26.9202668 ], [ 82.4983694, 26.9203174 ], [ 82.4992831, 26.9193682 ], [ 82.4967366, 26.9139736 ], [ 82.4902092, 26.9088237 ], [ 82.4879832, 26.903351 ], [ 82.4790329, 26.9033811 ], [ 82.4781208, 26.9065745 ], [ 82.4748073, 26.9097978 ], [ 82.4697495, 26.9122141 ], [ 82.4668542, 26.915987 ], [ 82.4616079, 26.9178495 ], [ 82.4555987, 26.921957 ], [ 82.4526404, 26.9243478 ], [ 82.4528217, 26.9263795 ], [ 82.4442187, 26.9316158 ], [ 82.4394831, 26.9269207 ], [ 82.4351495, 26.9269641 ], [ 82.4281006, 26.9296243 ], [ 82.4228243, 26.9341324 ], [ 82.412624, 26.9389067 ], [ 82.4121442, 26.9369907 ], [ 82.4104271, 26.9371283 ], [ 82.4093212, 26.9395613 ], [ 82.4061452, 26.9417636 ], [ 82.3882945, 26.9494427 ], [ 82.3863078, 26.9465801 ], [ 82.3874278, 26.9434555 ], [ 82.3867731, 26.9407157 ], [ 82.3857332, 26.9396267 ], [ 82.3800664, 26.9399828 ], [ 82.3781705, 26.9358073 ], [ 82.3701399, 26.9372536 ], [ 82.3676985, 26.9318559 ], [ 82.3642469, 26.9330996 ], [ 82.3616693, 26.9307635 ], [ 82.3568042, 26.9329139 ], [ 82.3554921, 26.9314729 ], [ 82.3534324, 26.932161 ], [ 82.3398656, 26.9453302 ], [ 82.3327245, 26.9492743 ], [ 82.3322654, 26.9523564 ], [ 82.3271569, 26.955126 ], [ 82.326137, 26.9582326 ], [ 82.3269887, 26.967608 ], [ 82.3177821, 26.9760041 ], [ 82.3171463, 26.9778635 ], [ 82.3152847, 26.9780532 ], [ 82.3137984, 26.9745129 ], [ 82.3146472, 26.9704434 ], [ 82.3119521, 26.9686168 ], [ 82.3104869, 26.9691819 ], [ 82.3023444, 26.9669887 ], [ 82.3028552, 26.9642225 ], [ 82.2979344, 26.9629393 ], [ 82.2987918, 26.961304 ], [ 82.2965139, 26.9604934 ], [ 82.295525, 26.9573839 ], [ 82.2899859, 26.9519388 ], [ 82.2908927, 26.949037 ], [ 82.2851256, 26.9479605 ], [ 82.2823216, 26.94607 ], [ 82.282854, 26.944472 ], [ 82.2750729, 26.9431322 ], [ 82.2758832, 26.9398748 ], [ 82.2742125, 26.9360608 ], [ 82.2689411, 26.9378572 ], [ 82.2632881, 26.9421013 ], [ 82.2575055, 26.942158 ], [ 82.255822, 26.93811 ], [ 82.2516462, 26.9343572 ], [ 82.2439207, 26.9338633 ], [ 82.2409935, 26.9318712 ], [ 82.2338631, 26.9198194 ], [ 82.2387701, 26.9186783 ], [ 82.2371049, 26.9146364 ], [ 82.2471523, 26.9051787 ], [ 82.250098, 26.8971844 ], [ 82.2497881, 26.8945628 ], [ 82.2458931, 26.8894985 ], [ 82.23794, 26.873517 ], [ 82.2345918, 26.8715116 ], [ 82.2318948, 26.8715948 ], [ 82.2304676, 26.8680941 ], [ 82.2320671, 26.8621633 ], [ 82.2379816, 26.8596994 ], [ 82.2364055, 26.8582882 ], [ 82.2404119, 26.8548103 ], [ 82.2368529, 26.8528231 ], [ 82.2437285, 26.836536 ], [ 82.2471466, 26.8341459 ], [ 82.2458167, 26.8323961 ], [ 82.2471299, 26.8280087 ], [ 82.250965, 26.8251789 ], [ 82.2568511, 26.8254819 ], [ 82.2584108, 26.8197042 ], [ 82.2547707, 26.8150193 ], [ 82.2548833, 26.812923 ], [ 82.2514431, 26.8109832 ], [ 82.2468803, 26.8108836 ], [ 82.2440476, 26.8145276 ], [ 82.2380466, 26.8186481 ], [ 82.2229338, 26.8079688 ], [ 82.2126022, 26.8186119 ], [ 82.2054219, 26.8211342 ], [ 82.2053721, 26.8291035 ], [ 82.1913782, 26.837053 ], [ 82.1791089, 26.836273 ], [ 82.1787097, 26.8323923 ], [ 82.1686027, 26.8285826 ], [ 82.1594246, 26.8340228 ], [ 82.1524421, 26.8312671 ], [ 82.1431316, 26.8325276 ], [ 82.1409489, 26.8352986 ], [ 82.1303348, 26.8293563 ], [ 82.1270601, 26.8232778 ], [ 82.1220657, 26.8235666 ], [ 82.1128608, 26.8267972 ], [ 82.1081479, 26.8263815 ], [ 82.1046173, 26.824409 ], [ 82.0959382, 26.8157252 ], [ 82.0880082, 26.8116349 ], [ 82.0808968, 26.8118539 ], [ 82.0600793, 26.80565 ], [ 82.0340922, 26.8088667 ], [ 82.0107452, 26.7957315 ], [ 82.0020565, 26.785873 ], [ 81.9961226, 26.7866708 ], [ 81.9852628, 26.7824287 ], [ 81.9767493, 26.7811535 ], [ 81.9562578, 26.784118 ], [ 81.9401206, 26.7886931 ], [ 81.9171778, 26.7911882 ], [ 81.9059803, 26.8119357 ], [ 81.8922427, 26.8273758 ], [ 81.8752467, 26.8368397 ], [ 81.8551551, 26.8388735 ], [ 81.8461209, 26.8376851 ], [ 81.8382266, 26.8426516 ], [ 81.8300309, 26.8447611 ], [ 81.8303701, 26.8521349 ], [ 81.82477, 26.8534552 ], [ 81.8264583, 26.8583113 ], [ 81.8199999, 26.8651636 ], [ 81.8151955, 26.8637267 ], [ 81.8088391, 26.8664449 ], [ 81.8067624, 26.8642418 ], [ 81.8052329, 26.855834 ], [ 81.7900748, 26.8532763 ], [ 81.7814952, 26.8566506 ], [ 81.7774703, 26.8566253 ], [ 81.7696006, 26.8628786 ], [ 81.7637102, 26.8607983 ], [ 81.7476789, 26.8669499 ], [ 81.7438729, 26.8698864 ], [ 81.7469516, 26.8738052 ], [ 81.754948, 26.8733181 ], [ 81.7611507, 26.8799568 ], [ 81.7470455, 26.8910206 ], [ 81.7365921, 26.9060335 ], [ 81.7310383, 26.9093546 ], [ 81.7346916, 26.9133995 ], [ 81.7395547, 26.9088651 ], [ 81.7314161, 26.9203605 ], [ 81.7307438, 26.9173781 ], [ 81.7288926, 26.9187468 ], [ 81.7281312, 26.9173304 ], [ 81.7255606, 26.9193765 ], [ 81.7228531, 26.9260209 ], [ 81.7246041, 26.9307172 ], [ 81.7255808, 26.9307526 ], [ 81.7266458, 26.939425 ], [ 81.7284428, 26.9390131 ], [ 81.728687, 26.9417611 ], [ 81.7326898, 26.9471009 ], [ 81.7373856, 26.9500394 ], [ 81.7330459, 26.9561122 ], [ 81.7300588, 26.9659021 ], [ 81.7193271, 26.9721821 ], [ 81.7175424, 26.9636997 ], [ 81.7133982, 26.9642755 ], [ 81.7010104, 26.9578297 ], [ 81.6988927, 26.9613417 ], [ 81.690578, 26.9604658 ], [ 81.6875394, 26.9569158 ], [ 81.6888362, 26.9615315 ], [ 81.6839039, 26.9671202 ], [ 81.6820753, 26.96588 ], [ 81.6743219, 26.9708332 ], [ 81.6600707, 26.9755079 ], [ 81.6511924, 26.9800765 ], [ 81.6540122, 26.9969799 ], [ 81.6495896, 26.9983028 ], [ 81.6478565, 26.9971344 ], [ 81.6472426, 27.0002662 ], [ 81.6379104, 27.0002749 ], [ 81.6359885, 27.0078833 ], [ 81.6260409, 27.0107791 ], [ 81.6281939, 27.0185378 ], [ 81.6190509, 27.0188825 ], [ 81.6201863, 27.0219139 ], [ 81.6187682, 27.0320396 ], [ 81.6131888, 27.0311917 ], [ 81.6107807, 27.0370905 ], [ 81.6069554, 27.0338555 ], [ 81.5993689, 27.035801 ], [ 81.5925091, 27.0314601 ], [ 81.5911569, 27.033342 ], [ 81.5894279, 27.0317802 ], [ 81.5885652, 27.0401089 ], [ 81.584347, 27.0398047 ], [ 81.5763632, 27.0452775 ], [ 81.5679997, 27.0479418 ], [ 81.5606611, 27.053542 ], [ 81.5410742, 27.0520207 ], [ 81.5402006, 27.0562084 ], [ 81.5202555, 27.0731763 ], [ 81.5148531, 27.084304 ], [ 81.5160867, 27.0860291 ], [ 81.5187532, 27.0865366 ], [ 81.5353809, 27.0852486 ], [ 81.5383465, 27.0836441 ], [ 81.5393129, 27.0788659 ], [ 81.5426111, 27.0771216 ], [ 81.540188, 27.0817183 ], [ 81.5429464, 27.0873606 ], [ 81.5453817, 27.0870055 ], [ 81.5468374, 27.0887797 ], [ 81.5393361, 27.0948085 ], [ 81.5494866, 27.1077109 ], [ 81.5586039, 27.1152152 ], [ 81.5607168, 27.114968 ], [ 81.5642086, 27.1203845 ], [ 81.5660395, 27.1196859 ], [ 81.5681968, 27.1218572 ], [ 81.5694658, 27.125576 ], [ 81.5664131, 27.1284312 ], [ 81.567391, 27.129492 ], [ 81.5765879, 27.1229299 ], [ 81.5811926, 27.1218033 ], [ 81.5859043, 27.1175494 ], [ 81.5889844, 27.1208895 ], [ 81.5904391, 27.1295898 ], [ 81.5915638, 27.1294593 ], [ 81.597458, 27.1355614 ], [ 81.5970842, 27.1379168 ], [ 81.6029801, 27.1391227 ], [ 81.6057732, 27.1457564 ], [ 81.6135463, 27.1439974 ], [ 81.613501, 27.1431671 ], [ 81.6291877, 27.1415792 ], [ 81.630217, 27.1500263 ], [ 81.6283204, 27.1515697 ], [ 81.6303384, 27.1585143 ], [ 81.636589, 27.160373 ], [ 81.6390858, 27.1576518 ], [ 81.6410985, 27.157453 ], [ 81.6414067, 27.1600837 ], [ 81.6392633, 27.1651288 ], [ 81.644899, 27.1676822 ], [ 81.6456058, 27.1703309 ], [ 81.6444916, 27.1749427 ], [ 81.6467269, 27.1766617 ], [ 81.6422872, 27.1785665 ], [ 81.6395271, 27.177001 ], [ 81.637958, 27.1776555 ], [ 81.6400123, 27.1832551 ], [ 81.6435143, 27.1846761 ], [ 81.6415469, 27.1877042 ], [ 81.6469611, 27.1874057 ], [ 81.6487638, 27.1937227 ], [ 81.6552154, 27.2026921 ], [ 81.6603017, 27.2006152 ], [ 81.664393, 27.1963499 ], [ 81.6664736, 27.2002796 ], [ 81.6645321, 27.2044497 ], [ 81.6620346, 27.2062913 ], [ 81.664377, 27.2083077 ], [ 81.6638475, 27.2096752 ], [ 81.6656556, 27.21291 ], [ 81.6632685, 27.2137229 ], [ 81.6621638, 27.2155823 ], [ 81.6654253, 27.218325 ], [ 81.660475, 27.221846 ], [ 81.661006, 27.2252842 ], [ 81.6660766, 27.232805 ], [ 81.665037, 27.2333829 ], [ 81.6701828, 27.2381238 ], [ 81.6811065, 27.236712 ], [ 81.6843697, 27.2406094 ], [ 81.6813606, 27.250261 ], [ 81.6844635, 27.2558324 ], [ 81.6894095, 27.2609292 ], [ 81.6907305, 27.2577203 ], [ 81.6927045, 27.2572772 ], [ 81.7034198, 27.2661293 ], [ 81.7078461, 27.2769023 ], [ 81.7095593, 27.2919454 ], [ 81.6990891, 27.298006 ], [ 81.6882416, 27.2993344 ], [ 81.6827502, 27.3014123 ], [ 81.6806005, 27.3056638 ], [ 81.6832881, 27.316005 ], [ 81.6924889, 27.3186811 ], [ 81.7040526, 27.3184179 ], [ 81.715741, 27.3164524 ], [ 81.7201184, 27.3194728 ], [ 81.7215374, 27.3246655 ], [ 81.7262032, 27.3234434 ], [ 81.7333677, 27.3298997 ], [ 81.7388886, 27.326647 ], [ 81.7451564, 27.3258184 ], [ 81.7496834, 27.3173405 ], [ 81.7535751, 27.3156925 ], [ 81.7605073, 27.3096067 ], [ 81.7631656, 27.3083905 ], [ 81.766416, 27.3112494 ], [ 81.7719968, 27.3069715 ], [ 81.775724, 27.3077548 ], [ 81.7796689, 27.3021713 ], [ 81.7789694, 27.299125 ], [ 81.7753567, 27.2948493 ], [ 81.7811186, 27.2900702 ], [ 81.7857966, 27.2950684 ], [ 81.7894963, 27.2918219 ], [ 81.7916015, 27.2930144 ], [ 81.7947435, 27.2923394 ], [ 81.7958582, 27.28739 ], [ 81.7994078, 27.281165 ], [ 81.7974335, 27.2735109 ], [ 81.8082118, 27.2703984 ], [ 81.8110921, 27.2668531 ], [ 81.81439, 27.265898 ], [ 81.8186234, 27.2721448 ], [ 81.824179, 27.2700939 ], [ 81.8288873, 27.2776898 ], [ 81.833776, 27.2768114 ], [ 81.8378347, 27.2814287 ], [ 81.8393065, 27.2902507 ], [ 81.8361135, 27.2931377 ], [ 81.8388601, 27.2963242 ], [ 81.83743, 27.2982686 ], [ 81.8396821, 27.3001238 ], [ 81.8461997, 27.3127011 ], [ 81.848193, 27.3217713 ], [ 81.8515324, 27.3217855 ], [ 81.8534258, 27.326817 ], [ 81.855629, 27.3248589 ], [ 81.8608682, 27.3234067 ], [ 81.8653996, 27.3283254 ], [ 81.8704164, 27.3304014 ], [ 81.8748677, 27.3307264 ], [ 81.8758528, 27.3255733 ], [ 81.8821177, 27.3288129 ], [ 81.8862759, 27.3293496 ], [ 81.8897363, 27.325568 ], [ 81.8897814, 27.3229734 ], [ 81.8919988, 27.3199138 ], [ 81.8908568, 27.3179421 ], [ 81.8935086, 27.3153968 ], [ 81.9036842, 27.3206926 ], [ 81.9135179, 27.3134751 ], [ 81.9172609, 27.3126843 ], [ 81.9208533, 27.3144746 ], [ 81.9209638, 27.312832 ], [ 81.9222367, 27.3127414 ], [ 81.923254, 27.3171541 ], [ 81.9213653, 27.3187566 ], [ 81.923459, 27.3240082 ], [ 81.9227424, 27.3258043 ], [ 81.9091942, 27.3320172 ], [ 81.9091246, 27.3356181 ], [ 81.9108385, 27.3389884 ], [ 81.9167014, 27.3432824 ], [ 81.9185829, 27.3479611 ], [ 81.9140914, 27.3500246 ], [ 81.913734, 27.3543114 ], [ 81.9152205, 27.3565626 ], [ 81.9077125, 27.3620424 ], [ 81.9068492, 27.3652283 ], [ 81.9109755, 27.3720048 ], [ 81.9155139, 27.3711598 ], [ 81.9191754, 27.3766952 ], [ 81.9227594, 27.3774791 ], [ 81.9239334, 27.3804795 ], [ 81.9306496, 27.3777064 ], [ 81.9391159, 27.3861678 ], [ 81.9352761, 27.3899914 ], [ 81.9314251, 27.3917934 ], [ 81.9324295, 27.3985704 ], [ 81.9314376, 27.4066117 ], [ 81.9265294, 27.4089509 ], [ 81.9279736, 27.4155834 ], [ 81.9320404, 27.4187585 ], [ 81.9370466, 27.4193655 ], [ 81.9362237, 27.4218746 ], [ 81.937297, 27.4240535 ], [ 81.9416371, 27.4265063 ], [ 81.9397566, 27.4276261 ], [ 81.9413448, 27.4283294 ], [ 81.9395317, 27.4320212 ], [ 81.9436649, 27.4347807 ], [ 81.9462487, 27.4342424 ], [ 81.9472535, 27.431688 ], [ 81.9523248, 27.4303452 ], [ 81.9531246, 27.4315585 ], [ 81.9549535, 27.4291028 ], [ 81.9552687, 27.4314039 ], [ 81.9594557, 27.4311532 ], [ 81.9616267, 27.4331464 ], [ 81.9633, 27.4324819 ], [ 81.9630582, 27.4336463 ], [ 81.96456, 27.4334513 ], [ 81.9662726, 27.437421 ], [ 81.9691723, 27.4395624 ], [ 81.9706007, 27.436308 ] ] ] } }
]
}
