{
"type": "FeatureCollection",
"name": "0954",
"crs": { "type": "name", "properties": { "name": "urn:ogc:def:crs:OGC:1.3:CRS84" } },
"features": [
{ "type": "Feature", "properties": { "code": "0954", "name": "Siddharthnagar", "type": "district" }, "geometry": { "type": "Polygon", "coordinates": [ [ [ 82.801595, 27.4964231 ], [ 82.8325105, 27.5019387 ], [ 82.8478609, 27.4994337 ], [ 82.8658462, 27.4985581 ], [ 82.8794199, 27.4985509 ], [ 82.9133233, 27.5013456 ], [ 82.929288, 27.5011899 ], [ 82.9395733, 27.4910394 ], [ 82.9447872, 27.4767749 ], [ 82.9540924, 27.4677326 ], [ 82.9667482, 27.4640846 ], [ 83.0189621, 27.453909 ], [ 83.0340513, 27.4489009 ], [ 83.077221, 27.4527034 ], [ 83.1657159, 27.4574601 ], [ 83.187948, 27.4543155 ], [ 83.1959094, 27.4463867 ], [ 83.2111056, 27.4234937 ], [ 83.2188306, 27.4162202 ], [ 83.2257307, 27.4116832 ], [ 83.2399624, 27.406409 ], [ 83.2721516, 27.3833486 ], [ 83.2653169, 27.3653676 ], [ 83.2724271, 27.3526281 ], [ 83.2922978, 27.3355185 ], [ 83.284835, 27.3346822 ], [ 83.2775993, 27.3292762 ], [ 83.2686751, 27.3258042 ], [ 83.2685599, 27.3248114 ], [ 83.2716621, 27.3246242 ], [ 83.2725676, 27.3233569 ], [ 83.2699122, 27.3212747 ], [ 83.2712498, 27.3170703 ], [ 83.2688507, 27.3112882 ], [ 83.2625528, 27.3098709 ], [ 83.2607337, 27.3054834 ], [ 83.2512239, 27.2993386 ], [ 83.2439274, 27.2999392 ], [ 83.2435958, 27.2967719 ], [ 83.2491318, 27.2971036 ], [ 83.2527568, 27.2917089 ], [ 83.2532722, 27.287943 ], [ 83.2511771, 27.2847787 ], [ 83.2467091, 27.2847033 ], [ 83.243839, 27.2832483 ], [ 83.2398852, 27.2838742 ], [ 83.2398723, 27.2810946 ], [ 83.2369565, 27.2742924 ], [ 83.2337159, 27.2704098 ], [ 83.2270091, 27.2696794 ], [ 83.2239045, 27.2706924 ], [ 83.2216662, 27.2691777 ], [ 83.2177881, 27.26923 ], [ 83.2168072, 27.2676378 ], [ 83.2185016, 27.2649158 ], [ 83.2134415, 27.2643459 ], [ 83.2124652, 27.2620362 ], [ 83.2148519, 27.259959 ], [ 83.2129817, 27.257474 ], [ 83.2182969, 27.2556746 ], [ 83.2173142, 27.2516908 ], [ 83.2204232, 27.2505246 ], [ 83.2184042, 27.2494138 ], [ 83.2211978, 27.2456768 ], [ 83.2177312, 27.2435867 ], [ 83.2146311, 27.2447304 ], [ 83.2124334, 27.243877 ], [ 83.2119365, 27.2415179 ], [ 83.2088911, 27.23938 ], [ 83.2102092, 27.2359946 ], [ 83.2075737, 27.2362306 ], [ 83.2048912, 27.2346188 ], [ 83.206628, 27.2325268 ], [ 83.2063466, 27.2309053 ], [ 83.2040716, 27.2330084 ], [ 83.202582, 27.2328043 ], [ 83.2028183, 27.2303652 ], [ 83.2051492, 27.2298882 ], [ 83.2023693, 27.2267293 ], [ 83.200367, 27.226106 ], [ 83.1986014, 27.2276389 ], [ 83.195456, 27.2261275 ], [ 83.1951869, 27.2281378 ], [ 83.1938751, 27.228633 ], [ 83.1935113, 27.2260498 ], [ 83.1894934, 27.2239832 ], [ 83.1905602, 27.2270338 ], [ 83.1893729, 27.2298567 ], [ 83.187014, 27.2286547 ], [ 83.1886713, 27.2274365 ], [ 83.1878033, 27.2267772 ], [ 83.1835665, 27.2275657 ], [ 83.1796264, 27.2251198 ], [ 83.1760698, 27.2269099 ], [ 83.1758872, 27.2303503 ], [ 83.1708877, 27.226858 ], [ 83.1678135, 27.2272974 ], [ 83.1656906, 27.2247625 ], [ 83.1655864, 27.2200392 ], [ 83.1680824, 27.2203404 ], [ 83.1685963, 27.2182082 ], [ 83.1665386, 27.2145005 ], [ 83.1676251, 27.2122786 ], [ 83.165303, 27.2087583 ], [ 83.165561, 27.2071519 ], [ 83.1678858, 27.2058684 ], [ 83.1657465, 27.2044013 ], [ 83.1678634, 27.2020807 ], [ 83.1687032, 27.2048106 ], [ 83.1718481, 27.2046041 ], [ 83.1748356, 27.1998835 ], [ 83.1763273, 27.1944118 ], [ 83.1754773, 27.1927236 ], [ 83.1704974, 27.1916912 ], [ 83.1662327, 27.1884314 ], [ 83.1677407, 27.1870732 ], [ 83.1705523, 27.1875114 ], [ 83.1772728, 27.1785366 ], [ 83.1761574, 27.1602548 ], [ 83.1748105, 27.1593317 ], [ 83.1737852, 27.1550041 ], [ 83.168049, 27.1562262 ], [ 83.1644251, 27.1535261 ], [ 83.158102, 27.1533795 ], [ 83.1564355, 27.1518725 ], [ 83.1599469, 27.1510425 ], [ 83.1602096, 27.1493206 ], [ 83.165766, 27.1513449 ], [ 83.168832, 27.1496992 ], [ 83.1686582, 27.1486753 ], [ 83.1650023, 27.1453681 ], [ 83.1585143, 27.1435429 ], [ 83.1556493, 27.1465743 ], [ 83.1556967, 27.1529093 ], [ 83.1584118, 27.1579293 ], [ 83.156661, 27.1616271 ], [ 83.1567906, 27.1646768 ], [ 83.1507237, 27.1671065 ], [ 83.1465336, 27.1661792 ], [ 83.1456381, 27.1678758 ], [ 83.1426107, 27.1678409 ], [ 83.1404042, 27.1661107 ], [ 83.1409836, 27.1632759 ], [ 83.1397009, 27.1605544 ], [ 83.135246, 27.1592506 ], [ 83.1293775, 27.159806 ], [ 83.1264038, 27.1615057 ], [ 83.1204123, 27.1606943 ], [ 83.120197, 27.152541 ], [ 83.1208351, 27.1508224 ], [ 83.1291705, 27.1443883 ], [ 83.1285295, 27.1378099 ], [ 83.1297865, 27.134112 ], [ 83.148911, 27.1168807 ], [ 83.1475875, 27.114171 ], [ 83.1407264, 27.1115962 ], [ 83.1309101, 27.1103498 ], [ 83.1295034, 27.1077405 ], [ 83.1197766, 27.114494 ], [ 83.1205301, 27.1094776 ], [ 83.1248811, 27.1050393 ], [ 83.1239219, 27.101161 ], [ 83.120278, 27.0975308 ], [ 83.1095943, 27.101758 ], [ 83.0977635, 27.0977422 ], [ 83.0915555, 27.0993244 ], [ 83.0768474, 27.093185 ], [ 83.0673445, 27.0980998 ], [ 83.0640864, 27.0974809 ], [ 83.0603918, 27.0989494 ], [ 83.0507271, 27.0967606 ], [ 83.0497083, 27.094658 ], [ 83.0459281, 27.0938595 ], [ 83.045369, 27.0899763 ], [ 83.0565825, 27.0851826 ], [ 83.0515886, 27.0818591 ], [ 83.0462839, 27.0836199 ], [ 83.0408629, 27.0803422 ], [ 83.0349099, 27.0826363 ], [ 83.0301717, 27.0820074 ], [ 83.0263979, 27.0796923 ], [ 83.0277863, 27.0714321 ], [ 83.0212699, 27.0658724 ], [ 83.022791, 27.0598361 ], [ 83.0298326, 27.0540252 ], [ 83.0284444, 27.0499398 ], [ 83.0339409, 27.0480715 ], [ 83.0332114, 27.0452241 ], [ 83.0346331, 27.0394833 ], [ 83.0263883, 27.0391777 ], [ 83.023537, 27.0408813 ], [ 83.0210308, 27.0463965 ], [ 83.0170162, 27.0445691 ], [ 83.0087132, 27.04361 ], [ 83.0072087, 27.0399631 ], [ 83.0103524, 27.03453 ], [ 83.0077348, 27.0322871 ], [ 82.9909097, 27.0367171 ], [ 82.9857468, 27.0339641 ], [ 82.9804073, 27.0413687 ], [ 82.9773376, 27.0406624 ], [ 82.9757985, 27.0439893 ], [ 82.9713223, 27.0486087 ], [ 82.9698508, 27.0486954 ], [ 82.9705723, 27.0437628 ], [ 82.9730786, 27.0397856 ], [ 82.9672264, 27.0380297 ], [ 82.9660652, 27.0415456 ], [ 82.9617452, 27.039987 ], [ 82.9591359, 27.0346323 ], [ 82.9628346, 27.0281636 ], [ 82.955127, 27.0307313 ], [ 82.9520514, 27.0279985 ], [ 82.9513321, 27.0298444 ], [ 82.9482092, 27.0316872 ], [ 82.9469481, 27.0296437 ], [ 82.9449129, 27.0303261 ], [ 82.9433547, 27.0283864 ], [ 82.9401242, 27.0274584 ], [ 82.9389339, 27.0254509 ], [ 82.9361172, 27.0254476 ], [ 82.9353926, 27.0271763 ], [ 82.9329946, 27.0279399 ], [ 82.9244435, 27.0274332 ], [ 82.9221997, 27.0236209 ], [ 82.919771, 27.02359 ], [ 82.9173109, 27.0203012 ], [ 82.9107108, 27.0208716 ], [ 82.9095867, 27.0193015 ], [ 82.9117221, 27.0167515 ], [ 82.9107996, 27.0152265 ], [ 82.9115393, 27.0122074 ], [ 82.909639, 27.0092386 ], [ 82.904727, 27.0094203 ], [ 82.9039005, 27.0082968 ], [ 82.9049668, 27.0016271 ], [ 82.9035658, 26.9998223 ], [ 82.9020804, 27.0023858 ], [ 82.9007452, 27.001488 ], [ 82.9000301, 27.0026794 ], [ 82.8977278, 27.0025038 ], [ 82.8965701, 27.0076302 ], [ 82.8941069, 27.0092371 ], [ 82.8963593, 27.011696 ], [ 82.8949492, 27.0145752 ], [ 82.888646, 27.0118414 ], [ 82.8856485, 27.0130916 ], [ 82.8855929, 27.0111558 ], [ 82.8836935, 27.009766 ], [ 82.8827061, 27.0127263 ], [ 82.8808169, 27.0120766 ], [ 82.8791644, 27.0131055 ], [ 82.8799705, 27.0154836 ], [ 82.8766151, 27.0169277 ], [ 82.8754059, 27.0192967 ], [ 82.8740505, 27.0191433 ], [ 82.873592, 27.0225006 ], [ 82.8693596, 27.0232044 ], [ 82.8694752, 27.0282539 ], [ 82.8714604, 27.0300815 ], [ 82.8698226, 27.0328703 ], [ 82.8665928, 27.0314802 ], [ 82.8670763, 27.0339531 ], [ 82.8648489, 27.0358753 ], [ 82.8645816, 27.0380413 ], [ 82.8614271, 27.0376754 ], [ 82.8587813, 27.038889 ], [ 82.8572498, 27.0355947 ], [ 82.855078, 27.0355945 ], [ 82.8540049, 27.0342766 ], [ 82.8547811, 27.033275 ], [ 82.8521659, 27.0329451 ], [ 82.8501863, 27.0296823 ], [ 82.8485235, 27.0297406 ], [ 82.8480706, 27.027006 ], [ 82.8461259, 27.025891 ], [ 82.8424475, 27.0263956 ], [ 82.8439902, 27.0233003 ], [ 82.8414859, 27.0236833 ], [ 82.8399345, 27.0219321 ], [ 82.8370723, 27.0230414 ], [ 82.8374458, 27.0211192 ], [ 82.8351026, 27.0217954 ], [ 82.8359548, 27.0200358 ], [ 82.8332338, 27.0202606 ], [ 82.834207, 27.0182664 ], [ 82.8332903, 27.0175171 ], [ 82.8291631, 27.0193929 ], [ 82.8284922, 27.0215182 ], [ 82.8249591, 27.0239446 ], [ 82.8228256, 27.0285602 ], [ 82.8248658, 27.0297477 ], [ 82.8227596, 27.0297153 ], [ 82.8208087, 27.0313662 ], [ 82.8217805, 27.0330001 ], [ 82.8186535, 27.0385086 ], [ 82.8171067, 27.037989 ], [ 82.8142275, 27.0412233 ], [ 82.8083927, 27.0400068 ], [ 82.8082101, 27.0419741 ], [ 82.8060027, 27.0420994 ], [ 82.8056582, 27.0449873 ], [ 82.8029257, 27.0466239 ], [ 82.801203, 27.0453279 ], [ 82.8004758, 27.0476019 ], [ 82.7991561, 27.0465407 ], [ 82.7937021, 27.0479997 ], [ 82.7958029, 27.0490478 ], [ 82.7943106, 27.0499946 ], [ 82.7954583, 27.0518543 ], [ 82.7936631, 27.0532206 ], [ 82.7928545, 27.0563292 ], [ 82.7934764, 27.0605126 ], [ 82.7921449, 27.0616761 ], [ 82.7937569, 27.0628548 ], [ 82.7922093, 27.0632465 ], [ 82.7926868, 27.0649615 ], [ 82.7916732, 27.0656378 ], [ 82.7927757, 27.0675111 ], [ 82.7920254, 27.0732731 ], [ 82.7890774, 27.0786728 ], [ 82.7905129, 27.0803523 ], [ 82.7881275, 27.0814789 ], [ 82.7862177, 27.0804805 ], [ 82.7857772, 27.0829756 ], [ 82.7777675, 27.087767 ], [ 82.7791127, 27.0887562 ], [ 82.7781324, 27.0914495 ], [ 82.7762567, 27.091597 ], [ 82.7745507, 27.0937618 ], [ 82.772842, 27.0933184 ], [ 82.7732793, 27.0947311 ], [ 82.7708285, 27.095194 ], [ 82.7717745, 27.0973021 ], [ 82.7691075, 27.0969933 ], [ 82.7680781, 27.0980123 ], [ 82.7691356, 27.0993578 ], [ 82.7670894, 27.0984583 ], [ 82.7637943, 27.1063074 ], [ 82.7662086, 27.1072298 ], [ 82.763414, 27.1120108 ], [ 82.7606935, 27.111097 ], [ 82.7600014, 27.1122562 ], [ 82.758303, 27.1113117 ], [ 82.757006, 27.1123621 ], [ 82.7511436, 27.1103805 ], [ 82.7485203, 27.1110212 ], [ 82.7474299, 27.1137582 ], [ 82.7448959, 27.1112649 ], [ 82.7390207, 27.1106967 ], [ 82.7347992, 27.1046444 ], [ 82.7302812, 27.1043771 ], [ 82.729356, 27.1017515 ], [ 82.7278544, 27.1027408 ], [ 82.726436, 27.1010136 ], [ 82.725716, 27.1022235 ], [ 82.7222906, 27.1000192 ], [ 82.7229333, 27.1027759 ], [ 82.7189837, 27.1069616 ], [ 82.7196965, 27.1090956 ], [ 82.7182294, 27.1094892 ], [ 82.714185, 27.1090225 ], [ 82.7136745, 27.1074886 ], [ 82.7105832, 27.107125 ], [ 82.7101134, 27.1059475 ], [ 82.7069322, 27.1065631 ], [ 82.7059352, 27.1085672 ], [ 82.7030095, 27.1069579 ], [ 82.6980836, 27.1077457 ], [ 82.6938446, 27.1103921 ], [ 82.6942851, 27.1133972 ], [ 82.6927615, 27.1121796 ], [ 82.6898929, 27.1130654 ], [ 82.6884972, 27.115214 ], [ 82.6878105, 27.1135627 ], [ 82.6863485, 27.1141545 ], [ 82.6836194, 27.1123867 ], [ 82.6791716, 27.1118831 ], [ 82.6595871, 27.1146329 ], [ 82.6604069, 27.1237117 ], [ 82.6587277, 27.124231 ], [ 82.6558928, 27.1220206 ], [ 82.6477025, 27.1199057 ], [ 82.6437282, 27.1166754 ], [ 82.6399007, 27.115841 ], [ 82.6389164, 27.108698 ], [ 82.6361881, 27.1047859 ], [ 82.6307627, 27.1069522 ], [ 82.6198208, 27.1064423 ], [ 82.6163623, 27.1005037 ], [ 82.6119254, 27.0992399 ], [ 82.605295, 27.1001281 ], [ 82.601629, 27.1023251 ], [ 82.599702, 27.1063363 ], [ 82.5977403, 27.107094 ], [ 82.5845252, 27.1049248 ], [ 82.5788792, 27.1014756 ], [ 82.5775699, 27.0975899 ], [ 82.5725462, 27.0908736 ], [ 82.55906, 27.0820008 ], [ 82.5578072, 27.0864089 ], [ 82.5525548, 27.0852241 ], [ 82.5525019, 27.0889649 ], [ 82.556151, 27.0906634 ], [ 82.556654, 27.0925138 ], [ 82.5531687, 27.0947908 ], [ 82.5503153, 27.0944013 ], [ 82.5548492, 27.1004232 ], [ 82.5547273, 27.1018852 ], [ 82.5516747, 27.1050875 ], [ 82.5495451, 27.1001858 ], [ 82.5464483, 27.1015379 ], [ 82.5460382, 27.1040511 ], [ 82.54762, 27.1061819 ], [ 82.5441594, 27.1083278 ], [ 82.5442071, 27.1121092 ], [ 82.5406499, 27.1149681 ], [ 82.5331848, 27.1173053 ], [ 82.5294458, 27.1140584 ], [ 82.5234856, 27.1192977 ], [ 82.5152898, 27.1204963 ], [ 82.5147327, 27.122901 ], [ 82.516895, 27.1240849 ], [ 82.5113895, 27.1275236 ], [ 82.5047691, 27.1214533 ], [ 82.5051487, 27.1249147 ], [ 82.507165, 27.1258414 ], [ 82.5059085, 27.1312598 ], [ 82.5097245, 27.1331086 ], [ 82.5023294, 27.1342846 ], [ 82.5004562, 27.136133 ], [ 82.4974758, 27.1402547 ], [ 82.4991976, 27.1430765 ], [ 82.4978308, 27.1469339 ], [ 82.494898, 27.1448968 ], [ 82.4935167, 27.1456244 ], [ 82.4932622, 27.1481832 ], [ 82.4969133, 27.1520472 ], [ 82.4942017, 27.154229 ], [ 82.4947802, 27.1573782 ], [ 82.4931534, 27.1598343 ], [ 82.4894472, 27.1565569 ], [ 82.4876623, 27.1574473 ], [ 82.4897988, 27.1649316 ], [ 82.4848307, 27.1610639 ], [ 82.4826359, 27.1658443 ], [ 82.4815704, 27.1648614 ], [ 82.4819468, 27.1627673 ], [ 82.479572, 27.1641861 ], [ 82.4706404, 27.1617196 ], [ 82.4749097, 27.1577097 ], [ 82.4812339, 27.1557285 ], [ 82.4789684, 27.1551932 ], [ 82.4806496, 27.1513429 ], [ 82.4700149, 27.1558854 ], [ 82.4642392, 27.1562096 ], [ 82.4625834, 27.1547261 ], [ 82.4608338, 27.1557379 ], [ 82.4550643, 27.1506694 ], [ 82.4506965, 27.1515066 ], [ 82.4509348, 27.153352 ], [ 82.4468543, 27.1541078 ], [ 82.4453436, 27.158481 ], [ 82.4434421, 27.1588926 ], [ 82.4460306, 27.159821 ], [ 82.4443071, 27.1627458 ], [ 82.4430759, 27.1622771 ], [ 82.4426128, 27.1640237 ], [ 82.4391846, 27.164659 ], [ 82.4401718, 27.1653064 ], [ 82.4389617, 27.1664259 ], [ 82.4385311, 27.1723013 ], [ 82.4423221, 27.1757155 ], [ 82.4449748, 27.1818555 ], [ 82.4496566, 27.1809055 ], [ 82.450571, 27.1826288 ], [ 82.4534175, 27.1836425 ], [ 82.4544286, 27.186381 ], [ 82.458345, 27.1874211 ], [ 82.4653035, 27.1938064 ], [ 82.4701654, 27.1965467 ], [ 82.4739603, 27.196702 ], [ 82.478174, 27.202195 ], [ 82.4874841, 27.1961819 ], [ 82.4971155, 27.1942606 ], [ 82.5082598, 27.1883484 ], [ 82.5097812, 27.1858678 ], [ 82.5088044, 27.1790127 ], [ 82.5167652, 27.1749534 ], [ 82.5191159, 27.1754019 ], [ 82.5196814, 27.1803208 ], [ 82.525888, 27.1798471 ], [ 82.5405677, 27.1838863 ], [ 82.5598853, 27.1801152 ], [ 82.5654294, 27.1819497 ], [ 82.566866, 27.1848428 ], [ 82.5658083, 27.1906633 ], [ 82.562187, 27.1963068 ], [ 82.5471411, 27.2001889 ], [ 82.5439046, 27.202529 ], [ 82.543777, 27.2044151 ], [ 82.5454973, 27.2054268 ], [ 82.5535587, 27.202629 ], [ 82.5552482, 27.2046289 ], [ 82.5552195, 27.2100617 ], [ 82.5529348, 27.2154348 ], [ 82.5472109, 27.2160048 ], [ 82.5314419, 27.2116091 ], [ 82.5249038, 27.2140864 ], [ 82.5120513, 27.2113872 ], [ 82.5116855, 27.2138237 ], [ 82.5209613, 27.2310862 ], [ 82.4968813, 27.2365757 ], [ 82.4975501, 27.2388506 ], [ 82.5046216, 27.2446056 ], [ 82.5073639, 27.2485382 ], [ 82.5130122, 27.249689 ], [ 82.5234383, 27.2492864 ], [ 82.5247376, 27.2529813 ], [ 82.5217991, 27.2584436 ], [ 82.5189857, 27.2595065 ], [ 82.5147951, 27.2592234 ], [ 82.5051104, 27.2549107 ], [ 82.5036401, 27.2558028 ], [ 82.5031509, 27.2598951 ], [ 82.5049362, 27.2666516 ], [ 82.5071843, 27.2703581 ], [ 82.5126232, 27.2750329 ], [ 82.5121122, 27.2760117 ], [ 82.4934321, 27.2758548 ], [ 82.489809, 27.2785426 ], [ 82.4901585, 27.2845166 ], [ 82.4914485, 27.2865867 ], [ 82.4987463, 27.2926507 ], [ 82.5145824, 27.3006645 ], [ 82.5147567, 27.3032051 ], [ 82.5132561, 27.3036056 ], [ 82.4986951, 27.2976684 ], [ 82.4915913, 27.2926828 ], [ 82.4875002, 27.2926681 ], [ 82.4843437, 27.2980448 ], [ 82.4835297, 27.3023817 ], [ 82.4846894, 27.305553 ], [ 82.491762, 27.3110613 ], [ 82.4946713, 27.3154358 ], [ 82.5050711, 27.3149202 ], [ 82.5104811, 27.3103718 ], [ 82.5125419, 27.3105674 ], [ 82.5129681, 27.3136813 ], [ 82.509891, 27.3192605 ], [ 82.5004943, 27.323846 ], [ 82.4970228, 27.3222655 ], [ 82.4932583, 27.3168178 ], [ 82.4899711, 27.3182825 ], [ 82.4747904, 27.3184295 ], [ 82.4719831, 27.3203086 ], [ 82.4751816, 27.3266417 ], [ 82.4798349, 27.3268729 ], [ 82.485446, 27.3299325 ], [ 82.4899723, 27.3342065 ], [ 82.4905056, 27.3369405 ], [ 82.4871894, 27.3403229 ], [ 82.4871507, 27.3420331 ], [ 82.4886421, 27.3527486 ], [ 82.4922415, 27.3588056 ], [ 82.5017502, 27.3667365 ], [ 82.509788, 27.3649926 ], [ 82.5135073, 27.3654649 ], [ 82.5191317, 27.3608848 ], [ 82.5215273, 27.3607783 ], [ 82.5211026, 27.3664184 ], [ 82.5220469, 27.367308 ], [ 82.5239873, 27.3675756 ], [ 82.5264935, 27.362641 ], [ 82.528546, 27.3620107 ], [ 82.532548, 27.3626677 ], [ 82.5387996, 27.3692822 ], [ 82.5425702, 27.3690182 ], [ 82.5433914, 27.3726737 ], [ 82.5421314, 27.3746538 ], [ 82.5436782, 27.3812246 ], [ 82.5504908, 27.383083 ], [ 82.554416, 27.3948937 ], [ 82.5607956, 27.3952713 ], [ 82.5649701, 27.3973578 ], [ 82.5671213, 27.4020063 ], [ 82.5708411, 27.4045844 ], [ 82.5714015, 27.4062947 ], [ 82.5678576, 27.4154848 ], [ 82.5685396, 27.4165139 ], [ 82.5722121, 27.4134379 ], [ 82.5731411, 27.4162494 ], [ 82.5761091, 27.4162459 ], [ 82.5728066, 27.417788 ], [ 82.5778105, 27.4222975 ], [ 82.5809762, 27.4215766 ], [ 82.5838782, 27.4228048 ], [ 82.5836879, 27.4178863 ], [ 82.5868388, 27.4156537 ], [ 82.5898272, 27.4151401 ], [ 82.591121, 27.4172477 ], [ 82.5940941, 27.4175732 ], [ 82.5956128, 27.4107059 ], [ 82.5983236, 27.4077915 ], [ 82.5993902, 27.4085588 ], [ 82.5985958, 27.4111622 ], [ 82.6012396, 27.4137076 ], [ 82.6016537, 27.4160992 ], [ 82.6042626, 27.4166817 ], [ 82.6060783, 27.4140469 ], [ 82.6130862, 27.4141334 ], [ 82.6144766, 27.4148239 ], [ 82.6132781, 27.4161774 ], [ 82.6145167, 27.4180456 ], [ 82.6179655, 27.4139622 ], [ 82.6157511, 27.4117465 ], [ 82.6170506, 27.4097297 ], [ 82.6166615, 27.4068914 ], [ 82.6213484, 27.4046129 ], [ 82.6247408, 27.4089267 ], [ 82.6271423, 27.4067428 ], [ 82.6240431, 27.4050236 ], [ 82.6228601, 27.4023072 ], [ 82.6285225, 27.4013777 ], [ 82.6302971, 27.4023839 ], [ 82.6308485, 27.4110023 ], [ 82.6331036, 27.4100591 ], [ 82.6346451, 27.4048067 ], [ 82.6430991, 27.4084969 ], [ 82.650678, 27.4086085 ], [ 82.6510476, 27.4107383 ], [ 82.6565834, 27.4088645 ], [ 82.6575834, 27.4051327 ], [ 82.6542363, 27.4046822 ], [ 82.6555717, 27.4071004 ], [ 82.6506323, 27.4080445 ], [ 82.6507526, 27.4034601 ], [ 82.6539578, 27.4026201 ], [ 82.6544991, 27.4041767 ], [ 82.6559602, 27.4043209 ], [ 82.6594628, 27.4007147 ], [ 82.6604089, 27.402921 ], [ 82.6587425, 27.4094235 ], [ 82.6639916, 27.4122243 ], [ 82.6649838, 27.4156263 ], [ 82.668522, 27.4125704 ], [ 82.6693904, 27.4092987 ], [ 82.6621035, 27.4059933 ], [ 82.6613447, 27.4044458 ], [ 82.6635842, 27.4036241 ], [ 82.6685748, 27.4052334 ], [ 82.6721966, 27.4096543 ], [ 82.6792366, 27.4137579 ], [ 82.6824269, 27.4134092 ], [ 82.685094, 27.4086973 ], [ 82.6917712, 27.4141315 ], [ 82.6946035, 27.4073211 ], [ 82.698441, 27.4073643 ], [ 82.6989779, 27.4088801 ], [ 82.6967178, 27.4089265 ], [ 82.6949614, 27.4137329 ], [ 82.6926318, 27.4159541 ], [ 82.6936438, 27.4171177 ], [ 82.6983359, 27.4168266 ], [ 82.6989303, 27.413397 ], [ 82.706667, 27.4074094 ], [ 82.7066897, 27.4108071 ], [ 82.701518, 27.4191938 ], [ 82.7024551, 27.4215351 ], [ 82.7062655, 27.4184195 ], [ 82.7058833, 27.4143497 ], [ 82.7080707, 27.4118351 ], [ 82.7128289, 27.4123195 ], [ 82.7142508, 27.4137039 ], [ 82.715858, 27.4128591 ], [ 82.71582, 27.4097637 ], [ 82.7111267, 27.4080294 ], [ 82.7146425, 27.404079 ], [ 82.7156562, 27.4010326 ], [ 82.7172338, 27.4012075 ], [ 82.7254891, 27.4118597 ], [ 82.7277335, 27.4113347 ], [ 82.7269189, 27.4050948 ], [ 82.7293766, 27.4058059 ], [ 82.7296516, 27.4078543 ], [ 82.7314363, 27.4079251 ], [ 82.7304955, 27.412745 ], [ 82.7325421, 27.4168225 ], [ 82.7416859, 27.4137784 ], [ 82.7454501, 27.4097388 ], [ 82.7480553, 27.4098608 ], [ 82.7519818, 27.4071255 ], [ 82.756437, 27.4062539 ], [ 82.760516, 27.4121278 ], [ 82.7646824, 27.4119868 ], [ 82.7596664, 27.4171356 ], [ 82.758437, 27.4226215 ], [ 82.7590703, 27.4262274 ], [ 82.7559215, 27.4295096 ], [ 82.7544197, 27.4340567 ], [ 82.745869, 27.4386238 ], [ 82.7443924, 27.443408 ], [ 82.7457147, 27.4455005 ], [ 82.7425644, 27.4460311 ], [ 82.7404483, 27.4441513 ], [ 82.741043, 27.446971 ], [ 82.7355423, 27.4491503 ], [ 82.7342804, 27.4517955 ], [ 82.7313467, 27.4515857 ], [ 82.731953, 27.4561742 ], [ 82.7292592, 27.4584548 ], [ 82.7262077, 27.4569681 ], [ 82.722416, 27.4593262 ], [ 82.7210495, 27.4583119 ], [ 82.7181933, 27.4603894 ], [ 82.7165087, 27.4601333 ], [ 82.7169034, 27.4664863 ], [ 82.7158074, 27.4684633 ], [ 82.7193492, 27.4694221 ], [ 82.7231293, 27.4765037 ], [ 82.7269553, 27.4778726 ], [ 82.7259709, 27.4802919 ], [ 82.7303945, 27.4821251 ], [ 82.7289891, 27.4834212 ], [ 82.7316267, 27.4851745 ], [ 82.7315268, 27.4864424 ], [ 82.7285693, 27.4888857 ], [ 82.7308773, 27.4898677 ], [ 82.7330864, 27.4929388 ], [ 82.7319505, 27.4956244 ], [ 82.7352979, 27.4984284 ], [ 82.7350054, 27.5026346 ], [ 82.7850226, 27.4999962 ], [ 82.801595, 27.4964231 ] ] ] } }
]
}
