{
"type": "FeatureCollection",
"name": "0960",
"crs": { "type": "name", "properties": { "name": "urn:ogc:def:crs:OGC:1.3:CRS84" } },
"features": [
{ "type": "Feature", "properties": { "code": "0960", "name": "Deoria", "type": "district" }, "geometry": { "type": "Polygon", "coordinates": [ [ [ 83.8399643, 26.7591765 ], [ 83.8501813, 26.7484532 ], [ 83.8604099, 26.7506298 ], [ 83.868201, 26.7502468 ], [ 83.8703926, 26.7491548 ], [ 83.8760976, 26.7417586 ], [ 83.8876267, 26.7342624 ], [ 83.8895154, 26.7261936 ], [ 83.8952932, 26.7172352 ], [ 83.8960965, 26.7133812 ], [ 83.8943575, 26.7111431 ], [ 83.8945828, 26.7062784 ], [ 83.9030782, 26.7017237 ], [ 83.9021879, 26.6973014 ], [ 83.9041117, 26.695681 ], [ 83.9058387, 26.6908294 ], [ 83.9091998, 26.6914965 ], [ 83.9125505, 26.6904487 ], [ 83.9149353, 26.6860572 ], [ 83.9206064, 26.684467 ], [ 83.9208966, 26.6813486 ], [ 83.9243365, 26.6785721 ], [ 83.927386, 26.6792795 ], [ 83.9316797, 26.6767643 ], [ 83.9368096, 26.6787884 ], [ 83.9400737, 26.6768465 ], [ 83.946774, 26.6756203 ], [ 83.9506027, 26.6771301 ], [ 83.9552971, 26.6736798 ], [ 83.9573173, 26.6748294 ], [ 83.9612169, 26.670355 ], [ 83.9599069, 26.6648773 ], [ 83.9606575, 26.6610591 ], [ 83.9590126, 26.6577612 ], [ 83.9604784, 26.6567676 ], [ 83.9624832, 26.6577637 ], [ 83.9633695, 26.6542703 ], [ 83.9652313, 26.6524008 ], [ 83.9671785, 26.6444707 ], [ 83.965345, 26.6373824 ], [ 83.9615401, 26.6326192 ], [ 83.9629983, 26.628629 ], [ 83.9663895, 26.6246286 ], [ 83.9746174, 26.6229895 ], [ 83.9788421, 26.6197779 ], [ 83.9802051, 26.6168075 ], [ 83.9862511, 26.6127504 ], [ 83.9883086, 26.6015572 ], [ 83.9926793, 26.5950732 ], [ 83.995047, 26.5933925 ], [ 83.9969423, 26.596234 ], [ 84.004283, 26.5934814 ], [ 84.0045998, 26.5881069 ], [ 84.0072477, 26.5855504 ], [ 84.0099346, 26.5789414 ], [ 84.0148716, 26.5755066 ], [ 84.0179116, 26.5770974 ], [ 84.0312104, 26.5726075 ], [ 84.033827, 26.5639402 ], [ 84.0373263, 26.5620289 ], [ 84.0455319, 26.5536399 ], [ 84.0547696, 26.5511316 ], [ 84.0564416, 26.5491271 ], [ 84.0563265, 26.5441743 ], [ 84.0481197, 26.5364036 ], [ 84.0238072, 26.5319144 ], [ 84.0140605, 26.52738 ], [ 84.0083194, 26.5219412 ], [ 84.006491, 26.5222592 ], [ 84.0068479, 26.5252814 ], [ 83.9988181, 26.5272268 ], [ 83.9926439, 26.5331666 ], [ 83.9827374, 26.5315339 ], [ 83.9761288, 26.5335126 ], [ 83.9767218, 26.5316192 ], [ 83.9751052, 26.5278548 ], [ 83.9765221, 26.5258269 ], [ 83.9715065, 26.5176133 ], [ 83.9718351, 26.5142143 ], [ 83.9736151, 26.512657 ], [ 83.9720146, 26.5102815 ], [ 83.9736766, 26.508041 ], [ 83.966079, 26.5075858 ], [ 83.9629379, 26.5082736 ], [ 83.9614704, 26.5102844 ], [ 83.9510199, 26.5090531 ], [ 83.9477231, 26.512482 ], [ 83.9485456, 26.5150408 ], [ 83.9526105, 26.5163505 ], [ 83.9527921, 26.5177632 ], [ 83.9466805, 26.5187784 ], [ 83.9403568, 26.5252424 ], [ 83.934622, 26.5251261 ], [ 83.9312403, 26.5203193 ], [ 83.927062, 26.5188849 ], [ 83.9257622, 26.5200304 ], [ 83.9222967, 26.5196143 ], [ 83.9164004, 26.5166675 ], [ 83.9080855, 26.5190771 ], [ 83.9060648, 26.5126472 ], [ 83.9067447, 26.5093809 ], [ 83.9151686, 26.5028437 ], [ 83.9123977, 26.497731 ], [ 83.9126891, 26.4838765 ], [ 83.9106027, 26.4832181 ], [ 83.9096202, 26.4756919 ], [ 83.9123104, 26.4757039 ], [ 83.9097301, 26.4661598 ], [ 83.9114557, 26.4559143 ], [ 83.909225, 26.4537541 ], [ 83.9080199, 26.447089 ], [ 83.9110378, 26.4470476 ], [ 83.9105625, 26.4499133 ], [ 83.921945, 26.4464399 ], [ 83.9221365, 26.4451128 ], [ 83.9244473, 26.4444892 ], [ 83.9467788, 26.4409823 ], [ 83.9462366, 26.4386207 ], [ 83.963329, 26.437304 ], [ 83.9736039, 26.4355193 ], [ 83.9810102, 26.4327973 ], [ 83.9844447, 26.4335709 ], [ 83.991301, 26.4323622 ], [ 83.9935736, 26.439313 ], [ 83.997896, 26.4468112 ], [ 84.000135, 26.4470916 ], [ 84.0046844, 26.4442145 ], [ 84.0076323, 26.443965 ], [ 84.0168301, 26.4475542 ], [ 84.0195978, 26.4459385 ], [ 84.023793, 26.4402519 ], [ 84.0244236, 26.4342384 ], [ 84.0226056, 26.430894 ], [ 84.0348584, 26.4194564 ], [ 84.0338608, 26.4116543 ], [ 84.0370769, 26.4130292 ], [ 84.040968, 26.4126903 ], [ 84.0396765, 26.4108862 ], [ 84.0412019, 26.4072593 ], [ 84.0436292, 26.4095109 ], [ 84.0478192, 26.4068729 ], [ 84.0495114, 26.4071108 ], [ 84.0493717, 26.4037427 ], [ 84.0528663, 26.4046042 ], [ 84.055377, 26.4022019 ], [ 84.0631288, 26.4007194 ], [ 84.0624356, 26.3984225 ], [ 84.0654705, 26.3964684 ], [ 84.0651314, 26.3928481 ], [ 84.067976, 26.391084 ], [ 84.0681623, 26.3882684 ], [ 84.0737056, 26.3875293 ], [ 84.0760867, 26.3850653 ], [ 84.0791775, 26.3846503 ], [ 84.0791663, 26.3825073 ], [ 84.0840079, 26.381776 ], [ 84.0877144, 26.3841612 ], [ 84.0887556, 26.3867808 ], [ 84.098119, 26.3856945 ], [ 84.0992935, 26.384595 ], [ 84.1028968, 26.3857147 ], [ 84.1219897, 26.3851212 ], [ 84.1246559, 26.3830365 ], [ 84.1356043, 26.3816894 ], [ 84.1375187, 26.3779396 ], [ 84.1611332, 26.3740703 ], [ 84.1623061, 26.375668 ], [ 84.1637842, 26.3754402 ], [ 84.1754159, 26.3730898 ], [ 84.1766814, 26.3706832 ], [ 84.1759049, 26.360603 ], [ 84.1728428, 26.3534958 ], [ 84.1725424, 26.3343527 ], [ 84.1745353, 26.3293935 ], [ 84.1812823, 26.3216134 ], [ 84.1859735, 26.3128994 ], [ 84.1839427, 26.3086999 ], [ 84.1777389, 26.3032003 ], [ 84.1745053, 26.2922732 ], [ 84.1748868, 26.2856219 ], [ 84.1760996, 26.2834848 ], [ 84.1765471, 26.2769927 ], [ 84.1752077, 26.2725858 ], [ 84.1766185, 26.2645381 ], [ 84.1727841, 26.2615077 ], [ 84.1640762, 26.2591117 ], [ 84.1611719, 26.2559189 ], [ 84.1615031, 26.2503223 ], [ 84.1660405, 26.2433291 ], [ 84.1662084, 26.2409459 ], [ 84.1630852, 26.2418361 ], [ 84.1511629, 26.2577902 ], [ 84.1465496, 26.2552139 ], [ 84.1322217, 26.2590336 ], [ 84.1291704, 26.2555485 ], [ 84.1269071, 26.258115 ], [ 84.1216889, 26.2588678 ], [ 84.1200226, 26.2580675 ], [ 84.1167861, 26.2497379 ], [ 84.1196829, 26.2479103 ], [ 84.117444, 26.240115 ], [ 84.1070764, 26.2412283 ], [ 84.1060182, 26.2366912 ], [ 84.0994947, 26.2373174 ], [ 84.0981234, 26.2333198 ], [ 84.0941056, 26.2333649 ], [ 84.0937203, 26.2345751 ], [ 84.091044, 26.2337768 ], [ 84.0901726, 26.2303886 ], [ 84.0876376, 26.2303647 ], [ 84.08714, 26.2262495 ], [ 84.0882531, 26.2235337 ], [ 84.0864117, 26.2187506 ], [ 84.0802139, 26.2200154 ], [ 84.0801611, 26.2223048 ], [ 84.0634595, 26.2241477 ], [ 84.0620812, 26.2222745 ], [ 84.0619971, 26.2234321 ], [ 84.0565601, 26.2246336 ], [ 84.0567475, 26.2260912 ], [ 84.0512043, 26.2291521 ], [ 84.0422813, 26.2299529 ], [ 84.0376958, 26.2320589 ], [ 84.038231, 26.2369916 ], [ 84.0272638, 26.2396475 ], [ 84.0246556, 26.2377665 ], [ 84.0192284, 26.2389396 ], [ 84.0157422, 26.2340367 ], [ 84.0123127, 26.2323992 ], [ 84.0157946, 26.2223894 ], [ 84.0230219, 26.2200222 ], [ 84.0285914, 26.2202999 ], [ 84.0312138, 26.2168852 ], [ 84.0276612, 26.2143235 ], [ 84.0290717, 26.2111854 ], [ 84.031881, 26.2093999 ], [ 84.0392436, 26.2090523 ], [ 84.0383502, 26.2009736 ], [ 84.0353809, 26.1986336 ], [ 84.0323516, 26.1998423 ], [ 84.0285894, 26.1956518 ], [ 84.0266388, 26.1969094 ], [ 84.0166468, 26.1960491 ], [ 84.0125856, 26.1933832 ], [ 84.0080073, 26.1874068 ], [ 84.0083835, 26.1795384 ], [ 84.0099526, 26.1744781 ], [ 84.0166863, 26.1688953 ], [ 84.033454, 26.1606871 ], [ 84.0343591, 26.1511918 ], [ 84.0274393, 26.1424013 ], [ 84.0434488, 26.1348365 ], [ 84.0506533, 26.1289619 ], [ 84.0517739, 26.1205625 ], [ 84.0500437, 26.1200128 ], [ 84.0487298, 26.1090643 ], [ 84.0559518, 26.1000551 ], [ 84.0526535, 26.089481 ], [ 84.0487491, 26.0910947 ], [ 84.0440804, 26.0955195 ], [ 84.0377391, 26.0970187 ], [ 84.0152708, 26.1141462 ], [ 84.0057122, 26.1122161 ], [ 84.0021071, 26.1130592 ], [ 83.9967915, 26.116922 ], [ 83.9809416, 26.1139648 ], [ 83.9773184, 26.1153124 ], [ 83.9759494, 26.1160083 ], [ 83.9727361, 26.1234165 ], [ 83.9633285, 26.1318394 ], [ 83.959003, 26.1308943 ], [ 83.9537405, 26.1266685 ], [ 83.9361547, 26.1218029 ], [ 83.930341, 26.1230193 ], [ 83.9195212, 26.1196924 ], [ 83.904919, 26.1223453 ], [ 83.896791, 26.1271351 ], [ 83.8875576, 26.1347633 ], [ 83.885673, 26.1393577 ], [ 83.876218, 26.1468318 ], [ 83.8719623, 26.1576675 ], [ 83.8642653, 26.1652311 ], [ 83.8649041, 26.1811667 ], [ 83.8611974, 26.1838381 ], [ 83.8555324, 26.2004634 ], [ 83.8475812, 26.2086759 ], [ 83.8440515, 26.2182563 ], [ 83.8341193, 26.233589 ], [ 83.8293101, 26.2342645 ], [ 83.8222456, 26.2312925 ], [ 83.8112115, 26.2317167 ], [ 83.7894953, 26.2301124 ], [ 83.7773036, 26.2326318 ], [ 83.7715935, 26.2388694 ], [ 83.7667274, 26.2408019 ], [ 83.7572104, 26.2493284 ], [ 83.7571605, 26.254211 ], [ 83.7526141, 26.2559988 ], [ 83.7535252, 26.2605893 ], [ 83.7496421, 26.2597556 ], [ 83.7438523, 26.2638914 ], [ 83.7425183, 26.266176 ], [ 83.7400364, 26.2619945 ], [ 83.7301174, 26.2581254 ], [ 83.723111, 26.2590556 ], [ 83.7196712, 26.2575912 ], [ 83.7152321, 26.2580769 ], [ 83.7077521, 26.2548455 ], [ 83.7066881, 26.2506085 ], [ 83.690222, 26.2412258 ], [ 83.6744672, 26.2392419 ], [ 83.6645277, 26.2366589 ], [ 83.6624054, 26.2350077 ], [ 83.6630147, 26.231325 ], [ 83.6603721, 26.229552 ], [ 83.6447942, 26.2250329 ], [ 83.6369182, 26.2240996 ], [ 83.6313942, 26.2249078 ], [ 83.6342327, 26.2428965 ], [ 83.6380066, 26.248208 ], [ 83.6382747, 26.2729839 ], [ 83.6452988, 26.2793643 ], [ 83.6550059, 26.280703 ], [ 83.671043, 26.2871749 ], [ 83.6695318, 26.2890663 ], [ 83.6680572, 26.3088607 ], [ 83.665285, 26.3143041 ], [ 83.6596777, 26.3181055 ], [ 83.6558418, 26.3181334 ], [ 83.6464316, 26.3142089 ], [ 83.6324447, 26.3016597 ], [ 83.6251594, 26.2972958 ], [ 83.6184902, 26.3010279 ], [ 83.6180395, 26.3018132 ], [ 83.6200723, 26.3028015 ], [ 83.6203673, 26.3119494 ], [ 83.6226256, 26.3154696 ], [ 83.6232715, 26.3206595 ], [ 83.6345893, 26.3221123 ], [ 83.6381405, 26.3272027 ], [ 83.6381707, 26.3291702 ], [ 83.6343996, 26.329667 ], [ 83.624849, 26.322072 ], [ 83.6221748, 26.3219276 ], [ 83.6198808, 26.3295499 ], [ 83.6108854, 26.3346218 ], [ 83.6173409, 26.3414324 ], [ 83.6167296, 26.3428944 ], [ 83.5995583, 26.3487683 ], [ 83.6000386, 26.351237 ], [ 83.6128756, 26.365319 ], [ 83.6112919, 26.3700304 ], [ 83.6090324, 26.3700888 ], [ 83.5898123, 26.3596785 ], [ 83.58604, 26.3600521 ], [ 83.5833591, 26.3623529 ], [ 83.5796891, 26.3699696 ], [ 83.5785244, 26.3757909 ], [ 83.5804254, 26.3834409 ], [ 83.5851079, 26.3903425 ], [ 83.585231, 26.3962771 ], [ 83.583266, 26.3983163 ], [ 83.5797131, 26.3983423 ], [ 83.5625927, 26.3929655 ], [ 83.5506013, 26.3932531 ], [ 83.5471797, 26.3920553 ], [ 83.5458585, 26.3896718 ], [ 83.5469571, 26.3877228 ], [ 83.5627723, 26.3852666 ], [ 83.5647735, 26.3813502 ], [ 83.5685831, 26.3780618 ], [ 83.5689402, 26.375282 ], [ 83.5659398, 26.3738547 ], [ 83.5581265, 26.3781566 ], [ 83.5553511, 26.3778349 ], [ 83.5509402, 26.3649979 ], [ 83.5469128, 26.3567912 ], [ 83.5448849, 26.3555491 ], [ 83.5392378, 26.3576984 ], [ 83.5365248, 26.3614786 ], [ 83.5332567, 26.3764685 ], [ 83.5328938, 26.3854399 ], [ 83.5299568, 26.386485 ], [ 83.5221979, 26.3834559 ], [ 83.5160006, 26.3827248 ], [ 83.5105924, 26.3845257 ], [ 83.5127199, 26.3866801 ], [ 83.5223866, 26.3911506 ], [ 83.5246141, 26.3937968 ], [ 83.5260931, 26.3988297 ], [ 83.524026, 26.4015721 ], [ 83.5114036, 26.4004569 ], [ 83.4997716, 26.401237 ], [ 83.5006498, 26.395362 ], [ 83.4951411, 26.3909574 ], [ 83.4900452, 26.3911466 ], [ 83.4871213, 26.3937394 ], [ 83.4853043, 26.40102 ], [ 83.4865663, 26.4053605 ], [ 83.4920884, 26.4097968 ], [ 83.5057033, 26.4174524 ], [ 83.497988, 26.4220018 ], [ 83.4960039, 26.4351694 ], [ 83.4875817, 26.4447391 ], [ 83.4815704, 26.4551323 ], [ 83.4767505, 26.4587777 ], [ 83.4772892, 26.4613045 ], [ 83.4798377, 26.4628822 ], [ 83.4915834, 26.4608243 ], [ 83.4937713, 26.4626817 ], [ 83.4936209, 26.4675919 ], [ 83.4871904, 26.4807611 ], [ 83.4930911, 26.4889336 ], [ 83.4935408, 26.4922005 ], [ 83.4993676, 26.4963408 ], [ 83.5057483, 26.4953038 ], [ 83.5076979, 26.4966864 ], [ 83.5091745, 26.4946162 ], [ 83.5112899, 26.4956649 ], [ 83.5137933, 26.4949087 ], [ 83.5146721, 26.4989799 ], [ 83.5174621, 26.4974838 ], [ 83.5189302, 26.4991592 ], [ 83.5276197, 26.496056 ], [ 83.5274373, 26.498186 ], [ 83.533648, 26.496385 ], [ 83.5398232, 26.5015967 ], [ 83.5430692, 26.5003034 ], [ 83.5440194, 26.4899514 ], [ 83.5462365, 26.4892261 ], [ 83.5515913, 26.4914809 ], [ 83.5550528, 26.4979676 ], [ 83.5529516, 26.5056104 ], [ 83.5496814, 26.5053515 ], [ 83.5484614, 26.5070883 ], [ 83.549057, 26.5092638 ], [ 83.5535694, 26.5124116 ], [ 83.5683191, 26.507612 ], [ 83.5736524, 26.5156109 ], [ 83.577877, 26.5135183 ], [ 83.5792406, 26.5154864 ], [ 83.5859634, 26.5125731 ], [ 83.5979165, 26.5138034 ], [ 83.6005497, 26.5151938 ], [ 83.5998117, 26.5180638 ], [ 83.6011761, 26.5181408 ], [ 83.6010001, 26.5202798 ], [ 83.6033175, 26.5216205 ], [ 83.6022034, 26.5233803 ], [ 83.6037531, 26.5258085 ], [ 83.601375, 26.5270853 ], [ 83.6029491, 26.5326363 ], [ 83.606596, 26.535728 ], [ 83.6057829, 26.5376324 ], [ 83.6080458, 26.5367346 ], [ 83.6056973, 26.5391216 ], [ 83.6092041, 26.5413784 ], [ 83.6071718, 26.5430614 ], [ 83.6087219, 26.5448984 ], [ 83.6063284, 26.5462429 ], [ 83.6112402, 26.5493708 ], [ 83.6086708, 26.5514555 ], [ 83.6113403, 26.551731 ], [ 83.6129608, 26.5537123 ], [ 83.6140348, 26.5523451 ], [ 83.6162324, 26.5546693 ], [ 83.6122882, 26.5556979 ], [ 83.6149876, 26.5580809 ], [ 83.6147716, 26.5609916 ], [ 83.6124378, 26.5636766 ], [ 83.6145354, 26.5643807 ], [ 83.6131752, 26.5664295 ], [ 83.6170392, 26.5699226 ], [ 83.6183689, 26.5732712 ], [ 83.6199651, 26.5704643 ], [ 83.6233426, 26.5707893 ], [ 83.6232724, 26.5678695 ], [ 83.6245621, 26.5681809 ], [ 83.6247629, 26.5698777 ], [ 83.625069, 26.5681041 ], [ 83.6265746, 26.5684562 ], [ 83.6262635, 26.5712045 ], [ 83.6274278, 26.5697739 ], [ 83.6281655, 26.5705004 ], [ 83.626645, 26.5744537 ], [ 83.6288533, 26.5767642 ], [ 83.6253099, 26.5812771 ], [ 83.6307808, 26.5824277 ], [ 83.6318249, 26.5846299 ], [ 83.6290694, 26.5862998 ], [ 83.6308512, 26.5862545 ], [ 83.6319205, 26.5888222 ], [ 83.6295765, 26.5898738 ], [ 83.6309569, 26.5915841 ], [ 83.6281762, 26.5961602 ], [ 83.6263892, 26.5970131 ], [ 83.6267707, 26.5993236 ], [ 83.6244415, 26.5983805 ], [ 83.622072, 26.6012912 ], [ 83.6213089, 26.6049014 ], [ 83.6205509, 26.6032542 ], [ 83.6185278, 26.6033399 ], [ 83.6202394, 26.6094547 ], [ 83.617935, 26.6101586 ], [ 83.6198828, 26.6113997 ], [ 83.6182561, 26.6144187 ], [ 83.6198977, 26.6151003 ], [ 83.6163681, 26.6171128 ], [ 83.6191445, 26.6182275 ], [ 83.6198274, 26.6163006 ], [ 83.6221068, 26.6158268 ], [ 83.6234322, 26.6172936 ], [ 83.6231711, 26.6197755 ], [ 83.6257618, 26.6195409 ], [ 83.626289, 26.6213144 ], [ 83.6296128, 26.6199018 ], [ 83.6296882, 26.6226636 ], [ 83.6335544, 26.6236653 ], [ 83.6318224, 26.6271673 ], [ 83.6315463, 26.6293109 ], [ 83.633339, 26.6308135 ], [ 83.6312052, 26.635737 ], [ 83.6316422, 26.6375196 ], [ 83.6290712, 26.6394646 ], [ 83.6302162, 26.6424024 ], [ 83.6279917, 26.6443882 ], [ 83.6310852, 26.6450559 ], [ 83.6320194, 26.6470415 ], [ 83.6272134, 26.649104 ], [ 83.6266108, 26.6526193 ], [ 83.6301717, 26.6550968 ], [ 83.6289059, 26.6549119 ], [ 83.6284691, 26.6564778 ], [ 83.6300412, 26.6581068 ], [ 83.6281828, 26.6580572 ], [ 83.6295842, 26.6595374 ], [ 83.6269374, 26.6614779 ], [ 83.6279369, 26.6623308 ], [ 83.6439687, 26.6593963 ], [ 83.6492976, 26.6598106 ], [ 83.6489565, 26.6613541 ], [ 83.6545111, 26.6602926 ], [ 83.6533765, 26.6619264 ], [ 83.6550153, 26.6673323 ], [ 83.6570701, 26.6690377 ], [ 83.6615386, 26.6790684 ], [ 83.6634124, 26.6789281 ], [ 83.6641924, 26.6830615 ], [ 83.6722104, 26.6838308 ], [ 83.6735498, 26.6913033 ], [ 83.6762177, 26.6919793 ], [ 83.6800508, 26.7020457 ], [ 83.6881491, 26.7002283 ], [ 83.6884526, 26.7037255 ], [ 83.6943505, 26.7023735 ], [ 83.698358, 26.6994156 ], [ 83.6948599, 26.6890652 ], [ 83.6954969, 26.6874494 ], [ 83.6932996, 26.6841651 ], [ 83.6937409, 26.6828743 ], [ 83.695258, 26.6828419 ], [ 83.7030546, 26.6830139 ], [ 83.7089055, 26.687582 ], [ 83.7110002, 26.6874543 ], [ 83.7110412, 26.6884787 ], [ 83.7216454, 26.6873212 ], [ 83.7217494, 26.691342 ], [ 83.7201923, 26.6917853 ], [ 83.7232073, 26.6983988 ], [ 83.7381474, 26.6963254 ], [ 83.7377894, 26.6950847 ], [ 83.7417722, 26.6937367 ], [ 83.7419921, 26.6926264 ], [ 83.7465332, 26.6920675 ], [ 83.7501805, 26.6931333 ], [ 83.753936, 26.6955328 ], [ 83.7556065, 26.7026644 ], [ 83.7568827, 26.7026835 ], [ 83.7569187, 26.7067765 ], [ 83.7606986, 26.7052634 ], [ 83.7663473, 26.6989455 ], [ 83.7677615, 26.7017489 ], [ 83.7704107, 26.700185 ], [ 83.7695084, 26.7034515 ], [ 83.7760047, 26.7038398 ], [ 83.7772101, 26.7103074 ], [ 83.7902903, 26.7091651 ], [ 83.7910956, 26.7143145 ], [ 83.7991851, 26.7151314 ], [ 83.7996762, 26.7173068 ], [ 83.8010881, 26.7175241 ], [ 83.8005141, 26.7192205 ], [ 83.8022779, 26.7193298 ], [ 83.8027494, 26.7206252 ], [ 83.8014777, 26.7210668 ], [ 83.8013687, 26.7264278 ], [ 83.8080385, 26.7248111 ], [ 83.8086289, 26.7292699 ], [ 83.8071708, 26.7304515 ], [ 83.8093606, 26.7415357 ], [ 83.8084151, 26.7425913 ], [ 83.8096192, 26.7463102 ], [ 83.8091298, 26.7503232 ], [ 83.8100904, 26.7486165 ], [ 83.8128652, 26.7482477 ], [ 83.8140582, 26.744981 ], [ 83.8157606, 26.7478608 ], [ 83.8189884, 26.7461473 ], [ 83.8240044, 26.7469254 ], [ 83.8279107, 26.744878 ], [ 83.8303781, 26.7458535 ], [ 83.8317609, 26.7444911 ], [ 83.8340418, 26.747574 ], [ 83.8364244, 26.7471685 ], [ 83.8410775, 26.7504833 ], [ 83.8357697, 26.7506871 ], [ 83.8372607, 26.7565178 ], [ 83.8399643, 26.7591765 ] ] ] } }
]
}
