{
"type": "FeatureCollection",
"name": "0961",
"crs": { "type": "name", "properties": { "name": "urn:ogc:def:crs:OGC:1.3:CRS84" } },
"features": [
{ "type": "Feature", "properties": { "code": "0961", "name": "Azamgarh", "type": "district" }, "geometry": { "type": "Polygon", "coordinates": [ [ [ 82.9254173, 26.4117595 ], [ 82.93549, 26.4098917 ], [ 82.9376314, 26.4021844 ], [ 82.9349991, 26.4007128 ], [ 82.929963, 26.3905471 ], [ 82.9366029, 26.3821414 ], [ 82.9392654, 26.3855385 ], [ 82.9427487, 26.3871209 ], [ 82.9445203, 26.383433 ], [ 82.9437128, 26.3820479 ], [ 82.9450102, 26.3816772 ], [ 82.9471417, 26.3849977 ], [ 82.9487653, 26.3851593 ], [ 82.9501703, 26.3882635 ], [ 82.9530059, 26.3876393 ], [ 82.953248, 26.3899407 ], [ 82.9641214, 26.3833635 ], [ 82.9699551, 26.3850973 ], [ 82.9737666, 26.3832579 ], [ 82.9765447, 26.3743159 ], [ 82.9743921, 26.3705266 ], [ 82.9671173, 26.363735 ], [ 82.9651244, 26.3584876 ], [ 82.9708, 26.3523374 ], [ 82.9722328, 26.3465238 ], [ 82.9746163, 26.3456557 ], [ 82.9814838, 26.3514093 ], [ 82.987325, 26.351978 ], [ 82.9917439, 26.3477728 ], [ 82.993704, 26.3492876 ], [ 83.0007099, 26.3471336 ], [ 82.9976383, 26.3436786 ], [ 82.9979605, 26.3420587 ], [ 83.0114914, 26.3346688 ], [ 83.0137786, 26.336372 ], [ 83.0220112, 26.3379803 ], [ 83.0236115, 26.3350841 ], [ 83.0280655, 26.3332234 ], [ 83.0275578, 26.329545 ], [ 83.0335667, 26.3243229 ], [ 83.0338592, 26.3217598 ], [ 83.0385558, 26.31609 ], [ 83.0380489, 26.3109403 ], [ 83.0331659, 26.305639 ], [ 83.0353505, 26.3036096 ], [ 83.0348375, 26.3001659 ], [ 83.040788, 26.2969878 ], [ 83.040405, 26.2935759 ], [ 83.0418862, 26.294556 ], [ 83.0459981, 26.292541 ], [ 83.0456442, 26.290325 ], [ 83.0434465, 26.2900169 ], [ 83.0434924, 26.2888436 ], [ 83.0485449, 26.2873977 ], [ 83.0498261, 26.2880708 ], [ 83.04964, 26.2894065 ], [ 83.0518487, 26.2881124 ], [ 83.0525589, 26.2891734 ], [ 83.0584888, 26.2853447 ], [ 83.0601597, 26.287435 ], [ 83.0640538, 26.2796157 ], [ 83.0680025, 26.2817565 ], [ 83.0697956, 26.2799836 ], [ 83.0744001, 26.2825036 ], [ 83.0754355, 26.2845212 ], [ 83.0739028, 26.2862762 ], [ 83.074887, 26.2910287 ], [ 83.077201, 26.2887054 ], [ 83.079689, 26.2892071 ], [ 83.0820025, 26.287899 ], [ 83.0805364, 26.28594 ], [ 83.084058, 26.2797176 ], [ 83.0855392, 26.2814465 ], [ 83.0904453, 26.2811003 ], [ 83.0942995, 26.2829605 ], [ 83.0966785, 26.2790663 ], [ 83.0979548, 26.2796217 ], [ 83.096908, 26.2822254 ], [ 83.0983444, 26.2840399 ], [ 83.1017741, 26.2815448 ], [ 83.1089627, 26.2835 ], [ 83.1076852, 26.2897006 ], [ 83.1100523, 26.296484 ], [ 83.1093162, 26.2977745 ], [ 83.1133465, 26.2992326 ], [ 83.1132612, 26.3006361 ], [ 83.1116992, 26.2997785 ], [ 83.1116038, 26.3015612 ], [ 83.1141674, 26.3014396 ], [ 83.1108022, 26.3058484 ], [ 83.1120437, 26.3077575 ], [ 83.1102861, 26.3082131 ], [ 83.1093796, 26.3101852 ], [ 83.1105611, 26.3114941 ], [ 83.1126994, 26.3102081 ], [ 83.1137859, 26.311183 ], [ 83.1135152, 26.3139358 ], [ 83.1100899, 26.3158626 ], [ 83.1117868, 26.3215807 ], [ 83.1094478, 26.3242837 ], [ 83.1117281, 26.3527967 ], [ 83.1134958, 26.3580589 ], [ 83.1229935, 26.3683218 ], [ 83.1321726, 26.3854302 ], [ 83.1438929, 26.3880782 ], [ 83.1479775, 26.392419 ], [ 83.1583113, 26.3968757 ], [ 83.1701916, 26.3940339 ], [ 83.1829413, 26.397599 ], [ 83.1978166, 26.3931786 ], [ 83.2039509, 26.394421 ], [ 83.2115017, 26.3934643 ], [ 83.2239256, 26.3954962 ], [ 83.2283799, 26.3947845 ], [ 83.2359059, 26.3889934 ], [ 83.2443925, 26.387407 ], [ 83.2498976, 26.3835606 ], [ 83.2526479, 26.3792487 ], [ 83.2590525, 26.3778459 ], [ 83.2684146, 26.3693284 ], [ 83.2714059, 26.3688116 ], [ 83.279532, 26.3629053 ], [ 83.283899, 26.3581921 ], [ 83.2883983, 26.3572382 ], [ 83.3014875, 26.3498895 ], [ 83.3097475, 26.349731 ], [ 83.3179667, 26.3511742 ], [ 83.3182384, 26.3487012 ], [ 83.3252532, 26.3438028 ], [ 83.3323603, 26.3449288 ], [ 83.3345872, 26.3505706 ], [ 83.3371319, 26.3503547 ], [ 83.3408194, 26.3478328 ], [ 83.3498381, 26.3362771 ], [ 83.3682649, 26.3268291 ], [ 83.3741996, 26.3196987 ], [ 83.3910991, 26.3059921 ], [ 83.4007557, 26.2958139 ], [ 83.4000082, 26.2888145 ], [ 83.4010636, 26.2843824 ], [ 83.4109695, 26.2796147 ], [ 83.4179009, 26.2740988 ], [ 83.4178545, 26.2842024 ], [ 83.4313585, 26.2780331 ], [ 83.4345158, 26.2751977 ], [ 83.4682939, 26.2795393 ], [ 83.4655456, 26.2665933 ], [ 83.4651452, 26.2536458 ], [ 83.4576929, 26.2467504 ], [ 83.4557637, 26.2432313 ], [ 83.4560857, 26.2383751 ], [ 83.4501955, 26.23044 ], [ 83.4509715, 26.2232819 ], [ 83.4484897, 26.2232967 ], [ 83.435524, 26.2112756 ], [ 83.4299662, 26.2019133 ], [ 83.4314147, 26.1970386 ], [ 83.4285898, 26.1895571 ], [ 83.4248519, 26.1863858 ], [ 83.4196847, 26.1866312 ], [ 83.4183129, 26.183143 ], [ 83.4181656, 26.176879 ], [ 83.4135383, 26.174723 ], [ 83.4123969, 26.1711716 ], [ 83.4087547, 26.1676026 ], [ 83.4161598, 26.1622617 ], [ 83.4154991, 26.160741 ], [ 83.4128934, 26.1598978 ], [ 83.4156824, 26.1557045 ], [ 83.4133207, 26.1515305 ], [ 83.4171252, 26.1488984 ], [ 83.4219997, 26.1339812 ], [ 83.4219966, 26.126327 ], [ 83.4189357, 26.1230966 ], [ 83.4135868, 26.1243076 ], [ 83.4114667, 26.1231754 ], [ 83.4140045, 26.1173664 ], [ 83.4189462, 26.110672 ], [ 83.4160611, 26.1084299 ], [ 83.4083886, 26.1106478 ], [ 83.4056784, 26.1073854 ], [ 83.4058802, 26.0951775 ], [ 83.4008671, 26.095896 ], [ 83.396444, 26.0981883 ], [ 83.395299, 26.0950846 ], [ 83.3924148, 26.093221 ], [ 83.392484, 26.0886221 ], [ 83.3906046, 26.0872053 ], [ 83.3868614, 26.0894261 ], [ 83.3842075, 26.0892458 ], [ 83.3824029, 26.0837263 ], [ 83.3781698, 26.0785183 ], [ 83.3746515, 26.0794435 ], [ 83.3680351, 26.0756343 ], [ 83.3678062, 26.0727309 ], [ 83.3632401, 26.071624 ], [ 83.3594047, 26.068891 ], [ 83.3600249, 26.0677347 ], [ 83.3584203, 26.0631095 ], [ 83.3594007, 26.0602099 ], [ 83.369052, 26.0626948 ], [ 83.3723926, 26.0605313 ], [ 83.3719227, 26.0569632 ], [ 83.3604019, 26.0524818 ], [ 83.359122, 26.0506389 ], [ 83.3507611, 26.0526612 ], [ 83.3458364, 26.0502619 ], [ 83.345461, 26.0517388 ], [ 83.3424253, 26.0533777 ], [ 83.3352153, 26.051637 ], [ 83.3249794, 26.051977 ], [ 83.3196503, 26.0493599 ], [ 83.3186618, 26.0358725 ], [ 83.3292761, 26.0356233 ], [ 83.3311367, 26.0337269 ], [ 83.3311376, 26.0312652 ], [ 83.3259055, 26.0137159 ], [ 83.3218184, 26.0094958 ], [ 83.3186176, 26.0027647 ], [ 83.3204133, 25.989203 ], [ 83.3111651, 25.9843572 ], [ 83.3055479, 25.9846075 ], [ 83.3053553, 25.9804429 ], [ 83.3069764, 25.9772594 ], [ 83.3053449, 25.9729316 ], [ 83.3092293, 25.9697354 ], [ 83.3101257, 25.9662128 ], [ 83.3081389, 25.9628017 ], [ 83.2990878, 25.9585515 ], [ 83.297684, 25.9506463 ], [ 83.2954938, 25.9461148 ], [ 83.2973565, 25.9473218 ], [ 83.3096187, 25.9433621 ], [ 83.3189224, 25.9504935 ], [ 83.3253426, 25.9497551 ], [ 83.333245, 25.9535879 ], [ 83.3373825, 25.95157 ], [ 83.3410342, 25.9529892 ], [ 83.3423689, 25.9506227 ], [ 83.3425101, 25.946124 ], [ 83.3503783, 25.9473315 ], [ 83.3526367, 25.9460266 ], [ 83.3553454, 25.940801 ], [ 83.3603014, 25.9376895 ], [ 83.3622345, 25.9398352 ], [ 83.3679795, 25.9387651 ], [ 83.3720409, 25.9348492 ], [ 83.3749633, 25.9352647 ], [ 83.375323, 25.9276314 ], [ 83.3741192, 25.9236204 ], [ 83.3698835, 25.922324 ], [ 83.368595, 25.9203275 ], [ 83.3672912, 25.9218134 ], [ 83.3660875, 25.9203454 ], [ 83.3649986, 25.9212306 ], [ 83.3637599, 25.9205214 ], [ 83.3620516, 25.9221474 ], [ 83.3616764, 25.9271655 ], [ 83.3585995, 25.9268851 ], [ 83.3596692, 25.9202862 ], [ 83.3570424, 25.9177023 ], [ 83.3547398, 25.917982 ], [ 83.3548852, 25.9152312 ], [ 83.3464875, 25.922389 ], [ 83.3450691, 25.9218648 ], [ 83.3449888, 25.923265 ], [ 83.3416365, 25.9255723 ], [ 83.3392242, 25.9247497 ], [ 83.3381571, 25.9191666 ], [ 83.3463294, 25.9153969 ], [ 83.3517786, 25.9144358 ], [ 83.3513504, 25.9079902 ], [ 83.3470404, 25.908125 ], [ 83.3445897, 25.9024016 ], [ 83.3474513, 25.9016976 ], [ 83.3444856, 25.8988605 ], [ 83.3397759, 25.9007836 ], [ 83.3353413, 25.9005791 ], [ 83.3361796, 25.9026435 ], [ 83.3331331, 25.9029363 ], [ 83.3308862, 25.9018064 ], [ 83.3288204, 25.8973657 ], [ 83.3235571, 25.8970252 ], [ 83.3190985, 25.8950542 ], [ 83.320289, 25.8908992 ], [ 83.3170287, 25.8897868 ], [ 83.3173701, 25.8861102 ], [ 83.3204459, 25.8862243 ], [ 83.3208462, 25.8844403 ], [ 83.3201134, 25.882019 ], [ 83.3220538, 25.8750005 ], [ 83.3204017, 25.8736765 ], [ 83.3203253, 25.8662598 ], [ 83.3248403, 25.8621194 ], [ 83.3175558, 25.8535362 ], [ 83.3191289, 25.8521306 ], [ 83.3184069, 25.8480832 ], [ 83.3233085, 25.8489207 ], [ 83.323409, 25.8471772 ], [ 83.3210195, 25.8438836 ], [ 83.3165225, 25.8430281 ], [ 83.3154013, 25.8394412 ], [ 83.3206463, 25.8413494 ], [ 83.3240909, 25.8403976 ], [ 83.3250535, 25.8419473 ], [ 83.3269604, 25.8418349 ], [ 83.3277182, 25.8439762 ], [ 83.3302705, 25.8397808 ], [ 83.3329709, 25.8395693 ], [ 83.3392266, 25.8346025 ], [ 83.3380644, 25.832285 ], [ 83.341499, 25.8296164 ], [ 83.34352, 25.8309855 ], [ 83.345412, 25.8294637 ], [ 83.3534078, 25.8281191 ], [ 83.3547705, 25.8265926 ], [ 83.354582, 25.8203277 ], [ 83.3531595, 25.8207294 ], [ 83.3524155, 25.8229516 ], [ 83.3483987, 25.8199834 ], [ 83.3447953, 25.8209402 ], [ 83.3439524, 25.8189391 ], [ 83.3454599, 25.8174489 ], [ 83.3457501, 25.8147116 ], [ 83.3434393, 25.8153164 ], [ 83.3386249, 25.8109249 ], [ 83.3323122, 25.8112438 ], [ 83.3295214, 25.8147345 ], [ 83.3261585, 25.8134687 ], [ 83.323069, 25.8143936 ], [ 83.3195294, 25.8068762 ], [ 83.3174086, 25.8069702 ], [ 83.3170421, 25.8012833 ], [ 83.3202407, 25.8008329 ], [ 83.3200584, 25.79595 ], [ 83.3167108, 25.7951357 ], [ 83.3134914, 25.7877221 ], [ 83.309176, 25.787255 ], [ 83.3082688, 25.7858498 ], [ 83.3074444, 25.7879136 ], [ 83.3047915, 25.7854281 ], [ 83.305423, 25.7806676 ], [ 83.3066056, 25.7801171 ], [ 83.3054396, 25.7779801 ], [ 83.3070815, 25.7767613 ], [ 83.3036056, 25.7745779 ], [ 83.3052, 25.769574 ], [ 83.2999479, 25.7684286 ], [ 83.2985374, 25.7665172 ], [ 83.3003792, 25.7647114 ], [ 83.3028729, 25.7654399 ], [ 83.3039062, 25.7643247 ], [ 83.3017719, 25.7631221 ], [ 83.3018627, 25.7615277 ], [ 83.3031444, 25.7618761 ], [ 83.302942, 25.758398 ], [ 83.3041742, 25.7581773 ], [ 83.3031233, 25.7555073 ], [ 83.2992619, 25.756892 ], [ 83.2953821, 25.7555845 ], [ 83.291281, 25.7570683 ], [ 83.2878042, 25.7572695 ], [ 83.2856258, 25.7554975 ], [ 83.283226, 25.7564537 ], [ 83.2848159, 25.7579587 ], [ 83.2843935, 25.7624754 ], [ 83.2818107, 25.7611097 ], [ 83.2812041, 25.7587515 ], [ 83.279792, 25.7593017 ], [ 83.2808499, 25.7649981 ], [ 83.2801292, 25.7679426 ], [ 83.2766956, 25.7698781 ], [ 83.2749492, 25.7764129 ], [ 83.2706421, 25.7728054 ], [ 83.2710228, 25.7767354 ], [ 83.2623572, 25.7767696 ], [ 83.2607503, 25.7722243 ], [ 83.2579459, 25.7730351 ], [ 83.2569106, 25.7757625 ], [ 83.2550262, 25.7743968 ], [ 83.2555667, 25.7726267 ], [ 83.2528783, 25.7722179 ], [ 83.2515985, 25.7700623 ], [ 83.246945, 25.770758 ], [ 83.2459676, 25.7653881 ], [ 83.2404609, 25.7663359 ], [ 83.2385207, 25.7649698 ], [ 83.2365556, 25.7689701 ], [ 83.2355079, 25.7679148 ], [ 83.2327671, 25.7685803 ], [ 83.231161, 25.7672907 ], [ 83.2302555, 25.7635814 ], [ 83.2236334, 25.7597813 ], [ 83.2186089, 25.7591166 ], [ 83.2169003, 25.7603904 ], [ 83.2187702, 25.7678543 ], [ 83.2181031, 25.7688567 ], [ 83.2141998, 25.7682363 ], [ 83.2136295, 25.7722354 ], [ 83.2113262, 25.7714876 ], [ 83.2085814, 25.773976 ], [ 83.2054487, 25.7704439 ], [ 83.2032558, 25.7710588 ], [ 83.1986539, 25.7771406 ], [ 83.1935902, 25.7785332 ], [ 83.1919392, 25.7767693 ], [ 83.1912977, 25.7706179 ], [ 83.1890075, 25.7663539 ], [ 83.2004645, 25.7631801 ], [ 83.2079725, 25.7584145 ], [ 83.2108364, 25.7627907 ], [ 83.2169617, 25.7623763 ], [ 83.2165366, 25.7605668 ], [ 83.2180554, 25.758756 ], [ 83.2159525, 25.752741 ], [ 83.2197076, 25.74929 ], [ 83.217147, 25.7376925 ], [ 83.2138883, 25.7313352 ], [ 83.2209276, 25.7294623 ], [ 83.2295835, 25.7245639 ], [ 83.2326363, 25.7174532 ], [ 83.2380235, 25.713509 ], [ 83.2385397, 25.7114234 ], [ 83.2415312, 25.7086408 ], [ 83.2388293, 25.7068512 ], [ 83.2364584, 25.7073631 ], [ 83.233711, 25.7048512 ], [ 83.2348306, 25.7033564 ], [ 83.228873, 25.7038708 ], [ 83.2283876, 25.7015287 ], [ 83.2225295, 25.701772 ], [ 83.215318, 25.7043627 ], [ 83.214808, 25.7018491 ], [ 83.2090939, 25.7017577 ], [ 83.2066491, 25.7034471 ], [ 83.2025286, 25.7023661 ], [ 83.1985892, 25.7042503 ], [ 83.1939002, 25.7021267 ], [ 83.1911739, 25.6998172 ], [ 83.1914663, 25.6969917 ], [ 83.1891741, 25.695571 ], [ 83.1900494, 25.6930567 ], [ 83.1853309, 25.6907298 ], [ 83.1864098, 25.6866313 ], [ 83.184883, 25.6813377 ], [ 83.1870124, 25.6768416 ], [ 83.182853, 25.6756066 ], [ 83.1818303, 25.6720414 ], [ 83.1766653, 25.6713167 ], [ 83.1717453, 25.6727581 ], [ 83.1732324, 25.6677929 ], [ 83.1717065, 25.6626979 ], [ 83.1656256, 25.6616661 ], [ 83.1661093, 25.6634713 ], [ 83.1586146, 25.6648769 ], [ 83.1578324, 25.6635637 ], [ 83.1548793, 25.6637854 ], [ 83.1533197, 25.6599042 ], [ 83.1505109, 25.6594715 ], [ 83.1487426, 25.657179 ], [ 83.1474173, 25.653424 ], [ 83.151933, 25.6501376 ], [ 83.1525148, 25.64608 ], [ 83.151164, 25.6401135 ], [ 83.1530908, 25.6390434 ], [ 83.1525976, 25.637983 ], [ 83.1497694, 25.6379518 ], [ 83.1486638, 25.6359796 ], [ 83.1418825, 25.636274 ], [ 83.1422363, 25.638305 ], [ 83.1408075, 25.6400473 ], [ 83.1389552, 25.6387476 ], [ 83.1379497, 25.641045 ], [ 83.1357389, 25.6403953 ], [ 83.1206567, 25.6545991 ], [ 83.1148355, 25.6539218 ], [ 83.1095967, 25.655826 ], [ 83.1057077, 25.6546295 ], [ 83.1003344, 25.655396 ], [ 83.0984765, 25.6577245 ], [ 83.0938155, 25.6570511 ], [ 83.0877548, 25.6581329 ], [ 83.0876475, 25.6509295 ], [ 83.0866271, 25.6495843 ], [ 83.0789629, 25.6516852 ], [ 83.0662398, 25.6523713 ], [ 83.0660147, 25.6543705 ], [ 83.0620532, 25.659451 ], [ 83.0680955, 25.6681201 ], [ 83.0773216, 25.6718414 ], [ 83.0789958, 25.6825431 ], [ 83.0713984, 25.6861828 ], [ 83.0687792, 25.6844171 ], [ 83.0636339, 25.6845234 ], [ 83.0589477, 25.6828829 ], [ 83.0567906, 25.6835996 ], [ 83.0539205, 25.6855163 ], [ 83.0542881, 25.6871007 ], [ 83.0526231, 25.6892888 ], [ 83.0407266, 25.691485 ], [ 83.0440327, 25.7009558 ], [ 83.0433047, 25.7020792 ], [ 83.0359032, 25.7003959 ], [ 83.0327718, 25.6977447 ], [ 83.0306065, 25.70204 ], [ 83.0309474, 25.7055606 ], [ 83.0283624, 25.7048548 ], [ 83.0276711, 25.7033424 ], [ 83.0216155, 25.7067051 ], [ 83.0186473, 25.7055883 ], [ 83.0161451, 25.7070532 ], [ 83.016034, 25.7086644 ], [ 83.0140607, 25.7091413 ], [ 83.014837, 25.710198 ], [ 83.0137599, 25.7111721 ], [ 83.0112839, 25.7111205 ], [ 83.0089485, 25.7150452 ], [ 83.0036569, 25.7106721 ], [ 82.9998326, 25.7041606 ], [ 83.0033604, 25.7033828 ], [ 83.002861, 25.6997401 ], [ 82.9973608, 25.6979177 ], [ 82.997994, 25.6936069 ], [ 83.0012374, 25.6941367 ], [ 82.9986171, 25.6843495 ], [ 82.9923924, 25.685826 ], [ 82.985113, 25.683426 ], [ 82.9843285, 25.6807502 ], [ 82.9819721, 25.6801652 ], [ 82.9797329, 25.6825905 ], [ 82.9806215, 25.6847789 ], [ 82.9765131, 25.6859507 ], [ 82.9762428, 25.6903289 ], [ 82.9681657, 25.6997174 ], [ 82.958019, 25.7080281 ], [ 82.9542263, 25.7058186 ], [ 82.9420669, 25.7080182 ], [ 82.9411649, 25.7164811 ], [ 82.9353567, 25.7186501 ], [ 82.9345567, 25.7228974 ], [ 82.9328979, 25.7236698 ], [ 82.9337635, 25.731121 ], [ 82.9319851, 25.7321914 ], [ 82.9297716, 25.72994 ], [ 82.9292744, 25.7319757 ], [ 82.9279041, 25.7321839 ], [ 82.9270709, 25.7298192 ], [ 82.9239279, 25.7324471 ], [ 82.9246166, 25.7349832 ], [ 82.9214685, 25.7380533 ], [ 82.922914, 25.739109 ], [ 82.9221174, 25.7409507 ], [ 82.923558, 25.7419522 ], [ 82.9232948, 25.7443534 ], [ 82.9289922, 25.747276 ], [ 82.9276924, 25.7492894 ], [ 82.9298974, 25.7542491 ], [ 82.9292859, 25.7574132 ], [ 82.9265202, 25.7584794 ], [ 82.9240227, 25.7571984 ], [ 82.9188103, 25.7597185 ], [ 82.9184672, 25.7616367 ], [ 82.912498, 25.7676501 ], [ 82.9086604, 25.768802 ], [ 82.9068707, 25.7680125 ], [ 82.9064723, 25.769353 ], [ 82.9042294, 25.7694889 ], [ 82.9023955, 25.7714255 ], [ 82.9011991, 25.7704463 ], [ 82.8992062, 25.7749057 ], [ 82.8946997, 25.7732094 ], [ 82.8945498, 25.771359 ], [ 82.8902379, 25.7692383 ], [ 82.8784747, 25.7733506 ], [ 82.8701055, 25.7737658 ], [ 82.865769, 25.7723032 ], [ 82.8653056, 25.7711117 ], [ 82.8587059, 25.7723162 ], [ 82.84489, 25.7668483 ], [ 82.8387387, 25.7688959 ], [ 82.82539, 25.7696999 ], [ 82.8255681, 25.7728412 ], [ 82.8217394, 25.7739049 ], [ 82.8205622, 25.7758137 ], [ 82.8221544, 25.7823586 ], [ 82.8194074, 25.7831022 ], [ 82.8179456, 25.7854259 ], [ 82.8062387, 25.7885712 ], [ 82.8089544, 25.7997924 ], [ 82.8085806, 25.8060033 ], [ 82.800859, 25.8053895 ], [ 82.7977037, 25.8118463 ], [ 82.7925838, 25.8176927 ], [ 82.7866043, 25.8187002 ], [ 82.7843214, 25.8238935 ], [ 82.7855908, 25.8269001 ], [ 82.7800429, 25.8299972 ], [ 82.7782831, 25.8292333 ], [ 82.7687315, 25.8310499 ], [ 82.7544925, 25.83687 ], [ 82.7581039, 25.8414042 ], [ 82.7623595, 25.8504296 ], [ 82.7650915, 25.851894 ], [ 82.7651323, 25.8563756 ], [ 82.7634644, 25.858306 ], [ 82.7643705, 25.8601616 ], [ 82.7629438, 25.8602914 ], [ 82.761752, 25.8651152 ], [ 82.7630691, 25.8702207 ], [ 82.7654573, 25.8717299 ], [ 82.7677826, 25.8767052 ], [ 82.7735907, 25.8813941 ], [ 82.7702803, 25.8842306 ], [ 82.7672331, 25.8828879 ], [ 82.764637, 25.8846912 ], [ 82.7664176, 25.8962148 ], [ 82.7702468, 25.8939114 ], [ 82.7727495, 25.8963188 ], [ 82.7693597, 25.8982615 ], [ 82.7674748, 25.9078913 ], [ 82.7622216, 25.9114934 ], [ 82.7635558, 25.914965 ], [ 82.7617129, 25.9164349 ], [ 82.7635234, 25.9228361 ], [ 82.7602886, 25.923524 ], [ 82.7553593, 25.9268373 ], [ 82.7594003, 25.9336645 ], [ 82.7511513, 25.9368214 ], [ 82.7529412, 25.9435746 ], [ 82.7474116, 25.9470766 ], [ 82.7496551, 25.9544712 ], [ 82.7477991, 25.9551667 ], [ 82.7477065, 25.9598182 ], [ 82.7444392, 25.9625378 ], [ 82.7444731, 25.9665229 ], [ 82.7356004, 25.9712282 ], [ 82.7349098, 25.9749295 ], [ 82.7328949, 25.9774087 ], [ 82.7342038, 25.9835953 ], [ 82.7305875, 25.9824201 ], [ 82.7307243, 25.9847036 ], [ 82.7258715, 25.99154 ], [ 82.7247333, 25.997954 ], [ 82.7257953, 26.0047549 ], [ 82.7222866, 26.0091631 ], [ 82.7263545, 26.0169924 ], [ 82.7316886, 26.0174354 ], [ 82.7288158, 26.021475 ], [ 82.7311801, 26.0254788 ], [ 82.7267478, 26.0243718 ], [ 82.7240102, 26.0278055 ], [ 82.7127049, 26.025533 ], [ 82.711067, 26.0242206 ], [ 82.7030623, 26.0245718 ], [ 82.7052324, 26.0276183 ], [ 82.711142, 26.0294824 ], [ 82.7124911, 26.0329341 ], [ 82.71904, 26.0345633 ], [ 82.720985, 26.0328532 ], [ 82.721885, 26.0355641 ], [ 82.7189494, 26.0378613 ], [ 82.7184288, 26.0424742 ], [ 82.7173862, 26.0429505 ], [ 82.7056882, 26.0397457 ], [ 82.6985613, 26.0400703 ], [ 82.7033413, 26.050536 ], [ 82.7076459, 26.0490981 ], [ 82.7088264, 26.0475356 ], [ 82.7102146, 26.0475785 ], [ 82.7124943, 26.0505224 ], [ 82.7075721, 26.0625195 ], [ 82.7016057, 26.0673831 ], [ 82.6998837, 26.0656251 ], [ 82.6970299, 26.0671606 ], [ 82.703708, 26.0841189 ], [ 82.7037925, 26.0898496 ], [ 82.7065765, 26.094919 ], [ 82.7022379, 26.0954076 ], [ 82.7017299, 26.0971595 ], [ 82.6925477, 26.0982902 ], [ 82.688409, 26.0971102 ], [ 82.6835292, 26.0989708 ], [ 82.684009, 26.1029181 ], [ 82.6790242, 26.1051043 ], [ 82.676837, 26.1042144 ], [ 82.6772023, 26.1103872 ], [ 82.6809241, 26.112938 ], [ 82.6793865, 26.1152438 ], [ 82.6802332, 26.1166148 ], [ 82.6773832, 26.1183916 ], [ 82.6766426, 26.1208839 ], [ 82.6720981, 26.1204704 ], [ 82.6706293, 26.1225283 ], [ 82.6693054, 26.1220372 ], [ 82.6674743, 26.1233641 ], [ 82.6680041, 26.1267777 ], [ 82.6707423, 26.130994 ], [ 82.6671698, 26.1331591 ], [ 82.6652234, 26.1365734 ], [ 82.6655481, 26.1428247 ], [ 82.669015, 26.1453259 ], [ 82.6729678, 26.1442663 ], [ 82.6766201, 26.1453977 ], [ 82.6786849, 26.1514986 ], [ 82.686272, 26.1538489 ], [ 82.6886879, 26.1567417 ], [ 82.6923958, 26.1563364 ], [ 82.6925725, 26.1588803 ], [ 82.682886, 26.1631905 ], [ 82.685079, 26.1725006 ], [ 82.6839855, 26.1764781 ], [ 82.6859141, 26.1785858 ], [ 82.6839509, 26.179201 ], [ 82.6846653, 26.1849099 ], [ 82.6828529, 26.1897672 ], [ 82.6839515, 26.2005724 ], [ 82.6891148, 26.2071169 ], [ 82.6890128, 26.208717 ], [ 82.6844154, 26.215142 ], [ 82.6853383, 26.2184642 ], [ 82.6844516, 26.2210063 ], [ 82.6742704, 26.2222937 ], [ 82.6713529, 26.2286967 ], [ 82.6750823, 26.2362535 ], [ 82.6828566, 26.2414289 ], [ 82.6769405, 26.2482533 ], [ 82.6782045, 26.2551826 ], [ 82.6816237, 26.2568601 ], [ 82.6836275, 26.2602575 ], [ 82.6885666, 26.2583329 ], [ 82.6905197, 26.2603765 ], [ 82.6916972, 26.2625106 ], [ 82.6901712, 26.2635448 ], [ 82.6893124, 26.2675256 ], [ 82.6973705, 26.2662446 ], [ 82.6977493, 26.2635095 ], [ 82.7012275, 26.2626638 ], [ 82.7048369, 26.2643391 ], [ 82.7144433, 26.258432 ], [ 82.7152078, 26.2568249 ], [ 82.7232692, 26.2545181 ], [ 82.7251342, 26.2524317 ], [ 82.7216974, 26.2457494 ], [ 82.7230544, 26.2433212 ], [ 82.7276437, 26.2442374 ], [ 82.7310665, 26.242254 ], [ 82.7329986, 26.2435599 ], [ 82.7327251, 26.2450074 ], [ 82.7350915, 26.2451408 ], [ 82.7378667, 26.2479697 ], [ 82.738306, 26.2513208 ], [ 82.7416011, 26.2532497 ], [ 82.7458072, 26.2599165 ], [ 82.7480646, 26.2600048 ], [ 82.7487425, 26.264726 ], [ 82.7515477, 26.2627111 ], [ 82.7528352, 26.2616246 ], [ 82.7480706, 26.251376 ], [ 82.7465489, 26.2512058 ], [ 82.7449863, 26.2488698 ], [ 82.7500998, 26.2405809 ], [ 82.7494979, 26.2372746 ], [ 82.7507083, 26.2307724 ], [ 82.7467802, 26.2263657 ], [ 82.7483649, 26.2252849 ], [ 82.7486036, 26.2220311 ], [ 82.7509378, 26.2219429 ], [ 82.7531343, 26.2196613 ], [ 82.7530317, 26.2149902 ], [ 82.7571253, 26.2116021 ], [ 82.7666241, 26.2112463 ], [ 82.7706637, 26.2032951 ], [ 82.7746674, 26.1986224 ], [ 82.7748641, 26.1938974 ], [ 82.7774663, 26.1927777 ], [ 82.78201, 26.1971177 ], [ 82.7836535, 26.196751 ], [ 82.785287, 26.193277 ], [ 82.7848862, 26.1877054 ], [ 82.7955824, 26.1888964 ], [ 82.8006237, 26.1864011 ], [ 82.8036978, 26.1899477 ], [ 82.8108641, 26.1888228 ], [ 82.8136637, 26.1870481 ], [ 82.8214746, 26.1869182 ], [ 82.8242719, 26.1844009 ], [ 82.8248119, 26.1788614 ], [ 82.8278108, 26.1782373 ], [ 82.8325617, 26.1802087 ], [ 82.8346076, 26.1797783 ], [ 82.8342493, 26.1746153 ], [ 82.8386544, 26.1708751 ], [ 82.8395907, 26.1672921 ], [ 82.8448321, 26.166666 ], [ 82.8483313, 26.1630066 ], [ 82.8522491, 26.1663401 ], [ 82.8554275, 26.1654019 ], [ 82.858236, 26.1631615 ], [ 82.8575637, 26.1612321 ], [ 82.859872, 26.1580371 ], [ 82.8617373, 26.1585743 ], [ 82.8662057, 26.1566454 ], [ 82.8684783, 26.1605538 ], [ 82.8697061, 26.160705 ], [ 82.8705811, 26.1646021 ], [ 82.8677002, 26.167127 ], [ 82.8709936, 26.1674589 ], [ 82.8705534, 26.1693363 ], [ 82.8727489, 26.1716651 ], [ 82.8796282, 26.165534 ], [ 82.8818238, 26.1678627 ], [ 82.8833521, 26.1729646 ], [ 82.889112, 26.1785242 ], [ 82.8849409, 26.1832994 ], [ 82.8860766, 26.1862441 ], [ 82.8787986, 26.1854185 ], [ 82.8725735, 26.1865716 ], [ 82.8693893, 26.1940135 ], [ 82.8653371, 26.1977591 ], [ 82.8634081, 26.2026556 ], [ 82.8602037, 26.20428 ], [ 82.8597836, 26.2026124 ], [ 82.8581376, 26.2035532 ], [ 82.8582103, 26.2023302 ], [ 82.8561338, 26.2045503 ], [ 82.8595079, 26.2065748 ], [ 82.8638154, 26.2072567 ], [ 82.8648412, 26.2057269 ], [ 82.8686558, 26.2069072 ], [ 82.8689383, 26.2086651 ], [ 82.8672197, 26.2091253 ], [ 82.8674773, 26.21038 ], [ 82.8630093, 26.212767 ], [ 82.8636343, 26.2165152 ], [ 82.8622207, 26.2180856 ], [ 82.8635989, 26.2203986 ], [ 82.8677895, 26.2194467 ], [ 82.8710016, 26.2227931 ], [ 82.875057, 26.2279606 ], [ 82.8748468, 26.2324443 ], [ 82.8827482, 26.2323268 ], [ 82.8797487, 26.2418088 ], [ 82.8827991, 26.245261 ], [ 82.8859295, 26.2457302 ], [ 82.8850143, 26.2524112 ], [ 82.8752397, 26.2587072 ], [ 82.8745239, 26.2626425 ], [ 82.876441, 26.2690058 ], [ 82.8709847, 26.2737444 ], [ 82.8802911, 26.2860287 ], [ 82.878569, 26.2914669 ], [ 82.8746388, 26.2919589 ], [ 82.8740481, 26.2956595 ], [ 82.8717448, 26.2985387 ], [ 82.872681, 26.3034128 ], [ 82.8698569, 26.3068425 ], [ 82.8720549, 26.3114143 ], [ 82.8681141, 26.3106108 ], [ 82.866121, 26.3138148 ], [ 82.8621501, 26.3119462 ], [ 82.8605519, 26.3192165 ], [ 82.8625498, 26.321103 ], [ 82.8634908, 26.3248308 ], [ 82.8736773, 26.3199844 ], [ 82.8822208, 26.3254133 ], [ 82.8915781, 26.341438 ], [ 82.8969032, 26.3456343 ], [ 82.8959369, 26.3485634 ], [ 82.8893507, 26.3534652 ], [ 82.8766022, 26.3570763 ], [ 82.8700499, 26.3568506 ], [ 82.872244, 26.3602849 ], [ 82.8757306, 26.3720547 ], [ 82.8795233, 26.373932 ], [ 82.8820335, 26.3769916 ], [ 82.8828754, 26.3797219 ], [ 82.8818886, 26.3826238 ], [ 82.8897003, 26.3855882 ], [ 82.8980632, 26.3859255 ], [ 82.899266, 26.3873785 ], [ 82.9025731, 26.387414 ], [ 82.9165748, 26.3925419 ], [ 82.9184796, 26.3944548 ], [ 82.9132192, 26.3977371 ], [ 82.9148986, 26.3997945 ], [ 82.9108858, 26.4038257 ], [ 82.9139401, 26.4107567 ], [ 82.9254173, 26.4117595 ] ] ] } }
]
}
