{
"type": "FeatureCollection",
"name": "0968",
"crs": { "type": "name", "properties": { "name": "urn:ogc:def:crs:OGC:1.3:CRS84" } },
"features": [
{ "type": "Feature", "properties": { "code": "0968", "name": "Sambhal", "type": "district" }, "geometry": { "type": "Polygon", "coordinates": [ [ [ 78.6118487, 28.8103756 ], [ 78.6172821, 28.8093205 ], [ 78.6222529, 28.8058236 ], [ 78.6247556, 28.8087769 ], [ 78.634955, 28.8006586 ], [ 78.6417039, 28.8039385 ], [ 78.6440333, 28.806646 ], [ 78.653028, 28.7968094 ], [ 78.6516126, 28.7946842 ], [ 78.6555694, 28.7930454 ], [ 78.6547427, 28.7915293 ], [ 78.6561157, 28.7896823 ], [ 78.6548002, 28.7877195 ], [ 78.6652766, 28.7807561 ], [ 78.6643602, 28.7800545 ], [ 78.6729074, 28.7733901 ], [ 78.6720575, 28.7727066 ], [ 78.6750454, 28.7709791 ], [ 78.6730182, 28.7686149 ], [ 78.6811541, 28.7638921 ], [ 78.6814973, 28.762047 ], [ 78.6771179, 28.756385 ], [ 78.6803023, 28.7541656 ], [ 78.6790277, 28.7525776 ], [ 78.6806276, 28.7510889 ], [ 78.6777552, 28.74856 ], [ 78.6778547, 28.7473218 ], [ 78.673761, 28.7499248 ], [ 78.6717856, 28.7484348 ], [ 78.6693525, 28.7493732 ], [ 78.6668437, 28.7484896 ], [ 78.6647164, 28.7459672 ], [ 78.6675544, 28.7440257 ], [ 78.6667537, 28.7407235 ], [ 78.6601971, 28.7315044 ], [ 78.66561, 28.7270783 ], [ 78.6602722, 28.7217083 ], [ 78.6613237, 28.7206308 ], [ 78.6593189, 28.7191166 ], [ 78.6622093, 28.7150495 ], [ 78.6599397, 28.7106444 ], [ 78.6624226, 28.7088077 ], [ 78.6589549, 28.7052552 ], [ 78.6585552, 28.702939 ], [ 78.6614644, 28.7021964 ], [ 78.6592124, 28.6983905 ], [ 78.6597381, 28.6965734 ], [ 78.6618101, 28.6965907 ], [ 78.6626795, 28.6953517 ], [ 78.6546982, 28.6834463 ], [ 78.6526471, 28.684205 ], [ 78.6474314, 28.6797026 ], [ 78.6463419, 28.6743242 ], [ 78.6451121, 28.6742094 ], [ 78.6428997, 28.6687124 ], [ 78.6440534, 28.667548 ], [ 78.6454357, 28.6692768 ], [ 78.6491753, 28.6686254 ], [ 78.6500303, 28.6711973 ], [ 78.6523656, 28.6703841 ], [ 78.6490982, 28.6629145 ], [ 78.6584088, 28.6589084 ], [ 78.6612765, 28.6562418 ], [ 78.6650796, 28.6561465 ], [ 78.6634667, 28.65266 ], [ 78.6702174, 28.6441431 ], [ 78.6828453, 28.6412182 ], [ 78.6873357, 28.6455532 ], [ 78.6920129, 28.6424314 ], [ 78.6956356, 28.6343709 ], [ 78.6945676, 28.6292903 ], [ 78.6961294, 28.6268003 ], [ 78.6889762, 28.614313 ], [ 78.6900574, 28.6124037 ], [ 78.694477, 28.6108137 ], [ 78.6996011, 28.6106144 ], [ 78.7003592, 28.6115828 ], [ 78.7037732, 28.6078453 ], [ 78.7065396, 28.6065622 ], [ 78.7080843, 28.6077554 ], [ 78.717463, 28.5978251 ], [ 78.7108902, 28.5897746 ], [ 78.7103963, 28.5884824 ], [ 78.7115052, 28.5879201 ], [ 78.7099212, 28.5854094 ], [ 78.7111325, 28.5822715 ], [ 78.7142628, 28.5819785 ], [ 78.7161796, 28.5802557 ], [ 78.7131372, 28.5765795 ], [ 78.7157803, 28.5740149 ], [ 78.7132228, 28.5719762 ], [ 78.7049452, 28.5792912 ], [ 78.7005374, 28.5808476 ], [ 78.6970062, 28.5796185 ], [ 78.6937075, 28.573834 ], [ 78.6958403, 28.5713049 ], [ 78.6922756, 28.5689608 ], [ 78.6902393, 28.5649228 ], [ 78.6949908, 28.5602681 ], [ 78.6885753, 28.5532367 ], [ 78.6870963, 28.5540759 ], [ 78.6836421, 28.5511237 ], [ 78.6821008, 28.547067 ], [ 78.6771589, 28.5493786 ], [ 78.6729167, 28.5456407 ], [ 78.6743819, 28.5435529 ], [ 78.6736629, 28.542057 ], [ 78.6791784, 28.5382045 ], [ 78.6757438, 28.5310962 ], [ 78.6712339, 28.5336218 ], [ 78.6685717, 28.5296965 ], [ 78.6749378, 28.5257457 ], [ 78.6734283, 28.5235433 ], [ 78.6764505, 28.5219529 ], [ 78.6864685, 28.5208747 ], [ 78.6881463, 28.5191242 ], [ 78.6950186, 28.5175981 ], [ 78.6986374, 28.5153264 ], [ 78.6997477, 28.5136245 ], [ 78.6983243, 28.5124575 ], [ 78.7127075, 28.5001351 ], [ 78.7101562, 28.4975978 ], [ 78.7110838, 28.4965744 ], [ 78.7067486, 28.4932562 ], [ 78.7095315, 28.4910934 ], [ 78.7126631, 28.4953999 ], [ 78.7142658, 28.4955719 ], [ 78.71467, 28.4992345 ], [ 78.7194532, 28.4989982 ], [ 78.7229957, 28.5023939 ], [ 78.724393, 28.5013322 ], [ 78.7265633, 28.5024326 ], [ 78.7322622, 28.5099896 ], [ 78.737223, 28.5093008 ], [ 78.7430748, 28.5159668 ], [ 78.7577862, 28.5281868 ], [ 78.7681335, 28.5278725 ], [ 78.7733642, 28.5357037 ], [ 78.770962, 28.5384077 ], [ 78.7763735, 28.5426275 ], [ 78.7777713, 28.5412382 ], [ 78.7788948, 28.5425582 ], [ 78.7847331, 28.5382171 ], [ 78.7949775, 28.5471245 ], [ 78.7957776, 28.5446839 ], [ 78.7977112, 28.5454533 ], [ 78.7986389, 28.5425615 ], [ 78.8000847, 28.5429857 ], [ 78.7990225, 28.5392321 ], [ 78.8031099, 28.5362504 ], [ 78.801649, 28.534317 ], [ 78.8027807, 28.5335795 ], [ 78.8033935, 28.5352872 ], [ 78.803547, 28.5335999 ], [ 78.8057156, 28.5335752 ], [ 78.8049723, 28.5323502 ], [ 78.8064385, 28.5328827 ], [ 78.8063134, 28.5302299 ], [ 78.8081218, 28.5303405 ], [ 78.8081704, 28.5288878 ], [ 78.8098256, 28.52799 ], [ 78.8094297, 28.5266682 ], [ 78.8081578, 28.5268779 ], [ 78.808901, 28.5246493 ], [ 78.813049, 28.5222717 ], [ 78.8171561, 28.5258154 ], [ 78.8197867, 28.5251295 ], [ 78.8209006, 28.5282672 ], [ 78.8192866, 28.5319464 ], [ 78.8225973, 28.535314 ], [ 78.823642, 28.5346666 ], [ 78.8261813, 28.5364732 ], [ 78.8278901, 28.5355572 ], [ 78.8343261, 28.543122 ], [ 78.8388979, 28.5398774 ], [ 78.8451648, 28.5418408 ], [ 78.8507484, 28.5402648 ], [ 78.8498794, 28.5389522 ], [ 78.8525634, 28.5371761 ], [ 78.8578992, 28.5361797 ], [ 78.8593953, 28.5345866 ], [ 78.8658569, 28.5425898 ], [ 78.8614537, 28.5447051 ], [ 78.862057, 28.5454651 ], [ 78.8597055, 28.5484615 ], [ 78.8646197, 28.5566616 ], [ 78.8658125, 28.5557702 ], [ 78.866181, 28.5570377 ], [ 78.8695735, 28.5563596 ], [ 78.8778293, 28.5515392 ], [ 78.8767395, 28.5496394 ], [ 78.877772, 28.5489903 ], [ 78.8730488, 28.5442696 ], [ 78.8777662, 28.5410116 ], [ 78.8841937, 28.5452979 ], [ 78.8878803, 28.5502868 ], [ 78.8865784, 28.5536023 ], [ 78.8899436, 28.5581646 ], [ 78.8896386, 28.5602194 ], [ 78.8918961, 28.5629271 ], [ 78.895741, 28.564011 ], [ 78.9030888, 28.5578098 ], [ 78.9008414, 28.5549918 ], [ 78.9013611, 28.5520865 ], [ 78.8977808, 28.5477027 ], [ 78.8998404, 28.5464378 ], [ 78.9033042, 28.5473049 ], [ 78.905923, 28.5463693 ], [ 78.9118815, 28.5528311 ], [ 78.9174303, 28.5534794 ], [ 78.9184367, 28.5548871 ], [ 78.9166147, 28.5570388 ], [ 78.9237242, 28.5627264 ], [ 78.9189356, 28.5655072 ], [ 78.91846, 28.5676207 ], [ 78.9212805, 28.5704295 ], [ 78.9205137, 28.5716859 ], [ 78.9362132, 28.5621225 ], [ 78.9378306, 28.5664941 ], [ 78.9367754, 28.5685604 ], [ 78.9493175, 28.5583999 ], [ 78.9510064, 28.5586885 ], [ 78.9564375, 28.5551441 ], [ 78.9558313, 28.5512259 ], [ 78.9588789, 28.5499014 ], [ 78.9573508, 28.5479166 ], [ 78.9584823, 28.5469713 ], [ 78.9559424, 28.5436963 ], [ 78.9577533, 28.5422523 ], [ 78.9564445, 28.5375041 ], [ 78.9544211, 28.5357607 ], [ 78.9484619, 28.5368757 ], [ 78.9444718, 28.5358812 ], [ 78.9436365, 28.5350331 ], [ 78.946949, 28.5304515 ], [ 78.9443794, 28.5293711 ], [ 78.9456462, 28.5286786 ], [ 78.9436283, 28.527156 ], [ 78.9527428, 28.5185541 ], [ 78.9514453, 28.5174016 ], [ 78.9594321, 28.508294 ], [ 78.9567883, 28.5051837 ], [ 78.9579219, 28.5039609 ], [ 78.9552913, 28.5013693 ], [ 78.9539786, 28.5003364 ], [ 78.9518211, 28.5017781 ], [ 78.9494409, 28.5001271 ], [ 78.9497467, 28.4940871 ], [ 78.9457041, 28.4880014 ], [ 78.9433142, 28.4870315 ], [ 78.941657, 28.4835419 ], [ 78.9422953, 28.4822944 ], [ 78.940891, 28.4820283 ], [ 78.9419428, 28.4785567 ], [ 78.935203, 28.4684396 ], [ 78.940487, 28.4628678 ], [ 78.941462, 28.4598947 ], [ 78.9350243, 28.4635175 ], [ 78.924651, 28.4585114 ], [ 78.9208139, 28.4626572 ], [ 78.9166605, 28.4645063 ], [ 78.9138657, 28.4622907 ], [ 78.9121809, 28.4627505 ], [ 78.9097783, 28.4651186 ], [ 78.9112354, 28.4669867 ], [ 78.9063177, 28.4710055 ], [ 78.8978661, 28.4618336 ], [ 78.894065, 28.4625634 ], [ 78.88945, 28.4679801 ], [ 78.8828259, 28.4722547 ], [ 78.8788399, 28.4695934 ], [ 78.8756367, 28.4641421 ], [ 78.8701777, 28.4657375 ], [ 78.8659144, 28.4652272 ], [ 78.8660833, 28.4609862 ], [ 78.8609077, 28.4577512 ], [ 78.8606235, 28.4557437 ], [ 78.8587627, 28.4555796 ], [ 78.8593467, 28.4486452 ], [ 78.8577941, 28.4470103 ], [ 78.8526621, 28.4481804 ], [ 78.8497567, 28.4529116 ], [ 78.8459829, 28.4486785 ], [ 78.8453834, 28.4495471 ], [ 78.8393969, 28.4447595 ], [ 78.8375956, 28.4465261 ], [ 78.8363293, 28.4452631 ], [ 78.8343288, 28.4467793 ], [ 78.8255097, 28.4388378 ], [ 78.823024, 28.4386283 ], [ 78.8122212, 28.4445592 ], [ 78.8060707, 28.4386151 ], [ 78.8008884, 28.4307353 ], [ 78.802999, 28.4274217 ], [ 78.8047193, 28.4202011 ], [ 78.7930145, 28.4094105 ], [ 78.7939282, 28.4076737 ], [ 78.7930278, 28.4064306 ], [ 78.7974855, 28.4019737 ], [ 78.7943553, 28.4015245 ], [ 78.794259, 28.3980527 ], [ 78.7871396, 28.3948304 ], [ 78.7847873, 28.3959894 ], [ 78.7833629, 28.3991359 ], [ 78.7813376, 28.3984227 ], [ 78.7795692, 28.4002428 ], [ 78.7729762, 28.4025893 ], [ 78.7711014, 28.4015849 ], [ 78.7668064, 28.4049627 ], [ 78.7668534, 28.4024791 ], [ 78.7617985, 28.3993147 ], [ 78.7596729, 28.3950617 ], [ 78.7693828, 28.3866194 ], [ 78.7636752, 28.3787448 ], [ 78.7603197, 28.3763839 ], [ 78.7614775, 28.374181 ], [ 78.7590771, 28.3718125 ], [ 78.7520035, 28.3681815 ], [ 78.7469533, 28.3720789 ], [ 78.7441712, 28.3723551 ], [ 78.7426967, 28.3712703 ], [ 78.7430601, 28.3687096 ], [ 78.7412057, 28.367293 ], [ 78.7368762, 28.3726848 ], [ 78.7349494, 28.3729378 ], [ 78.7336687, 28.3756329 ], [ 78.7287255, 28.3708513 ], [ 78.7297258, 28.3698912 ], [ 78.7264384, 28.3711312 ], [ 78.7209898, 28.3647878 ], [ 78.7196577, 28.3674103 ], [ 78.7172579, 28.3677089 ], [ 78.7155386, 28.3654668 ], [ 78.7112608, 28.3683347 ], [ 78.7084972, 28.3655752 ], [ 78.7070187, 28.3664362 ], [ 78.7029749, 28.3622035 ], [ 78.6981255, 28.36022 ], [ 78.6975752, 28.3586201 ], [ 78.698908, 28.3576283 ], [ 78.6927962, 28.3481048 ], [ 78.6880957, 28.3432666 ], [ 78.6869768, 28.3434982 ], [ 78.6817424, 28.339165 ], [ 78.6822666, 28.3382602 ], [ 78.6800911, 28.3351922 ], [ 78.6774624, 28.3343023 ], [ 78.6760331, 28.3358917 ], [ 78.6682369, 28.3368825 ], [ 78.6643153, 28.3337917 ], [ 78.6637677, 28.3318813 ], [ 78.6653498, 28.3293138 ], [ 78.6627061, 28.3267007 ], [ 78.6619915, 28.3274679 ], [ 78.6525118, 28.3180281 ], [ 78.6623312, 28.3087312 ], [ 78.655387, 28.3028707 ], [ 78.6573756, 28.3011722 ], [ 78.6560645, 28.3003422 ], [ 78.6572172, 28.2989248 ], [ 78.652078, 28.29496 ], [ 78.6494078, 28.2951483 ], [ 78.6435493, 28.2902215 ], [ 78.6428199, 28.287572 ], [ 78.6448835, 28.2850332 ], [ 78.6439165, 28.283985 ], [ 78.6480236, 28.2803318 ], [ 78.6464292, 28.2784444 ], [ 78.6478786, 28.2768683 ], [ 78.6468341, 28.2760775 ], [ 78.6513678, 28.2697249 ], [ 78.6392016, 28.2608084 ], [ 78.641606, 28.2584729 ], [ 78.6406096, 28.2545676 ], [ 78.6360527, 28.2514189 ], [ 78.6325272, 28.2440995 ], [ 78.6335692, 28.236962 ], [ 78.6353513, 28.235981 ], [ 78.6355513, 28.233644 ], [ 78.6311002, 28.2301781 ], [ 78.6307965, 28.2277704 ], [ 78.6363939, 28.2229865 ], [ 78.6365123, 28.2215679 ], [ 78.6323818, 28.2158142 ], [ 78.6170323, 28.2089436 ], [ 78.6170863, 28.205432 ], [ 78.6116567, 28.2033735 ], [ 78.609883, 28.1985342 ], [ 78.6066934, 28.1957304 ], [ 78.6016264, 28.1967383 ], [ 78.5997193, 28.1954231 ], [ 78.5918793, 28.1845129 ], [ 78.5923867, 28.1813766 ], [ 78.5944048, 28.179169 ], [ 78.5983564, 28.1799351 ], [ 78.5968946, 28.176318 ], [ 78.6041187, 28.1744304 ], [ 78.6020421, 28.1710707 ], [ 78.6055719, 28.1707251 ], [ 78.6103018, 28.1727761 ], [ 78.6119313, 28.1691576 ], [ 78.6110679, 28.1659976 ], [ 78.6014444, 28.1593791 ], [ 78.5929079, 28.1608832 ], [ 78.5872316, 28.1541313 ], [ 78.5859653, 28.1466201 ], [ 78.5780376, 28.1477952 ], [ 78.5746577, 28.1425764 ], [ 78.5744109, 28.1389298 ], [ 78.5766745, 28.1360913 ], [ 78.5831779, 28.140229 ], [ 78.5938644, 28.1330923 ], [ 78.581762, 28.1231043 ], [ 78.5890769, 28.1157509 ], [ 78.5851292, 28.1109922 ], [ 78.5797827, 28.1075508 ], [ 78.5804812, 28.104328 ], [ 78.5794935, 28.1029936 ], [ 78.5725818, 28.1031808 ], [ 78.5722411, 28.1022793 ], [ 78.5719679, 28.0989899 ], [ 78.5816095, 28.096799 ], [ 78.5830021, 28.0978077 ], [ 78.585607, 28.0953534 ], [ 78.5856942, 28.0920716 ], [ 78.5907311, 28.0900214 ], [ 78.5891079, 28.0863597 ], [ 78.5913135, 28.0846178 ], [ 78.5901011, 28.0836419 ], [ 78.5883145, 28.0758286 ], [ 78.5831741, 28.071148 ], [ 78.5802567, 28.0631821 ], [ 78.5736337, 28.0637736 ], [ 78.5711689, 28.0619308 ], [ 78.5651522, 28.0617405 ], [ 78.5571783, 28.0644255 ], [ 78.5461321, 28.0508779 ], [ 78.5400486, 28.04916 ], [ 78.5379856, 28.0457792 ], [ 78.5345986, 28.0457027 ], [ 78.5309429, 28.0438785 ], [ 78.5313194, 28.0502201 ], [ 78.5248788, 28.0557128 ], [ 78.5210404, 28.0563569 ], [ 78.5196762, 28.0594112 ], [ 78.519738, 28.0635364 ], [ 78.5223993, 28.0674288 ], [ 78.5126811, 28.0734946 ], [ 78.5071347, 28.0787909 ], [ 78.5155649, 28.0861876 ], [ 78.4907676, 28.1054015 ], [ 78.490262, 28.1089459 ], [ 78.4887988, 28.1095665 ], [ 78.4843041, 28.1078578 ], [ 78.4794453, 28.1135752 ], [ 78.4774759, 28.1130576 ], [ 78.4664847, 28.1230857 ], [ 78.4661969, 28.1277549 ], [ 78.4621709, 28.1308185 ], [ 78.4615421, 28.1457329 ], [ 78.4593608, 28.1496445 ], [ 78.4559968, 28.1523561 ], [ 78.4462717, 28.1524653 ], [ 78.4417996, 28.1570653 ], [ 78.4352696, 28.1599151 ], [ 78.4348443, 28.1652078 ], [ 78.4309725, 28.1676787 ], [ 78.4261394, 28.1692205 ], [ 78.4187712, 28.1695205 ], [ 78.4119233, 28.1723295 ], [ 78.3984244, 28.1850385 ], [ 78.3964697, 28.1909334 ], [ 78.3997073, 28.198539 ], [ 78.395916, 28.211134 ], [ 78.3934542, 28.2135793 ], [ 78.3880496, 28.2150776 ], [ 78.382221, 28.2188296 ], [ 78.3826388, 28.2224651 ], [ 78.3767333, 28.2251912 ], [ 78.3722935, 28.2319001 ], [ 78.3687484, 28.2349649 ], [ 78.3662413, 28.239271 ], [ 78.3668773, 28.2438224 ], [ 78.3654121, 28.2509186 ], [ 78.36749, 28.252321 ], [ 78.3675404, 28.2541887 ], [ 78.3588907, 28.2591379 ], [ 78.3549504, 28.2693335 ], [ 78.3521436, 28.2711495 ], [ 78.3464075, 28.2717639 ], [ 78.3349893, 28.2698551 ], [ 78.3208399, 28.2697065 ], [ 78.3162622, 28.2713927 ], [ 78.3129781, 28.2743078 ], [ 78.3088029, 28.281268 ], [ 78.3127891, 28.2845916 ], [ 78.3124095, 28.2886643 ], [ 78.3058078, 28.2959631 ], [ 78.3057289, 28.2999284 ], [ 78.3034719, 28.3025117 ], [ 78.3040972, 28.3051808 ], [ 78.303021, 28.3062962 ], [ 78.3028583, 28.3127518 ], [ 78.3008844, 28.3192764 ], [ 78.2874707, 28.3324117 ], [ 78.2837346, 28.3471415 ], [ 78.2694965, 28.357456 ], [ 78.2598891, 28.3670321 ], [ 78.258667, 28.3765549 ], [ 78.2605949, 28.3788877 ], [ 78.2656955, 28.3801955 ], [ 78.271943, 28.3744433 ], [ 78.2766139, 28.3807904 ], [ 78.2795906, 28.3895492 ], [ 78.2852488, 28.3932002 ], [ 78.2990525, 28.3968332 ], [ 78.303118, 28.4037583 ], [ 78.3073274, 28.4065646 ], [ 78.3080011, 28.4093885 ], [ 78.3114416, 28.4136445 ], [ 78.3120102, 28.4172466 ], [ 78.3100794, 28.4266838 ], [ 78.3037974, 28.4377342 ], [ 78.304575, 28.4383416 ], [ 78.3095644, 28.4398088 ], [ 78.3181568, 28.4331943 ], [ 78.3377303, 28.4366448 ], [ 78.3475278, 28.4464748 ], [ 78.3482923, 28.4495778 ], [ 78.36506, 28.4599885 ], [ 78.3724214, 28.4697284 ], [ 78.381083, 28.4717551 ], [ 78.3847909, 28.4695089 ], [ 78.3910284, 28.4755904 ], [ 78.3965712, 28.4728333 ], [ 78.3986811, 28.4742071 ], [ 78.4016791, 28.4737372 ], [ 78.40159, 28.4720505 ], [ 78.4044587, 28.4712757 ], [ 78.4038513, 28.4693879 ], [ 78.4055141, 28.4701984 ], [ 78.408875, 28.4673308 ], [ 78.4114133, 28.462317 ], [ 78.4161434, 28.4707838 ], [ 78.4246402, 28.4811182 ], [ 78.4247802, 28.486055 ], [ 78.4218592, 28.492804 ], [ 78.4198483, 28.4943929 ], [ 78.4224493, 28.4987049 ], [ 78.4217287, 28.5000563 ], [ 78.4236847, 28.5008753 ], [ 78.424989, 28.5057817 ], [ 78.4275041, 28.5077173 ], [ 78.4137525, 28.5191388 ], [ 78.4171744, 28.5220763 ], [ 78.4170309, 28.5240388 ], [ 78.4211652, 28.5288238 ], [ 78.4201843, 28.5297441 ], [ 78.4217753, 28.5316143 ], [ 78.42494, 28.5321425 ], [ 78.4327279, 28.538353 ], [ 78.4345388, 28.5415201 ], [ 78.428157, 28.5504481 ], [ 78.4230601, 28.5518259 ], [ 78.4223905, 28.5534613 ], [ 78.4255733, 28.5585528 ], [ 78.4297529, 28.5621059 ], [ 78.4279898, 28.5640637 ], [ 78.4291625, 28.5656902 ], [ 78.4273661, 28.5665112 ], [ 78.4283906, 28.5677722 ], [ 78.4274884, 28.5702783 ], [ 78.429259, 28.5727665 ], [ 78.4284974, 28.5746296 ], [ 78.4294096, 28.5755816 ], [ 78.4281956, 28.5770229 ], [ 78.4390895, 28.5857732 ], [ 78.4391713, 28.5885364 ], [ 78.4362425, 28.5912051 ], [ 78.424856, 28.5969047 ], [ 78.4274807, 28.5994178 ], [ 78.4294561, 28.6044865 ], [ 78.4330293, 28.607656 ], [ 78.4239134, 28.6142985 ], [ 78.4192862, 28.616089 ], [ 78.4166409, 28.6134698 ], [ 78.4120497, 28.6137465 ], [ 78.4120414, 28.6170218 ], [ 78.4100673, 28.6188643 ], [ 78.409134, 28.6374365 ], [ 78.4046118, 28.6463882 ], [ 78.3998804, 28.6490497 ], [ 78.40567, 28.6565052 ], [ 78.415134, 28.6642598 ], [ 78.4184133, 28.6607028 ], [ 78.4199252, 28.6613926 ], [ 78.4240952, 28.6711098 ], [ 78.4194404, 28.6748044 ], [ 78.4223321, 28.6819837 ], [ 78.4148816, 28.6867237 ], [ 78.4150032, 28.6876808 ], [ 78.4122302, 28.6874644 ], [ 78.4066956, 28.6895293 ], [ 78.4075563, 28.6911764 ], [ 78.4105488, 28.6915012 ], [ 78.4155463, 28.6977219 ], [ 78.4169653, 28.698002 ], [ 78.4131563, 28.7015448 ], [ 78.417757, 28.7070043 ], [ 78.4167983, 28.7082102 ], [ 78.4180022, 28.7095241 ], [ 78.4143389, 28.7153597 ], [ 78.4169355, 28.7169369 ], [ 78.4131489, 28.720062 ], [ 78.417637, 28.7292269 ], [ 78.4127961, 28.7311244 ], [ 78.409837, 28.7338677 ], [ 78.4091253, 28.7379612 ], [ 78.4141384, 28.7434366 ], [ 78.4103205, 28.7473324 ], [ 78.4177147, 28.7531907 ], [ 78.4190433, 28.7519819 ], [ 78.4220685, 28.7540868 ], [ 78.419795, 28.7574294 ], [ 78.4211018, 28.7658094 ], [ 78.4093392, 28.7736144 ], [ 78.4092, 28.7773476 ], [ 78.4063289, 28.7806875 ], [ 78.4073374, 28.7821133 ], [ 78.4123598, 28.7863618 ], [ 78.4141601, 28.7847899 ], [ 78.4164875, 28.7851828 ], [ 78.4216922, 28.7889684 ], [ 78.4222707, 28.7907663 ], [ 78.4298067, 28.7862826 ], [ 78.4304495, 28.7856601 ], [ 78.4289646, 28.7839998 ], [ 78.4362336, 28.7795203 ], [ 78.4426502, 28.7892106 ], [ 78.4457769, 28.7918111 ], [ 78.4521975, 28.7822804 ], [ 78.4582956, 28.7785757 ], [ 78.4592558, 28.7792072 ], [ 78.4602129, 28.7772762 ], [ 78.4632906, 28.7785929 ], [ 78.4651747, 28.7772302 ], [ 78.4680552, 28.7780889 ], [ 78.4706534, 28.7767033 ], [ 78.4745762, 28.7783106 ], [ 78.4756897, 28.7776651 ], [ 78.4747661, 28.7793233 ], [ 78.4763595, 28.7818447 ], [ 78.4831063, 28.7883681 ], [ 78.489602, 28.7824559 ], [ 78.491041, 28.7826561 ], [ 78.4915338, 28.780177 ], [ 78.4928025, 28.7826532 ], [ 78.5007579, 28.7761698 ], [ 78.5063511, 28.7827248 ], [ 78.5069627, 28.7876628 ], [ 78.5191004, 28.7803792 ], [ 78.5250819, 28.7873852 ], [ 78.5320767, 28.7851891 ], [ 78.5363527, 28.7890905 ], [ 78.5471933, 28.7841041 ], [ 78.5493624, 28.7898992 ], [ 78.5480743, 28.790573 ], [ 78.5492501, 28.7947917 ], [ 78.5512329, 28.7932619 ], [ 78.5552242, 28.794344 ], [ 78.5601362, 28.8003403 ], [ 78.5671987, 28.795943 ], [ 78.5731978, 28.8019466 ], [ 78.5771, 28.7997899 ], [ 78.5850394, 28.8056884 ], [ 78.5864077, 28.8043616 ], [ 78.5880681, 28.8056659 ], [ 78.5942232, 28.8018428 ], [ 78.603308, 28.8094992 ], [ 78.6083928, 28.8063576 ], [ 78.6118487, 28.8103756 ] ] ] } }
]
}
