{
"type": "FeatureCollection",
"name": "1001",
"crs": { "type": "name", "properties": { "name": "urn:ogc:def:crs:OGC:1.3:CRS84" } },
"features": [
{ "type": "Feature", "properties": { "code": "1001", "name": "Pashchim Champaran", "type": "district" }, "geometry": { "type": "Polygon", "coordinates": [ [ [ 84.1085512, 27.5216235 ], [ 84.1112637, 27.5193648 ], [ 84.1167021, 27.5191341 ], [ 84.1172583, 27.5133942 ], [ 84.1241881, 27.5108424 ], [ 84.1312878, 27.5125745 ], [ 84.1387227, 27.5177385 ], [ 84.1436392, 27.5169399 ], [ 84.1458568, 27.5186577 ], [ 84.1486175, 27.5166312 ], [ 84.1513726, 27.516673 ], [ 84.1500874, 27.5126795 ], [ 84.1518592, 27.5104377 ], [ 84.1494373, 27.5090527 ], [ 84.1497984, 27.504301 ], [ 84.1484378, 27.5030358 ], [ 84.1502145, 27.5008989 ], [ 84.1463346, 27.4988684 ], [ 84.144929, 27.4963631 ], [ 84.1474375, 27.4938845 ], [ 84.1491296, 27.4859083 ], [ 84.152162, 27.4866121 ], [ 84.1542794, 27.483978 ], [ 84.1628716, 27.4841577 ], [ 84.1669113, 27.4818696 ], [ 84.1669211, 27.4798397 ], [ 84.1709112, 27.4792183 ], [ 84.1719163, 27.477833 ], [ 84.1710001, 27.4754139 ], [ 84.1757609, 27.4741491 ], [ 84.1795002, 27.4757883 ], [ 84.1868969, 27.4700927 ], [ 84.1914451, 27.4700187 ], [ 84.1949786, 27.4735397 ], [ 84.199514, 27.4731105 ], [ 84.2017425, 27.4705085 ], [ 84.205425, 27.4704271 ], [ 84.2094652, 27.4656064 ], [ 84.2044893, 27.4593293 ], [ 84.2080023, 27.4562964 ], [ 84.206783, 27.45254 ], [ 84.2077016, 27.4490227 ], [ 84.2061353, 27.4467159 ], [ 84.2089274, 27.4426001 ], [ 84.2133577, 27.4411848 ], [ 84.220713, 27.4411754 ], [ 84.2206342, 27.4481069 ], [ 84.2236068, 27.4506145 ], [ 84.226831, 27.4511324 ], [ 84.2308339, 27.4562848 ], [ 84.2396983, 27.4524519 ], [ 84.2426541, 27.4545953 ], [ 84.2452639, 27.4543762 ], [ 84.2460702, 27.4530665 ], [ 84.254261, 27.4540498 ], [ 84.2555469, 27.4490807 ], [ 84.2600874, 27.4455746 ], [ 84.2585172, 27.4391946 ], [ 84.2618133, 27.4355303 ], [ 84.2669915, 27.4341187 ], [ 84.2679311, 27.4320251 ], [ 84.2734352, 27.4279918 ], [ 84.2724595, 27.4254226 ], [ 84.2733182, 27.4215109 ], [ 84.278339, 27.4158076 ], [ 84.2775032, 27.4091408 ], [ 84.2795632, 27.40666 ], [ 84.2762685, 27.4017361 ], [ 84.2767152, 27.3964468 ], [ 84.2831059, 27.3965255 ], [ 84.2856216, 27.3910562 ], [ 84.2923825, 27.3848116 ], [ 84.2953666, 27.384889 ], [ 84.2973005, 27.3888057 ], [ 84.3004942, 27.3906564 ], [ 84.3049517, 27.3878595 ], [ 84.3140038, 27.3851556 ], [ 84.3175161, 27.3819017 ], [ 84.3249795, 27.3801463 ], [ 84.3280731, 27.380655 ], [ 84.333107, 27.3772654 ], [ 84.337922, 27.3778406 ], [ 84.3474423, 27.3746084 ], [ 84.3571374, 27.3747727 ], [ 84.3643691, 27.373223 ], [ 84.3701225, 27.3742254 ], [ 84.3736059, 27.3766005 ], [ 84.3881004, 27.3719265 ], [ 84.3918849, 27.3679882 ], [ 84.3965549, 27.3704551 ], [ 84.3992614, 27.3692217 ], [ 84.4059234, 27.3704291 ], [ 84.4098624, 27.3684947 ], [ 84.4135442, 27.3707428 ], [ 84.4208781, 27.369685 ], [ 84.4244397, 27.3718215 ], [ 84.4360224, 27.3693175 ], [ 84.4404426, 27.3704803 ], [ 84.4441659, 27.3681714 ], [ 84.4468798, 27.3635081 ], [ 84.4573851, 27.3620944 ], [ 84.461362, 27.3594381 ], [ 84.4649029, 27.3594481 ], [ 84.4661833, 27.3565432 ], [ 84.4701385, 27.3547831 ], [ 84.4724911, 27.3554402 ], [ 84.4731406, 27.3583843 ], [ 84.4763568, 27.3623158 ], [ 84.485695, 27.3582718 ], [ 84.5099765, 27.3542984 ], [ 84.5138402, 27.3526736 ], [ 84.5185406, 27.3524496 ], [ 84.5204397, 27.3536762 ], [ 84.533848, 27.3502573 ], [ 84.5663878, 27.3472489 ], [ 84.5865611, 27.3410606 ], [ 84.6033985, 27.3380347 ], [ 84.6064297, 27.3356681 ], [ 84.6184518, 27.3377304 ], [ 84.6218932, 27.3369273 ], [ 84.6356651, 27.3180783 ], [ 84.6476221, 27.2986172 ], [ 84.6849954, 27.2313648 ], [ 84.6868368, 27.2238894 ], [ 84.6897334, 27.2226612 ], [ 84.6893528, 27.2191226 ], [ 84.6911444, 27.214822 ], [ 84.6875357, 27.2152089 ], [ 84.686891, 27.2132999 ], [ 84.6846981, 27.2128464 ], [ 84.6871765, 27.2089021 ], [ 84.6802608, 27.2001398 ], [ 84.68297, 27.1982169 ], [ 84.683506, 27.1962489 ], [ 84.6820052, 27.1883206 ], [ 84.6796887, 27.18517 ], [ 84.6818334, 27.1858342 ], [ 84.6811341, 27.1838807 ], [ 84.6839549, 27.1842976 ], [ 84.6845867, 27.1829361 ], [ 84.6834949, 27.1823018 ], [ 84.6857173, 27.1810492 ], [ 84.6848079, 27.1799544 ], [ 84.6818978, 27.1802477 ], [ 84.6815168, 27.1790192 ], [ 84.6834288, 27.1774919 ], [ 84.6756507, 27.1712375 ], [ 84.6761737, 27.1693455 ], [ 84.6798845, 27.1704405 ], [ 84.6811612, 27.1688901 ], [ 84.6804426, 27.1673605 ], [ 84.6775998, 27.1663906 ], [ 84.6771065, 27.1626268 ], [ 84.6817714, 27.1592379 ], [ 84.6846037, 27.1608529 ], [ 84.6867773, 27.1583668 ], [ 84.6823809, 27.153773 ], [ 84.6826376, 27.1524106 ], [ 84.680493, 27.1517549 ], [ 84.6834376, 27.1504776 ], [ 84.6834982, 27.1432125 ], [ 84.6798929, 27.1353456 ], [ 84.6775924, 27.1331638 ], [ 84.6793346, 27.1322457 ], [ 84.677974, 27.1293006 ], [ 84.6786062, 27.1262564 ], [ 84.6754203, 27.1230485 ], [ 84.676841, 27.1151867 ], [ 84.672399, 27.1139756 ], [ 84.6697692, 27.1095547 ], [ 84.6705973, 27.1071802 ], [ 84.6748598, 27.1088633 ], [ 84.6734721, 27.1060705 ], [ 84.675618, 27.1038053 ], [ 84.6740399, 27.0993247 ], [ 84.6744904, 27.0959057 ], [ 84.6728211, 27.0953847 ], [ 84.6697942, 27.098182 ], [ 84.6691942, 27.0954057 ], [ 84.6671688, 27.0933747 ], [ 84.6643785, 27.0945917 ], [ 84.6637939, 27.0923803 ], [ 84.6660967, 27.0929859 ], [ 84.6704218, 27.0911808 ], [ 84.6688388, 27.0896792 ], [ 84.6665689, 27.0905448 ], [ 84.66596, 27.087593 ], [ 84.6630422, 27.0893603 ], [ 84.6647194, 27.0863162 ], [ 84.6626793, 27.0870141 ], [ 84.6575783, 27.0826971 ], [ 84.6546444, 27.0838824 ], [ 84.6540981, 27.0818124 ], [ 84.6583205, 27.0810415 ], [ 84.6584513, 27.0798607 ], [ 84.6558749, 27.0792081 ], [ 84.6528507, 27.0806883 ], [ 84.6529345, 27.0775476 ], [ 84.6519443, 27.0784598 ], [ 84.6492618, 27.0771377 ], [ 84.6485878, 27.0746882 ], [ 84.6472033, 27.0761906 ], [ 84.6461599, 27.0756471 ], [ 84.6474213, 27.0710504 ], [ 84.64566, 27.0697971 ], [ 84.6448276, 27.0667495 ], [ 84.6431079, 27.0660054 ], [ 84.6453734, 27.0638281 ], [ 84.6428596, 27.0594324 ], [ 84.6452037, 27.0587268 ], [ 84.6444151, 27.0563778 ], [ 84.6464722, 27.0520553 ], [ 84.6461607, 27.0510129 ], [ 84.6430834, 27.0506257 ], [ 84.6444827, 27.0486719 ], [ 84.6429017, 27.048595 ], [ 84.6428327, 27.0473345 ], [ 84.6433942, 27.0461445 ], [ 84.6817162, 27.0315348 ], [ 84.7012669, 27.0269968 ], [ 84.7096154, 27.0213175 ], [ 84.7132783, 27.0217526 ], [ 84.7145367, 27.0200405 ], [ 84.7166944, 27.0197235 ], [ 84.7172879, 27.0172256 ], [ 84.7187571, 27.0175353 ], [ 84.7196272, 27.0150292 ], [ 84.7214919, 27.0140523 ], [ 84.7278151, 27.0133282 ], [ 84.7288133, 27.0147843 ], [ 84.7330421, 27.0142316 ], [ 84.7567402, 27.002846 ], [ 84.7583851, 27.0035623 ], [ 84.7602175, 27.0022943 ], [ 84.7598225, 26.9984733 ], [ 84.7543758, 26.9943304 ], [ 84.7517979, 26.988025 ], [ 84.7477403, 26.9870904 ], [ 84.7476048, 26.9849403 ], [ 84.74566, 26.9835371 ], [ 84.7449262, 26.9804026 ], [ 84.7463246, 26.9765762 ], [ 84.7445972, 26.9746134 ], [ 84.746791, 26.9724973 ], [ 84.7467257, 26.9708736 ], [ 84.7498881, 26.9684797 ], [ 84.7482586, 26.964137 ], [ 84.7450602, 26.9617122 ], [ 84.742963, 26.9616786 ], [ 84.7411702, 26.9595341 ], [ 84.7410473, 26.9544273 ], [ 84.7308619, 26.9538251 ], [ 84.7249247, 26.9565928 ], [ 84.7215088, 26.9546081 ], [ 84.7132081, 26.9475114 ], [ 84.71209, 26.9445423 ], [ 84.7130072, 26.9410061 ], [ 84.710516, 26.9424547 ], [ 84.707007, 26.9397129 ], [ 84.7011402, 26.9410342 ], [ 84.7005051, 26.9398326 ], [ 84.6990262, 26.9400206 ], [ 84.6992322, 26.9375603 ], [ 84.7008626, 26.9368559 ], [ 84.6987027, 26.9373576 ], [ 84.6965343, 26.9358016 ], [ 84.6973159, 26.934005 ], [ 84.699143, 26.9355103 ], [ 84.6980011, 26.9339801 ], [ 84.6987884, 26.9296658 ], [ 84.6967813, 26.9281079 ], [ 84.699729, 26.9284628 ], [ 84.6980564, 26.9265449 ], [ 84.7002887, 26.9256879 ], [ 84.6980047, 26.9226501 ], [ 84.6998844, 26.9210518 ], [ 84.6960183, 26.919581 ], [ 84.6951885, 26.9168195 ], [ 84.696678, 26.9173356 ], [ 84.6952032, 26.9151051 ], [ 84.6963964, 26.9143485 ], [ 84.6917275, 26.9137578 ], [ 84.6890073, 26.9111459 ], [ 84.6865078, 26.9115426 ], [ 84.6896736, 26.9147575 ], [ 84.6899598, 26.9214627 ], [ 84.6869981, 26.9229935 ], [ 84.6782497, 26.914182 ], [ 84.6831617, 26.9114967 ], [ 84.6802793, 26.9045277 ], [ 84.6814509, 26.9026067 ], [ 84.6798284, 26.8995028 ], [ 84.6813455, 26.8976687 ], [ 84.6805709, 26.8901449 ], [ 84.6817621, 26.8900816 ], [ 84.6848456, 26.8940939 ], [ 84.6866468, 26.8926298 ], [ 84.6843297, 26.8897808 ], [ 84.6882093, 26.8915229 ], [ 84.6864678, 26.8851186 ], [ 84.688832, 26.8841692 ], [ 84.6888741, 26.8776498 ], [ 84.6915886, 26.8755509 ], [ 84.7020447, 26.8742819 ], [ 84.7026153, 26.8682133 ], [ 84.703856, 26.8665684 ], [ 84.714285, 26.8603527 ], [ 84.7188276, 26.8558552 ], [ 84.7182877, 26.8546823 ], [ 84.7109527, 26.8549427 ], [ 84.7195424, 26.8470543 ], [ 84.7158002, 26.8445302 ], [ 84.7157338, 26.8420744 ], [ 84.7187085, 26.8407282 ], [ 84.719429, 26.8456852 ], [ 84.7262675, 26.8488412 ], [ 84.7288142, 26.8447489 ], [ 84.7282959, 26.8429943 ], [ 84.7315463, 26.844716 ], [ 84.7336727, 26.8430174 ], [ 84.7337907, 26.8403796 ], [ 84.7314685, 26.8365069 ], [ 84.7352225, 26.8351593 ], [ 84.7349527, 26.8333004 ], [ 84.7251961, 26.8334912 ], [ 84.7260336, 26.8245523 ], [ 84.7244982, 26.8241215 ], [ 84.7204499, 26.8268675 ], [ 84.7195512, 26.8252827 ], [ 84.7254872, 26.8211864 ], [ 84.7409105, 26.8210094 ], [ 84.7412386, 26.8186682 ], [ 84.7444767, 26.8166713 ], [ 84.743721, 26.8075985 ], [ 84.7373791, 26.7980078 ], [ 84.7329647, 26.7939438 ], [ 84.7317983, 26.7994978 ], [ 84.7292331, 26.7997861 ], [ 84.7214967, 26.7896174 ], [ 84.7164819, 26.7794245 ], [ 84.7174604, 26.7692109 ], [ 84.7189898, 26.7663838 ], [ 84.7221852, 26.7657132 ], [ 84.7180248, 26.7555658 ], [ 84.7264647, 26.7527549 ], [ 84.7261304, 26.7508634 ], [ 84.7233926, 26.7510405 ], [ 84.7227914, 26.7500054 ], [ 84.7223484, 26.7446245 ], [ 84.7278446, 26.7432315 ], [ 84.7273941, 26.7419997 ], [ 84.7128271, 26.7409506 ], [ 84.7093513, 26.7374562 ], [ 84.7071703, 26.737645 ], [ 84.7045099, 26.7357255 ], [ 84.7018179, 26.72979 ], [ 84.7037861, 26.7238049 ], [ 84.7008381, 26.7150685 ], [ 84.6971775, 26.7175032 ], [ 84.6964501, 26.720554 ], [ 84.6948322, 26.7153584 ], [ 84.6907786, 26.7136294 ], [ 84.6886346, 26.7066363 ], [ 84.6827543, 26.7031666 ], [ 84.6795653, 26.6983848 ], [ 84.6716793, 26.7006215 ], [ 84.6692303, 26.6964196 ], [ 84.6644039, 26.6924519 ], [ 84.6631577, 26.6894753 ], [ 84.6594569, 26.6897395 ], [ 84.659251, 26.6860396 ], [ 84.6564567, 26.6812773 ], [ 84.6523839, 26.6787111 ], [ 84.6432395, 26.6792553 ], [ 84.6409171, 26.6806519 ], [ 84.6389301, 26.6838858 ], [ 84.6400856, 26.6888935 ], [ 84.6367388, 26.692226 ], [ 84.6285119, 26.6910689 ], [ 84.6190399, 26.6928806 ], [ 84.6093616, 26.6926058 ], [ 84.611322, 26.6903982 ], [ 84.6104787, 26.6879889 ], [ 84.6090386, 26.6875542 ], [ 84.6059038, 26.689148 ], [ 84.6030136, 26.6936647 ], [ 84.6002864, 26.6946521 ], [ 84.5960896, 26.6930488 ], [ 84.5939, 26.6878308 ], [ 84.5998263, 26.6873733 ], [ 84.6014807, 26.6845305 ], [ 84.5980965, 26.6762651 ], [ 84.5958921, 26.6746794 ], [ 84.5918011, 26.6749663 ], [ 84.5878596, 26.6735418 ], [ 84.58596, 26.6676401 ], [ 84.5807691, 26.6678176 ], [ 84.5774911, 26.6706255 ], [ 84.5440825, 26.6532541 ], [ 84.5413645, 26.6475554 ], [ 84.533849, 26.6401339 ], [ 84.5308649, 26.639568 ], [ 84.531647, 26.6362975 ], [ 84.5272149, 26.6280796 ], [ 84.5210529, 26.6283723 ], [ 84.5199653, 26.6246209 ], [ 84.5220598, 26.6213859 ], [ 84.5199743, 26.6156565 ], [ 84.5228873, 26.6088256 ], [ 84.5261213, 26.6061761 ], [ 84.5257877, 26.6005453 ], [ 84.5243549, 26.5988826 ], [ 84.5226907, 26.5990724 ], [ 84.5217775, 26.602214 ], [ 84.5192139, 26.6025968 ], [ 84.5136638, 26.5971999 ], [ 84.5051318, 26.6024004 ], [ 84.4961714, 26.6007377 ], [ 84.4857242, 26.6042983 ], [ 84.4840928, 26.6150845 ], [ 84.4737229, 26.6164212 ], [ 84.4684203, 26.6208342 ], [ 84.4634757, 26.6228802 ], [ 84.4609768, 26.621473 ], [ 84.4576812, 26.6218157 ], [ 84.4553065, 26.6252248 ], [ 84.4570813, 26.6309956 ], [ 84.4416564, 26.6180451 ], [ 84.4236584, 26.5982336 ], [ 84.4203762, 26.5968883 ], [ 84.4176647, 26.5875674 ], [ 84.4131438, 26.5821839 ], [ 84.4081216, 26.5865998 ], [ 84.4131134, 26.59737 ], [ 84.4177843, 26.6036902 ], [ 84.4228463, 26.6078155 ], [ 84.4250968, 26.6122102 ], [ 84.4291366, 26.6095581 ], [ 84.4324601, 26.613566 ], [ 84.4264424, 26.6180187 ], [ 84.4268207, 26.6304826 ], [ 84.4290049, 26.6351738 ], [ 84.4150647, 26.6348893 ], [ 84.4132676, 26.6373291 ], [ 84.4097817, 26.6467447 ], [ 84.4112214, 26.6503623 ], [ 84.4104108, 26.6702489 ], [ 84.4063027, 26.6709228 ], [ 84.4051551, 26.6730314 ], [ 84.4039131, 26.6717725 ], [ 84.3765783, 26.6774961 ], [ 84.3501845, 26.6780481 ], [ 84.3449129, 26.6792805 ], [ 84.3430422, 26.6809012 ], [ 84.3350318, 26.6815496 ], [ 84.3300556, 26.6840999 ], [ 84.3258581, 26.7141489 ], [ 84.3242421, 26.7151561 ], [ 84.3181053, 26.7319854 ], [ 84.3146759, 26.7353086 ], [ 84.3142113, 26.7390443 ], [ 84.3058652, 26.7494879 ], [ 84.2910507, 26.7488715 ], [ 84.2857944, 26.7499349 ], [ 84.2756778, 26.7419721 ], [ 84.2662898, 26.7399507 ], [ 84.2563087, 26.7268598 ], [ 84.2524042, 26.7273165 ], [ 84.2488765, 26.7296438 ], [ 84.240669, 26.7387233 ], [ 84.2394816, 26.7429498 ], [ 84.2325764, 26.7536669 ], [ 84.247924, 26.770629 ], [ 84.2571734, 26.7893768 ], [ 84.2600021, 26.8069942 ], [ 84.2542051, 26.8124263 ], [ 84.2568154, 26.8182334 ], [ 84.2503631, 26.8193307 ], [ 84.2540943, 26.8257776 ], [ 84.2606793, 26.8294197 ], [ 84.2601793, 26.8345214 ], [ 84.2618108, 26.8425786 ], [ 84.2569283, 26.8492193 ], [ 84.2540946, 26.8565944 ], [ 84.2439286, 26.8629675 ], [ 84.2340129, 26.8683042 ], [ 84.2194857, 26.8715995 ], [ 84.2061056, 26.8617174 ], [ 84.1978638, 26.8595515 ], [ 84.1930301, 26.8607542 ], [ 84.190126, 26.8584724 ], [ 84.1833039, 26.8475111 ], [ 84.1867916, 26.8416439 ], [ 84.1817425, 26.8334792 ], [ 84.1776026, 26.8323935 ], [ 84.1660956, 26.8337689 ], [ 84.1562185, 26.8375616 ], [ 84.1491729, 26.8425804 ], [ 84.1459746, 26.8462763 ], [ 84.1458391, 26.8480992 ], [ 84.1406083, 26.8526525 ], [ 84.1403739, 26.867601 ], [ 84.1423266, 26.8715262 ], [ 84.1470913, 26.872446 ], [ 84.1435146, 26.8796059 ], [ 84.1477121, 26.8822777 ], [ 84.1464082, 26.8854244 ], [ 84.141527, 26.8871218 ], [ 84.1399968, 26.8846265 ], [ 84.1354725, 26.8833317 ], [ 84.1312755, 26.8844511 ], [ 84.1300311, 26.8866738 ], [ 84.1307072, 26.8900739 ], [ 84.1290012, 26.8932011 ], [ 84.1179545, 26.8877137 ], [ 84.1163608, 26.8891209 ], [ 84.1158654, 26.8949382 ], [ 84.110415, 26.8985988 ], [ 84.1075769, 26.896929 ], [ 84.1067631, 26.8877378 ], [ 84.1044999, 26.881908 ], [ 84.0981361, 26.8759375 ], [ 84.0964908, 26.8762349 ], [ 84.0943308, 26.8816174 ], [ 84.0873618, 26.8816923 ], [ 84.0842085, 26.8774367 ], [ 84.0814111, 26.8773727 ], [ 84.0782153, 26.879041 ], [ 84.0752146, 26.8834213 ], [ 84.0669851, 26.8884942 ], [ 84.0605042, 26.8878326 ], [ 84.0610874, 26.8946172 ], [ 84.0582671, 26.9015616 ], [ 84.055277, 26.9026296 ], [ 84.0523679, 26.9064133 ], [ 84.0530907, 26.9096042 ], [ 84.0590917, 26.9164571 ], [ 84.0599718, 26.9201891 ], [ 84.0562058, 26.9231055 ], [ 84.0533576, 26.9296691 ], [ 84.0432332, 26.9317932 ], [ 84.0465352, 26.9391632 ], [ 84.043111, 26.9404968 ], [ 84.0349724, 26.9381998 ], [ 84.0321357, 26.9411849 ], [ 84.0349063, 26.9452069 ], [ 84.042009, 26.9467994 ], [ 84.0459722, 26.9524507 ], [ 84.0527978, 26.9549811 ], [ 84.0548339, 26.9600626 ], [ 84.0529963, 26.967502 ], [ 84.0537871, 26.9752314 ], [ 84.04576, 26.9822387 ], [ 84.0478485, 26.9845951 ], [ 84.0539974, 26.9851669 ], [ 84.0566992, 26.9896621 ], [ 84.0525609, 26.9947044 ], [ 84.0528063, 26.9969515 ], [ 84.0458964, 27.0050032 ], [ 84.0437542, 27.0065768 ], [ 84.0398346, 27.006773 ], [ 84.0373089, 27.0090774 ], [ 84.0442457, 27.0167212 ], [ 84.0441302, 27.0231831 ], [ 84.0495287, 27.0350224 ], [ 84.0495031, 27.0432712 ], [ 84.0471378, 27.0457608 ], [ 84.0390757, 27.0440414 ], [ 84.0313185, 27.0456293 ], [ 84.0281806, 27.0494718 ], [ 84.0180041, 27.0560211 ], [ 84.0118895, 27.056982 ], [ 84.005601, 27.0602303 ], [ 84.0000627, 27.0685871 ], [ 84.0002125, 27.069756 ], [ 84.0039609, 27.0715191 ], [ 84.0165979, 27.0717957 ], [ 84.0204772, 27.0794112 ], [ 84.0240146, 27.0810156 ], [ 84.0286231, 27.0860277 ], [ 84.0287732, 27.0872236 ], [ 84.0251256, 27.0903077 ], [ 84.0249421, 27.092478 ], [ 84.0303709, 27.0938355 ], [ 84.0303374, 27.0976304 ], [ 84.0239672, 27.1001169 ], [ 84.0220123, 27.1041271 ], [ 84.0164444, 27.1054224 ], [ 84.0087663, 27.0992387 ], [ 84.0031972, 27.1018602 ], [ 83.9999854, 27.1002922 ], [ 83.9892596, 27.0908525 ], [ 83.9855581, 27.0900163 ], [ 83.9783998, 27.0907617 ], [ 83.9669825, 27.087119 ], [ 83.9644039, 27.0841244 ], [ 83.9528397, 27.0849256 ], [ 83.9494682, 27.0867007 ], [ 83.9464712, 27.0908222 ], [ 83.9476749, 27.1124949 ], [ 83.9521873, 27.1186159 ], [ 83.9595171, 27.1220682 ], [ 83.9628045, 27.1276931 ], [ 83.9590642, 27.1368783 ], [ 83.9753621, 27.1558198 ], [ 83.9787352, 27.1648737 ], [ 83.9868167, 27.1694792 ], [ 83.9884434, 27.1716033 ], [ 83.9932684, 27.1731741 ], [ 83.9941836, 27.1751723 ], [ 83.9933882, 27.1816393 ], [ 83.988819, 27.1884251 ], [ 83.986956, 27.1975281 ], [ 83.9789077, 27.203829 ], [ 83.9745234, 27.2052627 ], [ 83.9717706, 27.2084458 ], [ 83.9674665, 27.2095091 ], [ 83.9675249, 27.2130648 ], [ 83.9727431, 27.2181919 ], [ 83.9701839, 27.223992 ], [ 83.9625439, 27.2266368 ], [ 83.9633177, 27.2285135 ], [ 83.9608112, 27.2314751 ], [ 83.9534137, 27.2362467 ], [ 83.9482624, 27.2378222 ], [ 83.9324003, 27.2393592 ], [ 83.9232992, 27.2417767 ], [ 83.919302, 27.2445442 ], [ 83.9120981, 27.2457555 ], [ 83.905072, 27.2576158 ], [ 83.9050191, 27.2734865 ], [ 83.9068078, 27.2756387 ], [ 83.9125808, 27.2775598 ], [ 83.9298315, 27.2926857 ], [ 83.9340738, 27.2997463 ], [ 83.9342047, 27.3065331 ], [ 83.9324704, 27.311389 ], [ 83.9254752, 27.321413 ], [ 83.9166323, 27.3265366 ], [ 83.9007589, 27.3256908 ], [ 83.87144, 27.3072423 ], [ 83.8593381, 27.3080655 ], [ 83.8526609, 27.3172918 ], [ 83.8454224, 27.3151831 ], [ 83.8365719, 27.3222151 ], [ 83.862341, 27.3356847 ], [ 83.8635789, 27.3375348 ], [ 83.8639437, 27.3472335 ], [ 83.8720126, 27.3577841 ], [ 83.8802069, 27.3653355 ], [ 83.8832502, 27.3742381 ], [ 83.8825052, 27.3785782 ], [ 83.8782039, 27.3844849 ], [ 83.8747093, 27.3873407 ], [ 83.8644704, 27.3912334 ], [ 83.859901, 27.3948356 ], [ 83.8560266, 27.4048833 ], [ 83.8430416, 27.4141851 ], [ 83.8331125, 27.4250825 ], [ 83.8330731, 27.42932 ], [ 83.8372962, 27.4316092 ], [ 83.8429923, 27.4417127 ], [ 83.8472592, 27.4456363 ], [ 83.8504714, 27.4467774 ], [ 83.8556807, 27.4458085 ], [ 83.8648209, 27.4386539 ], [ 83.8754931, 27.4353895 ], [ 83.8912276, 27.4388675 ], [ 83.9138788, 27.4408995 ], [ 83.933476, 27.4504712 ], [ 83.9346363, 27.4483306 ], [ 83.9409317, 27.4484465 ], [ 83.9460431, 27.4409007 ], [ 83.9516057, 27.4426266 ], [ 83.9572865, 27.4425958 ], [ 83.9673142, 27.4460977 ], [ 83.9734283, 27.4418738 ], [ 83.9754901, 27.4430565 ], [ 83.9777002, 27.4418927 ], [ 83.9780845, 27.4396888 ], [ 83.9846039, 27.4438414 ], [ 83.9874569, 27.4433192 ], [ 83.9966868, 27.4460504 ], [ 83.9983775, 27.4410529 ], [ 83.9994919, 27.4422567 ], [ 84.0013509, 27.4400287 ], [ 84.0024457, 27.4424018 ], [ 84.0052824, 27.4424577 ], [ 84.0054854, 27.439824 ], [ 84.0084102, 27.4402695 ], [ 84.008824, 27.4380064 ], [ 84.0124086, 27.4385029 ], [ 84.0158128, 27.4348781 ], [ 84.0196193, 27.4361633 ], [ 84.0218742, 27.4333345 ], [ 84.0269271, 27.4335408 ], [ 84.0274084, 27.4358376 ], [ 84.0257427, 27.4381926 ], [ 84.0274158, 27.4396757 ], [ 84.0312147, 27.4385918 ], [ 84.0320864, 27.4416393 ], [ 84.0361325, 27.440778 ], [ 84.039108, 27.4427512 ], [ 84.0515732, 27.4430943 ], [ 84.0555024, 27.4499942 ], [ 84.0611563, 27.4527133 ], [ 84.0601392, 27.4543724 ], [ 84.0620962, 27.4567107 ], [ 84.0601268, 27.4579546 ], [ 84.0590846, 27.4615739 ], [ 84.0624046, 27.4642832 ], [ 84.0616558, 27.4666879 ], [ 84.0663002, 27.4693294 ], [ 84.0694853, 27.4805828 ], [ 84.0711865, 27.4816183 ], [ 84.074528, 27.480614 ], [ 84.0745269, 27.4824749 ], [ 84.0779779, 27.4842251 ], [ 84.0846225, 27.4833065 ], [ 84.0854528, 27.4846684 ], [ 84.0895042, 27.4859356 ], [ 84.0913092, 27.4890758 ], [ 84.0948379, 27.4890191 ], [ 84.0986919, 27.5025666 ], [ 84.0971342, 27.5049037 ], [ 84.0986834, 27.5055757 ], [ 84.0998542, 27.5104484 ], [ 84.0976967, 27.5170927 ], [ 84.1004389, 27.5175176 ], [ 84.1049815, 27.52105 ], [ 84.1085512, 27.5216235 ] ] ] } }
]
}
