{
"type": "FeatureCollection",
"name": "1002",
"crs": { "type": "name", "properties": { "name": "urn:ogc:def:crs:OGC:1.3:CRS84" } },
"features": [
{ "type": "Feature", "properties": { "code": "1002", "name": "Purba Champaran", "type": "district" }, "geometry": { "type": "Polygon", "coordinates": [ [ [ 84.8167412, 27.0205827 ], [ 84.8294513, 27.0195724 ], [ 84.8365744, 27.0149775 ], [ 84.8550473, 27.0076875 ], [ 84.8554709, 27.0069849 ], [ 84.852067, 27.0056266 ], [ 84.8513339, 27.0022942 ], [ 84.852718, 27.0011822 ], [ 84.8496196, 26.997703 ], [ 84.8537854, 26.9988772 ], [ 84.8577751, 26.9976249 ], [ 84.8566924, 26.9963486 ], [ 84.8578011, 26.9954239 ], [ 84.8576112, 26.992596 ], [ 84.8550553, 26.9933923 ], [ 84.8574463, 26.9904515 ], [ 84.8555469, 26.9881051 ], [ 84.8557088, 26.9863872 ], [ 84.8587905, 26.9891693 ], [ 84.8588339, 26.9880029 ], [ 84.8619934, 26.9872279 ], [ 84.8647597, 26.9842435 ], [ 84.8691051, 26.9839631 ], [ 84.8691131, 26.982862 ], [ 84.8744354, 26.9809817 ], [ 84.8880145, 26.9776214 ], [ 84.8906083, 26.9745254 ], [ 84.8902012, 26.9713875 ], [ 84.8915757, 26.9696751 ], [ 84.8926549, 26.9696498 ], [ 84.8919845, 26.9727771 ], [ 84.8965566, 26.9730636 ], [ 84.8989611, 26.9701414 ], [ 84.9102512, 26.9679358 ], [ 84.9168817, 26.9690789 ], [ 84.9240304, 26.9675675 ], [ 84.9298457, 26.9686907 ], [ 84.9535743, 26.9600255 ], [ 84.9612611, 26.9607337 ], [ 84.9647158, 26.9579461 ], [ 84.9662104, 26.958097 ], [ 84.9654106, 26.9567181 ], [ 84.967504, 26.9554242 ], [ 84.9785082, 26.940086 ], [ 84.9751693, 26.9392578 ], [ 84.9784055, 26.9361373 ], [ 84.9769092, 26.9322759 ], [ 84.97443, 26.9320731 ], [ 84.9703337, 26.9289525 ], [ 84.972064, 26.9261865 ], [ 84.9696276, 26.9247572 ], [ 84.9719585, 26.9216056 ], [ 84.9704261, 26.9199999 ], [ 84.9710083, 26.9172303 ], [ 84.9680638, 26.9161446 ], [ 85.0000629, 26.9118773 ], [ 85.0014309, 26.909803 ], [ 85.0007232, 26.9058505 ], [ 85.0022685, 26.9037273 ], [ 84.9954217, 26.9064621 ], [ 84.9934763, 26.905641 ], [ 84.9928355, 26.9030028 ], [ 85.0033404, 26.8954441 ], [ 85.0197464, 26.8931068 ], [ 85.0227104, 26.8916053 ], [ 85.0508323, 26.8894652 ], [ 85.0530707, 26.8889966 ], [ 85.0524027, 26.8859424 ], [ 85.0550958, 26.8864059 ], [ 85.0593767, 26.8849318 ], [ 85.0611973, 26.8865852 ], [ 85.0561896, 26.8810615 ], [ 85.0548308, 26.884309 ], [ 85.0518383, 26.8829327 ], [ 85.0493258, 26.8845631 ], [ 85.050786, 26.8818289 ], [ 85.0535301, 26.881991 ], [ 85.0533896, 26.8805875 ], [ 85.0470385, 26.8781392 ], [ 85.0444206, 26.8791733 ], [ 85.042658, 26.877246 ], [ 85.0426669, 26.8741318 ], [ 85.0386905, 26.8774899 ], [ 85.0384794, 26.8750366 ], [ 85.0368535, 26.8740579 ], [ 85.0308582, 26.8743639 ], [ 85.0298374, 26.8702441 ], [ 85.0320603, 26.8669882 ], [ 85.0285367, 26.8664338 ], [ 85.0288544, 26.8633698 ], [ 85.026682, 26.8624095 ], [ 85.02724, 26.8611348 ], [ 85.0284445, 26.862319 ], [ 85.03048, 26.8618479 ], [ 85.0308086, 26.8585273 ], [ 85.0238261, 26.8554445 ], [ 85.0239702, 26.8543773 ], [ 85.0575079, 26.8490504 ], [ 85.058635, 26.8504356 ], [ 85.057248, 26.8517 ], [ 85.0580113, 26.8558551 ], [ 85.0610354, 26.8539551 ], [ 85.0627762, 26.8555471 ], [ 85.0614097, 26.8567945 ], [ 85.0633139, 26.8581814 ], [ 85.0626819, 26.8563849 ], [ 85.0650765, 26.8563291 ], [ 85.0617857, 26.8535108 ], [ 85.0641252, 26.8495348 ], [ 85.066015, 26.8505874 ], [ 85.0666001, 26.8537318 ], [ 85.0761345, 26.8554907 ], [ 85.0765732, 26.8566808 ], [ 85.0781098, 26.8555015 ], [ 85.0787135, 26.8562308 ], [ 85.0769894, 26.8581592 ], [ 85.0782164, 26.8586577 ], [ 85.0799345, 26.8563746 ], [ 85.0817041, 26.8568261 ], [ 85.081606, 26.8551999 ], [ 85.083651, 26.8562763 ], [ 85.0838804, 26.8535326 ], [ 85.0846069, 26.8553012 ], [ 85.087533, 26.8564445 ], [ 85.0870139, 26.8589061 ], [ 85.0898734, 26.8596554 ], [ 85.0862079, 26.8634958 ], [ 85.0864643, 26.8668061 ], [ 85.0891703, 26.8672518 ], [ 85.0887766, 26.8682085 ], [ 85.0897666, 26.8676636 ], [ 85.0902459, 26.8688829 ], [ 85.0960263, 26.8669418 ], [ 85.0998786, 26.8710633 ], [ 85.1095149, 26.8709207 ], [ 85.1111718, 26.8722043 ], [ 85.1238063, 26.8714125 ], [ 85.1349717, 26.8677281 ], [ 85.1399533, 26.8711208 ], [ 85.1532561, 26.8706792 ], [ 85.1651312, 26.868607 ], [ 85.1898368, 26.8700415 ], [ 85.1919216, 26.8687786 ], [ 85.1930584, 26.860987 ], [ 85.1909221, 26.847515 ], [ 85.1928133, 26.8385127 ], [ 85.1912132, 26.8308159 ], [ 85.1892547, 26.8275286 ], [ 85.1770338, 26.8149618 ], [ 85.1767359, 26.8096225 ], [ 85.1825549, 26.8003344 ], [ 85.1793985, 26.7980261 ], [ 85.1813449, 26.7950135 ], [ 85.1865531, 26.7953105 ], [ 85.1865567, 26.790896 ], [ 85.1927024, 26.7907386 ], [ 85.194673, 26.7842961 ], [ 85.1915, 26.782068 ], [ 85.1972605, 26.76967 ], [ 85.201063, 26.768662 ], [ 85.2067124, 26.7609143 ], [ 85.2126206, 26.7579978 ], [ 85.2324949, 26.7624001 ], [ 85.2399944, 26.7619583 ], [ 85.2544337, 26.7580729 ], [ 85.2540059, 26.7523273 ], [ 85.258375, 26.7514282 ], [ 85.2557156, 26.7409049 ], [ 85.251681, 26.7358615 ], [ 85.25949, 26.7305747 ], [ 85.258484, 26.72654 ], [ 85.2609503, 26.7223588 ], [ 85.2590233, 26.7200968 ], [ 85.2564651, 26.7209928 ], [ 85.2556388, 26.7184382 ], [ 85.2582184, 26.7161569 ], [ 85.2580477, 26.7112068 ], [ 85.260928, 26.7096295 ], [ 85.2595162, 26.7046875 ], [ 85.2615263, 26.6990981 ], [ 85.2603384, 26.6964213 ], [ 85.2609436, 26.6940754 ], [ 85.2592189, 26.6908884 ], [ 85.2577743, 26.6937888 ], [ 85.255649, 26.69427 ], [ 85.252921, 26.6853649 ], [ 85.2465979, 26.6845763 ], [ 85.23951, 26.6791111 ], [ 85.236874, 26.6685466 ], [ 85.2391447, 26.6643003 ], [ 85.2441325, 26.6599909 ], [ 85.2481266, 26.6636087 ], [ 85.2478392, 26.66936 ], [ 85.2514701, 26.6707162 ], [ 85.2610174, 26.6606964 ], [ 85.2668561, 26.6572664 ], [ 85.2668854, 26.652817 ], [ 85.2706416, 26.6527744 ], [ 85.2710759, 26.6501438 ], [ 85.2633413, 26.6465646 ], [ 85.2645506, 26.64086 ], [ 85.2669771, 26.6397969 ], [ 85.2685533, 26.6351093 ], [ 85.2743999, 26.6331235 ], [ 85.2760189, 26.6307554 ], [ 85.2751662, 26.6296582 ], [ 85.2703861, 26.6295916 ], [ 85.2700535, 26.6210948 ], [ 85.2681081, 26.6185484 ], [ 85.2695359, 26.6162207 ], [ 85.266784, 26.6119813 ], [ 85.2649526, 26.6110594 ], [ 85.2605987, 26.6128926 ], [ 85.2593468, 26.6122541 ], [ 85.2619532, 26.5933488 ], [ 85.2608903, 26.5873323 ], [ 85.2477486, 26.5731978 ], [ 85.2436618, 26.5717346 ], [ 85.2324021, 26.5713962 ], [ 85.2334764, 26.5665352 ], [ 85.2395337, 26.5616838 ], [ 85.2345902, 26.5610513 ], [ 85.2310487, 26.5569925 ], [ 85.233747, 26.5504333 ], [ 85.2330787, 26.5495021 ], [ 85.2243146, 26.5513426 ], [ 85.2207803, 26.5490751 ], [ 85.2167927, 26.5385403 ], [ 85.2178037, 26.5355838 ], [ 85.2229325, 26.5314241 ], [ 85.2230818, 26.5235517 ], [ 85.2193937, 26.5193815 ], [ 85.2238407, 26.5087422 ], [ 85.2229638, 26.5055879 ], [ 85.2214026, 26.5040637 ], [ 85.2169672, 26.5045503 ], [ 85.2166771, 26.5032319 ], [ 85.2103281, 26.5022026 ], [ 85.2095345, 26.5006281 ], [ 85.2071663, 26.4999535 ], [ 85.2015918, 26.500221 ], [ 85.2001334, 26.4988558 ], [ 85.1945671, 26.500244 ], [ 85.1847023, 26.4988664 ], [ 85.1811124, 26.4966218 ], [ 85.1815218, 26.4914187 ], [ 85.1792258, 26.4899148 ], [ 85.1784348, 26.4876445 ], [ 85.1808897, 26.4834622 ], [ 85.1861477, 26.4789158 ], [ 85.1861241, 26.4762352 ], [ 85.1838794, 26.4730751 ], [ 85.1879617, 26.4720075 ], [ 85.1892869, 26.4693951 ], [ 85.1958058, 26.4685854 ], [ 85.1987649, 26.4669529 ], [ 85.1986758, 26.4644843 ], [ 85.2004566, 26.4623368 ], [ 85.1991852, 26.4576294 ], [ 85.2009498, 26.457982 ], [ 85.2096299, 26.454176 ], [ 85.213948, 26.4499259 ], [ 85.2129916, 26.446338 ], [ 85.2064235, 26.4483128 ], [ 85.2047145, 26.4469899 ], [ 85.2117198, 26.441721 ], [ 85.2163287, 26.4347634 ], [ 85.2166754, 26.4320692 ], [ 85.2086344, 26.4342152 ], [ 85.2060407, 26.4264433 ], [ 85.2213841, 26.4246285 ], [ 85.226326, 26.4252974 ], [ 85.2275352, 26.4197513 ], [ 85.226478, 26.417824 ], [ 85.2310345, 26.4141242 ], [ 85.2329339, 26.4143681 ], [ 85.2306432, 26.4166332 ], [ 85.2329977, 26.423949 ], [ 85.2346718, 26.4238995 ], [ 85.2355944, 26.420885 ], [ 85.2375042, 26.419942 ], [ 85.2426615, 26.4208901 ], [ 85.2453782, 26.4181644 ], [ 85.2426821, 26.4128707 ], [ 85.24385, 26.4105105 ], [ 85.2496668, 26.4188019 ], [ 85.2505589, 26.4173758 ], [ 85.2538819, 26.4185807 ], [ 85.2588384, 26.4137426 ], [ 85.2588382, 26.4120187 ], [ 85.2502681, 26.4083455 ], [ 85.2500877, 26.402736 ], [ 85.2526385, 26.3999154 ], [ 85.2632475, 26.4013002 ], [ 85.2637074, 26.3927031 ], [ 85.2715037, 26.3883246 ], [ 85.2745299, 26.3872501 ], [ 85.27398, 26.393284 ], [ 85.2777384, 26.3940234 ], [ 85.2786611, 26.3968753 ], [ 85.2827849, 26.3957147 ], [ 85.2821418, 26.3895998 ], [ 85.2843458, 26.3866252 ], [ 85.2832419, 26.3815846 ], [ 85.2847997, 26.3797655 ], [ 85.2882867, 26.379354 ], [ 85.2907441, 26.3716904 ], [ 85.2812047, 26.3701267 ], [ 85.279004, 26.3649238 ], [ 85.2827606, 26.3624409 ], [ 85.2870744, 26.3640104 ], [ 85.2871639, 26.3619479 ], [ 85.2921135, 26.3621947 ], [ 85.2936702, 26.3587239 ], [ 85.2956885, 26.3576492 ], [ 85.2941301, 26.3562461 ], [ 85.2878034, 26.3566586 ], [ 85.2845027, 26.3583969 ], [ 85.2801034, 26.3543498 ], [ 85.2795617, 26.3517369 ], [ 85.2807035, 26.3486325 ], [ 85.2653872, 26.3525207 ], [ 85.257701, 26.3494684 ], [ 85.2539787, 26.3500656 ], [ 85.2477475, 26.3565362 ], [ 85.2460677, 26.3548723 ], [ 85.2468886, 26.3591453 ], [ 85.2419491, 26.3641047 ], [ 85.2407416, 26.3691014 ], [ 85.2346526, 26.3671522 ], [ 85.2247413, 26.3712526 ], [ 85.2205608, 26.3686605 ], [ 85.2202576, 26.3652941 ], [ 85.2189196, 26.364776 ], [ 85.2192863, 26.35978 ], [ 85.2180611, 26.3561162 ], [ 85.2220485, 26.3498813 ], [ 85.223586, 26.3495101 ], [ 85.2248902, 26.3516619 ], [ 85.2300367, 26.3538831 ], [ 85.2383875, 26.3486958 ], [ 85.239187, 26.3467231 ], [ 85.2381824, 26.3438716 ], [ 85.2430449, 26.3426403 ], [ 85.2425576, 26.3411289 ], [ 85.2444154, 26.3407347 ], [ 85.2440784, 26.3392998 ], [ 85.2461163, 26.3387249 ], [ 85.2481682, 26.3434234 ], [ 85.2549884, 26.342444 ], [ 85.2573752, 26.3448153 ], [ 85.2646605, 26.3423164 ], [ 85.2655397, 26.3394965 ], [ 85.2667616, 26.3396779 ], [ 85.2703019, 26.334933 ], [ 85.2740583, 26.3349357 ], [ 85.2719316, 26.3272577 ], [ 85.2603881, 26.3320055 ], [ 85.2564673, 26.3264333 ], [ 85.2564293, 26.3048388 ], [ 85.2624992, 26.3034357 ], [ 85.2609066, 26.2986687 ], [ 85.2579024, 26.298743 ], [ 85.2571787, 26.2965808 ], [ 85.2526614, 26.2977007 ], [ 85.2510249, 26.296923 ], [ 85.2480188, 26.2987616 ], [ 85.2491718, 26.3021565 ], [ 85.2428133, 26.3009634 ], [ 85.2417605, 26.2996329 ], [ 85.2362577, 26.2996013 ], [ 85.2363974, 26.3044299 ], [ 85.2313889, 26.3086308 ], [ 85.2292896, 26.3071431 ], [ 85.2322412, 26.3041172 ], [ 85.2315921, 26.3006968 ], [ 85.2268248, 26.2999737 ], [ 85.2219063, 26.3040703 ], [ 85.2201965, 26.3011156 ], [ 85.2202461, 26.294301 ], [ 85.218098, 26.2940451 ], [ 85.2132129, 26.2962686 ], [ 85.2083661, 26.2960052 ], [ 85.2037817, 26.2912917 ], [ 85.2044388, 26.2855553 ], [ 85.2006388, 26.2852957 ], [ 85.1991036, 26.2881486 ], [ 85.2060544, 26.2982539 ], [ 85.206553, 26.3026629 ], [ 85.2042892, 26.3017074 ], [ 85.2003083, 26.2933019 ], [ 85.1952364, 26.2932683 ], [ 85.1912771, 26.295125 ], [ 85.1891253, 26.2971252 ], [ 85.1875853, 26.301323 ], [ 85.1897849, 26.3041246 ], [ 85.1976104, 26.3026722 ], [ 85.2018728, 26.3049445 ], [ 85.2035051, 26.3125073 ], [ 85.2023352, 26.3153963 ], [ 85.2026636, 26.3198955 ], [ 85.2014874, 26.3209973 ], [ 85.1993587, 26.3203395 ], [ 85.1981976, 26.3133315 ], [ 85.1959237, 26.3124842 ], [ 85.193876, 26.3132975 ], [ 85.1943017, 26.3222285 ], [ 85.1959811, 26.3251114 ], [ 85.194591, 26.3287901 ], [ 85.1931541, 26.3295265 ], [ 85.191095, 26.3283495 ], [ 85.1892084, 26.3217389 ], [ 85.1915296, 26.3171888 ], [ 85.1906555, 26.3121979 ], [ 85.1906177, 26.3163317 ], [ 85.1887268, 26.3202859 ], [ 85.1806543, 26.3207181 ], [ 85.1800293, 26.3228755 ], [ 85.1860496, 26.3243668 ], [ 85.1874135, 26.3275388 ], [ 85.1841753, 26.3317057 ], [ 85.1845792, 26.3384524 ], [ 85.1798421, 26.3408731 ], [ 85.1783689, 26.3394522 ], [ 85.1815684, 26.3373975 ], [ 85.1793989, 26.3353901 ], [ 85.1777678, 26.3394253 ], [ 85.1734644, 26.3370034 ], [ 85.1765764, 26.3290098 ], [ 85.1726902, 26.3297242 ], [ 85.1677665, 26.3282636 ], [ 85.164216, 26.3295462 ], [ 85.1625025, 26.327367 ], [ 85.1612887, 26.3209543 ], [ 85.158373, 26.3171011 ], [ 85.1527089, 26.3152429 ], [ 85.1494038, 26.3155413 ], [ 85.1465398, 26.3186422 ], [ 85.1462951, 26.3219999 ], [ 85.1422838, 26.3230836 ], [ 85.1404955, 26.3195185 ], [ 85.1369197, 26.3177181 ], [ 85.1362133, 26.3129751 ], [ 85.130089, 26.3119736 ], [ 85.1285867, 26.3150424 ], [ 85.1260779, 26.3147897 ], [ 85.1260778, 26.3131741 ], [ 85.1235792, 26.3121226 ], [ 85.1223672, 26.3153223 ], [ 85.1189017, 26.3170235 ], [ 85.1140095, 26.3138462 ], [ 85.1116809, 26.3142205 ], [ 85.1041425, 26.3237555 ], [ 85.1011371, 26.325664 ], [ 85.0992743, 26.3249777 ], [ 85.0987243, 26.3215432 ], [ 85.0972421, 26.3205816 ], [ 85.0913964, 26.3253235 ], [ 85.081075, 26.3245717 ], [ 85.0770551, 26.3326936 ], [ 85.0746714, 26.3321647 ], [ 85.0708015, 26.3286658 ], [ 85.0677031, 26.3361246 ], [ 85.0603722, 26.3426787 ], [ 85.0564304, 26.3426227 ], [ 85.0518644, 26.3395967 ], [ 85.0476769, 26.3399917 ], [ 85.0450562, 26.3420572 ], [ 85.0422011, 26.3348213 ], [ 85.0352155, 26.3335715 ], [ 85.0315813, 26.3231965 ], [ 85.0264438, 26.3241517 ], [ 85.0239637, 26.3196957 ], [ 85.0221366, 26.3187783 ], [ 85.0155833, 26.3223703 ], [ 85.0137648, 26.3283665 ], [ 85.0080601, 26.3289893 ], [ 85.0068312, 26.3308657 ], [ 85.0000042, 26.3329517 ], [ 84.9895653, 26.3302932 ], [ 84.9831182, 26.3265672 ], [ 84.9801215, 26.3230506 ], [ 84.9447182, 26.3276954 ], [ 84.9406089, 26.3264694 ], [ 84.9380427, 26.3275683 ], [ 84.920677, 26.328432 ], [ 84.9191246, 26.3266232 ], [ 84.9096734, 26.3234918 ], [ 84.9022092, 26.3259785 ], [ 84.8961167, 26.3169377 ], [ 84.8973505, 26.3146347 ], [ 84.8935746, 26.3114166 ], [ 84.8880551, 26.2989698 ], [ 84.8848659, 26.2877291 ], [ 84.8817713, 26.2816016 ], [ 84.8809429, 26.2712874 ], [ 84.8774395, 26.2616659 ], [ 84.8718186, 26.2569712 ], [ 84.8689465, 26.2567605 ], [ 84.8574757, 26.2698759 ], [ 84.8500158, 26.2702975 ], [ 84.8492102, 26.2731113 ], [ 84.8364081, 26.2793931 ], [ 84.8321531, 26.2863306 ], [ 84.8256055, 26.2819971 ], [ 84.8061372, 26.285747 ], [ 84.8089966, 26.2947816 ], [ 84.8082996, 26.3016977 ], [ 84.8093679, 26.3131096 ], [ 84.806997, 26.3229269 ], [ 84.80544, 26.3228227 ], [ 84.8012338, 26.3174935 ], [ 84.7999001, 26.317891 ], [ 84.8006579, 26.322704 ], [ 84.7997537, 26.3260091 ], [ 84.7853613, 26.3370918 ], [ 84.7744426, 26.341966 ], [ 84.7679356, 26.3372916 ], [ 84.7621169, 26.3465367 ], [ 84.7512048, 26.3541439 ], [ 84.7362539, 26.3707939 ], [ 84.7303376, 26.3753472 ], [ 84.7353844, 26.378734 ], [ 84.7343119, 26.3795135 ], [ 84.7301769, 26.3776647 ], [ 84.7235216, 26.3934625 ], [ 84.7236874, 26.3974226 ], [ 84.7219787, 26.3997563 ], [ 84.719596, 26.3994732 ], [ 84.7172734, 26.4071997 ], [ 84.7116697, 26.4145162 ], [ 84.7155008, 26.4146451 ], [ 84.7131787, 26.4259118 ], [ 84.7067572, 26.4312915 ], [ 84.6968938, 26.434797 ], [ 84.6954238, 26.4336091 ], [ 84.6871363, 26.438493 ], [ 84.6799203, 26.4434028 ], [ 84.6666822, 26.4570717 ], [ 84.6568892, 26.4614111 ], [ 84.6572174, 26.4631043 ], [ 84.6554494, 26.4644771 ], [ 84.6412113, 26.4618575 ], [ 84.630225, 26.4574054 ], [ 84.6265245, 26.4518048 ], [ 84.615262, 26.4483315 ], [ 84.6119069, 26.4436894 ], [ 84.5966432, 26.4353895 ], [ 84.5901523, 26.4373567 ], [ 84.5903926, 26.4394471 ], [ 84.5932766, 26.4426889 ], [ 84.5920204, 26.4426791 ], [ 84.5912181, 26.4448663 ], [ 84.5921067, 26.4455503 ], [ 84.5903951, 26.4459985 ], [ 84.5933658, 26.4483673 ], [ 84.5895921, 26.4498035 ], [ 84.5905483, 26.4575671 ], [ 84.5734576, 26.4700562 ], [ 84.5778207, 26.4862614 ], [ 84.5712964, 26.4874906 ], [ 84.5678556, 26.4903965 ], [ 84.5685558, 26.4916763 ], [ 84.5618643, 26.4953433 ], [ 84.5558689, 26.4876648 ], [ 84.5544918, 26.4821274 ], [ 84.5383178, 26.4837263 ], [ 84.5447654, 26.4962502 ], [ 84.5418844, 26.5000061 ], [ 84.5402344, 26.5084608 ], [ 84.5357225, 26.5142504 ], [ 84.5258403, 26.5229999 ], [ 84.5192814, 26.5267905 ], [ 84.5171947, 26.5304723 ], [ 84.5105519, 26.5332495 ], [ 84.5151358, 26.556487 ], [ 84.5121328, 26.5678438 ], [ 84.5073741, 26.5705451 ], [ 84.4969213, 26.5706651 ], [ 84.4885516, 26.583088 ], [ 84.4848015, 26.5934804 ], [ 84.4907019, 26.6032131 ], [ 84.4961714, 26.6007377 ], [ 84.5051318, 26.6024004 ], [ 84.5136638, 26.5971999 ], [ 84.5184926, 26.602302 ], [ 84.5209571, 26.6024861 ], [ 84.5226907, 26.5990724 ], [ 84.5243549, 26.5988826 ], [ 84.5257877, 26.6005453 ], [ 84.5261213, 26.6061761 ], [ 84.5228873, 26.6088256 ], [ 84.5199743, 26.6156565 ], [ 84.5220598, 26.6213859 ], [ 84.5199653, 26.6246209 ], [ 84.5210529, 26.6283723 ], [ 84.5272149, 26.6280796 ], [ 84.531647, 26.6362975 ], [ 84.5308649, 26.639568 ], [ 84.533849, 26.6401339 ], [ 84.5413645, 26.6475554 ], [ 84.5440825, 26.6532541 ], [ 84.5774911, 26.6706255 ], [ 84.5807691, 26.6678176 ], [ 84.58596, 26.6676401 ], [ 84.5878596, 26.6735418 ], [ 84.5918011, 26.6749663 ], [ 84.5958921, 26.6746794 ], [ 84.5980965, 26.6762651 ], [ 84.6014807, 26.6845305 ], [ 84.5998263, 26.6873733 ], [ 84.5939, 26.6878308 ], [ 84.5965372, 26.6933561 ], [ 84.6002864, 26.6946521 ], [ 84.6030136, 26.6936647 ], [ 84.6059038, 26.689148 ], [ 84.6090386, 26.6875542 ], [ 84.6104787, 26.6879889 ], [ 84.611322, 26.6903982 ], [ 84.6093616, 26.6926058 ], [ 84.6190399, 26.6928806 ], [ 84.6285119, 26.6910689 ], [ 84.6367388, 26.692226 ], [ 84.6400856, 26.6888935 ], [ 84.6389301, 26.6838858 ], [ 84.6409171, 26.6806519 ], [ 84.6432395, 26.6792553 ], [ 84.6523839, 26.6787111 ], [ 84.6564567, 26.6812773 ], [ 84.659251, 26.6860396 ], [ 84.6594569, 26.6897395 ], [ 84.6631577, 26.6894753 ], [ 84.6644039, 26.6924519 ], [ 84.6692303, 26.6964196 ], [ 84.6716793, 26.7006215 ], [ 84.6795653, 26.6983848 ], [ 84.6827543, 26.7031666 ], [ 84.6886346, 26.7066363 ], [ 84.6907786, 26.7136294 ], [ 84.6948322, 26.7153584 ], [ 84.6964501, 26.720554 ], [ 84.6971775, 26.7175032 ], [ 84.7008381, 26.7150685 ], [ 84.7037861, 26.7238049 ], [ 84.7018179, 26.72979 ], [ 84.7045099, 26.7357255 ], [ 84.7071703, 26.737645 ], [ 84.7093513, 26.7374562 ], [ 84.7128271, 26.7409506 ], [ 84.7273941, 26.7419997 ], [ 84.7278446, 26.7432315 ], [ 84.7223484, 26.7446245 ], [ 84.7227914, 26.7500054 ], [ 84.7233926, 26.7510405 ], [ 84.7261304, 26.7508634 ], [ 84.7264647, 26.7527549 ], [ 84.7180248, 26.7555658 ], [ 84.7221852, 26.7657132 ], [ 84.7189898, 26.7663838 ], [ 84.7174604, 26.7692109 ], [ 84.7164819, 26.7794245 ], [ 84.7214967, 26.7896174 ], [ 84.7292331, 26.7997861 ], [ 84.7317983, 26.7994978 ], [ 84.7329647, 26.7939438 ], [ 84.7373791, 26.7980078 ], [ 84.743721, 26.8075985 ], [ 84.7444767, 26.8166713 ], [ 84.7412386, 26.8186682 ], [ 84.7409105, 26.8210094 ], [ 84.7254872, 26.8211864 ], [ 84.7195512, 26.8252827 ], [ 84.7204499, 26.8268675 ], [ 84.7244982, 26.8241215 ], [ 84.7260336, 26.8245523 ], [ 84.7251961, 26.8334912 ], [ 84.7349527, 26.8333004 ], [ 84.7352225, 26.8351593 ], [ 84.7314685, 26.8365069 ], [ 84.7337907, 26.8403796 ], [ 84.7336727, 26.8430174 ], [ 84.7315463, 26.844716 ], [ 84.7282959, 26.8429943 ], [ 84.7288142, 26.8447489 ], [ 84.7262675, 26.8488412 ], [ 84.719429, 26.8456852 ], [ 84.7187085, 26.8407282 ], [ 84.7157338, 26.8420744 ], [ 84.7158002, 26.8445302 ], [ 84.7195424, 26.8470543 ], [ 84.7109527, 26.8549427 ], [ 84.7182877, 26.8546823 ], [ 84.7188276, 26.8558552 ], [ 84.714285, 26.8603527 ], [ 84.703856, 26.8665684 ], [ 84.7026153, 26.8682133 ], [ 84.7020447, 26.8742819 ], [ 84.6915886, 26.8755509 ], [ 84.6888741, 26.8776498 ], [ 84.688832, 26.8841692 ], [ 84.6864678, 26.8851186 ], [ 84.6882093, 26.8915229 ], [ 84.6843297, 26.8897808 ], [ 84.6866468, 26.8926298 ], [ 84.6848456, 26.8940939 ], [ 84.6817621, 26.8900816 ], [ 84.6805709, 26.8901449 ], [ 84.6813455, 26.8976687 ], [ 84.6798284, 26.8995028 ], [ 84.6814509, 26.9026067 ], [ 84.6802793, 26.9045277 ], [ 84.6831617, 26.9114967 ], [ 84.6782497, 26.914182 ], [ 84.6869981, 26.9229935 ], [ 84.6899598, 26.9214627 ], [ 84.6896736, 26.9147575 ], [ 84.6865078, 26.9115426 ], [ 84.6890073, 26.9111459 ], [ 84.6917275, 26.9137578 ], [ 84.6963964, 26.9143485 ], [ 84.6952032, 26.9151051 ], [ 84.696678, 26.9173356 ], [ 84.6951885, 26.9168195 ], [ 84.6960183, 26.919581 ], [ 84.6998844, 26.9210518 ], [ 84.6980047, 26.9226501 ], [ 84.7002887, 26.9256879 ], [ 84.6980564, 26.9265449 ], [ 84.699729, 26.9284628 ], [ 84.6967813, 26.9281079 ], [ 84.6987884, 26.9296658 ], [ 84.6980011, 26.9339801 ], [ 84.699143, 26.9355103 ], [ 84.6973159, 26.934005 ], [ 84.6965343, 26.9358016 ], [ 84.6987027, 26.9373576 ], [ 84.7008626, 26.9368559 ], [ 84.6992322, 26.9375603 ], [ 84.6990262, 26.9400206 ], [ 84.7005051, 26.9398326 ], [ 84.7011402, 26.9410342 ], [ 84.707007, 26.9397129 ], [ 84.710516, 26.9424547 ], [ 84.7130072, 26.9410061 ], [ 84.71209, 26.9445423 ], [ 84.7132081, 26.9475114 ], [ 84.7215088, 26.9546081 ], [ 84.7249247, 26.9565928 ], [ 84.7308619, 26.9538251 ], [ 84.7410473, 26.9544273 ], [ 84.7411702, 26.9595341 ], [ 84.742963, 26.9616786 ], [ 84.7450602, 26.9617122 ], [ 84.7482586, 26.964137 ], [ 84.7498881, 26.9684797 ], [ 84.7467257, 26.9708736 ], [ 84.746791, 26.9724973 ], [ 84.7445972, 26.9746134 ], [ 84.7463246, 26.9765762 ], [ 84.7449262, 26.9804026 ], [ 84.74566, 26.9835371 ], [ 84.7476048, 26.9849403 ], [ 84.7477403, 26.9870904 ], [ 84.7517979, 26.988025 ], [ 84.7543758, 26.9943304 ], [ 84.7598225, 26.9984733 ], [ 84.7602175, 27.0022943 ], [ 84.7583851, 27.0035623 ], [ 84.7607418, 27.0055275 ], [ 84.7648907, 27.013152 ], [ 84.7731407, 27.0178269 ], [ 84.7827372, 27.014112 ], [ 84.7843975, 27.0078411 ], [ 84.7857025, 27.0081626 ], [ 84.7859442, 27.011002 ], [ 84.7867887, 27.009035 ], [ 84.7889932, 27.0089123 ], [ 84.7869685, 27.0052304 ], [ 84.7877565, 27.0031515 ], [ 84.7862, 26.9985052 ], [ 84.7883064, 26.9986791 ], [ 84.7885759, 26.996937 ], [ 84.791172, 26.9995837 ], [ 84.7905792, 26.9972198 ], [ 84.7935605, 26.9958382 ], [ 84.7972528, 27.0042234 ], [ 84.7991452, 27.0034313 ], [ 84.8004657, 27.0008813 ], [ 84.8015232, 27.0049486 ], [ 84.8080598, 27.0076214 ], [ 84.8068459, 27.0080034 ], [ 84.806979, 27.0108177 ], [ 84.8080161, 27.0120931 ], [ 84.8098335, 27.0109008 ], [ 84.8108018, 27.0144289 ], [ 84.8068414, 27.0141493 ], [ 84.8085355, 27.0180636 ], [ 84.8105529, 27.0184126 ], [ 84.8106154, 27.0165387 ], [ 84.8120781, 27.0156665 ], [ 84.8117512, 27.0204793 ], [ 84.8128367, 27.0204347 ], [ 84.8133391, 27.018179 ], [ 84.8167412, 27.0205827 ] ] ] } }
]
}
