{
"type": "FeatureCollection",
"name": "1005",
"crs": { "type": "name", "properties": { "name": "urn:ogc:def:crs:OGC:1.3:CRS84" } },
"features": [
{ "type": "Feature", "properties": { "code": "1005", "name": "Madhubani", "type": "district" }, "geometry": { "type": "Polygon", "coordinates": [ [ [ 86.0275803, 26.6667872 ], [ 86.0698018, 26.65734 ], [ 86.0740485, 26.6497445 ], [ 86.1017789, 26.6368122 ], [ 86.1195764, 26.6300617 ], [ 86.1387641, 26.6288488 ], [ 86.1410538, 26.6167995 ], [ 86.1397518, 26.616744 ], [ 86.1363301, 26.6063358 ], [ 86.1426159, 26.6051563 ], [ 86.1456613, 26.6085995 ], [ 86.1553313, 26.6098859 ], [ 86.1615956, 26.6149117 ], [ 86.1676493, 26.6140823 ], [ 86.1714449, 26.6170435 ], [ 86.1742137, 26.6138967 ], [ 86.1759343, 26.6154887 ], [ 86.1828613, 26.6139182 ], [ 86.1913759, 26.6150842 ], [ 86.1943787, 26.6122153 ], [ 86.1934595, 26.6111822 ], [ 86.1908165, 26.6125203 ], [ 86.191209, 26.6106652 ], [ 86.1958126, 26.6076192 ], [ 86.1967371, 26.6011907 ], [ 86.1949261, 26.5985078 ], [ 86.1969869, 26.5980373 ], [ 86.1956067, 26.5955051 ], [ 86.1962997, 26.5939433 ], [ 86.1982862, 26.5934841 ], [ 86.2006016, 26.5972356 ], [ 86.2017067, 26.5968596 ], [ 86.2018026, 26.5945784 ], [ 86.205475, 26.5966456 ], [ 86.2078896, 26.593006 ], [ 86.2127203, 26.5926979 ], [ 86.2133768, 26.5909393 ], [ 86.2149081, 26.591091 ], [ 86.2176769, 26.5884798 ], [ 86.2237259, 26.5914518 ], [ 86.2264474, 26.5907596 ], [ 86.229513, 26.5923386 ], [ 86.2308199, 26.5915044 ], [ 86.2312406, 26.5932121 ], [ 86.2343645, 26.5906953 ], [ 86.2347773, 26.598127 ], [ 86.2375269, 26.5995333 ], [ 86.2374064, 26.6016939 ], [ 86.2400182, 26.6014655 ], [ 86.2405428, 26.6035888 ], [ 86.2432044, 26.6029473 ], [ 86.242384, 26.6057212 ], [ 86.2443188, 26.6060737 ], [ 86.2442133, 26.6089186 ], [ 86.2451971, 26.6092663 ], [ 86.2464582, 26.6073522 ], [ 86.2467268, 26.6085627 ], [ 86.2492222, 26.6090019 ], [ 86.2479069, 26.6123878 ], [ 86.2491388, 26.6123012 ], [ 86.2526876, 26.6171081 ], [ 86.2537927, 26.6159528 ], [ 86.2531046, 26.6146824 ], [ 86.2758645, 26.6172804 ], [ 86.2930444, 26.6131061 ], [ 86.3078542, 26.6199628 ], [ 86.3296329, 26.6194872 ], [ 86.3448365, 26.6169132 ], [ 86.3421702, 26.6114369 ], [ 86.3408195, 26.6118967 ], [ 86.3390753, 26.6089344 ], [ 86.341497, 26.6059371 ], [ 86.3563293, 26.6042903 ], [ 86.3971037, 26.5933216 ], [ 86.3970213, 26.5887387 ], [ 86.3955646, 26.5879126 ], [ 86.3952193, 26.5850624 ], [ 86.429933, 26.573139 ], [ 86.455938, 26.5679709 ], [ 86.498634, 26.5420962 ], [ 86.5155078, 26.5392196 ], [ 86.5233542, 26.5436085 ], [ 86.5415494, 26.5387226 ], [ 86.5467127, 26.534277 ], [ 86.5480875, 26.5314116 ], [ 86.550946, 26.530185 ], [ 86.5513056, 26.5245727 ], [ 86.552012, 26.5235956 ], [ 86.5551608, 26.5238624 ], [ 86.5560241, 26.5178445 ], [ 86.5544179, 26.5188003 ], [ 86.5544227, 26.5161028 ], [ 86.5614597, 26.509828 ], [ 86.5639936, 26.5054216 ], [ 86.563741, 26.5035049 ], [ 86.5691624, 26.4990279 ], [ 86.5692618, 26.497487 ], [ 86.5707238, 26.4977665 ], [ 86.5703439, 26.4965385 ], [ 86.5880162, 26.4934812 ], [ 86.6115647, 26.485628 ], [ 86.6140214, 26.4869672 ], [ 86.6180807, 26.4836977 ], [ 86.6210891, 26.4841515 ], [ 86.6218313, 26.4816866 ], [ 86.6260514, 26.4803884 ], [ 86.6269304, 26.4769468 ], [ 86.6280839, 26.4788026 ], [ 86.6295965, 26.4776292 ], [ 86.6273665, 26.4754804 ], [ 86.6259696, 26.4693289 ], [ 86.6295235, 26.4689288 ], [ 86.6269375, 26.467026 ], [ 86.6294663, 26.46639 ], [ 86.6299483, 26.4685657 ], [ 86.6334498, 26.4643179 ], [ 86.6340253, 26.4657865 ], [ 86.6369584, 26.4660665 ], [ 86.6381539, 26.465458 ], [ 86.6380279, 26.4633271 ], [ 86.6905743, 26.4508617 ], [ 86.6932253, 26.4511982 ], [ 86.6943768, 26.4492501 ], [ 86.6963864, 26.4488497 ], [ 86.695571, 26.4446967 ], [ 86.6985944, 26.4427552 ], [ 86.7003109, 26.4372398 ], [ 86.7202676, 26.4348568 ], [ 86.7251158, 26.4267253 ], [ 86.7229961, 26.4256146 ], [ 86.7240808, 26.4223828 ], [ 86.721303, 26.4208006 ], [ 86.7223492, 26.4194326 ], [ 86.7192919, 26.4129361 ], [ 86.7197662, 26.4108104 ], [ 86.7167825, 26.4081767 ], [ 86.71647, 26.4058979 ], [ 86.713853, 26.4042747 ], [ 86.7131034, 26.4004032 ], [ 86.7152874, 26.399725 ], [ 86.7111421, 26.3977643 ], [ 86.7130844, 26.3954346 ], [ 86.7101256, 26.3920064 ], [ 86.7102671, 26.3871957 ], [ 86.7087242, 26.3872731 ], [ 86.7090717, 26.3897731 ], [ 86.7041593, 26.3863549 ], [ 86.7039259, 26.3823159 ], [ 86.7061085, 26.3800223 ], [ 86.7092706, 26.3811579 ], [ 86.7093734, 26.3780891 ], [ 86.7063034, 26.379264 ], [ 86.7054, 26.3770396 ], [ 86.7034625, 26.3786923 ], [ 86.7017812, 26.3745052 ], [ 86.7039645, 26.3732856 ], [ 86.7026206, 26.3712014 ], [ 86.7046078, 26.3692146 ], [ 86.7039205, 26.3678701 ], [ 86.7007346, 26.3678266 ], [ 86.6986972, 26.3699079 ], [ 86.6952291, 26.3675312 ], [ 86.6877467, 26.3700977 ], [ 86.6867289, 26.3685456 ], [ 86.6828821, 26.3691246 ], [ 86.6838679, 26.3672966 ], [ 86.6819335, 26.3660066 ], [ 86.6793554, 26.3691485 ], [ 86.6782266, 26.3658635 ], [ 86.675067, 26.3682608 ], [ 86.6736523, 26.3639424 ], [ 86.6764422, 26.3635668 ], [ 86.6723035, 26.3612484 ], [ 86.6730612, 26.363929 ], [ 86.6705522, 26.365076 ], [ 86.6708919, 26.3633926 ], [ 86.6678564, 26.3632896 ], [ 86.6660243, 26.3661648 ], [ 86.6622224, 26.3664546 ], [ 86.6627788, 26.3677137 ], [ 86.6552444, 26.3663206 ], [ 86.6544976, 26.3650527 ], [ 86.6567612, 26.363739 ], [ 86.6563298, 26.3621009 ], [ 86.6483603, 26.3613847 ], [ 86.6449379, 26.3574002 ], [ 86.6422183, 26.3578292 ], [ 86.6414162, 26.355347 ], [ 86.6393924, 26.3547832 ], [ 86.6392368, 26.3530412 ], [ 86.6416807, 26.3512447 ], [ 86.6377888, 26.3510104 ], [ 86.6362651, 26.3453015 ], [ 86.6329943, 26.3440245 ], [ 86.63373, 26.340414 ], [ 86.6307248, 26.3391775 ], [ 86.6323018, 26.3359055 ], [ 86.6318756, 26.3327463 ], [ 86.6255805, 26.3329676 ], [ 86.6157201, 26.3389427 ], [ 86.6121342, 26.33827 ], [ 86.6107821, 26.3417314 ], [ 86.599393, 26.3425243 ], [ 86.5980366, 26.3339808 ], [ 86.5865081, 26.3339514 ], [ 86.5817311, 26.3313325 ], [ 86.5804409, 26.3234613 ], [ 86.5789987, 26.3230592 ], [ 86.5782532, 26.3204368 ], [ 86.565965, 26.3184294 ], [ 86.5615689, 26.3052306 ], [ 86.547888, 26.3056009 ], [ 86.5446796, 26.3032842 ], [ 86.5356104, 26.3028798 ], [ 86.5342254, 26.300121 ], [ 86.531262, 26.2985129 ], [ 86.5306085, 26.2955919 ], [ 86.5280561, 26.2938574 ], [ 86.5291692, 26.2920973 ], [ 86.5261673, 26.2891708 ], [ 86.5263535, 26.282264 ], [ 86.5236087, 26.2776718 ], [ 86.5203501, 26.2766049 ], [ 86.5111818, 26.2772013 ], [ 86.5081437, 26.2760756 ], [ 86.5054099, 26.261425 ], [ 86.5056913, 26.2555834 ], [ 86.5178179, 26.2562689 ], [ 86.5216526, 26.2551114 ], [ 86.5205695, 26.2508635 ], [ 86.5181752, 26.2481289 ], [ 86.5223021, 26.2318356 ], [ 86.5189141, 26.2243074 ], [ 86.5205696, 26.222191 ], [ 86.5158762, 26.220559 ], [ 86.5151152, 26.2181908 ], [ 86.5039735, 26.2228932 ], [ 86.4997524, 26.2148289 ], [ 86.486857, 26.2153297 ], [ 86.4851472, 26.2171611 ], [ 86.480137, 26.2171476 ], [ 86.4752499, 26.2108905 ], [ 86.4581247, 26.2116035 ], [ 86.4510827, 26.2137393 ], [ 86.4531275, 26.2174266 ], [ 86.4518331, 26.2223833 ], [ 86.4461509, 26.2236437 ], [ 86.4440048, 26.2212742 ], [ 86.4405506, 26.2098568 ], [ 86.440946, 26.2066935 ], [ 86.4424022, 26.2056789 ], [ 86.4416514, 26.2015133 ], [ 86.4382175, 26.2006423 ], [ 86.4374255, 26.1977813 ], [ 86.4342023, 26.197859 ], [ 86.4309596, 26.1937017 ], [ 86.4112092, 26.1974688 ], [ 86.4119048, 26.2034671 ], [ 86.4063956, 26.2033 ], [ 86.4049748, 26.2022106 ], [ 86.4068208, 26.1983943 ], [ 86.4063124, 26.196004 ], [ 86.4103099, 26.194192 ], [ 86.4127667, 26.187272 ], [ 86.4115641, 26.1826214 ], [ 86.4089847, 26.1821098 ], [ 86.4072909, 26.1786716 ], [ 86.4048044, 26.1697268 ], [ 86.416136, 26.1708567 ], [ 86.4203054, 26.1694966 ], [ 86.4224242, 26.1639069 ], [ 86.4222582, 26.1580056 ], [ 86.427693, 26.1565961 ], [ 86.4349608, 26.1567918 ], [ 86.4353961, 26.1588658 ], [ 86.4327007, 26.1596724 ], [ 86.4333068, 26.1646861 ], [ 86.4397044, 26.163903 ], [ 86.4386607, 26.1603684 ], [ 86.4361176, 26.1586293 ], [ 86.4372036, 26.1575094 ], [ 86.4364497, 26.156143 ], [ 86.4399237, 26.1556871 ], [ 86.4410871, 26.1571995 ], [ 86.4481443, 26.1585992 ], [ 86.450625, 26.1576606 ], [ 86.4512805, 26.1630584 ], [ 86.453686, 26.1630029 ], [ 86.4546684, 26.1663149 ], [ 86.4526396, 26.1686448 ], [ 86.4573442, 26.1704381 ], [ 86.461951, 26.1587598 ], [ 86.4615354, 26.1566679 ], [ 86.4631884, 26.1562046 ], [ 86.4648019, 26.1523279 ], [ 86.4697494, 26.1534118 ], [ 86.469523, 26.1514877 ], [ 86.4719688, 26.1504583 ], [ 86.4741435, 26.1463082 ], [ 86.4785081, 26.1490645 ], [ 86.4807943, 26.1490366 ], [ 86.4813619, 26.1507859 ], [ 86.4827909, 26.1511702 ], [ 86.4828939, 26.1493512 ], [ 86.4850518, 26.1489255 ], [ 86.4883363, 26.1505399 ], [ 86.4913976, 26.1528894 ], [ 86.4890251, 26.1554815 ], [ 86.491136, 26.1543738 ], [ 86.4950277, 26.1567713 ], [ 86.4988115, 26.1551818 ], [ 86.5037256, 26.157393 ], [ 86.5094054, 26.1569609 ], [ 86.5094446, 26.1607444 ], [ 86.5121983, 26.1662572 ], [ 86.5157169, 26.163488 ], [ 86.5160138, 26.1606267 ], [ 86.5182471, 26.161352 ], [ 86.5189081, 26.1587718 ], [ 86.5213543, 26.1588161 ], [ 86.5275905, 26.1556222 ], [ 86.5333737, 26.1568465 ], [ 86.5367051, 26.1531551 ], [ 86.5374518, 26.1502861 ], [ 86.5402513, 26.1507511 ], [ 86.5385858, 26.1496049 ], [ 86.5397216, 26.1480496 ], [ 86.5380073, 26.1455371 ], [ 86.5388393, 26.1434508 ], [ 86.5377733, 26.1416913 ], [ 86.5356282, 26.1417442 ], [ 86.5328981, 26.138776 ], [ 86.5338094, 26.135317 ], [ 86.5312331, 26.1353915 ], [ 86.5311667, 26.1320172 ], [ 86.5263344, 26.1297034 ], [ 86.5244228, 26.1237828 ], [ 86.5210286, 26.1233788 ], [ 86.5196873, 26.1223856 ], [ 86.5203164, 26.1207029 ], [ 86.5165883, 26.119292 ], [ 86.5146207, 26.117034 ], [ 86.5096867, 26.1169218 ], [ 86.5093632, 26.1203914 ], [ 86.4942422, 26.1254498 ], [ 86.4786682, 26.1242792 ], [ 86.4775286, 26.1207716 ], [ 86.4709692, 26.1191811 ], [ 86.4700088, 26.1181256 ], [ 86.4706727, 26.1161822 ], [ 86.4657713, 26.1141008 ], [ 86.4667772, 26.1128179 ], [ 86.4700521, 26.11297 ], [ 86.4648727, 26.1060567 ], [ 86.4647539, 26.1025077 ], [ 86.4633353, 26.1021729 ], [ 86.4599275, 26.1049051 ], [ 86.456052, 26.0995451 ], [ 86.4555224, 26.0962067 ], [ 86.4531196, 26.0978816 ], [ 86.4499352, 26.0966686 ], [ 86.4503711, 26.0986251 ], [ 86.4492281, 26.0992483 ], [ 86.446277, 26.0941534 ], [ 86.4463881, 26.0917971 ], [ 86.4443076, 26.0929765 ], [ 86.4442098, 26.0914547 ], [ 86.4429762, 26.0911519 ], [ 86.445102, 26.0899095 ], [ 86.4449187, 26.0874302 ], [ 86.4440244, 26.086253 ], [ 86.4425144, 26.0873262 ], [ 86.4407754, 26.0850259 ], [ 86.4424716, 26.0836826 ], [ 86.4411651, 26.0808694 ], [ 86.4412, 26.0745805 ], [ 86.4403583, 26.073909 ], [ 86.4388215, 26.0753929 ], [ 86.4380855, 26.0724826 ], [ 86.4358239, 26.0739501 ], [ 86.435435, 26.072707 ], [ 86.4316366, 26.0714911 ], [ 86.4333484, 26.0710329 ], [ 86.4332587, 26.068897 ], [ 86.4346763, 26.0693315 ], [ 86.4368951, 26.0642701 ], [ 86.4322036, 26.0627483 ], [ 86.4340598, 26.0623944 ], [ 86.4340296, 26.0614101 ], [ 86.4279948, 26.060682 ], [ 86.4282034, 26.0578746 ], [ 86.4298947, 26.058536 ], [ 86.4307783, 26.0535823 ], [ 86.4280736, 26.0516528 ], [ 86.4267947, 26.0546094 ], [ 86.425878, 26.0519421 ], [ 86.4236413, 26.0545066 ], [ 86.420644, 26.0531582 ], [ 86.4173714, 26.0498718 ], [ 86.4174358, 26.0459488 ], [ 86.4148076, 26.0478253 ], [ 86.4143935, 26.0436475 ], [ 86.4105526, 26.0411578 ], [ 86.4105041, 26.0398754 ], [ 86.4124655, 26.0394003 ], [ 86.4081189, 26.0351342 ], [ 86.4042803, 26.036229 ], [ 86.3958366, 26.0348711 ], [ 86.3939189, 26.0365561 ], [ 86.39328, 26.0344495 ], [ 86.3885316, 26.0336529 ], [ 86.3834049, 26.0385026 ], [ 86.380294, 26.0370581 ], [ 86.381095, 26.0386914 ], [ 86.376679, 26.040239 ], [ 86.3764741, 26.0421298 ], [ 86.3776159, 26.0445275 ], [ 86.3808633, 26.0447537 ], [ 86.3783267, 26.0500115 ], [ 86.3788509, 26.0510611 ], [ 86.3761504, 26.0513565 ], [ 86.3738428, 26.0557664 ], [ 86.3743678, 26.0585543 ], [ 86.3733397, 26.0601435 ], [ 86.3645923, 26.063857 ], [ 86.3586668, 26.0770995 ], [ 86.3573395, 26.0766467 ], [ 86.3556869, 26.0789915 ], [ 86.3495102, 26.0794559 ], [ 86.3448631, 26.0835432 ], [ 86.3451354, 26.0849305 ], [ 86.3422003, 26.0867817 ], [ 86.3408994, 26.086076 ], [ 86.3400952, 26.089508 ], [ 86.3339134, 26.0881297 ], [ 86.3324934, 26.0890215 ], [ 86.3324755, 26.0912969 ], [ 86.3307041, 26.0915792 ], [ 86.3312989, 26.1003885 ], [ 86.3274965, 26.0999149 ], [ 86.3258655, 26.1027756 ], [ 86.3262352, 26.1053718 ], [ 86.334091, 26.1044466 ], [ 86.3287523, 26.1129366 ], [ 86.3280406, 26.1167211 ], [ 86.3233881, 26.1230921 ], [ 86.3244602, 26.1332145 ], [ 86.3260147, 26.135136 ], [ 86.3252353, 26.1384552 ], [ 86.3338897, 26.1452855 ], [ 86.3346899, 26.1479528 ], [ 86.3297871, 26.1489549 ], [ 86.3309599, 26.1511816 ], [ 86.3302444, 26.153851 ], [ 86.329626, 26.1552612 ], [ 86.3247967, 26.1573289 ], [ 86.3249545, 26.1612122 ], [ 86.3156755, 26.161024 ], [ 86.3144126, 26.1648238 ], [ 86.3043373, 26.1655927 ], [ 86.2954027, 26.1646554 ], [ 86.2958617, 26.1682151 ], [ 86.2935571, 26.1728945 ], [ 86.2915932, 26.1725012 ], [ 86.2902365, 26.1743003 ], [ 86.2890232, 26.1788315 ], [ 86.286546, 26.1789141 ], [ 86.2854981, 26.1776313 ], [ 86.2770907, 26.1787134 ], [ 86.2768793, 26.1773038 ], [ 86.2691379, 26.178285 ], [ 86.2653799, 26.1807489 ], [ 86.2652593, 26.1824232 ], [ 86.2697678, 26.1872091 ], [ 86.2694921, 26.1904943 ], [ 86.2597161, 26.1918078 ], [ 86.259715, 26.1927784 ], [ 86.2547301, 26.1937007 ], [ 86.2546072, 26.1949326 ], [ 86.2449492, 26.1949129 ], [ 86.2456595, 26.2018381 ], [ 86.2435804, 26.2037368 ], [ 86.2442545, 26.2063001 ], [ 86.2476901, 26.2113789 ], [ 86.2476565, 26.2142545 ], [ 86.2522212, 26.2175112 ], [ 86.2483174, 26.2189035 ], [ 86.2484232, 26.2258068 ], [ 86.2431685, 26.2248627 ], [ 86.2420157, 26.2258724 ], [ 86.2359588, 26.2259171 ], [ 86.2317224, 26.2239036 ], [ 86.229823, 26.2242637 ], [ 86.2292324, 26.2265449 ], [ 86.2208522, 26.2266938 ], [ 86.2195852, 26.2252919 ], [ 86.21716, 26.225667 ], [ 86.2110418, 26.2214441 ], [ 86.1991042, 26.2221907 ], [ 86.1984273, 26.2201824 ], [ 86.196331, 26.2200534 ], [ 86.1860795, 26.2223387 ], [ 86.1792378, 26.2222592 ], [ 86.1787257, 26.2246309 ], [ 86.1755025, 26.2260119 ], [ 86.1747613, 26.228897 ], [ 86.1744798, 26.2262318 ], [ 86.1720597, 26.2230577 ], [ 86.1647649, 26.2268483 ], [ 86.1568278, 26.2259443 ], [ 86.156894, 26.2299445 ], [ 86.1495373, 26.2352508 ], [ 86.1460289, 26.2344806 ], [ 86.1399959, 26.2305441 ], [ 86.1356915, 26.2237059 ], [ 86.1321072, 26.2224338 ], [ 86.1305581, 26.2193953 ], [ 86.1286409, 26.2201105 ], [ 86.1283975, 26.2185154 ], [ 86.1232489, 26.2182945 ], [ 86.1258821, 26.2155522 ], [ 86.1243042, 26.210378 ], [ 86.1219693, 26.2087431 ], [ 86.1207393, 26.2039277 ], [ 86.1186831, 26.2018474 ], [ 86.1128644, 26.2023263 ], [ 86.1142897, 26.197157 ], [ 86.1097176, 26.1923389 ], [ 86.1049411, 26.1953159 ], [ 86.100384, 26.1964161 ], [ 86.1044465, 26.1997912 ], [ 86.0960863, 26.2008449 ], [ 86.0954826, 26.2025431 ], [ 86.0937761, 26.2025549 ], [ 86.0941043, 26.2034689 ], [ 86.089515, 26.2035031 ], [ 86.0890729, 26.2062993 ], [ 86.0866128, 26.2066674 ], [ 86.0866437, 26.2110421 ], [ 86.0749495, 26.213342 ], [ 86.0734766, 26.2128991 ], [ 86.0746714, 26.2073766 ], [ 86.0732628, 26.2057785 ], [ 86.0594252, 26.2082934 ], [ 86.0573782, 26.1996123 ], [ 86.0589376, 26.1967423 ], [ 86.0564832, 26.1933088 ], [ 86.0530541, 26.1916295 ], [ 86.0483111, 26.192167 ], [ 86.0483146, 26.1905103 ], [ 86.0446412, 26.1905807 ], [ 86.0390112, 26.1931119 ], [ 86.0286163, 26.1939315 ], [ 86.0270389, 26.1952796 ], [ 86.0284334, 26.2015054 ], [ 86.0311683, 26.2023951 ], [ 86.0322624, 26.2074631 ], [ 86.0306872, 26.2097323 ], [ 86.0310957, 26.2117711 ], [ 86.0286369, 26.2131539 ], [ 86.0291261, 26.2157214 ], [ 86.031318, 26.2187699 ], [ 86.0403655, 26.2250604 ], [ 86.044312, 26.2357949 ], [ 86.0322229, 26.2370322 ], [ 86.03143, 26.246331 ], [ 86.0141006, 26.2466916 ], [ 86.0141022, 26.2530343 ], [ 86.0104271, 26.2536681 ], [ 86.0131587, 26.2574519 ], [ 86.0102926, 26.2583125 ], [ 86.009706, 26.2601819 ], [ 86.0000906, 26.2622235 ], [ 86.0002819, 26.2650282 ], [ 86.0030757, 26.2667857 ], [ 86.0037079, 26.2695709 ], [ 86.0001628, 26.270738 ], [ 86.0009359, 26.281623 ], [ 85.9976571, 26.2858409 ], [ 86.0003712, 26.2896636 ], [ 86.0028608, 26.2907643 ], [ 86.003, 26.2943903 ], [ 86.0053963, 26.2947094 ], [ 86.006112, 26.2971115 ], [ 86.0137812, 26.3016787 ], [ 86.0091855, 26.3020172 ], [ 86.0039555, 26.3056602 ], [ 85.9976636, 26.3072098 ], [ 85.9966257, 26.3106439 ], [ 85.9948632, 26.3107131 ], [ 85.9914299, 26.3215704 ], [ 85.9785946, 26.3225226 ], [ 85.9741338, 26.3181482 ], [ 85.9690828, 26.3079839 ], [ 85.9625789, 26.3086153 ], [ 85.9618505, 26.3056102 ], [ 85.9497082, 26.3058787 ], [ 85.9480021, 26.3080368 ], [ 85.9463187, 26.3064626 ], [ 85.9385042, 26.3096615 ], [ 85.9278963, 26.3044804 ], [ 85.9223697, 26.3075917 ], [ 85.923737, 26.308372 ], [ 85.9231965, 26.3091123 ], [ 85.9194861, 26.3093482 ], [ 85.9193598, 26.306311 ], [ 85.9214567, 26.3034807 ], [ 85.9169405, 26.303983 ], [ 85.9184221, 26.3025068 ], [ 85.9178403, 26.2998444 ], [ 85.9192617, 26.2986344 ], [ 85.9188643, 26.2936703 ], [ 85.9219033, 26.2934888 ], [ 85.9187181, 26.2907414 ], [ 85.9218768, 26.2897115 ], [ 85.9197686, 26.284003 ], [ 85.9028862, 26.285903 ], [ 85.8997668, 26.2835929 ], [ 85.8985944, 26.2789492 ], [ 85.8919011, 26.2775151 ], [ 85.8908847, 26.2758724 ], [ 85.8866197, 26.2770958 ], [ 85.8861093, 26.2785445 ], [ 85.8828454, 26.277958 ], [ 85.8824697, 26.2741447 ], [ 85.8797715, 26.2742711 ], [ 85.8762724, 26.2786262 ], [ 85.8693032, 26.2799736 ], [ 85.866926, 26.2823853 ], [ 85.8634217, 26.2813696 ], [ 85.8585706, 26.2821996 ], [ 85.8579854, 26.2791261 ], [ 85.8553851, 26.277776 ], [ 85.8498204, 26.2829466 ], [ 85.844538, 26.2832984 ], [ 85.8402238, 26.2795561 ], [ 85.832934, 26.2821581 ], [ 85.8314467, 26.2833943 ], [ 85.8316613, 26.2851454 ], [ 85.8282519, 26.2854376 ], [ 85.8282764, 26.2868141 ], [ 85.815436, 26.2949909 ], [ 85.8153494, 26.2959207 ], [ 85.8197953, 26.2979536 ], [ 85.8206201, 26.3007068 ], [ 85.8207195, 26.3024444 ], [ 85.8163673, 26.3044194 ], [ 85.8149943, 26.3064767 ], [ 85.8157046, 26.3079076 ], [ 85.8181683, 26.3076604 ], [ 85.8169455, 26.3097584 ], [ 85.8210289, 26.3152703 ], [ 85.8180844, 26.3154768 ], [ 85.8204361, 26.3195529 ], [ 85.8206438, 26.3251175 ], [ 85.8225449, 26.3294145 ], [ 85.8255097, 26.3296367 ], [ 85.8310152, 26.3255633 ], [ 85.8342306, 26.3249551 ], [ 85.8362377, 26.3281101 ], [ 85.8346878, 26.3349108 ], [ 85.8377616, 26.3392666 ], [ 85.8369988, 26.3438741 ], [ 85.8308286, 26.3421845 ], [ 85.8238, 26.3450072 ], [ 85.8209503, 26.3444962 ], [ 85.8224084, 26.3544026 ], [ 85.8261043, 26.3565837 ], [ 85.8322111, 26.3555567 ], [ 85.8341135, 26.3587705 ], [ 85.8306115, 26.3599383 ], [ 85.8314075, 26.3612743 ], [ 85.8276588, 26.36487 ], [ 85.8261844, 26.3684754 ], [ 85.8219809, 26.3691823 ], [ 85.8192988, 26.372909 ], [ 85.8201347, 26.3743896 ], [ 85.8233964, 26.3743276 ], [ 85.8245562, 26.3794445 ], [ 85.8329402, 26.375829 ], [ 85.8358563, 26.3808098 ], [ 85.8398227, 26.3804205 ], [ 85.8397322, 26.3817021 ], [ 85.8365202, 26.3826355 ], [ 85.8369343, 26.3879022 ], [ 85.8346743, 26.3883077 ], [ 85.8320249, 26.3850666 ], [ 85.8299306, 26.384547 ], [ 85.8235016, 26.3857002 ], [ 85.8233305, 26.3870675 ], [ 85.8218021, 26.3874686 ], [ 85.8216507, 26.3897386 ], [ 85.8173491, 26.3943942 ], [ 85.8187307, 26.3975809 ], [ 85.8216367, 26.3983898 ], [ 85.8218262, 26.4005606 ], [ 85.8199419, 26.4007269 ], [ 85.8204041, 26.408751 ], [ 85.8153676, 26.408388 ], [ 85.8105252, 26.4104843 ], [ 85.7967374, 26.4113258 ], [ 85.7937546, 26.4054304 ], [ 85.7886485, 26.4045473 ], [ 85.7906359, 26.400708 ], [ 85.7853377, 26.4022934 ], [ 85.7778011, 26.4017334 ], [ 85.7737896, 26.3988648 ], [ 85.7680591, 26.4016812 ], [ 85.7621663, 26.4012435 ], [ 85.7616469, 26.3994108 ], [ 85.7597624, 26.3997117 ], [ 85.7616139, 26.4073359 ], [ 85.7598883, 26.4091753 ], [ 85.762668, 26.4108473 ], [ 85.7630406, 26.4143361 ], [ 85.7649642, 26.4152672 ], [ 85.7682203, 26.427978 ], [ 85.7691801, 26.436305 ], [ 85.7675699, 26.437423 ], [ 85.768556, 26.4389942 ], [ 85.7718993, 26.4394434 ], [ 85.7743926, 26.4429878 ], [ 85.7745933, 26.4453913 ], [ 85.7663575, 26.4473143 ], [ 85.7552969, 26.4534835 ], [ 85.753912, 26.4642094 ], [ 85.7522161, 26.4652009 ], [ 85.7517827, 26.4672809 ], [ 85.7548162, 26.4721213 ], [ 85.7649666, 26.4708072 ], [ 85.7681049, 26.4660259 ], [ 85.775469, 26.4622179 ], [ 85.7794498, 26.4624823 ], [ 85.793023, 26.4547107 ], [ 85.7974623, 26.4590319 ], [ 85.8023865, 26.4601709 ], [ 85.8041625, 26.4587136 ], [ 85.8057642, 26.4689284 ], [ 85.8117515, 26.4684934 ], [ 85.8123694, 26.4755383 ], [ 85.8056846, 26.4761444 ], [ 85.8064504, 26.4786765 ], [ 85.8039579, 26.479113 ], [ 85.8037306, 26.4816672 ], [ 85.7999354, 26.4800858 ], [ 85.790681, 26.4830997 ], [ 85.7881793, 26.482146 ], [ 85.7888545, 26.4779494 ], [ 85.784356, 26.4783844 ], [ 85.7832197, 26.4758835 ], [ 85.7801451, 26.4767209 ], [ 85.7794789, 26.4758676 ], [ 85.7706802, 26.4793814 ], [ 85.7715554, 26.481995 ], [ 85.7730446, 26.4822623 ], [ 85.7734231, 26.4851688 ], [ 85.7701772, 26.4865204 ], [ 85.7703063, 26.4880548 ], [ 85.7586553, 26.4889935 ], [ 85.7603226, 26.496793 ], [ 85.7639699, 26.4957219 ], [ 85.7658422, 26.4994284 ], [ 85.7680859, 26.5000147 ], [ 85.7691979, 26.5030935 ], [ 85.7730133, 26.505303 ], [ 85.7721647, 26.5066384 ], [ 85.7687085, 26.5070559 ], [ 85.768641, 26.5101881 ], [ 85.7718506, 26.5110973 ], [ 85.7761662, 26.5160917 ], [ 85.7863301, 26.5140983 ], [ 85.7900869, 26.5147593 ], [ 85.7909554, 26.5132704 ], [ 85.7904477, 26.5058638 ], [ 85.7874948, 26.5019702 ], [ 85.7877271, 26.4966319 ], [ 85.7981845, 26.4962228 ], [ 85.7995718, 26.4993509 ], [ 85.7977228, 26.5014896 ], [ 85.8011973, 26.5042534 ], [ 85.8027702, 26.5087584 ], [ 85.8056197, 26.5076133 ], [ 85.8106955, 26.5083284 ], [ 85.8110098, 26.512544 ], [ 85.8078437, 26.515377 ], [ 85.8100849, 26.5177656 ], [ 85.8112223, 26.5214623 ], [ 85.8184453, 26.5227964 ], [ 85.8188056, 26.5257031 ], [ 85.8205162, 26.5260783 ], [ 85.8232942, 26.5301545 ], [ 85.8254749, 26.5358464 ], [ 85.8255035, 26.5413796 ], [ 85.8212032, 26.5431835 ], [ 85.8206954, 26.546708 ], [ 85.8171123, 26.5489949 ], [ 85.8150753, 26.5486331 ], [ 85.8069759, 26.5517484 ], [ 85.8056195, 26.5548394 ], [ 85.8086043, 26.5574041 ], [ 85.8085676, 26.5605406 ], [ 85.8117117, 26.5651406 ], [ 85.808152, 26.5666105 ], [ 85.8083869, 26.5683707 ], [ 85.8107349, 26.5700368 ], [ 85.812116, 26.5770957 ], [ 85.816495, 26.5825988 ], [ 85.8168701, 26.5851531 ], [ 85.8138565, 26.5878508 ], [ 85.8139157, 26.5898229 ], [ 85.8203498, 26.5928399 ], [ 85.8173198, 26.603172 ], [ 85.830619, 26.6016228 ], [ 85.8311953, 26.6115413 ], [ 85.8512599, 26.6086773 ], [ 85.8580846, 26.589883 ], [ 85.8485914, 26.5769816 ], [ 85.8492091, 26.5689984 ], [ 85.851851, 26.5685987 ], [ 85.8567778, 26.572258 ], [ 85.8583852, 26.5716296 ], [ 85.8586514, 26.5689403 ], [ 85.8686179, 26.5752984 ], [ 85.8708578, 26.5798377 ], [ 85.8732235, 26.5789738 ], [ 85.878858, 26.5820296 ], [ 85.879743, 26.5841214 ], [ 85.8854078, 26.5823699 ], [ 85.887847, 26.5831926 ], [ 85.8914205, 26.5941932 ], [ 85.8942437, 26.5951382 ], [ 85.8961704, 26.5937552 ], [ 85.9007209, 26.595028 ], [ 85.9005467, 26.6004658 ], [ 85.9024907, 26.6003671 ], [ 85.9091898, 26.604589 ], [ 85.9128884, 26.6044837 ], [ 85.9138547, 26.6088372 ], [ 85.9270801, 26.6097944 ], [ 85.926725, 26.6119755 ], [ 85.9292521, 26.6143211 ], [ 85.9291035, 26.616815 ], [ 85.9327744, 26.6139312 ], [ 85.9380876, 26.6165924 ], [ 85.9407864, 26.6135658 ], [ 85.9481794, 26.613962 ], [ 85.9470973, 26.6157254 ], [ 85.9481073, 26.6170724 ], [ 85.9462668, 26.6180235 ], [ 85.9460935, 26.6210045 ], [ 85.9494559, 26.6249387 ], [ 85.9515294, 26.6243845 ], [ 85.9552131, 26.6292243 ], [ 85.955638, 26.630861 ], [ 85.9525339, 26.6374743 ], [ 85.953984, 26.6390023 ], [ 85.9535075, 26.6437486 ], [ 85.9565846, 26.648718 ], [ 85.9598004, 26.6494404 ], [ 85.9601221, 26.6510108 ], [ 85.9632963, 26.6502127 ], [ 85.964695, 26.6525621 ], [ 85.967448, 26.6517206 ], [ 85.9708682, 26.6550439 ], [ 85.9736147, 26.6550777 ], [ 85.9758122, 26.6584514 ], [ 86.0005324, 26.6548273 ], [ 86.0060597, 26.6560793 ], [ 86.0083779, 26.6547257 ], [ 86.0116164, 26.6551713 ], [ 86.0121079, 26.6598625 ], [ 86.0189032, 26.6611388 ], [ 86.0275803, 26.6667872 ] ] ] } }
]
}
