{
"type": "FeatureCollection",
"name": "1008",
"crs": { "type": "name", "properties": { "name": "urn:ogc:def:crs:OGC:1.3:CRS84" } },
"features": [
{ "type": "Feature", "properties": { "code": "1008", "name": "Kishanganj", "type": "district" }, "geometry": { "type": "Polygon", "coordinates": [ [ [ 88.2187082, 26.5566596 ], [ 88.2254876, 26.5567452 ], [ 88.2280033, 26.5529527 ], [ 88.2256583, 26.5509733 ], [ 88.2255596, 26.5472097 ], [ 88.2293064, 26.5400632 ], [ 88.2296833, 26.5350447 ], [ 88.2087744, 26.5244126 ], [ 88.2060882, 26.5211107 ], [ 88.204152, 26.5212879 ], [ 88.2023319, 26.5151107 ], [ 88.2031633, 26.5131337 ], [ 88.1988442, 26.5126576 ], [ 88.1951019, 26.5141378 ], [ 88.1912842, 26.5115285 ], [ 88.191132, 26.5085321 ], [ 88.1851106, 26.5040489 ], [ 88.183584, 26.500413 ], [ 88.1797016, 26.4995842 ], [ 88.1788517, 26.4946023 ], [ 88.1817997, 26.4925253 ], [ 88.1798866, 26.4876431 ], [ 88.1850362, 26.4860706 ], [ 88.1861785, 26.4837686 ], [ 88.1878591, 26.4849051 ], [ 88.1906609, 26.4820518 ], [ 88.1916212, 26.4776739 ], [ 88.1957667, 26.4751311 ], [ 88.2029583, 26.4763595 ], [ 88.2033131, 26.4743195 ], [ 88.2107336, 26.4730923 ], [ 88.2157669, 26.4780489 ], [ 88.2137961, 26.4780772 ], [ 88.2117729, 26.4816435 ], [ 88.212456, 26.4832452 ], [ 88.2198582, 26.4835248 ], [ 88.2243602, 26.4819468 ], [ 88.2242365, 26.4779937 ], [ 88.2211673, 26.4715288 ], [ 88.2182181, 26.4706643 ], [ 88.2117054, 26.4718236 ], [ 88.2098231, 26.4692253 ], [ 88.2139995, 26.4685775 ], [ 88.215492, 26.4663879 ], [ 88.217728, 26.465908 ], [ 88.2184524, 26.4625861 ], [ 88.2227464, 26.4591264 ], [ 88.2251534, 26.4536643 ], [ 88.2341708, 26.4515096 ], [ 88.2424489, 26.4523515 ], [ 88.2438241, 26.4538397 ], [ 88.2428614, 26.4487183 ], [ 88.2481664, 26.436684 ], [ 88.2509053, 26.4359334 ], [ 88.250858, 26.4331462 ], [ 88.2541973, 26.4318266 ], [ 88.2584615, 26.4321846 ], [ 88.2593964, 26.4286334 ], [ 88.2634093, 26.4287705 ], [ 88.2622669, 26.4249026 ], [ 88.2630495, 26.4228329 ], [ 88.2670067, 26.4228525 ], [ 88.2676246, 26.4211082 ], [ 88.2695789, 26.4204452 ], [ 88.2682532, 26.4175847 ], [ 88.2645469, 26.4154106 ], [ 88.2548864, 26.4170678 ], [ 88.2524168, 26.4160517 ], [ 88.2474812, 26.4075213 ], [ 88.2446687, 26.4070404 ], [ 88.2443108, 26.4049602 ], [ 88.2417928, 26.4050695 ], [ 88.2392277, 26.403439 ], [ 88.2380505, 26.3987194 ], [ 88.2343887, 26.3947554 ], [ 88.2319918, 26.3929701 ], [ 88.2279377, 26.3927474 ], [ 88.2270379, 26.3894672 ], [ 88.2332133, 26.3863443 ], [ 88.2340097, 26.3806574 ], [ 88.232215, 26.3795982 ], [ 88.2404678, 26.3752007 ], [ 88.2465691, 26.3741804 ], [ 88.246775, 26.3753759 ], [ 88.2553339, 26.3773959 ], [ 88.2575587, 26.3812799 ], [ 88.2614759, 26.3776239 ], [ 88.2662214, 26.3791748 ], [ 88.2676714, 26.38141 ], [ 88.2719445, 26.3778343 ], [ 88.276265, 26.3794379 ], [ 88.2744424, 26.3762398 ], [ 88.2767445, 26.3725234 ], [ 88.2764985, 26.368261 ], [ 88.2788356, 26.3666758 ], [ 88.279806, 26.3596835 ], [ 88.2827332, 26.3575733 ], [ 88.290188, 26.3599695 ], [ 88.2907809, 26.3585863 ], [ 88.2889997, 26.3539614 ], [ 88.2936936, 26.3529311 ], [ 88.2935328, 26.350818 ], [ 88.2913935, 26.3492284 ], [ 88.2903466, 26.3514162 ], [ 88.2853918, 26.3523838 ], [ 88.2843274, 26.3496494 ], [ 88.2789086, 26.3493939 ], [ 88.2782017, 26.3431951 ], [ 88.2811509, 26.3420152 ], [ 88.2794787, 26.3366764 ], [ 88.2798681, 26.3319612 ], [ 88.276025, 26.3322352 ], [ 88.2746931, 26.328571 ], [ 88.2697854, 26.327867 ], [ 88.2687715, 26.3314093 ], [ 88.2665174, 26.3318698 ], [ 88.2691455, 26.3327543 ], [ 88.2711426, 26.3359341 ], [ 88.2708809, 26.3375332 ], [ 88.2683811, 26.3379851 ], [ 88.2668757, 26.3350753 ], [ 88.2577807, 26.3355168 ], [ 88.2577877, 26.3319539 ], [ 88.2549253, 26.3293174 ], [ 88.2543939, 26.3269927 ], [ 88.2492278, 26.3279329 ], [ 88.2480476, 26.3263613 ], [ 88.2472527, 26.3281209 ], [ 88.2467429, 26.3242807 ], [ 88.2442016, 26.3220083 ], [ 88.2455361, 26.3145383 ], [ 88.2398746, 26.3115508 ], [ 88.2398124, 26.3093305 ], [ 88.2378882, 26.3080278 ], [ 88.2356956, 26.3033269 ], [ 88.2316472, 26.3058166 ], [ 88.2318401, 26.3087048 ], [ 88.2294331, 26.3103673 ], [ 88.2306125, 26.3079249 ], [ 88.2267082, 26.3036224 ], [ 88.2281783, 26.2956604 ], [ 88.2259139, 26.294069 ], [ 88.2269325, 26.2909001 ], [ 88.2171247, 26.2844532 ], [ 88.2133546, 26.2840403 ], [ 88.2132218, 26.2804345 ], [ 88.2106318, 26.2777914 ], [ 88.2015879, 26.2809239 ], [ 88.1973222, 26.2718596 ], [ 88.1831769, 26.2736756 ], [ 88.1826548, 26.2704445 ], [ 88.179005, 26.269101 ], [ 88.1794729, 26.2633106 ], [ 88.1741941, 26.2557894 ], [ 88.1717716, 26.2556548 ], [ 88.168224, 26.258147 ], [ 88.1632423, 26.2534098 ], [ 88.161661, 26.253884 ], [ 88.1604757, 26.2568854 ], [ 88.1554408, 26.258105 ], [ 88.1543438, 26.2545219 ], [ 88.1501342, 26.2525189 ], [ 88.1443979, 26.2522412 ], [ 88.1426509, 26.2504723 ], [ 88.1411235, 26.2434011 ], [ 88.1367394, 26.2412216 ], [ 88.1365985, 26.2324755 ], [ 88.1417576, 26.2316356 ], [ 88.1398154, 26.227195 ], [ 88.1308886, 26.2271504 ], [ 88.1298728, 26.2250248 ], [ 88.1257298, 26.2277598 ], [ 88.1144164, 26.2237246 ], [ 88.1145368, 26.2212064 ], [ 88.1168685, 26.2201641 ], [ 88.1165834, 26.2191531 ], [ 88.1111098, 26.2176995 ], [ 88.1114554, 26.2154474 ], [ 88.1054065, 26.2143771 ], [ 88.1031356, 26.2112448 ], [ 88.1036116, 26.2077834 ], [ 88.10087, 26.2075347 ], [ 88.1011255, 26.2060138 ], [ 88.098234, 26.2052777 ], [ 88.0978091, 26.2035897 ], [ 88.0957927, 26.2048755 ], [ 88.0937119, 26.2036746 ], [ 88.0942425, 26.2025555 ], [ 88.0913409, 26.2021441 ], [ 88.089385, 26.1910275 ], [ 88.0854316, 26.1910269 ], [ 88.0817415, 26.1868332 ], [ 88.0764799, 26.1854731 ], [ 88.0758109, 26.1825168 ], [ 88.0780429, 26.1797962 ], [ 88.0745882, 26.1762433 ], [ 88.0725376, 26.1760034 ], [ 88.0718483, 26.1742024 ], [ 88.0694875, 26.1741337 ], [ 88.068881, 26.1768504 ], [ 88.0649747, 26.1769887 ], [ 88.0656958, 26.1751747 ], [ 88.0590714, 26.1705008 ], [ 88.0577097, 26.1727792 ], [ 88.0525736, 26.1720094 ], [ 88.0518677, 26.1731148 ], [ 88.050803, 26.1721845 ], [ 88.0498302, 26.1760652 ], [ 88.037234, 26.1787072 ], [ 88.0314949, 26.1752059 ], [ 88.0329269, 26.1732076 ], [ 88.0317742, 26.1699754 ], [ 88.0282882, 26.1700363 ], [ 88.0264816, 26.1654408 ], [ 88.0241562, 26.1652586 ], [ 88.0196751, 26.1598217 ], [ 88.0143403, 26.1585675 ], [ 88.0099815, 26.1615382 ], [ 88.0078347, 26.1580478 ], [ 88.0097311, 26.1569346 ], [ 88.0092483, 26.1547139 ], [ 88.0141541, 26.1493066 ], [ 88.0107683, 26.1447683 ], [ 88.0062455, 26.1457414 ], [ 88.004036, 26.141766 ], [ 87.9998794, 26.1383958 ], [ 87.9944175, 26.1435137 ], [ 87.9920707, 26.1509604 ], [ 87.9850197, 26.1456457 ], [ 87.985882, 26.14268 ], [ 87.9837464, 26.1421219 ], [ 87.9830881, 26.1440223 ], [ 87.9813136, 26.1445834 ], [ 87.9749022, 26.1433738 ], [ 87.9724543, 26.1399997 ], [ 87.9748729, 26.1383147 ], [ 87.9791927, 26.1379687 ], [ 87.9784908, 26.130148 ], [ 87.9815334, 26.1276862 ], [ 87.981397, 26.1260571 ], [ 87.9798056, 26.1242981 ], [ 87.9761518, 26.1252755 ], [ 87.9753411, 26.1242607 ], [ 87.9795549, 26.1234228 ], [ 87.9793889, 26.1222811 ], [ 87.9707985, 26.1204592 ], [ 87.9692715, 26.1176215 ], [ 87.9711807, 26.1169388 ], [ 87.9715244, 26.1153635 ], [ 87.9742577, 26.1166311 ], [ 87.9814871, 26.1149774 ], [ 87.9837574, 26.1157114 ], [ 87.9851081, 26.111432 ], [ 87.9857698, 26.1134399 ], [ 87.9877309, 26.1097692 ], [ 87.9858459, 26.1092742 ], [ 87.9864733, 26.106602 ], [ 87.9846438, 26.1066981 ], [ 87.9849025, 26.1053846 ], [ 87.9833379, 26.1052774 ], [ 87.9833469, 26.1042666 ], [ 87.9868945, 26.102752 ], [ 87.9868033, 26.1014072 ], [ 87.98254, 26.1018527 ], [ 87.9821214, 26.1032384 ], [ 87.9786106, 26.1011695 ], [ 87.9775173, 26.1027183 ], [ 87.9771954, 26.1005025 ], [ 87.976237, 26.1019429 ], [ 87.9734259, 26.0995575 ], [ 87.9731171, 26.1008392 ], [ 87.9717622, 26.1005695 ], [ 87.9708512, 26.0989453 ], [ 87.9671366, 26.09786 ], [ 87.9684255, 26.0968844 ], [ 87.967465, 26.0960952 ], [ 87.966641, 26.0968585 ], [ 87.966525, 26.0954956 ], [ 87.9636055, 26.0946263 ], [ 87.9715212, 26.0929334 ], [ 87.970748, 26.0886691 ], [ 87.9766592, 26.0870719 ], [ 87.9767321, 26.0847251 ], [ 87.9782007, 26.0837989 ], [ 87.9823534, 26.0833852 ], [ 87.9822403, 26.0798741 ], [ 87.9856216, 26.0776602 ], [ 87.9821898, 26.0737634 ], [ 87.972793, 26.0774301 ], [ 87.9654991, 26.0740454 ], [ 87.9580847, 26.0763199 ], [ 87.9570641, 26.0747634 ], [ 87.9552102, 26.0747419 ], [ 87.9529125, 26.0764672 ], [ 87.9533466, 26.0753026 ], [ 87.9519617, 26.0744187 ], [ 87.9508828, 26.0752633 ], [ 87.9503924, 26.0742119 ], [ 87.9523249, 26.0718777 ], [ 87.9508495, 26.0699288 ], [ 87.9495156, 26.0705794 ], [ 87.9485506, 26.0696005 ], [ 87.9519626, 26.0679966 ], [ 87.9548165, 26.0690286 ], [ 87.9545195, 26.065671 ], [ 87.9526399, 26.0646114 ], [ 87.9503271, 26.065619 ], [ 87.950119, 26.0605509 ], [ 87.9488606, 26.0618965 ], [ 87.9438784, 26.0610098 ], [ 87.9349155, 26.0636809 ], [ 87.9363521, 26.0686042 ], [ 87.9306363, 26.0703078 ], [ 87.9317803, 26.080295 ], [ 87.9313614, 26.0820191 ], [ 87.9280484, 26.0830673 ], [ 87.9205291, 26.0756865 ], [ 87.9166615, 26.0768384 ], [ 87.9162414, 26.0757103 ], [ 87.9143624, 26.0760086 ], [ 87.9100834, 26.0713748 ], [ 87.9085097, 26.0728012 ], [ 87.9069904, 26.0723367 ], [ 87.9012416, 26.0629099 ], [ 87.8987834, 26.0640026 ], [ 87.892402, 26.0611556 ], [ 87.8903879, 26.0579154 ], [ 87.8901221, 26.049178 ], [ 87.8835019, 26.046809 ], [ 87.8779512, 26.0493682 ], [ 87.8715763, 26.0423818 ], [ 87.8622697, 26.035395 ], [ 87.8620647, 26.0365413 ], [ 87.856598, 26.0363515 ], [ 87.8501595, 26.0383673 ], [ 87.8487549, 26.041955 ], [ 87.8532298, 26.0494883 ], [ 87.8543926, 26.0568854 ], [ 87.8615422, 26.060199 ], [ 87.8728694, 26.0700112 ], [ 87.8727695, 26.0709589 ], [ 87.8643392, 26.0715226 ], [ 87.8680766, 26.0786671 ], [ 87.872949, 26.0841372 ], [ 87.8698152, 26.0885013 ], [ 87.872279, 26.095447 ], [ 87.8675205, 26.0968504 ], [ 87.8710789, 26.1044777 ], [ 87.8680798, 26.1049875 ], [ 87.8666106, 26.1006684 ], [ 87.8635317, 26.0982581 ], [ 87.8634324, 26.0934427 ], [ 87.8601188, 26.0920388 ], [ 87.8547303, 26.0949806 ], [ 87.8381825, 26.0914615 ], [ 87.8373022, 26.0934064 ], [ 87.8338982, 26.0940959 ], [ 87.8385606, 26.0969766 ], [ 87.8334529, 26.0954677 ], [ 87.8349661, 26.0990696 ], [ 87.8300621, 26.1005891 ], [ 87.8264086, 26.0996717 ], [ 87.8270789, 26.0985843 ], [ 87.8258494, 26.098304 ], [ 87.8240393, 26.0998604 ], [ 87.8206109, 26.0988256 ], [ 87.820472, 26.0966774 ], [ 87.8193825, 26.0963926 ], [ 87.8126498, 26.0965207 ], [ 87.8094848, 26.0985185 ], [ 87.8047115, 26.0983448 ], [ 87.8021066, 26.0995845 ], [ 87.7969867, 26.0944775 ], [ 87.7922387, 26.0940551 ], [ 87.7900722, 26.0904614 ], [ 87.783445, 26.0902361 ], [ 87.7818797, 26.0914356 ], [ 87.7804528, 26.0883342 ], [ 87.7792629, 26.0888027 ], [ 87.7797609, 26.0911093 ], [ 87.7786404, 26.092133 ], [ 87.7789711, 26.1031587 ], [ 87.7718117, 26.1048777 ], [ 87.7699086, 26.1033373 ], [ 87.7613539, 26.1056189 ], [ 87.7600646, 26.1052613 ], [ 87.7600819, 26.1029281 ], [ 87.7615152, 26.0991427 ], [ 87.744038, 26.100761 ], [ 87.7406038, 26.1040767 ], [ 87.7376008, 26.1031989 ], [ 87.739, 26.106107 ], [ 87.7354716, 26.1087347 ], [ 87.7341839, 26.1076614 ], [ 87.7363507, 26.1044529 ], [ 87.7331092, 26.1065796 ], [ 87.7321042, 26.1063456 ], [ 87.7332517, 26.1039528 ], [ 87.7314841, 26.1060528 ], [ 87.7281149, 26.1059243 ], [ 87.7288455, 26.1124226 ], [ 87.724463, 26.1143663 ], [ 87.7182284, 26.1133956 ], [ 87.7167271, 26.1175983 ], [ 87.7150377, 26.1181003 ], [ 87.7100118, 26.1156573 ], [ 87.711294, 26.1120686 ], [ 87.709342, 26.1088745 ], [ 87.7054874, 26.1079109 ], [ 87.7021338, 26.1088785 ], [ 87.7007513, 26.1043933 ], [ 87.685175, 26.1030421 ], [ 87.6851514, 26.1057229 ], [ 87.6889771, 26.1090475 ], [ 87.6872384, 26.1105646 ], [ 87.6889134, 26.1114303 ], [ 87.6892297, 26.1138492 ], [ 87.692421, 26.1173138 ], [ 87.6921871, 26.1190921 ], [ 87.6862071, 26.1173302 ], [ 87.6892329, 26.1196802 ], [ 87.692131, 26.1258167 ], [ 87.6871829, 26.1285447 ], [ 87.6874008, 26.1339649 ], [ 87.6926961, 26.1347838 ], [ 87.6933278, 26.1379247 ], [ 87.69181, 26.1416757 ], [ 87.6945558, 26.1428974 ], [ 87.6952377, 26.1460111 ], [ 87.6949747, 26.14936 ], [ 87.6906493, 26.1494793 ], [ 87.6914212, 26.1525975 ], [ 87.6871332, 26.1575954 ], [ 87.6919155, 26.1600665 ], [ 87.7025968, 26.1590321 ], [ 87.7061947, 26.1622525 ], [ 87.7052609, 26.1642432 ], [ 87.7011067, 26.1669488 ], [ 87.6908959, 26.1700633 ], [ 87.6878696, 26.1784093 ], [ 87.6891574, 26.1828089 ], [ 87.6930109, 26.1861649 ], [ 87.6972774, 26.1858559 ], [ 87.7020253, 26.1872435 ], [ 87.703888, 26.1901038 ], [ 87.7041755, 26.1937321 ], [ 87.7003848, 26.195413 ], [ 87.6975271, 26.1933564 ], [ 87.6965073, 26.1943364 ], [ 87.6964291, 26.1974594 ], [ 87.6996275, 26.2001746 ], [ 87.6967067, 26.2014668 ], [ 87.6993402, 26.2047916 ], [ 87.6956732, 26.2049018 ], [ 87.6985222, 26.2086055 ], [ 87.6917049, 26.211795 ], [ 87.6929936, 26.2167587 ], [ 87.6859866, 26.222182 ], [ 87.6884757, 26.2264052 ], [ 87.6868293, 26.2260268 ], [ 87.6790268, 26.2334313 ], [ 87.6734173, 26.2336679 ], [ 87.6753114, 26.2394755 ], [ 87.6778137, 26.2398357 ], [ 87.6765804, 26.2462536 ], [ 87.6747589, 26.2465476 ], [ 87.6736138, 26.248976 ], [ 87.6724176, 26.2487056 ], [ 87.6724865, 26.2514581 ], [ 87.6704452, 26.2541171 ], [ 87.6643641, 26.2546739 ], [ 87.6662264, 26.2569076 ], [ 87.6702805, 26.2566627 ], [ 87.6720382, 26.2603813 ], [ 87.6751614, 26.2603624 ], [ 87.6733155, 26.2641046 ], [ 87.6748524, 26.265395 ], [ 87.6708585, 26.2671204 ], [ 87.6652674, 26.2670948 ], [ 87.6709189, 26.2684067 ], [ 87.6627598, 26.2673797 ], [ 87.6631007, 26.2704443 ], [ 87.6608076, 26.267493 ], [ 87.6612485, 26.2696233 ], [ 87.6595068, 26.2713071 ], [ 87.6606732, 26.2719929 ], [ 87.6606894, 26.2791828 ], [ 87.6578111, 26.2801583 ], [ 87.6607048, 26.2811777 ], [ 87.6616463, 26.2842059 ], [ 87.6636136, 26.2835556 ], [ 87.6653763, 26.2864256 ], [ 87.667419, 26.2869577 ], [ 87.6652067, 26.2889982 ], [ 87.6659333, 26.29269 ], [ 87.6649526, 26.2962332 ], [ 87.6660993, 26.2972664 ], [ 87.6646327, 26.2992618 ], [ 87.6620094, 26.2997226 ], [ 87.6609986, 26.3034418 ], [ 87.6566276, 26.3030728 ], [ 87.6535437, 26.3061559 ], [ 87.6461284, 26.3054213 ], [ 87.6461285, 26.3077411 ], [ 87.6440407, 26.3105351 ], [ 87.6419527, 26.3123406 ], [ 87.6418025, 26.3108513 ], [ 87.6392539, 26.3108516 ], [ 87.6352329, 26.3174862 ], [ 87.6290739, 26.3169495 ], [ 87.6275113, 26.3189263 ], [ 87.6261895, 26.3182719 ], [ 87.6286176, 26.3232951 ], [ 87.6239054, 26.323954 ], [ 87.6222224, 26.3270997 ], [ 87.6244853, 26.3314097 ], [ 87.6189664, 26.3322176 ], [ 87.6172981, 26.336744 ], [ 87.6129802, 26.3406657 ], [ 87.612328, 26.3456391 ], [ 87.6110258, 26.3462799 ], [ 87.6112656, 26.3485905 ], [ 87.6153876, 26.3490421 ], [ 87.6154531, 26.3471557 ], [ 87.6199706, 26.3477877 ], [ 87.6178473, 26.3470069 ], [ 87.6198009, 26.3445563 ], [ 87.6205469, 26.3460908 ], [ 87.6251348, 26.3449626 ], [ 87.6271977, 26.350473 ], [ 87.6271221, 26.3562904 ], [ 87.6297265, 26.3590477 ], [ 87.6374253, 26.3600853 ], [ 87.6374854, 26.3632219 ], [ 87.6406522, 26.3644401 ], [ 87.6419309, 26.368989 ], [ 87.6383799, 26.3753661 ], [ 87.6363956, 26.3751316 ], [ 87.637138, 26.3790443 ], [ 87.6435271, 26.3799688 ], [ 87.6487026, 26.3767685 ], [ 87.6526459, 26.376497 ], [ 87.6546811, 26.3790374 ], [ 87.658279, 26.379118 ], [ 87.6565359, 26.3808017 ], [ 87.6578393, 26.3825298 ], [ 87.6571232, 26.3838973 ], [ 87.6521827, 26.384828 ], [ 87.6502026, 26.4059573 ], [ 87.6781279, 26.4158347 ], [ 87.6775579, 26.4354561 ], [ 87.6923055, 26.4356622 ], [ 87.6982978, 26.4283427 ], [ 87.7110735, 26.4274763 ], [ 87.7136792, 26.4251829 ], [ 87.7139303, 26.4228272 ], [ 87.7154313, 26.4229544 ], [ 87.7158145, 26.421836 ], [ 87.7171218, 26.4226333 ], [ 87.7176675, 26.4216063 ], [ 87.7181693, 26.4224204 ], [ 87.7212637, 26.4187483 ], [ 87.7223007, 26.4195043 ], [ 87.7239861, 26.4156176 ], [ 87.7230815, 26.4125274 ], [ 87.73394, 26.4076106 ], [ 87.7393169, 26.4175931 ], [ 87.748439, 26.4179517 ], [ 87.7538779, 26.4079734 ], [ 87.7647599, 26.4098821 ], [ 87.767315, 26.4111642 ], [ 87.765593, 26.4131645 ], [ 87.76819, 26.4148392 ], [ 87.7673879, 26.4181482 ], [ 87.7691965, 26.4185163 ], [ 87.7712586, 26.4215512 ], [ 87.7723555, 26.4192387 ], [ 87.7759651, 26.4211211 ], [ 87.7757337, 26.4221132 ], [ 87.772981, 26.4202165 ], [ 87.7760584, 26.425187 ], [ 87.7733595, 26.425255 ], [ 87.7704671, 26.4275191 ], [ 87.7754173, 26.4269605 ], [ 87.7726507, 26.429965 ], [ 87.7740265, 26.4311075 ], [ 87.7759253, 26.4294763 ], [ 87.7779081, 26.4356636 ], [ 87.776403, 26.4368549 ], [ 87.7749744, 26.435285 ], [ 87.7730105, 26.4359933 ], [ 87.7744154, 26.4404239 ], [ 87.7779056, 26.4422333 ], [ 87.7756138, 26.4427937 ], [ 87.7769168, 26.4476119 ], [ 87.7740148, 26.4503573 ], [ 87.7789809, 26.4506193 ], [ 87.7779559, 26.4537326 ], [ 87.7827809, 26.4540689 ], [ 87.7848342, 26.4586296 ], [ 87.7883193, 26.460745 ], [ 87.7888287, 26.4620985 ], [ 87.7863194, 26.4630285 ], [ 87.7865164, 26.4658232 ], [ 87.7891184, 26.4643215 ], [ 87.7901061, 26.4657855 ], [ 87.7865647, 26.4670698 ], [ 87.7866481, 26.4680863 ], [ 87.7900084, 26.4693465 ], [ 87.7913446, 26.4664504 ], [ 87.7919442, 26.4689237 ], [ 87.7935915, 26.4685704 ], [ 87.8172381, 26.4591817 ], [ 87.8231357, 26.4535389 ], [ 87.8297318, 26.4500199 ], [ 87.8283275, 26.4400037 ], [ 87.8488284, 26.4364635 ], [ 87.8510269, 26.4452821 ], [ 87.8613664, 26.4488617 ], [ 87.8609316, 26.4512191 ], [ 87.8625999, 26.4531076 ], [ 87.8594548, 26.454482 ], [ 87.8582379, 26.4565936 ], [ 87.8595682, 26.459609 ], [ 87.8582626, 26.4610765 ], [ 87.8584327, 26.4639024 ], [ 87.8628069, 26.464581 ], [ 87.8633306, 26.4679466 ], [ 87.8859802, 26.4764134 ], [ 87.8882937, 26.4867598 ], [ 87.9002068, 26.4772817 ], [ 87.9098083, 26.4575632 ], [ 87.8987394, 26.4487096 ], [ 87.9240541, 26.4466819 ], [ 87.9251427, 26.4448387 ], [ 87.925666, 26.4413986 ], [ 87.9245336, 26.4384699 ], [ 87.9176044, 26.4348635 ], [ 87.9159901, 26.4318329 ], [ 87.9180694, 26.4298726 ], [ 87.9258267, 26.4280634 ], [ 87.926942, 26.4178012 ], [ 87.9322901, 26.4180018 ], [ 87.9659801, 26.397194 ], [ 87.9919196, 26.3925629 ], [ 87.9920593, 26.3713741 ], [ 87.9943333, 26.3685609 ], [ 87.9935646, 26.3677239 ], [ 87.9962914, 26.3656382 ], [ 87.9980085, 26.3649476 ], [ 88.0000116, 26.3665614 ], [ 88.0027693, 26.3662628 ], [ 88.001717, 26.3652007 ], [ 88.0043869, 26.3643813 ], [ 88.0065795, 26.3609964 ], [ 88.0305043, 26.3649222 ], [ 88.0311173, 26.3666054 ], [ 88.0277582, 26.3691227 ], [ 88.027506, 26.3710261 ], [ 88.0289952, 26.3716955 ], [ 88.0281434, 26.3730671 ], [ 88.0300745, 26.3740479 ], [ 88.0291551, 26.3762293 ], [ 88.0307335, 26.3758891 ], [ 88.0316048, 26.3780495 ], [ 88.0283952, 26.3788414 ], [ 88.0272433, 26.3816125 ], [ 88.030159, 26.3832177 ], [ 88.0309687, 26.3823242 ], [ 88.032056, 26.387909 ], [ 88.0346356, 26.3882573 ], [ 88.0348261, 26.3912591 ], [ 88.0366615, 26.3901172 ], [ 88.0381402, 26.391921 ], [ 88.0379071, 26.3937781 ], [ 88.0450067, 26.3959669 ], [ 88.0438819, 26.3967607 ], [ 88.0466737, 26.3979423 ], [ 88.0455233, 26.4002179 ], [ 88.0514048, 26.4005872 ], [ 88.0518495, 26.3991664 ], [ 88.052666, 26.401396 ], [ 88.0556079, 26.4005289 ], [ 88.0544044, 26.4028148 ], [ 88.0555406, 26.4026007 ], [ 88.0576731, 26.4066854 ], [ 88.0568598, 26.4077886 ], [ 88.058366, 26.4076856 ], [ 88.0599216, 26.4095802 ], [ 88.0631668, 26.4104668 ], [ 88.0641895, 26.4081726 ], [ 88.0667594, 26.4096303 ], [ 88.068732, 26.4079104 ], [ 88.0712964, 26.4081404 ], [ 88.069228, 26.411851 ], [ 88.0695943, 26.4136544 ], [ 88.0777462, 26.4192385 ], [ 88.083709, 26.4259059 ], [ 88.0858742, 26.4318196 ], [ 88.0942272, 26.4371849 ], [ 88.0959787, 26.4399876 ], [ 88.0970088, 26.452171 ], [ 88.0920843, 26.4633075 ], [ 88.0949911, 26.4648537 ], [ 88.1029252, 26.4655713 ], [ 88.103705, 26.4681747 ], [ 88.097807, 26.472499 ], [ 88.1048641, 26.4722312 ], [ 88.1068667, 26.4737933 ], [ 88.1069781, 26.4757425 ], [ 88.1002053, 26.4802515 ], [ 88.1010941, 26.483963 ], [ 88.1054774, 26.4893027 ], [ 88.100167, 26.4941679 ], [ 88.0985706, 26.5059136 ], [ 88.0923325, 26.5046953 ], [ 88.0902413, 26.5072525 ], [ 88.0957936, 26.5102641 ], [ 88.0963738, 26.51207 ], [ 88.0942907, 26.5156189 ], [ 88.095103, 26.5164072 ], [ 88.1030031, 26.5182529 ], [ 88.1047281, 26.5277567 ], [ 88.1024572, 26.5305995 ], [ 88.1036769, 26.536071 ], [ 88.0989717, 26.5347616 ], [ 88.0980744, 26.5379483 ], [ 88.1008497, 26.5398068 ], [ 88.1033949, 26.5397305 ], [ 88.1044209, 26.5374407 ], [ 88.1100253, 26.5360606 ], [ 88.1117318, 26.5311869 ], [ 88.1145461, 26.5329878 ], [ 88.1169693, 26.5327307 ], [ 88.1179729, 26.5301946 ], [ 88.1172657, 26.5276087 ], [ 88.1238628, 26.524098 ], [ 88.1250289, 26.5207467 ], [ 88.1296112, 26.5160758 ], [ 88.1327971, 26.5164395 ], [ 88.1337673, 26.5168407 ], [ 88.1349815, 26.5233835 ], [ 88.1400366, 26.5242179 ], [ 88.1441933, 26.5224653 ], [ 88.1473754, 26.5226288 ], [ 88.1503458, 26.5318103 ], [ 88.1521639, 26.5322522 ], [ 88.1549903, 26.5298243 ], [ 88.1563453, 26.530022 ], [ 88.1665435, 26.5355269 ], [ 88.1678061, 26.5403898 ], [ 88.1727847, 26.5359727 ], [ 88.1762312, 26.5353713 ], [ 88.1756214, 26.5405297 ], [ 88.1793929, 26.5482542 ], [ 88.1954142, 26.5479631 ], [ 88.1962748, 26.5439192 ], [ 88.2021201, 26.5437537 ], [ 88.2013747, 26.5395392 ], [ 88.2039848, 26.5411263 ], [ 88.2126844, 26.5404127 ], [ 88.2139797, 26.5415582 ], [ 88.2129368, 26.5424298 ], [ 88.2052458, 26.5434948 ], [ 88.2076505, 26.5453933 ], [ 88.2119046, 26.5444251 ], [ 88.2162381, 26.5486916 ], [ 88.2082157, 26.5500592 ], [ 88.2109533, 26.56092 ], [ 88.2187082, 26.5566596 ] ] ] } }
]
}
