{
"type": "FeatureCollection",
"name": "1009",
"crs": { "type": "name", "properties": { "name": "urn:ogc:def:crs:OGC:1.3:CRS84" } },
"features": [
{ "type": "Feature", "properties": { "code": "1009", "name": "Purnia", "type": "district" }, "geometry": { "type": "Polygon", "coordinates": [ [ [ 87.713403, 26.1181059 ], [ 87.7167271, 26.1175983 ], [ 87.7182284, 26.1133956 ], [ 87.724463, 26.1143663 ], [ 87.7288455, 26.1124226 ], [ 87.7281149, 26.1059243 ], [ 87.7314841, 26.1060528 ], [ 87.7332517, 26.1039528 ], [ 87.7321042, 26.1063456 ], [ 87.7331092, 26.1065796 ], [ 87.7363507, 26.1044529 ], [ 87.7341839, 26.1076614 ], [ 87.7354716, 26.1087347 ], [ 87.739, 26.106107 ], [ 87.7376008, 26.1031989 ], [ 87.7406038, 26.1040767 ], [ 87.744038, 26.100761 ], [ 87.7615152, 26.0991427 ], [ 87.7600819, 26.1029281 ], [ 87.7600646, 26.1052613 ], [ 87.7613539, 26.1056189 ], [ 87.7699086, 26.1033373 ], [ 87.7718117, 26.1048777 ], [ 87.7789711, 26.1031587 ], [ 87.7786404, 26.092133 ], [ 87.7797609, 26.0911093 ], [ 87.7792629, 26.0888027 ], [ 87.7804528, 26.0883342 ], [ 87.7818797, 26.0914356 ], [ 87.783445, 26.0902361 ], [ 87.7900722, 26.0904614 ], [ 87.7922387, 26.0940551 ], [ 87.7969867, 26.0944775 ], [ 87.8021066, 26.0995845 ], [ 87.8047115, 26.0983448 ], [ 87.8094848, 26.0985185 ], [ 87.8126498, 26.0965207 ], [ 87.8193825, 26.0963926 ], [ 87.820472, 26.0966774 ], [ 87.8206109, 26.0988256 ], [ 87.8240393, 26.0998604 ], [ 87.8258494, 26.098304 ], [ 87.8270789, 26.0985843 ], [ 87.8264086, 26.0996717 ], [ 87.8300621, 26.1005891 ], [ 87.8349661, 26.0990696 ], [ 87.8334529, 26.0954677 ], [ 87.8385606, 26.0969766 ], [ 87.8338982, 26.0940959 ], [ 87.8373022, 26.0934064 ], [ 87.8381825, 26.0914615 ], [ 87.8547303, 26.0949806 ], [ 87.8601188, 26.0920388 ], [ 87.8634324, 26.0934427 ], [ 87.8635317, 26.0982581 ], [ 87.8666106, 26.1006684 ], [ 87.8680798, 26.1049875 ], [ 87.8710789, 26.1044777 ], [ 87.8675205, 26.0968504 ], [ 87.872279, 26.095447 ], [ 87.8698152, 26.0885013 ], [ 87.872949, 26.0841372 ], [ 87.8680766, 26.0786671 ], [ 87.8643392, 26.0715226 ], [ 87.8727695, 26.0709589 ], [ 87.8728694, 26.0700112 ], [ 87.8615422, 26.060199 ], [ 87.8543926, 26.0568854 ], [ 87.8532298, 26.0494883 ], [ 87.8487549, 26.041955 ], [ 87.8492902, 26.0389133 ], [ 87.856598, 26.0363515 ], [ 87.8542474, 26.0312057 ], [ 87.8545176, 26.0293599 ], [ 87.8569405, 26.0287194 ], [ 87.8573006, 26.0253481 ], [ 87.8548744, 26.0172828 ], [ 87.8504497, 26.0141589 ], [ 87.8545858, 26.0118489 ], [ 87.850407, 26.0034537 ], [ 87.8514111, 26.0022805 ], [ 87.8504531, 25.998539 ], [ 87.8491848, 25.9980739 ], [ 87.849445, 25.9954338 ], [ 87.8479869, 25.9950949 ], [ 87.8479422, 25.9936914 ], [ 87.8451255, 25.994123 ], [ 87.8445978, 25.9881034 ], [ 87.8455466, 25.988063 ], [ 87.845752, 25.9855673 ], [ 87.8441252, 25.9813291 ], [ 87.8446357, 25.9769108 ], [ 87.847083, 25.9746727 ], [ 87.8447165, 25.9739321 ], [ 87.8470592, 25.9693653 ], [ 87.8467453, 25.9670093 ], [ 87.8457418, 25.9668376 ], [ 87.8465716, 25.9633446 ], [ 87.8368369, 25.9602823 ], [ 87.835969, 25.9583775 ], [ 87.8382625, 25.9520326 ], [ 87.8336969, 25.9458483 ], [ 87.8337177, 25.9436098 ], [ 87.8340277, 25.9421566 ], [ 87.8369478, 25.9422793 ], [ 87.8393451, 25.9381142 ], [ 87.8347303, 25.9316772 ], [ 87.8384338, 25.9314931 ], [ 87.8331034, 25.9279107 ], [ 87.8195857, 25.9339422 ], [ 87.8160529, 25.9317247 ], [ 87.8126187, 25.9321069 ], [ 87.811871, 25.9301523 ], [ 87.8073742, 25.9298524 ], [ 87.8090021, 25.9283729 ], [ 87.8088468, 25.9206914 ], [ 87.8127456, 25.9188516 ], [ 87.8129958, 25.9176423 ], [ 87.8119929, 25.9159461 ], [ 87.8075718, 25.9160918 ], [ 87.8080282, 25.912161 ], [ 87.8113872, 25.9113727 ], [ 87.8120617, 25.9099694 ], [ 87.8155299, 25.9102191 ], [ 87.8164671, 25.9120249 ], [ 87.8151831, 25.914863 ], [ 87.8168909, 25.9128283 ], [ 87.8198347, 25.9139985 ], [ 87.8225803, 25.9121264 ], [ 87.821357, 25.9029778 ], [ 87.8195917, 25.9003368 ], [ 87.8250471, 25.8971525 ], [ 87.8268348, 25.8940842 ], [ 87.825359, 25.891317 ], [ 87.8229942, 25.8906618 ], [ 87.8217832, 25.8875246 ], [ 87.8233208, 25.8855936 ], [ 87.8225043, 25.8817073 ], [ 87.8197009, 25.880754 ], [ 87.8110891, 25.881793 ], [ 87.8070544, 25.8791327 ], [ 87.805066, 25.8754355 ], [ 87.8076381, 25.8704947 ], [ 87.8096641, 25.8693087 ], [ 87.8120328, 25.8710022 ], [ 87.8154402, 25.8710308 ], [ 87.8155251, 25.8610836 ], [ 87.8209734, 25.8588518 ], [ 87.82055, 25.8573532 ], [ 87.8158508, 25.8484422 ], [ 87.8159216, 25.8464473 ], [ 87.8108294, 25.8459352 ], [ 87.8046779, 25.848902 ], [ 87.7984234, 25.8485106 ], [ 87.7973374, 25.8465152 ], [ 87.7955021, 25.8462343 ], [ 87.7938485, 25.8429658 ], [ 87.8011621, 25.8399685 ], [ 87.8170369, 25.8303852 ], [ 87.8170743, 25.8252897 ], [ 87.8214574, 25.815087 ], [ 87.8227233, 25.8055689 ], [ 87.8248792, 25.801097 ], [ 87.8261905, 25.80075 ], [ 87.8252998, 25.7966335 ], [ 87.827151, 25.7931274 ], [ 87.8266339, 25.7896881 ], [ 87.8286487, 25.787748 ], [ 87.8215255, 25.7862967 ], [ 87.8108207, 25.7802445 ], [ 87.8069625, 25.7799945 ], [ 87.8026396, 25.7734301 ], [ 87.8028952, 25.7713631 ], [ 87.8018235, 25.7713219 ], [ 87.802358, 25.7694537 ], [ 87.8064503, 25.7693745 ], [ 87.8056452, 25.7653528 ], [ 87.7887979, 25.7659032 ], [ 87.788541, 25.7626896 ], [ 87.7841772, 25.7596991 ], [ 87.7781319, 25.759307 ], [ 87.7842613, 25.7541569 ], [ 87.7870685, 25.7523623 ], [ 87.7901087, 25.7522017 ], [ 87.7922959, 25.7500335 ], [ 87.789933, 25.7469477 ], [ 87.7861265, 25.7458937 ], [ 87.7803853, 25.7461247 ], [ 87.7763301, 25.7504959 ], [ 87.7767009, 25.7539984 ], [ 87.772846, 25.7568572 ], [ 87.7701654, 25.7559977 ], [ 87.7640942, 25.7567469 ], [ 87.7635576, 25.7550539 ], [ 87.7535267, 25.7535023 ], [ 87.7491966, 25.7574342 ], [ 87.7474249, 25.761885 ], [ 87.7450831, 25.7638108 ], [ 87.741604, 25.7638136 ], [ 87.739468, 25.7660268 ], [ 87.7357124, 25.7635384 ], [ 87.7356242, 25.7651452 ], [ 87.7286961, 25.7651774 ], [ 87.7283911, 25.7640989 ], [ 87.7245427, 25.7634652 ], [ 87.7199034, 25.7647952 ], [ 87.7201793, 25.7669524 ], [ 87.7105334, 25.7653833 ], [ 87.7094028, 25.7594669 ], [ 87.7108018, 25.7573946 ], [ 87.7084845, 25.7577253 ], [ 87.7087872, 25.7559018 ], [ 87.7075955, 25.7549637 ], [ 87.7039682, 25.756595 ], [ 87.7036956, 25.7588608 ], [ 87.7004599, 25.7570662 ], [ 87.6994485, 25.7577574 ], [ 87.6980468, 25.7557135 ], [ 87.7002138, 25.7541373 ], [ 87.69655, 25.7530288 ], [ 87.6980091, 25.7512363 ], [ 87.7032947, 25.7504822 ], [ 87.70353, 25.7495314 ], [ 87.6955209, 25.7487096 ], [ 87.695053, 25.7497749 ], [ 87.6877721, 25.7502566 ], [ 87.6875967, 25.7485327 ], [ 87.6850145, 25.7469857 ], [ 87.6870501, 25.7416862 ], [ 87.6841519, 25.7360096 ], [ 87.6864974, 25.7330976 ], [ 87.6841396, 25.7312707 ], [ 87.6858186, 25.7309315 ], [ 87.6842681, 25.7292261 ], [ 87.6810583, 25.7271196 ], [ 87.6824862, 25.7229848 ], [ 87.6845435, 25.7218602 ], [ 87.6810653, 25.7210401 ], [ 87.6801911, 25.7158817 ], [ 87.6813868, 25.7160212 ], [ 87.6819132, 25.7121666 ], [ 87.6797457, 25.7115852 ], [ 87.6832761, 25.7078558 ], [ 87.6817451, 25.7045436 ], [ 87.6843351, 25.7034187 ], [ 87.684354, 25.7015502 ], [ 87.6806328, 25.7014118 ], [ 87.6807664, 25.699647 ], [ 87.6776429, 25.6994857 ], [ 87.6774342, 25.7007314 ], [ 87.675621, 25.7008088 ], [ 87.6751991, 25.704704 ], [ 87.6731415, 25.7043255 ], [ 87.6735841, 25.702317 ], [ 87.6704802, 25.7014153 ], [ 87.6682053, 25.6924254 ], [ 87.6690016, 25.6907191 ], [ 87.6672233, 25.690336 ], [ 87.6653394, 25.6875879 ], [ 87.6571997, 25.6853784 ], [ 87.6524583, 25.686783 ], [ 87.6509633, 25.683976 ], [ 87.6486819, 25.6828932 ], [ 87.6426508, 25.6883913 ], [ 87.6417839, 25.6872675 ], [ 87.6409231, 25.6940738 ], [ 87.6382631, 25.6944938 ], [ 87.6360514, 25.6943721 ], [ 87.635817, 25.6922057 ], [ 87.6306365, 25.6907031 ], [ 87.6271191, 25.6863702 ], [ 87.6244051, 25.6862485 ], [ 87.6240912, 25.6850209 ], [ 87.6185276, 25.6848988 ], [ 87.6163311, 25.6822494 ], [ 87.6130087, 25.6843975 ], [ 87.6092382, 25.6837382 ], [ 87.6047849, 25.686387 ], [ 87.6018911, 25.685344 ], [ 87.5990361, 25.6892746 ], [ 87.594463, 25.6912009 ], [ 87.5823554, 25.6862196 ], [ 87.5781908, 25.6873422 ], [ 87.5759035, 25.6900088 ], [ 87.572711, 25.6891276 ], [ 87.5719057, 25.6852729 ], [ 87.5700484, 25.6839318 ], [ 87.5627055, 25.6858921 ], [ 87.5610652, 25.6889424 ], [ 87.5592078, 25.687899 ], [ 87.5562362, 25.6892173 ], [ 87.555133, 25.6883575 ], [ 87.555921, 25.6865526 ], [ 87.5588005, 25.6858498 ], [ 87.5601512, 25.6840857 ], [ 87.5552147, 25.6848281 ], [ 87.5521834, 25.6813107 ], [ 87.5553461, 25.6814928 ], [ 87.5562241, 25.6792276 ], [ 87.5575279, 25.6813539 ], [ 87.5588131, 25.6811153 ], [ 87.5610058, 25.6788686 ], [ 87.5622903, 25.6796726 ], [ 87.5634478, 25.6773654 ], [ 87.5667738, 25.6780677 ], [ 87.5690356, 25.6770214 ], [ 87.5712064, 25.6785071 ], [ 87.5714821, 25.6746348 ], [ 87.5749794, 25.6724065 ], [ 87.573895, 25.6692377 ], [ 87.5775952, 25.6696 ], [ 87.5750815, 25.6663089 ], [ 87.5751274, 25.6636595 ], [ 87.571542, 25.6631753 ], [ 87.571677, 25.6617312 ], [ 87.5739983, 25.660387 ], [ 87.5712001, 25.6593614 ], [ 87.5692964, 25.6623712 ], [ 87.5678127, 25.6614453 ], [ 87.5675231, 25.6632145 ], [ 87.560672, 25.660481 ], [ 87.5570137, 25.6658413 ], [ 87.5508033, 25.6660368 ], [ 87.5527924, 25.6709935 ], [ 87.5455204, 25.6719556 ], [ 87.5427278, 25.6698869 ], [ 87.5393206, 25.6708283 ], [ 87.5375559, 25.673156 ], [ 87.5388785, 25.6761447 ], [ 87.5373728, 25.6782741 ], [ 87.5381379, 25.6808382 ], [ 87.5369623, 25.681018 ], [ 87.5368763, 25.6829045 ], [ 87.5378257, 25.6856176 ], [ 87.5392654, 25.685316 ], [ 87.5399915, 25.6869006 ], [ 87.5370375, 25.6871426 ], [ 87.5354004, 25.685052 ], [ 87.5330297, 25.684712 ], [ 87.5323636, 25.6829649 ], [ 87.5309677, 25.6845076 ], [ 87.5295635, 25.6841456 ], [ 87.5309395, 25.6823998 ], [ 87.5297921, 25.6784048 ], [ 87.5304914, 25.6758777 ], [ 87.5257567, 25.6736856 ], [ 87.523159, 25.6769966 ], [ 87.5183625, 25.6772504 ], [ 87.5162588, 25.6792573 ], [ 87.5152634, 25.6784126 ], [ 87.505399, 25.6811715 ], [ 87.5066531, 25.672042 ], [ 87.5061502, 25.6670228 ], [ 87.504676, 25.6669448 ], [ 87.5012814, 25.6700111 ], [ 87.498339, 25.6691059 ], [ 87.4895216, 25.6700323 ], [ 87.4870537, 25.6725256 ], [ 87.4880118, 25.6745018 ], [ 87.4845542, 25.6732406 ], [ 87.4815247, 25.6772011 ], [ 87.4810375, 25.6839308 ], [ 87.4788347, 25.6824747 ], [ 87.4740682, 25.682681 ], [ 87.4708966, 25.6841907 ], [ 87.463793, 25.6830487 ], [ 87.4500111, 25.6834491 ], [ 87.4429024, 25.6817375 ], [ 87.4406317, 25.6826187 ], [ 87.4353067, 25.6818492 ], [ 87.4333997, 25.6830144 ], [ 87.4310663, 25.6779152 ], [ 87.414699, 25.6755375 ], [ 87.4137626, 25.6756597 ], [ 87.4134651, 25.6795322 ], [ 87.4002261, 25.6785737 ], [ 87.3915555, 25.683851 ], [ 87.3873114, 25.6811977 ], [ 87.3809562, 25.6855264 ], [ 87.3772802, 25.6817714 ], [ 87.3745308, 25.6814645 ], [ 87.3719904, 25.6847411 ], [ 87.3677018, 25.6856933 ], [ 87.3665012, 25.6885682 ], [ 87.3632832, 25.6897686 ], [ 87.3516128, 25.6874292 ], [ 87.3530081, 25.6846538 ], [ 87.3404215, 25.6839427 ], [ 87.3411239, 25.6832026 ], [ 87.3378069, 25.6824029 ], [ 87.3356539, 25.6862839 ], [ 87.3335372, 25.6857237 ], [ 87.3328639, 25.6883863 ], [ 87.320446, 25.6884048 ], [ 87.3205499, 25.6898761 ], [ 87.3179, 25.6897578 ], [ 87.3137387, 25.693633 ], [ 87.3033077, 25.6938315 ], [ 87.3023436, 25.6983714 ], [ 87.295526, 25.7027006 ], [ 87.2784088, 25.7029115 ], [ 87.2756925, 25.7104063 ], [ 87.2764208, 25.7152766 ], [ 87.2594344, 25.7173312 ], [ 87.2534623, 25.7108362 ], [ 87.2469541, 25.7098162 ], [ 87.2461481, 25.7058857 ], [ 87.2418314, 25.7034655 ], [ 87.2397345, 25.6986966 ], [ 87.2411202, 25.6943852 ], [ 87.2475339, 25.6873031 ], [ 87.2477175, 25.6832594 ], [ 87.2525208, 25.6815439 ], [ 87.2597589, 25.6702618 ], [ 87.2563199, 25.6678219 ], [ 87.2620171, 25.6521786 ], [ 87.2662999, 25.6517801 ], [ 87.2701976, 25.6474547 ], [ 87.2777362, 25.6477532 ], [ 87.2764545, 25.6441868 ], [ 87.2578145, 25.6416456 ], [ 87.2519644, 25.6365 ], [ 87.2490683, 25.6302555 ], [ 87.248461, 25.6254166 ], [ 87.2491262, 25.6224881 ], [ 87.2542745, 25.6219667 ], [ 87.2544804, 25.6149642 ], [ 87.2507979, 25.5993402 ], [ 87.257195, 25.5982262 ], [ 87.2575232, 25.5934604 ], [ 87.2598512, 25.5895671 ], [ 87.2577653, 25.5849889 ], [ 87.2585353, 25.5762199 ], [ 87.2635854, 25.5719316 ], [ 87.263146, 25.5701376 ], [ 87.2605612, 25.5700776 ], [ 87.2609564, 25.5682917 ], [ 87.2668357, 25.5672093 ], [ 87.2684808, 25.5621095 ], [ 87.2671571, 25.5622485 ], [ 87.2651258, 25.557905 ], [ 87.2574585, 25.5576734 ], [ 87.2546155, 25.5497184 ], [ 87.2433833, 25.5494314 ], [ 87.241934, 25.5479612 ], [ 87.2421464, 25.5412044 ], [ 87.2286859, 25.5393532 ], [ 87.2228852, 25.5368452 ], [ 87.2223465, 25.5357215 ], [ 87.225769, 25.5296487 ], [ 87.2259492, 25.5250493 ], [ 87.2255501, 25.5236008 ], [ 87.2238741, 25.5240352 ], [ 87.2215437, 25.5210398 ], [ 87.2224932, 25.5202493 ], [ 87.2200264, 25.5081278 ], [ 87.2078162, 25.5082841 ], [ 87.207443, 25.5007198 ], [ 87.2123146, 25.5000272 ], [ 87.2102547, 25.4819231 ], [ 87.2273385, 25.4738014 ], [ 87.2316046, 25.4624786 ], [ 87.2285716, 25.4505967 ], [ 87.2092282, 25.4574966 ], [ 87.2069068, 25.4505246 ], [ 87.2028817, 25.4453363 ], [ 87.2000742, 25.4472875 ], [ 87.194358, 25.4483149 ], [ 87.1923855, 25.4502341 ], [ 87.1899342, 25.4492332 ], [ 87.1888787, 25.4462683 ], [ 87.1853185, 25.4444915 ], [ 87.1870576, 25.4429426 ], [ 87.1835023, 25.4406738 ], [ 87.1811418, 25.4422364 ], [ 87.182649, 25.4442804 ], [ 87.1779287, 25.4491213 ], [ 87.1647558, 25.4517607 ], [ 87.158406, 25.4465446 ], [ 87.1545463, 25.4378028 ], [ 87.143874, 25.436789 ], [ 87.1328342, 25.4390648 ], [ 87.1304481, 25.4365509 ], [ 87.1244833, 25.4380901 ], [ 87.1226938, 25.4365781 ], [ 87.1200842, 25.4366096 ], [ 87.1189756, 25.4398593 ], [ 87.1053466, 25.4336159 ], [ 87.1021902, 25.4342112 ], [ 87.0990332, 25.4374289 ], [ 87.0957622, 25.4384889 ], [ 87.0953733, 25.4432054 ], [ 87.0937425, 25.4443606 ], [ 87.0873941, 25.4457944 ], [ 87.0879665, 25.443118 ], [ 87.08316, 25.4422095 ], [ 87.0808259, 25.4496245 ], [ 87.083564, 25.4529518 ], [ 87.0811471, 25.4548737 ], [ 87.0783881, 25.4546067 ], [ 87.0812041, 25.4622443 ], [ 87.0795917, 25.4663466 ], [ 87.0808459, 25.4765295 ], [ 87.086171, 25.4772802 ], [ 87.0863098, 25.478711 ], [ 87.0908895, 25.4784413 ], [ 87.0986987, 25.4895145 ], [ 87.0980743, 25.4915186 ], [ 87.0996327, 25.4939423 ], [ 87.0983382, 25.5004957 ], [ 87.0996545, 25.5081473 ], [ 87.0976683, 25.5159373 ], [ 87.1004728, 25.5200224 ], [ 87.0981391, 25.5237772 ], [ 87.087399, 25.5257291 ], [ 87.0859013, 25.526979 ], [ 87.0846083, 25.5259722 ], [ 87.0833044, 25.5276779 ], [ 87.0794997, 25.5258984 ], [ 87.0786203, 25.5230276 ], [ 87.0714888, 25.519622 ], [ 87.0687308, 25.5245858 ], [ 87.0651977, 25.5271119 ], [ 87.0604367, 25.5280893 ], [ 87.0561349, 25.526291 ], [ 87.0524387, 25.5267089 ], [ 87.0542642, 25.5352944 ], [ 87.0520848, 25.536011 ], [ 87.0514809, 25.5392559 ], [ 87.0539399, 25.545269 ], [ 87.0544521, 25.5542284 ], [ 87.0584282, 25.5618805 ], [ 87.059967, 25.5688094 ], [ 87.0585648, 25.5758677 ], [ 87.0571507, 25.577361 ], [ 87.0582239, 25.5804487 ], [ 87.050167, 25.5880138 ], [ 87.0489052, 25.5921474 ], [ 87.0435879, 25.5948526 ], [ 87.0408576, 25.5988544 ], [ 87.0406831, 25.6062924 ], [ 87.0434032, 25.6176813 ], [ 87.0438351, 25.6267579 ], [ 87.0373309, 25.6298368 ], [ 87.0353743, 25.6328824 ], [ 87.0311627, 25.6357636 ], [ 87.0302747, 25.6442121 ], [ 87.0259999, 25.6533578 ], [ 87.0277667, 25.6607248 ], [ 87.0261608, 25.6636394 ], [ 87.0271541, 25.6669393 ], [ 87.029443, 25.669351 ], [ 87.0349764, 25.6690115 ], [ 87.038367, 25.6703721 ], [ 87.0479986, 25.6864405 ], [ 87.048023, 25.6950069 ], [ 87.0386131, 25.7089613 ], [ 87.0369243, 25.7155769 ], [ 87.0322503, 25.7164541 ], [ 87.0298853, 25.7143629 ], [ 87.0239638, 25.7175724 ], [ 87.0224369, 25.7203696 ], [ 87.0188671, 25.7229892 ], [ 87.016234, 25.7310887 ], [ 87.0164003, 25.7344558 ], [ 87.0105332, 25.7366177 ], [ 87.0078898, 25.744198 ], [ 87.0090112, 25.7593551 ], [ 87.0134558, 25.7713008 ], [ 87.0129939, 25.7801014 ], [ 87.0182275, 25.791894 ], [ 87.0202549, 25.7937234 ], [ 87.0182354, 25.7997832 ], [ 87.0221079, 25.8072735 ], [ 87.0186871, 25.8131744 ], [ 87.0186463, 25.8197006 ], [ 87.0225582, 25.8227228 ], [ 87.0287943, 25.8193692 ], [ 87.0331116, 25.8206944 ], [ 87.0329373, 25.8269542 ], [ 87.0370778, 25.8317589 ], [ 87.0389458, 25.8416259 ], [ 87.0421038, 25.8474273 ], [ 87.0410014, 25.8475666 ], [ 87.0405654, 25.8506038 ], [ 87.0411519, 25.846488 ], [ 87.039455, 25.8479403 ], [ 87.0396834, 25.8493802 ], [ 87.038417, 25.8487386 ], [ 87.036616, 25.8558097 ], [ 87.0322405, 25.863457 ], [ 87.0306839, 25.8637628 ], [ 87.0304462, 25.8679058 ], [ 87.0229643, 25.8724907 ], [ 87.0293238, 25.8740025 ], [ 87.031412, 25.876635 ], [ 87.0305976, 25.89077 ], [ 87.0198659, 25.9011205 ], [ 87.0162735, 25.8951332 ], [ 87.0140832, 25.8950052 ], [ 87.0110226, 25.8968938 ], [ 87.0109253, 25.8995024 ], [ 87.0091464, 25.8969736 ], [ 87.0070157, 25.8969945 ], [ 87.0065037, 25.9000179 ], [ 87.0032431, 25.9024633 ], [ 86.9983206, 25.9118064 ], [ 86.9998092, 25.9201106 ], [ 86.9954413, 25.9272429 ], [ 86.9947519, 25.936029 ], [ 86.9925744, 25.9417765 ], [ 86.9893731, 25.9456366 ], [ 86.9964095, 25.9448152 ], [ 86.9975381, 25.9450681 ], [ 86.9974963, 25.9469536 ], [ 86.9996374, 25.9471333 ], [ 87.0028946, 25.9449754 ], [ 87.0150798, 25.9448183 ], [ 87.0158463, 25.9472604 ], [ 87.0209179, 25.9474266 ], [ 87.0210441, 25.9515789 ], [ 87.0255528, 25.956533 ], [ 87.03375, 25.9567731 ], [ 87.0359934, 25.9543554 ], [ 87.0364607, 25.9502577 ], [ 87.0403589, 25.9512214 ], [ 87.0466697, 25.9500109 ], [ 87.0484786, 25.9471911 ], [ 87.0553656, 25.9472721 ], [ 87.0550992, 25.9490229 ], [ 87.057557, 25.950971 ], [ 87.0584734, 25.9555388 ], [ 87.0625074, 25.9634002 ], [ 87.0727639, 25.9595725 ], [ 87.0782998, 25.9615422 ], [ 87.0826183, 25.9614082 ], [ 87.0828773, 25.9633534 ], [ 87.0878593, 25.9653361 ], [ 87.0968912, 25.9647017 ], [ 87.1071509, 25.9658271 ], [ 87.1142108, 25.9641715 ], [ 87.1142614, 25.9578711 ], [ 87.1151199, 25.9592296 ], [ 87.1195783, 25.956865 ], [ 87.1212456, 25.9586703 ], [ 87.1230779, 25.9552312 ], [ 87.1291484, 25.9533538 ], [ 87.1271016, 25.9495762 ], [ 87.1299971, 25.9533086 ], [ 87.137206, 25.955145 ], [ 87.1395372, 25.9534794 ], [ 87.1397815, 25.9505232 ], [ 87.1403159, 25.9525136 ], [ 87.1421129, 25.9516333 ], [ 87.1422922, 25.9483657 ], [ 87.1439045, 25.9482753 ], [ 87.1442093, 25.9500579 ], [ 87.1552666, 25.9494467 ], [ 87.1586105, 25.9468149 ], [ 87.1638867, 25.9458838 ], [ 87.1637709, 25.9427923 ], [ 87.1795949, 25.9434281 ], [ 87.1798753, 25.9451655 ], [ 87.1821721, 25.946311 ], [ 87.1889608, 25.9457485 ], [ 87.1880895, 25.9499191 ], [ 87.1985328, 25.94986 ], [ 87.2020612, 25.9561496 ], [ 87.2041376, 25.9555211 ], [ 87.2078929, 25.9571302 ], [ 87.2082536, 25.9588224 ], [ 87.2106641, 25.9576612 ], [ 87.2203845, 25.9580568 ], [ 87.2233416, 25.9539433 ], [ 87.2245273, 25.9449658 ], [ 87.2316003, 25.9446584 ], [ 87.2325995, 25.9454203 ], [ 87.2314589, 25.9482645 ], [ 87.2320915, 25.9523033 ], [ 87.2354904, 25.9568319 ], [ 87.2351258, 25.962036 ], [ 87.2426099, 25.9622647 ], [ 87.2420733, 25.9648829 ], [ 87.2507234, 25.9663455 ], [ 87.254781, 25.9688832 ], [ 87.2592547, 25.9739371 ], [ 87.2651194, 25.9761351 ], [ 87.2644785, 25.9780707 ], [ 87.2665595, 25.9793811 ], [ 87.2676532, 25.9846127 ], [ 87.2741891, 25.9853983 ], [ 87.2763335, 25.9828904 ], [ 87.2776016, 25.982995 ], [ 87.2780037, 25.9858747 ], [ 87.2821168, 25.9817434 ], [ 87.2821737, 25.97918 ], [ 87.2847225, 25.9761487 ], [ 87.2848391, 25.9739012 ], [ 87.2823534, 25.9728526 ], [ 87.2822951, 25.9708126 ], [ 87.2867511, 25.9676245 ], [ 87.2869277, 25.9651695 ], [ 87.2835182, 25.9644859 ], [ 87.2839235, 25.9633894 ], [ 87.290073, 25.9584016 ], [ 87.2924124, 25.9613816 ], [ 87.2957625, 25.9612256 ], [ 87.2974131, 25.9640517 ], [ 87.3009067, 25.9660167 ], [ 87.306403, 25.9671929 ], [ 87.3089408, 25.9736795 ], [ 87.3089373, 25.9797452 ], [ 87.3176566, 25.977709 ], [ 87.3215603, 25.9800889 ], [ 87.3333845, 25.9800658 ], [ 87.3347173, 25.9810861 ], [ 87.3369698, 25.9798862 ], [ 87.3392762, 25.9811279 ], [ 87.343052, 25.9783036 ], [ 87.3491638, 25.9780565 ], [ 87.3498271, 25.9820824 ], [ 87.3540815, 25.9816679 ], [ 87.3591406, 25.975833 ], [ 87.3622263, 25.9768262 ], [ 87.3626607, 25.9758063 ], [ 87.368298, 25.9750755 ], [ 87.369107, 25.9722006 ], [ 87.3712191, 25.9723812 ], [ 87.371998, 25.9712846 ], [ 87.3715637, 25.9694793 ], [ 87.3775202, 25.9697952 ], [ 87.3780694, 25.9717539 ], [ 87.3810451, 25.9682245 ], [ 87.3812197, 25.9644334 ], [ 87.3842251, 25.9639639 ], [ 87.3867708, 25.9575866 ], [ 87.3888526, 25.9575322 ], [ 87.3887326, 25.9560655 ], [ 87.3930707, 25.9547607 ], [ 87.3933006, 25.956065 ], [ 87.3905849, 25.9566971 ], [ 87.3878695, 25.9611384 ], [ 87.3880396, 25.9639636 ], [ 87.3969463, 25.9632855 ], [ 87.3981042, 25.9613492 ], [ 87.3999517, 25.9626577 ], [ 87.4017681, 25.9669471 ], [ 87.400785, 25.9693528 ], [ 87.4022111, 25.9743194 ], [ 87.4047126, 25.9745762 ], [ 87.4049183, 25.9783943 ], [ 87.4075202, 25.9800951 ], [ 87.4074915, 25.9843556 ], [ 87.4034717, 25.9844873 ], [ 87.4030579, 25.9869697 ], [ 87.4041868, 25.9884046 ], [ 87.4103138, 25.9878031 ], [ 87.4123422, 25.9906548 ], [ 87.4145392, 25.9901036 ], [ 87.4151179, 25.9916279 ], [ 87.4213353, 25.9891088 ], [ 87.4215355, 25.9901015 ], [ 87.4255553, 25.9896038 ], [ 87.4255014, 25.9921131 ], [ 87.4263553, 25.9920857 ], [ 87.4272784, 25.9903343 ], [ 87.4327406, 25.9884502 ], [ 87.4437856, 25.9867439 ], [ 87.4437291, 25.9839187 ], [ 87.4556988, 25.984436 ], [ 87.4597504, 25.9869972 ], [ 87.4623516, 25.9863142 ], [ 87.4625832, 25.9889316 ], [ 87.4703237, 25.9892653 ], [ 87.4702374, 25.9874646 ], [ 87.4764222, 25.9847931 ], [ 87.4789352, 25.9804768 ], [ 87.4866072, 25.9775871 ], [ 87.4895247, 25.9791554 ], [ 87.4923303, 25.9785529 ], [ 87.4922174, 25.9804079 ], [ 87.4908292, 25.9804361 ], [ 87.4914401, 25.9821867 ], [ 87.4941256, 25.9812954 ], [ 87.4958681, 25.9858433 ], [ 87.4985451, 25.9863393 ], [ 87.4995721, 25.9879333 ], [ 87.5023541, 25.9873581 ], [ 87.5039651, 25.9893497 ], [ 87.5091988, 25.989002 ], [ 87.5068543, 25.9864366 ], [ 87.509936, 25.9857756 ], [ 87.5115501, 25.9794133 ], [ 87.5103826, 25.9784827 ], [ 87.5131177, 25.9796808 ], [ 87.5166112, 25.9762309 ], [ 87.5168568, 25.9751705 ], [ 87.5154886, 25.9753049 ], [ 87.5172029, 25.9734061 ], [ 87.5196438, 25.9742023 ], [ 87.5190082, 25.9759709 ], [ 87.5210102, 25.9762342 ], [ 87.5208624, 25.9795964 ], [ 87.5278478, 25.979863 ], [ 87.5315117, 25.9813683 ], [ 87.5313643, 25.9846403 ], [ 87.5339513, 25.9841997 ], [ 87.538669, 25.9789447 ], [ 87.5415525, 25.9826111 ], [ 87.5567015, 25.9845642 ], [ 87.579425, 25.9896549 ], [ 87.5824531, 25.9980549 ], [ 87.5916757, 26.0032475 ], [ 87.5987975, 26.0037319 ], [ 87.6086858, 26.0071949 ], [ 87.6103984, 26.0114826 ], [ 87.620033, 26.0117405 ], [ 87.6210968, 26.0128959 ], [ 87.6230248, 26.0113886 ], [ 87.6253823, 26.0148637 ], [ 87.6290784, 26.0136361 ], [ 87.6303422, 26.0163078 ], [ 87.6342432, 26.016768 ], [ 87.6338888, 26.0195436 ], [ 87.6314963, 26.0211278 ], [ 87.6336492, 26.0225764 ], [ 87.6355483, 26.0338365 ], [ 87.6314673, 26.0396272 ], [ 87.6254623, 26.0417936 ], [ 87.6251126, 26.0465099 ], [ 87.6230391, 26.0482294 ], [ 87.6260419, 26.0504318 ], [ 87.627311, 26.0536632 ], [ 87.6328273, 26.0578647 ], [ 87.6350308, 26.0573681 ], [ 87.634057, 26.0645125 ], [ 87.6373599, 26.0639932 ], [ 87.639339, 26.0663263 ], [ 87.644116, 26.0654908 ], [ 87.6438515, 26.0675398 ], [ 87.641258, 26.067662 ], [ 87.6388049, 26.0712095 ], [ 87.6353768, 26.0711331 ], [ 87.6364514, 26.0739718 ], [ 87.6419689, 26.0766836 ], [ 87.6443574, 26.0750766 ], [ 87.6469862, 26.0764257 ], [ 87.6510336, 26.0741052 ], [ 87.6512241, 26.0769801 ], [ 87.6528179, 26.0752333 ], [ 87.6541026, 26.0766997 ], [ 87.6560465, 26.0764918 ], [ 87.6541581, 26.0789517 ], [ 87.654888, 26.0799806 ], [ 87.6610602, 26.0806562 ], [ 87.6624892, 26.0795952 ], [ 87.6593247, 26.0763149 ], [ 87.6623488, 26.0780292 ], [ 87.6651664, 26.0754966 ], [ 87.6707584, 26.0751203 ], [ 87.6705571, 26.0716046 ], [ 87.6742702, 26.0720638 ], [ 87.6757606, 26.0748388 ], [ 87.6786892, 26.0752891 ], [ 87.6790444, 26.0870908 ], [ 87.6819481, 26.0869137 ], [ 87.6843879, 26.0885373 ], [ 87.687321, 26.0871551 ], [ 87.6885927, 26.0914104 ], [ 87.6861572, 26.0981676 ], [ 87.68055, 26.1002188 ], [ 87.683775, 26.1023252 ], [ 87.6910708, 26.1039241 ], [ 87.7007513, 26.1043933 ], [ 87.7021338, 26.1088785 ], [ 87.7054874, 26.1079109 ], [ 87.709342, 26.1088745 ], [ 87.711294, 26.1120686 ], [ 87.7100118, 26.1156573 ], [ 87.7127818, 26.1163777 ], [ 87.713403, 26.1181059 ] ] ] } }
]
}
