{
"type": "FeatureCollection",
"name": "1019",
"crs": { "type": "name", "properties": { "name": "urn:ogc:def:crs:OGC:1.3:CRS84" } },
"features": [
{ "type": "Feature", "properties": { "code": "1019", "name": "Samastipur", "type": "district" }, "geometry": { "type": "Polygon", "coordinates": [ [ [ 85.7137111, 26.0894084 ], [ 85.7189243, 26.0836012 ], [ 85.7206578, 26.0765913 ], [ 85.7198107, 26.0672858 ], [ 85.7268746, 26.0709005 ], [ 85.7299326, 26.070605 ], [ 85.7288286, 26.0653028 ], [ 85.7221624, 26.0588266 ], [ 85.7242172, 26.054276 ], [ 85.7194062, 26.04885 ], [ 85.7214782, 26.0470749 ], [ 85.7274335, 26.0469445 ], [ 85.7288713, 26.0400519 ], [ 85.7306382, 26.0382363 ], [ 85.7350092, 26.0379127 ], [ 85.7404603, 26.0488347 ], [ 85.7425144, 26.0495055 ], [ 85.7464969, 26.0451109 ], [ 85.7496644, 26.0360086 ], [ 85.7531293, 26.033218 ], [ 85.7581159, 26.0321841 ], [ 85.7585938, 26.0338724 ], [ 85.7539086, 26.042967 ], [ 85.7544143, 26.0468307 ], [ 85.7557668, 26.0481587 ], [ 85.7587463, 26.0464235 ], [ 85.7610891, 26.0468361 ], [ 85.761658, 26.0527849 ], [ 85.7650207, 26.0525528 ], [ 85.7656928, 26.0552025 ], [ 85.76468, 26.0482334 ], [ 85.7661982, 26.0489116 ], [ 85.7655897, 26.0425341 ], [ 85.771058, 26.0450519 ], [ 85.7751245, 26.0453707 ], [ 85.780502, 26.0370296 ], [ 85.7851852, 26.0407063 ], [ 85.7951852, 26.0359011 ], [ 85.8116459, 26.0360402 ], [ 85.8140549, 26.0340103 ], [ 85.8163304, 26.0289565 ], [ 85.8175286, 26.0303425 ], [ 85.819332, 26.0302079 ], [ 85.8297886, 26.0272058 ], [ 85.8329956, 26.0272428 ], [ 85.8343133, 26.0302986 ], [ 85.8406803, 26.0355055 ], [ 85.8463658, 26.0363943 ], [ 85.8494639, 26.0329152 ], [ 85.8459777, 26.0302743 ], [ 85.8450905, 26.0222633 ], [ 85.8491319, 26.0207026 ], [ 85.8626582, 26.0230737 ], [ 85.8653806, 26.0222119 ], [ 85.8647167, 26.01625 ], [ 85.8718946, 26.0091602 ], [ 85.8712955, 26.0036677 ], [ 85.8735235, 25.9990997 ], [ 85.8716791, 25.9955551 ], [ 85.8763181, 25.9899527 ], [ 85.8806308, 25.9902751 ], [ 85.8820775, 25.9941732 ], [ 85.8905773, 25.9938729 ], [ 85.8928421, 25.9915292 ], [ 85.8926512, 25.9863227 ], [ 85.8944442, 25.9831311 ], [ 85.903218, 25.9769003 ], [ 85.9124119, 25.972676 ], [ 85.912726, 25.9781729 ], [ 85.9145856, 25.9801777 ], [ 85.9191928, 25.9815846 ], [ 85.9221096, 25.9772228 ], [ 85.9264135, 25.9757335 ], [ 85.927974, 25.9738399 ], [ 85.9281963, 25.9630926 ], [ 85.9307703, 25.9595452 ], [ 85.9302896, 25.955271 ], [ 85.9352983, 25.954703 ], [ 85.935897, 25.9564364 ], [ 85.9372741, 25.9565684 ], [ 85.9377801, 25.9580529 ], [ 85.9363806, 25.9593022 ], [ 85.9372775, 25.9634169 ], [ 85.9412311, 25.9663893 ], [ 85.9429314, 25.9639007 ], [ 85.940306, 25.9564868 ], [ 85.9453906, 25.9530207 ], [ 85.9480577, 25.9529634 ], [ 85.9537861, 25.9573975 ], [ 85.9514801, 25.9584011 ], [ 85.9511214, 25.9622448 ], [ 85.9608469, 25.9602879 ], [ 85.9601099, 25.9583414 ], [ 85.9626872, 25.95715 ], [ 85.9616661, 25.9557116 ], [ 85.9632234, 25.9546618 ], [ 85.9664532, 25.9553621 ], [ 85.9671113, 25.9526265 ], [ 85.9702053, 25.9511362 ], [ 85.981795, 25.9540803 ], [ 85.9871495, 25.9533459 ], [ 85.9883464, 25.9517787 ], [ 85.9878953, 25.9484754 ], [ 85.9958848, 25.9467117 ], [ 85.994237, 25.9437749 ], [ 85.9930396, 25.944236 ], [ 85.9912843, 25.9422058 ], [ 85.9918471, 25.9341694 ], [ 85.9991757, 25.9336875 ], [ 85.9986862, 25.928393 ], [ 86.0012135, 25.9277698 ], [ 86.0018114, 25.9332012 ], [ 86.0051109, 25.9320535 ], [ 86.0064719, 25.9371142 ], [ 86.0053035, 25.9375329 ], [ 86.0061081, 25.9415007 ], [ 86.0099164, 25.9418964 ], [ 86.0105773, 25.9388641 ], [ 86.0215112, 25.9424538 ], [ 86.0348649, 25.9418511 ], [ 86.0374882, 25.9450525 ], [ 86.0419364, 25.9408703 ], [ 86.0457951, 25.9391351 ], [ 86.0411044, 25.9350907 ], [ 86.037732, 25.9353527 ], [ 86.0363446, 25.9328153 ], [ 86.0382286, 25.9307647 ], [ 86.0402344, 25.92969 ], [ 86.050899, 25.932785 ], [ 86.0533117, 25.9296713 ], [ 86.0560602, 25.9326558 ], [ 86.0567007, 25.9298489 ], [ 86.0528901, 25.9254693 ], [ 86.0607373, 25.9230043 ], [ 86.0627828, 25.9175443 ], [ 86.0677323, 25.9198019 ], [ 86.0688472, 25.9151455 ], [ 86.0748648, 25.9174414 ], [ 86.0774999, 25.9098375 ], [ 86.0787745, 25.9102745 ], [ 86.0798829, 25.9134643 ], [ 86.0852419, 25.9086134 ], [ 86.0869859, 25.90448 ], [ 86.0888963, 25.9066184 ], [ 86.0903905, 25.906393 ], [ 86.0930463, 25.8972314 ], [ 86.0955377, 25.9030302 ], [ 86.100152, 25.9034246 ], [ 86.0989583, 25.9054849 ], [ 86.0989177, 25.9121482 ], [ 86.1002077, 25.9131901 ], [ 86.10447, 25.9100066 ], [ 86.1036187, 25.9044212 ], [ 86.1083683, 25.9034212 ], [ 86.1086069, 25.8942534 ], [ 86.1138304, 25.8932335 ], [ 86.1201222, 25.8941973 ], [ 86.1226202, 25.8925329 ], [ 86.1241396, 25.8969846 ], [ 86.126705, 25.8963364 ], [ 86.1276558, 25.8980351 ], [ 86.1400416, 25.8984522 ], [ 86.1434737, 25.8980526 ], [ 86.1440186, 25.8965479 ], [ 86.1537921, 25.8972058 ], [ 86.1546431, 25.8947592 ], [ 86.1597245, 25.8912041 ], [ 86.159631, 25.8881923 ], [ 86.156786, 25.8846949 ], [ 86.1600939, 25.8813236 ], [ 86.1696962, 25.8827378 ], [ 86.1702256, 25.8876889 ], [ 86.1754142, 25.8887162 ], [ 86.1741765, 25.8951472 ], [ 86.181124, 25.8945048 ], [ 86.1811252, 25.8921572 ], [ 86.1855632, 25.8920377 ], [ 86.1862851, 25.8951688 ], [ 86.1936799, 25.8964832 ], [ 86.1953989, 25.8922851 ], [ 86.2054475, 25.8915037 ], [ 86.206913, 25.8893997 ], [ 86.2133383, 25.8877937 ], [ 86.2146939, 25.8924415 ], [ 86.2186607, 25.8925429 ], [ 86.2219558, 25.8949146 ], [ 86.230735, 25.8957885 ], [ 86.2337396, 25.8848365 ], [ 86.2394059, 25.8811764 ], [ 86.2347563, 25.8747559 ], [ 86.2338928, 25.8716148 ], [ 86.2357472, 25.8686726 ], [ 86.2352951, 25.8649802 ], [ 86.2300162, 25.8627152 ], [ 86.2296519, 25.8612372 ], [ 86.2329148, 25.8585793 ], [ 86.2330518, 25.8518226 ], [ 86.2364338, 25.8543927 ], [ 86.2411617, 25.8537717 ], [ 86.2428384, 25.8519662 ], [ 86.2392113, 25.8438984 ], [ 86.23173, 25.8434054 ], [ 86.2288506, 25.8420064 ], [ 86.2288363, 25.8389621 ], [ 86.2311136, 25.8336236 ], [ 86.2310769, 25.8222073 ], [ 86.2296493, 25.819952 ], [ 86.2258511, 25.8185817 ], [ 86.2230364, 25.8112865 ], [ 86.2248645, 25.8070528 ], [ 86.2346844, 25.806705 ], [ 86.2336983, 25.8015644 ], [ 86.2367107, 25.7959952 ], [ 86.23503, 25.7945565 ], [ 86.2327191, 25.7960434 ], [ 86.2276148, 25.793518 ], [ 86.2280834, 25.7919523 ], [ 86.2166974, 25.7871982 ], [ 86.2249491, 25.7770485 ], [ 86.2441662, 25.7739591 ], [ 86.2502631, 25.770515 ], [ 86.2556797, 25.769784 ], [ 86.2608402, 25.7600664 ], [ 86.2611021, 25.7540642 ], [ 86.2691752, 25.7531618 ], [ 86.2733344, 25.7553141 ], [ 86.2765915, 25.7542265 ], [ 86.2784856, 25.7601251 ], [ 86.2811526, 25.7598985 ], [ 86.284219, 25.7625231 ], [ 86.2875403, 25.7628588 ], [ 86.2920404, 25.7666816 ], [ 86.2924799, 25.7628107 ], [ 86.2971758, 25.7620347 ], [ 86.2993598, 25.7636073 ], [ 86.302968, 25.7627178 ], [ 86.3038101, 25.7598939 ], [ 86.3085443, 25.7606585 ], [ 86.311186, 25.7584341 ], [ 86.3099609, 25.7552037 ], [ 86.3150411, 25.7481624 ], [ 86.3157315, 25.7421897 ], [ 86.3175507, 25.7408225 ], [ 86.3197458, 25.7437968 ], [ 86.3222053, 25.7435341 ], [ 86.3225426, 25.7373849 ], [ 86.3261638, 25.7389437 ], [ 86.3323542, 25.7349742 ], [ 86.3432502, 25.7390824 ], [ 86.3480564, 25.7383502 ], [ 86.3501565, 25.7364761 ], [ 86.3536394, 25.7391987 ], [ 86.357616, 25.7398457 ], [ 86.3614415, 25.7386631 ], [ 86.3685612, 25.7412434 ], [ 86.3707519, 25.7338865 ], [ 86.3695963, 25.7307633 ], [ 86.3737867, 25.7283999 ], [ 86.3767294, 25.7296289 ], [ 86.382487, 25.7286123 ], [ 86.3904184, 25.7239422 ], [ 86.3922478, 25.7195614 ], [ 86.3841857, 25.7111763 ], [ 86.3770663, 25.7105898 ], [ 86.372219, 25.7040861 ], [ 86.3634909, 25.7047446 ], [ 86.358739, 25.6997343 ], [ 86.3591228, 25.69806 ], [ 86.3537481, 25.6963081 ], [ 86.3467312, 25.6882144 ], [ 86.3454226, 25.6825319 ], [ 86.3318095, 25.6698504 ], [ 86.3302225, 25.6651876 ], [ 86.3306123, 25.6616132 ], [ 86.3267832, 25.6604565 ], [ 86.326232, 25.6565297 ], [ 86.3169241, 25.6579661 ], [ 86.3165064, 25.6567337 ], [ 86.304702, 25.6563476 ], [ 86.2992931, 25.6539185 ], [ 86.2923612, 25.6542487 ], [ 86.291327, 25.6520276 ], [ 86.2915012, 25.6450364 ], [ 86.2930889, 25.6387412 ], [ 86.2861079, 25.6393058 ], [ 86.2856812, 25.6372294 ], [ 86.2791118, 25.6336687 ], [ 86.2744752, 25.6293327 ], [ 86.2727683, 25.6342376 ], [ 86.2664486, 25.6359481 ], [ 86.2663333, 25.6368958 ], [ 86.2611906, 25.6361878 ], [ 86.257779, 25.6373134 ], [ 86.2565054, 25.6362608 ], [ 86.2551254, 25.6371037 ], [ 86.2562445, 25.6383096 ], [ 86.2545152, 25.6398428 ], [ 86.2542223, 25.6439362 ], [ 86.25761, 25.6471795 ], [ 86.2564335, 25.648501 ], [ 86.2469061, 25.6479029 ], [ 86.2419604, 25.6518246 ], [ 86.2205217, 25.6560286 ], [ 86.2100241, 25.6556063 ], [ 86.2009285, 25.65938 ], [ 86.1891566, 25.6604101 ], [ 86.1835155, 25.6627324 ], [ 86.1843385, 25.6655214 ], [ 86.1804044, 25.6766979 ], [ 86.1807963, 25.6822063 ], [ 86.1789936, 25.6832135 ], [ 86.1783346, 25.6907736 ], [ 86.1771992, 25.6914465 ], [ 86.1774795, 25.6944975 ], [ 86.1791828, 25.693883 ], [ 86.1792884, 25.698024 ], [ 86.1747775, 25.7035363 ], [ 86.1768817, 25.7079362 ], [ 86.1741273, 25.7095303 ], [ 86.1770684, 25.7133205 ], [ 86.1717026, 25.7134306 ], [ 86.1615457, 25.7189352 ], [ 86.1615043, 25.7136818 ], [ 86.1524819, 25.714794 ], [ 86.1462436, 25.7111482 ], [ 86.1456901, 25.7082192 ], [ 86.1429196, 25.7052407 ], [ 86.1410617, 25.7068341 ], [ 86.1418194, 25.7102056 ], [ 86.1404195, 25.7113205 ], [ 86.1415555, 25.7115325 ], [ 86.1411227, 25.7158563 ], [ 86.1430924, 25.7271935 ], [ 86.1464805, 25.7266696 ], [ 86.1472782, 25.7291518 ], [ 86.151972, 25.7291284 ], [ 86.1536629, 25.7364306 ], [ 86.1516655, 25.7399515 ], [ 86.1459697, 25.7407693 ], [ 86.1469172, 25.7443798 ], [ 86.144346, 25.7454995 ], [ 86.1483884, 25.7498993 ], [ 86.1500885, 25.7560808 ], [ 86.1497465, 25.7593069 ], [ 86.1465649, 25.7601144 ], [ 86.1474358, 25.764526 ], [ 86.138837, 25.7649539 ], [ 86.1338083, 25.7610439 ], [ 86.1311307, 25.7626462 ], [ 86.1347641, 25.7662526 ], [ 86.1298478, 25.7703813 ], [ 86.1303384, 25.7714768 ], [ 86.1165425, 25.7747392 ], [ 86.1045578, 25.7750993 ], [ 86.1015796, 25.7739363 ], [ 86.1012884, 25.7709121 ], [ 86.1053031, 25.7574965 ], [ 86.113517, 25.7564632 ], [ 86.1198625, 25.7518695 ], [ 86.1245087, 25.7505296 ], [ 86.1257972, 25.7522619 ], [ 86.1290186, 25.7521413 ], [ 86.1307807, 25.7538855 ], [ 86.1371459, 25.7512867 ], [ 86.1356799, 25.7476623 ], [ 86.132251, 25.7450131 ], [ 86.1336014, 25.7438756 ], [ 86.1309698, 25.7352102 ], [ 86.1226631, 25.7350343 ], [ 86.1160851, 25.7401702 ], [ 86.1143112, 25.7390237 ], [ 86.113848, 25.7351196 ], [ 86.1071652, 25.7395239 ], [ 86.1067468, 25.7377547 ], [ 86.1013252, 25.7379435 ], [ 86.1011262, 25.736287 ], [ 86.0976977, 25.7368236 ], [ 86.097812, 25.7380693 ], [ 86.0920311, 25.7393137 ], [ 86.0954138, 25.7433539 ], [ 86.083867, 25.7443846 ], [ 86.0828069, 25.7403404 ], [ 86.0780068, 25.7433674 ], [ 86.0753813, 25.7417552 ], [ 86.0772968, 25.7368724 ], [ 86.0837953, 25.7355475 ], [ 86.0861731, 25.7326912 ], [ 86.0852919, 25.7303034 ], [ 86.0829897, 25.7308264 ], [ 86.0812068, 25.7280321 ], [ 86.0774154, 25.7266769 ], [ 86.064266, 25.727006 ], [ 86.0616404, 25.7264361 ], [ 86.059823, 25.72412 ], [ 86.0563938, 25.7261404 ], [ 86.0517461, 25.7324026 ], [ 86.0443107, 25.7337753 ], [ 86.0396342, 25.7302477 ], [ 86.0437378, 25.7263279 ], [ 86.0415331, 25.7225717 ], [ 86.0393069, 25.7212479 ], [ 86.0359734, 25.7213768 ], [ 86.0329084, 25.7224942 ], [ 86.0332096, 25.7259246 ], [ 86.0298911, 25.7260443 ], [ 86.0322411, 25.7220154 ], [ 86.0262119, 25.7164465 ], [ 86.0224349, 25.7169087 ], [ 86.0160502, 25.7251003 ], [ 86.0109395, 25.7235663 ], [ 86.0092906, 25.7129452 ], [ 86.0104266, 25.70767 ], [ 86.0257736, 25.6983748 ], [ 86.029275, 25.6929024 ], [ 86.0268436, 25.6874081 ], [ 86.0173093, 25.6824412 ], [ 86.0135545, 25.6816395 ], [ 86.0031368, 25.684452 ], [ 86.000652, 25.6837458 ], [ 85.9993556, 25.6817289 ], [ 85.9991322, 25.6762495 ], [ 86.0013646, 25.6689517 ], [ 86.0068346, 25.6623171 ], [ 86.0115374, 25.6604793 ], [ 86.0163826, 25.6663142 ], [ 86.0185881, 25.6670516 ], [ 86.0219505, 25.6662687 ], [ 86.0243338, 25.6629124 ], [ 86.0228031, 25.659242 ], [ 86.0139905, 25.6572993 ], [ 86.0135689, 25.6500775 ], [ 86.0216722, 25.648224 ], [ 86.0238018, 25.6442041 ], [ 86.0226192, 25.6413734 ], [ 86.0163733, 25.6380967 ], [ 86.0139363, 25.6351522 ], [ 86.014518, 25.6252773 ], [ 86.0133855, 25.6117859 ], [ 86.0146065, 25.6102658 ], [ 86.0130952, 25.6027273 ], [ 86.0106725, 25.6013398 ], [ 86.0097111, 25.5968934 ], [ 86.0060769, 25.5976983 ], [ 86.0024496, 25.5965896 ], [ 85.996334, 25.6047988 ], [ 85.9833229, 25.6119168 ], [ 85.9794409, 25.6128584 ], [ 85.9740984, 25.6175019 ], [ 85.9748227, 25.6204893 ], [ 85.9728816, 25.6210502 ], [ 85.973429, 25.6268812 ], [ 85.9683371, 25.6283242 ], [ 85.9612511, 25.6403567 ], [ 85.9555065, 25.6421743 ], [ 85.9511048, 25.6499487 ], [ 85.9466129, 25.6492604 ], [ 85.939349, 25.6513715 ], [ 85.9389233, 25.6468132 ], [ 85.9361284, 25.6437137 ], [ 85.9289681, 25.6433735 ], [ 85.9228989, 25.6446935 ], [ 85.9197201, 25.6390888 ], [ 85.9141332, 25.6377048 ], [ 85.9051223, 25.6423016 ], [ 85.902584, 25.6467477 ], [ 85.9024701, 25.6499612 ], [ 85.8961065, 25.6506483 ], [ 85.8946971, 25.6495021 ], [ 85.8937103, 25.6440816 ], [ 85.8897614, 25.6410717 ], [ 85.8895969, 25.6385307 ], [ 85.8868732, 25.6373394 ], [ 85.8856332, 25.6350377 ], [ 85.8815604, 25.6336974 ], [ 85.8815804, 25.635083 ], [ 85.887481, 25.6411531 ], [ 85.8885323, 25.6478284 ], [ 85.886685, 25.6482527 ], [ 85.8872433, 25.6540253 ], [ 85.8885927, 25.6538717 ], [ 85.8897141, 25.6614586 ], [ 85.879062, 25.6650519 ], [ 85.8765071, 25.6588867 ], [ 85.8742761, 25.6592703 ], [ 85.8733493, 25.6455968 ], [ 85.8666681, 25.6431076 ], [ 85.8624655, 25.6443936 ], [ 85.86262, 25.6425206 ], [ 85.8571333, 25.6409854 ], [ 85.8500258, 25.6461707 ], [ 85.8485186, 25.6445857 ], [ 85.8447943, 25.6438222 ], [ 85.8431517, 25.64166 ], [ 85.8434061, 25.6398502 ], [ 85.8468275, 25.6364342 ], [ 85.8434122, 25.6356708 ], [ 85.8414713, 25.6327141 ], [ 85.8397113, 25.6244541 ], [ 85.8362614, 25.6240696 ], [ 85.8359782, 25.6221694 ], [ 85.8317965, 25.6218207 ], [ 85.8295183, 25.6169185 ], [ 85.8318887, 25.6148792 ], [ 85.8343277, 25.6155569 ], [ 85.8336813, 25.6132594 ], [ 85.837679, 25.6122359 ], [ 85.8431508, 25.6081255 ], [ 85.8459931, 25.6082841 ], [ 85.8504443, 25.6029049 ], [ 85.850893, 25.5993575 ], [ 85.8495403, 25.5940721 ], [ 85.8505415, 25.5901997 ], [ 85.8520846, 25.589031 ], [ 85.848542, 25.5849006 ], [ 85.848731, 25.5762027 ], [ 85.8471115, 25.5733054 ], [ 85.8384766, 25.5761333 ], [ 85.8095051, 25.5777934 ], [ 85.8053221, 25.578784 ], [ 85.805575, 25.5801382 ], [ 85.8042062, 25.5807017 ], [ 85.792275, 25.5840082 ], [ 85.7752032, 25.5856269 ], [ 85.7731106, 25.5825744 ], [ 85.7732281, 25.5789863 ], [ 85.7686293, 25.5739551 ], [ 85.7659617, 25.5687852 ], [ 85.758995, 25.5658247 ], [ 85.7564546, 25.5614706 ], [ 85.7490328, 25.5603653 ], [ 85.7437527, 25.5569793 ], [ 85.7476594, 25.5550761 ], [ 85.7440197, 25.5461603 ], [ 85.7431845, 25.540361 ], [ 85.7370693, 25.5398389 ], [ 85.735301, 25.5286231 ], [ 85.7337593, 25.528068 ], [ 85.7351384, 25.524667 ], [ 85.7312752, 25.5210987 ], [ 85.7308863, 25.5254338 ], [ 85.7237418, 25.5239903 ], [ 85.7224224, 25.5268906 ], [ 85.7204222, 25.5268912 ], [ 85.720369, 25.5244078 ], [ 85.716932, 25.520098 ], [ 85.7171066, 25.5177113 ], [ 85.713064, 25.5105023 ], [ 85.7044836, 25.5006483 ], [ 85.701334, 25.5002638 ], [ 85.6949087, 25.4844787 ], [ 85.6923739, 25.4865831 ], [ 85.6792412, 25.476361 ], [ 85.6775835, 25.4947631 ], [ 85.6541099, 25.4920525 ], [ 85.652554, 25.4951896 ], [ 85.6545293, 25.4990573 ], [ 85.6542293, 25.5022181 ], [ 85.6478303, 25.5006018 ], [ 85.646955, 25.4986705 ], [ 85.6529534, 25.4802454 ], [ 85.6548879, 25.4609183 ], [ 85.6411511, 25.4602118 ], [ 85.6281006, 25.4633856 ], [ 85.6210854, 25.4633585 ], [ 85.62271, 25.4675932 ], [ 85.5955835, 25.4741881 ], [ 85.6158646, 25.4831802 ], [ 85.6203899, 25.4816134 ], [ 85.6180877, 25.4855051 ], [ 85.6134892, 25.4854405 ], [ 85.5995557, 25.4891775 ], [ 85.5813165, 25.4856581 ], [ 85.5445069, 25.4844657 ], [ 85.5462873, 25.5069749 ], [ 85.5446158, 25.5094502 ], [ 85.5336931, 25.5080954 ], [ 85.5300799, 25.537226 ], [ 85.5276416, 25.5400952 ], [ 85.5277188, 25.5457943 ], [ 85.5289614, 25.5501843 ], [ 85.5326712, 25.5557019 ], [ 85.540395, 25.5540411 ], [ 85.5453796, 25.5381146 ], [ 85.5484912, 25.5383802 ], [ 85.5499453, 25.5432475 ], [ 85.5545364, 25.545058 ], [ 85.5535204, 25.5554941 ], [ 85.5570609, 25.5611267 ], [ 85.5429835, 25.5675556 ], [ 85.5456804, 25.5750174 ], [ 85.5522383, 25.5772719 ], [ 85.5368752, 25.5791369 ], [ 85.5372361, 25.5850768 ], [ 85.5351919, 25.5853452 ], [ 85.5339507, 25.589987 ], [ 85.5293777, 25.590248 ], [ 85.5304229, 25.5967816 ], [ 85.5292125, 25.597248 ], [ 85.5294982, 25.6003386 ], [ 85.5343849, 25.616025 ], [ 85.5335671, 25.6173485 ], [ 85.5363744, 25.6235521 ], [ 85.5392924, 25.6255901 ], [ 85.544998, 25.6256561 ], [ 85.5457843, 25.6232262 ], [ 85.5496929, 25.6236488 ], [ 85.5517689, 25.6373024 ], [ 85.5555141, 25.6447293 ], [ 85.5576696, 25.6464615 ], [ 85.5547933, 25.6479273 ], [ 85.5555842, 25.6558667 ], [ 85.557296, 25.6559919 ], [ 85.5588172, 25.6612074 ], [ 85.5615082, 25.6615138 ], [ 85.5622132, 25.6662697 ], [ 85.5645385, 25.668008 ], [ 85.5631799, 25.6683242 ], [ 85.5644172, 25.6714828 ], [ 85.5696119, 25.6815735 ], [ 85.5708542, 25.6814142 ], [ 85.5708493, 25.6889213 ], [ 85.5773058, 25.6868537 ], [ 85.5785315, 25.6897773 ], [ 85.5820982, 25.6889814 ], [ 85.5838179, 25.6918602 ], [ 85.5847081, 25.7016873 ], [ 85.5993033, 25.7016026 ], [ 85.6015634, 25.7090231 ], [ 85.604858, 25.7106573 ], [ 85.6104973, 25.7086391 ], [ 85.6118361, 25.7105027 ], [ 85.6161466, 25.7290026 ], [ 85.6125316, 25.730011 ], [ 85.6134241, 25.7372739 ], [ 85.6226358, 25.7531884 ], [ 85.6254641, 25.7547544 ], [ 85.6251326, 25.7575682 ], [ 85.6198969, 25.759848 ], [ 85.6204625, 25.7609458 ], [ 85.6242618, 25.7604582 ], [ 85.626063, 25.7620552 ], [ 85.624372, 25.7634431 ], [ 85.6246063, 25.7651743 ], [ 85.6278768, 25.7655979 ], [ 85.6294347, 25.7723253 ], [ 85.6309437, 25.7733372 ], [ 85.6295539, 25.7762674 ], [ 85.6216646, 25.7729697 ], [ 85.6211936, 25.7744685 ], [ 85.6226593, 25.7766311 ], [ 85.615396, 25.776973 ], [ 85.6136693, 25.7784011 ], [ 85.6128899, 25.7875395 ], [ 85.6079272, 25.7897898 ], [ 85.6079397, 25.7908553 ], [ 85.6131994, 25.7939391 ], [ 85.6136137, 25.7977621 ], [ 85.6086384, 25.7989199 ], [ 85.60651, 25.8013959 ], [ 85.6081665, 25.8043099 ], [ 85.6070772, 25.8061999 ], [ 85.6109253, 25.8114913 ], [ 85.6100297, 25.8138753 ], [ 85.6161433, 25.8233954 ], [ 85.6204166, 25.8252237 ], [ 85.6100285, 25.8319186 ], [ 85.609595, 25.8365686 ], [ 85.6164767, 25.8389004 ], [ 85.6169824, 25.8408915 ], [ 85.608885, 25.8478021 ], [ 85.6063847, 25.8483063 ], [ 85.6044479, 25.8466987 ], [ 85.5994355, 25.8495576 ], [ 85.6109193, 25.8534463 ], [ 85.6107698, 25.8594081 ], [ 85.615088, 25.8621895 ], [ 85.6104298, 25.8701351 ], [ 85.6113177, 25.8739987 ], [ 85.6136729, 25.8748563 ], [ 85.6137399, 25.8776693 ], [ 85.6156944, 25.8794756 ], [ 85.6245261, 25.8795912 ], [ 85.6245356, 25.8835051 ], [ 85.6262619, 25.8852639 ], [ 85.6264687, 25.8880917 ], [ 85.6304805, 25.8885676 ], [ 85.6313642, 25.8915643 ], [ 85.6269747, 25.8948182 ], [ 85.6314073, 25.8960563 ], [ 85.6319511, 25.9003996 ], [ 85.6285371, 25.9004125 ], [ 85.6292126, 25.9041476 ], [ 85.63218, 25.9043562 ], [ 85.6322327, 25.9067086 ], [ 85.6354932, 25.9066039 ], [ 85.6411456, 25.9090224 ], [ 85.645997, 25.9160377 ], [ 85.6411564, 25.9176627 ], [ 85.6388561, 25.9262767 ], [ 85.6411121, 25.9389331 ], [ 85.6443304, 25.9399789 ], [ 85.6420527, 25.9418084 ], [ 85.6346204, 25.9429348 ], [ 85.6319466, 25.9483446 ], [ 85.6301962, 25.9576498 ], [ 85.6329308, 25.9673134 ], [ 85.6326889, 25.9709585 ], [ 85.6404691, 25.9762141 ], [ 85.6381759, 25.9806164 ], [ 85.6411992, 25.984387 ], [ 85.6343819, 25.9873834 ], [ 85.6353774, 25.9915684 ], [ 85.6317942, 25.9960442 ], [ 85.6327237, 26.0023184 ], [ 85.6340573, 26.0051436 ], [ 85.6378678, 26.0029815 ], [ 85.6481212, 26.0029893 ], [ 85.6557514, 26.0185898 ], [ 85.6589981, 26.0183274 ], [ 85.6656735, 26.0247297 ], [ 85.6658845, 26.0282319 ], [ 85.6718542, 26.0286588 ], [ 85.6750107, 26.0274302 ], [ 85.6764251, 26.0292937 ], [ 85.6826537, 26.0277839 ], [ 85.6885415, 26.0432389 ], [ 85.691185, 26.0444157 ], [ 85.6919363, 26.04771 ], [ 85.6997153, 26.0476159 ], [ 85.7025174, 26.046468 ], [ 85.7043036, 26.0504205 ], [ 85.7019912, 26.0516042 ], [ 85.7033856, 26.0598625 ], [ 85.70823, 26.0635064 ], [ 85.7123731, 26.0645419 ], [ 85.7089278, 26.0681004 ], [ 85.7118137, 26.0784833 ], [ 85.710475, 26.0792152 ], [ 85.7099008, 26.0869014 ], [ 85.7062631, 26.0879957 ], [ 85.7099962, 26.0875242 ], [ 85.7137111, 26.0894084 ] ] ] } }
]
}
