{
"type": "FeatureCollection",
"name": "1025",
"crs": { "type": "name", "properties": { "name": "urn:ogc:def:crs:OGC:1.3:CRS84" } },
"features": [
{ "type": "Feature", "properties": { "code": "1025", "name": "Lakhisarai", "type": "district" }, "geometry": { "type": "Polygon", "coordinates": [ [ [ 86.0580724, 25.3334927 ], [ 86.0647968, 25.3338026 ], [ 86.068855, 25.3220237 ], [ 86.0816256, 25.3134793 ], [ 86.077436, 25.3096415 ], [ 86.0872886, 25.3061644 ], [ 86.0963209, 25.3051012 ], [ 86.1004011, 25.3118317 ], [ 86.1033413, 25.3079731 ], [ 86.1224136, 25.3049641 ], [ 86.1473084, 25.2978174 ], [ 86.1501654, 25.2841859 ], [ 86.1543003, 25.2822036 ], [ 86.155277, 25.2767736 ], [ 86.15759, 25.2758072 ], [ 86.158808, 25.2642837 ], [ 86.1664798, 25.2583914 ], [ 86.1656403, 25.2712871 ], [ 86.1834004, 25.259135 ], [ 86.1872697, 25.2579498 ], [ 86.1943295, 25.2584398 ], [ 86.1924743, 25.2517393 ], [ 86.1953419, 25.2498223 ], [ 86.2006453, 25.249492 ], [ 86.2155439, 25.2527997 ], [ 86.2258303, 25.2620099 ], [ 86.2267255, 25.2582224 ], [ 86.2477002, 25.2732095 ], [ 86.2614663, 25.2795672 ], [ 86.2638558, 25.2777049 ], [ 86.2898162, 25.2811615 ], [ 86.3359161, 25.2929704 ], [ 86.3525819, 25.2989228 ], [ 86.3540275, 25.29473 ], [ 86.3534528, 25.287666 ], [ 86.3585865, 25.2862766 ], [ 86.3647443, 25.2641379 ], [ 86.3722546, 25.2552013 ], [ 86.3694605, 25.2485599 ], [ 86.3727758, 25.2486909 ], [ 86.3737486, 25.2454456 ], [ 86.3803443, 25.2449942 ], [ 86.3827263, 25.2431526 ], [ 86.3808304, 25.2412253 ], [ 86.3809096, 25.237646 ], [ 86.3908629, 25.224795 ], [ 86.383251, 25.2231978 ], [ 86.3775793, 25.2138547 ], [ 86.3717892, 25.2095171 ], [ 86.3663619, 25.2030262 ], [ 86.3656874, 25.2001916 ], [ 86.3648219, 25.168289 ], [ 86.3709877, 25.1438387 ], [ 86.3611057, 25.1366478 ], [ 86.3447003, 25.1278752 ], [ 86.3212408, 25.1110821 ], [ 86.3139009, 25.0968972 ], [ 86.3160524, 25.0964873 ], [ 86.3157311, 25.0945598 ], [ 86.3173371, 25.0946462 ], [ 86.3189389, 25.0929226 ], [ 86.3182367, 25.0892662 ], [ 86.3205483, 25.0853176 ], [ 86.3148413, 25.0796145 ], [ 86.3072346, 25.0776523 ], [ 86.2968075, 25.0769746 ], [ 86.2864413, 25.0810898 ], [ 86.2832337, 25.0757661 ], [ 86.2719763, 25.0666637 ], [ 86.2437076, 25.0553952 ], [ 86.2426257, 25.0432045 ], [ 86.2469174, 25.0291452 ], [ 86.24658, 25.0235123 ], [ 86.2483174, 25.0202549 ], [ 86.2483743, 25.0166647 ], [ 86.2490801, 25.0143859 ], [ 86.2511574, 25.0143302 ], [ 86.2521295, 25.0129659 ], [ 86.2521666, 25.008832 ], [ 86.2460076, 25.0004881 ], [ 86.2405861, 24.997493 ], [ 86.2382287, 24.9976664 ], [ 86.2343367, 24.9931555 ], [ 86.2293885, 24.9925994 ], [ 86.222596, 24.9895572 ], [ 86.2114125, 24.9958021 ], [ 86.2115548, 25.0150329 ], [ 86.2094668, 25.0186767 ], [ 86.2012315, 25.0230369 ], [ 86.1907356, 25.0257501 ], [ 86.1825534, 25.0294955 ], [ 86.1743234, 25.039221 ], [ 86.1667939, 25.0432045 ], [ 86.1635942, 25.0468615 ], [ 86.1544227, 25.0469267 ], [ 86.1434233, 25.0493433 ], [ 86.1404436, 25.0348501 ], [ 86.1380902, 25.033776 ], [ 86.1359193, 25.0245816 ], [ 86.1358447, 25.0208623 ], [ 86.1403672, 25.0179099 ], [ 86.1380129, 25.0052626 ], [ 86.1338023, 24.9999704 ], [ 86.1304937, 24.9998487 ], [ 86.1282944, 24.994202 ], [ 86.1236587, 24.9938951 ], [ 86.1214696, 24.9907941 ], [ 86.1188942, 24.991787 ], [ 86.1155529, 24.9832254 ], [ 86.1202369, 24.9785617 ], [ 86.1181672, 24.9739711 ], [ 86.1145819, 24.9756139 ], [ 86.1132153, 24.9737902 ], [ 86.1105165, 24.9736862 ], [ 86.1093671, 24.9777349 ], [ 86.097863, 24.9796245 ], [ 86.0977367, 24.9906517 ], [ 86.0903957, 24.9954844 ], [ 86.0877963, 24.9924505 ], [ 86.0831356, 24.9932166 ], [ 86.0809744, 24.9845856 ], [ 86.0762807, 24.9815554 ], [ 86.0742701, 24.9815096 ], [ 86.0697524, 24.9843156 ], [ 86.0686657, 24.9891359 ], [ 86.061286, 24.9899228 ], [ 86.0603485, 24.9832466 ], [ 86.0617323, 24.979126 ], [ 86.0578996, 24.978682 ], [ 86.049672, 24.9740334 ], [ 86.0400049, 24.9753597 ], [ 86.041082, 24.9789127 ], [ 86.0391936, 24.98134 ], [ 86.0353592, 24.9832742 ], [ 86.0286579, 24.9841908 ], [ 86.0248339, 24.9791509 ], [ 86.0216292, 24.9798077 ], [ 86.0212887, 24.9784714 ], [ 86.0225714, 24.9782872 ], [ 86.0210555, 24.9730592 ], [ 86.0165331, 24.968971 ], [ 86.0106394, 24.9701267 ], [ 86.007057, 24.9725116 ], [ 86.0081403, 24.9789717 ], [ 86.0067657, 24.9819633 ], [ 85.9986022, 24.9841096 ], [ 85.98346, 24.985754 ], [ 85.9805366, 24.9840724 ], [ 85.9770481, 24.9875053 ], [ 85.9778634, 24.9912016 ], [ 85.9755767, 24.9931395 ], [ 85.9755704, 24.9974457 ], [ 85.9777, 25.003301 ], [ 85.9764578, 25.0045025 ], [ 85.9829516, 25.0109021 ], [ 85.9827003, 25.0138348 ], [ 85.9846956, 25.0129566 ], [ 85.9853473, 25.0140563 ], [ 85.9835402, 25.017424 ], [ 85.9852484, 25.0193349 ], [ 85.9855239, 25.0231378 ], [ 85.9726423, 25.0298719 ], [ 85.9726191, 25.0422896 ], [ 85.9778846, 25.0584408 ], [ 85.975121, 25.0601669 ], [ 85.9762606, 25.0720914 ], [ 85.9677096, 25.0758614 ], [ 85.967895, 25.0786462 ], [ 85.9622402, 25.0790764 ], [ 85.9623797, 25.0842094 ], [ 85.9609867, 25.0874844 ], [ 85.9695895, 25.0908639 ], [ 85.9696252, 25.0921412 ], [ 85.9653271, 25.0913043 ], [ 85.9606164, 25.09569 ], [ 85.9532855, 25.0961138 ], [ 85.9509849, 25.0951309 ], [ 85.9534303, 25.0978063 ], [ 85.95129, 25.0994459 ], [ 85.953368, 25.1011781 ], [ 85.9510809, 25.1060992 ], [ 85.9521674, 25.1152931 ], [ 85.9572944, 25.1164549 ], [ 85.954856, 25.1176794 ], [ 85.9588164, 25.1237707 ], [ 85.9589373, 25.1266684 ], [ 85.9554582, 25.1289363 ], [ 85.9548349, 25.1312025 ], [ 85.9581306, 25.136098 ], [ 85.9588519, 25.1396544 ], [ 85.9734893, 25.1391262 ], [ 85.9771507, 25.1415387 ], [ 85.9776787, 25.1444405 ], [ 85.9808848, 25.1460655 ], [ 85.9806949, 25.1470728 ], [ 85.9756819, 25.1476225 ], [ 85.9772482, 25.149216 ], [ 85.9810263, 25.148121 ], [ 85.9827993, 25.1494587 ], [ 85.9771401, 25.1523499 ], [ 85.9780983, 25.1538242 ], [ 85.9828233, 25.1525931 ], [ 85.9797804, 25.1549289 ], [ 85.9832818, 25.15531 ], [ 85.9830598, 25.1566102 ], [ 85.9790839, 25.1582875 ], [ 85.9786985, 25.161202 ], [ 85.9817388, 25.161412 ], [ 85.9823475, 25.1642974 ], [ 85.9799874, 25.1650483 ], [ 85.980302, 25.1676074 ], [ 85.9869332, 25.167616 ], [ 85.9900312, 25.1656141 ], [ 85.9934994, 25.1670919 ], [ 85.9912652, 25.169847 ], [ 85.9936737, 25.172964 ], [ 85.9932294, 25.1752077 ], [ 85.9902234, 25.1749483 ], [ 85.9881023, 25.1769359 ], [ 85.984836, 25.1740857 ], [ 85.9818307, 25.180204 ], [ 86.0063523, 25.1777979 ], [ 86.0069492, 25.1900983 ], [ 86.0173046, 25.193893 ], [ 86.0149199, 25.2038315 ], [ 86.0156331, 25.2084718 ], [ 86.0182506, 25.2096114 ], [ 86.0180501, 25.2137773 ], [ 86.01529, 25.2170282 ], [ 86.0131961, 25.2174046 ], [ 86.0, 25.2117318 ], [ 85.9910235, 25.2132686 ], [ 85.9923203, 25.2099771 ], [ 85.9882977, 25.2004519 ], [ 85.990676, 25.1973447 ], [ 85.9892489, 25.1937755 ], [ 85.9773372, 25.1925925 ], [ 85.9724669, 25.188019 ], [ 85.9658256, 25.1891607 ], [ 85.9665134, 25.1934663 ], [ 85.9655923, 25.1956153 ], [ 85.9558038, 25.1945468 ], [ 85.9532056, 25.1963852 ], [ 85.9527625, 25.2018063 ], [ 85.9493398, 25.2027109 ], [ 85.9491321, 25.2037446 ], [ 85.95491, 25.2160683 ], [ 85.949884, 25.216211 ], [ 85.9469087, 25.219223 ], [ 85.943614, 25.2192742 ], [ 85.9436032, 25.2263831 ], [ 85.9391393, 25.2302624 ], [ 85.9301378, 25.2302388 ], [ 85.9310185, 25.235664 ], [ 85.9267021, 25.2379811 ], [ 85.9271997, 25.2410366 ], [ 85.9250723, 25.2449369 ], [ 85.9221045, 25.2449604 ], [ 85.9218971, 25.247592 ], [ 85.9149741, 25.2486998 ], [ 85.9086429, 25.2544714 ], [ 85.9019926, 25.2564994 ], [ 85.9031148, 25.2588643 ], [ 85.9010107, 25.2603723 ], [ 85.9025496, 25.2613966 ], [ 85.9054151, 25.2680085 ], [ 85.9039222, 25.2731227 ], [ 85.906237, 25.2789268 ], [ 85.9046247, 25.2832827 ], [ 85.9056139, 25.2884144 ], [ 85.906399, 25.2912533 ], [ 85.9083503, 25.2917494 ], [ 85.9112213, 25.2966415 ], [ 85.9145134, 25.2973673 ], [ 85.9141351, 25.2942802 ], [ 85.9155597, 25.2934673 ], [ 85.9263652, 25.2983477 ], [ 85.932572, 25.29923 ], [ 85.9315197, 25.3215095 ], [ 85.9498779, 25.3198042 ], [ 85.9538489, 25.3171842 ], [ 86.0004288, 25.3069922 ], [ 86.0000501, 25.3035254 ], [ 86.0073749, 25.3024933 ], [ 86.0061791, 25.2976005 ], [ 86.0202498, 25.2964232 ], [ 86.020102, 25.3067592 ], [ 86.0316151, 25.3087709 ], [ 86.0319327, 25.3155371 ], [ 86.0335877, 25.3202412 ], [ 86.0389206, 25.3279311 ], [ 86.0417019, 25.3298365 ], [ 86.0402722, 25.3338807 ], [ 86.0532563, 25.3394573 ], [ 86.0580724, 25.3334927 ] ] ] } }
]
}
