{
"type": "FeatureCollection",
"name": "1029",
"crs": { "type": "name", "properties": { "name": "urn:ogc:def:crs:OGC:1.3:CRS84" } },
"features": [
{ "type": "Feature", "properties": { "code": "1029", "name": "Bhojpur", "type": "district" }, "geometry": { "type": "Polygon", "coordinates": [ [ [ 84.6003219, 25.7383749 ], [ 84.5995214, 25.7295873 ], [ 84.6123571, 25.7297018 ], [ 84.628561, 25.721646 ], [ 84.6282122, 25.7198994 ], [ 84.6224476, 25.721452 ], [ 84.6224726, 25.7157651 ], [ 84.6336571, 25.707984 ], [ 84.6481596, 25.7087948 ], [ 84.6516268, 25.7077472 ], [ 84.6580646, 25.7123178 ], [ 84.669509, 25.7138177 ], [ 84.6761846, 25.7126105 ], [ 84.6927504, 25.7041909 ], [ 84.7254374, 25.7059145 ], [ 84.7358855, 25.7076488 ], [ 84.7443532, 25.71114 ], [ 84.764142, 25.7057432 ], [ 84.7648354, 25.6994341 ], [ 84.7670126, 25.6991062 ], [ 84.7689174, 25.697027 ], [ 84.773191, 25.6975401 ], [ 84.777567, 25.6947041 ], [ 84.7783506, 25.6928813 ], [ 84.7814536, 25.6932127 ], [ 84.7859718, 25.6863734 ], [ 84.7873073, 25.6923544 ], [ 84.7972932, 25.694716 ], [ 84.8052055, 25.6914795 ], [ 84.8080722, 25.6869945 ], [ 84.8119812, 25.6892033 ], [ 84.8211318, 25.6885977 ], [ 84.8220815, 25.6922719 ], [ 84.8078691, 25.6938366 ], [ 84.8082597, 25.698955 ], [ 84.8096982, 25.7010859 ], [ 84.8211724, 25.6977959 ], [ 84.8242756, 25.6985056 ], [ 84.8332089, 25.6943788 ], [ 84.8382652, 25.6937708 ], [ 84.8399538, 25.6936945 ], [ 84.8400927, 25.6958745 ], [ 84.8450393, 25.6954694 ], [ 84.8501996, 25.6974969 ], [ 84.8501144, 25.6994737 ], [ 84.8512952, 25.698842 ], [ 84.8479297, 25.690239 ], [ 84.8472449, 25.6789555 ], [ 84.8346731, 25.6806044 ], [ 84.8300463, 25.679565 ], [ 84.8256099, 25.6761875 ], [ 84.822982, 25.6719621 ], [ 84.8222418, 25.6676561 ], [ 84.8235273, 25.6662619 ], [ 84.8331064, 25.6598651 ], [ 84.8417222, 25.6578543 ], [ 84.8357426, 25.654373 ], [ 84.8288682, 25.6477183 ], [ 84.8262064, 25.6425271 ], [ 84.82573, 25.6386996 ], [ 84.824331, 25.6382703 ], [ 84.8236851, 25.6351784 ], [ 84.8246716, 25.6335178 ], [ 84.8216844, 25.6222423 ], [ 84.8267425, 25.6218018 ], [ 84.8321483, 25.6237036 ], [ 84.828561, 25.6182052 ], [ 84.8183655, 25.6081774 ], [ 84.8151572, 25.5934263 ], [ 84.8223952, 25.5906668 ], [ 84.8196774, 25.580786 ], [ 84.8160071, 25.5756573 ], [ 84.8087001, 25.5695836 ], [ 84.8034215, 25.5676809 ], [ 84.7959026, 25.5677673 ], [ 84.7972877, 25.5650059 ], [ 84.7942108, 25.560229 ], [ 84.7890584, 25.5567327 ], [ 84.772021, 25.5402657 ], [ 84.7669734, 25.5269068 ], [ 84.7623784, 25.5202641 ], [ 84.7591798, 25.5101153 ], [ 84.7555747, 25.5042224 ], [ 84.7566998, 25.5000055 ], [ 84.7564984, 25.4895809 ], [ 84.761422, 25.4836414 ], [ 84.7663757, 25.4715597 ], [ 84.7742056, 25.4608282 ], [ 84.7790473, 25.4491202 ], [ 84.7722608, 25.4385183 ], [ 84.773669, 25.436729 ], [ 84.7722313, 25.4323042 ], [ 84.7679671, 25.4262133 ], [ 84.7659652, 25.4195738 ], [ 84.7544519, 25.4076597 ], [ 84.7513077, 25.3916707 ], [ 84.7488089, 25.3879583 ], [ 84.7478328, 25.3822425 ], [ 84.7426909, 25.3757558 ], [ 84.7348584, 25.3618105 ], [ 84.734275, 25.353813 ], [ 84.7266136, 25.333873 ], [ 84.7145697, 25.3201506 ], [ 84.6851703, 25.3075229 ], [ 84.6721649, 25.297222 ], [ 84.6646896, 25.2860388 ], [ 84.6512616, 25.2589921 ], [ 84.6401463, 25.245579 ], [ 84.6380421, 25.2468836 ], [ 84.6370992, 25.2462337 ], [ 84.6355952, 25.2450648 ], [ 84.6371387, 25.2437422 ], [ 84.6291781, 25.2377395 ], [ 84.618345, 25.2325036 ], [ 84.6054385, 25.2290224 ], [ 84.5893479, 25.2226596 ], [ 84.5712388, 25.2190566 ], [ 84.5556575, 25.2116615 ], [ 84.5303154, 25.210027 ], [ 84.5199735, 25.2068469 ], [ 84.4841344, 25.1835228 ], [ 84.4701806, 25.1704654 ], [ 84.4633096, 25.161167 ], [ 84.438258, 25.1778803 ], [ 84.4330873, 25.183705 ], [ 84.4289806, 25.1849568 ], [ 84.4287286, 25.1870107 ], [ 84.4062745, 25.1954847 ], [ 84.4032571, 25.1904345 ], [ 84.4053354, 25.1895043 ], [ 84.4034294, 25.1847698 ], [ 84.3862223, 25.1912809 ], [ 84.3857712, 25.1953206 ], [ 84.3805525, 25.1963635 ], [ 84.3793965, 25.1946213 ], [ 84.3733791, 25.1947251 ], [ 84.3731708, 25.1921298 ], [ 84.3649607, 25.1939439 ], [ 84.3553271, 25.1918171 ], [ 84.3555154, 25.1934149 ], [ 84.3576683, 25.1941102 ], [ 84.3568091, 25.2003751 ], [ 84.347447, 25.2030819 ], [ 84.3462715, 25.20189 ], [ 84.3417962, 25.2032567 ], [ 84.3406954, 25.2010312 ], [ 84.3317944, 25.2034798 ], [ 84.3325073, 25.2074836 ], [ 84.3254512, 25.2102483 ], [ 84.3260658, 25.2117515 ], [ 84.318821, 25.2141637 ], [ 84.3227267, 25.2233324 ], [ 84.3259026, 25.2227376 ], [ 84.3266165, 25.2243582 ], [ 84.3283632, 25.2241557 ], [ 84.3325418, 25.2367591 ], [ 84.3325362, 25.2386141 ], [ 84.3260496, 25.2398849 ], [ 84.3296575, 25.2500005 ], [ 84.3315495, 25.2616224 ], [ 84.3293813, 25.2622363 ], [ 84.328827, 25.2647066 ], [ 84.3263102, 25.2671803 ], [ 84.3227471, 25.2682352 ], [ 84.3223887, 25.270538 ], [ 84.3250537, 25.2753447 ], [ 84.3340017, 25.2814548 ], [ 84.3344928, 25.283633 ], [ 84.3256386, 25.2850592 ], [ 84.3253001, 25.2875117 ], [ 84.3224261, 25.2887536 ], [ 84.3246259, 25.2922875 ], [ 84.3352396, 25.2927862 ], [ 84.3363232, 25.2968335 ], [ 84.3313918, 25.300145 ], [ 84.3261798, 25.301577 ], [ 84.3272637, 25.3142991 ], [ 84.3206125, 25.3154175 ], [ 84.3221143, 25.3211348 ], [ 84.3150622, 25.3234042 ], [ 84.3129428, 25.3225609 ], [ 84.3085923, 25.3232741 ], [ 84.3082417, 25.3280265 ], [ 84.3029995, 25.3283024 ], [ 84.3038503, 25.3268309 ], [ 84.3023196, 25.3257618 ], [ 84.2939599, 25.3264264 ], [ 84.2901779, 25.3253903 ], [ 84.2832423, 25.3272985 ], [ 84.2797411, 25.3297398 ], [ 84.2821338, 25.337887 ], [ 84.2791781, 25.3385305 ], [ 84.2797455, 25.3432701 ], [ 84.2820178, 25.3452825 ], [ 84.2829141, 25.3532257 ], [ 84.2762105, 25.3545767 ], [ 84.2763222, 25.3586972 ], [ 84.2732267, 25.3602292 ], [ 84.2745217, 25.3620633 ], [ 84.2809646, 25.3618514 ], [ 84.2816512, 25.3637404 ], [ 84.28433, 25.3634588 ], [ 84.2852353, 25.3718637 ], [ 84.2868663, 25.3749842 ], [ 84.2847239, 25.3752181 ], [ 84.2863952, 25.3835465 ], [ 84.2917633, 25.3905455 ], [ 84.2914939, 25.3916633 ], [ 84.3013011, 25.3869586 ], [ 84.3047492, 25.3868235 ], [ 84.3063565, 25.3894467 ], [ 84.3068768, 25.3928064 ], [ 84.3047411, 25.3928106 ], [ 84.3079365, 25.4021416 ], [ 84.306364, 25.4022318 ], [ 84.3053927, 25.4047103 ], [ 84.3052474, 25.411246 ], [ 84.3068277, 25.4162332 ], [ 84.3060649, 25.4221037 ], [ 84.3088639, 25.4241644 ], [ 84.3184627, 25.4260622 ], [ 84.320513, 25.4326195 ], [ 84.3349841, 25.43362 ], [ 84.3485206, 25.4329775 ], [ 84.3502699, 25.4349323 ], [ 84.3510514, 25.4439088 ], [ 84.3436607, 25.4441942 ], [ 84.3444419, 25.4474612 ], [ 84.3508637, 25.452003 ], [ 84.3525887, 25.4514978 ], [ 84.3536421, 25.455023 ], [ 84.3557599, 25.4549105 ], [ 84.3574897, 25.4569959 ], [ 84.3569325, 25.4587786 ], [ 84.3588714, 25.4594063 ], [ 84.3582348, 25.4610355 ], [ 84.359945, 25.4613968 ], [ 84.3601733, 25.4641005 ], [ 84.3623758, 25.4645069 ], [ 84.3619132, 25.4666101 ], [ 84.3640312, 25.4674137 ], [ 84.3621464, 25.4705594 ], [ 84.3638865, 25.4715209 ], [ 84.3633953, 25.4726879 ], [ 84.3519852, 25.4744242 ], [ 84.353615, 25.4925442 ], [ 84.3463301, 25.4921613 ], [ 84.3402893, 25.4936062 ], [ 84.3408928, 25.5041107 ], [ 84.3432299, 25.5057858 ], [ 84.3437546, 25.5156296 ], [ 84.3281857, 25.5168622 ], [ 84.3290371, 25.5277714 ], [ 84.3279513, 25.5315126 ], [ 84.3260654, 25.5326314 ], [ 84.326523, 25.5454045 ], [ 84.3254855, 25.5517906 ], [ 84.3318574, 25.5562383 ], [ 84.3340078, 25.5680821 ], [ 84.333728, 25.5714625 ], [ 84.3308454, 25.5753658 ], [ 84.3297182, 25.5819595 ], [ 84.331052, 25.5821765 ], [ 84.3337869, 25.5884825 ], [ 84.33302, 25.5900529 ], [ 84.3352493, 25.5911142 ], [ 84.3374271, 25.5981827 ], [ 84.3458117, 25.6071752 ], [ 84.3464367, 25.6159087 ], [ 84.348337, 25.6224896 ], [ 84.3432483, 25.6254629 ], [ 84.3432426, 25.6281483 ], [ 84.3415696, 25.6290822 ], [ 84.3362277, 25.6285167 ], [ 84.3374916, 25.6306474 ], [ 84.3497823, 25.638589 ], [ 84.3460518, 25.6436116 ], [ 84.3406406, 25.639422 ], [ 84.3358473, 25.6502709 ], [ 84.3342488, 25.6505504 ], [ 84.3317874, 25.6548057 ], [ 84.3272807, 25.6550255 ], [ 84.3272539, 25.6597915 ], [ 84.3301414, 25.6619859 ], [ 84.3341548, 25.6635397 ], [ 84.3378206, 25.6617894 ], [ 84.339508, 25.664367 ], [ 84.3427945, 25.6658211 ], [ 84.3445281, 25.6639664 ], [ 84.341551, 25.6599805 ], [ 84.3426171, 25.6586899 ], [ 84.3495824, 25.665854 ], [ 84.3494508, 25.6760721 ], [ 84.3486491, 25.6750971 ], [ 84.3401665, 25.6776769 ], [ 84.3375806, 25.6760191 ], [ 84.3352582, 25.6850957 ], [ 84.3419328, 25.6843616 ], [ 84.3424256, 25.6858195 ], [ 84.3439149, 25.685707 ], [ 84.3434824, 25.6823671 ], [ 84.3537279, 25.6823689 ], [ 84.3571295, 25.684477 ], [ 84.3565856, 25.690773 ], [ 84.3598172, 25.7001115 ], [ 84.3748963, 25.7231933 ], [ 84.3843938, 25.7327747 ], [ 84.3875677, 25.7311632 ], [ 84.3890477, 25.7322778 ], [ 84.4000394, 25.7293697 ], [ 84.3985139, 25.7255518 ], [ 84.4005815, 25.7249241 ], [ 84.4065433, 25.7159776 ], [ 84.4010861, 25.7083421 ], [ 84.4067379, 25.6984208 ], [ 84.4147728, 25.6980351 ], [ 84.4221194, 25.695185 ], [ 84.4231797, 25.6936683 ], [ 84.4276779, 25.693617 ], [ 84.4280847, 25.7011947 ], [ 84.4303193, 25.7072191 ], [ 84.43155, 25.707679 ], [ 84.4296487, 25.7116153 ], [ 84.440285, 25.7110558 ], [ 84.4404131, 25.7083613 ], [ 84.4442791, 25.7084949 ], [ 84.4442504, 25.7106477 ], [ 84.4468119, 25.7107878 ], [ 84.4469166, 25.7120004 ], [ 84.4535093, 25.714326 ], [ 84.4528934, 25.7094294 ], [ 84.4621746, 25.7092751 ], [ 84.4642258, 25.7007709 ], [ 84.4624899, 25.6976667 ], [ 84.468289, 25.6985296 ], [ 84.4689301, 25.6966156 ], [ 84.4660605, 25.6953479 ], [ 84.4658827, 25.69168 ], [ 84.4708005, 25.6872448 ], [ 84.4781123, 25.6875497 ], [ 84.4936072, 25.6908386 ], [ 84.4919593, 25.6764876 ], [ 84.4960635, 25.676737 ], [ 84.4993385, 25.6746823 ], [ 84.5043666, 25.6776416 ], [ 84.5054041, 25.6769193 ], [ 84.5077452, 25.6818543 ], [ 84.5200488, 25.6749628 ], [ 84.5288683, 25.6824926 ], [ 84.5344551, 25.7242311 ], [ 84.5395605, 25.7266939 ], [ 84.5351878, 25.6907697 ], [ 84.5456748, 25.6883295 ], [ 84.5468165, 25.6867188 ], [ 84.5515244, 25.6854079 ], [ 84.5556902, 25.6825169 ], [ 84.5564476, 25.6819531 ], [ 84.5553229, 25.6800886 ], [ 84.55754, 25.6796837 ], [ 84.5618056, 25.685813 ], [ 84.5643494, 25.7168086 ], [ 84.5602829, 25.7368957 ], [ 84.6003219, 25.7383749 ] ] ] } }
]
}
