{
"type": "FeatureCollection",
"name": "1036",
"crs": { "type": "name", "properties": { "name": "urn:ogc:def:crs:OGC:1.3:CRS84" } },
"features": [
{ "type": "Feature", "properties": { "code": "1036", "name": "Nawada", "type": "district" }, "geometry": { "type": "Polygon", "coordinates": [ [ [ 85.6805257, 25.1132857 ], [ 85.679923, 25.1103096 ], [ 85.6819236, 25.1096277 ], [ 85.683632, 25.111232 ], [ 85.6916443, 25.1052442 ], [ 85.6898404, 25.1009663 ], [ 85.6924517, 25.0992557 ], [ 85.6921634, 25.0941967 ], [ 85.6937993, 25.0937461 ], [ 85.6950909, 25.0967778 ], [ 85.6979231, 25.0976018 ], [ 85.6985216, 25.1000811 ], [ 85.7110956, 25.0976943 ], [ 85.7122194, 25.0959659 ], [ 85.7108884, 25.0938143 ], [ 85.711956, 25.0922344 ], [ 85.7149503, 25.0917818 ], [ 85.717632, 25.0918276 ], [ 85.7179908, 25.0940294 ], [ 85.7218695, 25.0934037 ], [ 85.7218288, 25.0944553 ], [ 85.7328149, 25.0974029 ], [ 85.7404597, 25.0964928 ], [ 85.7410927, 25.0976224 ], [ 85.7444171, 25.0973706 ], [ 85.7457659, 25.0978426 ], [ 85.7459902, 25.1006436 ], [ 85.7446914, 25.1049849 ], [ 85.748913, 25.1033275 ], [ 85.7504492, 25.1083274 ], [ 85.7531974, 25.1064295 ], [ 85.7554974, 25.1065035 ], [ 85.755766, 25.1004645 ], [ 85.7574763, 25.1003845 ], [ 85.7575417, 25.0993871 ], [ 85.7644619, 25.0990448 ], [ 85.7688205, 25.0974953 ], [ 85.7701313, 25.0948918 ], [ 85.773284, 25.0947316 ], [ 85.7713105, 25.0837619 ], [ 85.7744935, 25.0824461 ], [ 85.773345, 25.0809152 ], [ 85.7741739, 25.0794532 ], [ 85.7664616, 25.0800075 ], [ 85.7650378, 25.0760163 ], [ 85.7677261, 25.0735131 ], [ 85.7686322, 25.0687383 ], [ 85.7713284, 25.0683927 ], [ 85.7706104, 25.0618789 ], [ 85.7671018, 25.0620614 ], [ 85.7647714, 25.0469432 ], [ 85.7689491, 25.0402433 ], [ 85.7661498, 25.0402188 ], [ 85.7657716, 25.0365984 ], [ 85.7639535, 25.0363172 ], [ 85.7637793, 25.0317266 ], [ 85.7669701, 25.0314266 ], [ 85.7668483, 25.0289935 ], [ 85.763767, 25.0288739 ], [ 85.7635429, 25.0247256 ], [ 85.7710885, 25.0238735 ], [ 85.7707838, 25.0209528 ], [ 85.769504, 25.017192 ], [ 85.7587828, 25.0187187 ], [ 85.7587849, 25.0164663 ], [ 85.7496339, 25.0176785 ], [ 85.7482897, 25.0148906 ], [ 85.7380396, 25.0162171 ], [ 85.7372758, 25.0065985 ], [ 85.7412669, 25.0058423 ], [ 85.7411453, 25.0041617 ], [ 85.7516754, 25.0027026 ], [ 85.7515983, 25.0004818 ], [ 85.7488013, 24.9990193 ], [ 85.7464291, 24.9930927 ], [ 85.757327, 24.9920796 ], [ 85.758058, 24.9942061 ], [ 85.7631605, 24.9929552 ], [ 85.7628848, 25.0000103 ], [ 85.7645032, 25.0034575 ], [ 85.7679849, 25.0038347 ], [ 85.7680607, 25.0077843 ], [ 85.7802473, 25.0057569 ], [ 85.7779052, 24.9921893 ], [ 85.7817635, 24.9920292 ], [ 85.7822217, 24.9885629 ], [ 85.7873786, 24.9867019 ], [ 85.7868413, 24.9832034 ], [ 85.7844255, 24.9819516 ], [ 85.7955023, 24.976406 ], [ 85.7982005, 24.9774681 ], [ 85.7999955, 24.9817978 ], [ 85.7994892, 24.9835804 ], [ 85.8007078, 24.9831207 ], [ 85.8016523, 24.9854187 ], [ 85.8013637, 24.9876528 ], [ 85.8059145, 24.9887428 ], [ 85.8084721, 24.9939348 ], [ 85.8108492, 24.9942293 ], [ 85.8118556, 24.9924513 ], [ 85.8125281, 24.9945144 ], [ 85.8157762, 24.9964341 ], [ 85.8183272, 24.9958077 ], [ 85.819223, 24.9973066 ], [ 85.8259091, 24.9980221 ], [ 85.8286048, 24.9944706 ], [ 85.8276999, 24.9908503 ], [ 85.8329451, 24.9896422 ], [ 85.8335697, 24.9877737 ], [ 85.8321636, 24.9864146 ], [ 85.8377365, 24.9819971 ], [ 85.8377618, 24.9800923 ], [ 85.8427009, 24.9734763 ], [ 85.8498479, 24.9668424 ], [ 85.8496762, 24.959196 ], [ 85.8508401, 24.957174 ], [ 85.8522909, 24.9568357 ], [ 85.8532364, 24.9581133 ], [ 85.8587968, 24.9573105 ], [ 85.8587575, 24.955338 ], [ 85.8572276, 24.9543809 ], [ 85.859184, 24.9490684 ], [ 85.8572336, 24.9474837 ], [ 85.8581349, 24.9454166 ], [ 85.8571698, 24.9437509 ], [ 85.8523576, 24.9443054 ], [ 85.8511598, 24.942951 ], [ 85.8492191, 24.9430365 ], [ 85.8461241, 24.9464303 ], [ 85.8460043, 24.950741 ], [ 85.8260217, 24.9516204 ], [ 85.8276506, 24.93854 ], [ 85.8263649, 24.9347615 ], [ 85.8247118, 24.9340839 ], [ 85.8252192, 24.9278459 ], [ 85.8213338, 24.9270501 ], [ 85.8230838, 24.9207766 ], [ 85.8414277, 24.9207367 ], [ 85.8439551, 24.9289117 ], [ 85.8468706, 24.929314 ], [ 85.8526973, 24.9272207 ], [ 85.8549353, 24.923461 ], [ 85.8623257, 24.921724 ], [ 85.8607365, 24.9241974 ], [ 85.8608748, 24.9274339 ], [ 85.8626368, 24.9301738 ], [ 85.8615523, 24.932724 ], [ 85.8633936, 24.9355453 ], [ 85.8626012, 24.9389307 ], [ 85.8711657, 24.9383849 ], [ 85.8707449, 24.9353471 ], [ 85.8725865, 24.9347243 ], [ 85.8796308, 24.9345979 ], [ 85.8762744, 24.9134823 ], [ 85.8756952, 24.9123584 ], [ 85.8729533, 24.9122048 ], [ 85.8800458, 24.9101781 ], [ 85.8849006, 24.9041428 ], [ 85.8893329, 24.885541 ], [ 85.8881845, 24.8813567 ], [ 85.8935133, 24.8784492 ], [ 85.892523, 24.8737143 ], [ 85.9089635, 24.8682588 ], [ 85.9339367, 24.862207 ], [ 85.9523653, 24.8609393 ], [ 85.95447, 24.8718798 ], [ 85.9528586, 24.8745528 ], [ 85.9533048, 24.8759925 ], [ 85.9745549, 24.8676924 ], [ 85.9754797, 24.8611106 ], [ 85.9784226, 24.8600162 ], [ 85.9946364, 24.8457765 ], [ 85.9946974, 24.8424316 ], [ 85.999122, 24.8380971 ], [ 85.998784, 24.8299719 ], [ 86.0004631, 24.8276938 ], [ 86.0010962, 24.822684 ], [ 86.0104691, 24.8114925 ], [ 86.0097549, 24.8083638 ], [ 86.0203189, 24.8074553 ], [ 86.0336225, 24.7928706 ], [ 86.0513843, 24.7840512 ], [ 86.0551048, 24.7796926 ], [ 86.0455823, 24.7764185 ], [ 86.0375453, 24.7764785 ], [ 86.0323632, 24.7707517 ], [ 86.0242092, 24.7666794 ], [ 86.0170086, 24.7639931 ], [ 86.0129101, 24.7643422 ], [ 86.005067, 24.7618806 ], [ 86.0012384, 24.7591871 ], [ 85.9964408, 24.7531862 ], [ 85.9859395, 24.750847 ], [ 85.9831998, 24.7486437 ], [ 85.980077, 24.7488177 ], [ 85.9734772, 24.7428527 ], [ 85.9716671, 24.73983 ], [ 85.9717968, 24.7365081 ], [ 85.9690451, 24.7331253 ], [ 85.9585019, 24.7322989 ], [ 85.9443967, 24.7335702 ], [ 85.9366277, 24.7351533 ], [ 85.9338508, 24.7375323 ], [ 85.9251656, 24.7409549 ], [ 85.9139194, 24.7499856 ], [ 85.9002111, 24.7704899 ], [ 85.9000632, 24.7728146 ], [ 85.8865821, 24.7840649 ], [ 85.886088, 24.786868 ], [ 85.8892775, 24.7897386 ], [ 85.8894163, 24.7923611 ], [ 85.8837845, 24.7963022 ], [ 85.8672336, 24.8042467 ], [ 85.8549344, 24.8079921 ], [ 85.8273195, 24.8082702 ], [ 85.820431, 24.8076449 ], [ 85.8152698, 24.8040454 ], [ 85.8106437, 24.7990059 ], [ 85.8095684, 24.7940176 ], [ 85.7890854, 24.7964718 ], [ 85.7800093, 24.799459 ], [ 85.7782807, 24.7966277 ], [ 85.7680386, 24.8039332 ], [ 85.7687128, 24.8078337 ], [ 85.7621558, 24.8127716 ], [ 85.7574226, 24.8131922 ], [ 85.7439595, 24.8191365 ], [ 85.7361666, 24.8210247 ], [ 85.7308928, 24.8133549 ], [ 85.7307648, 24.8023818 ], [ 85.7290999, 24.7983792 ], [ 85.7235952, 24.7970649 ], [ 85.72235, 24.7856951 ], [ 85.7073595, 24.7797594 ], [ 85.7095528, 24.7768511 ], [ 85.7085093, 24.7763913 ], [ 85.7066846, 24.7683847 ], [ 85.7096451, 24.7670333 ], [ 85.704563, 24.7671355 ], [ 85.7039006, 24.7516441 ], [ 85.7093691, 24.7463521 ], [ 85.7093518, 24.7426642 ], [ 85.7067902, 24.7407248 ], [ 85.7064554, 24.7372585 ], [ 85.7077517, 24.7372124 ], [ 85.70631, 24.7321215 ], [ 85.7082581, 24.7259092 ], [ 85.7001034, 24.7170978 ], [ 85.6978315, 24.7108516 ], [ 85.6891349, 24.6980848 ], [ 85.6820005, 24.6919193 ], [ 85.6760915, 24.6896977 ], [ 85.6714686, 24.6902194 ], [ 85.6492139, 24.684766 ], [ 85.6499129, 24.6804627 ], [ 85.6536381, 24.6767034 ], [ 85.6541357, 24.6741766 ], [ 85.660522, 24.6723614 ], [ 85.659992, 24.6676398 ], [ 85.666769, 24.6608739 ], [ 85.667522, 24.6574534 ], [ 85.6645529, 24.65476 ], [ 85.6644246, 24.6519676 ], [ 85.6625628, 24.6496369 ], [ 85.6649408, 24.6428841 ], [ 85.6686709, 24.6405869 ], [ 85.6674447, 24.6368314 ], [ 85.6721972, 24.6296916 ], [ 85.6733266, 24.6209669 ], [ 85.6761985, 24.6166248 ], [ 85.6746146, 24.6113636 ], [ 85.675598, 24.6051486 ], [ 85.673965, 24.5974682 ], [ 85.6771242, 24.594571 ], [ 85.6775263, 24.5906708 ], [ 85.6673829, 24.5788924 ], [ 85.6580862, 24.5780303 ], [ 85.651714, 24.5748164 ], [ 85.6500454, 24.575917 ], [ 85.640114, 24.5767354 ], [ 85.6352125, 24.5791868 ], [ 85.631836, 24.5788801 ], [ 85.6268604, 24.581864 ], [ 85.6246784, 24.5820807 ], [ 85.6202753, 24.5799184 ], [ 85.6147268, 24.5807441 ], [ 85.6119073, 24.5879077 ], [ 85.6019881, 24.5955578 ], [ 85.5981027, 24.5961485 ], [ 85.5941931, 24.5944821 ], [ 85.5921978, 24.5974383 ], [ 85.5894579, 24.5967786 ], [ 85.5807675, 24.600681 ], [ 85.5722379, 24.5962093 ], [ 85.5680288, 24.5915854 ], [ 85.5659984, 24.5872542 ], [ 85.5669516, 24.5852423 ], [ 85.5662691, 24.5788074 ], [ 85.5671795, 24.5767912 ], [ 85.5716089, 24.5747007 ], [ 85.5697748, 24.5693343 ], [ 85.5722401, 24.5654002 ], [ 85.5717711, 24.5618199 ], [ 85.5678658, 24.5583357 ], [ 85.5614953, 24.5586779 ], [ 85.5602269, 24.5527365 ], [ 85.5562658, 24.558014 ], [ 85.5445577, 24.5633124 ], [ 85.5407409, 24.5627191 ], [ 85.5423036, 24.5576024 ], [ 85.5438116, 24.5569156 ], [ 85.5454451, 24.5480304 ], [ 85.5407765, 24.5305103 ], [ 85.5381634, 24.5278494 ], [ 85.529817, 24.5238871 ], [ 85.5273609, 24.5239837 ], [ 85.5239628, 24.5212707 ], [ 85.521794, 24.5219726 ], [ 85.5183898, 24.5261498 ], [ 85.5073021, 24.5253052 ], [ 85.5095188, 24.5315469 ], [ 85.5088279, 24.5376574 ], [ 85.4990186, 24.5461504 ], [ 85.4915379, 24.5481269 ], [ 85.4858512, 24.5464881 ], [ 85.4780343, 24.5467509 ], [ 85.471415, 24.544751 ], [ 85.4654249, 24.5391257 ], [ 85.4595901, 24.5362446 ], [ 85.450279, 24.5371479 ], [ 85.4442916, 24.534203 ], [ 85.439253, 24.5331896 ], [ 85.4367911, 24.5342559 ], [ 85.4339622, 24.5311379 ], [ 85.4346272, 24.528524 ], [ 85.4299992, 24.5295459 ], [ 85.4322552, 24.5317117 ], [ 85.4133444, 24.5413553 ], [ 85.4044816, 24.5418628 ], [ 85.4009934, 24.5453483 ], [ 85.388612, 24.5492997 ], [ 85.3849996, 24.5519317 ], [ 85.3843534, 24.5554933 ], [ 85.3692363, 24.5552 ], [ 85.3616805, 24.5534616 ], [ 85.3586802, 24.5509154 ], [ 85.3513912, 24.5494293 ], [ 85.334975, 24.5531494 ], [ 85.3269222, 24.5566719 ], [ 85.3227803, 24.5572639 ], [ 85.3202967, 24.5561872 ], [ 85.3177166, 24.5651923 ], [ 85.3182829, 24.5668573 ], [ 85.3235898, 24.566025 ], [ 85.3318559, 24.5696208 ], [ 85.3295445, 24.5736737 ], [ 85.3300995, 24.5814786 ], [ 85.3284796, 24.5832973 ], [ 85.3233958, 24.5816705 ], [ 85.3172841, 24.5826569 ], [ 85.3159298, 24.5842492 ], [ 85.3148024, 24.5897902 ], [ 85.3177842, 24.6008711 ], [ 85.3082501, 24.6017068 ], [ 85.3106613, 24.6078559 ], [ 85.30953, 24.6093597 ], [ 85.3126931, 24.6130358 ], [ 85.309637, 24.6201781 ], [ 85.304328, 24.6227358 ], [ 85.3032859, 24.6318129 ], [ 85.3047472, 24.6325719 ], [ 85.3060982, 24.6364636 ], [ 85.3063074, 24.6421829 ], [ 85.310565, 24.6414626 ], [ 85.3143851, 24.6363137 ], [ 85.3233128, 24.6332976 ], [ 85.321756, 24.6418778 ], [ 85.3251274, 24.6463568 ], [ 85.3219308, 24.6489648 ], [ 85.3176941, 24.6467785 ], [ 85.3044317, 24.6490704 ], [ 85.3047258, 24.6531602 ], [ 85.3067637, 24.6567769 ], [ 85.2962054, 24.6628853 ], [ 85.294543, 24.6692574 ], [ 85.2995149, 24.6685402 ], [ 85.2999494, 24.6702634 ], [ 85.3012764, 24.6704134 ], [ 85.3018386, 24.6750814 ], [ 85.3088396, 24.6724094 ], [ 85.3103958, 24.6691012 ], [ 85.3176496, 24.6690678 ], [ 85.3234063, 24.6650986 ], [ 85.3247538, 24.6663178 ], [ 85.3228068, 24.6683842 ], [ 85.3221521, 24.6746765 ], [ 85.3233072, 24.6766495 ], [ 85.3227312, 24.6890689 ], [ 85.324654, 24.6935231 ], [ 85.3281567, 24.6943503 ], [ 85.3307396, 24.6976147 ], [ 85.3298401, 24.7119372 ], [ 85.326708, 24.7141944 ], [ 85.3236143, 24.7201956 ], [ 85.325367, 24.727089 ], [ 85.3214914, 24.7293537 ], [ 85.3185843, 24.7303177 ], [ 85.3177837, 24.7278735 ], [ 85.3092982, 24.7273426 ], [ 85.3066206, 24.7247524 ], [ 85.3027632, 24.7244753 ], [ 85.3037235, 24.7390738 ], [ 85.2970649, 24.7405601 ], [ 85.2944463, 24.7390285 ], [ 85.2935261, 24.740319 ], [ 85.2955587, 24.7463371 ], [ 85.2872883, 24.7476325 ], [ 85.2842933, 24.7471297 ], [ 85.2822523, 24.7445536 ], [ 85.2711586, 24.7432092 ], [ 85.2666598, 24.7440954 ], [ 85.2757644, 24.7624927 ], [ 85.2765364, 24.7802464 ], [ 85.2826685, 24.7851659 ], [ 85.2848795, 24.7841156 ], [ 85.2842872, 24.782752 ], [ 85.2854101, 24.7818544 ], [ 85.2912449, 24.7811266 ], [ 85.2917614, 24.785063 ], [ 85.2945582, 24.7876961 ], [ 85.295634, 24.7910821 ], [ 85.2944669, 24.7913071 ], [ 85.2980081, 24.7980664 ], [ 85.3003172, 24.7982842 ], [ 85.3011421, 24.79972 ], [ 85.3012638, 24.8029971 ], [ 85.3040944, 24.8081444 ], [ 85.3019637, 24.8152978 ], [ 85.3040577, 24.820553 ], [ 85.306307, 24.8224905 ], [ 85.3064538, 24.8252666 ], [ 85.3041235, 24.8264933 ], [ 85.3045413, 24.8311699 ], [ 85.3102597, 24.8300575 ], [ 85.312973, 24.8345184 ], [ 85.3201184, 24.839175 ], [ 85.3190893, 24.8397117 ], [ 85.3205673, 24.8420324 ], [ 85.3204322, 24.8456119 ], [ 85.3234494, 24.8463893 ], [ 85.3236416, 24.8482536 ], [ 85.3211067, 24.8528569 ], [ 85.320803, 24.8572623 ], [ 85.3249841, 24.8556117 ], [ 85.3268239, 24.8571696 ], [ 85.3380786, 24.8585856 ], [ 85.3392141, 24.866598 ], [ 85.3360672, 24.8673555 ], [ 85.333835, 24.8696795 ], [ 85.3302353, 24.8770135 ], [ 85.3301993, 24.8808322 ], [ 85.341435, 24.886974 ], [ 85.3456273, 24.8828628 ], [ 85.3549648, 24.8826206 ], [ 85.35545, 24.8807429 ], [ 85.3635454, 24.8803285 ], [ 85.3637679, 24.8817639 ], [ 85.3620012, 24.8832443 ], [ 85.3644498, 24.8923038 ], [ 85.3718134, 24.8929586 ], [ 85.3752874, 24.8950079 ], [ 85.3769503, 24.8976079 ], [ 85.3793158, 24.8981766 ], [ 85.3791873, 24.9006231 ], [ 85.37649, 24.9006231 ], [ 85.3769207, 24.9066491 ], [ 85.3787223, 24.9081251 ], [ 85.3756488, 24.9100435 ], [ 85.3759507, 24.9175455 ], [ 85.3742629, 24.9183218 ], [ 85.3740104, 24.923269 ], [ 85.3756419, 24.9274446 ], [ 85.3824552, 24.9280038 ], [ 85.3822922, 24.9344902 ], [ 85.3770795, 24.9352171 ], [ 85.3738171, 24.9462533 ], [ 85.3800602, 24.9501893 ], [ 85.3851651, 24.9554386 ], [ 85.3872501, 24.9612793 ], [ 85.3884979, 24.9620239 ], [ 85.3900427, 24.960787 ], [ 85.3959757, 24.9681302 ], [ 85.4023046, 24.9711128 ], [ 85.4154617, 24.9713491 ], [ 85.4236037, 24.9745109 ], [ 85.4307416, 24.9789905 ], [ 85.4359314, 24.9790292 ], [ 85.4356896, 24.9809521 ], [ 85.4520554, 24.9867899 ], [ 85.4597843, 24.9913175 ], [ 85.4637811, 24.9912294 ], [ 85.4649131, 24.9951647 ], [ 85.4866098, 25.0045548 ], [ 85.4977424, 25.0073942 ], [ 85.51289, 25.0063704 ], [ 85.5203851, 25.0159213 ], [ 85.5227024, 25.0131407 ], [ 85.5187645, 25.0052237 ], [ 85.5209291, 25.0040082 ], [ 85.5280082, 25.0036134 ], [ 85.5278469, 25.0021852 ], [ 85.529596, 25.0009069 ], [ 85.5288883, 24.9972998 ], [ 85.5317018, 24.9971074 ], [ 85.5323629, 24.9938083 ], [ 85.5440852, 24.9951829 ], [ 85.5453636, 24.9941318 ], [ 85.5442826, 24.9884664 ], [ 85.5550488, 24.9895281 ], [ 85.5558186, 24.9856918 ], [ 85.5575272, 24.9857557 ], [ 85.5573178, 24.9881796 ], [ 85.5560942, 24.9886665 ], [ 85.5562748, 24.993573 ], [ 85.5629458, 24.9941763 ], [ 85.562542, 25.004958 ], [ 85.5551925, 25.004327 ], [ 85.5529442, 25.0080613 ], [ 85.547669, 25.0083891 ], [ 85.5471398, 25.0121039 ], [ 85.5447032, 25.0137008 ], [ 85.5413606, 25.0131489 ], [ 85.5398734, 25.0144797 ], [ 85.5407274, 25.0227001 ], [ 85.5428947, 25.0233669 ], [ 85.5433752, 25.0263151 ], [ 85.546273, 25.0289123 ], [ 85.5461811, 25.032505 ], [ 85.5558487, 25.0375789 ], [ 85.5573879, 25.0360544 ], [ 85.5594004, 25.0287873 ], [ 85.5691699, 25.0285206 ], [ 85.5695013, 25.0307133 ], [ 85.5749905, 25.0299534 ], [ 85.5756978, 25.0313462 ], [ 85.5846323, 25.0347769 ], [ 85.5851709, 25.0327505 ], [ 85.591849, 25.0289855 ], [ 85.5981146, 25.0292208 ], [ 85.5977835, 25.0330596 ], [ 85.5993572, 25.033246 ], [ 85.600145, 25.035872 ], [ 85.6020854, 25.0360618 ], [ 85.6033868, 25.0397309 ], [ 85.6066663, 25.0398249 ], [ 85.6076862, 25.0425433 ], [ 85.6129792, 25.0420691 ], [ 85.6142067, 25.0457329 ], [ 85.6181894, 25.0503117 ], [ 85.6245503, 25.0527681 ], [ 85.6284968, 25.057536 ], [ 85.6294931, 25.0570847 ], [ 85.6324152, 25.0595089 ], [ 85.6288013, 25.0644688 ], [ 85.6316726, 25.0692492 ], [ 85.6345601, 25.0694564 ], [ 85.6399533, 25.0671899 ], [ 85.6392535, 25.06503 ], [ 85.6414136, 25.0606254 ], [ 85.6530938, 25.0603797 ], [ 85.652883, 25.0665087 ], [ 85.6482204, 25.0704212 ], [ 85.648884, 25.0722873 ], [ 85.6457992, 25.0733337 ], [ 85.6478994, 25.0770819 ], [ 85.6423385, 25.0805887 ], [ 85.6442376, 25.0845926 ], [ 85.6409658, 25.0859306 ], [ 85.641288, 25.0890758 ], [ 85.6377695, 25.0907455 ], [ 85.6381693, 25.0922481 ], [ 85.6341621, 25.0923647 ], [ 85.6345128, 25.0960609 ], [ 85.6334583, 25.0972566 ], [ 85.6380872, 25.098315 ], [ 85.6393838, 25.1003224 ], [ 85.6449484, 25.1015246 ], [ 85.647518, 25.1045638 ], [ 85.6506643, 25.1047641 ], [ 85.6525017, 25.1031465 ], [ 85.6547073, 25.1036721 ], [ 85.656193, 25.1060964 ], [ 85.6608329, 25.1062016 ], [ 85.6616575, 25.1033287 ], [ 85.6666709, 25.10327 ], [ 85.6699677, 25.1074261 ], [ 85.6695491, 25.1089934 ], [ 85.672587, 25.1096076 ], [ 85.6736081, 25.1114813 ], [ 85.6805257, 25.1132857 ] ] ] } }
]
}
