{
"type": "FeatureCollection",
"name": "1103",
"crs": { "type": "name", "properties": { "name": "urn:ogc:def:crs:OGC:1.3:CRS84" } },
"features": [
{ "type": "Feature", "properties": { "code": "1103", "name": "Namchi", "type": "district" }, "geometry": { "type": "Polygon", "coordinates": [ [ [ 88.4195152, 27.4185858 ], [ 88.4266697, 27.4131599 ], [ 88.4325501, 27.4044333 ], [ 88.4434582, 27.3935042 ], [ 88.453672, 27.3885251 ], [ 88.4704172, 27.3855369 ], [ 88.4859655, 27.3783497 ], [ 88.4810084, 27.3663194 ], [ 88.4802505, 27.3604371 ], [ 88.4817123, 27.3526173 ], [ 88.4882329, 27.342477 ], [ 88.4862336, 27.3336285 ], [ 88.4826733, 27.3287529 ], [ 88.4739207, 27.3237515 ], [ 88.466998, 27.3218823 ], [ 88.4616915, 27.3176111 ], [ 88.4544481, 27.3153351 ], [ 88.4517896, 27.3059138 ], [ 88.446943, 27.3008763 ], [ 88.4482156, 27.2959707 ], [ 88.4425353, 27.2811973 ], [ 88.4415161, 27.2739199 ], [ 88.4434284, 27.2664991 ], [ 88.4469166, 27.261226 ], [ 88.4588709, 27.2559446 ], [ 88.4646453, 27.2505252 ], [ 88.4807866, 27.2467246 ], [ 88.4907038, 27.2395297 ], [ 88.4945037, 27.2305238 ], [ 88.4910092, 27.2023253 ], [ 88.5036803, 27.1851341 ], [ 88.5253904, 27.1781913 ], [ 88.5251, 27.1750446 ], [ 88.5263985, 27.1737587 ], [ 88.5207655, 27.1728896 ], [ 88.5275823, 27.1665095 ], [ 88.531155, 27.1655012 ], [ 88.5313987, 27.1636829 ], [ 88.5276408, 27.157399 ], [ 88.5335201, 27.1545647 ], [ 88.5320359, 27.1498211 ], [ 88.5209749, 27.1487122 ], [ 88.5182431, 27.1464314 ], [ 88.5176863, 27.1432271 ], [ 88.51324, 27.1407508 ], [ 88.5111957, 27.1372385 ], [ 88.5053462, 27.1361641 ], [ 88.4992247, 27.1303964 ], [ 88.4990083, 27.1255092 ], [ 88.4977444, 27.1238159 ], [ 88.487482, 27.1259173 ], [ 88.4850867, 27.1209194 ], [ 88.4777761, 27.1228156 ], [ 88.4754099, 27.1217073 ], [ 88.4678693, 27.1139509 ], [ 88.4664484, 27.1027384 ], [ 88.4619727, 27.0983777 ], [ 88.459577, 27.0905771 ], [ 88.4544529, 27.087859 ], [ 88.4505279, 27.0838857 ], [ 88.4392648, 27.0824066 ], [ 88.4329467, 27.0792596 ], [ 88.4257942, 27.0814959 ], [ 88.4110308, 27.088955 ], [ 88.3992238, 27.0902525 ], [ 88.3873714, 27.0949424 ], [ 88.3748879, 27.0974833 ], [ 88.3587489, 27.0960112 ], [ 88.3568177, 27.0973782 ], [ 88.35715, 27.1002121 ], [ 88.3560406, 27.1010241 ], [ 88.3495214, 27.0998002 ], [ 88.3456976, 27.10692 ], [ 88.3413905, 27.1101229 ], [ 88.3378357, 27.1098286 ], [ 88.335371, 27.106755 ], [ 88.3294357, 27.1077684 ], [ 88.3215408, 27.1047467 ], [ 88.3210859, 27.1068629 ], [ 88.3236811, 27.1105009 ], [ 88.3224746, 27.1131989 ], [ 88.3228507, 27.1176394 ], [ 88.3164492, 27.1217882 ], [ 88.3153373, 27.1261513 ], [ 88.3108243, 27.1250707 ], [ 88.3022935, 27.1292902 ], [ 88.2991824, 27.1283274 ], [ 88.2972228, 27.125181 ], [ 88.2926419, 27.1274798 ], [ 88.2860914, 27.1266454 ], [ 88.2831543, 27.1282447 ], [ 88.2800525, 27.1425336 ], [ 88.2821582, 27.1488117 ], [ 88.2903843, 27.1541782 ], [ 88.2941264, 27.1632559 ], [ 88.2964123, 27.1642861 ], [ 88.3000144, 27.1690443 ], [ 88.3008072, 27.1736515 ], [ 88.3044021, 27.1764214 ], [ 88.3094831, 27.1780772 ], [ 88.312104, 27.1816809 ], [ 88.3196146, 27.1855923 ], [ 88.3285981, 27.1875659 ], [ 88.3306281, 27.1888393 ], [ 88.3288783, 27.1918777 ], [ 88.3343608, 27.1945288 ], [ 88.3317112, 27.1987472 ], [ 88.3317898, 27.2012561 ], [ 88.3290071, 27.2044781 ], [ 88.3230147, 27.2205043 ], [ 88.3199086, 27.2232046 ], [ 88.30767, 27.2260832 ], [ 88.3032288, 27.2369588 ], [ 88.3055368, 27.246102 ], [ 88.3056493, 27.2565392 ], [ 88.3039772, 27.2609306 ], [ 88.2893637, 27.273156 ], [ 88.2810396, 27.2782284 ], [ 88.2783798, 27.2815623 ], [ 88.2791221, 27.2863419 ], [ 88.2906167, 27.2948958 ], [ 88.3064736, 27.2995048 ], [ 88.3094254, 27.3026996 ], [ 88.311002, 27.3056631 ], [ 88.3106552, 27.3156912 ], [ 88.308703, 27.3187396 ], [ 88.300119, 27.3233432 ], [ 88.296809, 27.3267481 ], [ 88.2980699, 27.3309387 ], [ 88.3049461, 27.3375992 ], [ 88.3196497, 27.3459494 ], [ 88.3227224, 27.3493124 ], [ 88.3279457, 27.3649041 ], [ 88.3306325, 27.3687336 ], [ 88.3391985, 27.3720589 ], [ 88.3493085, 27.3740225 ], [ 88.3582621, 27.3782788 ], [ 88.3573825, 27.3843494 ], [ 88.3583164, 27.3899417 ], [ 88.3575816, 27.3992764 ], [ 88.3507232, 27.4119771 ], [ 88.347985, 27.4141469 ], [ 88.3430227, 27.4110917 ], [ 88.3389509, 27.4062268 ], [ 88.3337563, 27.4104635 ], [ 88.3315024, 27.4170617 ], [ 88.3255663, 27.4175133 ], [ 88.3163549, 27.4153074 ], [ 88.3057257, 27.4168385 ], [ 88.3009332, 27.4147827 ], [ 88.3015098, 27.4177998 ], [ 88.2977337, 27.4236982 ], [ 88.2996348, 27.4270919 ], [ 88.2969883, 27.4313995 ], [ 88.2992096, 27.4356066 ], [ 88.2978006, 27.4399913 ], [ 88.2999683, 27.4427299 ], [ 88.300587, 27.448155 ], [ 88.2982313, 27.4566378 ], [ 88.2980053, 27.4708194 ], [ 88.2993862, 27.4823835 ], [ 88.2944455, 27.4873256 ], [ 88.2925678, 27.4917317 ], [ 88.283711, 27.4997375 ], [ 88.2776906, 27.5100726 ], [ 88.2910066, 27.5188005 ], [ 88.3192465, 27.5270596 ], [ 88.3351778, 27.5275903 ], [ 88.342623, 27.5263136 ], [ 88.355726, 27.5212633 ], [ 88.361189, 27.517201 ], [ 88.3646874, 27.5103025 ], [ 88.3755892, 27.4975126 ], [ 88.3986721, 27.4789661 ], [ 88.4055752, 27.4756535 ], [ 88.4087561, 27.4583709 ], [ 88.4160098, 27.4465352 ], [ 88.414202, 27.4392643 ], [ 88.4144817, 27.4298158 ], [ 88.4195152, 27.4185858 ] ] ] } }
]
}
