{
"type": "FeatureCollection",
"name": "1105",
"crs": { "type": "name", "properties": { "name": "urn:ogc:def:crs:OGC:1.3:CRS84" } },
"features": [
{ "type": "Feature", "properties": { "code": "1105", "name": "Soreng", "type": "district" }, "geometry": { "type": "Polygon", "coordinates": [ [ [ 88.0900724, 27.2547725 ], [ 88.0981292, 27.2528368 ], [ 88.1039378, 27.2543221 ], [ 88.1128174, 27.249622 ], [ 88.1175187, 27.2430758 ], [ 88.1216708, 27.2444513 ], [ 88.1264764, 27.2440947 ], [ 88.1278325, 27.2390282 ], [ 88.1304749, 27.2367889 ], [ 88.1362761, 27.2371661 ], [ 88.1498218, 27.2485643 ], [ 88.1515104, 27.2475141 ], [ 88.1565766, 27.2483058 ], [ 88.1627609, 27.2473907 ], [ 88.16791, 27.2406812 ], [ 88.1796103, 27.2394768 ], [ 88.1990518, 27.244334 ], [ 88.212807, 27.2431273 ], [ 88.2112967, 27.2459652 ], [ 88.2070093, 27.2467821 ], [ 88.2085656, 27.2493594 ], [ 88.2124909, 27.2508838 ], [ 88.2169046, 27.2499495 ], [ 88.2203567, 27.2445999 ], [ 88.2279025, 27.2425526 ], [ 88.2441007, 27.2450589 ], [ 88.2496282, 27.2477956 ], [ 88.2529689, 27.2510867 ], [ 88.2587568, 27.2451273 ], [ 88.2604481, 27.2486082 ], [ 88.2733822, 27.2462222 ], [ 88.2757024, 27.2482687 ], [ 88.2866979, 27.2431239 ], [ 88.2989697, 27.2402851 ], [ 88.3032288, 27.2369588 ], [ 88.30767, 27.2260832 ], [ 88.3199086, 27.2232046 ], [ 88.3230147, 27.2205043 ], [ 88.3290071, 27.2044781 ], [ 88.3317898, 27.2012561 ], [ 88.3317112, 27.1987472 ], [ 88.3343608, 27.1945288 ], [ 88.3288783, 27.1918777 ], [ 88.3306281, 27.1888393 ], [ 88.3285981, 27.1875659 ], [ 88.3196146, 27.1855923 ], [ 88.312104, 27.1816809 ], [ 88.3094831, 27.1780772 ], [ 88.3044021, 27.1764214 ], [ 88.3008072, 27.1736515 ], [ 88.3000144, 27.1690443 ], [ 88.2964123, 27.1642861 ], [ 88.2941264, 27.1632559 ], [ 88.2903843, 27.1541782 ], [ 88.2821582, 27.1488117 ], [ 88.2800525, 27.1425336 ], [ 88.2831543, 27.1282447 ], [ 88.2790061, 27.1318706 ], [ 88.2742057, 27.1308339 ], [ 88.2724833, 27.1281477 ], [ 88.2683868, 27.1295119 ], [ 88.2656602, 27.1276777 ], [ 88.2627753, 27.1278424 ], [ 88.259056, 27.1252627 ], [ 88.2485824, 27.1243511 ], [ 88.2417737, 27.1195038 ], [ 88.2300233, 27.1189805 ], [ 88.2195996, 27.1251112 ], [ 88.2194461, 27.1284686 ], [ 88.2157014, 27.1316568 ], [ 88.2137549, 27.1319648 ], [ 88.2114939, 27.129886 ], [ 88.2057167, 27.1334587 ], [ 88.2014384, 27.131435 ], [ 88.1946268, 27.1348499 ], [ 88.192028, 27.1324821 ], [ 88.1895772, 27.1332187 ], [ 88.1853595, 27.1307658 ], [ 88.1810079, 27.1324732 ], [ 88.179186, 27.1298341 ], [ 88.1758674, 27.1298083 ], [ 88.1723209, 27.1273593 ], [ 88.1706043, 27.1226262 ], [ 88.167286, 27.1224332 ], [ 88.1620763, 27.1133868 ], [ 88.1602075, 27.1125167 ], [ 88.158806, 27.1135505 ], [ 88.15702, 27.1103064 ], [ 88.1517807, 27.1095764 ], [ 88.1498352, 27.1138952 ], [ 88.1453116, 27.111766 ], [ 88.1442628, 27.1123392 ], [ 88.1440415, 27.1156108 ], [ 88.1389078, 27.1139101 ], [ 88.1360134, 27.1152415 ], [ 88.1353378, 27.1169969 ], [ 88.1363315, 27.1190997 ], [ 88.1352322, 27.1205888 ], [ 88.1228769, 27.1213247 ], [ 88.1117408, 27.131179 ], [ 88.1052751, 27.1310699 ], [ 88.0963073, 27.133135 ], [ 88.0877541, 27.1461513 ], [ 88.0871021, 27.1642189 ], [ 88.077407, 27.1729022 ], [ 88.0797626, 27.1743651 ], [ 88.0785492, 27.1801495 ], [ 88.0727233, 27.1872003 ], [ 88.074285, 27.1924037 ], [ 88.0780223, 27.196958 ], [ 88.0793278, 27.2008346 ], [ 88.0716906, 27.2041621 ], [ 88.0655208, 27.2091637 ], [ 88.0646601, 27.214312 ], [ 88.052825, 27.2134083 ], [ 88.0438873, 27.2192288 ], [ 88.0343715, 27.2210369 ], [ 88.0267299, 27.2206662 ], [ 88.0142566, 27.2129144 ], [ 88.0123893, 27.2157409 ], [ 88.0171527, 27.2254957 ], [ 88.0188994, 27.2249791 ], [ 88.0192806, 27.2356755 ], [ 88.0216194, 27.2375239 ], [ 88.0246349, 27.2376231 ], [ 88.0246673, 27.2423161 ], [ 88.0280176, 27.2496073 ], [ 88.0342095, 27.2491829 ], [ 88.0440033, 27.2516813 ], [ 88.0516094, 27.246308 ], [ 88.0590125, 27.2482323 ], [ 88.0605287, 27.246826 ], [ 88.068179, 27.2470615 ], [ 88.0738288, 27.2446761 ], [ 88.0768207, 27.2455741 ], [ 88.0832963, 27.2517101 ], [ 88.0900724, 27.2547725 ] ] ] } }
]
}
