{
"type": "FeatureCollection",
"name": "1202",
"crs": { "type": "name", "properties": { "name": "urn:ogc:def:crs:OGC:1.3:CRS84" } },
"features": [
{ "type": "Feature", "properties": { "code": "1202", "name": "West Kameng", "type": "district" }, "geometry": { "type": "Polygon", "coordinates": [ [ [ 92.4358838, 27.7386596 ], [ 92.4409338, 27.7394331 ], [ 92.4467959, 27.7341635 ], [ 92.4560853, 27.7393451 ], [ 92.4635113, 27.7380644 ], [ 92.4730619, 27.739964 ], [ 92.478764, 27.7360557 ], [ 92.4967499, 27.7301609 ], [ 92.5027956, 27.7240238 ], [ 92.5121202, 27.7215873 ], [ 92.5118516, 27.7196213 ], [ 92.5095263, 27.7178287 ], [ 92.5100871, 27.7120859 ], [ 92.5137813, 27.7055085 ], [ 92.5118132, 27.7008117 ], [ 92.5120316, 27.6971613 ], [ 92.5169183, 27.6918864 ], [ 92.5176502, 27.6892582 ], [ 92.5262685, 27.6836305 ], [ 92.5289871, 27.6762268 ], [ 92.5327652, 27.6733035 ], [ 92.533707, 27.6674306 ], [ 92.5363879, 27.6663184 ], [ 92.5365154, 27.6549535 ], [ 92.5336388, 27.6500411 ], [ 92.5351385, 27.6469501 ], [ 92.5308418, 27.6364695 ], [ 92.5410724, 27.6296456 ], [ 92.5389259, 27.6221727 ], [ 92.5391397, 27.6101999 ], [ 92.5429923, 27.6072097 ], [ 92.5510289, 27.6039399 ], [ 92.5586804, 27.6057291 ], [ 92.5670337, 27.6096569 ], [ 92.5673566, 27.6123765 ], [ 92.5695622, 27.6135347 ], [ 92.5759216, 27.6130165 ], [ 92.5851835, 27.6154455 ], [ 92.5873242, 27.6172977 ], [ 92.5901775, 27.6096693 ], [ 92.5878428, 27.6063705 ], [ 92.5883622, 27.6055605 ], [ 92.5927101, 27.6037102 ], [ 92.5967243, 27.6048137 ], [ 92.6013159, 27.6021042 ], [ 92.6032631, 27.5988643 ], [ 92.6127752, 27.5936232 ], [ 92.6138787, 27.5892836 ], [ 92.609857, 27.5864479 ], [ 92.6177653, 27.5755927 ], [ 92.6211384, 27.5746093 ], [ 92.6221735, 27.5717398 ], [ 92.6222388, 27.5643913 ], [ 92.6170513, 27.5531444 ], [ 92.6191236, 27.5451781 ], [ 92.6284033, 27.5430089 ], [ 92.6342263, 27.5446075 ], [ 92.6388304, 27.5437393 ], [ 92.6502193, 27.5319518 ], [ 92.6535187, 27.519949 ], [ 92.6532589, 27.5179401 ], [ 92.648325, 27.5114025 ], [ 92.6513184, 27.5005505 ], [ 92.6546283, 27.4972935 ], [ 92.6552821, 27.4943503 ], [ 92.6537717, 27.4907689 ], [ 92.6606123, 27.4821067 ], [ 92.670393, 27.4778842 ], [ 92.6711161, 27.4754975 ], [ 92.674696, 27.4752825 ], [ 92.6804625, 27.4725233 ], [ 92.6849664, 27.4729771 ], [ 92.6855457, 27.4681196 ], [ 92.6841659, 27.4634591 ], [ 92.6917828, 27.4585395 ], [ 92.6924205, 27.4549634 ], [ 92.6959024, 27.4539972 ], [ 92.697491, 27.4513768 ], [ 92.7021202, 27.4496096 ], [ 92.7143163, 27.450437 ], [ 92.7251411, 27.4572371 ], [ 92.7363831, 27.4665841 ], [ 92.7424515, 27.4630443 ], [ 92.7524332, 27.446318 ], [ 92.7543939, 27.445721 ], [ 92.7609851, 27.4439528 ], [ 92.7616435, 27.4454583 ], [ 92.7648891, 27.4467543 ], [ 92.7686592, 27.443418 ], [ 92.773967, 27.4436193 ], [ 92.7771182, 27.4458914 ], [ 92.7772952, 27.4491416 ], [ 92.7858098, 27.4529685 ], [ 92.8018118, 27.4485635 ], [ 92.8037415, 27.4464218 ], [ 92.8057095, 27.4417767 ], [ 92.8048001, 27.4367583 ], [ 92.8082404, 27.4350408 ], [ 92.8056052, 27.433723 ], [ 92.806544, 27.4310676 ], [ 92.8047061, 27.4291648 ], [ 92.8107818, 27.4256063 ], [ 92.8051092, 27.4190033 ], [ 92.8123923, 27.4164406 ], [ 92.8148072, 27.4135501 ], [ 92.8160073, 27.4142193 ], [ 92.8162342, 27.4168311 ], [ 92.8204859, 27.4118651 ], [ 92.8225601, 27.3991692 ], [ 92.8203659, 27.3897376 ], [ 92.8218993, 27.3864758 ], [ 92.8211299, 27.382762 ], [ 92.8228866, 27.3793963 ], [ 92.8202488, 27.3769396 ], [ 92.8155894, 27.3798625 ], [ 92.8118899, 27.3788681 ], [ 92.8115534, 27.3753754 ], [ 92.8140429, 27.3707469 ], [ 92.812841, 27.3691174 ], [ 92.8143384, 27.3667807 ], [ 92.8140835, 27.3617764 ], [ 92.8152068, 27.3595704 ], [ 92.8145476, 27.3546426 ], [ 92.8125563, 27.3548718 ], [ 92.8089963, 27.3584845 ], [ 92.8074911, 27.357315 ], [ 92.8056006, 27.3578916 ], [ 92.8049036, 27.3573452 ], [ 92.8068301, 27.3556586 ], [ 92.8055265, 27.3511905 ], [ 92.8014105, 27.3514412 ], [ 92.8001632, 27.3502312 ], [ 92.8014187, 27.3469875 ], [ 92.805093, 27.3460645 ], [ 92.8049215, 27.3381001 ], [ 92.8067057, 27.3371219 ], [ 92.8065717, 27.3319299 ], [ 92.8043116, 27.3296556 ], [ 92.8095288, 27.3230051 ], [ 92.8143782, 27.3207565 ], [ 92.8170036, 27.3175401 ], [ 92.816722, 27.3161157 ], [ 92.819458, 27.3156073 ], [ 92.8204081, 27.312912 ], [ 92.8281832, 27.3098927 ], [ 92.8305289, 27.3101238 ], [ 92.8315464, 27.3079705 ], [ 92.8348851, 27.3076721 ], [ 92.8363675, 27.305506 ], [ 92.8399762, 27.3037509 ], [ 92.8432695, 27.2981754 ], [ 92.8442495, 27.2929338 ], [ 92.8427073, 27.2892371 ], [ 92.8320252, 27.2894009 ], [ 92.8239454, 27.28688 ], [ 92.8168683, 27.2893002 ], [ 92.811869, 27.2963643 ], [ 92.8057431, 27.2950752 ], [ 92.8062378, 27.2877383 ], [ 92.8026122, 27.2793885 ], [ 92.8073181, 27.2728751 ], [ 92.8032719, 27.2717958 ], [ 92.8028617, 27.2690327 ], [ 92.8004189, 27.267294 ], [ 92.799404, 27.2601503 ], [ 92.8021893, 27.2555267 ], [ 92.8173882, 27.2534766 ], [ 92.8253069, 27.2394133 ], [ 92.8362589, 27.2327716 ], [ 92.8302138, 27.228686 ], [ 92.8278087, 27.2246597 ], [ 92.8341521, 27.2179731 ], [ 92.833366, 27.2144546 ], [ 92.8230622, 27.214183 ], [ 92.8186728, 27.2105398 ], [ 92.8155937, 27.20368 ], [ 92.80885, 27.2017708 ], [ 92.8084257, 27.1973556 ], [ 92.81456, 27.1926908 ], [ 92.8142914, 27.1778623 ], [ 92.7988916, 27.1812873 ], [ 92.7816549, 27.1809834 ], [ 92.7683744, 27.1941238 ], [ 92.7647326, 27.1956561 ], [ 92.7499796, 27.1952852 ], [ 92.7388232, 27.1904876 ], [ 92.7368069, 27.187546 ], [ 92.7288283, 27.1841095 ], [ 92.71679, 27.17588 ], [ 92.6972861, 27.1725717 ], [ 92.6880508, 27.1657099 ], [ 92.6781618, 27.1637078 ], [ 92.6749953, 27.1608999 ], [ 92.6705543, 27.1613597 ], [ 92.6499502, 27.1518968 ], [ 92.6378489, 27.1502365 ], [ 92.6323954, 27.1475472 ], [ 92.624664, 27.1488239 ], [ 92.6172457, 27.1461305 ], [ 92.6080531, 27.1402436 ], [ 92.606951, 27.1360928 ], [ 92.6070365, 27.125499 ], [ 92.6016786, 27.1198141 ], [ 92.601915, 27.108103 ], [ 92.594277, 27.1046015 ], [ 92.6003073, 27.0970539 ], [ 92.5919577, 27.0854559 ], [ 92.5902613, 27.0790132 ], [ 92.5977937, 27.0529401 ], [ 92.605181, 27.0441709 ], [ 92.6239014, 27.0286575 ], [ 92.635523, 27.0239153 ], [ 92.6445351, 27.008746 ], [ 92.6447991, 26.9866633 ], [ 92.6237184, 26.9768893 ], [ 92.5891165, 26.9615567 ], [ 92.5793324, 26.9588919 ], [ 92.5541903, 26.95744 ], [ 92.4968643, 26.9633736 ], [ 92.4474682, 26.9588118 ], [ 92.4258066, 26.9410398 ], [ 92.412014, 26.9427609 ], [ 92.3983296, 26.9246907 ], [ 92.3671003, 26.9286844 ], [ 92.3631894, 26.9345433 ], [ 92.3230989, 26.9275337 ], [ 92.3026619, 26.9226429 ], [ 92.3029649, 26.9071396 ], [ 92.2760902, 26.9019964 ], [ 92.2551853, 26.9096052 ], [ 92.2380182, 26.905794 ], [ 92.194801, 26.8899635 ], [ 92.1698605, 26.8916541 ], [ 92.1200185, 26.8889837 ], [ 92.1143777, 26.8935779 ], [ 92.1167472, 26.8974881 ], [ 92.1177749, 26.9088986 ], [ 92.1152104, 26.9137542 ], [ 92.1168539, 26.9254713 ], [ 92.1151573, 26.9342069 ], [ 92.1181712, 26.9386028 ], [ 92.1186133, 26.9422785 ], [ 92.1156808, 26.9449933 ], [ 92.1135497, 26.9504948 ], [ 92.1176452, 26.9575472 ], [ 92.1203629, 26.9585176 ], [ 92.1209833, 26.9603602 ], [ 92.1181139, 26.9743729 ], [ 92.1047575, 26.9799106 ], [ 92.1049725, 26.9866405 ], [ 92.1082468, 26.9897913 ], [ 92.1041784, 26.998645 ], [ 92.1035461, 27.0039773 ], [ 92.0988242, 27.0078746 ], [ 92.0947848, 27.0092372 ], [ 92.0950746, 27.0123049 ], [ 92.084717, 27.0163667 ], [ 92.0784155, 27.0173614 ], [ 92.0788991, 27.0287161 ], [ 92.0830826, 27.0340848 ], [ 92.0817457, 27.0408156 ], [ 92.0764491, 27.0415854 ], [ 92.0730236, 27.0445165 ], [ 92.0705234, 27.0439839 ], [ 92.0561564, 27.0514248 ], [ 92.0441241, 27.0513624 ], [ 92.0432527, 27.0566345 ], [ 92.0368096, 27.0631416 ], [ 92.0376398, 27.0703256 ], [ 92.0308079, 27.0799236 ], [ 92.0319478, 27.0920247 ], [ 92.0296084, 27.0949287 ], [ 92.0301676, 27.0997996 ], [ 92.0231336, 27.1095519 ], [ 92.02743, 27.1184584 ], [ 92.0325268, 27.1243942 ], [ 92.0358045, 27.1349114 ], [ 92.035302, 27.1408518 ], [ 92.0321828, 27.1460521 ], [ 92.032398, 27.1527735 ], [ 92.0287265, 27.1573222 ], [ 92.0267219, 27.168279 ], [ 92.0357506, 27.1750682 ], [ 92.0370856, 27.1792981 ], [ 92.0521074, 27.1849186 ], [ 92.0583784, 27.1903095 ], [ 92.0599371, 27.2015972 ], [ 92.0624259, 27.208931 ], [ 92.069278, 27.2137271 ], [ 92.0705561, 27.227597 ], [ 92.0725713, 27.233106 ], [ 92.0673701, 27.242028 ], [ 92.0625062, 27.2441037 ], [ 92.0592023, 27.2517969 ], [ 92.0459095, 27.255592 ], [ 92.0401688, 27.2558181 ], [ 92.0384376, 27.2544361 ], [ 92.0380025, 27.258422 ], [ 92.0429271, 27.2616035 ], [ 92.045172, 27.2685767 ], [ 92.0613049, 27.272529 ], [ 92.0670732, 27.2771703 ], [ 92.0703081, 27.2762357 ], [ 92.0720332, 27.2780685 ], [ 92.0753463, 27.278194 ], [ 92.0790157, 27.2741488 ], [ 92.0869011, 27.2692738 ], [ 92.0945082, 27.2712611 ], [ 92.0988177, 27.2690104 ], [ 92.103473, 27.2686649 ], [ 92.1094508, 27.2708473 ], [ 92.1131333, 27.2700645 ], [ 92.1199494, 27.2717966 ], [ 92.1245759, 27.2780177 ], [ 92.1249754, 27.2820183 ], [ 92.1228156, 27.2873561 ], [ 92.1201669, 27.2903131 ], [ 92.0998037, 27.3023739 ], [ 92.0881214, 27.305128 ], [ 92.0781491, 27.3130439 ], [ 92.0648426, 27.3273339 ], [ 92.062971, 27.3332105 ], [ 92.0637372, 27.33706 ], [ 92.0625211, 27.342211 ], [ 92.059612, 27.3465633 ], [ 92.0527724, 27.3512891 ], [ 92.0550258, 27.3527034 ], [ 92.0501105, 27.3570572 ], [ 92.0501917, 27.3599877 ], [ 92.0482412, 27.3631324 ], [ 92.0489857, 27.3767589 ], [ 92.0543976, 27.3828382 ], [ 92.0536983, 27.388698 ], [ 92.0548088, 27.3960579 ], [ 92.0584699, 27.3997075 ], [ 92.0545252, 27.4010496 ], [ 92.0537455, 27.404032 ], [ 92.0489679, 27.4070438 ], [ 92.0436938, 27.4148113 ], [ 92.043698, 27.4175969 ], [ 92.0424808, 27.4185424 ], [ 92.0437594, 27.4227959 ], [ 92.0429437, 27.4245981 ], [ 92.0442295, 27.4267158 ], [ 92.0420155, 27.431018 ], [ 92.0425353, 27.435229 ], [ 92.0372779, 27.4389501 ], [ 92.0330046, 27.438585 ], [ 92.0323405, 27.4405707 ], [ 92.0268018, 27.4401169 ], [ 92.0264311, 27.4427352 ], [ 92.0221665, 27.4480205 ], [ 92.0218608, 27.4500995 ], [ 92.025235, 27.4561065 ], [ 92.0255997, 27.4692994 ], [ 92.0487363, 27.4747926 ], [ 92.0707819, 27.48559 ], [ 92.0833627, 27.4936031 ], [ 92.1012972, 27.4982252 ], [ 92.1039884, 27.5038404 ], [ 92.1087861, 27.5033199 ], [ 92.1111826, 27.5081139 ], [ 92.1078072, 27.512512 ], [ 92.1078394, 27.5142957 ], [ 92.1158442, 27.5148942 ], [ 92.1179958, 27.5192851 ], [ 92.1218527, 27.519374 ], [ 92.1270392, 27.5223063 ], [ 92.1299285, 27.5291882 ], [ 92.1343216, 27.5332545 ], [ 92.1322262, 27.5424192 ], [ 92.1359085, 27.5442409 ], [ 92.1408078, 27.54243 ], [ 92.1439783, 27.5468811 ], [ 92.1450716, 27.5525823 ], [ 92.1484126, 27.5597423 ], [ 92.1500556, 27.5610554 ], [ 92.1564857, 27.5587288 ], [ 92.1613938, 27.5600969 ], [ 92.1683408, 27.5727969 ], [ 92.1740979, 27.57357 ], [ 92.1797474, 27.572244 ], [ 92.1870333, 27.5725686 ], [ 92.1905698, 27.5741835 ], [ 92.1946788, 27.5666072 ], [ 92.2064264, 27.5642311 ], [ 92.2094582, 27.5608986 ], [ 92.2164792, 27.5629762 ], [ 92.2307845, 27.5728176 ], [ 92.2346464, 27.580796 ], [ 92.2331707, 27.5860488 ], [ 92.2346186, 27.5895228 ], [ 92.2320195, 27.5902921 ], [ 92.2308328, 27.5925729 ], [ 92.2312986, 27.6031343 ], [ 92.2276977, 27.6045636 ], [ 92.2265857, 27.6105665 ], [ 92.2252648, 27.6119655 ], [ 92.2189034, 27.614567 ], [ 92.2182198, 27.618209 ], [ 92.2213024, 27.6198157 ], [ 92.2215124, 27.6226008 ], [ 92.2237059, 27.6240897 ], [ 92.2245472, 27.6269901 ], [ 92.2327312, 27.6346524 ], [ 92.2393906, 27.636019 ], [ 92.2441313, 27.6396593 ], [ 92.2437454, 27.6412188 ], [ 92.2396233, 27.6431199 ], [ 92.2388628, 27.6547567 ], [ 92.2395121, 27.6600446 ], [ 92.244076, 27.6681496 ], [ 92.2661614, 27.6553236 ], [ 92.2734378, 27.6545985 ], [ 92.2740845, 27.6534483 ], [ 92.2807585, 27.654256 ], [ 92.289046, 27.6527853 ], [ 92.2956226, 27.653248 ], [ 92.3206791, 27.6597675 ], [ 92.3324802, 27.6653436 ], [ 92.3388529, 27.6638826 ], [ 92.3431372, 27.664778 ], [ 92.3606352, 27.6633927 ], [ 92.3699809, 27.6678724 ], [ 92.3822873, 27.6695753 ], [ 92.3901959, 27.672863 ], [ 92.3924441, 27.6761009 ], [ 92.395539, 27.6775121 ], [ 92.3981421, 27.6830705 ], [ 92.4000158, 27.6933501 ], [ 92.4087857, 27.7024831 ], [ 92.4075643, 27.7146893 ], [ 92.4047325, 27.7240438 ], [ 92.409922, 27.7267999 ], [ 92.4131907, 27.7335369 ], [ 92.4137151, 27.736993 ], [ 92.4124941, 27.7405496 ], [ 92.4144585, 27.7464518 ], [ 92.4231904, 27.7459729 ], [ 92.4358838, 27.7386596 ] ] ] } }
]
}
