{
"type": "FeatureCollection",
"name": "1204",
"crs": { "type": "name", "properties": { "name": "urn:ogc:def:crs:OGC:1.3:CRS84" } },
"features": [
{ "type": "Feature", "properties": { "code": "1204", "name": "Papum Pare", "type": "district" }, "geometry": { "type": "Polygon", "coordinates": [ [ [ 93.7959382, 27.1323386 ], [ 93.7893496, 27.1246194 ], [ 93.7631755, 27.1281886 ], [ 93.747709, 27.1222399 ], [ 93.7377704, 27.1343967 ], [ 93.7179657, 27.1323526 ], [ 93.7024992, 27.1424653 ], [ 93.6917917, 27.1728035 ], [ 93.6912629, 27.1796777 ], [ 93.6817979, 27.174945 ], [ 93.6732319, 27.1756588 ], [ 93.6582413, 27.1806557 ], [ 93.6482475, 27.1877941 ], [ 93.6389676, 27.1906494 ], [ 93.6318293, 27.1899356 ], [ 93.6246909, 27.1863664 ], [ 93.6082726, 27.1813695 ], [ 93.5968512, 27.1806557 ], [ 93.5768637, 27.1806557 ], [ 93.5518794, 27.1849387 ], [ 93.5326057, 27.1849387 ], [ 93.5211843, 27.1785142 ], [ 93.4948604, 27.1722796 ], [ 93.5031004, 27.1478191 ], [ 93.5066696, 27.1328285 ], [ 93.522374, 27.1149825 ], [ 93.5345093, 27.090712 ], [ 93.5455738, 27.0803614 ], [ 93.549143, 27.0582324 ], [ 93.542766, 27.0500233 ], [ 93.5387923, 27.038007 ], [ 93.5429564, 27.0272994 ], [ 93.553664, 27.0195662 ], [ 93.5744842, 27.0237302 ], [ 93.5947097, 27.0356275 ], [ 93.6321862, 27.0445505 ], [ 93.6863189, 27.060017 ], [ 93.7059495, 27.0701297 ], [ 93.7347192, 27.0914604 ], [ 93.7918263, 27.1043095 ], [ 93.8262597, 27.1092818 ], [ 93.826441, 27.0978725 ], [ 93.8314049, 27.0909113 ], [ 93.8315023, 27.0867779 ], [ 93.8377744, 27.0853718 ], [ 93.8331982, 27.0815575 ], [ 93.835604, 27.0781963 ], [ 93.8356709, 27.0742975 ], [ 93.8298007, 27.0679738 ], [ 93.8286107, 27.0688533 ], [ 93.8292266, 27.0668138 ], [ 93.8274122, 27.0659423 ], [ 93.8254609, 27.0675391 ], [ 93.8219878, 27.0677725 ], [ 93.8212131, 27.0643968 ], [ 93.8189197, 27.0643689 ], [ 93.8149947, 27.0614567 ], [ 93.8103543, 27.0672939 ], [ 93.8084094, 27.0659256 ], [ 93.8113923, 27.0589371 ], [ 93.8063113, 27.0596297 ], [ 93.8033586, 27.0580579 ], [ 93.8002458, 27.062817 ], [ 93.7968417, 27.06527 ], [ 93.7952741, 27.0724575 ], [ 93.7937822, 27.0723394 ], [ 93.7930442, 27.0682777 ], [ 93.7987894, 27.062392 ], [ 93.7997034, 27.0598611 ], [ 93.7986955, 27.0595401 ], [ 93.8002238, 27.0578532 ], [ 93.7952245, 27.0570067 ], [ 93.7953524, 27.0616907 ], [ 93.7944096, 27.0619203 ], [ 93.7938302, 27.054524 ], [ 93.7901323, 27.0524551 ], [ 93.789418, 27.0505955 ], [ 93.7834651, 27.0516567 ], [ 93.7826784, 27.0647335 ], [ 93.781085, 27.0653732 ], [ 93.7810904, 27.0588166 ], [ 93.7798668, 27.0582707 ], [ 93.7782813, 27.0489367 ], [ 93.7708709, 27.0620358 ], [ 93.7718509, 27.0540765 ], [ 93.7678619, 27.0512802 ], [ 93.76799, 27.0544527 ], [ 93.7667264, 27.0529084 ], [ 93.7674246, 27.0394391 ], [ 93.7435301, 27.0276921 ], [ 93.7329818, 27.0259436 ], [ 93.7233802, 27.0208142 ], [ 93.7089074, 27.0081072 ], [ 93.6936701, 26.9889955 ], [ 93.675671, 26.9745856 ], [ 93.6672884, 26.9694621 ], [ 93.6574365, 26.966315 ], [ 93.6274566, 26.9631555 ], [ 93.6147259, 26.9603032 ], [ 93.5866695, 26.9504701 ], [ 93.5603582, 26.952726 ], [ 93.549151, 26.9500083 ], [ 93.5449355, 26.951229 ], [ 93.5410095, 26.9489749 ], [ 93.5211161, 26.9476982 ], [ 93.5057479, 26.9433947 ], [ 93.4891022, 26.9361768 ], [ 93.486259, 26.9422774 ], [ 93.4747297, 26.9393241 ], [ 93.4706478, 26.9365972 ], [ 93.4624901, 26.9378804 ], [ 93.4487706, 26.9507818 ], [ 93.3895816, 26.9582023 ], [ 93.3866401, 26.9722547 ], [ 93.3803326, 26.9745752 ], [ 93.3798125, 26.9783591 ], [ 93.3859748, 26.9806308 ], [ 93.3851764, 26.9834921 ], [ 93.3689026, 26.9809656 ], [ 93.3606143, 26.9817691 ], [ 93.3462505, 26.9924333 ], [ 93.3389874, 27.0034985 ], [ 93.3394208, 27.0068085 ], [ 93.3441326, 27.0107563 ], [ 93.3435522, 27.013691 ], [ 93.3408456, 27.0165526 ], [ 93.3427863, 27.0239168 ], [ 93.3400557, 27.0322416 ], [ 93.3428436, 27.0381626 ], [ 93.3420645, 27.0397107 ], [ 93.3386672, 27.0400504 ], [ 93.329231, 27.0581771 ], [ 93.3229429, 27.0618963 ], [ 93.3189841, 27.070329 ], [ 93.3125361, 27.0792681 ], [ 93.3068451, 27.0778259 ], [ 93.3042156, 27.0791937 ], [ 93.299425, 27.0760731 ], [ 93.2930833, 27.0778383 ], [ 93.285611, 27.0853995 ], [ 93.284296, 27.0919407 ], [ 93.2719945, 27.1034547 ], [ 93.2592892, 27.1081287 ], [ 93.2423661, 27.1114034 ], [ 93.2294346, 27.1095814 ], [ 93.2203803, 27.1139719 ], [ 93.2155084, 27.1142391 ], [ 93.2129391, 27.1165878 ], [ 93.2106624, 27.1309488 ], [ 93.2126886, 27.1355507 ], [ 93.216061, 27.1387746 ], [ 93.2289288, 27.1406033 ], [ 93.2366388, 27.1459167 ], [ 93.2448532, 27.1540995 ], [ 93.2499802, 27.154867 ], [ 93.2700967, 27.1537823 ], [ 93.2723959, 27.1549357 ], [ 93.2734045, 27.1576936 ], [ 93.2820313, 27.1610582 ], [ 93.2831774, 27.1630151 ], [ 93.2943245, 27.163272 ], [ 93.309449, 27.1722836 ], [ 93.3090006, 27.1736047 ], [ 93.3052128, 27.1743364 ], [ 93.2996724, 27.1796703 ], [ 93.2998915, 27.1869072 ], [ 93.2898581, 27.1935394 ], [ 93.2852091, 27.1988711 ], [ 93.2826418, 27.1997804 ], [ 93.2790736, 27.2075772 ], [ 93.272955, 27.2111265 ], [ 93.2644399, 27.2107564 ], [ 93.2547166, 27.2067633 ], [ 93.2487856, 27.2026023 ], [ 93.2286854, 27.1985732 ], [ 93.2212184, 27.20354 ], [ 93.2199322, 27.2155458 ], [ 93.2258445, 27.2228661 ], [ 93.2224117, 27.22831 ], [ 93.224434, 27.2328563 ], [ 93.2245436, 27.2369359 ], [ 93.2285213, 27.2363196 ], [ 93.2300362, 27.2394271 ], [ 93.2333697, 27.2389204 ], [ 93.2316657, 27.2439649 ], [ 93.2250906, 27.2506099 ], [ 93.2304537, 27.2547088 ], [ 93.2370399, 27.2574262 ], [ 93.2450942, 27.2645606 ], [ 93.2512741, 27.2662088 ], [ 93.2534914, 27.271509 ], [ 93.2579045, 27.2745657 ], [ 93.2693628, 27.2768432 ], [ 93.2808651, 27.2834865 ], [ 93.2877865, 27.2853428 ], [ 93.29442, 27.2904769 ], [ 93.2932818, 27.3000658 ], [ 93.294544, 27.3027648 ], [ 93.2927609, 27.3056337 ], [ 93.2948466, 27.3064496 ], [ 93.2947404, 27.3120793 ], [ 93.2916565, 27.313789 ], [ 93.2895222, 27.3292947 ], [ 93.2954736, 27.3310898 ], [ 93.3001411, 27.3343223 ], [ 93.3068208, 27.3443433 ], [ 93.3155255, 27.3475799 ], [ 93.3220458, 27.3524315 ], [ 93.3376213, 27.355971 ], [ 93.3394162, 27.3550621 ], [ 93.34223, 27.3577076 ], [ 93.3719437, 27.3712901 ], [ 93.3679846, 27.3794391 ], [ 93.3727559, 27.3868554 ], [ 93.3718873, 27.3936895 ], [ 93.368695, 27.401667 ], [ 93.3687225, 27.4098276 ], [ 93.3697387, 27.4118409 ], [ 93.3680515, 27.4164325 ], [ 93.361661, 27.4218709 ], [ 93.3513084, 27.425121 ], [ 93.3429272, 27.4319317 ], [ 93.3381704, 27.4330085 ], [ 93.3318198, 27.4428762 ], [ 93.3301525, 27.4437325 ], [ 93.3202709, 27.4414128 ], [ 93.3150592, 27.4431778 ], [ 93.324259, 27.4515862 ], [ 93.3249219, 27.4585989 ], [ 93.3267678, 27.4626783 ], [ 93.3222425, 27.4681827 ], [ 93.3196165, 27.4778819 ], [ 93.3199474, 27.4893148 ], [ 93.3159466, 27.4918308 ], [ 93.316377, 27.4944197 ], [ 93.3148303, 27.4957361 ], [ 93.3123482, 27.5038308 ], [ 93.3107925, 27.5056001 ], [ 93.3050044, 27.5058123 ], [ 93.3002409, 27.5194741 ], [ 93.2965669, 27.5204993 ], [ 93.2946244, 27.5230161 ], [ 93.2992317, 27.5261983 ], [ 93.3108434, 27.5301312 ], [ 93.3161573, 27.5337699 ], [ 93.3178169, 27.5362363 ], [ 93.3188671, 27.5441152 ], [ 93.322572, 27.5478019 ], [ 93.3290552, 27.54885 ], [ 93.3307738, 27.5519618 ], [ 93.3301262, 27.5544848 ], [ 93.3257117, 27.5615938 ], [ 93.3216383, 27.5654904 ], [ 93.3116063, 27.5669561 ], [ 93.2997824, 27.5783572 ], [ 93.2847383, 27.5773883 ], [ 93.2813896, 27.5781779 ], [ 93.2816271, 27.5819776 ], [ 93.2849318, 27.5872119 ], [ 93.2695297, 27.5951691 ], [ 93.2719401, 27.5946739 ], [ 93.2783315, 27.5968021 ], [ 93.2771478, 27.597906 ], [ 93.2788264, 27.600669 ], [ 93.28225, 27.5993408 ], [ 93.2896788, 27.6073223 ], [ 93.2919234, 27.6076153 ], [ 93.2940616, 27.6118634 ], [ 93.2981113, 27.6132225 ], [ 93.3035639, 27.6188099 ], [ 93.3118673, 27.620883 ], [ 93.3172074, 27.6260044 ], [ 93.3295577, 27.6294255 ], [ 93.3311304, 27.6316044 ], [ 93.3407647, 27.633242 ], [ 93.3502259, 27.6296666 ], [ 93.3588752, 27.6310241 ], [ 93.3605723, 27.6286018 ], [ 93.3651568, 27.6262032 ], [ 93.373615, 27.6239715 ], [ 93.3789671, 27.6207666 ], [ 93.3965584, 27.6245625 ], [ 93.405495, 27.6276113 ], [ 93.4066146, 27.6296504 ], [ 93.4133669, 27.6307865 ], [ 93.4162752, 27.6287114 ], [ 93.4213018, 27.6276002 ], [ 93.4261365, 27.6305479 ], [ 93.4303926, 27.6305132 ], [ 93.439658, 27.6232757 ], [ 93.4466428, 27.6239381 ], [ 93.4524115, 27.616673 ], [ 93.46186, 27.6139019 ], [ 93.4655542, 27.6089215 ], [ 93.4664257, 27.6051381 ], [ 93.4681047, 27.6043386 ], [ 93.474185, 27.6041131 ], [ 93.4795412, 27.6082133 ], [ 93.4966017, 27.6103748 ], [ 93.5054572, 27.6153458 ], [ 93.5096809, 27.6151501 ], [ 93.5261878, 27.6095958 ], [ 93.5283961, 27.6034757 ], [ 93.5324639, 27.5993212 ], [ 93.5340069, 27.5936823 ], [ 93.5309558, 27.5850993 ], [ 93.5335878, 27.5795005 ], [ 93.5334824, 27.5742209 ], [ 93.5380934, 27.5680944 ], [ 93.5421975, 27.5677845 ], [ 93.5448915, 27.5636748 ], [ 93.5528032, 27.5621726 ], [ 93.5526039, 27.558855 ], [ 93.5549663, 27.5579237 ], [ 93.5545514, 27.5531834 ], [ 93.5601289, 27.5492284 ], [ 93.5611614, 27.5427853 ], [ 93.5671444, 27.536898 ], [ 93.5672725, 27.5289887 ], [ 93.5779211, 27.5230823 ], [ 93.5854, 27.513828 ], [ 93.5832131, 27.5094403 ], [ 93.5821102, 27.5027311 ], [ 93.5853585, 27.4965386 ], [ 93.5841782, 27.493994 ], [ 93.5736492, 27.4844403 ], [ 93.5730356, 27.4793524 ], [ 93.5694646, 27.4761704 ], [ 93.5704987, 27.4736464 ], [ 93.5880987, 27.4636886 ], [ 93.5952519, 27.4657818 ], [ 93.5993871, 27.4635685 ], [ 93.6018212, 27.4663163 ], [ 93.6102653, 27.4669155 ], [ 93.6145366, 27.4658672 ], [ 93.6202791, 27.4665237 ], [ 93.6234291, 27.4647422 ], [ 93.6215306, 27.4605024 ], [ 93.6176868, 27.4591381 ], [ 93.6175945, 27.4564927 ], [ 93.6143992, 27.4556244 ], [ 93.611853, 27.4507466 ], [ 93.6075648, 27.450116 ], [ 93.6059724, 27.4483897 ], [ 93.6017578, 27.450993 ], [ 93.5977758, 27.4494628 ], [ 93.5962999, 27.4503344 ], [ 93.5909085, 27.448165 ], [ 93.5899861, 27.4463869 ], [ 93.5855105, 27.4456946 ], [ 93.5869274, 27.44218 ], [ 93.5842043, 27.4412314 ], [ 93.583237, 27.4391435 ], [ 93.5767551, 27.4397695 ], [ 93.572946, 27.4374234 ], [ 93.5750086, 27.4360419 ], [ 93.5723347, 27.4349865 ], [ 93.5714206, 27.4314303 ], [ 93.5657922, 27.4257426 ], [ 93.5658483, 27.4233939 ], [ 93.5601694, 27.4202466 ], [ 93.5604995, 27.4155473 ], [ 93.5511087, 27.4020086 ], [ 93.5552593, 27.3955154 ], [ 93.5593362, 27.3937337 ], [ 93.5610329, 27.3891893 ], [ 93.5631124, 27.3879197 ], [ 93.5751451, 27.3935457 ], [ 93.5757864, 27.3834153 ], [ 93.5810366, 27.3784561 ], [ 93.5809715, 27.3734434 ], [ 93.5836073, 27.3681565 ], [ 93.5876231, 27.3641135 ], [ 93.5883391, 27.3549537 ], [ 93.5966474, 27.3492483 ], [ 93.5943613, 27.3441708 ], [ 93.5908368, 27.3447022 ], [ 93.5838185, 27.3367179 ], [ 93.5840969, 27.3354906 ], [ 93.5864567, 27.3349409 ], [ 93.5853006, 27.3324226 ], [ 93.588608, 27.3277888 ], [ 93.5896529, 27.3268015 ], [ 93.5940484, 27.32692 ], [ 93.5953804, 27.3254858 ], [ 93.6018684, 27.3264257 ], [ 93.6070345, 27.3221722 ], [ 93.6094283, 27.3226498 ], [ 93.6107672, 27.3204475 ], [ 93.6131673, 27.3198211 ], [ 93.6146227, 27.3164144 ], [ 93.6179038, 27.3160053 ], [ 93.6184808, 27.3138834 ], [ 93.6211314, 27.3120153 ], [ 93.6202776, 27.3060972 ], [ 93.6224141, 27.3014756 ], [ 93.6290965, 27.2999666 ], [ 93.6359459, 27.2960537 ], [ 93.6378695, 27.2930634 ], [ 93.6423495, 27.2932931 ], [ 93.6476626, 27.2914714 ], [ 93.6528629, 27.2952451 ], [ 93.6791271, 27.3019373 ], [ 93.6860846, 27.3061612 ], [ 93.6926076, 27.3032135 ], [ 93.6980431, 27.3066685 ], [ 93.703382, 27.3011611 ], [ 93.7028495, 27.2984002 ], [ 93.7063582, 27.2996309 ], [ 93.709897, 27.2979824 ], [ 93.717732, 27.2971963 ], [ 93.728148, 27.3047078 ], [ 93.7424076, 27.3104125 ], [ 93.7466854, 27.3098874 ], [ 93.7596979, 27.3028552 ], [ 93.7666453, 27.2958758 ], [ 93.7755497, 27.2962527 ], [ 93.7778088, 27.3003787 ], [ 93.7835146, 27.3025577 ], [ 93.7839818, 27.3056129 ], [ 93.7877951, 27.3061253 ], [ 93.7913218, 27.3115243 ], [ 93.7980533, 27.3146916 ], [ 93.7991978, 27.3178509 ], [ 93.8030214, 27.318742 ], [ 93.8053986, 27.3221862 ], [ 93.8120054, 27.3244141 ], [ 93.8183788, 27.3289654 ], [ 93.8294616, 27.3225803 ], [ 93.8472118, 27.3325713 ], [ 93.8483028, 27.3337268 ], [ 93.8462098, 27.3381123 ], [ 93.8465873, 27.3428864 ], [ 93.8490567, 27.3486357 ], [ 93.846499, 27.3510673 ], [ 93.8390797, 27.3537231 ], [ 93.8382805, 27.3557534 ], [ 93.8319631, 27.3565727 ], [ 93.8300521, 27.3582326 ], [ 93.8262836, 27.3656449 ], [ 93.8249839, 27.3775028 ], [ 93.8189264, 27.381417 ], [ 93.8140681, 27.3825384 ], [ 93.8150385, 27.3915454 ], [ 93.8209485, 27.4004418 ], [ 93.8247196, 27.4011788 ], [ 93.8286297, 27.4078314 ], [ 93.8343609, 27.4135234 ], [ 93.8355971, 27.4200847 ], [ 93.8403281, 27.4255459 ], [ 93.8528569, 27.4338424 ], [ 93.8564475, 27.433446 ], [ 93.8630314, 27.4369033 ], [ 93.872655, 27.4449675 ], [ 93.8740355, 27.4508471 ], [ 93.8721183, 27.4539559 ], [ 93.8747433, 27.4582788 ], [ 93.8822245, 27.4574621 ], [ 93.8866355, 27.4604852 ], [ 93.8928826, 27.460778 ], [ 93.9035618, 27.4650045 ], [ 93.9149227, 27.4785704 ], [ 93.9183003, 27.4873639 ], [ 93.9228707, 27.491225 ], [ 93.9315076, 27.4909332 ], [ 93.9365607, 27.4878719 ], [ 93.9405352, 27.4926758 ], [ 93.9447819, 27.4952278 ], [ 93.9590263, 27.4971092 ], [ 93.9733827, 27.502745 ], [ 93.9800619, 27.5029706 ], [ 94.0104745, 27.5016294 ], [ 94.0491578, 27.4953143 ], [ 94.0878691, 27.4951574 ], [ 94.1419662, 27.5257643 ], [ 94.1697288, 27.542907 ], [ 94.1918666, 27.544033 ], [ 94.2070264, 27.5353208 ], [ 94.2024619, 27.494467 ], [ 94.189277, 27.4923963 ], [ 94.1875167, 27.4916374 ], [ 94.1842024, 27.4866484 ], [ 94.1762253, 27.4821517 ], [ 94.1691291, 27.4812256 ], [ 94.1645447, 27.4767835 ], [ 94.1566661, 27.4748575 ], [ 94.1594243, 27.4616176 ], [ 94.1550815, 27.4590963 ], [ 94.1553836, 27.456969 ], [ 94.1500671, 27.4542858 ], [ 94.140086, 27.445667 ], [ 94.1314564, 27.4409203 ], [ 94.1276921, 27.4345894 ], [ 94.1178577, 27.4296857 ], [ 94.1049354, 27.4139734 ], [ 94.0895975, 27.4070485 ], [ 94.0757524, 27.3896771 ], [ 94.069206, 27.3734639 ], [ 94.0608516, 27.3653025 ], [ 94.0614574, 27.3637327 ], [ 94.0598142, 27.3615371 ], [ 94.0540432, 27.3603356 ], [ 94.0405537, 27.3515019 ], [ 94.0340538, 27.348496 ], [ 94.0309166, 27.3483927 ], [ 94.0302575, 27.3456572 ], [ 94.0283099, 27.3468884 ], [ 94.0264596, 27.3448104 ], [ 94.0243794, 27.3460029 ], [ 94.0218851, 27.3455958 ], [ 94.0115736, 27.338496 ], [ 93.9912547, 27.3283465 ], [ 93.9705984, 27.3070334 ], [ 93.9552657, 27.293261 ], [ 93.9282424, 27.2642222 ], [ 93.9098428, 27.2490927 ], [ 93.9057769, 27.2435344 ], [ 93.8994047, 27.2390865 ], [ 93.8840106, 27.2195903 ], [ 93.8675268, 27.2015136 ], [ 93.8642267, 27.1961527 ], [ 93.8598721, 27.1934765 ], [ 93.8387097, 27.1723364 ], [ 93.8253463, 27.1684787 ], [ 93.8053448, 27.148065 ], [ 93.8053918, 27.1371268 ], [ 93.7959698, 27.1376453 ], [ 93.7943827, 27.1352889 ], [ 93.7959382, 27.1323386 ] ] ] } }
]
}
