{
"type": "FeatureCollection",
"name": "1205",
"crs": { "type": "name", "properties": { "name": "urn:ogc:def:crs:OGC:1.3:CRS84" } },
"features": [
{ "type": "Feature", "properties": { "code": "1205", "name": "Lower Subansiri", "type": "district" }, "geometry": { "type": "Polygon", "coordinates": [ [ [ 93.804155, 27.911872 ], [ 93.8158199, 27.9051551 ], [ 93.8194089, 27.9013109 ], [ 93.827981, 27.8958322 ], [ 93.8334453, 27.8894534 ], [ 93.8391968, 27.8870489 ], [ 93.8462969, 27.8927466 ], [ 93.850699, 27.8943286 ], [ 93.8564239, 27.9001854 ], [ 93.8684247, 27.9047049 ], [ 93.8834883, 27.9156309 ], [ 93.8838453, 27.9115756 ], [ 93.890104, 27.907981 ], [ 93.9045408, 27.89565 ], [ 93.9049521, 27.8938431 ], [ 93.9029157, 27.892173 ], [ 93.9150633, 27.880428 ], [ 93.9354799, 27.8782329 ], [ 93.9421379, 27.8761543 ], [ 93.9523006, 27.8646114 ], [ 93.9515604, 27.8597466 ], [ 93.9429247, 27.8505715 ], [ 93.9386104, 27.8430567 ], [ 93.9360424, 27.8358099 ], [ 93.9373095, 27.8312021 ], [ 93.9298509, 27.8266714 ], [ 93.926538, 27.8202914 ], [ 93.922855, 27.8178991 ], [ 93.9185194, 27.8081948 ], [ 93.909452, 27.8054813 ], [ 93.9002125, 27.7978418 ], [ 93.8941874, 27.8002663 ], [ 93.8897554, 27.7975711 ], [ 93.8809442, 27.7999226 ], [ 93.8943999, 27.7852983 ], [ 93.9025346, 27.7833294 ], [ 93.9087693, 27.7845049 ], [ 93.913149, 27.7831491 ], [ 93.9158644, 27.7808473 ], [ 93.9053853, 27.7610932 ], [ 93.9073884, 27.7429155 ], [ 93.9221921, 27.7470129 ], [ 93.9261395, 27.7453414 ], [ 93.9322224, 27.7341387 ], [ 93.9344192, 27.7257062 ], [ 93.9343259, 27.7204892 ], [ 93.9388444, 27.7130949 ], [ 93.9358943, 27.7041443 ], [ 93.9317424, 27.6992278 ], [ 93.9267296, 27.6958266 ], [ 93.9269491, 27.6911153 ], [ 93.9290177, 27.6861592 ], [ 93.9343691, 27.6803143 ], [ 93.9316483, 27.6742461 ], [ 93.9361583, 27.6659808 ], [ 93.9300757, 27.6376023 ], [ 93.9309701, 27.6336153 ], [ 93.934498, 27.6315334 ], [ 93.9345983, 27.6246248 ], [ 93.9326593, 27.6198309 ], [ 93.9350133, 27.6121758 ], [ 93.934768, 27.6067883 ], [ 93.9374435, 27.604439 ], [ 93.942361, 27.6033811 ], [ 93.9515242, 27.6038016 ], [ 93.957419, 27.5903919 ], [ 93.9637658, 27.5861075 ], [ 93.9632965, 27.5832627 ], [ 93.961637, 27.5795009 ], [ 93.9574948, 27.5760789 ], [ 93.9532654, 27.5667062 ], [ 93.9538943, 27.5639441 ], [ 93.9516744, 27.5612715 ], [ 93.9518557, 27.5585847 ], [ 93.9481501, 27.5534532 ], [ 93.9481473, 27.548046 ], [ 93.9440726, 27.5427003 ], [ 93.9364658, 27.5384661 ], [ 93.9352183, 27.5350983 ], [ 93.9272542, 27.5274695 ], [ 93.9302632, 27.5190856 ], [ 93.9336931, 27.5141451 ], [ 93.9355271, 27.5067552 ], [ 93.9342418, 27.5037397 ], [ 93.9312277, 27.5014399 ], [ 93.9314438, 27.4987687 ], [ 93.9260931, 27.4905775 ], [ 93.9228707, 27.491225 ], [ 93.9183003, 27.4873639 ], [ 93.9149227, 27.4785704 ], [ 93.9035618, 27.4650045 ], [ 93.8928826, 27.460778 ], [ 93.8866355, 27.4604852 ], [ 93.8822245, 27.4574621 ], [ 93.8747433, 27.4582788 ], [ 93.8721183, 27.4539559 ], [ 93.8740355, 27.4508471 ], [ 93.872655, 27.4449675 ], [ 93.8630314, 27.4369033 ], [ 93.8564475, 27.433446 ], [ 93.8528569, 27.4338424 ], [ 93.8403281, 27.4255459 ], [ 93.8355971, 27.4200847 ], [ 93.8343609, 27.4135234 ], [ 93.8286297, 27.4078314 ], [ 93.8247196, 27.4011788 ], [ 93.8209485, 27.4004418 ], [ 93.8150385, 27.3915454 ], [ 93.8140681, 27.3825384 ], [ 93.8189264, 27.381417 ], [ 93.8249839, 27.3775028 ], [ 93.8262836, 27.3656449 ], [ 93.8300521, 27.3582326 ], [ 93.8319631, 27.3565727 ], [ 93.8382805, 27.3557534 ], [ 93.8390797, 27.3537231 ], [ 93.846499, 27.3510673 ], [ 93.8490567, 27.3486357 ], [ 93.8465873, 27.3428864 ], [ 93.8462098, 27.3381123 ], [ 93.8483029, 27.333438 ], [ 93.8294616, 27.3225803 ], [ 93.8183788, 27.3289654 ], [ 93.8120054, 27.3244141 ], [ 93.8053986, 27.3221862 ], [ 93.8030214, 27.318742 ], [ 93.7991978, 27.3178509 ], [ 93.7980533, 27.3146916 ], [ 93.7913218, 27.3115243 ], [ 93.7877951, 27.3061253 ], [ 93.7839818, 27.3056129 ], [ 93.7835146, 27.3025577 ], [ 93.7778088, 27.3003787 ], [ 93.7755497, 27.2962527 ], [ 93.7666453, 27.2958758 ], [ 93.7596979, 27.3028552 ], [ 93.7466854, 27.3098874 ], [ 93.7424076, 27.3104125 ], [ 93.728148, 27.3047078 ], [ 93.717732, 27.2971963 ], [ 93.709897, 27.2979824 ], [ 93.7063582, 27.2996309 ], [ 93.7028495, 27.2984002 ], [ 93.703382, 27.3011611 ], [ 93.6986544, 27.3064859 ], [ 93.696855, 27.3068476 ], [ 93.6967081, 27.3054009 ], [ 93.6926076, 27.3032135 ], [ 93.6860846, 27.3061612 ], [ 93.6791271, 27.3019373 ], [ 93.6528629, 27.2952451 ], [ 93.6476626, 27.2914714 ], [ 93.6423495, 27.2932931 ], [ 93.6378695, 27.2930634 ], [ 93.6359459, 27.2960537 ], [ 93.6290965, 27.2999666 ], [ 93.6224141, 27.3014756 ], [ 93.6202776, 27.3060972 ], [ 93.6211314, 27.3120153 ], [ 93.6184808, 27.3138834 ], [ 93.6179038, 27.3160053 ], [ 93.6146227, 27.3164144 ], [ 93.6131673, 27.3198211 ], [ 93.6107672, 27.3204475 ], [ 93.6094283, 27.3226498 ], [ 93.6070345, 27.3221722 ], [ 93.6018684, 27.3264257 ], [ 93.5953804, 27.3254858 ], [ 93.5940484, 27.32692 ], [ 93.5896529, 27.3268015 ], [ 93.588608, 27.3277888 ], [ 93.5853006, 27.3324226 ], [ 93.5864567, 27.3349409 ], [ 93.5840969, 27.3354906 ], [ 93.5838185, 27.3367179 ], [ 93.5908368, 27.3447022 ], [ 93.5943613, 27.3441708 ], [ 93.5966474, 27.3492483 ], [ 93.5883391, 27.3549537 ], [ 93.5876231, 27.3641135 ], [ 93.5836073, 27.3681565 ], [ 93.5809715, 27.3734434 ], [ 93.5810366, 27.3784561 ], [ 93.5757864, 27.3834153 ], [ 93.5751451, 27.3935457 ], [ 93.5631124, 27.3879197 ], [ 93.5610329, 27.3891893 ], [ 93.5593362, 27.3937337 ], [ 93.5552593, 27.3955154 ], [ 93.5511087, 27.4020086 ], [ 93.5604995, 27.4155473 ], [ 93.5601694, 27.4202466 ], [ 93.5658483, 27.4233939 ], [ 93.5657922, 27.4257426 ], [ 93.5714206, 27.4314303 ], [ 93.5723347, 27.4349865 ], [ 93.5750086, 27.4360419 ], [ 93.572946, 27.4374234 ], [ 93.5767551, 27.4397695 ], [ 93.583237, 27.4391435 ], [ 93.5842043, 27.4412314 ], [ 93.5869274, 27.44218 ], [ 93.5855105, 27.4456946 ], [ 93.5899861, 27.4463869 ], [ 93.5909085, 27.448165 ], [ 93.5962999, 27.4503344 ], [ 93.5977758, 27.4494628 ], [ 93.6017578, 27.450993 ], [ 93.6059724, 27.4483897 ], [ 93.6075648, 27.450116 ], [ 93.611853, 27.4507466 ], [ 93.6143992, 27.4556244 ], [ 93.6175945, 27.4564927 ], [ 93.6176868, 27.4591381 ], [ 93.6215306, 27.4605024 ], [ 93.6234291, 27.4647422 ], [ 93.6202791, 27.4665237 ], [ 93.6145366, 27.4658672 ], [ 93.6102653, 27.4669155 ], [ 93.6018212, 27.4663163 ], [ 93.5993871, 27.4635685 ], [ 93.5952519, 27.4657818 ], [ 93.5880987, 27.4636886 ], [ 93.5704987, 27.4736464 ], [ 93.5694646, 27.4761704 ], [ 93.5730356, 27.4793524 ], [ 93.5736492, 27.4844403 ], [ 93.5841782, 27.493994 ], [ 93.5853585, 27.4965386 ], [ 93.5821102, 27.5027311 ], [ 93.5832131, 27.5094403 ], [ 93.5854, 27.513828 ], [ 93.5779211, 27.5230823 ], [ 93.5672725, 27.5289887 ], [ 93.5671444, 27.536898 ], [ 93.5611614, 27.5427853 ], [ 93.5601289, 27.5492284 ], [ 93.5545514, 27.5531834 ], [ 93.5549663, 27.5579237 ], [ 93.5526039, 27.558855 ], [ 93.5528032, 27.5621726 ], [ 93.5448915, 27.5636748 ], [ 93.5421975, 27.5677845 ], [ 93.5380934, 27.5680944 ], [ 93.5334824, 27.5742209 ], [ 93.5335878, 27.5795005 ], [ 93.5309558, 27.5850993 ], [ 93.5340745, 27.5932379 ], [ 93.5328282, 27.5981243 ], [ 93.546875, 27.5976626 ], [ 93.5563974, 27.6034805 ], [ 93.5638508, 27.6025837 ], [ 93.5681328, 27.5993641 ], [ 93.5839555, 27.6060346 ], [ 93.5865177, 27.6085557 ], [ 93.5965957, 27.6118705 ], [ 93.5986504, 27.6114778 ], [ 93.6009719, 27.6156213 ], [ 93.6065008, 27.6178229 ], [ 93.6124955, 27.6282162 ], [ 93.6203989, 27.6281991 ], [ 93.62295, 27.632276 ], [ 93.6412583, 27.6428135 ], [ 93.6449559, 27.6462204 ], [ 93.6577918, 27.6473822 ], [ 93.6615997, 27.6463902 ], [ 93.671832, 27.6601906 ], [ 93.6766008, 27.6628586 ], [ 93.6769569, 27.6660416 ], [ 93.6808905, 27.6686368 ], [ 93.7064032, 27.6692767 ], [ 93.7146632, 27.681096 ], [ 93.7276567, 27.6829693 ], [ 93.7355087, 27.6859023 ], [ 93.7412562, 27.7000106 ], [ 93.7491842, 27.7000989 ], [ 93.7602712, 27.7039976 ], [ 93.7614246, 27.7031239 ], [ 93.7686743, 27.7083422 ], [ 93.7711464, 27.7138057 ], [ 93.7673214, 27.7213602 ], [ 93.7682041, 27.7273606 ], [ 93.7673091, 27.7290334 ], [ 93.7727266, 27.7357059 ], [ 93.7711405, 27.741526 ], [ 93.7732505, 27.7510762 ], [ 93.7696074, 27.7686137 ], [ 93.754603, 27.7668865 ], [ 93.7499117, 27.7693561 ], [ 93.7403613, 27.76739 ], [ 93.732537, 27.7627692 ], [ 93.7262447, 27.7570498 ], [ 93.7187683, 27.7543266 ], [ 93.6993308, 27.7582967 ], [ 93.686367, 27.7549761 ], [ 93.6893272, 27.7600117 ], [ 93.6880826, 27.7615822 ], [ 93.6884421, 27.7637306 ], [ 93.6856867, 27.76733 ], [ 93.6734679, 27.7782229 ], [ 93.6697783, 27.7801033 ], [ 93.6649781, 27.7798204 ], [ 93.6637896, 27.7831491 ], [ 93.6599929, 27.7855429 ], [ 93.6542115, 27.795272 ], [ 93.6577028, 27.7975319 ], [ 93.6574895, 27.8051165 ], [ 93.6597682, 27.807564 ], [ 93.6598409, 27.8109167 ], [ 93.6748098, 27.820947 ], [ 93.6757409, 27.8221254 ], [ 93.6748192, 27.8267134 ], [ 93.6778736, 27.8266642 ], [ 93.6804484, 27.828162 ], [ 93.6813534, 27.8315954 ], [ 93.68554, 27.8352372 ], [ 93.6837109, 27.8415435 ], [ 93.6836984, 27.8521106 ], [ 93.6808959, 27.8567929 ], [ 93.6796462, 27.8626889 ], [ 93.6804753, 27.8642116 ], [ 93.6846471, 27.8654572 ], [ 93.6870371, 27.8708571 ], [ 93.6864446, 27.8735614 ], [ 93.6883163, 27.8815975 ], [ 93.692158, 27.8879356 ], [ 93.699934, 27.8906022 ], [ 93.71157, 27.8898723 ], [ 93.722494, 27.8969852 ], [ 93.7335243, 27.8991784 ], [ 93.7411339, 27.8971259 ], [ 93.7510424, 27.8982773 ], [ 93.7592705, 27.900984 ], [ 93.7611913, 27.9000652 ], [ 93.7714339, 27.9059158 ], [ 93.7718582, 27.9085925 ], [ 93.7768217, 27.9126999 ], [ 93.7815575, 27.9105489 ], [ 93.7877952, 27.911883 ], [ 93.7958519, 27.9190289 ], [ 93.804155, 27.911872 ] ] ] } }
]
}
