{
"type": "FeatureCollection",
"name": "1207",
"crs": { "type": "name", "properties": { "name": "urn:ogc:def:crs:OGC:1.3:CRS84" } },
"features": [
{ "type": "Feature", "properties": { "code": "1207", "name": "West Siang", "type": "district" }, "geometry": { "type": "Polygon", "coordinates": [ [ [ 94.5269351, 28.4079692 ], [ 94.5830904, 28.3851264 ], [ 94.6097403, 28.3822711 ], [ 94.6249689, 28.3841746 ], [ 94.6487635, 28.3946443 ], [ 94.6582813, 28.400355 ], [ 94.668751, 28.3984514 ], [ 94.6735099, 28.3898853 ], [ 94.6811242, 28.3622836 ], [ 94.6744617, 28.3537175 ], [ 94.6716063, 28.3156462 ], [ 94.6801724, 28.3013694 ], [ 94.6858831, 28.2804301 ], [ 94.7201473, 28.2804301 ], [ 94.7325205, 28.2575873 ], [ 94.7552473, 28.2575873 ], [ 94.7563151, 28.2356963 ], [ 94.7480088, 28.2067116 ], [ 94.774756, 28.1869173 ], [ 94.8004541, 28.1859655 ], [ 94.8366219, 28.219278 ], [ 94.8713135, 28.2168006 ], [ 94.8687078, 28.2084452 ], [ 94.8754494, 28.2053092 ], [ 94.8769706, 28.2020789 ], [ 94.8789153, 28.2016443 ], [ 94.8994611, 28.178031 ], [ 94.8982536, 28.173763 ], [ 94.8994482, 28.1637285 ], [ 94.898134, 28.1598982 ], [ 94.8983215, 28.1552059 ], [ 94.8965395, 28.1533337 ], [ 94.8980555, 28.1477975 ], [ 94.9035371, 28.1449136 ], [ 94.905241, 28.1395171 ], [ 94.9109002, 28.1366238 ], [ 94.9124563, 28.1322244 ], [ 94.9179969, 28.1270479 ], [ 94.9278956, 28.1269725 ], [ 94.9281594, 28.1251 ], [ 94.9339848, 28.1216056 ], [ 94.9433839, 28.1207398 ], [ 94.9438188, 28.1162954 ], [ 94.9414401, 28.112466 ], [ 94.9330656, 28.1051332 ], [ 94.9310882, 28.0987002 ], [ 94.9283389, 28.0945322 ], [ 94.9287653, 28.0926776 ], [ 94.9181881, 28.0930149 ], [ 94.9144532, 28.0914369 ], [ 94.9138513, 28.0868169 ], [ 94.9101521, 28.0845076 ], [ 94.9083348, 28.0805738 ], [ 94.9030539, 28.0784407 ], [ 94.9037393, 28.0724172 ], [ 94.9067399, 28.0701787 ], [ 94.9082905, 28.0671689 ], [ 94.9171033, 28.061175 ], [ 94.9213955, 28.0597841 ], [ 94.9243173, 28.0532454 ], [ 94.9301846, 28.0493722 ], [ 94.9234938, 28.0416817 ], [ 94.9118767, 28.0346826 ], [ 94.9056614, 28.0288365 ], [ 94.903871, 28.0259402 ], [ 94.9086335, 28.0198166 ], [ 94.906482, 28.0163519 ], [ 94.8974639, 28.0169091 ], [ 94.8197278, 27.9859242 ], [ 94.7909363, 27.987114 ], [ 94.752389, 28.0113845 ], [ 94.7381123, 28.009243 ], [ 94.699565, 28.0192367 ], [ 94.6688699, 28.0413657 ], [ 94.6403164, 28.0435072 ], [ 94.6253258, 28.0556425 ], [ 94.6031968, 28.062067 ], [ 94.5932031, 28.0527871 ], [ 94.5675049, 28.0492179 ], [ 94.5332407, 28.0492179 ], [ 94.5061148, 28.0556425 ], [ 94.4842378, 28.0217171 ], [ 94.4808443, 28.0233013 ], [ 94.4753602, 28.0392934 ], [ 94.4670903, 28.0487337 ], [ 94.4393409, 28.0608699 ], [ 94.4256473, 28.0625891 ], [ 94.4083228, 28.0691179 ], [ 94.4074483, 28.0722149 ], [ 94.3993207, 28.0799305 ], [ 94.3918358, 28.0826827 ], [ 94.3905173, 28.0840575 ], [ 94.3948066, 28.088761 ], [ 94.3976795, 28.1046983 ], [ 94.3865325, 28.1210237 ], [ 94.3918718, 28.1364641 ], [ 94.3914826, 28.141874 ], [ 94.377793, 28.1586176 ], [ 94.3746372, 28.167978 ], [ 94.3766135, 28.1765219 ], [ 94.3744819, 28.1810517 ], [ 94.3607475, 28.1904711 ], [ 94.3564972, 28.1984858 ], [ 94.3645737, 28.2065184 ], [ 94.3677674, 28.211446 ], [ 94.3668161, 28.2204763 ], [ 94.3683183, 28.2250498 ], [ 94.3674256, 28.2353984 ], [ 94.3692658, 28.2441109 ], [ 94.3724274, 28.2460476 ], [ 94.383464, 28.2579712 ], [ 94.3876078, 28.2589375 ], [ 94.4041723, 28.2528995 ], [ 94.417017, 28.2541906 ], [ 94.4014974, 28.2592633 ], [ 94.3916187, 28.2657737 ], [ 94.3926994, 28.2736229 ], [ 94.3899132, 28.2785389 ], [ 94.374852, 28.29495 ], [ 94.3748003, 28.2997283 ], [ 94.3776192, 28.308914 ], [ 94.386161, 28.3168382 ], [ 94.4032555, 28.3278046 ], [ 94.4016266, 28.3385532 ], [ 94.4133158, 28.3578816 ], [ 94.434731, 28.373586 ], [ 94.4461524, 28.4035672 ], [ 94.4854375, 28.395751 ], [ 94.4968349, 28.4128471 ], [ 94.4972036, 28.4177889 ], [ 94.5269351, 28.4079692 ] ] ] } }
]
}
