{
"type": "FeatureCollection",
"name": "1211",
"crs": { "type": "name", "properties": { "name": "urn:ogc:def:crs:OGC:1.3:CRS84" } },
"features": [
{ "type": "Feature", "properties": { "code": "1211", "name": "Lohit", "type": "district" }, "geometry": { "type": "Polygon", "coordinates": [ [ [ 96.3689298, 28.3789097 ], [ 96.3682524, 28.3715265 ], [ 96.3699627, 28.3633229 ], [ 96.3882657, 28.3472286 ], [ 96.392118, 28.3386926 ], [ 96.3954779, 28.3359167 ], [ 96.4173782, 28.3409442 ], [ 96.4236239, 28.3511939 ], [ 96.4240174, 28.3563043 ], [ 96.4254739, 28.3546197 ], [ 96.4246085, 28.3403041 ], [ 96.4148617, 28.3305545 ], [ 96.3932876, 28.3030898 ], [ 96.3892734, 28.2945422 ], [ 96.3841037, 28.2969616 ], [ 96.3803586, 28.2930844 ], [ 96.3799743, 28.2911942 ], [ 96.3818377, 28.2876733 ], [ 96.3801532, 28.2836719 ], [ 96.3806108, 28.2749916 ], [ 96.3720617, 28.2686775 ], [ 96.3428263, 28.2684451 ], [ 96.3334709, 28.2670618 ], [ 96.314799, 28.2598147 ], [ 96.3059724, 28.2539389 ], [ 96.3052601, 28.2512799 ], [ 96.3073621, 28.2461109 ], [ 96.3099751, 28.2450218 ], [ 96.311464, 28.2409498 ], [ 96.3161139, 28.238862 ], [ 96.3160772, 28.2374898 ], [ 96.3134457, 28.2354027 ], [ 96.3123863, 28.2289079 ], [ 96.3189866, 28.2222679 ], [ 96.3199602, 28.2194079 ], [ 96.3248959, 28.2180794 ], [ 96.325429, 28.2136834 ], [ 96.3324679, 28.20696 ], [ 96.337454, 28.2040223 ], [ 96.3372929, 28.1999071 ], [ 96.3388723, 28.195968 ], [ 96.337276, 28.1912632 ], [ 96.3370123, 28.1772932 ], [ 96.3335209, 28.1702695 ], [ 96.3344812, 28.1647718 ], [ 96.3259346, 28.157305 ], [ 96.3240397, 28.1533468 ], [ 96.324769, 28.1485492 ], [ 96.3273191, 28.1447468 ], [ 96.3249814, 28.1418252 ], [ 96.3254249, 28.1384414 ], [ 96.3292575, 28.1320759 ], [ 96.3162217, 28.1202373 ], [ 96.314012, 28.1129135 ], [ 96.3094137, 28.1087971 ], [ 96.3036734, 28.0984378 ], [ 96.2982803, 28.0956254 ], [ 96.2939364, 28.0956261 ], [ 96.2915008, 28.0941943 ], [ 96.2890055, 28.0948066 ], [ 96.28441, 28.0905133 ], [ 96.282292, 28.0856443 ], [ 96.2784557, 28.0830552 ], [ 96.2754872, 28.0762199 ], [ 96.275205, 28.0713023 ], [ 96.2869122, 28.0631262 ], [ 96.3059405, 28.0467123 ], [ 96.3120041, 28.0397862 ], [ 96.3163203, 28.0318695 ], [ 96.3165554, 28.0292509 ], [ 96.3218881, 28.0248293 ], [ 96.3234739, 28.0182586 ], [ 96.3264885, 28.0137063 ], [ 96.3309922, 28.0131305 ], [ 96.3354742, 28.0152614 ], [ 96.3436122, 28.0131971 ], [ 96.3518888, 28.0054366 ], [ 96.3596178, 28.0003952 ], [ 96.3714279, 27.9974622 ], [ 96.3762665, 27.9920086 ], [ 96.3807211, 27.990373 ], [ 96.3904818, 27.9896774 ], [ 96.3933983, 27.9854728 ], [ 96.3909842, 27.9807898 ], [ 96.3915781, 27.978792 ], [ 96.3971742, 27.9762208 ], [ 96.3999901, 27.9712398 ], [ 96.4063977, 27.9691704 ], [ 96.4077449, 27.9675858 ], [ 96.4097763, 27.9719757 ], [ 96.4077414, 27.97529 ], [ 96.403818, 27.9776986 ], [ 96.4034956, 27.9833611 ], [ 96.4160418, 27.9890333 ], [ 96.4276625, 27.9979628 ], [ 96.4370498, 28.0008011 ], [ 96.4495539, 27.9999014 ], [ 96.4773164, 28.0005494 ], [ 96.4822386, 27.9989615 ], [ 96.4896808, 27.9926405 ], [ 96.4927143, 27.985588 ], [ 96.4973877, 27.9820649 ], [ 96.5006497, 27.9827483 ], [ 96.5104219, 27.9900311 ], [ 96.5180171, 27.9929659 ], [ 96.5252424, 27.9863443 ], [ 96.5413266, 27.9792868 ], [ 96.5521308, 27.9697717 ], [ 96.5583519, 27.9667409 ], [ 96.5612675, 27.9615863 ], [ 96.5691996, 27.9587429 ], [ 96.571612, 27.9539033 ], [ 96.5827938, 27.9513602 ], [ 96.5902971, 27.9540242 ], [ 96.5958126, 27.9517775 ], [ 96.5940657, 27.9460687 ], [ 96.5948076, 27.9382444 ], [ 96.5935424, 27.933634 ], [ 96.5824945, 27.9224617 ], [ 96.5826646, 27.9208765 ], [ 96.5883756, 27.9154156 ], [ 96.5882601, 27.9119142 ], [ 96.5986327, 27.9091646 ], [ 96.6031188, 27.9036158 ], [ 96.6084572, 27.9008643 ], [ 96.61052, 27.8961767 ], [ 96.6165078, 27.8933528 ], [ 96.6166863, 27.8864495 ], [ 96.6181442, 27.8821407 ], [ 96.6227498, 27.8805753 ], [ 96.6350837, 27.8800429 ], [ 96.6442992, 27.8757873 ], [ 96.6522342, 27.8699838 ], [ 96.6624181, 27.86653 ], [ 96.6727029, 27.8502704 ], [ 96.6791283, 27.8475745 ], [ 96.6797164, 27.835067 ], [ 96.6811046, 27.829837 ], [ 96.6941214, 27.8270881 ], [ 96.7053023, 27.8272448 ], [ 96.7105379, 27.8243993 ], [ 96.7122964, 27.8209736 ], [ 96.7134085, 27.8152877 ], [ 96.7101075, 27.8120411 ], [ 96.7106472, 27.8077543 ], [ 96.7130327, 27.8018692 ], [ 96.7124573, 27.7991217 ], [ 96.7166125, 27.7931277 ], [ 96.7146253, 27.7889651 ], [ 96.7182269, 27.7864043 ], [ 96.7190961, 27.7842256 ], [ 96.7136556, 27.7824184 ], [ 96.7087886, 27.7788428 ], [ 96.7014522, 27.7768113 ], [ 96.7085908, 27.7712124 ], [ 96.7105143, 27.765702 ], [ 96.7093451, 27.7622555 ], [ 96.7044268, 27.7574258 ], [ 96.7019218, 27.7507268 ], [ 96.6987252, 27.7485689 ], [ 96.696319, 27.7448611 ], [ 96.7002314, 27.7406855 ], [ 96.7006787, 27.7344315 ], [ 96.7113797, 27.7226309 ], [ 96.7110928, 27.718674 ], [ 96.7125002, 27.7159208 ], [ 96.71122, 27.7124653 ], [ 96.7164703, 27.7034108 ], [ 96.7117976, 27.6986218 ], [ 96.7105368, 27.6938307 ], [ 96.7113542, 27.6887676 ], [ 96.7091482, 27.687325 ], [ 96.7068942, 27.6823675 ], [ 96.7084272, 27.678617 ], [ 96.7082725, 27.6749217 ], [ 96.705588, 27.6700952 ], [ 96.6991579, 27.6639215 ], [ 96.7015175, 27.6609603 ], [ 96.6879411, 27.6551069 ], [ 96.6822921, 27.6546926 ], [ 96.6765235, 27.6497262 ], [ 96.6692416, 27.6473477 ], [ 96.6663199, 27.642149 ], [ 96.6581564, 27.6337402 ], [ 96.6408423, 27.6278802 ], [ 96.6336413, 27.6309672 ], [ 96.6252962, 27.631585 ], [ 96.6138623, 27.6380638 ], [ 96.6082206, 27.6431215 ], [ 96.6088559, 27.6466107 ], [ 96.6035696, 27.6467288 ], [ 96.5963223, 27.6540131 ], [ 96.5883197, 27.6531545 ], [ 96.5820942, 27.6560575 ], [ 96.5664598, 27.6568195 ], [ 96.5583742, 27.6505947 ], [ 96.54963, 27.6467601 ], [ 96.530698, 27.6466861 ], [ 96.5191621, 27.6366137 ], [ 96.5086155, 27.6431252 ], [ 96.5028914, 27.6417738 ], [ 96.480275, 27.6460332 ], [ 96.4735278, 27.6457404 ], [ 96.4690125, 27.6423702 ], [ 96.4640951, 27.6429583 ], [ 96.4524673, 27.6411263 ], [ 96.4512279, 27.6436602 ], [ 96.4470243, 27.6449777 ], [ 96.4441046, 27.6521027 ], [ 96.4397556, 27.6524365 ], [ 96.435848, 27.6509948 ], [ 96.4327566, 27.6520063 ], [ 96.4307157, 27.6493201 ], [ 96.422722, 27.6483922 ], [ 96.4195446, 27.6509614 ], [ 96.4129509, 27.6512417 ], [ 96.4111871, 27.6494373 ], [ 96.3941465, 27.6486874 ], [ 96.3938238, 27.6454382 ], [ 96.3837663, 27.6388235 ], [ 96.3781829, 27.6405879 ], [ 96.3727745, 27.6449554 ], [ 96.3684157, 27.6423985 ], [ 96.3518624, 27.6245374 ], [ 96.3483706, 27.6061049 ], [ 96.3363177, 27.5983537 ], [ 96.3311552, 27.5842276 ], [ 96.3277259, 27.5792291 ], [ 96.3137879, 27.571792 ], [ 96.3075023, 27.5658499 ], [ 96.2925896, 27.5569958 ], [ 96.2946364, 27.560957 ], [ 96.3007818, 27.5641661 ], [ 96.3018932, 27.565939 ], [ 96.3015887, 27.5727941 ], [ 96.2971691, 27.5743446 ], [ 96.2959, 27.5783793 ], [ 96.2884936, 27.5825416 ], [ 96.2859659, 27.5883197 ], [ 96.2814286, 27.5934644 ], [ 96.2794467, 27.5928822 ], [ 96.2749486, 27.5960663 ], [ 96.2703896, 27.6021267 ], [ 96.2702754, 27.6047563 ], [ 96.2785835, 27.6089953 ], [ 96.2811144, 27.6159435 ], [ 96.2797663, 27.6179326 ], [ 96.2789895, 27.6253716 ], [ 96.2765337, 27.6296778 ], [ 96.2769662, 27.6368379 ], [ 96.2738105, 27.6378663 ], [ 96.2700846, 27.6436184 ], [ 96.2647927, 27.6469857 ], [ 96.2653722, 27.6510195 ], [ 96.2561153, 27.6564011 ], [ 96.2518323, 27.6609032 ], [ 96.2500441, 27.6692318 ], [ 96.2464501, 27.6722654 ], [ 96.2470499, 27.6734487 ], [ 96.2458136, 27.6742917 ], [ 96.2461771, 27.6816746 ], [ 96.2405328, 27.6852658 ], [ 96.2398205, 27.6880109 ], [ 96.236237, 27.6915131 ], [ 96.2357376, 27.6952769 ], [ 96.2287244, 27.6979279 ], [ 96.2241212, 27.69721 ], [ 96.2176024, 27.7070262 ], [ 96.2086038, 27.7129942 ], [ 96.2096797, 27.7346568 ], [ 96.2045672, 27.7385141 ], [ 96.2020305, 27.7446656 ], [ 96.1956826, 27.7516787 ], [ 96.1988665, 27.7764428 ], [ 96.198023, 27.7917279 ], [ 96.2013736, 27.8063093 ], [ 96.1991168, 27.80893 ], [ 96.1988607, 27.8134073 ], [ 96.1931564, 27.8234294 ], [ 96.1876898, 27.8282979 ], [ 96.1867033, 27.8315565 ], [ 96.1827558, 27.8330322 ], [ 96.1818322, 27.8366478 ], [ 96.1770769, 27.8357405 ], [ 96.1569127, 27.8398318 ], [ 96.1485166, 27.8368195 ], [ 96.1445048, 27.8369291 ], [ 96.1407178, 27.8401475 ], [ 96.1312277, 27.8387781 ], [ 96.1233844, 27.8432788 ], [ 96.1095951, 27.8465152 ], [ 96.10372, 27.8420587 ], [ 96.0949889, 27.8435561 ], [ 96.0890609, 27.8422865 ], [ 96.0868143, 27.844585 ], [ 96.0770782, 27.8435962 ], [ 96.0662061, 27.8401898 ], [ 96.0559158, 27.8409752 ], [ 96.0489175, 27.8445443 ], [ 96.037403, 27.8451232 ], [ 96.0269344, 27.8502442 ], [ 96.0232155, 27.8502442 ], [ 95.89758, 27.7902818 ], [ 95.8290515, 27.7531622 ], [ 95.804781, 27.7360301 ], [ 95.7742973, 27.7309383 ], [ 95.7787743, 27.7331803 ], [ 95.7805494, 27.7363034 ], [ 95.7779799, 27.7424628 ], [ 95.7760023, 27.7536234 ], [ 95.7868867, 27.7596679 ], [ 95.7943968, 27.7690756 ], [ 95.8003489, 27.7736947 ], [ 95.8039181, 27.7845977 ], [ 95.8104135, 27.7907147 ], [ 95.8116728, 27.7976232 ], [ 95.8189097, 27.8044982 ], [ 95.824911, 27.8079476 ], [ 95.8376877, 27.8098286 ], [ 95.837759, 27.8241182 ], [ 95.8543942, 27.8300234 ], [ 95.8599873, 27.8302497 ], [ 95.8713714, 27.833463 ], [ 95.8836553, 27.8461053 ], [ 95.8884536, 27.8565728 ], [ 95.8911442, 27.8568523 ], [ 95.8902512, 27.8599927 ], [ 95.8953377, 27.8573706 ], [ 95.8947547, 27.8620045 ], [ 95.9049187, 27.8621154 ], [ 95.9014625, 27.8664792 ], [ 95.9016914, 27.868469 ], [ 95.9033518, 27.8689108 ], [ 95.90658, 27.8659954 ], [ 95.9085863, 27.8687066 ], [ 95.9072921, 27.870444 ], [ 95.910699, 27.870195 ], [ 95.9101158, 27.8724105 ], [ 95.9145394, 27.8757572 ], [ 95.9170241, 27.8804625 ], [ 95.9155529, 27.8837612 ], [ 95.9172286, 27.8836027 ], [ 95.9194412, 27.8805971 ], [ 95.9250882, 27.881678 ], [ 95.9207631, 27.8846394 ], [ 95.9168023, 27.8849957 ], [ 95.9155043, 27.8893876 ], [ 95.9176779, 27.8900728 ], [ 95.9237049, 27.8881036 ], [ 95.919487, 27.8931223 ], [ 95.9192339, 27.8950445 ], [ 95.9259732, 27.8953355 ], [ 95.9263304, 27.8988817 ], [ 95.9278538, 27.8987007 ], [ 95.9284869, 27.8951315 ], [ 95.9377467, 27.8982001 ], [ 95.9369855, 27.8993059 ], [ 95.9317803, 27.9001384 ], [ 95.9298314, 27.9027426 ], [ 95.9410472, 27.9056073 ], [ 95.9410478, 27.9065142 ], [ 95.9355326, 27.9074868 ], [ 95.9381512, 27.9125254 ], [ 95.9426554, 27.9106915 ], [ 95.9459504, 27.9163478 ], [ 95.9529223, 27.9204364 ], [ 95.9485514, 27.9243912 ], [ 95.954764, 27.9312008 ], [ 95.949242, 27.931204 ], [ 95.9479429, 27.9334065 ], [ 95.9483011, 27.9371151 ], [ 95.9545631, 27.9411362 ], [ 95.9652005, 27.9516651 ], [ 95.9718204, 27.9621779 ], [ 95.9830633, 27.9667236 ], [ 95.9912739, 27.9746618 ], [ 95.9875059, 28.0004022 ], [ 95.990203, 28.0399507 ], [ 95.9844659, 28.0492091 ], [ 95.9819272, 28.0605418 ], [ 95.9752967, 28.0717009 ], [ 95.9742027, 28.0857378 ], [ 95.9756833, 28.0892868 ], [ 95.9754242, 28.0922917 ], [ 95.9616147, 28.1058868 ], [ 95.9599563, 28.1145574 ], [ 95.965087, 28.1265857 ], [ 95.9640711, 28.128423 ], [ 95.9653332, 28.1302584 ], [ 95.9657078, 28.1356602 ], [ 95.970701, 28.1425292 ], [ 95.9687485, 28.1480402 ], [ 95.969927, 28.152297 ], [ 95.9770337, 28.1607187 ], [ 95.9822023, 28.1642954 ], [ 95.9809774, 28.1660044 ], [ 95.9836219, 28.1746197 ], [ 95.9825277, 28.1793454 ], [ 95.9859656, 28.1863332 ], [ 95.9868547, 28.1914892 ], [ 95.9909357, 28.1967421 ], [ 95.9955225, 28.1982868 ], [ 95.9990019, 28.2014235 ], [ 96.0041481, 28.2014235 ], [ 96.0100968, 28.1948799 ], [ 96.0190197, 28.1925005 ], [ 96.0416246, 28.1913107 ], [ 96.0491382, 28.1936779 ], [ 96.0517435, 28.1972198 ], [ 96.0602549, 28.1968787 ], [ 96.0827741, 28.189318 ], [ 96.0862634, 28.1909821 ], [ 96.0974109, 28.1917152 ], [ 96.1045852, 28.1896277 ], [ 96.1081367, 28.186056 ], [ 96.1144378, 28.1824632 ], [ 96.1176824, 28.1778555 ], [ 96.1420122, 28.1699118 ], [ 96.1438852, 28.1752224 ], [ 96.1539298, 28.180591 ], [ 96.1649101, 28.1841266 ], [ 96.1684496, 28.1870495 ], [ 96.174659, 28.196624 ], [ 96.1837697, 28.2039247 ], [ 96.1904903, 28.2066005 ], [ 96.2033816, 28.2220038 ], [ 96.2155202, 28.2308961 ], [ 96.2302229, 28.2386795 ], [ 96.2378697, 28.2396372 ], [ 96.255182, 28.2374457 ], [ 96.2678848, 28.2389316 ], [ 96.261749, 28.2552951 ], [ 96.2561444, 28.2660834 ], [ 96.2435323, 28.2850541 ], [ 96.2382496, 28.2995216 ], [ 96.2406207, 28.3023686 ], [ 96.2552713, 28.309116 ], [ 96.2575673, 28.3168434 ], [ 96.2668045, 28.3302972 ], [ 96.2718805, 28.3342149 ], [ 96.2851983, 28.3400712 ], [ 96.29046, 28.3445605 ], [ 96.2923691, 28.348087 ], [ 96.2945217, 28.3617358 ], [ 96.2965347, 28.3666464 ], [ 96.3072149, 28.3825152 ], [ 96.3166774, 28.3775677 ], [ 96.3625811, 28.3863567 ], [ 96.3689298, 28.3789097 ] ] ] } }
]
}
