{
"type": "FeatureCollection",
"name": "1212",
"crs": { "type": "name", "properties": { "name": "urn:ogc:def:crs:OGC:1.3:CRS84" } },
"features": [
{ "type": "Feature", "properties": { "code": "1212", "name": "Changlang", "type": "district" }, "geometry": { "type": "Polygon", "coordinates": [ [ [ 96.7466617, 27.632598 ], [ 96.7564996, 27.6212742 ], [ 96.7683815, 27.6161378 ], [ 96.7733251, 27.6234879 ], [ 96.7739852, 27.6311093 ], [ 96.7793879, 27.6405934 ], [ 96.7826985, 27.6424652 ], [ 96.7914213, 27.639898 ], [ 96.8024082, 27.6325049 ], [ 96.8073773, 27.6314565 ], [ 96.8129071, 27.6331464 ], [ 96.8259525, 27.6327195 ], [ 96.830008, 27.6287845 ], [ 96.8488732, 27.623996 ], [ 96.8559093, 27.629455 ], [ 96.8613526, 27.6309211 ], [ 96.883159, 27.6239585 ], [ 96.8962994, 27.6153736 ], [ 96.9001582, 27.6146611 ], [ 96.8983827, 27.6142092 ], [ 96.8967461, 27.609261 ], [ 96.8957124, 27.587294 ], [ 96.8967121, 27.5815037 ], [ 96.9011942, 27.5800962 ], [ 96.9122311, 27.5805332 ], [ 96.9130077, 27.5438825 ], [ 96.9189384, 27.5397735 ], [ 96.9247268, 27.5332779 ], [ 96.9298228, 27.5241823 ], [ 96.928267, 27.5115722 ], [ 96.9229843, 27.5020141 ], [ 96.9178235, 27.4970902 ], [ 96.9135914, 27.4890696 ], [ 96.9108032, 27.486448 ], [ 96.9105326, 27.4808692 ], [ 96.9071123, 27.4776203 ], [ 96.9076239, 27.4752499 ], [ 96.9048938, 27.469816 ], [ 96.9032441, 27.4527261 ], [ 96.9084823, 27.4482307 ], [ 96.9163305, 27.4463722 ], [ 96.9257165, 27.4360388 ], [ 96.9326198, 27.4309003 ], [ 96.9336765, 27.4265034 ], [ 96.9317017, 27.4229729 ], [ 96.9325798, 27.4202987 ], [ 96.9316397, 27.4193868 ], [ 96.9343908, 27.4157676 ], [ 96.940606, 27.4131152 ], [ 96.9444423, 27.4086134 ], [ 96.9539926, 27.4069278 ], [ 96.9623062, 27.4016491 ], [ 96.9602664, 27.394332 ], [ 96.9623717, 27.3924239 ], [ 96.9628576, 27.3891209 ], [ 96.9665414, 27.3857673 ], [ 96.967485, 27.3815142 ], [ 96.9621255, 27.3731153 ], [ 96.9641739, 27.3702463 ], [ 96.9706798, 27.3662706 ], [ 96.9784529, 27.3565759 ], [ 96.9806541, 27.3455423 ], [ 96.9885227, 27.3451142 ], [ 96.9905351, 27.3437658 ], [ 96.9927178, 27.3362471 ], [ 96.995802, 27.33261 ], [ 96.995255, 27.3252684 ], [ 96.9981064, 27.3189786 ], [ 97.0079991, 27.3134276 ], [ 97.0092097, 27.3105209 ], [ 97.0153959, 27.3125853 ], [ 97.0171081, 27.3105848 ], [ 97.0200971, 27.3102988 ], [ 97.0222357, 27.3070409 ], [ 97.0251529, 27.3064028 ], [ 97.0282667, 27.3079438 ], [ 97.0298158, 27.3052353 ], [ 97.0290892, 27.3013096 ], [ 97.0307961, 27.298313 ], [ 97.0349738, 27.2950686 ], [ 97.0376718, 27.2898695 ], [ 97.0378811, 27.2864534 ], [ 97.0410699, 27.2821821 ], [ 97.0480194, 27.280209 ], [ 97.0510766, 27.2774603 ], [ 97.050947, 27.2756248 ], [ 97.0547811, 27.2751212 ], [ 97.0562092, 27.2700618 ], [ 97.0549321, 27.2657099 ], [ 97.0689315, 27.2572399 ], [ 97.0737445, 27.2515273 ], [ 97.0740159, 27.2468363 ], [ 97.0885076, 27.2382123 ], [ 97.0904781, 27.2281756 ], [ 97.0926877, 27.225992 ], [ 97.0925327, 27.2205078 ], [ 97.0903065, 27.2160105 ], [ 97.0904758, 27.213618 ], [ 97.0936735, 27.2124071 ], [ 97.1026821, 27.2037667 ], [ 97.1076628, 27.2011594 ], [ 97.1107154, 27.1966876 ], [ 97.1220867, 27.1898999 ], [ 97.1217181, 27.1834151 ], [ 97.1245145, 27.1742822 ], [ 97.1325902, 27.1701714 ], [ 97.1365487, 27.1650462 ], [ 97.1385927, 27.1641401 ], [ 97.1466689, 27.1649065 ], [ 97.1495197, 27.1550696 ], [ 97.1511056, 27.1533063 ], [ 97.1509254, 27.149807 ], [ 97.1598233, 27.1463622 ], [ 97.1638542, 27.1422398 ], [ 97.1658975, 27.1351352 ], [ 97.1631337, 27.1330491 ], [ 97.1611342, 27.1288762 ], [ 97.1617939, 27.1228878 ], [ 97.1566503, 27.1185543 ], [ 97.1496572, 27.1167609 ], [ 97.1481138, 27.1132153 ], [ 97.1485496, 27.1072145 ], [ 97.1443259, 27.1033608 ], [ 97.1443213, 27.0997597 ], [ 97.138518, 27.0910467 ], [ 97.1355066, 27.0936475 ], [ 97.1245619, 27.0956581 ], [ 97.1218608, 27.0980758 ], [ 97.1213944, 27.1013636 ], [ 97.1193208, 27.1038739 ], [ 97.1064255, 27.1038918 ], [ 97.1018354, 27.1082896 ], [ 97.1003451, 27.1083586 ], [ 97.0948943, 27.1034514 ], [ 97.0979405, 27.0985351 ], [ 97.0963116, 27.0958936 ], [ 97.0872118, 27.0948165 ], [ 97.0817731, 27.0976994 ], [ 97.0789298, 27.0970899 ], [ 97.0766684, 27.0986568 ], [ 97.0747294, 27.0970504 ], [ 97.073409, 27.0914076 ], [ 97.071176, 27.0892152 ], [ 97.06695, 27.0915143 ], [ 97.0634388, 27.0914548 ], [ 97.0622106, 27.098561 ], [ 97.0580407, 27.1001612 ], [ 97.0521943, 27.1061511 ], [ 97.0495556, 27.1051819 ], [ 97.0445872, 27.1078853 ], [ 97.0444794, 27.1128431 ], [ 97.04065, 27.1162262 ], [ 97.0334925, 27.1182694 ], [ 97.0359546, 27.1243349 ], [ 97.0302709, 27.1315493 ], [ 97.0288854, 27.1299697 ], [ 97.0260408, 27.1294773 ], [ 97.0246639, 27.1319033 ], [ 97.0196924, 27.1329158 ], [ 97.0186162, 27.134576 ], [ 97.0053098, 27.1409126 ], [ 96.9933026, 27.1399872 ], [ 96.9914456, 27.1452036 ], [ 96.986467, 27.1504993 ], [ 96.9848323, 27.1542985 ], [ 96.9650404, 27.1580323 ], [ 96.9639782, 27.161349 ], [ 96.9557804, 27.1639583 ], [ 96.9527152, 27.1622485 ], [ 96.943318, 27.1637849 ], [ 96.9391745, 27.1618997 ], [ 96.931986, 27.1615842 ], [ 96.9274914, 27.1637565 ], [ 96.9235991, 27.163763 ], [ 96.9220296, 27.1653611 ], [ 96.9124542, 27.1661123 ], [ 96.9083901, 27.1686829 ], [ 96.9008906, 27.1688586 ], [ 96.8890339, 27.1740483 ], [ 96.8829718, 27.1783333 ], [ 96.8744129, 27.1806825 ], [ 96.8649567, 27.1887754 ], [ 96.8574754, 27.192322 ], [ 96.8566134, 27.1942976 ], [ 96.8592058, 27.1976102 ], [ 96.8587991, 27.2031602 ], [ 96.8548532, 27.2103578 ], [ 96.8608038, 27.210704 ], [ 96.8672067, 27.2169581 ], [ 96.8770327, 27.2203212 ], [ 96.8819059, 27.225073 ], [ 96.8852337, 27.2264676 ], [ 96.8850384, 27.2315572 ], [ 96.8877244, 27.235653 ], [ 96.882081, 27.2364538 ], [ 96.8813756, 27.2392893 ], [ 96.8822382, 27.2428419 ], [ 96.8876619, 27.246691 ], [ 96.8867248, 27.2534457 ], [ 96.8841013, 27.2557448 ], [ 96.88491, 27.2594446 ], [ 96.86857, 27.2583988 ], [ 96.8626075, 27.2596216 ], [ 96.8572161, 27.2627726 ], [ 96.8509753, 27.2696779 ], [ 96.8470471, 27.2710981 ], [ 96.850184, 27.2782525 ], [ 96.8475312, 27.2869913 ], [ 96.8479517, 27.2902851 ], [ 96.8437756, 27.2943594 ], [ 96.8385936, 27.2971642 ], [ 96.8380177, 27.3003239 ], [ 96.8348895, 27.302944 ], [ 96.822423, 27.3082206 ], [ 96.8132429, 27.3216738 ], [ 96.8051193, 27.3289369 ], [ 96.8015155, 27.3393874 ], [ 96.7964681, 27.3457429 ], [ 96.7890616, 27.3457273 ], [ 96.7876144, 27.3478301 ], [ 96.7812711, 27.3505483 ], [ 96.7743865, 27.3517054 ], [ 96.7706233, 27.3558435 ], [ 96.76692, 27.3570546 ], [ 96.7633013, 27.3541906 ], [ 96.756233, 27.3543723 ], [ 96.751688, 27.3522735 ], [ 96.7492848, 27.3556864 ], [ 96.7465233, 27.3560024 ], [ 96.7457667, 27.3582014 ], [ 96.7400905, 27.3575428 ], [ 96.7298516, 27.3594184 ], [ 96.7295156, 27.3621029 ], [ 96.7213614, 27.3634219 ], [ 96.7114582, 27.3702008 ], [ 96.7044972, 27.3721029 ], [ 96.70352, 27.3721316 ], [ 96.7026953, 27.3649601 ], [ 96.7009494, 27.3627766 ], [ 96.7020571, 27.359738 ], [ 96.6978159, 27.3577377 ], [ 96.6752772, 27.3612508 ], [ 96.6744692, 27.3583268 ], [ 96.672359, 27.3569705 ], [ 96.6701966, 27.3609298 ], [ 96.6681502, 27.3618104 ], [ 96.6654716, 27.3610274 ], [ 96.6608983, 27.3642832 ], [ 96.6517958, 27.3598203 ], [ 96.6452308, 27.3592663 ], [ 96.6334595, 27.3643574 ], [ 96.6246053, 27.3666484 ], [ 96.60612, 27.3658069 ], [ 96.6033458, 27.3592067 ], [ 96.5992641, 27.3559796 ], [ 96.6003609, 27.3549754 ], [ 96.5952023, 27.3499844 ], [ 96.5913022, 27.3484478 ], [ 96.5910498, 27.3463114 ], [ 96.5952551, 27.3405118 ], [ 96.5957191, 27.3338669 ], [ 96.589323, 27.3356008 ], [ 96.5840635, 27.3341005 ], [ 96.5744039, 27.3240529 ], [ 96.5706745, 27.3219768 ], [ 96.5678355, 27.3223113 ], [ 96.56408, 27.3184514 ], [ 96.5578646, 27.318384 ], [ 96.5552749, 27.320378 ], [ 96.5512196, 27.3184564 ], [ 96.551525, 27.3140573 ], [ 96.5505038, 27.3129388 ], [ 96.5425486, 27.3090179 ], [ 96.5426871, 27.3020975 ], [ 96.5314033, 27.296605 ], [ 96.5238514, 27.2865459 ], [ 96.5189831, 27.2870561 ], [ 96.517828, 27.2856315 ], [ 96.5157454, 27.2903588 ], [ 96.5123302, 27.2925242 ], [ 96.5122977, 27.296707 ], [ 96.5091156, 27.2971953 ], [ 96.5081432, 27.299121 ], [ 96.5015495, 27.298868 ], [ 96.4905841, 27.3026282 ], [ 96.4890111, 27.3011113 ], [ 96.4896123, 27.2969112 ], [ 96.4885596, 27.2962844 ], [ 96.4809819, 27.2993093 ], [ 96.4721605, 27.3014153 ], [ 96.4703844, 27.3006831 ], [ 96.4624374, 27.3061686 ], [ 96.457447, 27.3065848 ], [ 96.4548304, 27.3023492 ], [ 96.4515048, 27.3014989 ], [ 96.4489804, 27.3029986 ], [ 96.4441045, 27.3018609 ], [ 96.440645, 27.3063312 ], [ 96.4354997, 27.3023646 ], [ 96.4217952, 27.301684 ], [ 96.4157543, 27.2973503 ], [ 96.4143795, 27.2933102 ], [ 96.4096454, 27.2906351 ], [ 96.4079871, 27.2876961 ], [ 96.4049471, 27.2894268 ], [ 96.4028936, 27.293196 ], [ 96.4019067, 27.2910881 ], [ 96.3962443, 27.2897157 ], [ 96.3921601, 27.286325 ], [ 96.3878074, 27.2860456 ], [ 96.3868388, 27.2846319 ], [ 96.3823235, 27.2867828 ], [ 96.3749981, 27.285303 ], [ 96.3728262, 27.2867153 ], [ 96.3724325, 27.2890118 ], [ 96.3702144, 27.2899741 ], [ 96.367992, 27.2896691 ], [ 96.3672333, 27.2868258 ], [ 96.3581261, 27.2901515 ], [ 96.3524734, 27.2950867 ], [ 96.3493359, 27.2931579 ], [ 96.3491608, 27.2885244 ], [ 96.3459078, 27.2855198 ], [ 96.3396601, 27.285033 ], [ 96.3308675, 27.2872492 ], [ 96.3303288, 27.289675 ], [ 96.3260872, 27.2888673 ], [ 96.3230894, 27.2905815 ], [ 96.3115501, 27.2918512 ], [ 96.3062974, 27.2941463 ], [ 96.294983, 27.2916482 ], [ 96.2911602, 27.2882012 ], [ 96.2853223, 27.2867428 ], [ 96.2839121, 27.2847132 ], [ 96.274569, 27.283393 ], [ 96.2756176, 27.2799717 ], [ 96.2714493, 27.271659 ], [ 96.2610706, 27.2731733 ], [ 96.2592621, 27.2721964 ], [ 96.2555752, 27.2747019 ], [ 96.2516008, 27.2744342 ], [ 96.2500041, 27.2723927 ], [ 96.2479708, 27.2725757 ], [ 96.2453704, 27.276418 ], [ 96.2334879, 27.2758647 ], [ 96.2325938, 27.2769661 ], [ 96.2314681, 27.2761072 ], [ 96.2279947, 27.2786834 ], [ 96.2242225, 27.2725803 ], [ 96.2139602, 27.265519 ], [ 96.210979, 27.2648657 ], [ 96.2108102, 27.2623318 ], [ 96.2089884, 27.2610673 ], [ 96.2063805, 27.2614896 ], [ 96.2044378, 27.2599503 ], [ 96.1935777, 27.2615202 ], [ 96.1852889, 27.2489066 ], [ 96.1824942, 27.249556 ], [ 96.158069, 27.2473876 ], [ 96.1555555, 27.2483514 ], [ 96.149072, 27.2428737 ], [ 96.1444692, 27.2412944 ], [ 96.1368484, 27.2413709 ], [ 96.1310454, 27.2365723 ], [ 96.1245753, 27.2354975 ], [ 96.1210774, 27.2315886 ], [ 96.1119218, 27.2317509 ], [ 96.0995728, 27.2243483 ], [ 96.0906136, 27.2233257 ], [ 96.0891855, 27.2198087 ], [ 96.0827506, 27.2128809 ], [ 96.0779894, 27.2105503 ], [ 96.0774121, 27.2083544 ], [ 96.0717488, 27.2052348 ], [ 96.0640539, 27.2058564 ], [ 96.0634577, 27.203609 ], [ 96.0571429, 27.2012441 ], [ 96.054281, 27.1960292 ], [ 96.0368351, 27.1863239 ], [ 96.0315778, 27.1860165 ], [ 96.0229614, 27.1800817 ], [ 96.0182687, 27.1695938 ], [ 96.0196874, 27.1664126 ], [ 96.0185635, 27.1608176 ], [ 96.0160448, 27.1579343 ], [ 96.0146641, 27.1500007 ], [ 96.0099003, 27.1454677 ], [ 96.0105093, 27.1422396 ], [ 96.0078204, 27.1394417 ], [ 95.9985647, 27.134969 ], [ 95.9920385, 27.1228172 ], [ 95.9879661, 27.1199046 ], [ 95.985706, 27.1131184 ], [ 95.9791332, 27.1091724 ], [ 95.974533, 27.1037631 ], [ 95.9686184, 27.0998884 ], [ 95.967257, 27.0952971 ], [ 95.9637793, 27.0924414 ], [ 95.965015, 27.0869324 ], [ 95.9559139, 27.0777768 ], [ 95.953514, 27.0663272 ], [ 95.9515435, 27.0644759 ], [ 95.9459562, 27.0516478 ], [ 95.9428157, 27.0512163 ], [ 95.9410702, 27.0489918 ], [ 95.9385865, 27.0490769 ], [ 95.9336518, 27.0457212 ], [ 95.926004, 27.0449238 ], [ 95.9224918, 27.041584 ], [ 95.9177652, 27.0409318 ], [ 95.911004, 27.0367025 ], [ 95.9042305, 27.0387451 ], [ 95.9026296, 27.0372137 ], [ 95.901373, 27.0326027 ], [ 95.8985333, 27.0310321 ], [ 95.8949491, 27.0259603 ], [ 95.8890771, 27.0237753 ], [ 95.8865758, 27.0261072 ], [ 95.8791472, 27.0228958 ], [ 95.8759029, 27.0192502 ], [ 95.8766095, 27.0176248 ], [ 95.8754595, 27.0144101 ], [ 95.8700792, 27.0127029 ], [ 95.863073, 27.0134425 ], [ 95.8576073, 27.0118495 ], [ 95.8510048, 27.0142724 ], [ 95.8425047, 27.0139382 ], [ 95.8358477, 27.009225 ], [ 95.8300625, 27.0074775 ], [ 95.8256162, 27.0102269 ], [ 95.8226912, 27.0095921 ], [ 95.8143147, 27.0124127 ], [ 95.8120686, 27.0146097 ], [ 95.8105965, 27.0135939 ], [ 95.8036519, 27.015555 ], [ 95.8020305, 27.0145006 ], [ 95.8012013, 27.0122996 ], [ 95.802215, 27.0064856 ], [ 95.796336, 26.9977353 ], [ 95.7834306, 26.990122 ], [ 95.7811483, 26.97779 ], [ 95.7681048, 26.9765162 ], [ 95.7650682, 26.9684003 ], [ 95.7602952, 26.9639161 ], [ 95.7608396, 26.958752 ], [ 95.7590551, 26.9546361 ], [ 95.7550009, 26.9538449 ], [ 95.7596293, 26.9454166 ], [ 95.7600527, 26.9368472 ], [ 95.7561505, 26.9351189 ], [ 95.7568399, 26.9320402 ], [ 95.7555219, 26.9295703 ], [ 95.7478897, 26.9258268 ], [ 95.7499006, 26.9235921 ], [ 95.7467869, 26.9226493 ], [ 95.7477294, 26.9210632 ], [ 95.7466621, 26.9163076 ], [ 95.7512414, 26.9087773 ], [ 95.7466862, 26.9038572 ], [ 95.7449055, 26.8963299 ], [ 95.7419793, 26.895662 ], [ 95.7406499, 26.8938792 ], [ 95.7342875, 26.8938026 ], [ 95.7292395, 26.8895048 ], [ 95.724141, 26.8822048 ], [ 95.7163681, 26.87846 ], [ 95.7136396, 26.8801439 ], [ 95.7062362, 26.8805612 ], [ 95.7064472, 26.8819357 ], [ 95.7021943, 26.8845519 ], [ 95.6948124, 26.8920475 ], [ 95.6829139, 26.895799 ], [ 95.6871726, 26.8959819 ], [ 95.6892447, 26.8941108 ], [ 95.6951122, 26.8925553 ], [ 95.6785421, 26.9212881 ], [ 95.6802843, 26.9245168 ], [ 95.6781638, 26.9263098 ], [ 95.6788627, 26.933014 ], [ 95.6745894, 26.9432187 ], [ 95.6735555, 26.9475039 ], [ 95.6747226, 26.949257 ], [ 95.6666121, 26.9606102 ], [ 95.6667887, 26.967647 ], [ 95.663434, 26.9744798 ], [ 95.6581366, 26.9758296 ], [ 95.6582779, 26.973702 ], [ 95.6546199, 26.9668662 ], [ 95.6510908, 26.9655386 ], [ 95.6503414, 26.9621308 ], [ 95.647538, 26.9615248 ], [ 95.6380852, 26.9706641 ], [ 95.6358139, 26.9766415 ], [ 95.6226168, 26.9819046 ], [ 95.6142377, 26.982207 ], [ 95.616058, 26.9848762 ], [ 95.6235713, 26.9894826 ], [ 95.6234385, 26.9923025 ], [ 95.6275387, 26.9991331 ], [ 95.6235239, 27.0061489 ], [ 95.627687, 27.0113835 ], [ 95.6283113, 27.0197813 ], [ 95.6340744, 27.026734 ], [ 95.6367135, 27.032475 ], [ 95.6417728, 27.0351366 ], [ 95.6418206, 27.0405945 ], [ 95.6516134, 27.054267 ], [ 95.6464297, 27.0592303 ], [ 95.6461339, 27.0656781 ], [ 95.6391839, 27.074191 ], [ 95.6389782, 27.0769446 ], [ 95.6430498, 27.0889429 ], [ 95.6361484, 27.0908591 ], [ 95.6344227, 27.0943562 ], [ 95.6348129, 27.099907 ], [ 95.6306291, 27.1048984 ], [ 95.621987, 27.1093391 ], [ 95.6196786, 27.1083062 ], [ 95.6187645, 27.1107798 ], [ 95.6140957, 27.1122247 ], [ 95.6077065, 27.1176693 ], [ 95.6072148, 27.1218471 ], [ 95.6059965, 27.1227427 ], [ 95.6079592, 27.1256522 ], [ 95.6072895, 27.1285971 ], [ 95.6084236, 27.1308611 ], [ 95.6070888, 27.1318198 ], [ 95.6078958, 27.1332935 ], [ 95.61022, 27.1332526 ], [ 95.6135825, 27.1364134 ], [ 95.6232138, 27.1400007 ], [ 95.625985, 27.1426535 ], [ 95.6316953, 27.142569 ], [ 95.6339926, 27.1448132 ], [ 95.6367215, 27.1437965 ], [ 95.6384323, 27.145808 ], [ 95.6401644, 27.1452927 ], [ 95.640284, 27.1484236 ], [ 95.6426571, 27.1488661 ], [ 95.643081, 27.1522507 ], [ 95.6449228, 27.1531521 ], [ 95.6479349, 27.1594833 ], [ 95.6495088, 27.1745494 ], [ 95.6476683, 27.1845392 ], [ 95.6406796, 27.1930079 ], [ 95.6418803, 27.2016447 ], [ 95.6409519, 27.2087136 ], [ 95.635558, 27.2221914 ], [ 95.6339069, 27.2303124 ], [ 95.6760283, 27.2469648 ], [ 95.6815338, 27.2517414 ], [ 95.6923645, 27.2532121 ], [ 95.7015091, 27.2485744 ], [ 95.7078813, 27.2500572 ], [ 95.7119846, 27.2528447 ], [ 95.7137849, 27.2502399 ], [ 95.7202065, 27.2494775 ], [ 95.7271334, 27.2596483 ], [ 95.7346942, 27.2603879 ], [ 95.736179, 27.2632591 ], [ 95.7421123, 27.2666584 ], [ 95.7458524, 27.2668811 ], [ 95.7476983, 27.2657464 ], [ 95.7568601, 27.2686445 ], [ 95.7651783, 27.2672637 ], [ 95.7682378, 27.267776 ], [ 95.7685193, 27.2691705 ], [ 95.7752546, 27.2704073 ], [ 95.7795827, 27.2697515 ], [ 95.7805853, 27.2724596 ], [ 95.7881771, 27.2767242 ], [ 95.7889334, 27.2781054 ], [ 95.7879028, 27.2786463 ], [ 95.7909527, 27.2791986 ], [ 95.7952177, 27.2825313 ], [ 95.7995358, 27.2823396 ], [ 95.800888, 27.2842671 ], [ 95.8026212, 27.2829436 ], [ 95.8000904, 27.2800025 ], [ 95.7994463, 27.2765502 ], [ 95.8055295, 27.2757952 ], [ 95.8051576, 27.2729522 ], [ 95.8153755, 27.278541 ], [ 95.8233192, 27.2788712 ], [ 95.8504974, 27.2865902 ], [ 95.8593053, 27.2872209 ], [ 95.8556323, 27.2804135 ], [ 95.8538219, 27.279195 ], [ 95.8564291, 27.2710594 ], [ 95.8611208, 27.2670575 ], [ 95.8638275, 27.2664441 ], [ 95.8693722, 27.2600232 ], [ 95.8764968, 27.2596352 ], [ 95.8813185, 27.2559078 ], [ 95.8924315, 27.2552841 ], [ 95.8941838, 27.2569174 ], [ 95.8946239, 27.2610055 ], [ 95.8935646, 27.2675712 ], [ 95.8994527, 27.2686803 ], [ 95.9000802, 27.274253 ], [ 95.9043523, 27.2739182 ], [ 95.9039487, 27.2755744 ], [ 95.8970918, 27.2805437 ], [ 95.8972135, 27.2821637 ], [ 95.9011126, 27.2839183 ], [ 95.9060565, 27.2822161 ], [ 95.9071746, 27.2889709 ], [ 95.9133818, 27.2891363 ], [ 95.9147768, 27.2920103 ], [ 95.9179938, 27.2913415 ], [ 95.9301233, 27.3002756 ], [ 95.9375624, 27.3008238 ], [ 95.9417203, 27.3052301 ], [ 95.9466292, 27.3037883 ], [ 95.9534269, 27.3089241 ], [ 95.9600407, 27.3109508 ], [ 95.9565614, 27.3125683 ], [ 95.9550496, 27.3176772 ], [ 95.961025, 27.3164418 ], [ 95.9626337, 27.3192767 ], [ 95.9613144, 27.3214796 ], [ 95.9627632, 27.3231415 ], [ 95.9691231, 27.3224063 ], [ 95.9755563, 27.3244595 ], [ 95.9720932, 27.3274401 ], [ 95.9677214, 27.3256742 ], [ 95.9660443, 27.3259461 ], [ 95.9652947, 27.3278802 ], [ 95.9710115, 27.332815 ], [ 95.9715756, 27.3365486 ], [ 95.9765382, 27.3373776 ], [ 95.9868795, 27.3456091 ], [ 95.9865992, 27.3483484 ], [ 95.9892051, 27.3564955 ], [ 95.9932899, 27.357936 ], [ 95.9964975, 27.3563636 ], [ 96.0024851, 27.3607387 ], [ 96.0075339, 27.3606297 ], [ 96.012705, 27.3650284 ], [ 96.0177539, 27.3649191 ], [ 96.0178764, 27.3694269 ], [ 95.9982836, 27.3877852 ], [ 95.9964685, 27.3946049 ], [ 95.9934878, 27.3963943 ], [ 95.9901372, 27.4023579 ], [ 95.9881014, 27.4040697 ], [ 95.9845577, 27.4044516 ], [ 95.9832959, 27.4118347 ], [ 95.9740528, 27.4113678 ], [ 95.9702183, 27.4149081 ], [ 95.9707812, 27.41683 ], [ 95.9751454, 27.4174632 ], [ 95.9753898, 27.4193897 ], [ 95.9740823, 27.4216919 ], [ 95.9696189, 27.4234955 ], [ 95.9704203, 27.426288 ], [ 95.9693547, 27.4278861 ], [ 95.9654651, 27.4270088 ], [ 95.9655547, 27.4190807 ], [ 95.9645628, 27.4180525 ], [ 95.9617918, 27.4180136 ], [ 95.9632049, 27.4272133 ], [ 95.960339, 27.4290291 ], [ 95.9567468, 27.4264953 ], [ 95.9547494, 27.4196198 ], [ 95.9511319, 27.4239671 ], [ 95.9451869, 27.4266371 ], [ 95.9448235, 27.4276164 ], [ 95.9474701, 27.4304848 ], [ 95.9474465, 27.4329937 ], [ 95.9413097, 27.4372925 ], [ 95.9344359, 27.4356396 ], [ 95.927873, 27.4384715 ], [ 95.9182322, 27.4347251 ], [ 95.9108894, 27.4357696 ], [ 95.907976, 27.434349 ], [ 95.9000081, 27.4220186 ], [ 95.8986661, 27.4128633 ], [ 95.890994, 27.4012137 ], [ 95.8857258, 27.3981549 ], [ 95.8840274, 27.4025049 ], [ 95.8868387, 27.4049819 ], [ 95.8882953, 27.4089932 ], [ 95.8875878, 27.4116645 ], [ 95.8839526, 27.4140203 ], [ 95.8849403, 27.4321235 ], [ 95.8832161, 27.4353183 ], [ 95.8787455, 27.4361217 ], [ 95.8756656, 27.4347907 ], [ 95.8708818, 27.4263527 ], [ 95.8646873, 27.4244437 ], [ 95.8636913, 27.4227921 ], [ 95.8571383, 27.419881 ], [ 95.8570176, 27.4156394 ], [ 95.8624486, 27.4115338 ], [ 95.8624994, 27.4094491 ], [ 95.8601434, 27.408014 ], [ 95.8529583, 27.411113 ], [ 95.8500192, 27.4178088 ], [ 95.8445066, 27.4215845 ], [ 95.8423406, 27.4277479 ], [ 95.8472893, 27.4361914 ], [ 95.8468234, 27.4385648 ], [ 95.8494678, 27.441611 ], [ 95.855759, 27.4433989 ], [ 95.85675, 27.4449287 ], [ 95.8533187, 27.4569083 ], [ 95.8565451, 27.4612586 ], [ 95.859312, 27.4615838 ], [ 95.862974, 27.464684 ], [ 95.8683411, 27.4651446 ], [ 95.8706934, 27.4666518 ], [ 95.8715379, 27.476105 ], [ 95.8738903, 27.4811587 ], [ 95.8729391, 27.4907788 ], [ 95.8743002, 27.4932471 ], [ 95.8800281, 27.4970281 ], [ 95.8846682, 27.4962383 ], [ 95.8868542, 27.4970818 ], [ 95.8842956, 27.5010471 ], [ 95.8788026, 27.5048891 ], [ 95.8758403, 27.5124224 ], [ 95.8785008, 27.5187575 ], [ 95.8769826, 27.5259636 ], [ 95.8769375, 27.5429475 ], [ 95.8758146, 27.5465236 ], [ 95.9986935, 27.5595711 ], [ 96.0019107, 27.5566646 ], [ 96.0231764, 27.5711938 ], [ 96.0410827, 27.5866312 ], [ 96.0475415, 27.588326 ], [ 96.0534528, 27.5929053 ], [ 96.0563908, 27.6001452 ], [ 96.0615302, 27.6063424 ], [ 96.0731385, 27.607839 ], [ 96.0896175, 27.6112504 ], [ 96.1029471, 27.6155044 ], [ 96.1084224, 27.6154668 ], [ 96.1257921, 27.6195693 ], [ 96.1277686, 27.6164268 ], [ 96.1332061, 27.6151302 ], [ 96.134882, 27.6117919 ], [ 96.13045, 27.6093382 ], [ 96.1327676, 27.6063871 ], [ 96.140195, 27.6070822 ], [ 96.1608602, 27.6010701 ], [ 96.1670921, 27.596977 ], [ 96.170006, 27.5979213 ], [ 96.1715607, 27.5946966 ], [ 96.1817545, 27.5901079 ], [ 96.1924373, 27.5882975 ], [ 96.196872, 27.5830794 ], [ 96.1998371, 27.584018 ], [ 96.2034697, 27.5806206 ], [ 96.2080963, 27.5797281 ], [ 96.2097209, 27.5773324 ], [ 96.2158488, 27.5772145 ], [ 96.2248281, 27.568166 ], [ 96.2313004, 27.5665092 ], [ 96.2373288, 27.5671866 ], [ 96.2426856, 27.5635732 ], [ 96.2642943, 27.5632975 ], [ 96.2684814, 27.5578388 ], [ 96.2760191, 27.5589922 ], [ 96.2828248, 27.5560781 ], [ 96.2889772, 27.5554368 ], [ 96.2957002, 27.5583381 ], [ 96.3075023, 27.5658499 ], [ 96.3137879, 27.571792 ], [ 96.3277259, 27.5792291 ], [ 96.3311552, 27.5842276 ], [ 96.3363177, 27.5983537 ], [ 96.3483706, 27.6061049 ], [ 96.3518624, 27.6245374 ], [ 96.3684157, 27.6423985 ], [ 96.3727745, 27.6449554 ], [ 96.3781829, 27.6405879 ], [ 96.3837663, 27.6388235 ], [ 96.3938238, 27.6454382 ], [ 96.3941465, 27.6486874 ], [ 96.4111871, 27.6494373 ], [ 96.4129509, 27.6512417 ], [ 96.4195446, 27.6509614 ], [ 96.422722, 27.6483922 ], [ 96.4307157, 27.6493201 ], [ 96.4327566, 27.6520063 ], [ 96.435848, 27.6509948 ], [ 96.4397556, 27.6524365 ], [ 96.4441046, 27.6521027 ], [ 96.4470243, 27.6449777 ], [ 96.4512279, 27.6436602 ], [ 96.4524673, 27.6411263 ], [ 96.4640951, 27.6429583 ], [ 96.4690125, 27.6423702 ], [ 96.4735278, 27.6457404 ], [ 96.480275, 27.6460332 ], [ 96.5028914, 27.6417738 ], [ 96.5086155, 27.6431252 ], [ 96.5191621, 27.6366137 ], [ 96.530698, 27.6466861 ], [ 96.54963, 27.6467601 ], [ 96.5583742, 27.6505947 ], [ 96.5664598, 27.6568195 ], [ 96.5820942, 27.6560575 ], [ 96.5883197, 27.6531545 ], [ 96.5963223, 27.6540131 ], [ 96.6035696, 27.6467288 ], [ 96.6088559, 27.6466107 ], [ 96.6082206, 27.6431215 ], [ 96.6138623, 27.6380638 ], [ 96.6252962, 27.631585 ], [ 96.6336413, 27.6309672 ], [ 96.6408423, 27.6278802 ], [ 96.6581564, 27.6337402 ], [ 96.6663199, 27.642149 ], [ 96.6692416, 27.6473477 ], [ 96.6765235, 27.6497262 ], [ 96.6822921, 27.6546926 ], [ 96.6879411, 27.6551069 ], [ 96.7000048, 27.6604553 ], [ 96.705577, 27.6506657 ], [ 96.7104068, 27.6484514 ], [ 96.7269621, 27.6473135 ], [ 96.7325691, 27.641561 ], [ 96.7466617, 27.632598 ] ] ] } }
]
}
