{
"type": "FeatureCollection",
"name": "1222",
"crs": { "type": "name", "properties": { "name": "urn:ogc:def:crs:OGC:1.3:CRS84" } },
"features": [
{ "type": "Feature", "properties": { "code": "1222", "name": "Kamle", "type": "district" }, "geometry": { "type": "Polygon", "coordinates": [ [ [ 93.9772177, 27.9773401 ], [ 93.9896609, 27.9756421 ], [ 94.0004224, 27.9657695 ], [ 94.0037584, 27.9653949 ], [ 94.0118717, 27.9580473 ], [ 94.0312946, 27.9611609 ], [ 94.0438129, 27.9570072 ], [ 94.0502187, 27.9562164 ], [ 94.057192, 27.9471703 ], [ 94.0644495, 27.9429299 ], [ 94.06454, 27.9410446 ], [ 94.0682041, 27.9390979 ], [ 94.0570729, 27.9221503 ], [ 94.0477865, 27.9145005 ], [ 94.0476758, 27.9118575 ], [ 94.0516937, 27.9081048 ], [ 94.0561537, 27.9062041 ], [ 94.0582833, 27.8874027 ], [ 94.0605094, 27.8796472 ], [ 94.0601501, 27.8694086 ], [ 94.0741796, 27.8492972 ], [ 94.0865445, 27.8531093 ], [ 94.0964925, 27.8597846 ], [ 94.1023486, 27.8610246 ], [ 94.11258, 27.8599542 ], [ 94.1220293, 27.8617908 ], [ 94.1286039, 27.8578162 ], [ 94.1414833, 27.8662339 ], [ 94.1461097, 27.8669225 ], [ 94.1491057, 27.8659622 ], [ 94.1528888, 27.8581159 ], [ 94.1539684, 27.8518867 ], [ 94.1601475, 27.8437514 ], [ 94.1704352, 27.8453854 ], [ 94.1918858, 27.836524 ], [ 94.1921004, 27.8152634 ], [ 94.193445, 27.8113861 ], [ 94.2037646, 27.8122673 ], [ 94.2575056, 27.8077336 ], [ 94.2940559, 27.7904222 ], [ 94.3053678, 27.7836147 ], [ 94.3171417, 27.7739674 ], [ 94.3135574, 27.7687263 ], [ 94.3100736, 27.7452494 ], [ 94.3141894, 27.7390189 ], [ 94.3386294, 27.7251546 ], [ 94.3491498, 27.7302218 ], [ 94.3560381, 27.7287737 ], [ 94.3554685, 27.7192107 ], [ 94.3516574, 27.7143 ], [ 94.334091, 27.7090609 ], [ 94.322038, 27.7030426 ], [ 94.3113105, 27.6914704 ], [ 94.3023795, 27.6847057 ], [ 94.2669155, 27.6657847 ], [ 94.2311463, 27.6377489 ], [ 94.213225, 27.6138671 ], [ 94.2104417, 27.6084243 ], [ 94.2094843, 27.608716 ], [ 94.2099181, 27.6039136 ], [ 94.2122431, 27.600866 ], [ 94.2197023, 27.5982926 ], [ 94.2266414, 27.5977411 ], [ 94.2268453, 27.5956083 ], [ 94.2228311, 27.5881997 ], [ 94.2249517, 27.5740946 ], [ 94.2348096, 27.5691634 ], [ 94.2467156, 27.5694665 ], [ 94.2586997, 27.5554581 ], [ 94.2594047, 27.5490506 ], [ 94.2568678, 27.5417122 ], [ 94.2574945, 27.5370304 ], [ 94.2600714, 27.5315139 ], [ 94.2681534, 27.5208122 ], [ 94.241353, 27.513022 ], [ 94.2208232, 27.5052795 ], [ 94.2148458, 27.5016455 ], [ 94.2109444, 27.4939951 ], [ 94.2075938, 27.4926128 ], [ 94.2024619, 27.494467 ], [ 94.2070264, 27.5353208 ], [ 94.1918666, 27.544033 ], [ 94.1697288, 27.542907 ], [ 94.1419662, 27.5257643 ], [ 94.0878691, 27.4951574 ], [ 94.0491578, 27.4953143 ], [ 94.0104745, 27.5016294 ], [ 93.9800619, 27.5029706 ], [ 93.9733827, 27.502745 ], [ 93.9590263, 27.4971092 ], [ 93.9447819, 27.4952278 ], [ 93.9405352, 27.4926758 ], [ 93.9365607, 27.4878719 ], [ 93.9315076, 27.4909332 ], [ 93.9260931, 27.4905775 ], [ 93.9314438, 27.4987687 ], [ 93.9312277, 27.5014399 ], [ 93.9342418, 27.5037397 ], [ 93.9355271, 27.5067552 ], [ 93.9336931, 27.5141451 ], [ 93.9302632, 27.5190856 ], [ 93.9272542, 27.5274695 ], [ 93.9352183, 27.5350983 ], [ 93.9364658, 27.5384661 ], [ 93.9440726, 27.5427003 ], [ 93.9481473, 27.548046 ], [ 93.9481501, 27.5534532 ], [ 93.9518557, 27.5585847 ], [ 93.9516744, 27.5612715 ], [ 93.9538943, 27.5639441 ], [ 93.9532654, 27.5667062 ], [ 93.9574948, 27.5760789 ], [ 93.9622134, 27.5803296 ], [ 93.9637658, 27.5861075 ], [ 93.957419, 27.5903919 ], [ 93.9515242, 27.6038016 ], [ 93.942361, 27.6033811 ], [ 93.9374435, 27.604439 ], [ 93.934768, 27.6067883 ], [ 93.9350133, 27.6121758 ], [ 93.9326593, 27.6198309 ], [ 93.9345983, 27.6246248 ], [ 93.934498, 27.6315334 ], [ 93.9309701, 27.6336153 ], [ 93.9300757, 27.6376023 ], [ 93.9361583, 27.6659808 ], [ 93.9316483, 27.6742461 ], [ 93.9343691, 27.6803143 ], [ 93.9290177, 27.6861592 ], [ 93.9269491, 27.6911153 ], [ 93.9267296, 27.6958266 ], [ 93.9317424, 27.6992278 ], [ 93.9358943, 27.7041443 ], [ 93.9388444, 27.7130949 ], [ 93.9343259, 27.7204892 ], [ 93.9344192, 27.7257062 ], [ 93.9322224, 27.7341387 ], [ 93.9261395, 27.7453414 ], [ 93.9221921, 27.7470129 ], [ 93.9073884, 27.7429155 ], [ 93.9053853, 27.7610932 ], [ 93.9158644, 27.7808473 ], [ 93.913149, 27.7831491 ], [ 93.9087693, 27.7845049 ], [ 93.9025346, 27.7833294 ], [ 93.8943999, 27.7852983 ], [ 93.8809442, 27.7999226 ], [ 93.8897554, 27.7975711 ], [ 93.8941874, 27.8002663 ], [ 93.8987966, 27.7977788 ], [ 93.9019722, 27.798812 ], [ 93.909452, 27.8054813 ], [ 93.9185194, 27.8081948 ], [ 93.922855, 27.8178991 ], [ 93.926538, 27.8202914 ], [ 93.9298509, 27.8266714 ], [ 93.9373095, 27.8312021 ], [ 93.9360424, 27.8358099 ], [ 93.9386104, 27.8430567 ], [ 93.9429247, 27.8505715 ], [ 93.9515604, 27.8597466 ], [ 93.9523006, 27.8646114 ], [ 93.9426259, 27.8759095 ], [ 93.9354799, 27.8782329 ], [ 93.9150633, 27.880428 ], [ 93.9029157, 27.892173 ], [ 93.9049521, 27.8938431 ], [ 93.904491, 27.8967347 ], [ 93.9068362, 27.9001043 ], [ 93.91544, 27.8973507 ], [ 93.9203874, 27.898252 ], [ 93.9258037, 27.9042411 ], [ 93.9291666, 27.9107493 ], [ 93.9352221, 27.9169323 ], [ 93.9364324, 27.9200767 ], [ 93.9350516, 27.9315161 ], [ 93.9361164, 27.9349232 ], [ 93.9433866, 27.939897 ], [ 93.9475357, 27.9404981 ], [ 93.9481696, 27.9416491 ], [ 93.9484343, 27.9476681 ], [ 93.9464899, 27.9578929 ], [ 93.9473917, 27.9619983 ], [ 93.9543046, 27.9654461 ], [ 93.9612914, 27.963705 ], [ 93.9650003, 27.9645027 ], [ 93.9772177, 27.9773401 ] ] ] } }
]
}
