{
"type": "FeatureCollection",
"name": "1225",
"crs": { "type": "name", "properties": { "name": "urn:ogc:def:crs:OGC:1.3:CRS84" } },
"features": [
{ "type": "Feature", "properties": { "code": "1225", "name": "Shi Yomi", "type": "district" }, "geometry": { "type": "Polygon", "coordinates": [ [ [ 94.4503786, 28.6155078 ], [ 94.4572009, 28.5913014 ], [ 94.4810115, 28.6002297 ], [ 94.5133722, 28.5964226 ], [ 94.536215, 28.5888083 ], [ 94.5419257, 28.5773869 ], [ 94.5381186, 28.5336048 ], [ 94.5438293, 28.5126655 ], [ 94.5600096, 28.4964852 ], [ 94.5609614, 28.4898227 ], [ 94.5428775, 28.4812566 ], [ 94.5448477, 28.4687208 ], [ 94.5118255, 28.466385 ], [ 94.5004041, 28.4606743 ], [ 94.4968349, 28.4128471 ], [ 94.4854375, 28.395751 ], [ 94.4461524, 28.4035672 ], [ 94.434731, 28.373586 ], [ 94.4133158, 28.3578816 ], [ 94.4016266, 28.3385532 ], [ 94.4013654, 28.3402766 ], [ 94.3861355, 28.3358376 ], [ 94.3766617, 28.340501 ], [ 94.3727881, 28.344191 ], [ 94.3708848, 28.35171 ], [ 94.3680022, 28.3531101 ], [ 94.3435389, 28.3551613 ], [ 94.3372597, 28.358302 ], [ 94.3296584, 28.3578032 ], [ 94.3253946, 28.3614255 ], [ 94.3221258, 28.3685687 ], [ 94.3085778, 28.3755132 ], [ 94.3017622, 28.3958779 ], [ 94.3019095, 28.4001901 ], [ 94.3088855, 28.4144744 ], [ 94.3085226, 28.4168911 ], [ 94.3025804, 28.4188696 ], [ 94.2964854, 28.4227384 ], [ 94.2928345, 28.4287201 ], [ 94.2834305, 28.4318992 ], [ 94.2748022, 28.430623 ], [ 94.2675572, 28.4321684 ], [ 94.2418098, 28.4467114 ], [ 94.2393459, 28.4456966 ], [ 94.236798, 28.4418122 ], [ 94.2367685, 28.4335061 ], [ 94.2316369, 28.4281471 ], [ 94.225334, 28.4333179 ], [ 94.2192371, 28.4361923 ], [ 94.2139645, 28.4363829 ], [ 94.2003736, 28.431526 ], [ 94.1845941, 28.4293672 ], [ 94.1733355, 28.4350059 ], [ 94.1682887, 28.4327405 ], [ 94.1626365, 28.4322532 ], [ 94.1518513, 28.4360591 ], [ 94.1391768, 28.4444399 ], [ 94.1327653, 28.4514419 ], [ 94.1264347, 28.4669514 ], [ 94.1229413, 28.4706366 ], [ 94.1148667, 28.4756968 ], [ 94.1114158, 28.4891189 ], [ 94.1056371, 28.4975425 ], [ 94.1090768, 28.5031011 ], [ 94.1075206, 28.5119473 ], [ 94.1088136, 28.5212503 ], [ 94.107341, 28.5243175 ], [ 94.1031609, 28.5252875 ], [ 94.0997275, 28.5330552 ], [ 94.0968922, 28.5360309 ], [ 94.0852059, 28.5336968 ], [ 94.0806992, 28.5343218 ], [ 94.0715127, 28.5392467 ], [ 94.0580127, 28.5494568 ], [ 94.0497146, 28.551089 ], [ 94.0214472, 28.5654984 ], [ 94.001433, 28.577724 ], [ 94.0034647, 28.6108215 ], [ 94.0061634, 28.621668 ], [ 94.0102401, 28.6317618 ], [ 94.023374, 28.6512057 ], [ 94.0181084, 28.6654765 ], [ 94.0156068, 28.6685356 ], [ 94.0041596, 28.6745982 ], [ 94.0012438, 28.6786195 ], [ 93.9677108, 28.7073198 ], [ 93.9711792, 28.7153192 ], [ 93.9729544, 28.7432181 ], [ 93.992725, 28.7584513 ], [ 94.0065889, 28.7673926 ], [ 94.0103008, 28.7727858 ], [ 94.0105087, 28.7787514 ], [ 93.9867043, 28.8037555 ], [ 94.0025474, 28.8226749 ], [ 94.0072433, 28.8406996 ], [ 94.0133634, 28.8450721 ], [ 94.0366331, 28.8511282 ], [ 94.0536677, 28.8726364 ], [ 94.0746655, 28.8909288 ], [ 94.1498528, 28.9440142 ], [ 94.1644581, 28.9574567 ], [ 94.1701316, 28.9716263 ], [ 94.1765784, 29.0070274 ], [ 94.1860624, 29.0287302 ], [ 94.1915879, 29.0372492 ], [ 94.3427637, 28.983834 ], [ 94.367637, 28.9565208 ], [ 94.3956592, 28.9321228 ], [ 94.378501, 28.8920359 ], [ 94.3826651, 28.878354 ], [ 94.3945624, 28.8539646 ], [ 94.4124084, 28.8373083 ], [ 94.4237108, 28.8129189 ], [ 94.436203, 28.8099445 ], [ 94.4427465, 28.7772269 ], [ 94.4338235, 28.7641399 ], [ 94.4341164, 28.7547669 ], [ 94.443619, 28.7462146 ], [ 94.4588475, 28.7186129 ], [ 94.4769314, 28.7052879 ], [ 94.4845457, 28.6910111 ], [ 94.4807386, 28.665313 ], [ 94.4675162, 28.625864 ], [ 94.4503786, 28.6155078 ] ] ] } }
]
}
