{
"type": "FeatureCollection",
"name": "1302",
"crs": { "type": "name", "properties": { "name": "urn:ogc:def:crs:OGC:1.3:CRS84" } },
"features": [
{ "type": "Feature", "properties": { "code": "1302", "name": "Tuensang", "type": "district" }, "geometry": { "type": "Polygon", "coordinates": [ [ [ 94.7477454, 26.4581252 ], [ 94.7489201, 26.4547094 ], [ 94.7572712, 26.4557598 ], [ 94.7612586, 26.4540364 ], [ 94.7613673, 26.4527804 ], [ 94.763178, 26.4529268 ], [ 94.7646677, 26.4505671 ], [ 94.7620862, 26.4481118 ], [ 94.7639951, 26.4467198 ], [ 94.7658373, 26.4474922 ], [ 94.7680346, 26.4451586 ], [ 94.7685112, 26.4426982 ], [ 94.7672776, 26.4398051 ], [ 94.7692688, 26.4376179 ], [ 94.7722097, 26.4372654 ], [ 94.7786967, 26.433436 ], [ 94.7844203, 26.4265442 ], [ 94.7881642, 26.4269844 ], [ 94.7939757, 26.4242125 ], [ 94.7996652, 26.4163046 ], [ 94.8088503, 26.4110654 ], [ 94.8131337, 26.4052864 ], [ 94.8130961, 26.4008952 ], [ 94.8175868, 26.3998593 ], [ 94.8191077, 26.3952071 ], [ 94.8311279, 26.3863302 ], [ 94.8430001, 26.3803946 ], [ 94.8473008, 26.3744295 ], [ 94.8471261, 26.3720917 ], [ 94.8540047, 26.37328 ], [ 94.8660383, 26.3795638 ], [ 94.8712842, 26.3783501 ], [ 94.8733334, 26.3797357 ], [ 94.8812499, 26.3795327 ], [ 94.8824874, 26.3812702 ], [ 94.8919115, 26.373918 ], [ 94.8975579, 26.374274 ], [ 94.9043414, 26.3727747 ], [ 94.9106008, 26.3769572 ], [ 94.9089889, 26.3652281 ], [ 94.9078563, 26.3635901 ], [ 94.9036377, 26.3619301 ], [ 94.901703, 26.3569301 ], [ 94.8983012, 26.3541415 ], [ 94.8965823, 26.3496333 ], [ 94.8997631, 26.349132 ], [ 94.9026076, 26.3461484 ], [ 94.901004, 26.3421095 ], [ 94.9022904, 26.3375376 ], [ 94.9111973, 26.3252697 ], [ 94.9130037, 26.3200388 ], [ 94.9290297, 26.3103176 ], [ 94.9345451, 26.304408 ], [ 94.9376478, 26.2986915 ], [ 94.9355812, 26.282858 ], [ 94.9341379, 26.2798167 ], [ 94.9415915, 26.2693842 ], [ 94.9417997, 26.2656563 ], [ 94.9402174, 26.2644791 ], [ 94.9350917, 26.264418 ], [ 94.9251168, 26.2539918 ], [ 94.9149343, 26.2519704 ], [ 94.911496, 26.2474734 ], [ 94.9061326, 26.2478164 ], [ 94.9002087, 26.2440933 ], [ 94.8991865, 26.234865 ], [ 94.8955023, 26.2317676 ], [ 94.8869029, 26.2178871 ], [ 94.8859022, 26.2084741 ], [ 94.889689, 26.2046515 ], [ 94.8887754, 26.2017028 ], [ 94.8853722, 26.1986198 ], [ 94.8894451, 26.1949392 ], [ 94.8945029, 26.1942775 ], [ 94.8943672, 26.1922397 ], [ 94.8972942, 26.1885511 ], [ 94.903173, 26.1858282 ], [ 94.9150023, 26.1723364 ], [ 94.9140469, 26.1630662 ], [ 94.9095126, 26.1562599 ], [ 94.908757, 26.150854 ], [ 94.9028002, 26.1438575 ], [ 94.89262, 26.1357084 ], [ 94.8903998, 26.1274662 ], [ 94.9070169, 26.1107571 ], [ 94.9076027, 26.1059306 ], [ 94.9140686, 26.0988382 ], [ 94.9154689, 26.092537 ], [ 94.9181019, 26.0884232 ], [ 94.9180855, 26.0809356 ], [ 94.9202351, 26.0703991 ], [ 94.9197668, 26.0640844 ], [ 94.9234154, 26.0580503 ], [ 94.9241487, 26.053187 ], [ 94.9274388, 26.0497334 ], [ 94.9313229, 26.0482807 ], [ 94.9302386, 26.0470109 ], [ 94.9276621, 26.0477679 ], [ 94.9238267, 26.0463022 ], [ 94.9212891, 26.0436663 ], [ 94.918317, 26.0436995 ], [ 94.9145361, 26.0381259 ], [ 94.910006, 26.0357112 ], [ 94.9077273, 26.0295347 ], [ 94.9081582, 26.0261739 ], [ 94.8984193, 26.0231713 ], [ 94.8938296, 26.016155 ], [ 94.8887785, 26.0155118 ], [ 94.888042, 26.0127105 ], [ 94.8849706, 26.0093505 ], [ 94.8878897, 26.0041874 ], [ 94.8792172, 26.001749 ], [ 94.879148, 25.9998432 ], [ 94.8817502, 25.9969115 ], [ 94.8772747, 25.9927328 ], [ 94.8754759, 25.9865305 ], [ 94.8711972, 25.9845405 ], [ 94.8717764, 25.9832181 ], [ 94.8701836, 25.9801616 ], [ 94.8649392, 25.983879 ], [ 94.8550123, 25.9822122 ], [ 94.8480513, 25.9830278 ], [ 94.8344612, 25.9903582 ], [ 94.8276494, 25.9907802 ], [ 94.8204091, 25.989437 ], [ 94.8142458, 25.9913479 ], [ 94.8087021, 25.9940882 ], [ 94.8052212, 25.9980724 ], [ 94.8003351, 26.0091496 ], [ 94.8001051, 26.0152713 ], [ 94.7990966, 26.016156 ], [ 94.7936589, 26.0162031 ], [ 94.7897378, 26.0145395 ], [ 94.7875438, 26.0121466 ], [ 94.78301, 26.011315 ], [ 94.7830144, 26.0097094 ], [ 94.7809532, 26.0082851 ], [ 94.7782885, 26.0116821 ], [ 94.7702388, 26.0151469 ], [ 94.7684532, 26.017691 ], [ 94.7612523, 26.0209167 ], [ 94.7579276, 26.0237889 ], [ 94.7488182, 26.0228719 ], [ 94.7438145, 26.0252606 ], [ 94.7378565, 26.0208301 ], [ 94.7331077, 26.0195929 ], [ 94.7272443, 26.0226376 ], [ 94.7229955, 26.0215103 ], [ 94.7196091, 26.0251838 ], [ 94.7176426, 26.0256251 ], [ 94.713467, 26.0247347 ], [ 94.7081827, 26.0212817 ], [ 94.706589, 26.0209882 ], [ 94.7054986, 26.0224141 ], [ 94.7018639, 26.0204989 ], [ 94.7012069, 26.0192687 ], [ 94.7022134, 26.0181223 ], [ 94.7009413, 26.0161233 ], [ 94.6974272, 26.0136221 ], [ 94.6910839, 26.0122905 ], [ 94.685844, 26.0139745 ], [ 94.6810279, 26.020637 ], [ 94.6736452, 26.0262049 ], [ 94.67804, 26.0288779 ], [ 94.6801493, 26.0316618 ], [ 94.6799054, 26.0337199 ], [ 94.68708, 26.0380647 ], [ 94.685685, 26.0401776 ], [ 94.6761149, 26.0427922 ], [ 94.6705468, 26.0507885 ], [ 94.6803401, 26.0571295 ], [ 94.6826949, 26.0601435 ], [ 94.6841919, 26.0664749 ], [ 94.6878356, 26.0683374 ], [ 94.6899315, 26.0724976 ], [ 94.6925555, 26.0731599 ], [ 94.69208, 26.0812477 ], [ 94.6936716, 26.0854262 ], [ 94.6887682, 26.0943643 ], [ 94.6882783, 26.104167 ], [ 94.69146, 26.1091121 ], [ 94.6892363, 26.1107061 ], [ 94.6873941, 26.1154547 ], [ 94.6884292, 26.1260646 ], [ 94.6875559, 26.1292196 ], [ 94.6891195, 26.1366115 ], [ 94.6883301, 26.1376589 ], [ 94.6943975, 26.1419663 ], [ 94.6950696, 26.1457389 ], [ 94.6991587, 26.152123 ], [ 94.7031203, 26.1696905 ], [ 94.7057375, 26.1720089 ], [ 94.7034029, 26.1737296 ], [ 94.7003465, 26.1730361 ], [ 94.6994704, 26.1714886 ], [ 94.6966195, 26.171526 ], [ 94.6956327, 26.1777545 ], [ 94.6966786, 26.1786431 ], [ 94.6937352, 26.1834329 ], [ 94.6924684, 26.190379 ], [ 94.689474, 26.1940765 ], [ 94.6894161, 26.1982557 ], [ 94.6885008, 26.19859 ], [ 94.6871639, 26.1962934 ], [ 94.6842437, 26.1990926 ], [ 94.6809468, 26.1986606 ], [ 94.6779513, 26.2014101 ], [ 94.6757671, 26.2064745 ], [ 94.6728756, 26.2070215 ], [ 94.6723116, 26.2106682 ], [ 94.6666187, 26.2126555 ], [ 94.6647763, 26.2088786 ], [ 94.6622699, 26.2091364 ], [ 94.6622691, 26.2064872 ], [ 94.6599181, 26.2078823 ], [ 94.6597673, 26.2053821 ], [ 94.6564507, 26.2033133 ], [ 94.646425, 26.208724 ], [ 94.6428785, 26.2142709 ], [ 94.6381505, 26.2172363 ], [ 94.6356988, 26.2153771 ], [ 94.6315458, 26.20789 ], [ 94.6253972, 26.2048346 ], [ 94.6237715, 26.1999424 ], [ 94.6176433, 26.1985295 ], [ 94.6124313, 26.1936322 ], [ 94.6057331, 26.1971296 ], [ 94.5997041, 26.1975114 ], [ 94.5987479, 26.2002687 ], [ 94.595821, 26.2013602 ], [ 94.5957449, 26.2048804 ], [ 94.5874274, 26.2123699 ], [ 94.5835744, 26.2187325 ], [ 94.5836417, 26.2208217 ], [ 94.5857079, 26.2216166 ], [ 94.5868128, 26.2239051 ], [ 94.5870483, 26.2271332 ], [ 94.5830793, 26.2384856 ], [ 94.5806868, 26.2393558 ], [ 94.5802644, 26.2410425 ], [ 94.5773486, 26.2400452 ], [ 94.5728935, 26.2423496 ], [ 94.5709857, 26.2445422 ], [ 94.5704631, 26.2488836 ], [ 94.566159, 26.2546365 ], [ 94.5627413, 26.2566011 ], [ 94.5609839, 26.2554557 ], [ 94.5596635, 26.2562916 ], [ 94.5633755, 26.2669578 ], [ 94.5654148, 26.2682039 ], [ 94.5611283, 26.2711168 ], [ 94.5637148, 26.2724744 ], [ 94.5621454, 26.2741706 ], [ 94.5614062, 26.2787871 ], [ 94.5593036, 26.2793268 ], [ 94.5606398, 26.2806326 ], [ 94.5592315, 26.2822781 ], [ 94.5635154, 26.2844876 ], [ 94.5643556, 26.2877734 ], [ 94.5674835, 26.2884423 ], [ 94.5693247, 26.2907717 ], [ 94.5730238, 26.2923167 ], [ 94.5729301, 26.2895727 ], [ 94.5756195, 26.2873894 ], [ 94.5812559, 26.2895351 ], [ 94.5821958, 26.2921637 ], [ 94.5791855, 26.2946839 ], [ 94.5811088, 26.296563 ], [ 94.5832866, 26.2957897 ], [ 94.5827633, 26.3009671 ], [ 94.5854248, 26.299833 ], [ 94.5878228, 26.3012508 ], [ 94.5925242, 26.295692 ], [ 94.590786, 26.3018815 ], [ 94.5944006, 26.302541 ], [ 94.5950369, 26.3000017 ], [ 94.5965269, 26.3002018 ], [ 94.5980877, 26.304829 ], [ 94.5955448, 26.3062239 ], [ 94.5986563, 26.3083117 ], [ 94.5994892, 26.3106089 ], [ 94.5962591, 26.3119509 ], [ 94.6014806, 26.3171105 ], [ 94.6084959, 26.3203972 ], [ 94.6106639, 26.3233309 ], [ 94.6138391, 26.3221398 ], [ 94.614498, 26.3264551 ], [ 94.6191071, 26.3258364 ], [ 94.6211403, 26.3276011 ], [ 94.6231186, 26.3260623 ], [ 94.6241602, 26.3290139 ], [ 94.6287827, 26.3342039 ], [ 94.6315524, 26.3327778 ], [ 94.6335859, 26.3339691 ], [ 94.6336309, 26.3322858 ], [ 94.6353787, 26.3319653 ], [ 94.6363352, 26.3299616 ], [ 94.6379981, 26.3300291 ], [ 94.6385896, 26.3367399 ], [ 94.6421705, 26.3359002 ], [ 94.6468891, 26.3390227 ], [ 94.6506355, 26.3385754 ], [ 94.6509814, 26.3404798 ], [ 94.6527997, 26.3413732 ], [ 94.6529052, 26.3424563 ], [ 94.6506764, 26.34312 ], [ 94.6524952, 26.3459855 ], [ 94.6506019, 26.3471411 ], [ 94.6511031, 26.3480706 ], [ 94.6573841, 26.3471218 ], [ 94.6557168, 26.3502542 ], [ 94.6512841, 26.3516223 ], [ 94.6552978, 26.3576736 ], [ 94.6532541, 26.3586126 ], [ 94.6532346, 26.3616003 ], [ 94.6571074, 26.3626465 ], [ 94.6592575, 26.3665002 ], [ 94.6621581, 26.365791 ], [ 94.663763, 26.372023 ], [ 94.6627913, 26.3730522 ], [ 94.6593189, 26.3717262 ], [ 94.6574662, 26.3758876 ], [ 94.6610892, 26.3778228 ], [ 94.6626282, 26.3808281 ], [ 94.6701025, 26.3767781 ], [ 94.6709996, 26.3776037 ], [ 94.6683298, 26.3795946 ], [ 94.6709111, 26.3823829 ], [ 94.6781309, 26.3814465 ], [ 94.6775317, 26.3864335 ], [ 94.6804281, 26.3868747 ], [ 94.6794371, 26.3895423 ], [ 94.6889212, 26.3963306 ], [ 94.6858052, 26.3984665 ], [ 94.6861281, 26.4028168 ], [ 94.6899822, 26.4034967 ], [ 94.6869067, 26.4067112 ], [ 94.6909175, 26.4093586 ], [ 94.693315, 26.4129228 ], [ 94.6969682, 26.4121359 ], [ 94.7008902, 26.4085372 ], [ 94.7024489, 26.4085679 ], [ 94.6996332, 26.4184256 ], [ 94.7005918, 26.4204515 ], [ 94.7031884, 26.4208292 ], [ 94.70462, 26.4255987 ], [ 94.7031946, 26.4306674 ], [ 94.7007838, 26.4311109 ], [ 94.7056885, 26.4345382 ], [ 94.7071695, 26.4378047 ], [ 94.7105224, 26.4368055 ], [ 94.7117161, 26.4377254 ], [ 94.7081649, 26.4421682 ], [ 94.7106739, 26.4455605 ], [ 94.7080279, 26.4473425 ], [ 94.7160641, 26.4488736 ], [ 94.7178732, 26.4505671 ], [ 94.7228544, 26.4487208 ], [ 94.7289035, 26.4485644 ], [ 94.7357393, 26.4509807 ], [ 94.7364208, 26.4532666 ], [ 94.7404264, 26.4563464 ], [ 94.7477454, 26.4581252 ] ] ] } }
]
}
