{
"type": "FeatureCollection",
"name": "1304",
"crs": { "type": "name", "properties": { "name": "urn:ogc:def:crs:OGC:1.3:CRS84" } },
"features": [
{ "type": "Feature", "properties": { "code": "1304", "name": "Zunheboto", "type": "district" }, "geometry": { "type": "Polygon", "coordinates": [ [ [ 94.4911545, 26.2750535 ], [ 94.4958693, 26.274278 ], [ 94.4971412, 26.2682024 ], [ 94.498898, 26.2682266 ], [ 94.4976107, 26.260156 ], [ 94.4995418, 26.2566061 ], [ 94.4982074, 26.2549351 ], [ 94.5007212, 26.2528172 ], [ 94.5059966, 26.2526593 ], [ 94.5059341, 26.2448495 ], [ 94.509853, 26.2428379 ], [ 94.5108971, 26.2402509 ], [ 94.5140112, 26.2415156 ], [ 94.515985, 26.2394502 ], [ 94.5137392, 26.2382389 ], [ 94.512202, 26.2391674 ], [ 94.5134964, 26.2358965 ], [ 94.5116081, 26.2356398 ], [ 94.5086757, 26.232634 ], [ 94.5086332, 26.2349763 ], [ 94.505911, 26.2349153 ], [ 94.5055488, 26.2319319 ], [ 94.5022406, 26.2323893 ], [ 94.5001374, 26.2292373 ], [ 94.4978632, 26.2293936 ], [ 94.4988756, 26.2273015 ], [ 94.5013731, 26.2278025 ], [ 94.5016598, 26.2269223 ], [ 94.5007959, 26.2253449 ], [ 94.4974122, 26.2246372 ], [ 94.4982725, 26.2191987 ], [ 94.496171, 26.2188713 ], [ 94.4992244, 26.2164248 ], [ 94.4991481, 26.2142932 ], [ 94.5035005, 26.2149221 ], [ 94.5066059, 26.2116602 ], [ 94.505224, 26.2078996 ], [ 94.5025838, 26.2066472 ], [ 94.5073848, 26.2036862 ], [ 94.5047284, 26.2034854 ], [ 94.5037802, 26.2013544 ], [ 94.5078218, 26.2019491 ], [ 94.5134305, 26.1962898 ], [ 94.5108151, 26.1953941 ], [ 94.5112765, 26.1893154 ], [ 94.509313, 26.1869489 ], [ 94.5128033, 26.1839711 ], [ 94.5149346, 26.1838654 ], [ 94.5139306, 26.1802977 ], [ 94.5154119, 26.1781501 ], [ 94.5179338, 26.178386 ], [ 94.5174009, 26.1800984 ], [ 94.5205126, 26.1794151 ], [ 94.5245392, 26.1814714 ], [ 94.5264211, 26.1808369 ], [ 94.5350877, 26.1851552 ], [ 94.5387075, 26.1840959 ], [ 94.5512401, 26.1866887 ], [ 94.5631844, 26.1832643 ], [ 94.5696491, 26.1875162 ], [ 94.5695623, 26.1931421 ], [ 94.583457, 26.2066497 ], [ 94.587237, 26.213149 ], [ 94.5916266, 26.2076684 ], [ 94.5957449, 26.2048804 ], [ 94.595821, 26.2013602 ], [ 94.5987479, 26.2002687 ], [ 94.5997041, 26.1975114 ], [ 94.6057331, 26.1971296 ], [ 94.6124313, 26.1936322 ], [ 94.6176433, 26.1985295 ], [ 94.6237715, 26.1999424 ], [ 94.6253972, 26.2048346 ], [ 94.6315458, 26.20789 ], [ 94.6356988, 26.2153771 ], [ 94.6381505, 26.2172363 ], [ 94.6428785, 26.2142709 ], [ 94.646425, 26.208724 ], [ 94.6564507, 26.2033133 ], [ 94.6597673, 26.2053821 ], [ 94.6599181, 26.2078823 ], [ 94.6623792, 26.206591 ], [ 94.6622699, 26.2091364 ], [ 94.6647763, 26.2088786 ], [ 94.6666181, 26.2110308 ], [ 94.6663185, 26.2127143 ], [ 94.6723116, 26.2106682 ], [ 94.6728756, 26.2070215 ], [ 94.6757671, 26.2064745 ], [ 94.6779513, 26.2014101 ], [ 94.6809468, 26.1986606 ], [ 94.6842437, 26.1990926 ], [ 94.6871639, 26.1962934 ], [ 94.6885008, 26.19859 ], [ 94.6894161, 26.1982557 ], [ 94.689474, 26.1940765 ], [ 94.6924684, 26.190379 ], [ 94.6937352, 26.1834329 ], [ 94.6966786, 26.1786431 ], [ 94.6956327, 26.1777545 ], [ 94.6966195, 26.171526 ], [ 94.6994704, 26.1714886 ], [ 94.7003465, 26.1730361 ], [ 94.7034029, 26.1737296 ], [ 94.7057375, 26.1720089 ], [ 94.7031203, 26.1696905 ], [ 94.6991587, 26.152123 ], [ 94.6950696, 26.1457389 ], [ 94.6943975, 26.1419663 ], [ 94.6883301, 26.1376589 ], [ 94.6891195, 26.1366115 ], [ 94.6875559, 26.1292196 ], [ 94.6884292, 26.1260646 ], [ 94.6873941, 26.1154547 ], [ 94.6892363, 26.1107061 ], [ 94.69146, 26.1091121 ], [ 94.6882783, 26.104167 ], [ 94.6887682, 26.0943643 ], [ 94.6936716, 26.0854262 ], [ 94.69208, 26.0812477 ], [ 94.6925555, 26.0731599 ], [ 94.6899315, 26.0724976 ], [ 94.6878356, 26.0683374 ], [ 94.6841919, 26.0664749 ], [ 94.6826949, 26.0601435 ], [ 94.6803401, 26.0571295 ], [ 94.6705468, 26.0507885 ], [ 94.6761149, 26.0427922 ], [ 94.685685, 26.0401776 ], [ 94.68708, 26.0380647 ], [ 94.6799054, 26.0337199 ], [ 94.6801493, 26.0316618 ], [ 94.67804, 26.0288779 ], [ 94.6733984, 26.0263926 ], [ 94.6680408, 26.0185277 ], [ 94.6677948, 26.0147908 ], [ 94.6642126, 26.0113978 ], [ 94.6631575, 26.0072414 ], [ 94.6559546, 26.0034879 ], [ 94.6566984, 26.0014758 ], [ 94.6524938, 25.9964641 ], [ 94.6513478, 25.9923323 ], [ 94.6434029, 25.9866248 ], [ 94.6418534, 25.981563 ], [ 94.6331596, 25.9708304 ], [ 94.6306463, 25.964739 ], [ 94.6279291, 25.9634838 ], [ 94.6253364, 25.9567601 ], [ 94.6216452, 25.9536805 ], [ 94.6148784, 25.9414566 ], [ 94.6096898, 25.9382094 ], [ 94.6109186, 25.9359924 ], [ 94.6086565, 25.9346557 ], [ 94.6074233, 25.9317791 ], [ 94.6036631, 25.9313767 ], [ 94.6022556, 25.9275564 ], [ 94.5993996, 25.9259032 ], [ 94.5989509, 25.9228777 ], [ 94.5959054, 25.9211205 ], [ 94.5937552, 25.9141031 ], [ 94.5870607, 25.9102677 ], [ 94.5863782, 25.9059597 ], [ 94.5832132, 25.9044235 ], [ 94.5743059, 25.8944097 ], [ 94.5719695, 25.8944902 ], [ 94.5698202, 25.8896667 ], [ 94.5723665, 25.8885886 ], [ 94.5762474, 25.8835643 ], [ 94.5807609, 25.8813396 ], [ 94.5920576, 25.8790578 ], [ 94.5958821, 25.8753741 ], [ 94.5975655, 25.8699197 ], [ 94.6020589, 25.8623076 ], [ 94.6027387, 25.8577379 ], [ 94.6102263, 25.8441384 ], [ 94.6096482, 25.8383903 ], [ 94.6107166, 25.8341819 ], [ 94.6084717, 25.8305423 ], [ 94.6028495, 25.8262429 ], [ 94.6102756, 25.8179851 ], [ 94.6154941, 25.8157399 ], [ 94.6235771, 25.818027 ], [ 94.6282205, 25.8155887 ], [ 94.6408612, 25.8175099 ], [ 94.6513063, 25.8156228 ], [ 94.6575859, 25.8131241 ], [ 94.662803, 25.8089428 ], [ 94.6752364, 25.8039489 ], [ 94.6786264, 25.8037519 ], [ 94.6849677, 25.8004076 ], [ 94.6879273, 25.7972424 ], [ 94.6948973, 25.7931403 ], [ 94.6985716, 25.788664 ], [ 94.7015274, 25.7839095 ], [ 94.7030297, 25.7771742 ], [ 94.70489, 25.7756823 ], [ 94.7063876, 25.7703068 ], [ 94.712909, 25.759472 ], [ 94.6958238, 25.7574852 ], [ 94.6780228, 25.7703633 ], [ 94.6689638, 25.7725585 ], [ 94.6585158, 25.7777613 ], [ 94.6470233, 25.7765615 ], [ 94.6428783, 25.7712127 ], [ 94.6366557, 25.769332 ], [ 94.6220596, 25.7707492 ], [ 94.6133804, 25.7769951 ], [ 94.6068317, 25.7785982 ], [ 94.5959701, 25.7634281 ], [ 94.5860511, 25.7554242 ], [ 94.5843084, 25.7500481 ], [ 94.5811276, 25.74849 ], [ 94.5701539, 25.7380374 ], [ 94.5632051, 25.7331058 ], [ 94.5597226, 25.7320346 ], [ 94.5532708, 25.7380115 ], [ 94.5518754, 25.7458234 ], [ 94.538822, 25.7483303 ], [ 94.5305227, 25.7468965 ], [ 94.5279703, 25.745127 ], [ 94.5266283, 25.7463321 ], [ 94.5278428, 25.7522142 ], [ 94.5272214, 25.7582778 ], [ 94.5287655, 25.7608577 ], [ 94.5297577, 25.7690186 ], [ 94.5322258, 25.7722388 ], [ 94.5340795, 25.780914 ], [ 94.5357848, 25.782683 ], [ 94.5355174, 25.7855318 ], [ 94.5384598, 25.7905434 ], [ 94.538515, 25.7965101 ], [ 94.5415734, 25.8003122 ], [ 94.5416644, 25.8121778 ], [ 94.5294894, 25.8224297 ], [ 94.5180916, 25.8250372 ], [ 94.5155608, 25.8228833 ], [ 94.5144375, 25.8191138 ], [ 94.5174463, 25.8171663 ], [ 94.5176723, 25.815429 ], [ 94.5157081, 25.8148587 ], [ 94.5111637, 25.8167101 ], [ 94.5067762, 25.8222396 ], [ 94.5007712, 25.8256042 ], [ 94.4942816, 25.8316888 ], [ 94.4812863, 25.8331021 ], [ 94.4725284, 25.8324309 ], [ 94.4702523, 25.8299411 ], [ 94.4664472, 25.829993 ], [ 94.4643543, 25.8322374 ], [ 94.4651954, 25.8367863 ], [ 94.4620869, 25.8420009 ], [ 94.4630313, 25.846287 ], [ 94.4601575, 25.8493076 ], [ 94.4538779, 25.8492661 ], [ 94.4505412, 25.847739 ], [ 94.4409285, 25.8465394 ], [ 94.434878, 25.8439746 ], [ 94.4272944, 25.8485234 ], [ 94.4191977, 25.847237 ], [ 94.4119034, 25.8438434 ], [ 94.4058021, 25.8437163 ], [ 94.4016216, 25.8410329 ], [ 94.4000539, 25.8379822 ], [ 94.3951437, 25.8359532 ], [ 94.3915527, 25.8371903 ], [ 94.3853735, 25.8345067 ], [ 94.3723497, 25.8258352 ], [ 94.3652355, 25.8267145 ], [ 94.3613259, 25.8212494 ], [ 94.3539326, 25.8187533 ], [ 94.3539803, 25.8207698 ], [ 94.3494688, 25.8194457 ], [ 94.3478722, 25.8206829 ], [ 94.3436417, 25.8190664 ], [ 94.3395566, 25.8249514 ], [ 94.3366603, 25.8263316 ], [ 94.3329602, 25.8115628 ], [ 94.3299276, 25.8100597 ], [ 94.3286947, 25.8067923 ], [ 94.3264934, 25.8056727 ], [ 94.3228212, 25.7885359 ], [ 94.3180602, 25.7845187 ], [ 94.3157753, 25.7801968 ], [ 94.3173293, 25.7769358 ], [ 94.3171073, 25.7727648 ], [ 94.3194675, 25.7714871 ], [ 94.3198714, 25.7690064 ], [ 94.3239458, 25.7645295 ], [ 94.3226507, 25.7606555 ], [ 94.3189591, 25.7582129 ], [ 94.3181117, 25.7551093 ], [ 94.312307, 25.7504062 ], [ 94.3066013, 25.7492243 ], [ 94.2997238, 25.7492388 ], [ 94.2934756, 25.7516755 ], [ 94.26793, 25.7530729 ], [ 94.2582166, 25.7586032 ], [ 94.259962, 25.7652291 ], [ 94.262072, 25.7666995 ], [ 94.2616922, 25.7682163 ], [ 94.2636809, 25.7710286 ], [ 94.2631992, 25.7726297 ], [ 94.2662387, 25.7749453 ], [ 94.2649135, 25.7775253 ], [ 94.2671504, 25.7780741 ], [ 94.2671619, 25.7810261 ], [ 94.271085, 25.7872037 ], [ 94.273795, 25.7897865 ], [ 94.2755267, 25.789889 ], [ 94.2762013, 25.7932192 ], [ 94.2728816, 25.7947823 ], [ 94.2765549, 25.7959577 ], [ 94.2774212, 25.7975416 ], [ 94.276329, 25.8000741 ], [ 94.2806079, 25.8036277 ], [ 94.2822656, 25.8035916 ], [ 94.2815043, 25.8073551 ], [ 94.2775373, 25.810567 ], [ 94.2666433, 25.8133323 ], [ 94.2637048, 25.8113019 ], [ 94.263828, 25.8100241 ], [ 94.2606256, 25.8091289 ], [ 94.2615624, 25.8069532 ], [ 94.2589138, 25.8061638 ], [ 94.2602096, 25.803531 ], [ 94.256065, 25.8050156 ], [ 94.2536712, 25.809975 ], [ 94.2543617, 25.8111711 ], [ 94.2477263, 25.816965 ], [ 94.2481951, 25.8200841 ], [ 94.2426473, 25.8279309 ], [ 94.2403737, 25.8285634 ], [ 94.2364321, 25.8325195 ], [ 94.2306724, 25.8347776 ], [ 94.2291803, 25.8414482 ], [ 94.2293753, 25.8458222 ], [ 94.2313185, 25.8489522 ], [ 94.2304371, 25.8506769 ], [ 94.2250422, 25.8533634 ], [ 94.2212189, 25.8519727 ], [ 94.2149388, 25.8544952 ], [ 94.2143625, 25.8578699 ], [ 94.21248, 25.8582295 ], [ 94.2105976, 25.8615713 ], [ 94.2142355, 25.8644055 ], [ 94.216812, 25.8699833 ], [ 94.2241535, 25.8758574 ], [ 94.2289565, 25.8831318 ], [ 94.2274824, 25.8865071 ], [ 94.2275104, 25.8923106 ], [ 94.2308072, 25.8985058 ], [ 94.2300775, 25.904391 ], [ 94.2319493, 25.9060091 ], [ 94.2345033, 25.9122115 ], [ 94.2374538, 25.9116722 ], [ 94.2396588, 25.9136234 ], [ 94.24253, 25.9146386 ], [ 94.2433073, 25.9138772 ], [ 94.2444018, 25.9153683 ], [ 94.2449729, 25.9143689 ], [ 94.2478892, 25.9174625 ], [ 94.2479997, 25.9210557 ], [ 94.2507317, 25.9207328 ], [ 94.2524432, 25.923203 ], [ 94.2565673, 25.9216901 ], [ 94.2559898, 25.9201822 ], [ 94.2572235, 25.9193438 ], [ 94.2609863, 25.9195771 ], [ 94.2606998, 25.9217161 ], [ 94.2641725, 25.9225222 ], [ 94.2718856, 25.9202987 ], [ 94.271999, 25.9218377 ], [ 94.2758914, 25.9223415 ], [ 94.2816184, 25.9255094 ], [ 94.2829828, 25.9294006 ], [ 94.2876303, 25.9285913 ], [ 94.2897684, 25.9327313 ], [ 94.2956904, 25.9364764 ], [ 94.295489, 25.9390217 ], [ 94.2987727, 25.9402511 ], [ 94.2946552, 25.9462198 ], [ 94.2928468, 25.9548751 ], [ 94.2898077, 25.9597295 ], [ 94.2905391, 25.9700682 ], [ 94.2926376, 25.9729821 ], [ 94.295996, 25.9739335 ], [ 94.2981937, 25.9766326 ], [ 94.2959349, 25.9861208 ], [ 94.2982228, 25.9887923 ], [ 94.3004792, 25.9951541 ], [ 94.2981031, 25.9983538 ], [ 94.2994355, 26.0053336 ], [ 94.2986825, 26.0066322 ], [ 94.3055507, 26.0088362 ], [ 94.3069819, 26.012033 ], [ 94.3099349, 26.0119356 ], [ 94.3170408, 26.0184827 ], [ 94.3232853, 26.0167748 ], [ 94.3217577, 26.01519 ], [ 94.3247005, 26.0134401 ], [ 94.3230379, 26.0118959 ], [ 94.325521, 26.0103669 ], [ 94.3256387, 26.0042741 ], [ 94.3276714, 25.999486 ], [ 94.3328044, 25.9981907 ], [ 94.3356482, 25.9998134 ], [ 94.3381835, 25.9981363 ], [ 94.3390005, 25.9995421 ], [ 94.3417808, 26.000193 ], [ 94.3454813, 26.0044787 ], [ 94.3494824, 26.0041338 ], [ 94.3534568, 26.0069852 ], [ 94.3602293, 26.0072706 ], [ 94.3627713, 26.008661 ], [ 94.3611029, 26.0100915 ], [ 94.3575169, 26.0090123 ], [ 94.3561133, 26.0097748 ], [ 94.3594485, 26.0165632 ], [ 94.3577793, 26.0216402 ], [ 94.3623892, 26.0260773 ], [ 94.3602459, 26.0279726 ], [ 94.3636023, 26.0310149 ], [ 94.3703001, 26.0469199 ], [ 94.3702996, 26.0529404 ], [ 94.3746064, 26.0559509 ], [ 94.3783987, 26.067261 ], [ 94.3807523, 26.0679199 ], [ 94.3821966, 26.0727309 ], [ 94.3874939, 26.0749828 ], [ 94.3868494, 26.0785617 ], [ 94.3905681, 26.0840495 ], [ 94.3899985, 26.0855343 ], [ 94.3833165, 26.0870827 ], [ 94.3853258, 26.0897002 ], [ 94.3835016, 26.0924533 ], [ 94.3844314, 26.0955267 ], [ 94.3809426, 26.0941684 ], [ 94.379873, 26.1005454 ], [ 94.3828721, 26.1033706 ], [ 94.3825473, 26.1082403 ], [ 94.3866515, 26.1098378 ], [ 94.3869518, 26.1158718 ], [ 94.3849226, 26.1255842 ], [ 94.3789581, 26.1265546 ], [ 94.3773282, 26.1299078 ], [ 94.3693186, 26.130792 ], [ 94.3659382, 26.1353139 ], [ 94.3634133, 26.1349706 ], [ 94.3626926, 26.1403908 ], [ 94.3600871, 26.1429223 ], [ 94.3606964, 26.1472369 ], [ 94.3527195, 26.1524799 ], [ 94.3506885, 26.1555936 ], [ 94.347518, 26.1554936 ], [ 94.3472686, 26.1711089 ], [ 94.3457127, 26.1727964 ], [ 94.3351497, 26.1721572 ], [ 94.3361939, 26.1750323 ], [ 94.3352273, 26.1784304 ], [ 94.3372778, 26.1791215 ], [ 94.3379539, 26.1768065 ], [ 94.3409497, 26.177394 ], [ 94.3470108, 26.1811233 ], [ 94.3493211, 26.1833668 ], [ 94.3476902, 26.1844451 ], [ 94.351361, 26.1871853 ], [ 94.3553727, 26.1870687 ], [ 94.3571129, 26.1902462 ], [ 94.3599095, 26.188139 ], [ 94.3653864, 26.1928468 ], [ 94.3747258, 26.1939576 ], [ 94.377257, 26.1963992 ], [ 94.3849809, 26.1968459 ], [ 94.3873724, 26.2002261 ], [ 94.3913848, 26.2024192 ], [ 94.3957372, 26.2019991 ], [ 94.3990398, 26.2067193 ], [ 94.4054602, 26.2116998 ], [ 94.4093444, 26.2102962 ], [ 94.4186679, 26.2125601 ], [ 94.4247579, 26.211024 ], [ 94.4268719, 26.2081095 ], [ 94.4311392, 26.2062118 ], [ 94.4367626, 26.2070049 ], [ 94.4409841, 26.2052182 ], [ 94.4437867, 26.206977 ], [ 94.4455423, 26.2061052 ], [ 94.4458644, 26.2095846 ], [ 94.4440934, 26.2096667 ], [ 94.4448251, 26.2120131 ], [ 94.4435348, 26.2130201 ], [ 94.4449072, 26.2156822 ], [ 94.4441031, 26.2182415 ], [ 94.4487907, 26.2254737 ], [ 94.4519034, 26.2260228 ], [ 94.4549087, 26.2308322 ], [ 94.4541997, 26.2331929 ], [ 94.4591007, 26.2361508 ], [ 94.4560901, 26.2391491 ], [ 94.4546274, 26.2447099 ], [ 94.458824, 26.2487107 ], [ 94.4597583, 26.2546711 ], [ 94.4673354, 26.2739328 ], [ 94.4750453, 26.280932 ], [ 94.4788656, 26.2935614 ], [ 94.4832759, 26.2927685 ], [ 94.4856332, 26.2808299 ], [ 94.4911545, 26.2750535 ] ] ] } }
]
}
