{
"type": "FeatureCollection",
"name": "1307",
"crs": { "type": "name", "properties": { "name": "urn:ogc:def:crs:OGC:1.3:CRS84" } },
"features": [
{ "type": "Feature", "properties": { "code": "1307", "name": "Kohima", "type": "district" }, "geometry": { "type": "Polygon", "coordinates": [ [ [ 94.0238971, 25.918399 ], [ 94.0303679, 25.9142147 ], [ 94.027357, 25.9082392 ], [ 94.0205576, 25.9033587 ], [ 94.0206545, 25.9010765 ], [ 94.0188103, 25.8999928 ], [ 94.0192922, 25.8986496 ], [ 94.0214727, 25.8992302 ], [ 94.0232402, 25.897904 ], [ 94.0288724, 25.9053968 ], [ 94.0420987, 25.9041851 ], [ 94.0433222, 25.9054518 ], [ 94.0431373, 25.9083814 ], [ 94.0535958, 25.905165 ], [ 94.0634778, 25.8988191 ], [ 94.0694075, 25.8984473 ], [ 94.070514, 25.9026762 ], [ 94.0723375, 25.9038387 ], [ 94.0712467, 25.9075071 ], [ 94.0733454, 25.9088588 ], [ 94.0769161, 25.9150381 ], [ 94.0862292, 25.9087897 ], [ 94.088034, 25.9050745 ], [ 94.0961543, 25.8979316 ], [ 94.0996669, 25.8985221 ], [ 94.1073773, 25.8942533 ], [ 94.1148743, 25.8942217 ], [ 94.1210476, 25.8966735 ], [ 94.1229172, 25.9028277 ], [ 94.127269, 25.900373 ], [ 94.1305142, 25.9024002 ], [ 94.1397632, 25.91053 ], [ 94.142304, 25.9151442 ], [ 94.1465282, 25.9167219 ], [ 94.1548873, 25.9088918 ], [ 94.153914, 25.907181 ], [ 94.1575929, 25.9054334 ], [ 94.1595457, 25.9020136 ], [ 94.1614111, 25.9013191 ], [ 94.1596541, 25.8977366 ], [ 94.1601645, 25.8961306 ], [ 94.1570668, 25.8933807 ], [ 94.1572397, 25.8843983 ], [ 94.1629969, 25.8795953 ], [ 94.1594246, 25.8709792 ], [ 94.1629512, 25.8665416 ], [ 94.1607398, 25.8639561 ], [ 94.1614051, 25.859615 ], [ 94.1680827, 25.8604331 ], [ 94.1714788, 25.8630777 ], [ 94.1867185, 25.8593501 ], [ 94.1967451, 25.8623711 ], [ 94.2025139, 25.8659685 ], [ 94.2067252, 25.8661565 ], [ 94.21248, 25.8582295 ], [ 94.2143625, 25.8578699 ], [ 94.2148076, 25.854569 ], [ 94.2212189, 25.8519727 ], [ 94.2250422, 25.8533634 ], [ 94.2304371, 25.8506769 ], [ 94.2313185, 25.8489522 ], [ 94.2293753, 25.8458222 ], [ 94.2291803, 25.8414482 ], [ 94.2306724, 25.8347776 ], [ 94.2364321, 25.8325195 ], [ 94.2403737, 25.8285634 ], [ 94.2426473, 25.8279309 ], [ 94.2481951, 25.8200841 ], [ 94.2477263, 25.816965 ], [ 94.2543617, 25.8111711 ], [ 94.2536712, 25.809975 ], [ 94.256065, 25.8050156 ], [ 94.2600459, 25.8034026 ], [ 94.2589138, 25.8061638 ], [ 94.2615624, 25.8069532 ], [ 94.2606256, 25.8091289 ], [ 94.263828, 25.8100241 ], [ 94.2638765, 25.8114819 ], [ 94.2674473, 25.8134038 ], [ 94.2775373, 25.810567 ], [ 94.2818293, 25.8063514 ], [ 94.2822656, 25.8035916 ], [ 94.2806079, 25.8036277 ], [ 94.276329, 25.8000741 ], [ 94.2771633, 25.7966224 ], [ 94.2752983, 25.7949052 ], [ 94.2728816, 25.7947823 ], [ 94.2762013, 25.7932192 ], [ 94.2755267, 25.789889 ], [ 94.273795, 25.7897865 ], [ 94.271085, 25.7872037 ], [ 94.2671619, 25.7810261 ], [ 94.2671504, 25.7780741 ], [ 94.2649135, 25.7775253 ], [ 94.2662387, 25.7749453 ], [ 94.2631992, 25.7726297 ], [ 94.2636809, 25.7710286 ], [ 94.2616922, 25.7682163 ], [ 94.262072, 25.7666995 ], [ 94.259962, 25.7652291 ], [ 94.2589486, 25.7591237 ], [ 94.2555079, 25.755868 ], [ 94.2527127, 25.7504738 ], [ 94.2486439, 25.748914 ], [ 94.2461145, 25.7455124 ], [ 94.2452984, 25.7412913 ], [ 94.2461281, 25.7385361 ], [ 94.2433983, 25.7328428 ], [ 94.237759, 25.7265974 ], [ 94.235154, 25.7204493 ], [ 94.2300908, 25.7139731 ], [ 94.2317261, 25.7115515 ], [ 94.2303636, 25.7091726 ], [ 94.2321151, 25.7093067 ], [ 94.2334395, 25.704611 ], [ 94.2315768, 25.7049957 ], [ 94.2286862, 25.7024445 ], [ 94.2318694, 25.6984666 ], [ 94.2310546, 25.6947027 ], [ 94.2189302, 25.68315 ], [ 94.2167805, 25.6787764 ], [ 94.217531, 25.676602 ], [ 94.2132644, 25.6724997 ], [ 94.2139262, 25.6688431 ], [ 94.2194083, 25.6660553 ], [ 94.218026, 25.6592324 ], [ 94.2202645, 25.6568429 ], [ 94.2179928, 25.6524017 ], [ 94.2186235, 25.6486665 ], [ 94.2149491, 25.6395847 ], [ 94.2159623, 25.6362549 ], [ 94.2141668, 25.6335671 ], [ 94.2142054, 25.6312663 ], [ 94.2111347, 25.6312688 ], [ 94.2083244, 25.628671 ], [ 94.2105014, 25.6249138 ], [ 94.2082216, 25.6185694 ], [ 94.2099021, 25.6154776 ], [ 94.2095974, 25.613357 ], [ 94.2123428, 25.6131548 ], [ 94.2143963, 25.610043 ], [ 94.2108587, 25.603238 ], [ 94.2119955, 25.6004288 ], [ 94.2070113, 25.5954202 ], [ 94.2072305, 25.592041 ], [ 94.1967792, 25.5818564 ], [ 94.1973193, 25.5742949 ], [ 94.1952218, 25.5737637 ], [ 94.193823, 25.569446 ], [ 94.1938711, 25.5622062 ], [ 94.196701, 25.5582267 ], [ 94.1953948, 25.5544126 ], [ 94.1920861, 25.5484137 ], [ 94.1876891, 25.5461617 ], [ 94.1786242, 25.5484909 ], [ 94.175408, 25.5454278 ], [ 94.1637662, 25.5422804 ], [ 94.1593907, 25.5452012 ], [ 94.1560075, 25.5505378 ], [ 94.1487577, 25.5431444 ], [ 94.1440639, 25.5269938 ], [ 94.1411021, 25.5229497 ], [ 94.1346005, 25.519016 ], [ 94.1019852, 25.5242947 ], [ 94.0880491, 25.5281536 ], [ 94.0884658, 25.533397 ], [ 94.0921275, 25.5371471 ], [ 94.0909065, 25.5418689 ], [ 94.0819238, 25.5551863 ], [ 94.0760335, 25.5570585 ], [ 94.0654148, 25.5544768 ], [ 94.0607052, 25.5618736 ], [ 94.0501655, 25.5723011 ], [ 94.0420593, 25.5765139 ], [ 94.0396878, 25.5730388 ], [ 94.0350722, 25.5754318 ], [ 94.0352432, 25.5786024 ], [ 94.0309598, 25.5770716 ], [ 94.029494, 25.5802888 ], [ 94.0233568, 25.5835915 ], [ 94.0216167, 25.5889975 ], [ 94.0108563, 25.5917657 ], [ 94.0065145, 25.5910486 ], [ 94.00378, 25.586584 ], [ 94.0039406, 25.5831754 ], [ 94.0078599, 25.574724 ], [ 94.0083753, 25.5709272 ], [ 94.0065037, 25.5669348 ], [ 94.0035349, 25.5654832 ], [ 93.996715, 25.569531 ], [ 93.9765984, 25.5669369 ], [ 93.9739813, 25.5618555 ], [ 93.9687665, 25.5568836 ], [ 93.9613512, 25.5522949 ], [ 93.9535319, 25.552482 ], [ 93.9388294, 25.5593222 ], [ 93.9388971, 25.5647099 ], [ 93.9410772, 25.5683711 ], [ 93.9358805, 25.5743103 ], [ 93.9312739, 25.5771847 ], [ 93.9309503, 25.5802684 ], [ 93.9278855, 25.5872926 ], [ 93.9251063, 25.5900718 ], [ 93.9241164, 25.5942406 ], [ 93.9129187, 25.6020097 ], [ 93.9070177, 25.601058 ], [ 93.9060469, 25.6059882 ], [ 93.9031725, 25.6094717 ], [ 93.9020091, 25.6212093 ], [ 93.8956828, 25.6309144 ], [ 93.8943116, 25.6425121 ], [ 93.8981473, 25.6556533 ], [ 93.9066181, 25.6687854 ], [ 93.9149474, 25.6738091 ], [ 93.9163267, 25.6774808 ], [ 93.9192991, 25.6778305 ], [ 93.9167736, 25.6829982 ], [ 93.9118257, 25.6862492 ], [ 93.9110325, 25.68826 ], [ 93.9118099, 25.6900351 ], [ 93.9105726, 25.6956326 ], [ 93.9152607, 25.6998823 ], [ 93.915287, 25.7060133 ], [ 93.9194541, 25.7049933 ], [ 93.9221351, 25.7092406 ], [ 93.9254426, 25.7101586 ], [ 93.929153, 25.7101971 ], [ 93.9331505, 25.7074179 ], [ 93.9375025, 25.7092878 ], [ 93.9416024, 25.7129954 ], [ 93.9485577, 25.712272 ], [ 93.9556694, 25.7154256 ], [ 93.9599096, 25.7138714 ], [ 93.9646966, 25.7173365 ], [ 93.9693088, 25.717652 ], [ 93.9777448, 25.7257015 ], [ 93.978804, 25.7226683 ], [ 93.98187, 25.7211152 ], [ 93.9841448, 25.7244161 ], [ 93.9871846, 25.7260357 ], [ 93.9898483, 25.7336039 ], [ 93.9949203, 25.7408626 ], [ 93.9925674, 25.7443653 ], [ 93.9892453, 25.7465343 ], [ 93.9895498, 25.7546541 ], [ 93.9849991, 25.7598658 ], [ 93.9836568, 25.7638205 ], [ 93.9803434, 25.7662095 ], [ 93.9802782, 25.7689501 ], [ 93.977543, 25.7722249 ], [ 93.9797497, 25.7739971 ], [ 93.9824283, 25.7806313 ], [ 93.9848061, 25.7818463 ], [ 93.9839933, 25.7843139 ], [ 93.9863523, 25.7885471 ], [ 93.9884629, 25.7892476 ], [ 93.9885295, 25.7915816 ], [ 93.9959382, 25.7952314 ], [ 94.0053288, 25.7940925 ], [ 94.0080084, 25.7999071 ], [ 94.0142221, 25.8048622 ], [ 94.0178711, 25.8106513 ], [ 94.0219452, 25.8118507 ], [ 94.0284589, 25.8162839 ], [ 94.0311727, 25.8275667 ], [ 94.0299209, 25.8394207 ], [ 94.0386431, 25.8461523 ], [ 94.0416056, 25.8505781 ], [ 94.0426763, 25.8548656 ], [ 94.038487, 25.8582786 ], [ 94.0318397, 25.8604197 ], [ 94.0303626, 25.8620664 ], [ 94.0265013, 25.8614606 ], [ 94.0227001, 25.8652931 ], [ 94.0191245, 25.8656091 ], [ 94.0152948, 25.8678045 ], [ 94.0136535, 25.8672762 ], [ 94.0098576, 25.872542 ], [ 94.0059502, 25.8749956 ], [ 94.0058244, 25.8773783 ], [ 94.0007528, 25.8784759 ], [ 94.0030074, 25.8815899 ], [ 94.0086309, 25.8833229 ], [ 94.0081852, 25.8851631 ], [ 94.0098996, 25.8861931 ], [ 94.0085584, 25.8871829 ], [ 94.0089514, 25.8906682 ], [ 94.0075795, 25.8924038 ], [ 94.0046053, 25.8945055 ], [ 94.0009441, 25.8946124 ], [ 94.0014968, 25.8894884 ], [ 93.9987037, 25.8945374 ], [ 94.0004972, 25.901847 ], [ 94.0033618, 25.9042934 ], [ 94.0083036, 25.9036236 ], [ 94.0128395, 25.9097754 ], [ 94.0188715, 25.9126077 ], [ 94.0229798, 25.9220429 ], [ 94.0240274, 25.9221677 ], [ 94.0238971, 25.918399 ] ] ] } }
]
}
