{
"type": "FeatureCollection",
"name": "1310",
"crs": { "type": "name", "properties": { "name": "urn:ogc:def:crs:OGC:1.3:CRS84" } },
"features": [
{ "type": "Feature", "properties": { "code": "1310", "name": "Kiphire", "type": "district" }, "geometry": { "type": "Polygon", "coordinates": [ [ [ 94.6736771, 26.0266271 ], [ 94.6810279, 26.020637 ], [ 94.685844, 26.0139745 ], [ 94.6910839, 26.0122905 ], [ 94.6974272, 26.0136221 ], [ 94.7005918, 26.0157738 ], [ 94.7022134, 26.0181223 ], [ 94.7013886, 26.0201494 ], [ 94.7049674, 26.0222044 ], [ 94.7070224, 26.0209602 ], [ 94.713467, 26.0247347 ], [ 94.7176426, 26.0256251 ], [ 94.7196091, 26.0251838 ], [ 94.7229955, 26.0215103 ], [ 94.7272443, 26.0226376 ], [ 94.7331077, 26.0195929 ], [ 94.7378565, 26.0208301 ], [ 94.7438145, 26.0252606 ], [ 94.7488182, 26.0228719 ], [ 94.7582873, 26.0236989 ], [ 94.7612523, 26.0209167 ], [ 94.7684532, 26.017691 ], [ 94.7702388, 26.0151469 ], [ 94.7782885, 26.0116821 ], [ 94.7809532, 26.0082851 ], [ 94.7830144, 26.0097094 ], [ 94.78301, 26.011315 ], [ 94.7875438, 26.0121466 ], [ 94.7897378, 26.0145395 ], [ 94.7936589, 26.0162031 ], [ 94.7990966, 26.016156 ], [ 94.8030426, 26.001895 ], [ 94.8072515, 25.9954965 ], [ 94.8116183, 25.9925337 ], [ 94.8196051, 25.9895134 ], [ 94.8276494, 25.9907802 ], [ 94.8344612, 25.9903582 ], [ 94.8480513, 25.9830278 ], [ 94.8550123, 25.9822122 ], [ 94.8659079, 25.9835812 ], [ 94.8701836, 25.9801616 ], [ 94.8685067, 25.9775876 ], [ 94.8784837, 25.9736648 ], [ 94.8817614, 25.9665533 ], [ 94.8936168, 25.9527676 ], [ 94.8977472, 25.9459237 ], [ 94.8974158, 25.9436522 ], [ 94.8994874, 25.9430021 ], [ 94.9070952, 25.9443773 ], [ 94.9110233, 25.9428376 ], [ 94.9159208, 25.9445064 ], [ 94.9205432, 25.9443019 ], [ 94.9216974, 25.9473616 ], [ 94.9255421, 25.949274 ], [ 94.9304064, 25.9424349 ], [ 94.9347436, 25.9411244 ], [ 94.9384753, 25.9370972 ], [ 94.9336417, 25.9221331 ], [ 94.9380146, 25.9137052 ], [ 94.9401699, 25.912409 ], [ 94.943356, 25.9073258 ], [ 94.9489433, 25.904033 ], [ 94.9514414, 25.9009854 ], [ 94.9566561, 25.9010458 ], [ 94.9633192, 25.9031363 ], [ 94.9703654, 25.8967684 ], [ 94.9735415, 25.8810872 ], [ 94.9815198, 25.8759367 ], [ 94.9929885, 25.8801752 ], [ 94.9959757, 25.8838615 ], [ 94.9995086, 25.8853156 ], [ 95.0040819, 25.8826787 ], [ 95.0085362, 25.8820885 ], [ 95.0172467, 25.8877779 ], [ 95.0188744, 25.8854711 ], [ 95.0192788, 25.8806974 ], [ 95.0116316, 25.8761334 ], [ 95.0090258, 25.8671728 ], [ 95.01254, 25.8631102 ], [ 95.0178575, 25.8606732 ], [ 95.0230644, 25.8447829 ], [ 95.0303873, 25.838366 ], [ 95.0294965, 25.8337389 ], [ 95.0332284, 25.8236334 ], [ 95.0333075, 25.8142378 ], [ 95.0466817, 25.8017541 ], [ 95.0497164, 25.8008821 ], [ 95.0500073, 25.792913 ], [ 95.0461157, 25.7845083 ], [ 95.0466327, 25.7789367 ], [ 95.0440297, 25.7737398 ], [ 95.0489657, 25.759355 ], [ 95.0451344, 25.7552258 ], [ 95.0446172, 25.7513443 ], [ 95.0427501, 25.749801 ], [ 95.0398663, 25.7411705 ], [ 95.0372217, 25.7395153 ], [ 95.0342098, 25.739938 ], [ 95.0280906, 25.7377984 ], [ 95.0233023, 25.7319166 ], [ 95.0151845, 25.7324053 ], [ 95.0074617, 25.730748 ], [ 94.9972337, 25.7249801 ], [ 94.9955097, 25.7219326 ], [ 94.9919168, 25.7195196 ], [ 94.9886804, 25.7065546 ], [ 94.9797392, 25.69822 ], [ 94.9767158, 25.6974818 ], [ 94.9730388, 25.6940788 ], [ 94.9706367, 25.6891334 ], [ 94.9613527, 25.6850562 ], [ 94.9521295, 25.6783816 ], [ 94.9500547, 25.6736121 ], [ 94.9359799, 25.6676113 ], [ 94.9332113, 25.6625089 ], [ 94.9337398, 25.6606046 ], [ 94.9323766, 25.6571389 ], [ 94.9253283, 25.6501178 ], [ 94.9228433, 25.6454238 ], [ 94.9212012, 25.6398668 ], [ 94.9218951, 25.6349489 ], [ 94.9188379, 25.6297828 ], [ 94.9163215, 25.6214138 ], [ 94.915089, 25.6076809 ], [ 94.909581, 25.6026475 ], [ 94.9019259, 25.5994474 ], [ 94.9007676, 25.5973828 ], [ 94.8981182, 25.5963423 ], [ 94.8924682, 25.597382 ], [ 94.8822602, 25.5917494 ], [ 94.8816267, 25.5850859 ], [ 94.8780471, 25.5883941 ], [ 94.8693363, 25.6016768 ], [ 94.8662145, 25.6087627 ], [ 94.8536455, 25.6086301 ], [ 94.8513802, 25.6107736 ], [ 94.8538674, 25.6183701 ], [ 94.8491464, 25.6249497 ], [ 94.8508768, 25.6333226 ], [ 94.8460926, 25.6501205 ], [ 94.8485057, 25.6575366 ], [ 94.8483094, 25.6653132 ], [ 94.8535703, 25.680619 ], [ 94.8542908, 25.688292 ], [ 94.8568505, 25.6913661 ], [ 94.8579704, 25.6965746 ], [ 94.8586417, 25.7028213 ], [ 94.8551035, 25.7090944 ], [ 94.8566014, 25.7174082 ], [ 94.8545522, 25.7243314 ], [ 94.8468129, 25.7290824 ], [ 94.8407849, 25.7407165 ], [ 94.8356811, 25.7431883 ], [ 94.8204043, 25.7628423 ], [ 94.8169739, 25.7646755 ], [ 94.8096445, 25.7650463 ], [ 94.8035774, 25.7706297 ], [ 94.7984233, 25.7721136 ], [ 94.7963549, 25.7749467 ], [ 94.7929039, 25.7754571 ], [ 94.7902455, 25.7774546 ], [ 94.7599903, 25.7784741 ], [ 94.7554426, 25.782313 ], [ 94.7540829, 25.7799695 ], [ 94.7500002, 25.7790202 ], [ 94.7485861, 25.7759387 ], [ 94.7455751, 25.7767145 ], [ 94.7470061, 25.7720238 ], [ 94.7401555, 25.7701255 ], [ 94.7418621, 25.7654814 ], [ 94.7384439, 25.7648849 ], [ 94.7359879, 25.761516 ], [ 94.7331388, 25.7601959 ], [ 94.7335253, 25.7553329 ], [ 94.7298115, 25.7550256 ], [ 94.7287393, 25.7533323 ], [ 94.7305009, 25.7504127 ], [ 94.7265826, 25.7498092 ], [ 94.7250904, 25.7481048 ], [ 94.7244048, 25.7455297 ], [ 94.727286, 25.7451249 ], [ 94.7270569, 25.7442557 ], [ 94.72042, 25.7394731 ], [ 94.7232034, 25.7373039 ], [ 94.7210022, 25.7348012 ], [ 94.7215563, 25.7331815 ], [ 94.7271247, 25.7307128 ], [ 94.7233102, 25.7280985 ], [ 94.7230968, 25.7266405 ], [ 94.7269975, 25.7252428 ], [ 94.7167752, 25.7219629 ], [ 94.7191469, 25.7251635 ], [ 94.7188597, 25.7275331 ], [ 94.7174899, 25.728044 ], [ 94.7156988, 25.7387733 ], [ 94.7136923, 25.7412162 ], [ 94.7161713, 25.755656 ], [ 94.7147968, 25.7562612 ], [ 94.7114145, 25.7634851 ], [ 94.7063876, 25.7703068 ], [ 94.70489, 25.7756823 ], [ 94.7030297, 25.7771742 ], [ 94.7015274, 25.7839095 ], [ 94.6957342, 25.7922936 ], [ 94.6849677, 25.8004076 ], [ 94.6786264, 25.8037519 ], [ 94.6752364, 25.8039489 ], [ 94.662803, 25.8089428 ], [ 94.6541797, 25.8148794 ], [ 94.6408612, 25.8175099 ], [ 94.6282205, 25.8155887 ], [ 94.6235771, 25.818027 ], [ 94.6154941, 25.8157399 ], [ 94.6102756, 25.8179851 ], [ 94.6028495, 25.8262429 ], [ 94.6084717, 25.8305423 ], [ 94.6107166, 25.8341819 ], [ 94.6096482, 25.8383903 ], [ 94.6102263, 25.8441384 ], [ 94.6027387, 25.8577379 ], [ 94.6020589, 25.8623076 ], [ 94.5975655, 25.8699197 ], [ 94.5958821, 25.8753741 ], [ 94.5920576, 25.8790578 ], [ 94.5807609, 25.8813396 ], [ 94.5762474, 25.8835643 ], [ 94.5723665, 25.8885886 ], [ 94.5698202, 25.8896667 ], [ 94.5719695, 25.8944902 ], [ 94.5743059, 25.8944097 ], [ 94.5832132, 25.9044235 ], [ 94.5863782, 25.9059597 ], [ 94.5870607, 25.9102677 ], [ 94.5937552, 25.9141031 ], [ 94.5959054, 25.9211205 ], [ 94.5989509, 25.9228777 ], [ 94.5993996, 25.9259032 ], [ 94.6022556, 25.9275564 ], [ 94.6036631, 25.9313767 ], [ 94.6084819, 25.9327455 ], [ 94.6086565, 25.9346557 ], [ 94.6109186, 25.9359924 ], [ 94.6096898, 25.9382094 ], [ 94.6148784, 25.9414566 ], [ 94.6216452, 25.9536805 ], [ 94.6253364, 25.9567601 ], [ 94.6279291, 25.9634838 ], [ 94.6306463, 25.964739 ], [ 94.6331596, 25.9708304 ], [ 94.6418534, 25.981563 ], [ 94.6434029, 25.9866248 ], [ 94.6513478, 25.9923323 ], [ 94.6524938, 25.9964641 ], [ 94.6566984, 26.0014758 ], [ 94.6559546, 26.0034879 ], [ 94.6638919, 26.0081258 ], [ 94.6642126, 26.0113978 ], [ 94.6677948, 26.0147908 ], [ 94.6680408, 26.0185277 ], [ 94.6736771, 26.0266271 ] ] ] } }
]
}
