{
"type": "FeatureCollection",
"name": "1402",
"crs": { "type": "name", "properties": { "name": "urn:ogc:def:crs:OGC:1.3:CRS84" } },
"features": [
{ "type": "Feature", "properties": { "code": "1402", "name": "Tamenglong", "type": "district" }, "geometry": { "type": "Polygon", "coordinates": [ [ [ 93.8086181, 25.4595373 ], [ 93.8137881, 25.4591173 ], [ 93.8191359, 25.4610441 ], [ 93.8219448, 25.4554295 ], [ 93.8235625, 25.4478959 ], [ 93.828995, 25.436988 ], [ 93.8300668, 25.4273852 ], [ 93.8504222, 25.4266595 ], [ 93.8622784, 25.4246631 ], [ 93.8689061, 25.4218816 ], [ 93.8772294, 25.4215834 ], [ 93.8860268, 25.4232538 ], [ 93.8996072, 25.4169471 ], [ 93.9046251, 25.410244 ], [ 93.9134748, 25.4046016 ], [ 93.9189439, 25.3971451 ], [ 93.9206109, 25.3903082 ], [ 93.9198548, 25.3865519 ], [ 93.9135626, 25.3854767 ], [ 93.9056244, 25.377192 ], [ 93.9044129, 25.3690187 ], [ 93.9006452, 25.3661113 ], [ 93.8991867, 25.3575348 ], [ 93.888917, 25.3496393 ], [ 93.8903879, 25.3453868 ], [ 93.8898531, 25.3396313 ], [ 93.8864679, 25.3376557 ], [ 93.8864243, 25.3345428 ], [ 93.8927788, 25.3355624 ], [ 93.8960004, 25.3330437 ], [ 93.9056468, 25.330229 ], [ 93.9177385, 25.3287982 ], [ 93.9277684, 25.3143028 ], [ 93.9335132, 25.3122587 ], [ 93.9375316, 25.302092 ], [ 93.9441334, 25.2925752 ], [ 93.9465899, 25.290522 ], [ 93.9552788, 25.2901073 ], [ 93.9522746, 25.2868685 ], [ 93.927696, 25.2730252 ], [ 93.9229154, 25.2716757 ], [ 93.9022147, 25.2717184 ], [ 93.8960704, 25.2683497 ], [ 93.8905716, 25.2627307 ], [ 93.8844941, 25.2596422 ], [ 93.8846326, 25.2572204 ], [ 93.8655351, 25.2440407 ], [ 93.8521689, 25.2288186 ], [ 93.8272415, 25.2213971 ], [ 93.8155881, 25.2070455 ], [ 93.8150688, 25.1998454 ], [ 93.8025256, 25.1850825 ], [ 93.7984984, 25.1853455 ], [ 93.797127, 25.1758446 ], [ 93.7941028, 25.1754165 ], [ 93.7933729, 25.1727025 ], [ 93.7950234, 25.1700092 ], [ 93.7919651, 25.1667679 ], [ 93.7885037, 25.1665708 ], [ 93.7802067, 25.1585671 ], [ 93.7792883, 25.155516 ], [ 93.7757152, 25.1535251 ], [ 93.7743536, 25.1504142 ], [ 93.7776891, 25.1408211 ], [ 93.7807434, 25.1259372 ], [ 93.7868135, 25.1213182 ], [ 93.7904957, 25.1165564 ], [ 93.7950158, 25.1065214 ], [ 93.7966355, 25.0992199 ], [ 93.7960538, 25.0833307 ], [ 93.7980237, 25.0809253 ], [ 93.7973553, 25.0774125 ], [ 93.7920037, 25.0813486 ], [ 93.7850575, 25.0843276 ], [ 93.7779467, 25.0835104 ], [ 93.7735336, 25.085223 ], [ 93.7676488, 25.0847772 ], [ 93.7641335, 25.0776324 ], [ 93.7590661, 25.0730927 ], [ 93.7592289, 25.0651288 ], [ 93.7678893, 25.052996 ], [ 93.7691136, 25.04399 ], [ 93.7647007, 25.036622 ], [ 93.7657622, 25.031784 ], [ 93.769356, 25.0267968 ], [ 93.7791575, 25.0195755 ], [ 93.7825053, 25.0138437 ], [ 93.7889825, 25.0087324 ], [ 93.787733, 25.0076653 ], [ 93.7894817, 25.0030588 ], [ 93.7973769, 24.9922194 ], [ 93.7928527, 24.9884274 ], [ 93.7980598, 24.9845735 ], [ 93.797663, 24.9704891 ], [ 93.7910827, 24.962862 ], [ 93.783723, 24.961606 ], [ 93.7775452, 24.957802 ], [ 93.7702008, 24.9578158 ], [ 93.7670271, 24.9540133 ], [ 93.7447253, 24.941432 ], [ 93.7228057, 24.9339357 ], [ 93.7024871, 24.91137 ], [ 93.7069589, 24.8975255 ], [ 93.7070652, 24.8925005 ], [ 93.7099746, 24.8899799 ], [ 93.7114821, 24.8862059 ], [ 93.7172928, 24.8824209 ], [ 93.7202363, 24.8773834 ], [ 93.7274625, 24.8723364 ], [ 93.7275395, 24.8635445 ], [ 93.7333121, 24.8547348 ], [ 93.7247556, 24.8484865 ], [ 93.7176322, 24.8346895 ], [ 93.7205045, 24.8296582 ], [ 93.7205024, 24.8258983 ], [ 93.7133532, 24.8208908 ], [ 93.704769, 24.8196599 ], [ 93.7019098, 24.8209297 ], [ 93.6990497, 24.8146517 ], [ 93.6918976, 24.8146777 ], [ 93.6890329, 24.8109136 ], [ 93.6861783, 24.8096621 ], [ 93.6847431, 24.8059002 ], [ 93.6790199, 24.8034053 ], [ 93.6761559, 24.7996408 ], [ 93.6704255, 24.7984042 ], [ 93.6619083, 24.7933127 ], [ 93.6378964, 24.7933653 ], [ 93.6251893, 24.7989556 ], [ 93.6219504, 24.8087417 ], [ 93.616755, 24.8142105 ], [ 93.6145588, 24.8188398 ], [ 93.6139726, 24.8275755 ], [ 93.6127012, 24.8299952 ], [ 93.6070458, 24.8324951 ], [ 93.6006421, 24.8320097 ], [ 93.5972804, 24.833635 ], [ 93.5913878, 24.8439759 ], [ 93.5852945, 24.8464604 ], [ 93.5842498, 24.8425311 ], [ 93.5787857, 24.8455908 ], [ 93.5752212, 24.8454636 ], [ 93.575126, 24.8440169 ], [ 93.5784001, 24.8404572 ], [ 93.5776197, 24.8389724 ], [ 93.5753925, 24.8398861 ], [ 93.5745739, 24.83823 ], [ 93.5769724, 24.8371069 ], [ 93.577791, 24.8351843 ], [ 93.5680066, 24.8322719 ], [ 93.567403, 24.8223974 ], [ 93.5717038, 24.8211419 ], [ 93.5673994, 24.8186288 ], [ 93.5702581, 24.8148575 ], [ 93.5673895, 24.8136052 ], [ 93.5630961, 24.8161248 ], [ 93.5544843, 24.8111099 ], [ 93.5573496, 24.8098424 ], [ 93.5559101, 24.8085912 ], [ 93.5516086, 24.8073445 ], [ 93.5444589, 24.8111233 ], [ 93.5358565, 24.8111287 ], [ 93.5315696, 24.8149139 ], [ 93.5272679, 24.8149129 ], [ 93.524408, 24.8174372 ], [ 93.5072218, 24.8237373 ], [ 93.5043484, 24.822482 ], [ 93.5017336, 24.8268961 ], [ 93.49629, 24.8285159 ], [ 93.4898859, 24.8285049 ], [ 93.4869414, 24.830799 ], [ 93.4864074, 24.8351094 ], [ 93.4613959, 24.8451459 ], [ 93.454231, 24.8464081 ], [ 93.4441879, 24.8451608 ], [ 93.440906, 24.8426689 ], [ 93.4291446, 24.8425144 ], [ 93.4215433, 24.8455023 ], [ 93.4144973, 24.8417464 ], [ 93.4124223, 24.8387373 ], [ 93.408598, 24.8365826 ], [ 93.4027592, 24.8358446 ], [ 93.401396, 24.837824 ], [ 93.3981733, 24.8391763 ], [ 93.4028425, 24.8315444 ], [ 93.4040407, 24.8250751 ], [ 93.3983007, 24.8238178 ], [ 93.3968621, 24.8213005 ], [ 93.3983016, 24.821307 ], [ 93.3968632, 24.8187896 ], [ 93.398303, 24.8175383 ], [ 93.3982978, 24.8150164 ], [ 93.3954226, 24.8087353 ], [ 93.3896963, 24.8150252 ], [ 93.3854, 24.8162844 ], [ 93.3853956, 24.8150294 ], [ 93.3782353, 24.8187985 ], [ 93.3696421, 24.8200538 ], [ 93.3624642, 24.8187999 ], [ 93.3596032, 24.8162855 ], [ 93.3581564, 24.8049764 ], [ 93.3552933, 24.7974291 ], [ 93.3595817, 24.7924029 ], [ 93.3524108, 24.7823466 ], [ 93.3509866, 24.7760614 ], [ 93.3552742, 24.771033 ], [ 93.3567004, 24.7660056 ], [ 93.3552744, 24.763496 ], [ 93.3481018, 24.7597305 ], [ 93.3395041, 24.7584718 ], [ 93.3323527, 24.7660091 ], [ 93.3251944, 24.7634966 ], [ 93.3337739, 24.7496746 ], [ 93.3323478, 24.747158 ], [ 93.3237406, 24.7408732 ], [ 93.3180113, 24.7333332 ], [ 93.3194472, 24.7295606 ], [ 93.3323339, 24.7270499 ], [ 93.3366289, 24.7245367 ], [ 93.3337628, 24.7195117 ], [ 93.3280383, 24.7169862 ], [ 93.3237393, 24.7132203 ], [ 93.3180112, 24.7056801 ], [ 93.3108444, 24.6993903 ], [ 93.3008217, 24.7056769 ], [ 93.2951016, 24.7056721 ], [ 93.2965256, 24.6855624 ], [ 93.2936682, 24.6792783 ], [ 93.2822128, 24.6692199 ], [ 93.2736334, 24.6666987 ], [ 93.2564458, 24.6692061 ], [ 93.2292531, 24.680493 ], [ 93.2263861, 24.6855229 ], [ 93.2263881, 24.6968367 ], [ 93.2249416, 24.7018553 ], [ 93.2220784, 24.704374 ], [ 93.2163538, 24.7068774 ], [ 93.2106237, 24.7068704 ], [ 93.2034685, 24.7030972 ], [ 93.2004724, 24.7036205 ], [ 93.2015348, 24.7103208 ], [ 93.2045519, 24.7113202 ], [ 93.2052467, 24.714699 ], [ 93.2090443, 24.7140518 ], [ 93.2133892, 24.7170374 ], [ 93.2067199, 24.7210456 ], [ 93.2041215, 24.7206869 ], [ 93.2019134, 24.7185137 ], [ 93.1937962, 24.7211378 ], [ 93.1892996, 24.7177688 ], [ 93.1878418, 24.7188807 ], [ 93.1834219, 24.7155118 ], [ 93.175024, 24.7126163 ], [ 93.1679162, 24.7118905 ], [ 93.1645408, 24.714252 ], [ 93.1571367, 24.7114991 ], [ 93.1542271, 24.7123257 ], [ 93.1529685, 24.7140117 ], [ 93.1586863, 24.7187825 ], [ 93.1620797, 24.7260528 ], [ 93.1619224, 24.7332252 ], [ 93.1632616, 24.7378198 ], [ 93.1619536, 24.7427932 ], [ 93.1638122, 24.7435255 ], [ 93.1632651, 24.7455495 ], [ 93.1645681, 24.7449289 ], [ 93.1676089, 24.7490023 ], [ 93.164491, 24.7486061 ], [ 93.1652658, 24.7471008 ], [ 93.1641993, 24.74563 ], [ 93.1624536, 24.7460197 ], [ 93.1627651, 24.7447559 ], [ 93.1612108, 24.7436895 ], [ 93.1591083, 24.7490077 ], [ 93.1643531, 24.7559274 ], [ 93.1640653, 24.7585196 ], [ 93.166617, 24.7612098 ], [ 93.1659922, 24.7624836 ], [ 93.1679992, 24.762744 ], [ 93.1675173, 24.7649104 ], [ 93.1703413, 24.7715371 ], [ 93.1706646, 24.7802031 ], [ 93.1759365, 24.7878484 ], [ 93.1788613, 24.7877367 ], [ 93.1816484, 24.7909182 ], [ 93.1849207, 24.7910399 ], [ 93.1900241, 24.7960243 ], [ 93.197158, 24.7958369 ], [ 93.2033261, 24.799525 ], [ 93.2093527, 24.7988871 ], [ 93.2127297, 24.7968494 ], [ 93.21649, 24.7887328 ], [ 93.2197645, 24.7869017 ], [ 93.2224091, 24.7882305 ], [ 93.2268836, 24.7936711 ], [ 93.2272575, 24.8002703 ], [ 93.230376, 24.8071151 ], [ 93.2280002, 24.8147148 ], [ 93.2279796, 24.8196264 ], [ 93.2309111, 24.8216772 ], [ 93.238431, 24.8374428 ], [ 93.2387337, 24.8416563 ], [ 93.2329355, 24.844862 ], [ 93.2229937, 24.8410024 ], [ 93.2200688, 24.8423394 ], [ 93.2132115, 24.8522462 ], [ 93.2074117, 24.8556993 ], [ 93.2100309, 24.8560802 ], [ 93.213611, 24.8606281 ], [ 93.2147128, 24.8652948 ], [ 93.2168997, 24.8653521 ], [ 93.2214548, 24.8695111 ], [ 93.2203595, 24.8735201 ], [ 93.2264449, 24.8728344 ], [ 93.2219609, 24.8776628 ], [ 93.2217662, 24.8818337 ], [ 93.2249219, 24.8801841 ], [ 93.2277365, 24.8850346 ], [ 93.2326992, 24.8843991 ], [ 93.231549, 24.8875371 ], [ 93.2279916, 24.8883385 ], [ 93.2259853, 24.8916892 ], [ 93.2275847, 24.892934 ], [ 93.2323546, 24.8921407 ], [ 93.2320641, 24.8938832 ], [ 93.2292651, 24.8962053 ], [ 93.2301579, 24.8984751 ], [ 93.2384872, 24.8986992 ], [ 93.2392056, 24.8996014 ], [ 93.2406852, 24.9047461 ], [ 93.237781, 24.9058227 ], [ 93.2351975, 24.9114082 ], [ 93.2365148, 24.9122693 ], [ 93.2390327, 24.9106245 ], [ 93.2440563, 24.9105527 ], [ 93.2488368, 24.914846 ], [ 93.2459712, 24.9252483 ], [ 93.2393423, 24.9243688 ], [ 93.2384922, 24.9256785 ], [ 93.240964, 24.9276356 ], [ 93.2417045, 24.9305871 ], [ 93.2447061, 24.932503 ], [ 93.2451049, 24.935387 ], [ 93.2426354, 24.9361068 ], [ 93.2371322, 24.9325315 ], [ 93.2368146, 24.937163 ], [ 93.2449176, 24.941192 ], [ 93.2476192, 24.9397996 ], [ 93.2512687, 24.9406406 ], [ 93.2509695, 24.9434079 ], [ 93.2473225, 24.9451171 ], [ 93.2491277, 24.9481715 ], [ 93.2453626, 24.9508062 ], [ 93.2500003, 24.9551387 ], [ 93.26087, 24.9585454 ], [ 93.2630056, 24.9613358 ], [ 93.2623279, 24.9686556 ], [ 93.2609234, 24.9714582 ], [ 93.2571558, 24.9736233 ], [ 93.252438, 24.974285 ], [ 93.2496114, 24.973123 ], [ 93.2519933, 24.9770751 ], [ 93.2491999, 24.9775016 ], [ 93.2496728, 24.9798853 ], [ 93.2534344, 24.9820685 ], [ 93.2514099, 24.986012 ], [ 93.2570412, 24.9960733 ], [ 93.2529786, 24.9973384 ], [ 93.2527739, 24.998909 ], [ 93.2541595, 25.0002326 ], [ 93.2586328, 24.9994779 ], [ 93.2597799, 25.0015912 ], [ 93.2570132, 25.0047352 ], [ 93.2523411, 25.0009308 ], [ 93.2505001, 25.0043192 ], [ 93.2487827, 25.0029862 ], [ 93.2488809, 24.9989058 ], [ 93.2468624, 24.9973802 ], [ 93.2443881, 24.9980883 ], [ 93.2441976, 25.0032596 ], [ 93.2417844, 25.0039252 ], [ 93.2447226, 25.0117136 ], [ 93.2476709, 25.0148995 ], [ 93.2437364, 25.0161239 ], [ 93.2438828, 25.0182861 ], [ 93.2472813, 25.0179911 ], [ 93.2490823, 25.0200871 ], [ 93.2539465, 25.0205785 ], [ 93.2525027, 25.022929 ], [ 93.2540358, 25.0254715 ], [ 93.2511671, 25.0258484 ], [ 93.251354, 25.027144 ], [ 93.2537865, 25.027164 ], [ 93.2548439, 25.0299859 ], [ 93.2598926, 25.0349732 ], [ 93.2583489, 25.0380233 ], [ 93.2596193, 25.0412065 ], [ 93.2621862, 25.0407209 ], [ 93.2660531, 25.0438383 ], [ 93.2646246, 25.0456518 ], [ 93.2622707, 25.0459119 ], [ 93.2642049, 25.0493619 ], [ 93.2704521, 25.0507656 ], [ 93.2721486, 25.0484422 ], [ 93.2745101, 25.0509444 ], [ 93.2773058, 25.0495741 ], [ 93.2800746, 25.0509977 ], [ 93.2796612, 25.0472239 ], [ 93.2826973, 25.0490088 ], [ 93.2834633, 25.0449965 ], [ 93.287178, 25.0470119 ], [ 93.2889677, 25.0456813 ], [ 93.2913589, 25.0486393 ], [ 93.2936793, 25.0463339 ], [ 93.294796, 25.051065 ], [ 93.297353, 25.050782 ], [ 93.2987991, 25.0519473 ], [ 93.2994053, 25.0493521 ], [ 93.2975439, 25.0465798 ], [ 93.2999572, 25.0460394 ], [ 93.3020979, 25.0542419 ], [ 93.3007888, 25.0558572 ], [ 93.3042279, 25.0556151 ], [ 93.3055599, 25.0574257 ], [ 93.3025893, 25.0613694 ], [ 93.3028155, 25.0643621 ], [ 93.3063071, 25.0682546 ], [ 93.3061119, 25.0716354 ], [ 93.312739, 25.0793523 ], [ 93.3149222, 25.0846162 ], [ 93.3218783, 25.0908207 ], [ 93.3275428, 25.0934 ], [ 93.3323706, 25.0935187 ], [ 93.3317006, 25.0960463 ], [ 93.3335389, 25.0979877 ], [ 93.3324574, 25.1007317 ], [ 93.3380761, 25.1099007 ], [ 93.3367469, 25.111602 ], [ 93.3414063, 25.1138329 ], [ 93.3393286, 25.1154889 ], [ 93.342203, 25.1198905 ], [ 93.3411758, 25.1230634 ], [ 93.3452561, 25.1234615 ], [ 93.3417202, 25.1267061 ], [ 93.3453387, 25.1303359 ], [ 93.3423818, 25.137485 ], [ 93.347509, 25.1387729 ], [ 93.3461409, 25.1405801 ], [ 93.3468589, 25.1430182 ], [ 93.345183, 25.150735 ], [ 93.3465673, 25.1570844 ], [ 93.3440078, 25.1591332 ], [ 93.3440862, 25.1628028 ], [ 93.3462427, 25.1668881 ], [ 93.3458701, 25.1698084 ], [ 93.3496083, 25.1767421 ], [ 93.3498062, 25.1794955 ], [ 93.3514977, 25.1796628 ], [ 93.3513382, 25.183197 ], [ 93.3549589, 25.1859329 ], [ 93.3541203, 25.1876659 ], [ 93.3561638, 25.1889571 ], [ 93.3573695, 25.1875987 ], [ 93.356714, 25.1918775 ], [ 93.3599882, 25.1918508 ], [ 93.3593775, 25.1953128 ], [ 93.3633214, 25.1960985 ], [ 93.3656231, 25.1980757 ], [ 93.3661037, 25.206101 ], [ 93.3707178, 25.2078932 ], [ 93.3689365, 25.2109669 ], [ 93.3738285, 25.2118246 ], [ 93.373377, 25.2148397 ], [ 93.3767063, 25.2178774 ], [ 93.3756148, 25.2201432 ], [ 93.376622, 25.2210821 ], [ 93.3785423, 25.2204637 ], [ 93.3793958, 25.222224 ], [ 93.3817032, 25.2227655 ], [ 93.3822344, 25.2265886 ], [ 93.3812717, 25.227356 ], [ 93.3846463, 25.2313593 ], [ 93.3842595, 25.2335214 ], [ 93.3816394, 25.2343069 ], [ 93.3826866, 25.2372453 ], [ 93.3809596, 25.237945 ], [ 93.3810987, 25.2394977 ], [ 93.3833371, 25.2422781 ], [ 93.3864984, 25.242684 ], [ 93.3898687, 25.2465609 ], [ 93.3925927, 25.2499688 ], [ 93.3936617, 25.2547409 ], [ 93.4019865, 25.2611038 ], [ 93.4066771, 25.2607779 ], [ 93.4159352, 25.2642692 ], [ 93.4190895, 25.2707273 ], [ 93.4205316, 25.2774612 ], [ 93.426703, 25.2796392 ], [ 93.4275237, 25.2832407 ], [ 93.4313085, 25.283451 ], [ 93.4370283, 25.2882382 ], [ 93.4553563, 25.2934741 ], [ 93.463162, 25.3014722 ], [ 93.4673031, 25.3016638 ], [ 93.4705556, 25.3050505 ], [ 93.4715621, 25.2962857 ], [ 93.4689915, 25.2820392 ], [ 93.4731409, 25.2756303 ], [ 93.4839308, 25.272502 ], [ 93.4912663, 25.2752781 ], [ 93.5007301, 25.2723061 ], [ 93.5071439, 25.2721338 ], [ 93.5005039, 25.2499165 ], [ 93.501467, 25.2406549 ], [ 93.5127207, 25.2412703 ], [ 93.5169014, 25.2452782 ], [ 93.5256447, 25.2448409 ], [ 93.5375012, 25.2418325 ], [ 93.5509775, 25.2469571 ], [ 93.5593726, 25.2429976 ], [ 93.5663235, 25.2320025 ], [ 93.5669792, 25.2288424 ], [ 93.571052, 25.2239256 ], [ 93.5744067, 25.2220587 ], [ 93.5778559, 25.2223749 ], [ 93.5864651, 25.2162912 ], [ 93.5881507, 25.2102522 ], [ 93.5910051, 25.2074625 ], [ 93.589027, 25.2030082 ], [ 93.5891807, 25.2002482 ], [ 93.593266, 25.2006236 ], [ 93.5971731, 25.1987028 ], [ 93.6004326, 25.2006305 ], [ 93.6041545, 25.1983559 ], [ 93.6087158, 25.2024853 ], [ 93.6172962, 25.221195 ], [ 93.6250645, 25.2320277 ], [ 93.6280289, 25.2391826 ], [ 93.6342514, 25.2466603 ], [ 93.639272, 25.2562552 ], [ 93.6397269, 25.2621335 ], [ 93.6460605, 25.2653517 ], [ 93.6477956, 25.2752597 ], [ 93.661795, 25.294649 ], [ 93.6609314, 25.3004589 ], [ 93.6622901, 25.3045048 ], [ 93.6691247, 25.3077195 ], [ 93.6701486, 25.3134825 ], [ 93.668286, 25.3249246 ], [ 93.6801188, 25.3258242 ], [ 93.6833097, 25.3274004 ], [ 93.6876573, 25.3436054 ], [ 93.6889949, 25.3577835 ], [ 93.6961937, 25.3555876 ], [ 93.7077881, 25.3542361 ], [ 93.7142401, 25.3577373 ], [ 93.7151869, 25.3664986 ], [ 93.7193045, 25.3717095 ], [ 93.7359843, 25.3805208 ], [ 93.7375222, 25.3855397 ], [ 93.7362781, 25.3912866 ], [ 93.7381975, 25.3960174 ], [ 93.7428787, 25.4018111 ], [ 93.7565451, 25.4101948 ], [ 93.760617, 25.4141973 ], [ 93.777261, 25.4207562 ], [ 93.7767231, 25.4255343 ], [ 93.7842963, 25.4319108 ], [ 93.7863951, 25.4394085 ], [ 93.7986293, 25.4564198 ], [ 93.8052089, 25.4615894 ], [ 93.8086181, 25.4595373 ] ] ] } }
]
}
