{
"type": "FeatureCollection",
"name": "1404",
"crs": { "type": "name", "properties": { "name": "urn:ogc:def:crs:OGC:1.3:CRS84" } },
"features": [
{ "type": "Feature", "properties": { "code": "1404", "name": "Bishnupur", "type": "district" }, "geometry": { "type": "Polygon", "coordinates": [ [ [ 93.7604625, 24.7396018 ], [ 93.7622391, 24.7345044 ], [ 93.7652909, 24.7321158 ], [ 93.7694163, 24.731298 ], [ 93.771569, 24.733877 ], [ 93.7705672, 24.7377334 ], [ 93.7752501, 24.7354708 ], [ 93.7848598, 24.7337056 ], [ 93.8010012, 24.7330444 ], [ 93.8024164, 24.7348788 ], [ 93.81699, 24.732468 ], [ 93.8231942, 24.7296727 ], [ 93.8218839, 24.7270509 ], [ 93.8315685, 24.7189837 ], [ 93.8337754, 24.7192507 ], [ 93.832174, 24.7213843 ], [ 93.8359934, 24.7218526 ], [ 93.8366354, 24.7246667 ], [ 93.8392688, 24.7273458 ], [ 93.8384169, 24.7232558 ], [ 93.8414143, 24.7204215 ], [ 93.8606854, 24.7367111 ], [ 93.8601495, 24.7348991 ], [ 93.8639192, 24.7345488 ], [ 93.8641817, 24.7315247 ], [ 93.8625303, 24.7306364 ], [ 93.8625828, 24.7278061 ], [ 93.8602976, 24.7282018 ], [ 93.862061, 24.7232926 ], [ 93.860393, 24.7176121 ], [ 93.8633181, 24.7184782 ], [ 93.8773334, 24.7164334 ], [ 93.8812568, 24.7120357 ], [ 93.880995, 24.7104215 ], [ 93.8893447, 24.7104301 ], [ 93.8878916, 24.7066435 ], [ 93.8892843, 24.7015936 ], [ 93.8906695, 24.7014441 ], [ 93.8923, 24.6973729 ], [ 93.8903738, 24.6940092 ], [ 93.89431, 24.692325 ], [ 93.8905402, 24.6896917 ], [ 93.8913157, 24.6885285 ], [ 93.8898505, 24.6842597 ], [ 93.8865404, 24.68179 ], [ 93.8865591, 24.6725324 ], [ 93.8846238, 24.6706368 ], [ 93.8817829, 24.6616543 ], [ 93.8806144, 24.6609899 ], [ 93.8685229, 24.6609442 ], [ 93.866445, 24.6600445 ], [ 93.8665544, 24.6579716 ], [ 93.8428136, 24.664584 ], [ 93.8410241, 24.6638346 ], [ 93.8368922, 24.6667852 ], [ 93.837608, 24.6673596 ], [ 93.8355578, 24.6705233 ], [ 93.8345068, 24.6781133 ], [ 93.8319709, 24.6781158 ], [ 93.832405, 24.6796402 ], [ 93.8286579, 24.6784913 ], [ 93.8269876, 24.673865 ], [ 93.8221125, 24.676794 ], [ 93.7973773, 24.669078 ], [ 93.8015303, 24.6438708 ], [ 93.8143796, 24.6362495 ], [ 93.8114769, 24.6299676 ], [ 93.8028508, 24.6224538 ], [ 93.8028061, 24.6161555 ], [ 93.8085025, 24.6098431 ], [ 93.8170819, 24.6072885 ], [ 93.8258402, 24.6126234 ], [ 93.8322713, 24.6115374 ], [ 93.8329948, 24.6086694 ], [ 93.8262863, 24.5970959 ], [ 93.8261881, 24.5930853 ], [ 93.8490383, 24.5847058 ], [ 93.8483169, 24.5717701 ], [ 93.8545458, 24.5734976 ], [ 93.8608875, 24.5776667 ], [ 93.8625337, 24.5811878 ], [ 93.8612692, 24.585252 ], [ 93.8653552, 24.5957119 ], [ 93.86817, 24.5973672 ], [ 93.8738493, 24.5951079 ], [ 93.8735141, 24.5919867 ], [ 93.8618748, 24.5790526 ], [ 93.8551839, 24.5692513 ], [ 93.8540056, 24.5638311 ], [ 93.8574318, 24.554259 ], [ 93.855525, 24.5451211 ], [ 93.856135, 24.5377137 ], [ 93.857731, 24.5367895 ], [ 93.8563242, 24.5342447 ], [ 93.857609, 24.533429 ], [ 93.8560917, 24.5329759 ], [ 93.855411, 24.5288347 ], [ 93.8580309, 24.5268321 ], [ 93.8555815, 24.5247078 ], [ 93.8538112, 24.5181936 ], [ 93.8574715, 24.5129724 ], [ 93.8549808, 24.5087322 ], [ 93.85263, 24.508042 ], [ 93.8485396, 24.5091957 ], [ 93.8461163, 24.5064928 ], [ 93.8484488, 24.5037731 ], [ 93.8473219, 24.4984771 ], [ 93.8562286, 24.5002155 ], [ 93.859033, 24.4986343 ], [ 93.8570625, 24.4973106 ], [ 93.8579355, 24.4941269 ], [ 93.8554716, 24.4908526 ], [ 93.8571117, 24.4881453 ], [ 93.8582641, 24.4814568 ], [ 93.8611563, 24.480007 ], [ 93.8613252, 24.4777506 ], [ 93.8629729, 24.4762025 ], [ 93.861832, 24.4743752 ], [ 93.8646508, 24.4723355 ], [ 93.862857, 24.4700231 ], [ 93.8593036, 24.4690214 ], [ 93.8587786, 24.4656238 ], [ 93.8563592, 24.4638578 ], [ 93.852872, 24.4566574 ], [ 93.8562268, 24.4547679 ], [ 93.8562187, 24.4522544 ], [ 93.8533412, 24.4497502 ], [ 93.8533022, 24.4422134 ], [ 93.8504313, 24.4397202 ], [ 93.8475434, 24.433456 ], [ 93.8432564, 24.4334821 ], [ 93.8375199, 24.4284903 ], [ 93.8374895, 24.4234669 ], [ 93.8460025, 24.4121098 ], [ 93.8402796, 24.4108986 ], [ 93.8388381, 24.4083942 ], [ 93.8402415, 24.4033617 ], [ 93.8445057, 24.3995675 ], [ 93.8459026, 24.3957914 ], [ 93.8458354, 24.3832494 ], [ 93.8486653, 24.3794642 ], [ 93.8458028, 24.3757212 ], [ 93.8471586, 24.3631686 ], [ 93.8514294, 24.3618877 ], [ 93.8514134, 24.3581281 ], [ 93.8485501, 24.3556412 ], [ 93.8485254, 24.3506265 ], [ 93.8571099, 24.3555987 ], [ 93.8599501, 24.3518237 ], [ 93.8556548, 24.3480902 ], [ 93.8513377, 24.3418535 ], [ 93.861307, 24.3343277 ], [ 93.8584411, 24.3305945 ], [ 93.8584326, 24.3243755 ], [ 93.8527237, 24.3268692 ], [ 93.8541394, 24.3181668 ], [ 93.851269, 24.3119474 ], [ 93.8531409, 24.3101822 ], [ 93.8558585, 24.3098821 ], [ 93.8547524, 24.3078459 ], [ 93.8511402, 24.3064979 ], [ 93.8484057, 24.3094513 ], [ 93.8455521, 24.3168981 ], [ 93.8399734, 24.3531799 ], [ 93.8357176, 24.3582132 ], [ 93.8314495, 24.3607402 ], [ 93.8114494, 24.3558218 ], [ 93.8071649, 24.355847 ], [ 93.7986375, 24.3621681 ], [ 93.8058777, 24.3834731 ], [ 93.8044577, 24.3847366 ], [ 93.8059103, 24.3897522 ], [ 93.7859618, 24.396138 ], [ 93.7717022, 24.3987283 ], [ 93.7545676, 24.3988112 ], [ 93.7488872, 24.4051143 ], [ 93.7446011, 24.4051377 ], [ 93.7431686, 24.4013759 ], [ 93.7403035, 24.4001362 ], [ 93.7374128, 24.3926033 ], [ 93.7317086, 24.3926331 ], [ 93.7288678, 24.397675 ], [ 93.7289179, 24.4089801 ], [ 93.7332425, 24.4190144 ], [ 93.7318294, 24.4215347 ], [ 93.7203712, 24.414049 ], [ 93.7104169, 24.4228835 ], [ 93.7090235, 24.432939 ], [ 93.7047856, 24.4442755 ], [ 93.7090985, 24.4492788 ], [ 93.7120178, 24.4656119 ], [ 93.7163302, 24.4718803 ], [ 93.7163878, 24.4844495 ], [ 93.7293044, 24.4994745 ], [ 93.7297493, 24.5480669 ], [ 93.7269165, 24.5543517 ], [ 93.7255289, 24.5669226 ], [ 93.719867, 24.583282 ], [ 93.7213376, 24.5920753 ], [ 93.7383421, 24.6248035 ], [ 93.7407689, 24.625614 ], [ 93.7379614, 24.6206118 ], [ 93.7421804, 24.6237724 ], [ 93.7415851, 24.6278837 ], [ 93.7430407, 24.6282632 ], [ 93.7448618, 24.6266835 ], [ 93.7496337, 24.6293236 ], [ 93.7489326, 24.6329103 ], [ 93.7506593, 24.6351458 ], [ 93.7498745, 24.6376003 ], [ 93.7515984, 24.6376524 ], [ 93.7537431, 24.6400548 ], [ 93.7550143, 24.6390021 ], [ 93.7611818, 24.63937 ], [ 93.7647551, 24.6457749 ], [ 93.764451, 24.6478512 ], [ 93.76577, 24.6476089 ], [ 93.7649887, 24.6490619 ], [ 93.766548, 24.6493177 ], [ 93.7659198, 24.6505177 ], [ 93.7633647, 24.6507648 ], [ 93.7672202, 24.6542106 ], [ 93.7639004, 24.6587137 ], [ 93.7640244, 24.6654724 ], [ 93.7623828, 24.6667437 ], [ 93.7619077, 24.6699127 ], [ 93.7629812, 24.6697876 ], [ 93.7653026, 24.6732021 ], [ 93.7630746, 24.67556 ], [ 93.7646025, 24.6754961 ], [ 93.7642554, 24.6785163 ], [ 93.7656592, 24.6806639 ], [ 93.763826, 24.682763 ], [ 93.7657466, 24.6851438 ], [ 93.7649158, 24.6860305 ], [ 93.7662706, 24.6855203 ], [ 93.7691962, 24.6906107 ], [ 93.7698946, 24.6936001 ], [ 93.768624, 24.6957456 ], [ 93.772082, 24.6988625 ], [ 93.7730078, 24.7068075 ], [ 93.770298, 24.7154737 ], [ 93.7661932, 24.7207827 ], [ 93.7676238, 24.7222204 ], [ 93.7681494, 24.7272708 ], [ 93.7660743, 24.7287379 ], [ 93.7592585, 24.7291061 ], [ 93.7565335, 24.7351711 ], [ 93.7582607, 24.7393183 ], [ 93.7604625, 24.7396018 ] ] ] } }
]
}
