{
"type": "FeatureCollection",
"name": "1410",
"crs": { "type": "name", "properties": { "name": "urn:ogc:def:crs:OGC:1.3:CRS84" } },
"features": [
{ "type": "Feature", "properties": { "code": "1410", "name": "Kangpokpi", "type": "district" }, "geometry": { "type": "Polygon", "coordinates": [ [ [ 93.9681554, 25.3170672 ], [ 93.9754287, 25.3153311 ], [ 93.977961, 25.316046 ], [ 93.9837263, 25.3116519 ], [ 93.982693, 25.3089938 ], [ 93.9868734, 25.3031643 ], [ 93.9889959, 25.2966911 ], [ 93.9896857, 25.2855475 ], [ 93.9814784, 25.2760608 ], [ 93.9835131, 25.2747938 ], [ 93.996728, 25.2745171 ], [ 94.0012562, 25.2677104 ], [ 94.0111569, 25.2623586 ], [ 94.0104785, 25.2484341 ], [ 93.9967321, 25.2076902 ], [ 93.9993426, 25.2013114 ], [ 94.0036036, 25.1975162 ], [ 94.012044, 25.1946132 ], [ 94.0200286, 25.1949954 ], [ 94.0243561, 25.1929526 ], [ 94.0295968, 25.1860904 ], [ 94.0316367, 25.1861579 ], [ 94.0354598, 25.1771569 ], [ 94.0399977, 25.1721515 ], [ 94.0426684, 25.1714006 ], [ 94.0432084, 25.1689794 ], [ 94.0475729, 25.1646624 ], [ 94.0531101, 25.1646718 ], [ 94.0576427, 25.1678713 ], [ 94.0636226, 25.1660144 ], [ 94.0793628, 25.1676436 ], [ 94.0806904, 25.1654993 ], [ 94.0839847, 25.1654919 ], [ 94.0908927, 25.1674747 ], [ 94.0986698, 25.1715967 ], [ 94.1183672, 25.1745468 ], [ 94.1216689, 25.1768941 ], [ 94.1248796, 25.1751015 ], [ 94.129276, 25.1774427 ], [ 94.1397133, 25.1776329 ], [ 94.1428918, 25.1809057 ], [ 94.1422377, 25.1822891 ], [ 94.1435277, 25.1815592 ], [ 94.1443907, 25.1825566 ], [ 94.1433798, 25.183574 ], [ 94.1447509, 25.1829729 ], [ 94.153156, 25.1884091 ], [ 94.1545415, 25.190357 ], [ 94.1537836, 25.1928684 ], [ 94.1558006, 25.1951382 ], [ 94.171991, 25.1850106 ], [ 94.1811768, 25.182893 ], [ 94.1901986, 25.1778477 ], [ 94.1949369, 25.1773754 ], [ 94.1925179, 25.1766083 ], [ 94.1886212, 25.1720495 ], [ 94.1794793, 25.1671724 ], [ 94.1813884, 25.1610159 ], [ 94.1774744, 25.1612877 ], [ 94.1730623, 25.1590841 ], [ 94.1740181, 25.1530383 ], [ 94.1711229, 25.1524578 ], [ 94.1673481, 25.148114 ], [ 94.164214, 25.1417083 ], [ 94.1601075, 25.1437691 ], [ 94.1594187, 25.1400739 ], [ 94.1620838, 25.1362882 ], [ 94.1586785, 25.1340797 ], [ 94.1548877, 25.1366041 ], [ 94.1531945, 25.1329687 ], [ 94.1482709, 25.1335221 ], [ 94.1455739, 25.1263706 ], [ 94.1367634, 25.1197102 ], [ 94.1326622, 25.1181386 ], [ 94.1316655, 25.11381 ], [ 94.128456, 25.1125822 ], [ 94.1275434, 25.1008286 ], [ 94.1244174, 25.0939612 ], [ 94.1217679, 25.0913591 ], [ 94.1205306, 25.0862268 ], [ 94.1213655, 25.079436 ], [ 94.1188513, 25.0765369 ], [ 94.1175451, 25.0696277 ], [ 94.1186956, 25.0663398 ], [ 94.1240784, 25.0604947 ], [ 94.1260515, 25.0532988 ], [ 94.1379156, 25.048855 ], [ 94.1464028, 25.0354638 ], [ 94.1494022, 25.02379 ], [ 94.1456764, 25.0009744 ], [ 94.1508473, 24.9915945 ], [ 94.1610554, 24.965317 ], [ 94.1631555, 24.9539795 ], [ 94.1667108, 24.9450224 ], [ 94.1698282, 24.9431471 ], [ 94.1689131, 24.9401966 ], [ 94.164638, 24.9380684 ], [ 94.1653591, 24.9303813 ], [ 94.1627807, 24.9250381 ], [ 94.1598886, 24.921544 ], [ 94.1549821, 24.9218492 ], [ 94.1498529, 24.9192365 ], [ 94.1449167, 24.9102026 ], [ 94.1422477, 24.9095287 ], [ 94.1413839, 24.9062235 ], [ 94.1429741, 24.9031063 ], [ 94.1382689, 24.8993247 ], [ 94.1391176, 24.8978633 ], [ 94.1373977, 24.8935874 ], [ 94.1405861, 24.8899798 ], [ 94.1417274, 24.8798596 ], [ 94.1395887, 24.8780169 ], [ 94.1399001, 24.8752922 ], [ 94.1374294, 24.8695591 ], [ 94.1379398, 24.8622617 ], [ 94.1360195, 24.857815 ], [ 94.1409098, 24.8526866 ], [ 94.1419678, 24.8497626 ], [ 94.139891, 24.8478205 ], [ 94.1442476, 24.8453238 ], [ 94.1466785, 24.8410673 ], [ 94.1487581, 24.840499 ], [ 94.1465639, 24.8395181 ], [ 94.1506358, 24.8359909 ], [ 94.1512684, 24.8339156 ], [ 94.1490188, 24.8325033 ], [ 94.1507129, 24.8297567 ], [ 94.1492869, 24.82754 ], [ 94.1470297, 24.8296397 ], [ 94.1439044, 24.8292493 ], [ 94.14492, 24.8191607 ], [ 94.139371, 24.8112277 ], [ 94.1384371, 24.8073556 ], [ 94.1343033, 24.8052605 ], [ 94.1393413, 24.8004371 ], [ 94.1549684, 24.7992128 ], [ 94.1596443, 24.7977252 ], [ 94.1658376, 24.783921 ], [ 94.1741652, 24.7766466 ], [ 94.1807658, 24.7661812 ], [ 94.1815173, 24.7608815 ], [ 94.1772867, 24.756393 ], [ 94.1804705, 24.7523333 ], [ 94.1790492, 24.7449323 ], [ 94.1734404, 24.7351645 ], [ 94.1854724, 24.7203785 ], [ 94.1869606, 24.7159889 ], [ 94.1815393, 24.7151526 ], [ 94.1786267, 24.7130688 ], [ 94.1771486, 24.713912 ], [ 94.1755909, 24.7108871 ], [ 94.1719392, 24.7083418 ], [ 94.1711616, 24.7056903 ], [ 94.172032, 24.7039748 ], [ 94.1693938, 24.7008801 ], [ 94.1717507, 24.693891 ], [ 94.1666369, 24.6793112 ], [ 94.1623368, 24.6748736 ], [ 94.1607493, 24.6659791 ], [ 94.1502286, 24.6651176 ], [ 94.1552451, 24.650332 ], [ 94.1616345, 24.638924 ], [ 94.1684835, 24.6321683 ], [ 94.1607449, 24.6236317 ], [ 94.155003, 24.6202144 ], [ 94.1479931, 24.6185608 ], [ 94.1297021, 24.6215006 ], [ 94.1223662, 24.6256197 ], [ 94.1157632, 24.631989 ], [ 94.111809, 24.6378717 ], [ 94.1085314, 24.6495424 ], [ 94.1117879, 24.6501086 ], [ 94.1063357, 24.6595476 ], [ 94.1032276, 24.6617622 ], [ 94.0981662, 24.6694231 ], [ 94.1023121, 24.6746684 ], [ 94.1065006, 24.6772588 ], [ 94.1116952, 24.6794653 ], [ 94.1159964, 24.6770485 ], [ 94.1196789, 24.6791784 ], [ 94.1182646, 24.6816933 ], [ 94.1230303, 24.6833119 ], [ 94.1285487, 24.6892818 ], [ 94.1277562, 24.6928454 ], [ 94.114381, 24.6966998 ], [ 94.1162343, 24.7002423 ], [ 94.1208757, 24.7007713 ], [ 94.1238005, 24.6975764 ], [ 94.1277534, 24.6988439 ], [ 94.1256965, 24.7023316 ], [ 94.1276204, 24.705361 ], [ 94.1321242, 24.707214 ], [ 94.1285095, 24.7101695 ], [ 94.1261634, 24.723633 ], [ 94.1198779, 24.7169654 ], [ 94.1180204, 24.7084637 ], [ 94.1146695, 24.7046609 ], [ 94.1086147, 24.7005371 ], [ 94.1019635, 24.6989985 ], [ 94.0912286, 24.6925068 ], [ 94.0839266, 24.6931529 ], [ 94.0790275, 24.6988989 ], [ 94.0748761, 24.7074932 ], [ 94.0667399, 24.705712 ], [ 94.0640583, 24.6950648 ], [ 94.0595076, 24.6923537 ], [ 94.0582885, 24.6957383 ], [ 94.0581608, 24.703122 ], [ 94.0631448, 24.708442 ], [ 94.060604, 24.7114594 ], [ 94.0634902, 24.7128863 ], [ 94.0627189, 24.7142591 ], [ 94.0639603, 24.7162968 ], [ 94.0620171, 24.7166805 ], [ 94.0658254, 24.7188024 ], [ 94.0660094, 24.7211728 ], [ 94.0566017, 24.7187949 ], [ 94.0598065, 24.7280712 ], [ 94.0650074, 24.7293557 ], [ 94.0612307, 24.7314985 ], [ 94.0613924, 24.734729 ], [ 94.0640172, 24.7366771 ], [ 94.0616839, 24.7387734 ], [ 94.0626159, 24.741036 ], [ 94.0668377, 24.7390237 ], [ 94.0661801, 24.7423569 ], [ 94.0706943, 24.7428252 ], [ 94.0724314, 24.746883 ], [ 94.0714614, 24.7514315 ], [ 94.0749123, 24.7526863 ], [ 94.0845532, 24.8068348 ], [ 94.0964733, 24.8310229 ], [ 94.092804, 24.8502059 ], [ 94.0969386, 24.8523947 ], [ 94.1035187, 24.8522475 ], [ 94.1073276, 24.8534551 ], [ 94.1110584, 24.8766487 ], [ 94.114754, 24.8818843 ], [ 94.1194208, 24.8857587 ], [ 94.124247, 24.9003671 ], [ 94.1361404, 24.9116644 ], [ 94.1417402, 24.9187347 ], [ 94.1361595, 24.9253467 ], [ 94.1336862, 24.9381915 ], [ 94.1290821, 24.9390442 ], [ 94.1259902, 24.9366354 ], [ 94.1259186, 24.9226042 ], [ 94.1174432, 24.9167754 ], [ 94.1156854, 24.9126551 ], [ 94.1099132, 24.9059374 ], [ 94.0957955, 24.903849 ], [ 94.0918254, 24.8898948 ], [ 94.0861447, 24.8856013 ], [ 94.076112, 24.8809724 ], [ 94.0669419, 24.8800367 ], [ 94.0618277, 24.8829695 ], [ 94.0589636, 24.8876004 ], [ 94.0571965, 24.9014892 ], [ 94.0651564, 24.9409474 ], [ 94.0554558, 24.9409934 ], [ 94.0502062, 24.9427168 ], [ 94.0510148, 24.9446298 ], [ 94.0587515, 24.9483669 ], [ 94.061442, 24.9515212 ], [ 94.057861, 24.9543045 ], [ 94.0461954, 24.9555954 ], [ 94.043729, 24.9578116 ], [ 94.0454819, 24.9668502 ], [ 94.0450766, 24.9734233 ], [ 94.0308167, 24.9667572 ], [ 94.0313043, 24.9728257 ], [ 94.0357414, 24.9808033 ], [ 94.0433655, 24.9820652 ], [ 94.0413056, 24.9875748 ], [ 94.0321505, 24.9864707 ], [ 94.0324097, 24.9885564 ], [ 94.0376278, 24.9952254 ], [ 94.0470141, 24.9968586 ], [ 94.0400922, 25.0042267 ], [ 94.033856, 25.0028104 ], [ 94.028684, 25.0038318 ], [ 94.0307419, 25.0108882 ], [ 94.0364825, 25.010791 ], [ 94.0381741, 25.0136713 ], [ 94.0430275, 25.0112701 ], [ 94.0455448, 25.0126065 ], [ 94.0403435, 25.019147 ], [ 94.0318435, 25.0177402 ], [ 94.0291803, 25.0204897 ], [ 94.0290862, 25.0268076 ], [ 94.0245707, 25.0347536 ], [ 94.0304698, 25.0503043 ], [ 94.0204071, 25.0459607 ], [ 94.0167636, 25.0418099 ], [ 94.0125917, 25.0325544 ], [ 94.0179705, 25.0185818 ], [ 94.0172025, 25.0068449 ], [ 94.013312, 25.0038105 ], [ 94.0033515, 25.0034694 ], [ 93.996731, 25.00053 ], [ 94.0089654, 24.999853 ], [ 94.0193575, 24.9976035 ], [ 94.0207247, 24.9927101 ], [ 94.0164169, 24.9728395 ], [ 94.0149874, 24.9549179 ], [ 94.0121474, 24.9511751 ], [ 94.0040135, 24.9517715 ], [ 93.9968566, 24.9561063 ], [ 93.991407, 24.9511362 ], [ 93.9908376, 24.9433267 ], [ 93.9810652, 24.9471722 ], [ 93.9757396, 24.9477433 ], [ 93.9716634, 24.9499079 ], [ 93.9701769, 24.9547446 ], [ 93.9675052, 24.9567168 ], [ 93.963533, 24.9577916 ], [ 93.960892, 24.9560004 ], [ 93.9529511, 24.9611626 ], [ 93.9569009, 24.9543892 ], [ 93.9528325, 24.951416 ], [ 93.9623155, 24.949886 ], [ 93.96374, 24.9462461 ], [ 93.9775452, 24.9405348 ], [ 93.9777362, 24.9375918 ], [ 93.9821135, 24.9340999 ], [ 93.9826399, 24.9237301 ], [ 93.9841053, 24.9225631 ], [ 93.9785129, 24.9171501 ], [ 93.9741352, 24.9219348 ], [ 93.9739037, 24.93083 ], [ 93.968236, 24.9324451 ], [ 93.9667298, 24.9370061 ], [ 93.9611698, 24.9364948 ], [ 93.9513544, 24.9385037 ], [ 93.9498866, 24.9326212 ], [ 93.9527005, 24.9300928 ], [ 93.9612355, 24.9296061 ], [ 93.9598115, 24.9238029 ], [ 93.9481951, 24.9192817 ], [ 93.9452411, 24.916841 ], [ 93.9465682, 24.9118409 ], [ 93.9597549, 24.9165829 ], [ 93.9582621, 24.9129392 ], [ 93.9449666, 24.9043053 ], [ 93.9449417, 24.9030517 ], [ 93.9493277, 24.9030429 ], [ 93.9507781, 24.9017852 ], [ 93.9434206, 24.8967669 ], [ 93.9390688, 24.8967608 ], [ 93.9332957, 24.8942721 ], [ 93.9304768, 24.9030914 ], [ 93.9247948, 24.9043801 ], [ 93.9106299, 24.9007367 ], [ 93.9163444, 24.9069827 ], [ 93.9150533, 24.9120439 ], [ 93.9193556, 24.9145299 ], [ 93.919561, 24.9208527 ], [ 93.9224844, 24.9233429 ], [ 93.9217976, 24.9397003 ], [ 93.9229405, 24.9547822 ], [ 93.9302995, 24.9608191 ], [ 93.9334019, 24.9657351 ], [ 93.9292123, 24.9634174 ], [ 93.9268578, 24.9660747 ], [ 93.9066756, 24.9449818 ], [ 93.904204, 24.9273141 ], [ 93.8931241, 24.9337025 ], [ 93.8864229, 24.9413235 ], [ 93.8903284, 24.9527287 ], [ 93.8950865, 24.9565086 ], [ 93.9025455, 24.9589924 ], [ 93.9046594, 24.9640675 ], [ 93.907839, 24.9665741 ], [ 93.9167062, 24.9702414 ], [ 93.9143505, 24.9728432 ], [ 93.9085949, 24.9716631 ], [ 93.9075481, 24.9742183 ], [ 93.9034025, 24.9755267 ], [ 93.9045306, 24.9769493 ], [ 93.9034457, 24.9780066 ], [ 93.90218, 24.9777101 ], [ 93.9023326, 24.9757234 ], [ 93.9007548, 24.9759362 ], [ 93.901971, 24.9832986 ], [ 93.9067243, 24.9886017 ], [ 93.9084292, 24.9899349 ], [ 93.908601, 24.9885815 ], [ 93.9100632, 24.9892441 ], [ 93.9100852, 24.9861772 ], [ 93.9127064, 24.9875051 ], [ 93.9158474, 24.9832549 ], [ 93.9216249, 24.9803574 ], [ 93.9222131, 24.9814685 ], [ 93.9244229, 24.9810342 ], [ 93.9186322, 24.9841023 ], [ 93.9175194, 24.9866768 ], [ 93.9176314, 24.9876603 ], [ 93.9219013, 24.9888615 ], [ 93.9152249, 24.9902995 ], [ 93.9163622, 24.9919153 ], [ 93.9250366, 24.9925623 ], [ 93.9178536, 24.9949232 ], [ 93.9209585, 25.0003868 ], [ 93.9196095, 25.0014186 ], [ 93.9178055, 24.9992684 ], [ 93.9159332, 24.999768 ], [ 93.9139683, 24.9968415 ], [ 93.9131367, 25.0017058 ], [ 93.914253, 25.0052231 ], [ 93.9180151, 25.0085278 ], [ 93.9262397, 25.0217777 ], [ 93.9277414, 25.0249107 ], [ 93.9276633, 25.0285627 ], [ 93.9295222, 25.0307402 ], [ 93.9286611, 25.034417 ], [ 93.9323205, 25.038698 ], [ 93.9310479, 25.0507286 ], [ 93.9288637, 25.0531585 ], [ 93.929189, 25.0580368 ], [ 93.9303128, 25.0606667 ], [ 93.932778, 25.0608756 ], [ 93.9364249, 25.0656478 ], [ 93.9365767, 25.0677571 ], [ 93.9353662, 25.0681177 ], [ 93.9366706, 25.0738982 ], [ 93.942085, 25.0778745 ], [ 93.9438306, 25.0746787 ], [ 93.9446074, 25.0775086 ], [ 93.9464584, 25.0765959 ], [ 93.9478807, 25.0777892 ], [ 93.9447175, 25.078522 ], [ 93.9461076, 25.0826963 ], [ 93.9501535, 25.085471 ], [ 93.950936, 25.0848015 ], [ 93.9509355, 25.0877865 ], [ 93.9531056, 25.0881672 ], [ 93.9510011, 25.0887171 ], [ 93.9524405, 25.092038 ], [ 93.9568162, 25.0974592 ], [ 93.9563551, 25.0996075 ], [ 93.9589598, 25.1057107 ], [ 93.9648373, 25.1131188 ], [ 93.9656995, 25.1173671 ], [ 93.9603153, 25.128119 ], [ 93.9517142, 25.1327611 ], [ 93.9345743, 25.134836 ], [ 93.9305938, 25.131056 ], [ 93.9315546, 25.1283955 ], [ 93.9289019, 25.1277513 ], [ 93.9251642, 25.1303735 ], [ 93.9241283, 25.1272478 ], [ 93.9215396, 25.1261367 ], [ 93.9201052, 25.1191482 ], [ 93.9187335, 25.1178281 ], [ 93.9252778, 25.111539 ], [ 93.9302387, 25.1045428 ], [ 93.9280554, 25.1055398 ], [ 93.9295104, 25.1016633 ], [ 93.9284594, 25.0978435 ], [ 93.9318037, 25.0986604 ], [ 93.9346962, 25.0947914 ], [ 93.9342865, 25.0923077 ], [ 93.9358277, 25.0904283 ], [ 93.9346267, 25.0881708 ], [ 93.9276316, 25.0878112 ], [ 93.9235747, 25.0848591 ], [ 93.9183527, 25.0835501 ], [ 93.9196789, 25.0828873 ], [ 93.9194682, 25.078986 ], [ 93.9227237, 25.064195 ], [ 93.922567, 25.0625595 ], [ 93.9192675, 25.0639654 ], [ 93.9187112, 25.0628204 ], [ 93.9198974, 25.0587372 ], [ 93.9181735, 25.0497156 ], [ 93.919083, 25.0484405 ], [ 93.9178029, 25.0467425 ], [ 93.9187086, 25.0435942 ], [ 93.9224, 25.0435847 ], [ 93.9257661, 25.0411672 ], [ 93.9269353, 25.0327283 ], [ 93.9248725, 25.0280016 ], [ 93.9247962, 25.0238871 ], [ 93.9216668, 25.0211483 ], [ 93.9201576, 25.0144538 ], [ 93.9171123, 25.0133154 ], [ 93.9154025, 25.0107987 ], [ 93.9103223, 25.0152524 ], [ 93.9078292, 25.016325 ], [ 93.9125837, 25.0118962 ], [ 93.9090237, 25.0088642 ], [ 93.9092905, 25.0072704 ], [ 93.9074702, 25.0060757 ], [ 93.9086385, 25.0045401 ], [ 93.9067168, 25.0029119 ], [ 93.9038298, 25.0041729 ], [ 93.9037796, 25.002937 ], [ 93.9017556, 25.0057583 ], [ 93.894092, 25.0099419 ], [ 93.886895, 25.0102865 ], [ 93.88543, 25.0072166 ], [ 93.8861604, 25.0058147 ], [ 93.8899955, 25.0047017 ], [ 93.891322, 25.0011598 ], [ 93.8935685, 25.0004259 ], [ 93.8984489, 24.9937381 ], [ 93.9004298, 24.9947606 ], [ 93.899667, 24.9906166 ], [ 93.9007774, 24.9882105 ], [ 93.8974127, 24.9878056 ], [ 93.8943468, 24.9896614 ], [ 93.8946829, 24.9885539 ], [ 93.8906312, 24.9873456 ], [ 93.8868155, 24.9891513 ], [ 93.8839952, 24.9885376 ], [ 93.8805874, 24.9898755 ], [ 93.8738949, 24.9892769 ], [ 93.8714094, 24.9874585 ], [ 93.873061, 24.9821215 ], [ 93.8691713, 24.9756172 ], [ 93.8628075, 24.95654 ], [ 93.8447279, 24.9513971 ], [ 93.8414709, 24.9437947 ], [ 93.8410592, 24.9298961 ], [ 93.8322825, 24.9223201 ], [ 93.8249821, 24.8908239 ], [ 93.8192549, 24.8870413 ], [ 93.8149795, 24.8719399 ], [ 93.8078184, 24.8694234 ], [ 93.8049636, 24.8643837 ], [ 93.8092808, 24.856839 ], [ 93.8064183, 24.8543137 ], [ 93.8078846, 24.836685 ], [ 93.7849485, 24.8190957 ], [ 93.784934, 24.8090188 ], [ 93.7806276, 24.8052557 ], [ 93.7834889, 24.7926571 ], [ 93.7920574, 24.7750023 ], [ 93.7877426, 24.7699752 ], [ 93.7906029, 24.7661897 ], [ 93.7790842, 24.747338 ], [ 93.7776242, 24.7397816 ], [ 93.7705672, 24.7377334 ], [ 93.771569, 24.733877 ], [ 93.7707053, 24.7317942 ], [ 93.7652909, 24.7321158 ], [ 93.7622391, 24.7345044 ], [ 93.7605185, 24.7396044 ], [ 93.7582607, 24.7393183 ], [ 93.7563282, 24.7358129 ], [ 93.7592585, 24.7291061 ], [ 93.7660743, 24.7287379 ], [ 93.7681494, 24.7272708 ], [ 93.7676238, 24.7222204 ], [ 93.7661932, 24.7207827 ], [ 93.770298, 24.7154737 ], [ 93.7730078, 24.7068075 ], [ 93.772082, 24.6988625 ], [ 93.768624, 24.6957456 ], [ 93.7698946, 24.6936001 ], [ 93.7691962, 24.6906107 ], [ 93.7662706, 24.6855203 ], [ 93.7649158, 24.6860305 ], [ 93.7657466, 24.6851438 ], [ 93.763826, 24.682763 ], [ 93.7656592, 24.6806639 ], [ 93.7642554, 24.6785163 ], [ 93.7646025, 24.6754961 ], [ 93.7630746, 24.67556 ], [ 93.7653026, 24.6732021 ], [ 93.7629812, 24.6697876 ], [ 93.7619077, 24.6699127 ], [ 93.7623828, 24.6667437 ], [ 93.7640244, 24.6654724 ], [ 93.7639004, 24.6587137 ], [ 93.7672202, 24.6542106 ], [ 93.7633647, 24.6507648 ], [ 93.7659198, 24.6505177 ], [ 93.766548, 24.6493177 ], [ 93.7649887, 24.6490619 ], [ 93.76577, 24.6476089 ], [ 93.764451, 24.6478512 ], [ 93.7647551, 24.6457749 ], [ 93.7611818, 24.63937 ], [ 93.7550143, 24.6390021 ], [ 93.7537431, 24.6400548 ], [ 93.7515984, 24.6376524 ], [ 93.7498745, 24.6376003 ], [ 93.7506593, 24.6351458 ], [ 93.7489326, 24.6329103 ], [ 93.7496337, 24.6293236 ], [ 93.7448618, 24.6266835 ], [ 93.7430407, 24.6282632 ], [ 93.7415851, 24.6278837 ], [ 93.7421804, 24.6237724 ], [ 93.7379614, 24.6206118 ], [ 93.7407689, 24.625614 ], [ 93.7347253, 24.6221425 ], [ 93.737606, 24.6276879 ], [ 93.7355067, 24.6270698 ], [ 93.7331953, 24.623589 ], [ 93.7319466, 24.6240635 ], [ 93.7321934, 24.6272164 ], [ 93.729242, 24.62521 ], [ 93.7290838, 24.6286222 ], [ 93.7266724, 24.628621 ], [ 93.7261996, 24.6307581 ], [ 93.723436, 24.6301515 ], [ 93.723603, 24.6320233 ], [ 93.7219298, 24.6335412 ], [ 93.7211117, 24.6318751 ], [ 93.7183549, 24.6353497 ], [ 93.7179255, 24.6399108 ], [ 93.7077236, 24.6457385 ], [ 93.7191284, 24.659412 ], [ 93.7069639, 24.6637426 ], [ 93.697922, 24.6646329 ], [ 93.6910259, 24.6705821 ], [ 93.6910544, 24.6757003 ], [ 93.6879153, 24.6837298 ], [ 93.6858809, 24.6853954 ], [ 93.6845603, 24.6934023 ], [ 93.6790312, 24.7004237 ], [ 93.6797546, 24.7090517 ], [ 93.6778558, 24.716428 ], [ 93.6710124, 24.7249512 ], [ 93.6716692, 24.7319516 ], [ 93.6686929, 24.7368949 ], [ 93.6703496, 24.7419364 ], [ 93.6667358, 24.7452111 ], [ 93.6694543, 24.7582208 ], [ 93.6680385, 24.7601066 ], [ 93.6694721, 24.7621707 ], [ 93.6684163, 24.7662337 ], [ 93.6698082, 24.7674948 ], [ 93.6677678, 24.7707933 ], [ 93.6679255, 24.7765784 ], [ 93.6643533, 24.7787734 ], [ 93.6645123, 24.7819272 ], [ 93.661691, 24.7847804 ], [ 93.6607187, 24.7889087 ], [ 93.6618504, 24.7901999 ], [ 93.6605013, 24.7924978 ], [ 93.6704255, 24.7984042 ], [ 93.6761559, 24.7996408 ], [ 93.6790199, 24.8034053 ], [ 93.6847431, 24.8059002 ], [ 93.6861783, 24.8096621 ], [ 93.6890329, 24.8109136 ], [ 93.6918976, 24.8146777 ], [ 93.6990497, 24.8146517 ], [ 93.7019098, 24.8209297 ], [ 93.704769, 24.8196599 ], [ 93.7133532, 24.8208908 ], [ 93.7205024, 24.8258983 ], [ 93.7205045, 24.8296582 ], [ 93.7176322, 24.8346895 ], [ 93.7247556, 24.8484865 ], [ 93.7333121, 24.8547348 ], [ 93.7275395, 24.8635445 ], [ 93.7274625, 24.8723364 ], [ 93.7202363, 24.8773834 ], [ 93.7172928, 24.8824209 ], [ 93.7114821, 24.8862059 ], [ 93.7099746, 24.8899799 ], [ 93.7070652, 24.8925005 ], [ 93.7069589, 24.8975255 ], [ 93.7024871, 24.91137 ], [ 93.7082117, 24.9188983 ], [ 93.7169075, 24.9264116 ], [ 93.7228057, 24.9339357 ], [ 93.7447253, 24.941432 ], [ 93.7670271, 24.9540133 ], [ 93.7702008, 24.9578158 ], [ 93.7775452, 24.957802 ], [ 93.783723, 24.961606 ], [ 93.7910827, 24.962862 ], [ 93.797663, 24.9704891 ], [ 93.7980598, 24.9845735 ], [ 93.7928527, 24.9884274 ], [ 93.7973769, 24.9922194 ], [ 93.7894817, 25.0030588 ], [ 93.787733, 25.0076653 ], [ 93.7889825, 25.0087324 ], [ 93.7825053, 25.0138437 ], [ 93.7791575, 25.0195755 ], [ 93.769356, 25.0267968 ], [ 93.7657622, 25.031784 ], [ 93.7647007, 25.036622 ], [ 93.7691136, 25.04399 ], [ 93.7678893, 25.052996 ], [ 93.7592289, 25.0651288 ], [ 93.7590661, 25.0730927 ], [ 93.7641335, 25.0776324 ], [ 93.7676488, 25.0847772 ], [ 93.7735336, 25.085223 ], [ 93.7779467, 25.0835104 ], [ 93.7850575, 25.0843276 ], [ 93.7920037, 25.0813486 ], [ 93.7973553, 25.0774125 ], [ 93.7980237, 25.0809253 ], [ 93.7960538, 25.0833307 ], [ 93.7966355, 25.0992199 ], [ 93.7950158, 25.1065214 ], [ 93.7904957, 25.1165564 ], [ 93.7868135, 25.1213182 ], [ 93.7807434, 25.1259372 ], [ 93.7776891, 25.1408211 ], [ 93.7743536, 25.1504142 ], [ 93.7757152, 25.1535251 ], [ 93.7792883, 25.155516 ], [ 93.7802067, 25.1585671 ], [ 93.7885037, 25.1665708 ], [ 93.7919651, 25.1667679 ], [ 93.7950234, 25.1700092 ], [ 93.7933729, 25.1727025 ], [ 93.7941028, 25.1754165 ], [ 93.797127, 25.1758446 ], [ 93.7984984, 25.1853455 ], [ 93.8025256, 25.1850825 ], [ 93.8150688, 25.1998454 ], [ 93.8155881, 25.2070455 ], [ 93.8272415, 25.2213971 ], [ 93.8521689, 25.2288186 ], [ 93.8655351, 25.2440407 ], [ 93.8846326, 25.2572204 ], [ 93.8844941, 25.2596422 ], [ 93.8905716, 25.2627307 ], [ 93.8960704, 25.2683497 ], [ 93.9022147, 25.2717184 ], [ 93.9229154, 25.2716757 ], [ 93.927696, 25.2730252 ], [ 93.9522746, 25.2868685 ], [ 93.9552788, 25.2901073 ], [ 93.9465899, 25.290522 ], [ 93.9375316, 25.302092 ], [ 93.9571575, 25.3147108 ], [ 93.9625338, 25.3136249 ], [ 93.9624595, 25.3163567 ], [ 93.9608807, 25.3181562 ], [ 93.9615982, 25.32139 ], [ 93.9636578, 25.3231842 ], [ 93.9659524, 25.3236121 ], [ 93.9681554, 25.3170672 ] ] ] } }
]
}
