{
"type": "FeatureCollection",
"name": "1412",
"crs": { "type": "name", "properties": { "name": "urn:ogc:def:crs:OGC:1.3:CRS84" } },
"features": [
{ "type": "Feature", "properties": { "code": "1412", "name": "Pherzawl", "type": "district" }, "geometry": { "type": "Polygon", "coordinates": [ [ [ 93.1937962, 24.7211378 ], [ 93.2019134, 24.7185137 ], [ 93.2041215, 24.7206869 ], [ 93.2067199, 24.7210456 ], [ 93.2133892, 24.7170374 ], [ 93.2090443, 24.7140518 ], [ 93.2052467, 24.714699 ], [ 93.2045519, 24.7113202 ], [ 93.2015348, 24.7103208 ], [ 93.2002689, 24.7045435 ], [ 93.2034685, 24.7030972 ], [ 93.2034731, 24.7005839 ], [ 93.2049075, 24.6993256 ], [ 93.2134968, 24.6968262 ], [ 93.2149315, 24.6980784 ], [ 93.2134953, 24.6943042 ], [ 93.2063399, 24.6855076 ], [ 93.203492, 24.6679075 ], [ 93.2178005, 24.6716853 ], [ 93.2178086, 24.664148 ], [ 93.2149518, 24.6628887 ], [ 93.2106517, 24.6654013 ], [ 93.2077921, 24.6628844 ], [ 93.207788, 24.6591073 ], [ 93.2120921, 24.6515708 ], [ 93.2120982, 24.645289 ], [ 93.2178265, 24.6415206 ], [ 93.2206865, 24.637756 ], [ 93.220685, 24.6327301 ], [ 93.2178317, 24.6264376 ], [ 93.2092427, 24.6264341 ], [ 93.2078125, 24.6226592 ], [ 93.2149712, 24.6163843 ], [ 93.213552, 24.6063273 ], [ 93.216405, 24.6000434 ], [ 93.2135546, 24.5874761 ], [ 93.2121326, 24.5849582 ], [ 93.2092622, 24.5836978 ], [ 93.199246, 24.5887223 ], [ 93.200687, 24.5774045 ], [ 93.2049796, 24.5748947 ], [ 93.2021271, 24.5723773 ], [ 93.2049866, 24.5711258 ], [ 93.2078505, 24.5673609 ], [ 93.202124, 24.5660985 ], [ 93.1935444, 24.5711195 ], [ 93.1906897, 24.5673467 ], [ 93.1935505, 24.5648284 ], [ 93.1949816, 24.5598113 ], [ 93.187844, 24.5510012 ], [ 93.1806898, 24.5459628 ], [ 93.1749854, 24.532135 ], [ 93.1692761, 24.5283571 ], [ 93.172133, 24.5208251 ], [ 93.1707178, 24.5157933 ], [ 93.1749985, 24.515796 ], [ 93.1807201, 24.5132913 ], [ 93.1821484, 24.5220925 ], [ 93.1907228, 24.5208406 ], [ 93.1950107, 24.5145606 ], [ 93.2035955, 24.5133163 ], [ 93.2107481, 24.4982377 ], [ 93.2193261, 24.4944821 ], [ 93.2264639, 24.5020239 ], [ 93.2321804, 24.5108231 ], [ 93.2436145, 24.5133491 ], [ 93.2507684, 24.5083275 ], [ 93.2636291, 24.5095913 ], [ 93.2636286, 24.5171286 ], [ 93.2664842, 24.5209001 ], [ 93.2579139, 24.5234136 ], [ 93.2650595, 24.5359864 ], [ 93.2707704, 24.5410186 ], [ 93.2679089, 24.5447848 ], [ 93.2736336, 24.5473026 ], [ 93.2822125, 24.5598711 ], [ 93.2779254, 24.5636404 ], [ 93.2850767, 24.5661547 ], [ 93.3050933, 24.5623922 ], [ 93.3236866, 24.5661697 ], [ 93.3336978, 24.5661703 ], [ 93.3379862, 24.5724591 ], [ 93.3451388, 24.5749684 ], [ 93.3866071, 24.5649113 ], [ 93.3894555, 24.5586213 ], [ 93.3808487, 24.5284624 ], [ 93.3837072, 24.5234386 ], [ 93.3879976, 24.52469 ], [ 93.3922857, 24.5196616 ], [ 93.4022931, 24.5209155 ], [ 93.40657, 24.5171432 ], [ 93.4022807, 24.5121209 ], [ 93.3994113, 24.5058324 ], [ 93.3879718, 24.5008142 ], [ 93.3851131, 24.4970449 ], [ 93.3822461, 24.4895073 ], [ 93.3851021, 24.4857299 ], [ 93.3808135, 24.4832205 ], [ 93.3836697, 24.4794453 ], [ 93.3793762, 24.4769363 ], [ 93.3822348, 24.4693991 ], [ 93.375078, 24.4631118 ], [ 93.373656, 24.4568239 ], [ 93.36793, 24.451799 ], [ 93.3679236, 24.4455173 ], [ 93.3707785, 24.4442627 ], [ 93.376497, 24.4442637 ], [ 93.3764906, 24.4354616 ], [ 93.3736349, 24.4291785 ], [ 93.3750463, 24.4153578 ], [ 93.3707556, 24.4103258 ], [ 93.3679021, 24.4103248 ], [ 93.3650359, 24.4065559 ], [ 93.3678901, 24.4053014 ], [ 93.3707456, 24.4015333 ], [ 93.370744, 24.3952511 ], [ 93.3764538, 24.3965012 ], [ 93.376455, 24.3939877 ], [ 93.3793096, 24.3914773 ], [ 93.382162, 24.3927338 ], [ 93.3878855, 24.3990162 ], [ 93.3921718, 24.4002675 ], [ 93.3964593, 24.3990075 ], [ 93.3992987, 24.3952402 ], [ 93.4092968, 24.3952359 ], [ 93.4135797, 24.3902067 ], [ 93.437847, 24.3839108 ], [ 93.443553, 24.3851681 ], [ 93.4606895, 24.3851542 ], [ 93.4735482, 24.3826236 ], [ 93.4863618, 24.3662746 ], [ 93.4906415, 24.3637544 ], [ 93.496351, 24.3624958 ], [ 93.4963317, 24.3524452 ], [ 93.4891856, 24.3449065 ], [ 93.4891793, 24.3411378 ], [ 93.4877445, 24.3386232 ], [ 93.4905951, 24.3348528 ], [ 93.4863091, 24.3310906 ], [ 93.4848735, 24.3260601 ], [ 93.4877247, 24.3248034 ], [ 93.4848572, 24.3222922 ], [ 93.4848556, 24.3172673 ], [ 93.4819881, 24.3135006 ], [ 93.4819872, 24.310987 ], [ 93.477698, 24.3097385 ], [ 93.4791133, 24.3009401 ], [ 93.4762561, 24.29717 ], [ 93.4776782, 24.2959095 ], [ 93.4719605, 24.2921434 ], [ 93.4748209, 24.2896303 ], [ 93.4690972, 24.2795817 ], [ 93.4705189, 24.2770634 ], [ 93.4647964, 24.2682726 ], [ 93.4590908, 24.2682744 ], [ 93.4619301, 24.2619917 ], [ 93.4664807, 24.2594804 ], [ 93.4630838, 24.2559097 ], [ 93.4634364, 24.2546276 ], [ 93.4658844, 24.2548727 ], [ 93.465457, 24.2504626 ], [ 93.4684327, 24.2492656 ], [ 93.4694867, 24.247103 ], [ 93.4687102, 24.2423715 ], [ 93.4603359, 24.2336174 ], [ 93.4607782, 24.2313735 ], [ 93.468658, 24.2263375 ], [ 93.4717186, 24.2260225 ], [ 93.4718086, 24.2248201 ], [ 93.4678182, 24.2236312 ], [ 93.4671271, 24.225679 ], [ 93.4631934, 24.2231023 ], [ 93.4560673, 24.2248795 ], [ 93.4515178, 24.2183883 ], [ 93.4418762, 24.2121922 ], [ 93.4409054, 24.2087086 ], [ 93.4394587, 24.2084612 ], [ 93.4383546, 24.2063197 ], [ 93.4356991, 24.2061579 ], [ 93.4346998, 24.2036737 ], [ 93.4312162, 24.201713 ], [ 93.4260298, 24.2006417 ], [ 93.4224906, 24.204053 ], [ 93.4222257, 24.2001233 ], [ 93.4210924, 24.199452 ], [ 93.4196945, 24.2004038 ], [ 93.4204381, 24.2027535 ], [ 93.4189991, 24.2041864 ], [ 93.4138319, 24.2021355 ], [ 93.4109239, 24.1999912 ], [ 93.4115253, 24.1929376 ], [ 93.4071211, 24.1838418 ], [ 93.4050299, 24.1814855 ], [ 93.3993277, 24.1786933 ], [ 93.3992208, 24.1751655 ], [ 93.3940226, 24.1587989 ], [ 93.3905045, 24.1538433 ], [ 93.3968755, 24.1381751 ], [ 93.3935157, 24.1315399 ], [ 93.3932931, 24.1277981 ], [ 93.3934209, 24.1237364 ], [ 93.3990353, 24.115091 ], [ 93.3992976, 24.1042953 ], [ 93.3964126, 24.0946683 ], [ 93.3917641, 24.0912368 ], [ 93.3817093, 24.087774 ], [ 93.3843129, 24.0868282 ], [ 93.3839037, 24.0852214 ], [ 93.3797463, 24.0883463 ], [ 93.3779927, 24.0878795 ], [ 93.3729316, 24.0907594 ], [ 93.3677961, 24.0900579 ], [ 93.366628, 24.0916591 ], [ 93.3636312, 24.0919963 ], [ 93.3580929, 24.0910377 ], [ 93.3593871, 24.0939364 ], [ 93.3545145, 24.0960364 ], [ 93.3544889, 24.0988936 ], [ 93.3512703, 24.0979043 ], [ 93.3482915, 24.0988943 ], [ 93.3507803, 24.1001914 ], [ 93.3484361, 24.1012392 ], [ 93.3499735, 24.1015177 ], [ 93.348824, 24.1047403 ], [ 93.3470325, 24.1029184 ], [ 93.3451288, 24.1036894 ], [ 93.3419425, 24.1019728 ], [ 93.3428652, 24.0972305 ], [ 93.3452338, 24.0970538 ], [ 93.3467962, 24.0944509 ], [ 93.3496647, 24.0951823 ], [ 93.3540595, 24.0910844 ], [ 93.3511512, 24.090814 ], [ 93.3471578, 24.0875671 ], [ 93.3467537, 24.0900943 ], [ 93.3445319, 24.0917443 ], [ 93.3372538, 24.0908016 ], [ 93.3344821, 24.089753 ], [ 93.3308529, 24.0853594 ], [ 93.3312723, 24.0824204 ], [ 93.3303847, 24.0808434 ], [ 93.3285475, 24.0811527 ], [ 93.3282847, 24.0773823 ], [ 93.3309049, 24.0729877 ], [ 93.3330375, 24.0747776 ], [ 93.3344483, 24.0743088 ], [ 93.3332246, 24.0701252 ], [ 93.3371603, 24.0675395 ], [ 93.3360433, 24.0634019 ], [ 93.3381214, 24.0632321 ], [ 93.3385228, 24.0615523 ], [ 93.3361119, 24.0601806 ], [ 93.3353111, 24.0569796 ], [ 93.3321198, 24.0531327 ], [ 93.3279641, 24.0534721 ], [ 93.3258009, 24.0503542 ], [ 93.3078476, 24.0509265 ], [ 93.2935936, 24.048413 ], [ 93.2835305, 24.048397 ], [ 93.2807073, 24.0433772 ], [ 93.2721234, 24.0370814 ], [ 93.2692925, 24.0308042 ], [ 93.2506385, 24.0207124 ], [ 93.2520656, 24.0257357 ], [ 93.2477527, 24.0307546 ], [ 93.2577032, 24.0546309 ], [ 93.2619862, 24.0571523 ], [ 93.2591098, 24.0646898 ], [ 93.2591076, 24.0697144 ], [ 93.2434493, 24.0822732 ], [ 93.2377647, 24.0835213 ], [ 93.2320712, 24.0810009 ], [ 93.2221391, 24.0835127 ], [ 93.2192921, 24.0809957 ], [ 93.2178663, 24.0784853 ], [ 93.2207047, 24.0709452 ], [ 93.2121692, 24.0470628 ], [ 93.1937178, 24.0495593 ], [ 93.189466, 24.0533341 ], [ 93.1710137, 24.0508015 ], [ 93.1653358, 24.0520555 ], [ 93.1625076, 24.0583403 ], [ 93.1653945, 24.0721702 ], [ 93.1568617, 24.0746752 ], [ 93.1540116, 24.0809525 ], [ 93.1434687, 24.0852386 ], [ 93.1377723, 24.0839545 ], [ 93.1306509, 24.0763905 ], [ 93.1306401, 24.0701004 ], [ 93.1249428, 24.0612764 ], [ 93.1164031, 24.0574727 ], [ 93.1149819, 24.0536964 ], [ 93.1078832, 24.0524205 ], [ 93.1064557, 24.0473894 ], [ 93.0965069, 24.0423367 ], [ 93.0950871, 24.0461065 ], [ 93.0993581, 24.0498886 ], [ 93.0965125, 24.0536511 ], [ 93.0979366, 24.0599403 ], [ 93.0965215, 24.0637097 ], [ 93.0979482, 24.0712633 ], [ 93.0851509, 24.0813333 ], [ 93.0808798, 24.0876379 ], [ 93.0751646, 24.1002709 ], [ 93.0694492, 24.0978022 ], [ 93.0608683, 24.0916059 ], [ 93.0493871, 24.0880471 ], [ 93.0334151, 24.092571 ], [ 93.0304413, 24.0966364 ], [ 93.0260296, 24.0982373 ], [ 93.0230495, 24.1010478 ], [ 93.0172386, 24.0988697 ], [ 93.0098749, 24.1019672 ], [ 93.0054406, 24.1073931 ], [ 92.9922036, 24.1141997 ], [ 92.9721952, 24.1123458 ], [ 92.9706882, 24.1145403 ], [ 92.9694338, 24.1214015 ], [ 92.9733777, 24.1238992 ], [ 92.9818986, 24.1263717 ], [ 92.9852178, 24.1292666 ], [ 92.9887037, 24.1378643 ], [ 92.9867311, 24.1443404 ], [ 92.9869644, 24.1478069 ], [ 92.9889195, 24.1506578 ], [ 92.9964859, 24.1541886 ], [ 93.0012651, 24.1580573 ], [ 92.9991488, 24.1714997 ], [ 93.0067339, 24.1796451 ], [ 92.9989443, 24.191759 ], [ 92.9988949, 24.1949673 ], [ 93.0082186, 24.1949548 ], [ 93.0124624, 24.197447 ], [ 93.013847, 24.2049676 ], [ 93.0181164, 24.2074599 ], [ 93.0195355, 24.2149682 ], [ 93.0152748, 24.2224968 ], [ 93.0152813, 24.2262552 ], [ 93.022453, 24.2300174 ], [ 93.0139037, 24.2337792 ], [ 93.0026122, 24.2513918 ], [ 93.0026609, 24.2602162 ], [ 93.0098354, 24.2690855 ], [ 93.0041495, 24.2779066 ], [ 93.0070144, 24.285498 ], [ 93.0141492, 24.2905631 ], [ 93.0311619, 24.3157654 ], [ 93.0393172, 24.3407418 ], [ 93.0175457, 24.3442192 ], [ 93.0153102, 24.3562472 ], [ 93.0181057, 24.3716095 ], [ 93.013094, 24.377354 ], [ 93.0203546, 24.3878502 ], [ 92.998308, 24.3997562 ], [ 93.0040008, 24.4070578 ], [ 93.0067494, 24.4077508 ], [ 93.0074714, 24.4097251 ], [ 93.0057758, 24.4093134 ], [ 93.0059835, 24.4106533 ], [ 93.0088474, 24.4116752 ], [ 93.0119505, 24.4167152 ], [ 93.0139962, 24.4169559 ], [ 93.0150673, 24.4155257 ], [ 93.0149536, 24.4101853 ], [ 93.0161676, 24.4087056 ], [ 93.0234354, 24.4067469 ], [ 93.0352103, 24.4095938 ], [ 93.0416413, 24.4130101 ], [ 93.042562, 24.4149111 ], [ 93.042652, 24.4205493 ], [ 93.037281, 24.4236159 ], [ 93.0329239, 24.4287504 ], [ 93.036425, 24.4422182 ], [ 93.0357224, 24.4597552 ], [ 93.0381128, 24.4619279 ], [ 93.0436562, 24.4617729 ], [ 93.0455639, 24.4632771 ], [ 93.0467744, 24.467512 ], [ 93.0463663, 24.4735653 ], [ 93.0402419, 24.4863144 ], [ 93.0328475, 24.4935281 ], [ 93.0325552, 24.4952974 ], [ 93.042771, 24.5047932 ], [ 93.0427308, 24.5063533 ], [ 93.0372141, 24.5093921 ], [ 93.0387393, 24.5128718 ], [ 93.0413109, 24.515567 ], [ 93.0501322, 24.5194344 ], [ 93.0505494, 24.5232038 ], [ 93.0471909, 24.5285693 ], [ 93.0499943, 24.5442075 ], [ 93.0570063, 24.5544081 ], [ 93.0605207, 24.5535836 ], [ 93.0616984, 24.5473095 ], [ 93.0646203, 24.5467871 ], [ 93.070809, 24.5580475 ], [ 93.0691737, 24.5618839 ], [ 93.059589, 24.5709353 ], [ 93.0581806, 24.5738372 ], [ 93.062158, 24.5762403 ], [ 93.0761575, 24.5749996 ], [ 93.080765, 24.5720431 ], [ 93.0790941, 24.572416 ], [ 93.075907, 24.5668304 ], [ 93.0736999, 24.5673148 ], [ 93.0732784, 24.5661942 ], [ 93.0806505, 24.5622853 ], [ 93.0808575, 24.5632991 ], [ 93.0843567, 24.562494 ], [ 93.0874114, 24.5672422 ], [ 93.0900468, 24.5639307 ], [ 93.0926711, 24.5658351 ], [ 93.0921956, 24.5629216 ], [ 93.0932342, 24.5623877 ], [ 93.0951654, 24.5621369 ], [ 93.0982706, 24.564673 ], [ 93.0994777, 24.5631626 ], [ 93.1041183, 24.5636634 ], [ 93.1062102, 24.5621545 ], [ 93.1077984, 24.5628693 ], [ 93.1107799, 24.5619047 ], [ 93.1124053, 24.5595884 ], [ 93.1253903, 24.553072 ], [ 93.1304246, 24.5536113 ], [ 93.1334524, 24.552461 ], [ 93.1331586, 24.5546356 ], [ 93.1346212, 24.5567138 ], [ 93.1373364, 24.5575019 ], [ 93.1374399, 24.5595228 ], [ 93.1424974, 24.5562276 ], [ 93.1479787, 24.5590471 ], [ 93.1459126, 24.5646339 ], [ 93.1436382, 24.5663861 ], [ 93.1446904, 24.5714155 ], [ 93.1508549, 24.580479 ], [ 93.1505856, 24.5838286 ], [ 93.1548745, 24.5878378 ], [ 93.1561643, 24.5912828 ], [ 93.1507229, 24.5959307 ], [ 93.1503772, 24.5989414 ], [ 93.1444023, 24.6009136 ], [ 93.1448753, 24.6039097 ], [ 93.1413464, 24.605948 ], [ 93.1377068, 24.6060283 ], [ 93.1363715, 24.6079952 ], [ 93.1340669, 24.6061798 ], [ 93.1254805, 24.6078079 ], [ 93.1199933, 24.6071306 ], [ 93.1178116, 24.6102624 ], [ 93.1203123, 24.6105158 ], [ 93.1220746, 24.6131163 ], [ 93.1227062, 24.6153038 ], [ 93.1213097, 24.615028 ], [ 93.1202109, 24.6166901 ], [ 93.1225627, 24.6182393 ], [ 93.1283341, 24.6284499 ], [ 93.1330369, 24.6329724 ], [ 93.1381008, 24.6464825 ], [ 93.1383366, 24.6523859 ], [ 93.1366772, 24.6592286 ], [ 93.1386721, 24.6602703 ], [ 93.1360497, 24.6600082 ], [ 93.1338808, 24.6625303 ], [ 93.1396951, 24.6766129 ], [ 93.1395045, 24.6955353 ], [ 93.1427758, 24.6983269 ], [ 93.1436676, 24.7018936 ], [ 93.1424855, 24.7044629 ], [ 93.1450926, 24.708725 ], [ 93.1489179, 24.7090676 ], [ 93.1529685, 24.7140117 ], [ 93.1553777, 24.711562 ], [ 93.1645408, 24.714252 ], [ 93.1679162, 24.7118905 ], [ 93.175024, 24.7126163 ], [ 93.1834219, 24.7155118 ], [ 93.1878418, 24.7188807 ], [ 93.1892996, 24.7177688 ], [ 93.1937962, 24.7211378 ] ] ] } }
]
}
