{
"type": "FeatureCollection",
"name": "1415",
"crs": { "type": "name", "properties": { "name": "urn:ogc:def:crs:OGC:1.3:CRS84" } },
"features": [
{ "type": "Feature", "properties": { "code": "1415", "name": "Kamjong", "type": "district" }, "geometry": { "type": "Polygon", "coordinates": [ [ [ 94.6979134, 25.0991964 ], [ 94.6984799, 25.0934061 ], [ 94.7026, 25.0888171 ], [ 94.7212671, 25.0846899 ], [ 94.7240471, 25.0807768 ], [ 94.7241517, 25.0785504 ], [ 94.7260946, 25.0769798 ], [ 94.7366084, 25.0774667 ], [ 94.7396412, 25.0746644 ], [ 94.743385, 25.0755858 ], [ 94.737883, 25.0658445 ], [ 94.7433662, 25.0626812 ], [ 94.7446864, 25.0600252 ], [ 94.741985, 25.0521549 ], [ 94.7442274, 25.0472124 ], [ 94.742551, 25.0450027 ], [ 94.7421182, 25.0388431 ], [ 94.7441558, 25.0372718 ], [ 94.7413351, 25.0348557 ], [ 94.7376456, 25.0276492 ], [ 94.7385836, 25.023561 ], [ 94.7277215, 25.010166 ], [ 94.7291058, 25.0056613 ], [ 94.7265829, 25.0024011 ], [ 94.7266342, 24.999576 ], [ 94.7137024, 24.9924891 ], [ 94.705897, 24.9863543 ], [ 94.7026491, 24.9824633 ], [ 94.7010472, 24.974488 ], [ 94.6965912, 24.96847 ], [ 94.6975366, 24.9660286 ], [ 94.6960671, 24.9637917 ], [ 94.6971417, 24.9626782 ], [ 94.6966525, 24.9595541 ], [ 94.7016371, 24.9558477 ], [ 94.7018392, 24.9527746 ], [ 94.706446, 24.9490678 ], [ 94.7074405, 24.9422045 ], [ 94.713375, 24.9354946 ], [ 94.7121611, 24.9315032 ], [ 94.710237, 24.9289037 ], [ 94.7019347, 24.9293762 ], [ 94.700951, 24.9227357 ], [ 94.6965774, 24.9181261 ], [ 94.6935992, 24.9110684 ], [ 94.6932257, 24.9058537 ], [ 94.6904254, 24.903174 ], [ 94.6907731, 24.8990897 ], [ 94.6868491, 24.8915348 ], [ 94.68795, 24.8880552 ], [ 94.6834254, 24.8872594 ], [ 94.6795148, 24.8843418 ], [ 94.6755529, 24.8802046 ], [ 94.6739936, 24.8750896 ], [ 94.6656138, 24.8740737 ], [ 94.6629677, 24.8706419 ], [ 94.65983, 24.8723327 ], [ 94.6572896, 24.8711011 ], [ 94.6541981, 24.8677007 ], [ 94.6529519, 24.8633501 ], [ 94.6485298, 24.8606179 ], [ 94.650453, 24.8552224 ], [ 94.645192, 24.8492192 ], [ 94.6318554, 24.8394552 ], [ 94.6336569, 24.8355289 ], [ 94.6326413, 24.8233963 ], [ 94.629096, 24.8169146 ], [ 94.6296587, 24.8029662 ], [ 94.6259285, 24.7995446 ], [ 94.6221333, 24.7884208 ], [ 94.6190208, 24.7846323 ], [ 94.6196081, 24.7814973 ], [ 94.6186073, 24.7797951 ], [ 94.6219431, 24.7753823 ], [ 94.6224954, 24.7712144 ], [ 94.6246635, 24.7698591 ], [ 94.6244683, 24.7677777 ], [ 94.6277668, 24.7651285 ], [ 94.6269638, 24.7639732 ], [ 94.6291161, 24.7612839 ], [ 94.6293557, 24.7569695 ], [ 94.6259569, 24.7522176 ], [ 94.6168013, 24.7456155 ], [ 94.6126735, 24.7401819 ], [ 94.6132141, 24.7370036 ], [ 94.6106375, 24.7331917 ], [ 94.6110669, 24.7288219 ], [ 94.609064, 24.7282425 ], [ 94.6084153, 24.7260417 ], [ 94.6094504, 24.7248331 ], [ 94.6062083, 24.7215595 ], [ 94.6073517, 24.7180534 ], [ 94.6051178, 24.7123093 ], [ 94.6029427, 24.7121536 ], [ 94.6016262, 24.7094837 ], [ 94.5915208, 24.7095134 ], [ 94.5851245, 24.70542 ], [ 94.5781974, 24.7117161 ], [ 94.5781592, 24.714823 ], [ 94.5796472, 24.7163871 ], [ 94.5794317, 24.7237084 ], [ 94.578144, 24.7234438 ], [ 94.5727501, 24.7129306 ], [ 94.571098, 24.7125348 ], [ 94.5679025, 24.7145808 ], [ 94.5553078, 24.714833 ], [ 94.5496636, 24.7127698 ], [ 94.5480669, 24.709531 ], [ 94.5482744, 24.7063844 ], [ 94.5527213, 24.6899447 ], [ 94.5531016, 24.6827554 ], [ 94.5500658, 24.6589282 ], [ 94.5444598, 24.6449019 ], [ 94.5292072, 24.6180236 ], [ 94.5185362, 24.6040075 ], [ 94.4922463, 24.5746339 ], [ 94.479347, 24.566367 ], [ 94.4665779, 24.5615338 ], [ 94.4615398, 24.5579534 ], [ 94.457246, 24.5524059 ], [ 94.4386729, 24.510074 ], [ 94.4252037, 24.4861218 ], [ 94.4207399, 24.4802796 ], [ 94.4060903, 24.4783455 ], [ 94.4068808, 24.4807242 ], [ 94.4009347, 24.4862753 ], [ 94.3962255, 24.4872564 ], [ 94.3929808, 24.4847448 ], [ 94.3810648, 24.4974639 ], [ 94.3752218, 24.4984418 ], [ 94.3790858, 24.5016522 ], [ 94.3793792, 24.5043643 ], [ 94.3758582, 24.5048515 ], [ 94.3765133, 24.5078582 ], [ 94.3726187, 24.5090769 ], [ 94.3734102, 24.511224 ], [ 94.3767532, 24.5096406 ], [ 94.3767679, 24.5148337 ], [ 94.3681171, 24.5134157 ], [ 94.3708504, 24.5163273 ], [ 94.3697015, 24.5184456 ], [ 94.3632944, 24.5191819 ], [ 94.3608916, 24.5211699 ], [ 94.3640612, 24.5236868 ], [ 94.3636929, 24.5300286 ], [ 94.3672499, 24.5324329 ], [ 94.3695354, 24.536268 ], [ 94.3695395, 24.5420914 ], [ 94.372259, 24.5473158 ], [ 94.3707257, 24.5502961 ], [ 94.3607927, 24.5510498 ], [ 94.3586129, 24.5492917 ], [ 94.3534761, 24.5490039 ], [ 94.3511081, 24.5531217 ], [ 94.3477182, 24.5532558 ], [ 94.3331939, 24.5492286 ], [ 94.3301455, 24.5524216 ], [ 94.3333242, 24.5553362 ], [ 94.3308088, 24.5621743 ], [ 94.3339992, 24.5638316 ], [ 94.3278889, 24.5656606 ], [ 94.3260854, 24.5701301 ], [ 94.3146392, 24.5720746 ], [ 94.3106003, 24.5741077 ], [ 94.3093743, 24.5781806 ], [ 94.3046104, 24.5832009 ], [ 94.2933812, 24.5883787 ], [ 94.2898087, 24.5941551 ], [ 94.2822643, 24.6016242 ], [ 94.2680527, 24.596428 ], [ 94.2605004, 24.6040655 ], [ 94.251397, 24.6160663 ], [ 94.2167014, 24.619446 ], [ 94.21252, 24.6222737 ], [ 94.1739354, 24.6357379 ], [ 94.1711649, 24.635126 ], [ 94.1684835, 24.6321683 ], [ 94.1633801, 24.6367835 ], [ 94.1552451, 24.650332 ], [ 94.1502286, 24.6651176 ], [ 94.1607493, 24.6659791 ], [ 94.1623368, 24.6748736 ], [ 94.1666369, 24.6793112 ], [ 94.1717507, 24.693891 ], [ 94.1693938, 24.7008801 ], [ 94.172032, 24.7039748 ], [ 94.1711616, 24.7056903 ], [ 94.1719392, 24.7083418 ], [ 94.1755909, 24.7108871 ], [ 94.1771486, 24.713912 ], [ 94.1786267, 24.7130688 ], [ 94.1815393, 24.7151526 ], [ 94.1869606, 24.7159889 ], [ 94.1854724, 24.7203785 ], [ 94.1734404, 24.7351645 ], [ 94.1790492, 24.7449323 ], [ 94.1804705, 24.7523333 ], [ 94.1772867, 24.756393 ], [ 94.1815173, 24.7608815 ], [ 94.1807658, 24.7661812 ], [ 94.1741652, 24.7766466 ], [ 94.1658376, 24.783921 ], [ 94.1596443, 24.7977252 ], [ 94.1549684, 24.7992128 ], [ 94.1393413, 24.8004371 ], [ 94.1343033, 24.8052605 ], [ 94.1384371, 24.8073556 ], [ 94.139371, 24.8112277 ], [ 94.14492, 24.8191607 ], [ 94.1439044, 24.8292493 ], [ 94.1470297, 24.8296397 ], [ 94.1492869, 24.82754 ], [ 94.1507129, 24.8297567 ], [ 94.1490188, 24.8325033 ], [ 94.1512684, 24.8339156 ], [ 94.1506358, 24.8359909 ], [ 94.1465639, 24.8395181 ], [ 94.1487581, 24.840499 ], [ 94.1466785, 24.8410673 ], [ 94.1442476, 24.8453238 ], [ 94.139891, 24.8478205 ], [ 94.1419678, 24.8497626 ], [ 94.1409098, 24.8526866 ], [ 94.1360195, 24.857815 ], [ 94.1379398, 24.8622617 ], [ 94.1374294, 24.8695591 ], [ 94.1399001, 24.8752922 ], [ 94.1395887, 24.8780169 ], [ 94.1417274, 24.8798596 ], [ 94.1405861, 24.8899798 ], [ 94.1373977, 24.8935874 ], [ 94.1391176, 24.8978633 ], [ 94.1382689, 24.8993247 ], [ 94.1429741, 24.9031063 ], [ 94.1413839, 24.9062235 ], [ 94.1422477, 24.9095287 ], [ 94.1449167, 24.9102026 ], [ 94.1498529, 24.9192365 ], [ 94.1549821, 24.9218492 ], [ 94.1598886, 24.921544 ], [ 94.1627807, 24.9250381 ], [ 94.1653591, 24.9303813 ], [ 94.164638, 24.9380684 ], [ 94.1689131, 24.9401966 ], [ 94.1698282, 24.9431471 ], [ 94.1729523, 24.9412676 ], [ 94.172707, 24.9390974 ], [ 94.1690167, 24.9389905 ], [ 94.1700831, 24.9329477 ], [ 94.1688311, 24.9288322 ], [ 94.1703327, 24.9260802 ], [ 94.1696428, 24.9214504 ], [ 94.1678032, 24.9183049 ], [ 94.1622572, 24.9174227 ], [ 94.1625219, 24.911722 ], [ 94.166517, 24.9115672 ], [ 94.1775204, 24.9162119 ], [ 94.1866751, 24.9156844 ], [ 94.1996499, 24.9081311 ], [ 94.2138639, 24.9026552 ], [ 94.2340589, 24.9036816 ], [ 94.2388159, 24.9026641 ], [ 94.2431925, 24.8981408 ], [ 94.255088, 24.8965981 ], [ 94.2629392, 24.8912275 ], [ 94.2728135, 24.8881874 ], [ 94.2784878, 24.8878334 ], [ 94.2834527, 24.8928255 ], [ 94.2867527, 24.8938157 ], [ 94.2999222, 24.8907618 ], [ 94.3180199, 24.8845154 ], [ 94.3222516, 24.889008 ], [ 94.3231817, 24.8921773 ], [ 94.3310757, 24.8966556 ], [ 94.3287165, 24.9011736 ], [ 94.3289105, 24.9035107 ], [ 94.3349619, 24.900969 ], [ 94.3367116, 24.9017947 ], [ 94.3397806, 24.9174954 ], [ 94.3381144, 24.9212844 ], [ 94.3448021, 24.9307677 ], [ 94.3473366, 24.936761 ], [ 94.3513124, 24.9395077 ], [ 94.3690336, 24.9407102 ], [ 94.3802506, 24.9462947 ], [ 94.3875996, 24.9474853 ], [ 94.3930908, 24.9500119 ], [ 94.3944489, 24.9534061 ], [ 94.3936087, 24.9599443 ], [ 94.395855, 24.9659911 ], [ 94.3925103, 24.9729121 ], [ 94.3986682, 24.9800575 ], [ 94.4007695, 24.9805796 ], [ 94.4030569, 24.9832261 ], [ 94.4033775, 24.9887497 ], [ 94.405853, 24.9938391 ], [ 94.4156095, 24.9868362 ], [ 94.4216216, 24.9882435 ], [ 94.4261353, 24.9821136 ], [ 94.432913, 24.9849514 ], [ 94.4464353, 24.9845701 ], [ 94.4477893, 24.9869013 ], [ 94.4488362, 24.9864713 ], [ 94.4519743, 24.9888981 ], [ 94.4527059, 24.9903845 ], [ 94.4510367, 24.9941643 ], [ 94.451349, 24.9978286 ], [ 94.462575, 25.0135006 ], [ 94.4572171, 25.0146419 ], [ 94.4527504, 25.0187007 ], [ 94.4511386, 25.022374 ], [ 94.4541866, 25.0251221 ], [ 94.4589782, 25.0268525 ], [ 94.4580049, 25.0299917 ], [ 94.4601244, 25.0334879 ], [ 94.4592646, 25.0360951 ], [ 94.4639657, 25.0422352 ], [ 94.4617231, 25.0477711 ], [ 94.4747391, 25.0433312 ], [ 94.4761951, 25.0440796 ], [ 94.4777804, 25.049172 ], [ 94.4785481, 25.0562516 ], [ 94.4809482, 25.0578234 ], [ 94.4863952, 25.0561846 ], [ 94.494362, 25.0566822 ], [ 94.5014309, 25.0550347 ], [ 94.5015898, 25.0569145 ], [ 94.5046737, 25.0547497 ], [ 94.5094052, 25.0567405 ], [ 94.5129641, 25.0559117 ], [ 94.5153077, 25.0533207 ], [ 94.5179916, 25.0548829 ], [ 94.5181115, 25.0488646 ], [ 94.5198229, 25.045847 ], [ 94.5224861, 25.0441138 ], [ 94.526261, 25.0440941 ], [ 94.5286313, 25.0458011 ], [ 94.5288266, 25.0518177 ], [ 94.5401879, 25.0573454 ], [ 94.5406728, 25.0593488 ], [ 94.5466839, 25.0644746 ], [ 94.5515588, 25.0641619 ], [ 94.5533836, 25.0616275 ], [ 94.5521703, 25.0579412 ], [ 94.5535995, 25.0564775 ], [ 94.556865, 25.0576456 ], [ 94.5552426, 25.0501008 ], [ 94.5566489, 25.0486603 ], [ 94.5626355, 25.0500606 ], [ 94.5672276, 25.0546202 ], [ 94.5730506, 25.0550178 ], [ 94.5741585, 25.0560147 ], [ 94.5740366, 25.0613166 ], [ 94.5757642, 25.060877 ], [ 94.5804504, 25.0629538 ], [ 94.5856984, 25.062034 ], [ 94.5938889, 25.057773 ], [ 94.6040987, 25.0546958 ], [ 94.6076473, 25.0554543 ], [ 94.608883, 25.0574503 ], [ 94.6142576, 25.0571965 ], [ 94.6167098, 25.0584065 ], [ 94.6174602, 25.0608502 ], [ 94.6163754, 25.062971 ], [ 94.6185787, 25.0635146 ], [ 94.6302898, 25.0607748 ], [ 94.6342101, 25.0621983 ], [ 94.6392633, 25.0681775 ], [ 94.6456109, 25.067249 ], [ 94.6477933, 25.0648988 ], [ 94.6537189, 25.0730979 ], [ 94.6567082, 25.0807582 ], [ 94.6562349, 25.0828755 ], [ 94.660039, 25.0849666 ], [ 94.6614229, 25.0902999 ], [ 94.6670788, 25.0948275 ], [ 94.6833433, 25.0959503 ], [ 94.6947638, 25.1028888 ], [ 94.6979134, 25.0991964 ] ] ] } }
]
}
