{
"type": "FeatureCollection",
"name": "1502",
"crs": { "type": "name", "properties": { "name": "urn:ogc:def:crs:OGC:1.3:CRS84" } },
"features": [
{ "type": "Feature", "properties": { "code": "1502", "name": "Kolasib", "type": "district" }, "geometry": { "type": "Polygon", "coordinates": [ [ [ 92.7629972, 24.5211317 ], [ 92.7966964, 24.4328318 ], [ 92.8012742, 24.4296521 ], [ 92.8011632, 24.4253546 ], [ 92.8026971, 24.4243577 ], [ 92.8017922, 24.4205789 ], [ 92.7993674, 24.4191287 ], [ 92.8041504, 24.4176594 ], [ 92.8068465, 24.4188478 ], [ 92.8089976, 24.4156934 ], [ 92.808797, 24.4126824 ], [ 92.8116117, 24.4132839 ], [ 92.8100742, 24.4118614 ], [ 92.8121647, 24.4114785 ], [ 92.8124467, 24.4092848 ], [ 92.8189438, 24.4100501 ], [ 92.8176826, 24.4080228 ], [ 92.8191324, 24.4071206 ], [ 92.8187486, 24.4054818 ], [ 92.8201641, 24.4037127 ], [ 92.8237436, 24.4018857 ], [ 92.8276822, 24.4021217 ], [ 92.8299455, 24.4002896 ], [ 92.8231435, 24.3864696 ], [ 92.8266105, 24.3812343 ], [ 92.8261786, 24.3763769 ], [ 92.8298759, 24.3736064 ], [ 92.836168, 24.3783479 ], [ 92.8395296, 24.3768681 ], [ 92.842999, 24.3776317 ], [ 92.8452262, 24.3797043 ], [ 92.8462402, 24.3860017 ], [ 92.8478666, 24.3861284 ], [ 92.8496206, 24.3896272 ], [ 92.8564564, 24.3936232 ], [ 92.8609414, 24.3984989 ], [ 92.8688038, 24.3946488 ], [ 92.8705092, 24.3955563 ], [ 92.8733436, 24.3948611 ], [ 92.8836854, 24.402413 ], [ 92.8885553, 24.3983318 ], [ 92.891454, 24.4004487 ], [ 92.8907981, 24.3983316 ], [ 92.8925626, 24.3974738 ], [ 92.8927345, 24.3929144 ], [ 92.8961234, 24.3919905 ], [ 92.8958004, 24.3858401 ], [ 92.8929552, 24.3845073 ], [ 92.891169, 24.3862648 ], [ 92.8913458, 24.3896582 ], [ 92.8898901, 24.3894159 ], [ 92.8901543, 24.384952 ], [ 92.8867356, 24.383296 ], [ 92.8853901, 24.3802259 ], [ 92.8867351, 24.3779434 ], [ 92.8939246, 24.3778618 ], [ 92.8949388, 24.3764276 ], [ 92.8924455, 24.3666922 ], [ 92.8867342, 24.3680865 ], [ 92.8886743, 24.3633598 ], [ 92.8850358, 24.3623299 ], [ 92.8868436, 24.3582901 ], [ 92.8924217, 24.3540882 ], [ 92.8864239, 24.3502107 ], [ 92.8807348, 24.3384957 ], [ 92.8767884, 24.3333451 ], [ 92.8737902, 24.3320726 ], [ 92.871718, 24.3280934 ], [ 92.8665594, 24.3288608 ], [ 92.8651709, 24.3245786 ], [ 92.8635174, 24.3273861 ], [ 92.8615334, 24.3268203 ], [ 92.8607621, 24.3242146 ], [ 92.8664058, 24.3193674 ], [ 92.8694257, 24.320438 ], [ 92.8698446, 24.3174284 ], [ 92.8675743, 24.3150449 ], [ 92.8615568, 24.3143779 ], [ 92.8576556, 24.3112688 ], [ 92.8568625, 24.3087621 ], [ 92.857287, 24.3064525 ], [ 92.8600188, 24.3085859 ], [ 92.862074, 24.3085862 ], [ 92.8621556, 24.3022593 ], [ 92.8702547, 24.2965905 ], [ 92.8711181, 24.2929812 ], [ 92.8701638, 24.2899618 ], [ 92.8723605, 24.2866151 ], [ 92.8688573, 24.2831092 ], [ 92.8724429, 24.2795387 ], [ 92.8721553, 24.2775879 ], [ 92.8660348, 24.2767191 ], [ 92.8601515, 24.2679787 ], [ 92.8603848, 24.2651502 ], [ 92.8651824, 24.2624039 ], [ 92.8601183, 24.2612724 ], [ 92.8584649, 24.25869 ], [ 92.8620691, 24.2584599 ], [ 92.8616793, 24.2551143 ], [ 92.864522, 24.2522714 ], [ 92.8587616, 24.2503229 ], [ 92.86148, 24.2463876 ], [ 92.8590877, 24.2436336 ], [ 92.8632579, 24.2419638 ], [ 92.8684321, 24.2434902 ], [ 92.8709332, 24.2429712 ], [ 92.8758369, 24.2383668 ], [ 92.8774173, 24.2340964 ], [ 92.8795638, 24.2332116 ], [ 92.8859047, 24.2392697 ], [ 92.8869586, 24.2454226 ], [ 92.8880959, 24.2455715 ], [ 92.8899468, 24.2413234 ], [ 92.8966845, 24.2389667 ], [ 92.9002684, 24.2260236 ], [ 92.8984564, 24.2231979 ], [ 92.8990268, 24.2189228 ], [ 92.8946304, 24.2122421 ], [ 92.8982334, 24.2121921 ], [ 92.8962395, 24.2085538 ], [ 92.8970955, 24.2057774 ], [ 92.8927937, 24.2046628 ], [ 92.8938959, 24.2020489 ], [ 92.8918385, 24.2001441 ], [ 92.8936839, 24.1979861 ], [ 92.8908027, 24.1738438 ], [ 92.8818964, 24.1703637 ], [ 92.8856703, 24.1687068 ], [ 92.8837708, 24.1607075 ], [ 92.8799085, 24.1581344 ], [ 92.8818765, 24.156586 ], [ 92.8818814, 24.1546629 ], [ 92.8794906, 24.1507941 ], [ 92.8748113, 24.1479652 ], [ 92.8714895, 24.1400649 ], [ 92.8713553, 24.1357447 ], [ 92.8758061, 24.1325111 ], [ 92.8765095, 24.1302674 ], [ 92.8706501, 24.1279027 ], [ 92.8699975, 24.1220962 ], [ 92.866063, 24.1185837 ], [ 92.8686554, 24.1147874 ], [ 92.8676427, 24.1097358 ], [ 92.8630986, 24.1072615 ], [ 92.858633, 24.1072474 ], [ 92.8587327, 24.0993202 ], [ 92.8554475, 24.0998027 ], [ 92.854598, 24.0932658 ], [ 92.8577461, 24.0883502 ], [ 92.8543352, 24.0798536 ], [ 92.8554074, 24.0779939 ], [ 92.8543365, 24.0730505 ], [ 92.8475722, 24.068291 ], [ 92.8459413, 24.0632255 ], [ 92.8469451, 24.0599574 ], [ 92.844631, 24.0546615 ], [ 92.8470162, 24.0510189 ], [ 92.8447507, 24.0481924 ], [ 92.8447661, 24.0459352 ], [ 92.8481141, 24.0443695 ], [ 92.8468856, 24.0426808 ], [ 92.8475119, 24.0349388 ], [ 92.8466175, 24.034135 ], [ 92.843304, 24.0362425 ], [ 92.8417123, 24.0330504 ], [ 92.8446917, 24.0305276 ], [ 92.8458084, 24.0268486 ], [ 92.8410066, 24.0263915 ], [ 92.8412042, 24.0229516 ], [ 92.8393374, 24.0203598 ], [ 92.8402232, 24.0166357 ], [ 92.838882, 24.015105 ], [ 92.8357655, 24.0168331 ], [ 92.8334531, 24.0238704 ], [ 92.8312956, 24.023653 ], [ 92.8288989, 24.0190566 ], [ 92.830861, 24.0161274 ], [ 92.8288324, 24.0132149 ], [ 92.8291632, 24.0093462 ], [ 92.8269505, 24.000487 ], [ 92.8243461, 24.000301 ], [ 92.825197, 23.9965368 ], [ 92.8207979, 23.9940894 ], [ 92.825243, 23.9905967 ], [ 92.8216237, 23.9869465 ], [ 92.8266912, 23.98608 ], [ 92.8233578, 23.981551 ], [ 92.8205305, 23.9816698 ], [ 92.820525, 23.9719109 ], [ 92.8182743, 23.9669294 ], [ 92.8168207, 23.9674252 ], [ 92.8160761, 23.9663727 ], [ 92.8176977, 23.958726 ], [ 92.821704, 23.9561836 ], [ 92.8224666, 23.9533932 ], [ 92.8189444, 23.9489371 ], [ 92.8194622, 23.9449427 ], [ 92.8160892, 23.9424964 ], [ 92.8149549, 23.9388352 ], [ 92.8158429, 23.935979 ], [ 92.8185757, 23.9350367 ], [ 92.8124763, 23.9291498 ], [ 92.8111219, 23.9218422 ], [ 92.807764, 23.9219525 ], [ 92.806648, 23.9196197 ], [ 92.8117175, 23.9161302 ], [ 92.8162658, 23.9186132 ], [ 92.8153194, 23.9138654 ], [ 92.8196611, 23.9162708 ], [ 92.8219456, 23.9120861 ], [ 92.818535, 23.9098472 ], [ 92.8195909, 23.9063025 ], [ 92.8174161, 23.896231 ], [ 92.810089, 23.8942961 ], [ 92.8092309, 23.8921378 ], [ 92.8104049, 23.8911452 ], [ 92.8089621, 23.8899166 ], [ 92.8102697, 23.88687 ], [ 92.8060381, 23.8859786 ], [ 92.8049965, 23.8787008 ], [ 92.8026865, 23.8748217 ], [ 92.8030374, 23.8708762 ], [ 92.8005713, 23.8655388 ], [ 92.8018734, 23.8635892 ], [ 92.8018662, 23.8593185 ], [ 92.8004532, 23.8582433 ], [ 92.8018821, 23.8572103 ], [ 92.8009808, 23.8540767 ], [ 92.7970874, 23.8480343 ], [ 92.7930088, 23.8477566 ], [ 92.7876758, 23.8514374 ], [ 92.782361, 23.8502738 ], [ 92.7768179, 23.8522069 ], [ 92.7491752, 23.8458792 ], [ 92.7435433, 23.8500501 ], [ 92.7356817, 23.8490912 ], [ 92.7280029, 23.8524545 ], [ 92.7261563, 23.8511059 ], [ 92.7228852, 23.854891 ], [ 92.7127511, 23.858075 ], [ 92.7118982, 23.8600573 ], [ 92.7086693, 23.8617699 ], [ 92.7036015, 23.8582827 ], [ 92.6984571, 23.8580097 ], [ 92.6984757, 23.8559556 ], [ 92.6973809, 23.8556446 ], [ 92.6929893, 23.8587705 ], [ 92.6916342, 23.8580758 ], [ 92.6865889, 23.8598203 ], [ 92.6850341, 23.8629088 ], [ 92.6798521, 23.867249 ], [ 92.6724738, 23.8669622 ], [ 92.6702519, 23.865382 ], [ 92.6677869, 23.8675215 ], [ 92.6622797, 23.8680627 ], [ 92.6630892, 23.872452 ], [ 92.6618199, 23.8814292 ], [ 92.6554924, 23.8857507 ], [ 92.6500043, 23.8917512 ], [ 92.6519156, 23.8995655 ], [ 92.6562859, 23.9007883 ], [ 92.6609713, 23.9053425 ], [ 92.6591373, 23.9166651 ], [ 92.6532797, 23.9222686 ], [ 92.6441059, 23.9223103 ], [ 92.6441703, 23.9275696 ], [ 92.6419064, 23.9304997 ], [ 92.6380265, 23.9304774 ], [ 92.6254483, 23.9340303 ], [ 92.6212783, 23.9372986 ], [ 92.6239598, 23.9409961 ], [ 92.6243821, 23.9441833 ], [ 92.6283165, 23.9438764 ], [ 92.6290926, 23.945479 ], [ 92.6262681, 23.9505126 ], [ 92.6256833, 23.9557042 ], [ 92.620594, 23.9578754 ], [ 92.6203874, 23.9611709 ], [ 92.6223076, 23.9720011 ], [ 92.6257709, 23.9819104 ], [ 92.6317651, 23.985188 ], [ 92.6316522, 23.9892329 ], [ 92.6295295, 23.9935848 ], [ 92.6329201, 23.9983068 ], [ 92.6307629, 24.0015223 ], [ 92.6213964, 24.0054811 ], [ 92.618629, 24.0124151 ], [ 92.621897, 24.0154264 ], [ 92.6235823, 24.0231777 ], [ 92.6287036, 24.032631 ], [ 92.6355111, 24.0317416 ], [ 92.6360716, 24.0353124 ], [ 92.6328913, 24.0352403 ], [ 92.6302027, 24.0366984 ], [ 92.6271353, 24.0417545 ], [ 92.6244858, 24.043041 ], [ 92.6226083, 24.0378449 ], [ 92.6242748, 24.0329212 ], [ 92.6219942, 24.0320093 ], [ 92.6174718, 24.0363924 ], [ 92.6155685, 24.0457415 ], [ 92.6116744, 24.0519168 ], [ 92.6048167, 24.0511077 ], [ 92.6010902, 24.0522898 ], [ 92.5983614, 24.0538648 ], [ 92.5932019, 24.0627795 ], [ 92.5856451, 24.0637481 ], [ 92.5871324, 24.0708797 ], [ 92.5861622, 24.0757053 ], [ 92.5808169, 24.0774823 ], [ 92.5784083, 24.0756352 ], [ 92.574007, 24.077164 ], [ 92.5715688, 24.0758945 ], [ 92.5754226, 24.0667062 ], [ 92.5707886, 24.0617974 ], [ 92.5736831, 24.0533024 ], [ 92.5687209, 24.0471926 ], [ 92.5660939, 24.0410655 ], [ 92.5638415, 24.0432133 ], [ 92.5587944, 24.0409133 ], [ 92.5587918, 24.0456699 ], [ 92.5636096, 24.054439 ], [ 92.5622867, 24.0553774 ], [ 92.5577495, 24.0546575 ], [ 92.5575782, 24.062043 ], [ 92.5519925, 24.0633629 ], [ 92.5495791, 24.054509 ], [ 92.5497587, 24.0424256 ], [ 92.5453458, 24.041552 ], [ 92.5419412, 24.0376586 ], [ 92.5382167, 24.0357198 ], [ 92.533971, 24.0473818 ], [ 92.5350487, 24.0524331 ], [ 92.5379366, 24.056254 ], [ 92.5357134, 24.0644688 ], [ 92.5391786, 24.0794955 ], [ 92.5359239, 24.0926069 ], [ 92.5400942, 24.0993584 ], [ 92.5365754, 24.109667 ], [ 92.5388636, 24.117265 ], [ 92.5436523, 24.1247581 ], [ 92.5427907, 24.1260262 ], [ 92.5374886, 24.1254362 ], [ 92.5360167, 24.1271101 ], [ 92.5387659, 24.1346733 ], [ 92.5443364, 24.1389019 ], [ 92.5452003, 24.1417916 ], [ 92.5374417, 24.1564089 ], [ 92.5268223, 24.1651869 ], [ 92.5343259, 24.1716247 ], [ 92.53637, 24.1754 ], [ 92.5311176, 24.1851381 ], [ 92.5346377, 24.193667 ], [ 92.5378405, 24.1967694 ], [ 92.5366886, 24.2012551 ], [ 92.5404818, 24.2035822 ], [ 92.5420105, 24.2075159 ], [ 92.5409556, 24.2102403 ], [ 92.5432629, 24.2114661 ], [ 92.5422966, 24.2134447 ], [ 92.5436042, 24.2158133 ], [ 92.5459219, 24.2169057 ], [ 92.5471164, 24.2201571 ], [ 92.5467487, 24.2299078 ], [ 92.5484842, 24.2318649 ], [ 92.5468661, 24.2329683 ], [ 92.5470522, 24.2364539 ], [ 92.5506548, 24.2470012 ], [ 92.5553519, 24.2468363 ], [ 92.5635716, 24.2514219 ], [ 92.5721293, 24.2518817 ], [ 92.5890323, 24.2487665 ], [ 92.5957081, 24.2504878 ], [ 92.6060479, 24.2484534 ], [ 92.6141569, 24.2559521 ], [ 92.6131101, 24.2586462 ], [ 92.6153345, 24.2645663 ], [ 92.6175525, 24.2767702 ], [ 92.6171008, 24.2802458 ], [ 92.6183507, 24.2811903 ], [ 92.6197137, 24.2871322 ], [ 92.6159139, 24.2895756 ], [ 92.6181855, 24.2981772 ], [ 92.6191429, 24.3058928 ], [ 92.618304, 24.3074495 ], [ 92.6194955, 24.3080058 ], [ 92.6195539, 24.3135447 ], [ 92.6238604, 24.3223195 ], [ 92.6215488, 24.3234326 ], [ 92.6231325, 24.3260882 ], [ 92.6224274, 24.3267242 ], [ 92.6236831, 24.3272849 ], [ 92.6223373, 24.3281054 ], [ 92.6224326, 24.3313421 ], [ 92.6246721, 24.3336146 ], [ 92.6302363, 24.3336245 ], [ 92.63539, 24.3367526 ], [ 92.6386857, 24.3344455 ], [ 92.6354242, 24.3335565 ], [ 92.636296, 24.3313445 ], [ 92.6403558, 24.3336103 ], [ 92.6387245, 24.3284236 ], [ 92.6457645, 24.3277817 ], [ 92.6464252, 24.3310229 ], [ 92.6495285, 24.3286795 ], [ 92.6501104, 24.3315956 ], [ 92.6517165, 24.3310491 ], [ 92.6516139, 24.3354685 ], [ 92.6591094, 24.3418952 ], [ 92.6576812, 24.3443783 ], [ 92.6606177, 24.3440526 ], [ 92.6611954, 24.3480611 ], [ 92.6631566, 24.348819 ], [ 92.6642743, 24.346056 ], [ 92.6656204, 24.3496447 ], [ 92.6662995, 24.3463037 ], [ 92.6689355, 24.3460908 ], [ 92.6733911, 24.3496421 ], [ 92.6771558, 24.350151 ], [ 92.6790962, 24.3477984 ], [ 92.6845156, 24.3463924 ], [ 92.6839066, 24.3506992 ], [ 92.6897619, 24.3536039 ], [ 92.6892503, 24.3552382 ], [ 92.6915083, 24.3575395 ], [ 92.691166, 24.3625189 ], [ 92.6947551, 24.3653611 ], [ 92.692825, 24.3684678 ], [ 92.6950083, 24.3687873 ], [ 92.6976358, 24.3743028 ], [ 92.7000705, 24.3738613 ], [ 92.7004545, 24.3750035 ], [ 92.7019036, 24.3743494 ], [ 92.7036135, 24.3754469 ], [ 92.7046277, 24.3783091 ], [ 92.7032174, 24.3803266 ], [ 92.7040932, 24.3846379 ], [ 92.7056605, 24.384381 ], [ 92.7073355, 24.3869862 ], [ 92.7064712, 24.3921502 ], [ 92.7092754, 24.3933653 ], [ 92.7100534, 24.3960965 ], [ 92.70922, 24.3973468 ], [ 92.713275, 24.4033155 ], [ 92.711376, 24.4072242 ], [ 92.7150874, 24.4095364 ], [ 92.7128981, 24.4112061 ], [ 92.7150859, 24.414976 ], [ 92.7172402, 24.415342 ], [ 92.7179686, 24.4201498 ], [ 92.7217884, 24.425229 ], [ 92.7212458, 24.4265696 ], [ 92.7229365, 24.4284568 ], [ 92.721708, 24.4319505 ], [ 92.7261197, 24.4385149 ], [ 92.7274989, 24.4464238 ], [ 92.7306101, 24.4490063 ], [ 92.7336471, 24.4547396 ], [ 92.7405057, 24.4685489 ], [ 92.7406732, 24.4719209 ], [ 92.743657, 24.4765751 ], [ 92.7469811, 24.4870254 ], [ 92.7508187, 24.4920857 ], [ 92.7493703, 24.4951676 ], [ 92.7542228, 24.5019988 ], [ 92.7518924, 24.5040147 ], [ 92.7521516, 24.5062314 ], [ 92.7561298, 24.5095705 ], [ 92.7560394, 24.5112631 ], [ 92.7580526, 24.5110209 ], [ 92.7576467, 24.5125419 ], [ 92.7629972, 24.5211317 ] ] ] } }
]
}
