{
"type": "FeatureCollection",
"name": "1505",
"crs": { "type": "name", "properties": { "name": "urn:ogc:def:crs:OGC:1.3:CRS84" } },
"features": [
{ "type": "Feature", "properties": { "code": "1505", "name": "Serchhip", "type": "district" }, "geometry": { "type": "Polygon", "coordinates": [ [ [ 92.7855508, 23.6000826 ], [ 92.7878081, 23.598506 ], [ 92.7909169, 23.5918748 ], [ 92.7937021, 23.5821469 ], [ 92.8018652, 23.5856898 ], [ 92.8070307, 23.5837029 ], [ 92.8091041, 23.5846081 ], [ 92.8087143, 23.5866812 ], [ 92.8150724, 23.5869708 ], [ 92.8173138, 23.5898735 ], [ 92.8231436, 23.591918 ], [ 92.8222592, 23.588015 ], [ 92.8248076, 23.5854155 ], [ 92.8277466, 23.5853533 ], [ 92.829345, 23.581557 ], [ 92.8339462, 23.5766374 ], [ 92.8422885, 23.5740077 ], [ 92.8459763, 23.5753223 ], [ 92.8526108, 23.5741693 ], [ 92.8591592, 23.5616814 ], [ 92.8668438, 23.5577545 ], [ 92.8691654, 23.554793 ], [ 92.8716386, 23.5546442 ], [ 92.8753604, 23.5579987 ], [ 92.8822511, 23.5581207 ], [ 92.8813353, 23.5605225 ], [ 92.8827507, 23.5627889 ], [ 92.8804782, 23.5643149 ], [ 92.8839295, 23.567076 ], [ 92.8838822, 23.5684954 ], [ 92.8875919, 23.572667 ], [ 92.8913223, 23.5727027 ], [ 92.8904849, 23.5742965 ], [ 92.8914891, 23.5762106 ], [ 92.8950255, 23.5761922 ], [ 92.8949914, 23.5775421 ], [ 92.896696, 23.5779844 ], [ 92.898954, 23.5779029 ], [ 92.8969157, 23.5716955 ], [ 92.9023808, 23.5660243 ], [ 92.9066807, 23.5643714 ], [ 92.9117439, 23.5602214 ], [ 92.9240895, 23.5577624 ], [ 92.9364615, 23.5602009 ], [ 92.9442576, 23.5587984 ], [ 92.9519166, 23.551106 ], [ 92.9595244, 23.5379547 ], [ 92.9612833, 23.5326035 ], [ 92.9642944, 23.5295675 ], [ 92.9723846, 23.5258063 ], [ 92.9837098, 23.5128584 ], [ 92.9855982, 23.5077349 ], [ 92.989886, 23.5122365 ], [ 92.9901669, 23.5113899 ], [ 92.9945978, 23.5119745 ], [ 92.998749, 23.5144913 ], [ 93.0015595, 23.5132846 ], [ 93.0107224, 23.5132282 ], [ 93.0176018, 23.5077517 ], [ 93.019545, 23.5034396 ], [ 93.0158882, 23.5016328 ], [ 93.0146248, 23.4979012 ], [ 93.0232029, 23.4965395 ], [ 93.0261057, 23.4934851 ], [ 93.0279815, 23.4933041 ], [ 93.0298956, 23.4823078 ], [ 93.0375161, 23.4712199 ], [ 93.0456044, 23.4664217 ], [ 93.0467478, 23.4693947 ], [ 93.0520635, 23.4716952 ], [ 93.0618906, 23.4702839 ], [ 93.0643289, 23.4712303 ], [ 93.0675129, 23.4761438 ], [ 93.0774775, 23.4780755 ], [ 93.0785582, 23.4738276 ], [ 93.0816855, 23.4692538 ], [ 93.0786977, 23.467678 ], [ 93.0705093, 23.4688034 ], [ 93.0703597, 23.4644725 ], [ 93.0785641, 23.4557224 ], [ 93.0838615, 23.4556337 ], [ 93.0868008, 23.4532459 ], [ 93.0981981, 23.4505337 ], [ 93.0989258, 23.4464955 ], [ 93.0979198, 23.4430668 ], [ 93.0857465, 23.4333169 ], [ 93.0822696, 23.4137796 ], [ 93.0795625, 23.4095164 ], [ 93.0789062, 23.4055492 ], [ 93.0766021, 23.4029417 ], [ 93.0672037, 23.3970682 ], [ 93.0632634, 23.4002655 ], [ 93.0595536, 23.3996761 ], [ 93.0538617, 23.4028926 ], [ 93.0360377, 23.4000018 ], [ 93.0324733, 23.3976902 ], [ 93.0330361, 23.3945623 ], [ 93.0358649, 23.3923297 ], [ 93.0375424, 23.3842978 ], [ 93.0413802, 23.3791176 ], [ 93.0485876, 23.3727645 ], [ 93.0485876, 23.3697299 ], [ 93.0456561, 23.3668383 ], [ 93.0409227, 23.3573816 ], [ 93.0416752, 23.354455 ], [ 93.039692, 23.3489133 ], [ 93.0357518, 23.3469843 ], [ 93.0371742, 23.3433717 ], [ 93.033816, 23.3366342 ], [ 93.0344185, 23.3324675 ], [ 93.0324828, 23.3303318 ], [ 93.0319175, 23.3267909 ], [ 93.027492, 23.3248279 ], [ 93.0251805, 23.3211782 ], [ 93.0189364, 23.3187552 ], [ 93.0058413, 23.3048083 ], [ 93.0067592, 23.3013996 ], [ 93.0051014, 23.2904546 ], [ 93.006912, 23.2873662 ], [ 93.0070222, 23.281536 ], [ 93.0110292, 23.2739773 ], [ 93.0195109, 23.267977 ], [ 93.0306017, 23.2659856 ], [ 93.030938, 23.2647526 ], [ 93.0276512, 23.2619844 ], [ 93.0316044, 23.2600175 ], [ 93.032318, 23.2543947 ], [ 93.0376866, 23.2537605 ], [ 93.0431067, 23.2494363 ], [ 93.0390587, 23.2459246 ], [ 93.0361064, 23.2462427 ], [ 93.0341953, 23.2448556 ], [ 93.0380266, 23.2429762 ], [ 93.0383849, 23.2369336 ], [ 93.0410466, 23.2396646 ], [ 93.0476973, 23.2376825 ], [ 93.0498367, 23.238445 ], [ 93.0526063, 23.2410576 ], [ 93.0534884, 23.2400188 ], [ 93.0542677, 23.2435236 ], [ 93.0669333, 23.2348299 ], [ 93.06905, 23.229781 ], [ 93.0826808, 23.2260732 ], [ 93.0920223, 23.2309655 ], [ 93.0972346, 23.2362233 ], [ 93.0993691, 23.2405394 ], [ 93.1053737, 23.240404 ], [ 93.1107872, 23.2364033 ], [ 93.1103723, 23.2348343 ], [ 93.1127247, 23.233337 ], [ 93.1133178, 23.2313571 ], [ 93.1193489, 23.2284882 ], [ 93.1238298, 23.2240456 ], [ 93.1290267, 23.2226346 ], [ 93.1365938, 23.2164541 ], [ 93.1460605, 23.2021882 ], [ 93.1491252, 23.2001704 ], [ 93.1542802, 23.1992028 ], [ 93.1581473, 23.19905 ], [ 93.1581024, 23.2008474 ], [ 93.1593393, 23.2010846 ], [ 93.1626665, 23.1979106 ], [ 93.1611569, 23.1930905 ], [ 93.1579675, 23.1957421 ], [ 93.1511655, 23.1906291 ], [ 93.1455025, 23.1902627 ], [ 93.1452637, 23.1846838 ], [ 93.1477278, 23.1807613 ], [ 93.1589351, 23.177974 ], [ 93.1611223, 23.1757477 ], [ 93.1597297, 23.1715176 ], [ 93.1626482, 23.1650608 ], [ 93.1618712, 23.1622436 ], [ 93.1669038, 23.1557682 ], [ 93.1690649, 23.1490495 ], [ 93.1713295, 23.1463625 ], [ 93.1688826, 23.1434601 ], [ 93.1728363, 23.1408449 ], [ 93.1676893, 23.1360875 ], [ 93.1654855, 23.1282005 ], [ 93.1673243, 23.1222855 ], [ 93.1646186, 23.1167057 ], [ 93.1628284, 23.1015224 ], [ 93.1658426, 23.0939051 ], [ 93.170317, 23.0905765 ], [ 93.1698765, 23.0860165 ], [ 93.1751991, 23.0811525 ], [ 93.1708454, 23.0787292 ], [ 93.1704058, 23.0771625 ], [ 93.1767035, 23.0710928 ], [ 93.1768593, 23.069955 ], [ 93.1750292, 23.0690886 ], [ 93.1747493, 23.0635308 ], [ 93.1798356, 23.0569528 ], [ 93.1689629, 23.0466871 ], [ 93.1603966, 23.0479475 ], [ 93.1598636, 23.044312 ], [ 93.1560889, 23.0431814 ], [ 93.1527997, 23.0441909 ], [ 93.1535342, 23.0463073 ], [ 93.1513513, 23.0537499 ], [ 93.14969, 23.0543362 ], [ 93.1437904, 23.0525937 ], [ 93.140152, 23.0532994 ], [ 93.1403291, 23.0589548 ], [ 93.1371207, 23.060767 ], [ 93.1351493, 23.0599686 ], [ 93.1336719, 23.0582698 ], [ 93.1332619, 23.054742 ], [ 93.1353657, 23.0483583 ], [ 93.1270986, 23.044268 ], [ 93.1258126, 23.0407227 ], [ 93.1258716, 23.0353056 ], [ 93.1282695, 23.0307647 ], [ 93.1252763, 23.02427 ], [ 93.1253566, 23.0182171 ], [ 93.1223312, 23.0063831 ], [ 93.1158172, 23.0133389 ], [ 93.1103981, 23.014431 ], [ 93.1088621, 23.0163802 ], [ 93.0948711, 23.0241653 ], [ 93.0928014, 23.0242199 ], [ 93.0888764, 23.0274903 ], [ 93.0797244, 23.0298841 ], [ 93.0785691, 23.0307722 ], [ 93.0812405, 23.0349737 ], [ 93.0754013, 23.037212 ], [ 93.0679591, 23.0429352 ], [ 93.0664916, 23.0422547 ], [ 93.0527199, 23.0447662 ], [ 93.0426995, 23.0474517 ], [ 93.0384639, 23.0498071 ], [ 93.0397952, 23.0581241 ], [ 93.0378292, 23.066102 ], [ 93.0429716, 23.0740066 ], [ 93.0417502, 23.0746945 ], [ 93.0415252, 23.0777285 ], [ 93.0376239, 23.0791689 ], [ 93.0372302, 23.0814691 ], [ 93.0334851, 23.0818119 ], [ 93.0247045, 23.0791913 ], [ 93.0164438, 23.0810996 ], [ 93.0082591, 23.0875633 ], [ 93.0042843, 23.0880589 ], [ 92.9946023, 23.0940213 ], [ 92.9905425, 23.0949949 ], [ 92.9906173, 23.0969182 ], [ 92.9888355, 23.0963731 ], [ 92.9879765, 23.0990274 ], [ 92.9859688, 23.1003437 ], [ 92.9845087, 23.0993333 ], [ 92.977915, 23.1061551 ], [ 92.9726295, 23.1068355 ], [ 92.9648368, 23.1101357 ], [ 92.9628514, 23.1121008 ], [ 92.9642679, 23.1136622 ], [ 92.9602997, 23.1139171 ], [ 92.9603009, 23.1159488 ], [ 92.9576065, 23.1160314 ], [ 92.9567582, 23.1179416 ], [ 92.9573891, 23.1286416 ], [ 92.9594814, 23.1337063 ], [ 92.9587695, 23.1351966 ], [ 92.9555529, 23.1361283 ], [ 92.9570197, 23.1400329 ], [ 92.9559672, 23.143686 ], [ 92.9570293, 23.1484126 ], [ 92.9549463, 23.1516011 ], [ 92.9560583, 23.1581201 ], [ 92.9540793, 23.1644103 ], [ 92.9473255, 23.1690541 ], [ 92.9399752, 23.1707145 ], [ 92.9361071, 23.1694969 ], [ 92.9323588, 23.1745593 ], [ 92.9348437, 23.1848299 ], [ 92.9325104, 23.1875396 ], [ 92.9229864, 23.1861474 ], [ 92.9169362, 23.189088 ], [ 92.9146491, 23.1834134 ], [ 92.9052651, 23.1775222 ], [ 92.8957952, 23.1782748 ], [ 92.891207, 23.1769514 ], [ 92.8871194, 23.1749696 ], [ 92.8832468, 23.1702877 ], [ 92.8803511, 23.1696783 ], [ 92.8745694, 23.1701928 ], [ 92.8696076, 23.175791 ], [ 92.8625708, 23.1745082 ], [ 92.858018, 23.1836818 ], [ 92.8588375, 23.1894249 ], [ 92.8549642, 23.1903765 ], [ 92.8542359, 23.1944989 ], [ 92.8550947, 23.198725 ], [ 92.8563986, 23.1996643 ], [ 92.8554945, 23.2028155 ], [ 92.8571153, 23.207439 ], [ 92.8558449, 23.2096059 ], [ 92.8585062, 23.2143695 ], [ 92.8569279, 23.2174665 ], [ 92.8531027, 23.2189106 ], [ 92.8505712, 23.2237772 ], [ 92.8479185, 23.2242733 ], [ 92.8473608, 23.2273342 ], [ 92.8453138, 23.2276047 ], [ 92.847038, 23.2290227 ], [ 92.8448541, 23.2296543 ], [ 92.8461388, 23.2298532 ], [ 92.8461139, 23.2320655 ], [ 92.8442376, 23.2329861 ], [ 92.8464505, 23.2338264 ], [ 92.846587, 23.2349461 ], [ 92.8448137, 23.2345845 ], [ 92.845839, 23.236797 ], [ 92.838959, 23.240344 ], [ 92.833314, 23.2459454 ], [ 92.829801, 23.2459984 ], [ 92.8254636, 23.2427012 ], [ 92.8213156, 23.2425281 ], [ 92.8205933, 23.2408663 ], [ 92.8178619, 23.2413709 ], [ 92.8149763, 23.2375367 ], [ 92.8175869, 23.2339258 ], [ 92.8153364, 23.2303763 ], [ 92.8165783, 23.2282367 ], [ 92.8123144, 23.2262213 ], [ 92.8088597, 23.2277909 ], [ 92.7980305, 23.2280398 ], [ 92.7872703, 23.2325656 ], [ 92.779817, 23.2273867 ], [ 92.777734, 23.2297783 ], [ 92.7692396, 23.2343099 ], [ 92.7655175, 23.2334404 ], [ 92.7592438, 23.228844 ], [ 92.7549608, 23.2273282 ], [ 92.7531872, 23.232704 ], [ 92.7408792, 23.233078 ], [ 92.7381981, 23.2342718 ], [ 92.7382489, 23.2366872 ], [ 92.7310819, 23.2369989 ], [ 92.7311377, 23.2397259 ], [ 92.7217622, 23.2400928 ], [ 92.7203637, 23.2382967 ], [ 92.7219302, 23.2356727 ], [ 92.7224905, 23.2190893 ], [ 92.721354, 23.2144577 ], [ 92.7218134, 23.2076129 ], [ 92.7200099, 23.2059434 ], [ 92.7196844, 23.1938709 ], [ 92.7176706, 23.1914656 ], [ 92.7129863, 23.1904387 ], [ 92.699915, 23.1962195 ], [ 92.7017913, 23.1978124 ], [ 92.7008699, 23.2010726 ], [ 92.7022398, 23.2054062 ], [ 92.6988096, 23.2123787 ], [ 92.691881, 23.218576 ], [ 92.6895258, 23.2282387 ], [ 92.6905733, 23.2327305 ], [ 92.6899317, 23.2402706 ], [ 92.6865532, 23.2460824 ], [ 92.6902096, 23.2500442 ], [ 92.6905294, 23.2548124 ], [ 92.6880828, 23.2581724 ], [ 92.6889978, 23.2608358 ], [ 92.6878312, 23.2638115 ], [ 92.689503, 23.2652195 ], [ 92.6893964, 23.2673867 ], [ 92.6853488, 23.2757993 ], [ 92.6873589, 23.2793517 ], [ 92.6845347, 23.2808742 ], [ 92.6859333, 23.2828377 ], [ 92.6833605, 23.2900036 ], [ 92.6848432, 23.2944998 ], [ 92.6841403, 23.2967801 ], [ 92.6864427, 23.2973526 ], [ 92.6870055, 23.2989597 ], [ 92.6841155, 23.3037351 ], [ 92.6859713, 23.3037819 ], [ 92.6864416, 23.3062694 ], [ 92.6884413, 23.3073974 ], [ 92.6841806, 23.3118595 ], [ 92.684769, 23.3162748 ], [ 92.6830923, 23.3227496 ], [ 92.6877164, 23.3248746 ], [ 92.6895187, 23.3229008 ], [ 92.6938407, 23.3237073 ], [ 92.6933187, 23.3260687 ], [ 92.6943998, 23.3274498 ], [ 92.6980258, 23.3241886 ], [ 92.7005899, 23.3195734 ], [ 92.703997, 23.318872 ], [ 92.7134484, 23.3217432 ], [ 92.7141704, 23.327129 ], [ 92.7175612, 23.3312175 ], [ 92.7162788, 23.3366315 ], [ 92.7178844, 23.33966 ], [ 92.7168164, 23.3438639 ], [ 92.7192286, 23.3464992 ], [ 92.715118, 23.3488536 ], [ 92.7212707, 23.3509586 ], [ 92.7233278, 23.348727 ], [ 92.726389, 23.3491632 ], [ 92.7282904, 23.3480874 ], [ 92.7291272, 23.349175 ], [ 92.7329512, 23.3494073 ], [ 92.7314027, 23.344907 ], [ 92.7356213, 23.3436176 ], [ 92.7405462, 23.3390949 ], [ 92.7454321, 23.3407844 ], [ 92.7488413, 23.3398368 ], [ 92.7517096, 23.3417128 ], [ 92.7561809, 23.3392062 ], [ 92.7625035, 23.338439 ], [ 92.7654048, 23.3361748 ], [ 92.7695904, 23.3357128 ], [ 92.7740631, 23.3308083 ], [ 92.7756228, 23.3306152 ], [ 92.7760595, 23.3286877 ], [ 92.779286, 23.327032 ], [ 92.7828764, 23.328539 ], [ 92.7955381, 23.3272371 ], [ 92.8098403, 23.3281151 ], [ 92.8135203, 23.325453 ], [ 92.8200456, 23.3285257 ], [ 92.8216088, 23.331479 ], [ 92.8258562, 23.3342571 ], [ 92.832564, 23.3348868 ], [ 92.8385439, 23.3332768 ], [ 92.840308, 23.3363067 ], [ 92.8410257, 23.3399683 ], [ 92.838106, 23.3420173 ], [ 92.8386817, 23.3460266 ], [ 92.8354095, 23.3492763 ], [ 92.8338727, 23.3534114 ], [ 92.8329502, 23.3625039 ], [ 92.8292611, 23.3672207 ], [ 92.8266252, 23.3671972 ], [ 92.8223739, 23.3708707 ], [ 92.8278982, 23.3757803 ], [ 92.827027, 23.3774233 ], [ 92.8295796, 23.3784671 ], [ 92.8308589, 23.3842012 ], [ 92.8298511, 23.3848511 ], [ 92.8280859, 23.3834283 ], [ 92.8246618, 23.3846416 ], [ 92.8242453, 23.3864067 ], [ 92.8218151, 23.3849295 ], [ 92.8211689, 23.386058 ], [ 92.8216263, 23.391381 ], [ 92.8248353, 23.3907366 ], [ 92.822388, 23.3946636 ], [ 92.8266255, 23.4028413 ], [ 92.8275871, 23.4080878 ], [ 92.8302323, 23.4116237 ], [ 92.8300401, 23.4152987 ], [ 92.8283327, 23.4154381 ], [ 92.8269418, 23.4192751 ], [ 92.8290505, 23.4189734 ], [ 92.828409, 23.420305 ], [ 92.8313391, 23.4213127 ], [ 92.8296453, 23.4240978 ], [ 92.8322919, 23.4247804 ], [ 92.8312723, 23.4300577 ], [ 92.8342125, 23.4310112 ], [ 92.8350952, 23.4396166 ], [ 92.8364745, 23.4410075 ], [ 92.8355152, 23.4417973 ], [ 92.8363268, 23.4437976 ], [ 92.8349273, 23.44405 ], [ 92.8356008, 23.4492918 ], [ 92.8343525, 23.4505691 ], [ 92.8346209, 23.4527001 ], [ 92.8362208, 23.4536938 ], [ 92.8327351, 23.4577606 ], [ 92.8334147, 23.4594041 ], [ 92.8317017, 23.4599544 ], [ 92.8358059, 23.4651972 ], [ 92.8353939, 23.4676441 ], [ 92.8340623, 23.4687769 ], [ 92.8306757, 23.4687036 ], [ 92.8245466, 23.4726429 ], [ 92.818086, 23.4730061 ], [ 92.7999685, 23.4791604 ], [ 92.7981818, 23.4858361 ], [ 92.788358, 23.4825765 ], [ 92.7867478, 23.4761062 ], [ 92.7820112, 23.4761346 ], [ 92.7810237, 23.479057 ], [ 92.7830905, 23.4839697 ], [ 92.7815872, 23.4942763 ], [ 92.7790422, 23.4959577 ], [ 92.7771271, 23.5031142 ], [ 92.781651, 23.5132661 ], [ 92.7814969, 23.5175571 ], [ 92.7859058, 23.5208867 ], [ 92.7964285, 23.5252953 ], [ 92.7945332, 23.5266221 ], [ 92.7967261, 23.5278255 ], [ 92.7957447, 23.532256 ], [ 92.7984799, 23.5339359 ], [ 92.7959863, 23.5359463 ], [ 92.7971964, 23.5369446 ], [ 92.7994453, 23.5362275 ], [ 92.8019805, 23.5389158 ], [ 92.7990257, 23.5388477 ], [ 92.8004078, 23.5415753 ], [ 92.7982583, 23.5440133 ], [ 92.7990068, 23.5456099 ], [ 92.7973347, 23.5505098 ], [ 92.7772888, 23.5563786 ], [ 92.7741158, 23.5583573 ], [ 92.772541, 23.5621609 ], [ 92.7725633, 23.5700858 ], [ 92.7743337, 23.5737977 ], [ 92.7718377, 23.575923 ], [ 92.7742334, 23.5824622 ], [ 92.7729839, 23.5859352 ], [ 92.771061, 23.5866104 ], [ 92.7692859, 23.5945595 ], [ 92.7766302, 23.5995081 ], [ 92.7836264, 23.5988941 ], [ 92.7855508, 23.6000826 ] ] ] } }
]
}
