{
"type": "FeatureCollection",
"name": "1506",
"crs": { "type": "name", "properties": { "name": "urn:ogc:def:crs:OGC:1.3:CRS84" } },
"features": [
{ "type": "Feature", "properties": { "code": "1506", "name": "Lunglei", "type": "district" }, "geometry": { "type": "Polygon", "coordinates": [ [ [ 92.592511, 23.4067091 ], [ 92.5981864, 23.4028503 ], [ 92.6006722, 23.3994738 ], [ 92.5998654, 23.397916 ], [ 92.6066843, 23.3972355 ], [ 92.6136209, 23.3935252 ], [ 92.6161358, 23.3863109 ], [ 92.6217897, 23.3893588 ], [ 92.6256684, 23.389684 ], [ 92.6266424, 23.3920513 ], [ 92.6345076, 23.3932251 ], [ 92.638719, 23.391577 ], [ 92.6389876, 23.3859742 ], [ 92.6434676, 23.384028 ], [ 92.6546143, 23.3843608 ], [ 92.6650022, 23.3822324 ], [ 92.6672864, 23.382426 ], [ 92.6693364, 23.3851028 ], [ 92.6719089, 23.3842308 ], [ 92.6761379, 23.3794349 ], [ 92.6739016, 23.3756792 ], [ 92.6756951, 23.3717283 ], [ 92.6712435, 23.3677926 ], [ 92.6796506, 23.3690544 ], [ 92.6830926, 23.3667913 ], [ 92.685325, 23.3607543 ], [ 92.6849864, 23.3579553 ], [ 92.6871025, 23.3548484 ], [ 92.6848371, 23.3514856 ], [ 92.6868373, 23.3405095 ], [ 92.6845139, 23.3381897 ], [ 92.6840826, 23.3355668 ], [ 92.6858151, 23.3279452 ], [ 92.6846657, 23.3267221 ], [ 92.6818014, 23.3281949 ], [ 92.6808525, 23.3271477 ], [ 92.6846764, 23.3169159 ], [ 92.6841806, 23.3118595 ], [ 92.6884413, 23.3073974 ], [ 92.6864416, 23.3062694 ], [ 92.6859713, 23.3037819 ], [ 92.6841155, 23.3037351 ], [ 92.6870055, 23.2989597 ], [ 92.6864427, 23.2973526 ], [ 92.6841403, 23.2967801 ], [ 92.6848432, 23.2944998 ], [ 92.6833605, 23.2900036 ], [ 92.6859333, 23.2828377 ], [ 92.6845347, 23.2808742 ], [ 92.6873589, 23.2793517 ], [ 92.6853488, 23.2757993 ], [ 92.6893964, 23.2673867 ], [ 92.689503, 23.2652195 ], [ 92.6878312, 23.2638115 ], [ 92.6889978, 23.2608358 ], [ 92.6880828, 23.2581724 ], [ 92.6905294, 23.2548124 ], [ 92.6902096, 23.2500442 ], [ 92.6865532, 23.2460824 ], [ 92.6899317, 23.2402706 ], [ 92.6905733, 23.2327305 ], [ 92.6895258, 23.2282387 ], [ 92.691881, 23.218576 ], [ 92.6988096, 23.2123787 ], [ 92.7022398, 23.2054062 ], [ 92.7008699, 23.2010726 ], [ 92.7017913, 23.1978124 ], [ 92.7000419, 23.1960299 ], [ 92.7129863, 23.1904387 ], [ 92.7176706, 23.1914656 ], [ 92.7196844, 23.1938709 ], [ 92.7200099, 23.2059434 ], [ 92.7218134, 23.2076129 ], [ 92.721354, 23.2144577 ], [ 92.7224905, 23.2190893 ], [ 92.7219302, 23.2356727 ], [ 92.7203637, 23.2382967 ], [ 92.7217622, 23.2400928 ], [ 92.7311377, 23.2397259 ], [ 92.7310819, 23.2369989 ], [ 92.7382489, 23.2366872 ], [ 92.7381981, 23.2342718 ], [ 92.7408792, 23.233078 ], [ 92.7531872, 23.232704 ], [ 92.7549608, 23.2273282 ], [ 92.7592438, 23.228844 ], [ 92.7655175, 23.2334404 ], [ 92.7692396, 23.2343099 ], [ 92.777734, 23.2297783 ], [ 92.779817, 23.2273867 ], [ 92.7872703, 23.2325656 ], [ 92.7980305, 23.2280398 ], [ 92.8088597, 23.2277909 ], [ 92.8123144, 23.2262213 ], [ 92.8165783, 23.2282367 ], [ 92.8153364, 23.2303763 ], [ 92.8175869, 23.2339258 ], [ 92.8149763, 23.2375367 ], [ 92.8178619, 23.2413709 ], [ 92.8205933, 23.2408663 ], [ 92.8213156, 23.2425281 ], [ 92.8254636, 23.2427012 ], [ 92.829801, 23.2459984 ], [ 92.833314, 23.2459454 ], [ 92.838959, 23.240344 ], [ 92.845839, 23.236797 ], [ 92.8448137, 23.2345845 ], [ 92.846587, 23.2349461 ], [ 92.8464505, 23.2338264 ], [ 92.8442376, 23.2329861 ], [ 92.8461139, 23.2320655 ], [ 92.8461388, 23.2298532 ], [ 92.8448541, 23.2296543 ], [ 92.847038, 23.2290227 ], [ 92.8453138, 23.2276047 ], [ 92.8473608, 23.2273342 ], [ 92.8479185, 23.2242733 ], [ 92.8505712, 23.2237772 ], [ 92.8531027, 23.2189106 ], [ 92.8569279, 23.2174665 ], [ 92.8585698, 23.2141347 ], [ 92.8558449, 23.2096059 ], [ 92.8571153, 23.207439 ], [ 92.8554945, 23.2028155 ], [ 92.8563401, 23.1993211 ], [ 92.8542454, 23.196061 ], [ 92.8547348, 23.1906794 ], [ 92.8588375, 23.1894249 ], [ 92.8583307, 23.1829956 ], [ 92.8625708, 23.1745082 ], [ 92.8661728, 23.1739731 ], [ 92.8660049, 23.1701641 ], [ 92.8637695, 23.1694374 ], [ 92.863739, 23.1672573 ], [ 92.8670654, 23.1659393 ], [ 92.8679733, 23.1643429 ], [ 92.8661575, 23.1571426 ], [ 92.8636627, 23.1563931 ], [ 92.8652267, 23.1545391 ], [ 92.8654404, 23.1491261 ], [ 92.8622131, 23.1434746 ], [ 92.8652649, 23.1364002 ], [ 92.8634338, 23.1321717 ], [ 92.8595657, 23.1315327 ], [ 92.8589172, 23.1221084 ], [ 92.8594894, 23.1200428 ], [ 92.8641281, 23.1201496 ], [ 92.8685989, 23.1175594 ], [ 92.8683243, 23.1103554 ], [ 92.8704147, 23.1076679 ], [ 92.8675079, 23.1016846 ], [ 92.8646088, 23.1019039 ], [ 92.8651352, 23.0988311 ], [ 92.8628998, 23.0903663 ], [ 92.8692398, 23.0870209 ], [ 92.8718185, 23.0816154 ], [ 92.8744659, 23.08284 ], [ 92.8739471, 23.0786495 ], [ 92.8781281, 23.0747814 ], [ 92.8778, 23.0656014 ], [ 92.8748016, 23.0606041 ], [ 92.8764801, 23.0527763 ], [ 92.8834, 23.0431766 ], [ 92.883049, 23.0298099 ], [ 92.8806915, 23.0245953 ], [ 92.8822861, 23.0066872 ], [ 92.8814163, 23.0044937 ], [ 92.8842316, 23.0015869 ], [ 92.8858356, 22.9920752 ], [ 92.8903766, 22.9885536 ], [ 92.889622, 22.9790875 ], [ 92.8839159, 22.965332 ], [ 92.887517, 22.962565 ], [ 92.8903104, 22.9525032 ], [ 92.8881789, 22.9502128 ], [ 92.8887879, 22.9470751 ], [ 92.8859944, 22.9425208 ], [ 92.8813342, 22.9397671 ], [ 92.8805796, 22.937106 ], [ 92.8603898, 22.9163734 ], [ 92.8600191, 22.9127061 ], [ 92.8652618, 22.9088932 ], [ 92.8659503, 22.9037564 ], [ 92.8703589, 22.8997184 ], [ 92.8708223, 22.8974148 ], [ 92.8697896, 22.8958526 ], [ 92.8666122, 22.8959453 ], [ 92.863501, 22.8942506 ], [ 92.8599794, 22.8893786 ], [ 92.8601647, 22.8835136 ], [ 92.8510562, 22.8781518 ], [ 92.8508046, 22.8766557 ], [ 92.8535981, 22.8750538 ], [ 92.8538761, 22.8709496 ], [ 92.8551868, 22.8704598 ], [ 92.8656987, 22.8753318 ], [ 92.8661753, 22.8724457 ], [ 92.8736555, 22.8685401 ], [ 92.8785805, 22.8628737 ], [ 92.8782627, 22.8603847 ], [ 92.8720971, 22.8597071 ], [ 92.8702998, 22.858363 ], [ 92.8680553, 22.8506142 ], [ 92.8739203, 22.8424324 ], [ 92.8846838, 22.8372691 ], [ 92.8884437, 22.8338004 ], [ 92.8888276, 22.8313644 ], [ 92.8871893, 22.8300038 ], [ 92.8899841, 22.8280162 ], [ 92.888443, 22.8237457 ], [ 92.8920212, 22.7996959 ], [ 92.8901443, 22.7963123 ], [ 92.881691, 22.7899055 ], [ 92.8793259, 22.7848606 ], [ 92.8685226, 22.7808265 ], [ 92.8675385, 22.7744083 ], [ 92.8615417, 22.7715588 ], [ 92.8596039, 22.7630481 ], [ 92.8617554, 22.7598458 ], [ 92.8690491, 22.7597485 ], [ 92.8670807, 22.7493591 ], [ 92.8741989, 22.7429867 ], [ 92.8797226, 22.7421742 ], [ 92.8918533, 22.7324294 ], [ 92.8945847, 22.7321033 ], [ 92.8971329, 22.7357635 ], [ 92.8983002, 22.7300415 ], [ 92.9059067, 22.7295151 ], [ 92.9064331, 22.7238445 ], [ 92.9083557, 22.7258014 ], [ 92.9125664, 22.726348 ], [ 92.9151227, 22.7218092 ], [ 92.923727, 22.7192425 ], [ 92.9355983, 22.708687 ], [ 92.9299095, 22.682063 ], [ 92.9333219, 22.6734695 ], [ 92.9310364, 22.6634692 ], [ 92.9383452, 22.6438256 ], [ 92.9516918, 22.6317196 ], [ 92.9489264, 22.6165497 ], [ 92.9491311, 22.6076276 ], [ 92.9509424, 22.6022898 ], [ 92.946026, 22.5920694 ], [ 92.9478374, 22.5873684 ], [ 92.944669, 22.5810619 ], [ 92.9450017, 22.5749347 ], [ 92.9403789, 22.565635 ], [ 92.9326129, 22.560364 ], [ 92.9311576, 22.5556234 ], [ 92.9279776, 22.5535519 ], [ 92.9214584, 22.5523707 ], [ 92.9173254, 22.5485969 ], [ 92.9121043, 22.5473744 ], [ 92.9052375, 22.5575259 ], [ 92.9058562, 22.5647863 ], [ 92.9012482, 22.569844 ], [ 92.9018374, 22.5762239 ], [ 92.8996939, 22.5805272 ], [ 92.8946912, 22.5848533 ], [ 92.8833668, 22.5824789 ], [ 92.8771042, 22.5840547 ], [ 92.8724263, 22.5897346 ], [ 92.8749975, 22.595143 ], [ 92.8619319, 22.5989989 ], [ 92.8624953, 22.6041373 ], [ 92.8590522, 22.6043672 ], [ 92.849257, 22.6096168 ], [ 92.8466443, 22.6143933 ], [ 92.8440619, 22.6142437 ], [ 92.8450291, 22.616646 ], [ 92.8371865, 22.6253901 ], [ 92.8282962, 22.6238477 ], [ 92.8274245, 22.6266739 ], [ 92.8251922, 22.6260998 ], [ 92.8231098, 22.6278329 ], [ 92.8186942, 22.6262283 ], [ 92.8147832, 22.6273962 ], [ 92.8113866, 22.6306141 ], [ 92.8056821, 22.6290764 ], [ 92.8008937, 22.6247124 ], [ 92.7992079, 22.6214199 ], [ 92.8026852, 22.6131002 ], [ 92.8022685, 22.6104811 ], [ 92.7964741, 22.6061752 ], [ 92.7969299, 22.6004637 ], [ 92.7958568, 22.5978443 ], [ 92.7958984, 22.5933472 ], [ 92.8005106, 22.5891504 ], [ 92.799558, 22.5800743 ], [ 92.8026293, 22.5742603 ], [ 92.8031376, 22.5695105 ], [ 92.8012042, 22.5667462 ], [ 92.8003708, 22.5619597 ], [ 92.7947241, 22.5580195 ], [ 92.7945211, 22.5562674 ], [ 92.7964624, 22.5535097 ], [ 92.7959383, 22.5520555 ], [ 92.7927027, 22.5489473 ], [ 92.7824288, 22.5456632 ], [ 92.7791698, 22.5419136 ], [ 92.7800035, 22.5385818 ], [ 92.7764518, 22.5366019 ], [ 92.7802928, 22.5350917 ], [ 92.7812175, 22.5333223 ], [ 92.7763129, 22.5337708 ], [ 92.7757856, 22.5304607 ], [ 92.7724973, 22.5276817 ], [ 92.7749495, 22.5242788 ], [ 92.7734728, 22.5169947 ], [ 92.7778087, 22.5158642 ], [ 92.7747645, 22.5119972 ], [ 92.7774356, 22.5078359 ], [ 92.7746789, 22.5031608 ], [ 92.7773959, 22.4993189 ], [ 92.7769404, 22.49703 ], [ 92.769042, 22.5030843 ], [ 92.7659205, 22.4992126 ], [ 92.7612381, 22.496956 ], [ 92.7583008, 22.4995501 ], [ 92.7564543, 22.499499 ], [ 92.7573431, 22.5055776 ], [ 92.7547671, 22.5060407 ], [ 92.7534687, 22.5122979 ], [ 92.7554473, 22.5170178 ], [ 92.7532252, 22.5181946 ], [ 92.7510194, 22.5279277 ], [ 92.7529526, 22.5291935 ], [ 92.7529936, 22.5322684 ], [ 92.7547364, 22.5345003 ], [ 92.7517279, 22.5395957 ], [ 92.752175, 22.5448924 ], [ 92.7507202, 22.5463677 ], [ 92.7480815, 22.5455434 ], [ 92.7351005, 22.5595389 ], [ 92.7196538, 22.5641402 ], [ 92.7193403, 22.5679873 ], [ 92.7159774, 22.5702603 ], [ 92.7156093, 22.5726265 ], [ 92.7121152, 22.5752922 ], [ 92.7103912, 22.5787608 ], [ 92.7091026, 22.5785221 ], [ 92.7098504, 22.5853172 ], [ 92.7080319, 22.585291 ], [ 92.7063139, 22.5823885 ], [ 92.7055766, 22.5856714 ], [ 92.7003491, 22.5846623 ], [ 92.7002866, 22.586044 ], [ 92.6969611, 22.586944 ], [ 92.6978856, 22.5881988 ], [ 92.6933163, 22.5913568 ], [ 92.6939007, 22.6038411 ], [ 92.6903973, 22.6102857 ], [ 92.6944051, 22.6115348 ], [ 92.6948838, 22.6159641 ], [ 92.698076, 22.6196833 ], [ 92.6964183, 22.6214584 ], [ 92.6901306, 22.6235334 ], [ 92.6874893, 22.6228028 ], [ 92.6769602, 22.6246936 ], [ 92.6709288, 22.6234445 ], [ 92.6692755, 22.6244699 ], [ 92.6635161, 22.6212473 ], [ 92.6623091, 22.6176263 ], [ 92.6611418, 22.6172292 ], [ 92.6546304, 22.621601 ], [ 92.6467657, 22.6194302 ], [ 92.6406767, 22.6217831 ], [ 92.6405797, 22.6253637 ], [ 92.6432746, 22.6295807 ], [ 92.6414751, 22.6320867 ], [ 92.6451328, 22.6314272 ], [ 92.6461495, 22.6325108 ], [ 92.6437325, 22.6373603 ], [ 92.6445313, 22.6479077 ], [ 92.641924, 22.6491496 ], [ 92.6383879, 22.6570378 ], [ 92.628449, 22.6579546 ], [ 92.6263181, 22.659589 ], [ 92.6255445, 22.662551 ], [ 92.6285122, 22.663734 ], [ 92.6297381, 22.6664115 ], [ 92.6263907, 22.6710937 ], [ 92.6192533, 22.6704567 ], [ 92.6177109, 22.6714048 ], [ 92.6171161, 22.6845394 ], [ 92.615812, 22.6844715 ], [ 92.6163233, 22.6811574 ], [ 92.6138275, 22.6789719 ], [ 92.6088642, 22.6811972 ], [ 92.6067667, 22.6835087 ], [ 92.6038211, 22.6928095 ], [ 92.5968277, 22.6957656 ], [ 92.5964122, 22.7035857 ], [ 92.5935831, 22.7095767 ], [ 92.5981278, 22.7130453 ], [ 92.597285, 22.716287 ], [ 92.6012804, 22.7180758 ], [ 92.6019661, 22.7209521 ], [ 92.5987392, 22.7209786 ], [ 92.593647, 22.725163 ], [ 92.593296, 22.7274882 ], [ 92.5958215, 22.7298141 ], [ 92.5955047, 22.7317149 ], [ 92.5903939, 22.7313344 ], [ 92.5856066, 22.7392437 ], [ 92.5903907, 22.7424597 ], [ 92.5909695, 22.7441079 ], [ 92.5856579, 22.7460344 ], [ 92.5798427, 22.7535255 ], [ 92.5797907, 22.7552993 ], [ 92.5779922, 22.755209 ], [ 92.5776962, 22.7526759 ], [ 92.5755307, 22.7504471 ], [ 92.5788877, 22.7430434 ], [ 92.5768245, 22.740898 ], [ 92.5782803, 22.7400542 ], [ 92.5751122, 22.7381116 ], [ 92.5745339, 22.7357184 ], [ 92.5668839, 22.7316564 ], [ 92.5654867, 22.7320802 ], [ 92.5644382, 22.7361931 ], [ 92.5615506, 22.738305 ], [ 92.5581919, 22.7475414 ], [ 92.5527879, 22.748329 ], [ 92.544274, 22.7556775 ], [ 92.5436099, 22.7587113 ], [ 92.5416619, 22.7595635 ], [ 92.5425265, 22.7627381 ], [ 92.5310635, 22.7593496 ], [ 92.5274677, 22.7566608 ], [ 92.5232721, 22.7617466 ], [ 92.5166718, 22.7600217 ], [ 92.5159521, 22.7588292 ], [ 92.5171271, 22.7569067 ], [ 92.5143734, 22.7547555 ], [ 92.5152463, 22.7529591 ], [ 92.5130945, 22.7530342 ], [ 92.5120205, 22.7508414 ], [ 92.5094797, 22.750388 ], [ 92.5054426, 22.7466419 ], [ 92.5050846, 22.7441312 ], [ 92.5064688, 22.742272 ], [ 92.5043419, 22.7418505 ], [ 92.5041241, 22.738474 ], [ 92.5025447, 22.7373881 ], [ 92.4994534, 22.7378529 ], [ 92.4979252, 22.7398927 ], [ 92.4944929, 22.7398941 ], [ 92.4939507, 22.7425934 ], [ 92.4910437, 22.7410914 ], [ 92.4902797, 22.7453809 ], [ 92.488712, 22.746276 ], [ 92.4825164, 22.7468903 ], [ 92.4765521, 22.7452113 ], [ 92.4738442, 22.7462085 ], [ 92.4793546, 22.7527966 ], [ 92.475968, 22.7559533 ], [ 92.4774748, 22.7576523 ], [ 92.476908, 22.7593557 ], [ 92.4736761, 22.7597109 ], [ 92.4764118, 22.7641723 ], [ 92.4728734, 22.7649416 ], [ 92.4740185, 22.7696256 ], [ 92.4758483, 22.7711766 ], [ 92.4727165, 22.7761109 ], [ 92.472952, 22.7828482 ], [ 92.4718441, 22.783763 ], [ 92.4701317, 22.7818011 ], [ 92.4691028, 22.7824745 ], [ 92.4694177, 22.7876208 ], [ 92.4722728, 22.7958565 ], [ 92.4710695, 22.7982718 ], [ 92.4654672, 22.8022176 ], [ 92.4648511, 22.8046162 ], [ 92.4668501, 22.8075789 ], [ 92.465569, 22.8096258 ], [ 92.4625861, 22.8112806 ], [ 92.4627956, 22.8074747 ], [ 92.4611835, 22.8073536 ], [ 92.4609979, 22.8113084 ], [ 92.4582214, 22.8165866 ], [ 92.4590517, 22.8185252 ], [ 92.4542499, 22.8188619 ], [ 92.4581336, 22.8229535 ], [ 92.4553173, 22.8259419 ], [ 92.4619469, 22.8307966 ], [ 92.4528902, 22.842965 ], [ 92.4578013, 22.8407252 ], [ 92.4632477, 22.8417462 ], [ 92.4628876, 22.8433163 ], [ 92.4584638, 22.8447367 ], [ 92.460057, 22.8503271 ], [ 92.4564772, 22.8510297 ], [ 92.4583079, 22.8529185 ], [ 92.4624217, 22.8523103 ], [ 92.4644578, 22.8546539 ], [ 92.4597906, 22.8580478 ], [ 92.4616064, 22.8615375 ], [ 92.4554256, 22.8607649 ], [ 92.4526819, 22.8621781 ], [ 92.4521174, 22.8649368 ], [ 92.4547115, 22.869527 ], [ 92.4604684, 22.870902 ], [ 92.4485487, 22.8763716 ], [ 92.4502088, 22.8932493 ], [ 92.4483072, 22.8960672 ], [ 92.4459621, 22.8970961 ], [ 92.4373032, 22.8860168 ], [ 92.4337308, 22.8857911 ], [ 92.4331517, 22.8917121 ], [ 92.4264944, 22.8972168 ], [ 92.4202457, 22.9096135 ], [ 92.4202652, 22.9183451 ], [ 92.4190918, 22.9188324 ], [ 92.4130664, 22.9134896 ], [ 92.406769, 22.917837 ], [ 92.4041491, 22.9177534 ], [ 92.4032466, 22.9128203 ], [ 92.4010992, 22.9119527 ], [ 92.3973404, 22.916959 ], [ 92.4013247, 22.9239841 ], [ 92.3975862, 22.9296988 ], [ 92.3929757, 22.9306935 ], [ 92.3764191, 22.9286214 ], [ 92.3775766, 22.9318092 ], [ 92.3761423, 22.9350164 ], [ 92.373093, 22.9345789 ], [ 92.3717786, 22.9361711 ], [ 92.3759067, 22.936792 ], [ 92.3726885, 22.939852 ], [ 92.3747502, 22.9474357 ], [ 92.3761905, 22.9468738 ], [ 92.3774494, 22.9481661 ], [ 92.3758011, 22.9498862 ], [ 92.3781725, 22.9520639 ], [ 92.3771914, 22.9555139 ], [ 92.3744861, 22.9531341 ], [ 92.3750061, 22.9561006 ], [ 92.3728444, 22.9582325 ], [ 92.3772729, 22.9596609 ], [ 92.3740524, 22.9612913 ], [ 92.3756279, 22.9635803 ], [ 92.3743415, 22.9706462 ], [ 92.3783283, 22.976768 ], [ 92.3792033, 22.9769732 ], [ 92.3794663, 22.9752458 ], [ 92.380408, 22.9758226 ], [ 92.3814459, 22.9786032 ], [ 92.3794414, 22.9806899 ], [ 92.3814546, 22.9823971 ], [ 92.3842104, 22.9816052 ], [ 92.3850185, 22.9861126 ], [ 92.3819627, 22.9880949 ], [ 92.3824781, 22.9901964 ], [ 92.3852905, 22.9921921 ], [ 92.3820642, 23.0008722 ], [ 92.3841829, 23.0048753 ], [ 92.3833417, 23.0088806 ], [ 92.3846502, 23.0096448 ], [ 92.3797556, 23.0120626 ], [ 92.3834215, 23.0263164 ], [ 92.3849515, 23.0273152 ], [ 92.3829104, 23.0339104 ], [ 92.3838472, 23.0378977 ], [ 92.388166, 23.0397389 ], [ 92.389542, 23.0472613 ], [ 92.3884695, 23.0490189 ], [ 92.3912704, 23.0491622 ], [ 92.3899787, 23.051551 ], [ 92.3920045, 23.0532959 ], [ 92.3905827, 23.0551866 ], [ 92.3920704, 23.0570597 ], [ 92.3907052, 23.0605142 ], [ 92.3874963, 23.061887 ], [ 92.3887908, 23.0648437 ], [ 92.3831278, 23.0719372 ], [ 92.3854846, 23.0769571 ], [ 92.380807, 23.0805071 ], [ 92.3793151, 23.0836539 ], [ 92.3800537, 23.0862865 ], [ 92.377277, 23.0869767 ], [ 92.3766075, 23.0848036 ], [ 92.3751066, 23.0844476 ], [ 92.3713591, 23.0891563 ], [ 92.3691774, 23.0951155 ], [ 92.3701745, 23.0965109 ], [ 92.3669581, 23.0959585 ], [ 92.3649122, 23.0978617 ], [ 92.3625646, 23.0979661 ], [ 92.3614215, 23.0988197 ], [ 92.3618757, 23.1004428 ], [ 92.3597471, 23.1011118 ], [ 92.3605263, 23.1022174 ], [ 92.3580119, 23.1032702 ], [ 92.3600919, 23.1053379 ], [ 92.3582969, 23.1059339 ], [ 92.3604567, 23.112825 ], [ 92.3627173, 23.1151727 ], [ 92.3625761, 23.1176414 ], [ 92.3666352, 23.1225331 ], [ 92.3660304, 23.1243896 ], [ 92.3681997, 23.1272643 ], [ 92.3657611, 23.1270087 ], [ 92.3630009, 23.1311655 ], [ 92.3619706, 23.1306436 ], [ 92.3581229, 23.1343468 ], [ 92.3569678, 23.1341504 ], [ 92.3609605, 23.1453239 ], [ 92.3603783, 23.1468566 ], [ 92.3582552, 23.146353 ], [ 92.3603421, 23.1487306 ], [ 92.3604661, 23.1528392 ], [ 92.3622166, 23.1529177 ], [ 92.3621233, 23.1563426 ], [ 92.3643587, 23.1566152 ], [ 92.3609365, 23.1619961 ], [ 92.3625092, 23.1648945 ], [ 92.3616719, 23.1675501 ], [ 92.3590252, 23.1686186 ], [ 92.3575747, 23.171924 ], [ 92.3565062, 23.1762351 ], [ 92.3572542, 23.1779613 ], [ 92.3544513, 23.1785067 ], [ 92.3556362, 23.1802121 ], [ 92.3608234, 23.1800716 ], [ 92.3612804, 23.1825709 ], [ 92.3600846, 23.1825504 ], [ 92.3599108, 23.1841033 ], [ 92.3562451, 23.1852696 ], [ 92.3544776, 23.1843422 ], [ 92.3533381, 23.1857224 ], [ 92.3538632, 23.1904485 ], [ 92.3524033, 23.1946706 ], [ 92.3546092, 23.1984951 ], [ 92.353106, 23.2065495 ], [ 92.3551032, 23.2068033 ], [ 92.3533109, 23.2110211 ], [ 92.3537585, 23.2196965 ], [ 92.3509796, 23.2337721 ], [ 92.3467847, 23.2356734 ], [ 92.4014095, 23.2365808 ], [ 92.4003975, 23.2387703 ], [ 92.4039925, 23.2411032 ], [ 92.4026775, 23.2423025 ], [ 92.3994684, 23.2418641 ], [ 92.3954567, 23.2487018 ], [ 92.398482, 23.2557723 ], [ 92.3895943, 23.2594133 ], [ 92.3887394, 23.2660622 ], [ 92.3934359, 23.2638048 ], [ 92.3947207, 23.2643321 ], [ 92.3940344, 23.2669278 ], [ 92.3989432, 23.2671348 ], [ 92.4011271, 23.2641142 ], [ 92.4040447, 23.2660506 ], [ 92.4062871, 23.2633684 ], [ 92.406361, 23.2657929 ], [ 92.4086625, 23.2656615 ], [ 92.4169723, 23.2566347 ], [ 92.4157768, 23.2627842 ], [ 92.4225938, 23.2637487 ], [ 92.4295413, 23.2735213 ], [ 92.4339748, 23.276152 ], [ 92.4375621, 23.2766067 ], [ 92.4373679, 23.2796678 ], [ 92.4331364, 23.2818228 ], [ 92.433167, 23.2850194 ], [ 92.4390667, 23.2865839 ], [ 92.4444274, 23.2846811 ], [ 92.4513584, 23.2860912 ], [ 92.4530511, 23.2982895 ], [ 92.4559269, 23.301277 ], [ 92.4560655, 23.3042747 ], [ 92.4593968, 23.3086298 ], [ 92.4609051, 23.3132251 ], [ 92.4608644, 23.3186746 ], [ 92.4689312, 23.319537 ], [ 92.4712957, 23.3244162 ], [ 92.4686161, 23.3309687 ], [ 92.4688321, 23.3396731 ], [ 92.4672197, 23.3414438 ], [ 92.4673435, 23.3437057 ], [ 92.4648353, 23.3440185 ], [ 92.4633313, 23.3471616 ], [ 92.4609356, 23.3476008 ], [ 92.4599197, 23.3494207 ], [ 92.4615392, 23.3510182 ], [ 92.4602033, 23.3575789 ], [ 92.4616997, 23.3577631 ], [ 92.4642605, 23.3553058 ], [ 92.4651527, 23.3588042 ], [ 92.4629874, 23.3603721 ], [ 92.4584884, 23.3603653 ], [ 92.4552732, 23.3647011 ], [ 92.4577495, 23.3677473 ], [ 92.4600325, 23.3747351 ], [ 92.4576564, 23.3759913 ], [ 92.4564217, 23.3806918 ], [ 92.4619565, 23.3858223 ], [ 92.4621596, 23.3900789 ], [ 92.4633835, 23.3913191 ], [ 92.4679501, 23.3915945 ], [ 92.4708434, 23.3936247 ], [ 92.4754133, 23.3936147 ], [ 92.4759888, 23.3912756 ], [ 92.4813349, 23.3868434 ], [ 92.4814837, 23.3845945 ], [ 92.4898763, 23.3818097 ], [ 92.4942919, 23.3873839 ], [ 92.4918878, 23.3920433 ], [ 92.4951739, 23.3926403 ], [ 92.499841, 23.3908169 ], [ 92.5018509, 23.3868877 ], [ 92.5071997, 23.3838039 ], [ 92.5093506, 23.3797468 ], [ 92.5135429, 23.3787613 ], [ 92.5224859, 23.3815669 ], [ 92.5324206, 23.3798036 ], [ 92.5356909, 23.3821849 ], [ 92.5414083, 23.382414 ], [ 92.5458362, 23.3798972 ], [ 92.5469138, 23.3772431 ], [ 92.5507921, 23.3774483 ], [ 92.5541608, 23.3706553 ], [ 92.5585496, 23.3705725 ], [ 92.5595738, 23.3721883 ], [ 92.561472, 23.3707806 ], [ 92.5638794, 23.3781046 ], [ 92.5656002, 23.3797442 ], [ 92.5707158, 23.3800351 ], [ 92.5752259, 23.3783799 ], [ 92.5772844, 23.3797757 ], [ 92.5798719, 23.3791128 ], [ 92.5845367, 23.3821166 ], [ 92.584134, 23.3847019 ], [ 92.585993, 23.3854625 ], [ 92.5856648, 23.3872006 ], [ 92.5870485, 23.3885509 ], [ 92.5861529, 23.390045 ], [ 92.5879523, 23.3919959 ], [ 92.5857742, 23.3963656 ], [ 92.587295, 23.3976527 ], [ 92.5861355, 23.3984108 ], [ 92.5869664, 23.4005059 ], [ 92.5845347, 23.4020538 ], [ 92.5843874, 23.4036204 ], [ 92.5893703, 23.4071372 ], [ 92.592511, 23.4067091 ] ] ] } }
]
}
