{
"type": "FeatureCollection",
"name": "1510",
"crs": { "type": "name", "properties": { "name": "urn:ogc:def:crs:OGC:1.3:CRS84" } },
"features": [
{ "type": "Feature", "properties": { "code": "1510", "name": "Hnahthial", "type": "district" }, "geometry": { "type": "Polygon", "coordinates": [ [ [ 92.9207549, 23.18706 ], [ 92.9288324, 23.1862946 ], [ 92.9307719, 23.1879962 ], [ 92.9325104, 23.1875396 ], [ 92.9348437, 23.1848299 ], [ 92.9323588, 23.1745593 ], [ 92.9361071, 23.1694969 ], [ 92.9412057, 23.1705786 ], [ 92.948964, 23.1685301 ], [ 92.9537867, 23.1651283 ], [ 92.9560583, 23.1581201 ], [ 92.9549463, 23.1516011 ], [ 92.9570293, 23.1484126 ], [ 92.9559672, 23.143686 ], [ 92.9570197, 23.1400329 ], [ 92.9555529, 23.1361283 ], [ 92.9587695, 23.1351966 ], [ 92.9594814, 23.1337063 ], [ 92.9573891, 23.1286416 ], [ 92.9567582, 23.1179416 ], [ 92.9576065, 23.1160314 ], [ 92.9603009, 23.1159488 ], [ 92.9602997, 23.1139171 ], [ 92.9642679, 23.1136622 ], [ 92.9628514, 23.1121008 ], [ 92.9648368, 23.1101357 ], [ 92.9726295, 23.1068355 ], [ 92.977915, 23.1061551 ], [ 92.9845087, 23.0993333 ], [ 92.9859688, 23.1003437 ], [ 92.9879765, 23.0990274 ], [ 92.9888355, 23.0963731 ], [ 92.9906173, 23.0969182 ], [ 92.9905425, 23.0949949 ], [ 92.9946023, 23.0940213 ], [ 93.0042843, 23.0880589 ], [ 93.0082591, 23.0875633 ], [ 93.0164438, 23.0810996 ], [ 93.0247045, 23.0791913 ], [ 93.0334851, 23.0818119 ], [ 93.0372302, 23.0814691 ], [ 93.0376239, 23.0791689 ], [ 93.0415252, 23.0777285 ], [ 93.0417502, 23.0746945 ], [ 93.0429716, 23.0740066 ], [ 93.0378292, 23.066102 ], [ 93.0397952, 23.0581241 ], [ 93.0384639, 23.0498071 ], [ 93.0426995, 23.0474517 ], [ 93.0527199, 23.0447662 ], [ 93.0683101, 23.042748 ], [ 93.0754013, 23.037212 ], [ 93.0812405, 23.0349737 ], [ 93.0785691, 23.0307722 ], [ 93.0797244, 23.0298841 ], [ 93.0888764, 23.0274903 ], [ 93.0928014, 23.0242199 ], [ 93.0948711, 23.0241653 ], [ 93.1088621, 23.0163802 ], [ 93.1103981, 23.014431 ], [ 93.1171196, 23.0123774 ], [ 93.1223312, 23.0063831 ], [ 93.120167, 23.0024417 ], [ 93.1219953, 23.0016391 ], [ 93.125987, 23.0026342 ], [ 93.1273356, 22.9960887 ], [ 93.1319377, 22.9912083 ], [ 93.1334955, 22.9905698 ], [ 93.1362842, 22.9919275 ], [ 93.1401516, 22.9907821 ], [ 93.1410278, 22.9882756 ], [ 93.1392392, 22.9856229 ], [ 93.1391505, 22.9816356 ], [ 93.1428454, 22.9779663 ], [ 93.1438063, 22.974882 ], [ 93.1423625, 22.9715195 ], [ 93.1374124, 22.971608 ], [ 93.1357619, 22.9703884 ], [ 93.1372161, 22.9617592 ], [ 93.1413243, 22.9576198 ], [ 93.140591, 22.9536728 ], [ 93.1380391, 22.9505645 ], [ 93.1443275, 22.9468528 ], [ 93.146099, 22.9436797 ], [ 93.1451041, 22.9323014 ], [ 93.1481296, 22.9251118 ], [ 93.1527743, 22.9216963 ], [ 93.154366, 22.9173276 ], [ 93.1574613, 22.9179747 ], [ 93.1616798, 22.9166302 ], [ 93.164537, 22.9104935 ], [ 93.1609843, 22.9087659 ], [ 93.1502629, 22.9078741 ], [ 93.1433248, 22.9129551 ], [ 93.1397835, 22.9135098 ], [ 93.136189, 22.9120535 ], [ 93.1298561, 22.9038741 ], [ 93.1296617, 22.9006173 ], [ 93.1336673, 22.8950453 ], [ 93.1343466, 22.8912918 ], [ 93.1288635, 22.8810481 ], [ 93.1286549, 22.8785235 ], [ 93.1260296, 22.8764357 ], [ 93.1274994, 22.8745863 ], [ 93.1266573, 22.8706031 ], [ 93.1240455, 22.8668801 ], [ 93.1172987, 22.8631052 ], [ 93.1188551, 22.858685 ], [ 93.1165633, 22.8460748 ], [ 93.1181217, 22.8424893 ], [ 93.1155814, 22.8389035 ], [ 93.115326, 22.8359692 ], [ 93.1101096, 22.832969 ], [ 93.1130221, 22.8306327 ], [ 93.1131083, 22.8290328 ], [ 93.1111101, 22.826887 ], [ 93.1055019, 22.8260947 ], [ 93.1036068, 22.8243253 ], [ 93.1041386, 22.8215574 ], [ 93.1094222, 22.8201297 ], [ 93.1105469, 22.8180531 ], [ 93.105035, 22.8123391 ], [ 93.0967959, 22.808913 ], [ 93.094855, 22.8066827 ], [ 93.0977757, 22.7926261 ], [ 93.0965134, 22.7867104 ], [ 93.0946388, 22.7872482 ], [ 93.0896274, 22.7939254 ], [ 93.0817371, 22.7977926 ], [ 93.0811122, 22.802014 ], [ 93.0847242, 22.8065698 ], [ 93.0830482, 22.8084983 ], [ 93.0749153, 22.8076829 ], [ 93.0727785, 22.8049009 ], [ 93.0683184, 22.8029035 ], [ 93.0630578, 22.8048609 ], [ 93.0612807, 22.8039797 ], [ 93.0600137, 22.7942782 ], [ 93.0539472, 22.7930609 ], [ 93.0498025, 22.7938343 ], [ 93.0464253, 22.7963215 ], [ 93.0328419, 22.7979912 ], [ 93.0300972, 22.7961608 ], [ 93.0287546, 22.7933829 ], [ 93.028113, 22.7898946 ], [ 93.0296412, 22.7877644 ], [ 93.0295099, 22.7844531 ], [ 93.0281681, 22.7822073 ], [ 93.0201362, 22.7856445 ], [ 93.0164286, 22.7773693 ], [ 93.0124087, 22.7750666 ], [ 93.0118272, 22.7675486 ], [ 93.0089977, 22.7655173 ], [ 93.0096592, 22.7532002 ], [ 93.0027369, 22.7522552 ], [ 92.9951799, 22.7542018 ], [ 92.9926811, 22.7524336 ], [ 92.9897717, 22.7547112 ], [ 92.9850465, 22.7532543 ], [ 92.9817383, 22.7562138 ], [ 92.9785291, 22.7548748 ], [ 92.9785065, 22.7573491 ], [ 92.9652326, 22.770229 ], [ 92.9642517, 22.7731692 ], [ 92.9610119, 22.7760166 ], [ 92.9607745, 22.7802371 ], [ 92.9586274, 22.7805949 ], [ 92.9579033, 22.7830063 ], [ 92.9551441, 22.782788 ], [ 92.9537676, 22.7856513 ], [ 92.946785, 22.7857491 ], [ 92.9444532, 22.7872852 ], [ 92.943038, 22.7912816 ], [ 92.9402813, 22.7901178 ], [ 92.937219, 22.7917173 ], [ 92.9340825, 22.7903187 ], [ 92.9301778, 22.7922479 ], [ 92.9264135, 22.7921451 ], [ 92.9231793, 22.789753 ], [ 92.9236213, 22.7861589 ], [ 92.92231, 22.7814139 ], [ 92.9231325, 22.780014 ], [ 92.9284531, 22.7813201 ], [ 92.9313987, 22.7804794 ], [ 92.9331508, 22.7782981 ], [ 92.9329017, 22.7762212 ], [ 92.9312846, 22.7745692 ], [ 92.9254464, 22.7739388 ], [ 92.9179749, 22.7648834 ], [ 92.9176477, 22.7609598 ], [ 92.9202301, 22.7508913 ], [ 92.9163304, 22.7434049 ], [ 92.9162308, 22.7345958 ], [ 92.9133336, 22.7303342 ], [ 92.9125664, 22.726348 ], [ 92.9083557, 22.7258014 ], [ 92.9066772, 22.7237472 ], [ 92.9055634, 22.7249203 ], [ 92.9059067, 22.7295151 ], [ 92.8983002, 22.7300415 ], [ 92.8976517, 22.7354736 ], [ 92.8962021, 22.7357006 ], [ 92.8945847, 22.7321033 ], [ 92.8918533, 22.7324294 ], [ 92.8797226, 22.7421742 ], [ 92.8741989, 22.7429867 ], [ 92.8670807, 22.7493591 ], [ 92.8690491, 22.7597485 ], [ 92.86203, 22.7597599 ], [ 92.8598175, 22.7622471 ], [ 92.8615417, 22.7715588 ], [ 92.8675385, 22.7744083 ], [ 92.8685226, 22.7808265 ], [ 92.8793259, 22.7848606 ], [ 92.881691, 22.7899055 ], [ 92.8872452, 22.7935848 ], [ 92.8917618, 22.7987213 ], [ 92.888443, 22.8237457 ], [ 92.8899841, 22.8280162 ], [ 92.8871893, 22.8300038 ], [ 92.8888674, 22.8319866 ], [ 92.8870139, 22.8353758 ], [ 92.8739203, 22.8424324 ], [ 92.8680553, 22.8506142 ], [ 92.8702998, 22.858363 ], [ 92.8720971, 22.8597071 ], [ 92.8782627, 22.8603847 ], [ 92.8783819, 22.8631517 ], [ 92.8736555, 22.8685401 ], [ 92.8661753, 22.8724457 ], [ 92.8656987, 22.8753318 ], [ 92.8549882, 22.8704863 ], [ 92.8538099, 22.8711482 ], [ 92.8535981, 22.8750538 ], [ 92.8508046, 22.877503 ], [ 92.8601647, 22.8835136 ], [ 92.8599794, 22.8893786 ], [ 92.863501, 22.8942506 ], [ 92.8666122, 22.8959453 ], [ 92.8697896, 22.8958526 ], [ 92.8708223, 22.8974148 ], [ 92.8703589, 22.8997184 ], [ 92.8659503, 22.9037564 ], [ 92.8652618, 22.9088932 ], [ 92.8600191, 22.9127061 ], [ 92.8603898, 22.9163734 ], [ 92.8805796, 22.937106 ], [ 92.8813342, 22.9397671 ], [ 92.8859944, 22.9425208 ], [ 92.8887879, 22.9470751 ], [ 92.8881789, 22.9502128 ], [ 92.8903104, 22.9525032 ], [ 92.887517, 22.962565 ], [ 92.8839159, 22.965332 ], [ 92.889622, 22.9790875 ], [ 92.8903766, 22.9885536 ], [ 92.8858356, 22.9920752 ], [ 92.8842316, 23.0015869 ], [ 92.8814163, 23.0044937 ], [ 92.8822861, 23.0066872 ], [ 92.8806915, 23.0245953 ], [ 92.883049, 23.0298099 ], [ 92.8834, 23.0431766 ], [ 92.8764801, 23.0527763 ], [ 92.8748016, 23.0606041 ], [ 92.8778, 23.0656014 ], [ 92.8781281, 23.0747814 ], [ 92.8739471, 23.0786495 ], [ 92.8744659, 23.08284 ], [ 92.8718185, 23.0816154 ], [ 92.8696747, 23.0865898 ], [ 92.8627472, 23.0907688 ], [ 92.8651352, 23.0988311 ], [ 92.8646088, 23.1019039 ], [ 92.8675079, 23.1016846 ], [ 92.8704376, 23.1073056 ], [ 92.8683243, 23.1103554 ], [ 92.8685989, 23.1175594 ], [ 92.8641281, 23.1201496 ], [ 92.8594894, 23.1200428 ], [ 92.8589172, 23.1221084 ], [ 92.8595657, 23.1315327 ], [ 92.8634338, 23.1321717 ], [ 92.8652649, 23.1364002 ], [ 92.8622131, 23.1434746 ], [ 92.8654404, 23.1491261 ], [ 92.8652267, 23.1545391 ], [ 92.8636627, 23.1563931 ], [ 92.8661575, 23.1571426 ], [ 92.8679733, 23.1643429 ], [ 92.8670654, 23.1659393 ], [ 92.863739, 23.1672573 ], [ 92.8637695, 23.1694374 ], [ 92.8660049, 23.1701641 ], [ 92.8659912, 23.174695 ], [ 92.8687188, 23.175791 ], [ 92.8745694, 23.1701928 ], [ 92.8832468, 23.1702877 ], [ 92.8871194, 23.1749696 ], [ 92.891207, 23.1769514 ], [ 92.8957952, 23.1782748 ], [ 92.9052651, 23.1775222 ], [ 92.9146491, 23.1834134 ], [ 92.9169362, 23.189088 ], [ 92.9207549, 23.18706 ] ] ] } }
]
}
