{
"type": "FeatureCollection",
"name": "1607",
"crs": { "type": "name", "properties": { "name": "urn:ogc:def:crs:OGC:1.3:CRS84" } },
"features": [
{ "type": "Feature", "properties": { "code": "1607", "name": "Gomati", "type": "district" }, "geometry": { "type": "Polygon", "coordinates": [ [ [ 91.7172319, 23.7684127 ], [ 91.7173008, 23.7597558 ], [ 91.7222671, 23.7580438 ], [ 91.7212221, 23.7558304 ], [ 91.722715, 23.7507305 ], [ 91.727081, 23.7461456 ], [ 91.731324, 23.746987 ], [ 91.7325071, 23.7422234 ], [ 91.7377191, 23.7406804 ], [ 91.739958, 23.7372276 ], [ 91.7395544, 23.7320167 ], [ 91.7439286, 23.7294071 ], [ 91.7433166, 23.7141706 ], [ 91.7401231, 23.7142956 ], [ 91.7393882, 23.7108016 ], [ 91.7371929, 23.7110483 ], [ 91.7312695, 23.708416 ], [ 91.7299335, 23.7013052 ], [ 91.7319935, 23.6983379 ], [ 91.736716, 23.6971698 ], [ 91.737579, 23.6949622 ], [ 91.740173, 23.6944087 ], [ 91.7418344, 23.6925069 ], [ 91.7412306, 23.6864379 ], [ 91.742493, 23.6847204 ], [ 91.7456855, 23.6843501 ], [ 91.7458788, 23.6770774 ], [ 91.748323, 23.6751273 ], [ 91.7521643, 23.6766861 ], [ 91.7502423, 23.6718222 ], [ 91.7520589, 23.6636568 ], [ 91.753668, 23.6621682 ], [ 91.7516342, 23.6570199 ], [ 91.7530899, 23.6540355 ], [ 91.7525943, 23.6514393 ], [ 91.7556986, 23.6503642 ], [ 91.7550633, 23.6483722 ], [ 91.7570752, 23.6486823 ], [ 91.761171, 23.6439901 ], [ 91.7660082, 23.6436913 ], [ 91.7671588, 23.6448749 ], [ 91.7717265, 23.6435458 ], [ 91.7732203, 23.6396198 ], [ 91.7723002, 23.638188 ], [ 91.7741767, 23.6385865 ], [ 91.7725543, 23.6345346 ], [ 91.7745603, 23.6341345 ], [ 91.7757212, 23.6321748 ], [ 91.7705663, 23.6285007 ], [ 91.7684949, 23.6299521 ], [ 91.7660056, 23.6281989 ], [ 91.7650139, 23.6242297 ], [ 91.7695234, 23.6223324 ], [ 91.7670692, 23.6157798 ], [ 91.7699833, 23.6114434 ], [ 91.7713306, 23.6055934 ], [ 91.7696229, 23.6030775 ], [ 91.769176, 23.5984542 ], [ 91.7659928, 23.5973007 ], [ 91.7617208, 23.5920153 ], [ 91.7627269, 23.5898175 ], [ 91.7620242, 23.5869004 ], [ 91.7599569, 23.587084 ], [ 91.7579067, 23.5844865 ], [ 91.7568899, 23.5771088 ], [ 91.7536429, 23.5766095 ], [ 91.7524838, 23.5748614 ], [ 91.7547747, 23.571107 ], [ 91.7600556, 23.5700503 ], [ 91.7623905, 23.571596 ], [ 91.7629025, 23.5687297 ], [ 91.7652502, 23.5668081 ], [ 91.7705212, 23.5655524 ], [ 91.7712769, 23.567592 ], [ 91.775346, 23.5648334 ], [ 91.7792548, 23.5642446 ], [ 91.7782382, 23.5594016 ], [ 91.780572, 23.5580604 ], [ 91.7809895, 23.556512 ], [ 91.7796339, 23.5553239 ], [ 91.782005, 23.5541335 ], [ 91.7822216, 23.552567 ], [ 91.7810415, 23.5524264 ], [ 91.7808423, 23.550363 ], [ 91.7865631, 23.5421363 ], [ 91.7878337, 23.5426399 ], [ 91.7881169, 23.540065 ], [ 91.785038, 23.5383656 ], [ 91.786332, 23.5366734 ], [ 91.788461, 23.5380923 ], [ 91.7868365, 23.5364661 ], [ 91.787872, 23.5330175 ], [ 91.7908775, 23.5343962 ], [ 91.7923075, 23.5342977 ], [ 91.7911233, 23.5330781 ], [ 91.7927392, 23.5330293 ], [ 91.7950541, 23.5347687 ], [ 91.7946552, 23.5307415 ], [ 91.800875, 23.5365642 ], [ 91.8037064, 23.5345746 ], [ 91.8034364, 23.5326678 ], [ 91.8054732, 23.5327427 ], [ 91.8047699, 23.53155 ], [ 91.8077551, 23.5261362 ], [ 91.8044095, 23.5210129 ], [ 91.8010277, 23.5186274 ], [ 91.8019689, 23.5147582 ], [ 91.8043348, 23.512398 ], [ 91.79863, 23.5061155 ], [ 91.8015785, 23.503548 ], [ 91.8008081, 23.4987842 ], [ 91.7981684, 23.4974671 ], [ 91.800763, 23.4926557 ], [ 91.7978809, 23.4893127 ], [ 91.8014717, 23.4841677 ], [ 91.8045893, 23.4846748 ], [ 91.8067832, 23.4827706 ], [ 91.8056837, 23.4791448 ], [ 91.8088357, 23.4792635 ], [ 91.8078278, 23.4785182 ], [ 91.8083815, 23.4772814 ], [ 91.811255, 23.4762894 ], [ 91.8104482, 23.4746501 ], [ 91.8128521, 23.4729987 ], [ 91.8134317, 23.4687087 ], [ 91.8248494, 23.4671704 ], [ 91.824552, 23.465663 ], [ 91.8271468, 23.4629072 ], [ 91.8261976, 23.4615792 ], [ 91.8277791, 23.4597631 ], [ 91.8278292, 23.4562133 ], [ 91.8292404, 23.4553619 ], [ 91.8293472, 23.4517722 ], [ 91.8318508, 23.4504219 ], [ 91.8282998, 23.4462363 ], [ 91.8287876, 23.4427354 ], [ 91.8350347, 23.4419724 ], [ 91.8375894, 23.4340817 ], [ 91.8400586, 23.4324068 ], [ 91.8382934, 23.428359 ], [ 91.8413856, 23.4283622 ], [ 91.843269, 23.4243911 ], [ 91.8388097, 23.4222195 ], [ 91.8401229, 23.4157936 ], [ 91.8388812, 23.4136092 ], [ 91.8415877, 23.4090807 ], [ 91.8431383, 23.3992759 ], [ 91.8406977, 23.3988732 ], [ 91.8418305, 23.3885884 ], [ 91.8361946, 23.386443 ], [ 91.8376445, 23.3786202 ], [ 91.8374013, 23.3706266 ], [ 91.8324232, 23.3697216 ], [ 91.8316062, 23.3650636 ], [ 91.8302994, 23.364434 ], [ 91.828464, 23.3660369 ], [ 91.8256542, 23.362936 ], [ 91.824989, 23.3523352 ], [ 91.8187593, 23.3505912 ], [ 91.817947, 23.3463317 ], [ 91.8149032, 23.3438474 ], [ 91.8128291, 23.3456583 ], [ 91.8094348, 23.343953 ], [ 91.8095687, 23.3419666 ], [ 91.8068152, 23.339735 ], [ 91.80784, 23.3371052 ], [ 91.805845, 23.3332535 ], [ 91.8045305, 23.3322686 ], [ 91.7996743, 23.3329083 ], [ 91.7930278, 23.3294098 ], [ 91.7917596, 23.3264925 ], [ 91.7832774, 23.3244291 ], [ 91.7819189, 23.3202543 ], [ 91.7793279, 23.3174617 ], [ 91.7733755, 23.3158717 ], [ 91.7716349, 23.3140502 ], [ 91.7714728, 23.3115873 ], [ 91.7701277, 23.3123262 ], [ 91.7665665, 23.3091653 ], [ 91.7643663, 23.3089019 ], [ 91.7650688, 23.3052461 ], [ 91.7626378, 23.3029927 ], [ 91.762302, 23.3004136 ], [ 91.7634751, 23.2948892 ], [ 91.7629205, 23.2926043 ], [ 91.7606006, 23.2912704 ], [ 91.7620244, 23.2896484 ], [ 91.7607747, 23.2869165 ], [ 91.7621762, 23.2849027 ], [ 91.7599692, 23.2832379 ], [ 91.7610751, 23.2810797 ], [ 91.7626177, 23.2813044 ], [ 91.7613617, 23.2770548 ], [ 91.7639148, 23.2762863 ], [ 91.7636722, 23.2746757 ], [ 91.7657835, 23.2732438 ], [ 91.765079, 23.2724564 ], [ 91.7667937, 23.2714667 ], [ 91.7692409, 23.2728453 ], [ 91.7716442, 23.2703223 ], [ 91.7770926, 23.2692321 ], [ 91.775384, 23.2619461 ], [ 91.777555, 23.2599274 ], [ 91.7763793, 23.2587443 ], [ 91.7769147, 23.2573101 ], [ 91.7749675, 23.2566881 ], [ 91.7768394, 23.2550552 ], [ 91.7781767, 23.2564292 ], [ 91.7798113, 23.2537123 ], [ 91.7785015, 23.2519008 ], [ 91.7801626, 23.2472769 ], [ 91.7761922, 23.2431659 ], [ 91.779567, 23.2396928 ], [ 91.7813366, 23.2414769 ], [ 91.7806023, 23.2433191 ], [ 91.7830734, 23.2433327 ], [ 91.785404, 23.238993 ], [ 91.7842245, 23.2388313 ], [ 91.7850403, 23.234508 ], [ 91.7841946, 23.2325446 ], [ 91.788113, 23.2288567 ], [ 91.7878212, 23.2275294 ], [ 91.7910991, 23.2267349 ], [ 91.7898436, 23.2250916 ], [ 91.7912297, 23.2255788 ], [ 91.7902184, 23.2212524 ], [ 91.7919196, 23.2181423 ], [ 91.7883999, 23.2167526 ], [ 91.7879001, 23.2151118 ], [ 91.791144, 23.2125639 ], [ 91.7919889, 23.2106843 ], [ 91.7912189, 23.2092904 ], [ 91.7926247, 23.2092485 ], [ 91.7913048, 23.2076382 ], [ 91.7885727, 23.2077572 ], [ 91.7888736, 23.2044422 ], [ 91.79146, 23.2003482 ], [ 91.795533, 23.1978284 ], [ 91.7947238, 23.1971789 ], [ 91.7960573, 23.1954889 ], [ 91.7977718, 23.1957933 ], [ 91.7988652, 23.1936068 ], [ 91.7976101, 23.189277 ], [ 91.7946685, 23.1865791 ], [ 91.7968031, 23.1862469 ], [ 91.7975034, 23.1840346 ], [ 91.8009376, 23.1838768 ], [ 91.8062757, 23.1791021 ], [ 91.8031855, 23.1768255 ], [ 91.8041978, 23.1744739 ], [ 91.8067442, 23.175209 ], [ 91.8051091, 23.1741577 ], [ 91.8069896, 23.1718359 ], [ 91.8056819, 23.1716684 ], [ 91.8063313, 23.1702857 ], [ 91.8048615, 23.1680917 ], [ 91.8101121, 23.1649771 ], [ 91.8071756, 23.1622523 ], [ 91.8060849, 23.1573277 ], [ 91.8106063, 23.153493 ], [ 91.8104015, 23.1498138 ], [ 91.8142381, 23.1452417 ], [ 91.8130797, 23.1437142 ], [ 91.8110777, 23.1446175 ], [ 91.8082077, 23.1388755 ], [ 91.8092225, 23.1365251 ], [ 91.8081034, 23.1355007 ], [ 91.8104351, 23.133689 ], [ 91.8111646, 23.1369067 ], [ 91.8116098, 23.1341843 ], [ 91.8147712, 23.133324 ], [ 91.8148066, 23.1314491 ], [ 91.8123291, 23.1307018 ], [ 91.8138928, 23.1288142 ], [ 91.8123592, 23.1279848 ], [ 91.8131446, 23.1261387 ], [ 91.8115327, 23.1249555 ], [ 91.8124446, 23.1228936 ], [ 91.8108876, 23.1216537 ], [ 91.8129436, 23.11913 ], [ 91.8156156, 23.1190388 ], [ 91.8165099, 23.1136843 ], [ 91.8180929, 23.1120434 ], [ 91.8163072, 23.1099717 ], [ 91.8177976, 23.1083895 ], [ 91.8176094, 23.1020059 ], [ 91.8134557, 23.0992007 ], [ 91.8206799, 23.0973699 ], [ 91.8209275, 23.0997159 ], [ 91.8250511, 23.0989216 ], [ 91.8311949, 23.0967369 ], [ 91.8321, 23.0947383 ], [ 91.8337192, 23.0954862 ], [ 91.8358146, 23.0933241 ], [ 91.8330935, 23.0925718 ], [ 91.8313901, 23.0897898 ], [ 91.829368, 23.0914696 ], [ 91.8280498, 23.0888278 ], [ 91.8227836, 23.0865909 ], [ 91.822306, 23.0855632 ], [ 91.8244597, 23.0836807 ], [ 91.8200421, 23.0838094 ], [ 91.8170713, 23.0864426 ], [ 91.8140644, 23.0869808 ], [ 91.8096087, 23.0903344 ], [ 91.8067891, 23.0961822 ], [ 91.8015574, 23.0960672 ], [ 91.7983778, 23.1071878 ], [ 91.7956033, 23.1085206 ], [ 91.7967334, 23.1100391 ], [ 91.794231, 23.1133538 ], [ 91.7917182, 23.1129144 ], [ 91.7893798, 23.1158868 ], [ 91.7893033, 23.1192872 ], [ 91.7858805, 23.1236778 ], [ 91.7856384, 23.1279781 ], [ 91.7809138, 23.128513 ], [ 91.7836796, 23.1198515 ], [ 91.7819419, 23.120208 ], [ 91.7801593, 23.1171676 ], [ 91.7793415, 23.1187941 ], [ 91.7775354, 23.1182669 ], [ 91.7772046, 23.120029 ], [ 91.7754548, 23.120154 ], [ 91.775456, 23.1221881 ], [ 91.7725583, 23.1226808 ], [ 91.7750595, 23.1280758 ], [ 91.7723882, 23.1294631 ], [ 91.7736502, 23.1322537 ], [ 91.7710484, 23.1319046 ], [ 91.7671332, 23.1369865 ], [ 91.7645201, 23.1365005 ], [ 91.7632247, 23.1383959 ], [ 91.7613157, 23.138295 ], [ 91.7571279, 23.1415592 ], [ 91.7568648, 23.1441893 ], [ 91.7604614, 23.1425845 ], [ 91.7647199, 23.1488995 ], [ 91.7686882, 23.1506386 ], [ 91.7830294, 23.1452306 ], [ 91.790928, 23.1469363 ], [ 91.7912128, 23.1485652 ], [ 91.7882402, 23.1566574 ], [ 91.7808764, 23.1662404 ], [ 91.7804474, 23.1773378 ], [ 91.775142, 23.1796005 ], [ 91.778457, 23.1861448 ], [ 91.7778706, 23.1893517 ], [ 91.767399, 23.1977061 ], [ 91.767476, 23.207613 ], [ 91.7590229, 23.2155814 ], [ 91.7576697, 23.2266866 ], [ 91.7546529, 23.2307525 ], [ 91.7598332, 23.2369156 ], [ 91.7578979, 23.2381607 ], [ 91.7562426, 23.2435282 ], [ 91.7524749, 23.2409058 ], [ 91.7504734, 23.2439877 ], [ 91.7496654, 23.2499672 ], [ 91.7433235, 23.263195 ], [ 91.741176, 23.262704 ], [ 91.737848, 23.2674642 ], [ 91.7394839, 23.2705009 ], [ 91.7365826, 23.2745773 ], [ 91.7331389, 23.2761606 ], [ 91.7330569, 23.2780747 ], [ 91.7289875, 23.2796929 ], [ 91.7299108, 23.2869544 ], [ 91.7286177, 23.2882884 ], [ 91.7293158, 23.2911069 ], [ 91.7273136, 23.2949681 ], [ 91.72984, 23.3023767 ], [ 91.728156, 23.3035656 ], [ 91.729091, 23.3052648 ], [ 91.7283836, 23.3069612 ], [ 91.7290461, 23.308082 ], [ 91.7321369, 23.3074012 ], [ 91.732826, 23.314626 ], [ 91.735602, 23.3149559 ], [ 91.7347739, 23.3183496 ], [ 91.7328955, 23.3188881 ], [ 91.7328862, 23.3234751 ], [ 91.7283461, 23.3250202 ], [ 91.7273409, 23.3194201 ], [ 91.7233073, 23.3219773 ], [ 91.7211965, 23.3214678 ], [ 91.7200978, 23.3231273 ], [ 91.7214217, 23.3258746 ], [ 91.7180578, 23.3260852 ], [ 91.7182101, 23.3279637 ], [ 91.7149996, 23.3295469 ], [ 91.7151509, 23.3318587 ], [ 91.7104966, 23.33185 ], [ 91.7110014, 23.3335124 ], [ 91.7091165, 23.3368678 ], [ 91.7057439, 23.3407622 ], [ 91.7026902, 23.3419482 ], [ 91.7045631, 23.3440105 ], [ 91.7040497, 23.3462127 ], [ 91.7026778, 23.347402 ], [ 91.6988478, 23.3459137 ], [ 91.6972812, 23.3467413 ], [ 91.69817, 23.3514745 ], [ 91.7003966, 23.3528514 ], [ 91.7008566, 23.3569697 ], [ 91.704019, 23.3597931 ], [ 91.7018251, 23.3611613 ], [ 91.7015037, 23.3648808 ], [ 91.697628, 23.3659929 ], [ 91.6970732, 23.3690618 ], [ 91.6945303, 23.3689846 ], [ 91.6936648, 23.3710416 ], [ 91.6886102, 23.3742098 ], [ 91.6873673, 23.3703787 ], [ 91.6824784, 23.3697186 ], [ 91.6780515, 23.3721654 ], [ 91.6747391, 23.366813 ], [ 91.6667184, 23.3670126 ], [ 91.6602337, 23.3632421 ], [ 91.6588704, 23.3609637 ], [ 91.6555855, 23.3604507 ], [ 91.6544947, 23.3587146 ], [ 91.6539831, 23.3598331 ], [ 91.65199, 23.3590701 ], [ 91.6507593, 23.3658214 ], [ 91.6453895, 23.3695293 ], [ 91.6449715, 23.3794245 ], [ 91.6432446, 23.3813709 ], [ 91.6430266, 23.3895691 ], [ 91.6409815, 23.3933567 ], [ 91.6361353, 23.3912144 ], [ 91.63214, 23.3926135 ], [ 91.6308625, 23.4016398 ], [ 91.6315162, 23.4057588 ], [ 91.6282616, 23.4080264 ], [ 91.6300153, 23.4106311 ], [ 91.6318551, 23.410491 ], [ 91.6309092, 23.4128725 ], [ 91.6323862, 23.4164878 ], [ 91.6284888, 23.4245326 ], [ 91.6254728, 23.4253199 ], [ 91.6195023, 23.4191292 ], [ 91.6173495, 23.4191961 ], [ 91.6164201, 23.4157988 ], [ 91.6146198, 23.4157943 ], [ 91.6149366, 23.4145309 ], [ 91.6123994, 23.4122492 ], [ 91.6134593, 23.4111683 ], [ 91.6118211, 23.4092861 ], [ 91.6039549, 23.4092661 ], [ 91.6023173, 23.4072754 ], [ 91.5985253, 23.4059292 ], [ 91.5951295, 23.4030309 ], [ 91.5923659, 23.3982561 ], [ 91.5888, 23.3997997 ], [ 91.5859282, 23.4045595 ], [ 91.5811531, 23.4048356 ], [ 91.5807175, 23.4064236 ], [ 91.5785264, 23.4062732 ], [ 91.5794143, 23.4100679 ], [ 91.5768218, 23.4130224 ], [ 91.5782246, 23.4149405 ], [ 91.5760244, 23.417571 ], [ 91.577388, 23.4195251 ], [ 91.5744544, 23.4189753 ], [ 91.5725282, 23.4215704 ], [ 91.5729529, 23.4233414 ], [ 91.571738, 23.4238436 ], [ 91.5652842, 23.4225614 ], [ 91.5635915, 23.4254821 ], [ 91.5567033, 23.425318 ], [ 91.5520572, 23.4219096 ], [ 91.5482193, 23.4225846 ], [ 91.5379369, 23.4193398 ], [ 91.5353888, 23.420524 ], [ 91.5307718, 23.4201128 ], [ 91.5292135, 23.4180855 ], [ 91.5269824, 23.4181509 ], [ 91.5269103, 23.4164531 ], [ 91.5250288, 23.4172419 ], [ 91.5222602, 23.4144162 ], [ 91.5213539, 23.416111 ], [ 91.5200659, 23.4151318 ], [ 91.516855, 23.4155913 ], [ 91.514166, 23.4124768 ], [ 91.5071767, 23.4081929 ], [ 91.5060775, 23.4090923 ], [ 91.503305, 23.4074581 ], [ 91.4999371, 23.4080612 ], [ 91.4954158, 23.4063575 ], [ 91.4896774, 23.4060907 ], [ 91.4878836, 23.4079295 ], [ 91.4873934, 23.4066341 ], [ 91.4846597, 23.4076607 ], [ 91.481884, 23.4050395 ], [ 91.4778575, 23.4042971 ], [ 91.4754467, 23.4054408 ], [ 91.468926, 23.4055034 ], [ 91.4678775, 23.4030073 ], [ 91.4703225, 23.4017418 ], [ 91.4680656, 23.3988988 ], [ 91.4703085, 23.3954167 ], [ 91.4691038, 23.3934083 ], [ 91.4703002, 23.3903149 ], [ 91.4614663, 23.3897961 ], [ 91.4600067, 23.3864649 ], [ 91.4606397, 23.3818054 ], [ 91.4592985, 23.3799008 ], [ 91.4604464, 23.3774216 ], [ 91.4519051, 23.373692 ], [ 91.4506461, 23.3695436 ], [ 91.4424672, 23.3653708 ], [ 91.4409619, 23.3674889 ], [ 91.4354648, 23.3663938 ], [ 91.4308157, 23.3707521 ], [ 91.4257292, 23.3700268 ], [ 91.4231922, 23.373391 ], [ 91.4203999, 23.3743263 ], [ 91.4227634, 23.3817306 ], [ 91.4191104, 23.3834428 ], [ 91.4187408, 23.3898268 ], [ 91.4158449, 23.3887124 ], [ 91.4113891, 23.3890521 ], [ 91.4100396, 23.3905558 ], [ 91.4087187, 23.389739 ], [ 91.4079124, 23.3923397 ], [ 91.4044793, 23.3956181 ], [ 91.4007374, 23.3957181 ], [ 91.393758, 23.3997417 ], [ 91.3869931, 23.4015664 ], [ 91.3851638, 23.4033724 ], [ 91.384054, 23.4118557 ], [ 91.3854045, 23.4151875 ], [ 91.3835507, 23.4203028 ], [ 91.3851458, 23.422682 ], [ 91.3878319, 23.4237337 ], [ 91.3855961, 23.4260815 ], [ 91.3873773, 23.4277383 ], [ 91.3874462, 23.4319686 ], [ 91.3889728, 23.4334447 ], [ 91.3865607, 23.4335352 ], [ 91.3859346, 23.4353051 ], [ 91.380166, 23.4369352 ], [ 91.3787178, 23.4393868 ], [ 91.3794566, 23.44131 ], [ 91.3771492, 23.4449318 ], [ 91.3788869, 23.4483805 ], [ 91.3781162, 23.4516488 ], [ 91.3797262, 23.453911 ], [ 91.3791679, 23.4572395 ], [ 91.3805173, 23.4601544 ], [ 91.3795393, 23.4630271 ], [ 91.3811403, 23.4677737 ], [ 91.3842564, 23.4700368 ], [ 91.3864633, 23.4745412 ], [ 91.3908142, 23.4774333 ], [ 91.3921107, 23.4770909 ], [ 91.3923774, 23.4787203 ], [ 91.388287, 23.4829881 ], [ 91.3825747, 23.4863486 ], [ 91.3851411, 23.4934826 ], [ 91.3831751, 23.496886 ], [ 91.3863112, 23.5004575 ], [ 91.3822151, 23.5021984 ], [ 91.3819264, 23.5056341 ], [ 91.3800074, 23.5079367 ], [ 91.3821079, 23.5114626 ], [ 91.379753, 23.5114988 ], [ 91.377364, 23.5143386 ], [ 91.3781621, 23.5152731 ], [ 91.3752638, 23.5177471 ], [ 91.3785538, 23.5192054 ], [ 91.3830682, 23.5236431 ], [ 91.3881016, 23.5257466 ], [ 91.3909266, 23.5243106 ], [ 91.3960333, 23.5249421 ], [ 91.4007921, 23.5234379 ], [ 91.4009401, 23.5284808 ], [ 91.4022427, 23.5292842 ], [ 91.397474, 23.5317004 ], [ 91.395482, 23.5366803 ], [ 91.3990671, 23.5406527 ], [ 91.396855, 23.5480887 ], [ 91.3984099, 23.5482871 ], [ 91.3981242, 23.5510366 ], [ 91.394537, 23.5539635 ], [ 91.395232, 23.5591102 ], [ 91.3985109, 23.5620092 ], [ 91.3995109, 23.5778129 ], [ 91.397655, 23.5847667 ], [ 91.4031727, 23.587594 ], [ 91.4107333, 23.5944674 ], [ 91.4145337, 23.5955159 ], [ 91.4172892, 23.6003937 ], [ 91.4199707, 23.6006064 ], [ 91.4223829, 23.6028292 ], [ 91.4245895, 23.6024802 ], [ 91.4295691, 23.6086153 ], [ 91.4328569, 23.6089444 ], [ 91.433032, 23.6122528 ], [ 91.4403432, 23.6218907 ], [ 91.4372177, 23.6231019 ], [ 91.4373166, 23.6248264 ], [ 91.4480024, 23.6321038 ], [ 91.4476372, 23.6363071 ], [ 91.4487215, 23.6387941 ], [ 91.4535606, 23.6425163 ], [ 91.459501, 23.6440797 ], [ 91.4627331, 23.6625922 ], [ 91.4664139, 23.6624186 ], [ 91.4719982, 23.664853 ], [ 91.4739264, 23.6674703 ], [ 91.4766616, 23.6680656 ], [ 91.4772393, 23.670704 ], [ 91.4797402, 23.6729154 ], [ 91.4822887, 23.6729962 ], [ 91.4878023, 23.6770233 ], [ 91.4881308, 23.6756794 ], [ 91.4857068, 23.672557 ], [ 91.4863471, 23.6702948 ], [ 91.4900469, 23.6692358 ], [ 91.494318, 23.6713455 ], [ 91.4962312, 23.6645478 ], [ 91.5030914, 23.6624165 ], [ 91.5034549, 23.6590956 ], [ 91.506142, 23.6575881 ], [ 91.5064669, 23.6544225 ], [ 91.5081053, 23.6534275 ], [ 91.5073516, 23.6518068 ], [ 91.5056489, 23.6515036 ], [ 91.5053718, 23.6481859 ], [ 91.5082141, 23.6483507 ], [ 91.5085053, 23.6461614 ], [ 91.5108039, 23.6458833 ], [ 91.5137178, 23.6480796 ], [ 91.5134374, 23.6494157 ], [ 91.5163672, 23.6504292 ], [ 91.5154053, 23.6519589 ], [ 91.5171449, 23.6521092 ], [ 91.5185149, 23.6547241 ], [ 91.5207546, 23.6549018 ], [ 91.5214042, 23.6575524 ], [ 91.519823, 23.6580075 ], [ 91.5224616, 23.659088 ], [ 91.5255745, 23.6582775 ], [ 91.526091, 23.662025 ], [ 91.5234193, 23.662592 ], [ 91.5233531, 23.6657476 ], [ 91.5261552, 23.6676141 ], [ 91.524003, 23.6680777 ], [ 91.5233987, 23.6698786 ], [ 91.5274986, 23.6733305 ], [ 91.5263105, 23.6758669 ], [ 91.5277503, 23.677466 ], [ 91.5274397, 23.679687 ], [ 91.5404176, 23.6832932 ], [ 91.5411457, 23.686788 ], [ 91.5438311, 23.6882883 ], [ 91.5416973, 23.6902374 ], [ 91.5422158, 23.6920029 ], [ 91.5388608, 23.6944434 ], [ 91.5393484, 23.6962623 ], [ 91.5342568, 23.70149 ], [ 91.5347508, 23.7035016 ], [ 91.5290661, 23.7064587 ], [ 91.5321827, 23.7087008 ], [ 91.5331407, 23.7110764 ], [ 91.5385536, 23.7112916 ], [ 91.5357847, 23.716554 ], [ 91.5382084, 23.7218736 ], [ 91.5367751, 23.7239539 ], [ 91.537102, 23.7265319 ], [ 91.5424761, 23.7270812 ], [ 91.5445171, 23.7252718 ], [ 91.5586432, 23.7278067 ], [ 91.5625874, 23.7345801 ], [ 91.564666, 23.7361655 ], [ 91.5683466, 23.7360488 ], [ 91.5687598, 23.7389537 ], [ 91.5722958, 23.7403197 ], [ 91.5743635, 23.743001 ], [ 91.5754606, 23.7466807 ], [ 91.5742576, 23.749696 ], [ 91.5764833, 23.7522947 ], [ 91.5724043, 23.759476 ], [ 91.5728247, 23.7628846 ], [ 91.5766028, 23.7597122 ], [ 91.5789319, 23.7614376 ], [ 91.5810805, 23.7613254 ], [ 91.5819085, 23.7636777 ], [ 91.5844165, 23.7594438 ], [ 91.5887532, 23.7572465 ], [ 91.5917004, 23.7591163 ], [ 91.5955655, 23.7588102 ], [ 91.6005629, 23.7619985 ], [ 91.5988459, 23.7629102 ], [ 91.6012344, 23.7642334 ], [ 91.6099213, 23.7645688 ], [ 91.6173767, 23.7681362 ], [ 91.6194908, 23.7684839 ], [ 91.6228315, 23.7660824 ], [ 91.6254115, 23.7670035 ], [ 91.6273147, 23.7662631 ], [ 91.6311359, 23.768245 ], [ 91.6329852, 23.7648411 ], [ 91.6358989, 23.7675949 ], [ 91.6384202, 23.7682313 ], [ 91.6403624, 23.7653689 ], [ 91.6468867, 23.768673 ], [ 91.6473327, 23.7652961 ], [ 91.6490494, 23.7642936 ], [ 91.6496381, 23.765499 ], [ 91.656804, 23.7630782 ], [ 91.6592275, 23.7648294 ], [ 91.6602916, 23.7632536 ], [ 91.6686692, 23.7624662 ], [ 91.6695624, 23.7640416 ], [ 91.6701605, 23.7630391 ], [ 91.6732659, 23.7645913 ], [ 91.6734863, 23.763562 ], [ 91.6808092, 23.762544 ], [ 91.6816863, 23.7604534 ], [ 91.6908731, 23.7598632 ], [ 91.6928095, 23.7577452 ], [ 91.6950423, 23.7599834 ], [ 91.698805, 23.760993 ], [ 91.7022968, 23.7600796 ], [ 91.7032836, 23.7616275 ], [ 91.7057159, 23.7606287 ], [ 91.7069194, 23.7638695 ], [ 91.7085676, 23.7637558 ], [ 91.7089069, 23.7653628 ], [ 91.7124544, 23.7681544 ], [ 91.7172319, 23.7684127 ] ] ] } }
]
}
