{
"type": "FeatureCollection",
"name": "1608",
"crs": { "type": "name", "properties": { "name": "urn:ogc:def:crs:OGC:1.3:CRS84" } },
"features": [
{ "type": "Feature", "properties": { "code": "1608", "name": "Unakoti", "type": "district" }, "geometry": { "type": "Polygon", "coordinates": [ [ [ 91.9966507, 24.3937077 ], [ 91.9992585, 24.392267 ], [ 92.0014005, 24.3887813 ], [ 92.0039641, 24.3880114 ], [ 92.0055555, 24.3856322 ], [ 92.0044451, 24.3836008 ], [ 92.007307, 24.3814273 ], [ 92.0200692, 24.3865447 ], [ 92.0236151, 24.3856338 ], [ 92.0215366, 24.3833716 ], [ 92.0247945, 24.3835043 ], [ 92.0267312, 24.3817302 ], [ 92.0268612, 24.3796366 ], [ 92.0339268, 24.3788218 ], [ 92.0356408, 24.3800312 ], [ 92.0394872, 24.3767543 ], [ 92.043102, 24.3774949 ], [ 92.0439757, 24.3749154 ], [ 92.048806, 24.3775783 ], [ 92.0495496, 24.3754275 ], [ 92.0759903, 24.3751073 ], [ 92.0780813, 24.3672397 ], [ 92.0750285, 24.3498455 ], [ 92.0761026, 24.3454609 ], [ 92.0735991, 24.3287862 ], [ 92.074608, 24.3198483 ], [ 92.0726105, 24.3141281 ], [ 92.076173, 24.3117414 ], [ 92.0769973, 24.3077963 ], [ 92.0837471, 24.3037944 ], [ 92.0819157, 24.3011756 ], [ 92.0804465, 24.2921195 ], [ 92.0809256, 24.2758639 ], [ 92.0861369, 24.273767 ], [ 92.0932942, 24.2725667 ], [ 92.0951916, 24.2736577 ], [ 92.1044474, 24.2713365 ], [ 92.1072526, 24.2738161 ], [ 92.1083217, 24.2710806 ], [ 92.1128621, 24.2703048 ], [ 92.1228253, 24.2714116 ], [ 92.1260869, 24.2664308 ], [ 92.1233922, 24.2604883 ], [ 92.123237, 24.2558295 ], [ 92.1248954, 24.2532149 ], [ 92.1280047, 24.2518363 ], [ 92.1307245, 24.2453923 ], [ 92.1368746, 24.2433203 ], [ 92.1431355, 24.2384266 ], [ 92.1516351, 24.2375847 ], [ 92.1534983, 24.2318295 ], [ 92.1524906, 24.226005 ], [ 92.1599717, 24.2281699 ], [ 92.1599722, 24.2300732 ], [ 92.1621457, 24.2304193 ], [ 92.1674467, 24.2268714 ], [ 92.1678017, 24.2240313 ], [ 92.1665062, 24.2219521 ], [ 92.1681504, 24.2181437 ], [ 92.1679532, 24.2135186 ], [ 92.1708392, 24.2122122 ], [ 92.1696535, 24.2058478 ], [ 92.171749, 24.2010085 ], [ 92.1763109, 24.2016982 ], [ 92.1792656, 24.1985936 ], [ 92.1820045, 24.1998514 ], [ 92.1825258, 24.1939388 ], [ 92.1888966, 24.1902729 ], [ 92.1893522, 24.1886994 ], [ 92.1969881, 24.1909979 ], [ 92.2017802, 24.1912754 ], [ 92.2023077, 24.1902126 ], [ 92.2034075, 24.1807271 ], [ 92.2018824, 24.1749468 ], [ 92.2033611, 24.1699229 ], [ 92.202712, 24.1675581 ], [ 92.1990362, 24.165801 ], [ 92.199899, 24.1595146 ], [ 92.198945, 24.1543879 ], [ 92.1970156, 24.1528034 ], [ 92.1964581, 24.1501754 ], [ 92.1939757, 24.1507902 ], [ 92.1916754, 24.1467167 ], [ 92.1876207, 24.1466566 ], [ 92.1830928, 24.1400206 ], [ 92.1771831, 24.1375602 ], [ 92.1759859, 24.1352867 ], [ 92.1712056, 24.1344145 ], [ 92.1699376, 24.1359037 ], [ 92.1656833, 24.1342951 ], [ 92.1663396, 24.1332692 ], [ 92.1636805, 24.1325294 ], [ 92.1635338, 24.1291533 ], [ 92.1615343, 24.1269074 ], [ 92.1583424, 24.1263455 ], [ 92.1502141, 24.1183576 ], [ 92.145581, 24.1197982 ], [ 92.1460578, 24.1175681 ], [ 92.1484925, 24.1178748 ], [ 92.1531499, 24.1158924 ], [ 92.1550489, 24.1179416 ], [ 92.1593376, 24.1171012 ], [ 92.1630595, 24.1117103 ], [ 92.1667398, 24.1095859 ], [ 92.1689112, 24.1047914 ], [ 92.1653112, 24.1018951 ], [ 92.1617745, 24.0896536 ], [ 92.1606614, 24.078089 ], [ 92.1482397, 24.063491 ], [ 92.1429891, 24.0510148 ], [ 92.1386883, 24.046896 ], [ 92.1427718, 24.0443788 ], [ 92.1427326, 24.0407685 ], [ 92.1381337, 24.0392971 ], [ 92.1343779, 24.0323668 ], [ 92.1219331, 24.0381108 ], [ 92.1179588, 24.0346067 ], [ 92.1169986, 24.030756 ], [ 92.1207966, 24.0299955 ], [ 92.1242806, 24.0271471 ], [ 92.1240184, 24.0260336 ], [ 92.119763, 24.0237189 ], [ 92.116586, 24.0200259 ], [ 92.1127418, 24.0229205 ], [ 92.113257, 24.0187515 ], [ 92.1111535, 24.0167544 ], [ 92.1073294, 24.015746 ], [ 92.1075304, 24.0126671 ], [ 92.1059701, 24.0106457 ], [ 92.102807, 24.0103449 ], [ 92.1017101, 24.0118316 ], [ 92.0981884, 24.0100426 ], [ 92.0969885, 24.0130441 ], [ 92.0947573, 24.0129307 ], [ 92.0910942, 24.0194486 ], [ 92.0897033, 24.0192948 ], [ 92.0884736, 24.0165663 ], [ 92.0812995, 24.0182314 ], [ 92.0775395, 24.0251647 ], [ 92.072791, 24.0275337 ], [ 92.073187, 24.0325486 ], [ 92.0792026, 24.0369609 ], [ 92.0729012, 24.0430471 ], [ 92.0718847, 24.0690014 ], [ 92.0743308, 24.0743474 ], [ 92.0719367, 24.0952073 ], [ 92.0750884, 24.0962919 ], [ 92.0749289, 24.1014834 ], [ 92.0768645, 24.1014932 ], [ 92.0804748, 24.1049523 ], [ 92.0662984, 24.1063951 ], [ 92.060908, 24.1085185 ], [ 92.0508953, 24.1085219 ], [ 92.0437048, 24.101688 ], [ 92.0419077, 24.1014527 ], [ 92.0372875, 24.1047538 ], [ 92.0277883, 24.1033412 ], [ 92.0185469, 24.1085281 ], [ 92.0118717, 24.1080571 ], [ 92.0105877, 24.1007498 ], [ 92.0116142, 24.0915567 ], [ 92.010074, 24.0903782 ], [ 92.0010895, 24.0906139 ], [ 91.9987793, 24.0877852 ], [ 92.0002699, 24.079552 ], [ 91.9970276, 24.0821645 ], [ 91.989705, 24.0809862 ], [ 91.9808926, 24.0736658 ], [ 91.9780324, 24.0753234 ], [ 91.9774857, 24.0711975 ], [ 91.9738535, 24.0735389 ], [ 91.9730263, 24.0700815 ], [ 91.9743379, 24.0693882 ], [ 91.9702885, 24.0697897 ], [ 91.9697882, 24.0774696 ], [ 91.9724922, 24.0802258 ], [ 91.9709585, 24.0863244 ], [ 91.9631449, 24.0871695 ], [ 91.9628912, 24.0901943 ], [ 91.959828, 24.0907467 ], [ 91.9572629, 24.0937862 ], [ 91.9507137, 24.0956266 ], [ 91.9405297, 24.1025893 ], [ 91.9386022, 24.1020829 ], [ 91.9347849, 24.1039591 ], [ 91.9300998, 24.1094102 ], [ 91.9301767, 24.1125161 ], [ 91.9275009, 24.1129843 ], [ 91.9266734, 24.1149702 ], [ 91.9192004, 24.121126 ], [ 91.9183673, 24.1154291 ], [ 91.9111072, 24.1306726 ], [ 91.9027029, 24.1377964 ], [ 91.9057526, 24.1386002 ], [ 91.9060958, 24.1448046 ], [ 91.9100586, 24.1463174 ], [ 91.9111943, 24.148953 ], [ 91.9096993, 24.150609 ], [ 91.9130571, 24.1514862 ], [ 91.9110146, 24.1521186 ], [ 91.9113934, 24.1535782 ], [ 91.9145403, 24.1536134 ], [ 91.9128044, 24.1545141 ], [ 91.9142134, 24.1594116 ], [ 91.9127032, 24.1609472 ], [ 91.9136845, 24.1624301 ], [ 91.9113966, 24.1640245 ], [ 91.9147916, 24.1666851 ], [ 91.911389, 24.1681255 ], [ 91.9408187, 24.2680915 ], [ 91.9199888, 24.3374609 ], [ 91.9226637, 24.3356879 ], [ 91.9258246, 24.3364836 ], [ 91.9274614, 24.3390294 ], [ 91.9314632, 24.3396992 ], [ 91.9324246, 24.3411563 ], [ 91.9345154, 24.3399692 ], [ 91.9384936, 24.3430851 ], [ 91.9413317, 24.342546 ], [ 91.9421995, 24.3471715 ], [ 91.9436439, 24.3487436 ], [ 91.9461047, 24.3483613 ], [ 91.946305, 24.350671 ], [ 91.9502018, 24.3510295 ], [ 91.9568015, 24.3566342 ], [ 91.9623176, 24.3531714 ], [ 91.9643316, 24.3503059 ], [ 91.9689973, 24.3501515 ], [ 91.9658874, 24.3468335 ], [ 91.9710503, 24.3429458 ], [ 91.9730019, 24.3338851 ], [ 91.9771394, 24.3274171 ], [ 91.9806115, 24.3283506 ], [ 91.9822701, 24.3238835 ], [ 91.9855569, 24.3222207 ], [ 91.9903833, 24.3239284 ], [ 91.9930152, 24.322113 ], [ 91.9959506, 24.3220545 ], [ 91.9964579, 24.3263609 ], [ 91.9950125, 24.331427 ], [ 91.9983238, 24.3317403 ], [ 91.9983432, 24.3340631 ], [ 91.9956619, 24.3390806 ], [ 91.9930953, 24.3398353 ], [ 91.992128, 24.3433735 ], [ 91.9892901, 24.3436236 ], [ 91.9860094, 24.3498205 ], [ 91.9781203, 24.3573911 ], [ 91.9796449, 24.3601001 ], [ 91.9819034, 24.3590197 ], [ 91.9843584, 24.3594828 ], [ 91.9846465, 24.3608574 ], [ 91.9803973, 24.3636833 ], [ 91.9782932, 24.3667263 ], [ 91.9789652, 24.3695842 ], [ 91.9774878, 24.3723358 ], [ 91.9737587, 24.3707455 ], [ 91.9699934, 24.3747367 ], [ 91.9727341, 24.3770188 ], [ 91.9722647, 24.3795314 ], [ 91.9676691, 24.3786835 ], [ 91.9669151, 24.3797738 ], [ 91.9701316, 24.3842781 ], [ 91.9719943, 24.3847508 ], [ 91.9759838, 24.3821939 ], [ 91.9817096, 24.3810148 ], [ 91.9835516, 24.3772319 ], [ 91.985787, 24.3768907 ], [ 91.9883319, 24.3790822 ], [ 91.9883336, 24.3840187 ], [ 91.9920954, 24.3876349 ], [ 91.9919698, 24.3891654 ], [ 91.9896229, 24.3901508 ], [ 91.9950072, 24.388081 ], [ 91.9962309, 24.3906048 ], [ 91.9947735, 24.3921415 ], [ 91.9966507, 24.3937077 ] ] ] } }
]
}
