{
"type": "FeatureCollection",
"name": "1703",
"crs": { "type": "name", "properties": { "name": "urn:ogc:def:crs:OGC:1.3:CRS84" } },
"features": [
{ "type": "Feature", "properties": { "code": "1703", "name": "South Garo Hills", "type": "district" }, "geometry": { "type": "Polygon", "coordinates": [ [ [ 90.7893748, 25.4964005 ], [ 90.7925478, 25.4906875 ], [ 90.7919148, 25.4862089 ], [ 90.7871166, 25.4793712 ], [ 90.7745471, 25.4757463 ], [ 90.7720503, 25.4721263 ], [ 90.7739204, 25.4686827 ], [ 90.7816215, 25.4694529 ], [ 90.7852191, 25.4683486 ], [ 90.7845285, 25.4645062 ], [ 90.7771823, 25.4531843 ], [ 90.7654853, 25.4560746 ], [ 90.7593215, 25.4550769 ], [ 90.7574767, 25.4514022 ], [ 90.7604311, 25.4494847 ], [ 90.7617976, 25.4462792 ], [ 90.7577696, 25.4398579 ], [ 90.7574725, 25.4319266 ], [ 90.7596097, 25.4257461 ], [ 90.7636696, 25.4208534 ], [ 90.7620427, 25.4051663 ], [ 90.7627795, 25.3979315 ], [ 90.7508552, 25.3919664 ], [ 90.7491359, 25.3874152 ], [ 90.7493492, 25.3806529 ], [ 90.7565518, 25.3764118 ], [ 90.7590711, 25.3713999 ], [ 90.7648523, 25.3679656 ], [ 90.7833378, 25.3653126 ], [ 90.7904384, 25.3698716 ], [ 90.8060403, 25.3682015 ], [ 90.8124003, 25.364778 ], [ 90.8143311, 25.3605815 ], [ 90.8308792, 25.3576842 ], [ 90.8372295, 25.3579319 ], [ 90.8416784, 25.3515162 ], [ 90.8380411, 25.3407328 ], [ 90.8397223, 25.3363018 ], [ 90.8398384, 25.3125855 ], [ 90.8442839, 25.3071667 ], [ 90.8524326, 25.3014718 ], [ 90.857203, 25.2934333 ], [ 90.8762417, 25.2925273 ], [ 90.9005925, 25.2966981 ], [ 90.9145212, 25.2857709 ], [ 90.919475, 25.2749361 ], [ 90.9256411, 25.2670712 ], [ 90.9366742, 25.2623491 ], [ 90.945336, 25.2607691 ], [ 90.9519447, 25.2561998 ], [ 90.9588107, 25.2465249 ], [ 90.9594663, 25.2345711 ], [ 90.9574791, 25.2308667 ], [ 90.95287, 25.2281282 ], [ 90.9533324, 25.2223275 ], [ 90.949815, 25.2184084 ], [ 90.9498208, 25.2146827 ], [ 90.9555843, 25.2120055 ], [ 90.9593101, 25.2038475 ], [ 90.9686021, 25.2011434 ], [ 90.9715052, 25.1915109 ], [ 90.9697672, 25.1732319 ], [ 90.9685277, 25.1724119 ], [ 90.9603669, 25.1702508 ], [ 90.9488187, 25.1707925 ], [ 90.9464981, 25.1675628 ], [ 90.9430906, 25.1675102 ], [ 90.9280054, 25.1622169 ], [ 90.9126114, 25.1632118 ], [ 90.9046213, 25.1618788 ], [ 90.9016993, 25.1625459 ], [ 90.8972925, 25.166261 ], [ 90.8945319, 25.1645854 ], [ 90.8839888, 25.1667185 ], [ 90.8749965, 25.1632698 ], [ 90.8745366, 25.1612423 ], [ 90.8719279, 25.1597022 ], [ 90.8667499, 25.1611696 ], [ 90.8624154, 25.1576732 ], [ 90.8594363, 25.1601563 ], [ 90.8579969, 25.1590663 ], [ 90.859814, 25.1585512 ], [ 90.8589607, 25.1578964 ], [ 90.8552385, 25.1578792 ], [ 90.8541888, 25.1591322 ], [ 90.8520851, 25.1578961 ], [ 90.8461965, 25.157931 ], [ 90.8444206, 25.1584607 ], [ 90.8420129, 25.164307 ], [ 90.84074, 25.164322 ], [ 90.8404992, 25.1611477 ], [ 90.836635, 25.1608666 ], [ 90.8214707, 25.16326 ], [ 90.8195505, 25.1626111 ], [ 90.8179264, 25.1675583 ], [ 90.8138494, 25.167514 ], [ 90.8147982, 25.1658795 ], [ 90.8135725, 25.1658715 ], [ 90.8155656, 25.1639442 ], [ 90.8140004, 25.1636869 ], [ 90.8049201, 25.1663664 ], [ 90.8044674, 25.1716143 ], [ 90.8054554, 25.1736278 ], [ 90.8027949, 25.1728666 ], [ 90.7987732, 25.1743232 ], [ 90.7959785, 25.1772107 ], [ 90.7947263, 25.1812707 ], [ 90.7873277, 25.1787132 ], [ 90.7842016, 25.1795158 ], [ 90.784203, 25.1812817 ], [ 90.7818578, 25.1805447 ], [ 90.781265, 25.1859563 ], [ 90.7803575, 25.186115 ], [ 90.7755216, 25.1819513 ], [ 90.7709757, 25.1814471 ], [ 90.7691599, 25.1826098 ], [ 90.7666201, 25.1794758 ], [ 90.7638335, 25.1783134 ], [ 90.7629426, 25.1758092 ], [ 90.7589138, 25.1724518 ], [ 90.7607099, 25.1721349 ], [ 90.7617747, 25.1698863 ], [ 90.7604112, 25.1682027 ], [ 90.7591505, 25.1678558 ], [ 90.7585822, 25.1694434 ], [ 90.7575965, 25.1681564 ], [ 90.7566577, 25.1697637 ], [ 90.749431, 25.1669126 ], [ 90.7476221, 25.1639989 ], [ 90.7420755, 25.1658722 ], [ 90.7418622, 25.1702353 ], [ 90.7399249, 25.16929 ], [ 90.7396862, 25.1666719 ], [ 90.7342243, 25.1668459 ], [ 90.7331917, 25.1620157 ], [ 90.7378764, 25.1643234 ], [ 90.7419346, 25.1612454 ], [ 90.7391447, 25.1576686 ], [ 90.7344777, 25.1581702 ], [ 90.7332765, 25.1549114 ], [ 90.7319294, 25.1549844 ], [ 90.7314724, 25.1573831 ], [ 90.7266202, 25.1580629 ], [ 90.7256703, 25.1631083 ], [ 90.7223956, 25.1647031 ], [ 90.7175025, 25.1638746 ], [ 90.7147742, 25.1675702 ], [ 90.7099802, 25.1681213 ], [ 90.7080875, 25.1665667 ], [ 90.7063579, 25.1611498 ], [ 90.7023594, 25.1620633 ], [ 90.7006372, 25.1648062 ], [ 90.6992947, 25.1611595 ], [ 90.7003155, 25.1589993 ], [ 90.6980682, 25.1568332 ], [ 90.6952621, 25.1585753 ], [ 90.6950412, 25.1600153 ], [ 90.6917405, 25.1608691 ], [ 90.6899284, 25.164151 ], [ 90.6865559, 25.1645313 ], [ 90.6837116, 25.1632289 ], [ 90.6821543, 25.164251 ], [ 90.6805189, 25.1693176 ], [ 90.685513, 25.1722396 ], [ 90.6857075, 25.174469 ], [ 90.6810028, 25.1723176 ], [ 90.6751527, 25.1724896 ], [ 90.6763623, 25.1761724 ], [ 90.6745777, 25.1764967 ], [ 90.6699494, 25.1662647 ], [ 90.6660065, 25.1658039 ], [ 90.6665537, 25.1695003 ], [ 90.6657486, 25.171885 ], [ 90.6638068, 25.1728606 ], [ 90.6651502, 25.1762709 ], [ 90.66343, 25.1787611 ], [ 90.6653083, 25.1807055 ], [ 90.6650128, 25.1841715 ], [ 90.6647985, 25.1853358 ], [ 90.6627672, 25.185546 ], [ 90.6637949, 25.1883296 ], [ 90.6626582, 25.1914768 ], [ 90.66481, 25.1959187 ], [ 90.6634201, 25.1978516 ], [ 90.6609506, 25.1916823 ], [ 90.661218, 25.1890377 ], [ 90.6569454, 25.1847568 ], [ 90.6523848, 25.1922373 ], [ 90.648842, 25.1948751 ], [ 90.6479677, 25.1942095 ], [ 90.6525617, 25.1885906 ], [ 90.651394, 25.1881036 ], [ 90.6523761, 25.1868676 ], [ 90.6510955, 25.1822244 ], [ 90.6489713, 25.1806893 ], [ 90.6459888, 25.1808315 ], [ 90.6403497, 25.1835926 ], [ 90.6387949, 25.1800828 ], [ 90.6418902, 25.1766655 ], [ 90.6409351, 25.1745294 ], [ 90.6345572, 25.1760261 ], [ 90.6318489, 25.1736219 ], [ 90.6272393, 25.1732178 ], [ 90.6270474, 25.1722157 ], [ 90.6252215, 25.1740937 ], [ 90.6204151, 25.1744015 ], [ 90.6182777, 25.1725399 ], [ 90.6163064, 25.1772827 ], [ 90.6138842, 25.173666 ], [ 90.6126726, 25.1769765 ], [ 90.6092395, 25.1784092 ], [ 90.6078054, 25.1781044 ], [ 90.6073578, 25.1761427 ], [ 90.6047217, 25.1763775 ], [ 90.6045884, 25.1749108 ], [ 90.5981838, 25.1766449 ], [ 90.5891442, 25.1751931 ], [ 90.5878701, 25.1765102 ], [ 90.5861755, 25.1737934 ], [ 90.5832584, 25.1732834 ], [ 90.5789488, 25.1747628 ], [ 90.5759758, 25.1716399 ], [ 90.5697712, 25.1736021 ], [ 90.5647383, 25.1733539 ], [ 90.564328, 25.1721437 ], [ 90.5616986, 25.1718145 ], [ 90.5597703, 25.1735378 ], [ 90.5549773, 25.1716798 ], [ 90.5513447, 25.1752326 ], [ 90.5455591, 25.1736033 ], [ 90.5380328, 25.1752831 ], [ 90.5352978, 25.1733095 ], [ 90.5254759, 25.1737462 ], [ 90.5186579, 25.1721874 ], [ 90.5086395, 25.1753546 ], [ 90.5098632, 25.1694237 ], [ 90.4990535, 25.1721748 ], [ 90.4989947, 25.1684753 ], [ 90.4886901, 25.1641928 ], [ 90.4858848, 25.1610674 ], [ 90.4628617, 25.1541089 ], [ 90.4508454, 25.1523921 ], [ 90.449421, 25.1466242 ], [ 90.4463915, 25.1447839 ], [ 90.4409902, 25.1445516 ], [ 90.4223425, 25.1505558 ], [ 90.4187327, 25.1505832 ], [ 90.4188859, 25.1515419 ], [ 90.4137129, 25.1536114 ], [ 90.4044812, 25.1599502 ], [ 90.4002233, 25.1589817 ], [ 90.3888953, 25.1612932 ], [ 90.3795323, 25.1612247 ], [ 90.3704591, 25.1628403 ], [ 90.365336, 25.1672037 ], [ 90.3467567, 25.1783419 ], [ 90.3414299, 25.1830228 ], [ 90.336743, 25.1894832 ], [ 90.3302389, 25.193816 ], [ 90.3233884, 25.1921479 ], [ 90.3166476, 25.1928602 ], [ 90.3104303, 25.1887694 ], [ 90.2938021, 25.1926018 ], [ 90.2865546, 25.1956839 ], [ 90.2815939, 25.1953108 ], [ 90.2681351, 25.1984113 ], [ 90.264056, 25.1962547 ], [ 90.2554992, 25.1997854 ], [ 90.2535425, 25.2002484 ], [ 90.2504664, 25.199952 ], [ 90.2485244, 25.2002681 ], [ 90.2500799, 25.2001377 ], [ 90.2513633, 25.2016789 ], [ 90.2529611, 25.2117418 ], [ 90.2429046, 25.2264288 ], [ 90.2397275, 25.227235 ], [ 90.2363572, 25.223644 ], [ 90.2342842, 25.2241135 ], [ 90.2341569, 25.2283209 ], [ 90.2366102, 25.2312596 ], [ 90.2533928, 25.2311123 ], [ 90.2591869, 25.2336003 ], [ 90.259556, 25.2350471 ], [ 90.2542853, 25.2383817 ], [ 90.2549716, 25.2402145 ], [ 90.2580682, 25.2406751 ], [ 90.2649925, 25.2372844 ], [ 90.2673216, 25.237479 ], [ 90.2684046, 25.2400353 ], [ 90.266628, 25.2431522 ], [ 90.272251, 25.2484681 ], [ 90.2700182, 25.2561606 ], [ 90.2715514, 25.2626272 ], [ 90.2781686, 25.2685755 ], [ 90.2823311, 25.265139 ], [ 90.285143, 25.2667381 ], [ 90.2822585, 25.2700553 ], [ 90.2727276, 25.2733956 ], [ 90.2726186, 25.2748552 ], [ 90.2768647, 25.2761066 ], [ 90.2753581, 25.2780517 ], [ 90.2665887, 25.2810388 ], [ 90.2691144, 25.2883259 ], [ 90.2688912, 25.2989519 ], [ 90.2675839, 25.3026688 ], [ 90.2700459, 25.3044932 ], [ 90.2714669, 25.3081107 ], [ 90.2702691, 25.3125082 ], [ 90.2764259, 25.3140712 ], [ 90.2821428, 25.311745 ], [ 90.2856195, 25.3132692 ], [ 90.2868028, 25.3153832 ], [ 90.2812939, 25.3182359 ], [ 90.2809696, 25.3195537 ], [ 90.2897086, 25.3195999 ], [ 90.2933463, 25.3210291 ], [ 90.2937505, 25.3232665 ], [ 90.2878148, 25.3265012 ], [ 90.2916152, 25.3291906 ], [ 90.2923871, 25.3333271 ], [ 90.2950543, 25.336662 ], [ 90.2975873, 25.3363643 ], [ 90.298532, 25.337868 ], [ 90.3004364, 25.3363441 ], [ 90.3045837, 25.3376035 ], [ 90.3082089, 25.3339769 ], [ 90.3085508, 25.3431704 ], [ 90.3155488, 25.3461594 ], [ 90.3139557, 25.3475639 ], [ 90.3160325, 25.3518548 ], [ 90.3181958, 25.3522827 ], [ 90.3249072, 25.3502397 ], [ 90.3286982, 25.3526431 ], [ 90.3301253, 25.3597135 ], [ 90.3319811, 25.3602891 ], [ 90.3304824, 25.3624777 ], [ 90.3318963, 25.3627687 ], [ 90.3314599, 25.3643982 ], [ 90.3265612, 25.3641639 ], [ 90.325871, 25.3615481 ], [ 90.3253114, 25.3626799 ], [ 90.3227909, 25.3616217 ], [ 90.3216878, 25.3632035 ], [ 90.3168135, 25.3638336 ], [ 90.3166892, 25.3675561 ], [ 90.3196149, 25.3697871 ], [ 90.3166462, 25.3709268 ], [ 90.3177357, 25.3734776 ], [ 90.3155924, 25.3738115 ], [ 90.314226, 25.3713888 ], [ 90.3145896, 25.3692107 ], [ 90.3121587, 25.3716118 ], [ 90.3109706, 25.3712338 ], [ 90.3122241, 25.3662545 ], [ 90.3096176, 25.3664695 ], [ 90.3103816, 25.3640122 ], [ 90.3065562, 25.3629036 ], [ 90.305819, 25.3656769 ], [ 90.3054604, 25.3637311 ], [ 90.3036602, 25.3625521 ], [ 90.3032022, 25.3659736 ], [ 90.3010732, 25.3654415 ], [ 90.304275, 25.3763801 ], [ 90.3008556, 25.3759162 ], [ 90.3021116, 25.377582 ], [ 90.3074681, 25.3780179 ], [ 90.3067942, 25.3792819 ], [ 90.3090646, 25.3815536 ], [ 90.3084653, 25.3891354 ], [ 90.3059445, 25.3899679 ], [ 90.3078618, 25.3926534 ], [ 90.3069289, 25.3996131 ], [ 90.3117665, 25.3995574 ], [ 90.3122874, 25.4015546 ], [ 90.314393, 25.4005485 ], [ 90.3191007, 25.4034161 ], [ 90.3183356, 25.407605 ], [ 90.3210195, 25.4082092 ], [ 90.3251115, 25.4114796 ], [ 90.3233185, 25.4146942 ], [ 90.3213586, 25.4142147 ], [ 90.3212796, 25.416601 ], [ 90.3265389, 25.4189353 ], [ 90.329957, 25.4220146 ], [ 90.3292729, 25.4279111 ], [ 90.3340087, 25.438794 ], [ 90.3334652, 25.44282 ], [ 90.334804, 25.4503894 ], [ 90.3377959, 25.4530582 ], [ 90.3376888, 25.4556014 ], [ 90.3344856, 25.4569643 ], [ 90.3436784, 25.4571017 ], [ 90.3490004, 25.4608283 ], [ 90.3602421, 25.4569969 ], [ 90.3676807, 25.4568363 ], [ 90.3725111, 25.4585775 ], [ 90.3801118, 25.4590798 ], [ 90.3866354, 25.4560338 ], [ 90.3909294, 25.4578981 ], [ 90.3977602, 25.4580589 ], [ 90.4035781, 25.4604031 ], [ 90.409535, 25.4546516 ], [ 90.4147278, 25.4571433 ], [ 90.4169325, 25.4596862 ], [ 90.4414912, 25.4610197 ], [ 90.4469086, 25.4582265 ], [ 90.4527717, 25.4577395 ], [ 90.4617828, 25.4548863 ], [ 90.4644268, 25.4528403 ], [ 90.4728268, 25.4515498 ], [ 90.4778877, 25.4484135 ], [ 90.4810075, 25.449344 ], [ 90.4933059, 25.4440759 ], [ 90.499303, 25.4434451 ], [ 90.5056778, 25.4385506 ], [ 90.5100783, 25.4327452 ], [ 90.5166991, 25.4298912 ], [ 90.5239352, 25.4295539 ], [ 90.526157, 25.4315772 ], [ 90.5290976, 25.4303114 ], [ 90.5343464, 25.4313073 ], [ 90.536609, 25.4295269 ], [ 90.5400503, 25.4296986 ], [ 90.5484253, 25.4268412 ], [ 90.5496896, 25.4250756 ], [ 90.5535627, 25.4284483 ], [ 90.5607459, 25.4267774 ], [ 90.5617592, 25.427834 ], [ 90.5649304, 25.4276278 ], [ 90.5694249, 25.4250841 ], [ 90.5719044, 25.426394 ], [ 90.5896787, 25.4252355 ], [ 90.5968564, 25.4226916 ], [ 90.5983919, 25.4209258 ], [ 90.6000112, 25.4225786 ], [ 90.6054853, 25.4221181 ], [ 90.6083463, 25.4232418 ], [ 90.6132028, 25.4211758 ], [ 90.6201345, 25.4205821 ], [ 90.6223974, 25.4183131 ], [ 90.6234376, 25.420685 ], [ 90.6396605, 25.4153969 ], [ 90.6445976, 25.4160429 ], [ 90.6555418, 25.4381339 ], [ 90.6583717, 25.4488295 ], [ 90.6614642, 25.4510569 ], [ 90.6613521, 25.4552388 ], [ 90.6655377, 25.455512 ], [ 90.6681582, 25.4609309 ], [ 90.6733635, 25.4649056 ], [ 90.6759665, 25.4727668 ], [ 90.6790134, 25.4755245 ], [ 90.6783363, 25.4799465 ], [ 90.6817041, 25.484504 ], [ 90.6886728, 25.4914006 ], [ 90.6963904, 25.4925382 ], [ 90.7006897, 25.4913365 ], [ 90.7061975, 25.4926363 ], [ 90.7108948, 25.5066566 ], [ 90.7232132, 25.5210027 ], [ 90.7296775, 25.5313938 ], [ 90.744844, 25.5439704 ], [ 90.7537524, 25.5483785 ], [ 90.7610444, 25.5503177 ], [ 90.7639735, 25.5535196 ], [ 90.7665527, 25.5543177 ], [ 90.7645548, 25.5508984 ], [ 90.7685637, 25.54385 ], [ 90.7775002, 25.5407645 ], [ 90.7806011, 25.5358647 ], [ 90.7812006, 25.5270085 ], [ 90.7877344, 25.5111028 ], [ 90.7903158, 25.5078311 ], [ 90.7890442, 25.5021739 ], [ 90.7893748, 25.4964005 ] ] ] } }
]
}
