{
"type": "FeatureCollection",
"name": "1803",
"crs": { "type": "name", "properties": { "name": "urn:ogc:def:crs:OGC:1.3:CRS84" } },
"features": [
{ "type": "Feature", "properties": { "code": "1803", "name": "Goalpara", "type": "district" }, "geometry": { "type": "Polygon", "coordinates": [ [ [ 90.6180562, 26.209254 ], [ 90.6224714, 26.2019563 ], [ 90.6453357, 26.2099175 ], [ 90.6560221, 26.2110011 ], [ 90.6706178, 26.2000367 ], [ 90.6737607, 26.1970709 ], [ 90.6765119, 26.1898468 ], [ 90.6770029, 26.1810396 ], [ 90.6840982, 26.1720251 ], [ 90.6940875, 26.1507435 ], [ 90.7079932, 26.1458409 ], [ 90.7145225, 26.1300417 ], [ 90.7217528, 26.1327368 ], [ 90.7305405, 26.1338806 ], [ 90.7333887, 26.135967 ], [ 90.7456021, 26.1360885 ], [ 90.7669742, 26.1342561 ], [ 90.7929071, 26.1291146 ], [ 90.7942082, 26.1275177 ], [ 90.8157503, 26.1197205 ], [ 90.8248844, 26.1185279 ], [ 90.8371947, 26.11178 ], [ 90.8395999, 26.1090772 ], [ 90.8486415, 26.1148559 ], [ 90.8600596, 26.1123844 ], [ 90.8692084, 26.0970764 ], [ 90.8716176, 26.095533 ], [ 90.8820889, 26.0949823 ], [ 90.916003, 26.0896823 ], [ 90.9237846, 26.0936369 ], [ 90.9247938, 26.0969391 ], [ 90.935302, 26.101207 ], [ 90.9400775, 26.093355 ], [ 90.9358829, 26.092579 ], [ 90.939425, 26.0874786 ], [ 90.9475876, 26.0891991 ], [ 90.947396, 26.0861933 ], [ 90.9503872, 26.0819993 ], [ 90.9599664, 26.0824487 ], [ 90.9583552, 26.0795056 ], [ 90.9584125, 26.0757307 ], [ 90.9654265, 26.0722928 ], [ 90.9797604, 26.0605986 ], [ 90.9804846, 26.0582776 ], [ 90.9854258, 26.0596948 ], [ 90.9971362, 26.0565783 ], [ 90.997038, 26.0551969 ], [ 91.0000001, 26.0535491 ], [ 91.0103362, 26.0545224 ], [ 91.0140153, 26.0488 ], [ 91.0178897, 26.0480688 ], [ 91.023506, 26.0422604 ], [ 91.0273804, 26.0412466 ], [ 91.0288483, 26.0416147 ], [ 91.0313742, 26.0468123 ], [ 91.0356106, 26.0487562 ], [ 91.0354355, 26.0462786 ], [ 91.039701, 26.0450193 ], [ 91.0467015, 26.0405335 ], [ 91.0536659, 26.0428812 ], [ 91.0550326, 26.0465274 ], [ 91.0606227, 26.0436242 ], [ 91.0618222, 26.0455879 ], [ 91.0641348, 26.0463392 ], [ 91.0689531, 26.0416775 ], [ 91.069626, 26.0378153 ], [ 91.0733797, 26.0390802 ], [ 91.0788681, 26.0389441 ], [ 91.0821885, 26.0309763 ], [ 91.0902022, 26.0315109 ], [ 91.0856124, 26.0243678 ], [ 91.0871484, 26.0238735 ], [ 91.0883981, 26.020179 ], [ 91.0900395, 26.0211212 ], [ 91.0909933, 26.0193732 ], [ 91.0930762, 26.0197249 ], [ 91.0917352, 26.0176497 ], [ 91.094946, 26.0167582 ], [ 91.0935527, 26.0126399 ], [ 91.0983481, 26.0111634 ], [ 91.1000431, 26.0092964 ], [ 91.0995877, 26.0068662 ], [ 91.0964291, 26.0036893 ], [ 91.0934635, 26.0037535 ], [ 91.0904814, 26.0017097 ], [ 91.0858669, 25.9872145 ], [ 91.0858988, 25.9819521 ], [ 91.0824643, 25.9796944 ], [ 91.0803352, 25.9722831 ], [ 91.0690384, 25.9673638 ], [ 91.0640405, 25.9586106 ], [ 91.0589349, 25.9558821 ], [ 91.0475373, 25.9415061 ], [ 91.052032, 25.9382905 ], [ 91.0519836, 25.9359527 ], [ 91.0426664, 25.9265012 ], [ 91.0398948, 25.9153201 ], [ 91.0355213, 25.9049685 ], [ 91.0304654, 25.899987 ], [ 91.0303758, 25.8859299 ], [ 91.025219, 25.8887765 ], [ 91.0179067, 25.8845582 ], [ 91.0106028, 25.8841729 ], [ 91.0010308, 25.8858221 ], [ 91.0006598, 25.8879382 ], [ 90.9760534, 25.8896735 ], [ 90.968855, 25.8852193 ], [ 90.9659786, 25.8884391 ], [ 90.9690044, 25.9037505 ], [ 90.9666222, 25.9140648 ], [ 90.9626844, 25.9203858 ], [ 90.9611323, 25.9273191 ], [ 90.9570449, 25.9349578 ], [ 90.9512425, 25.9391222 ], [ 90.9475341, 25.9394896 ], [ 90.9461423, 25.9410113 ], [ 90.9454657, 25.944875 ], [ 90.9474345, 25.9480919 ], [ 90.939991, 25.9473012 ], [ 90.9338571, 25.9397713 ], [ 90.923925, 25.9428711 ], [ 90.9219427, 25.9413418 ], [ 90.9194879, 25.9444521 ], [ 90.9173364, 25.9444077 ], [ 90.9148127, 25.9358874 ], [ 90.9155696, 25.9307512 ], [ 90.9142352, 25.9257057 ], [ 90.9154312, 25.9203978 ], [ 90.9195117, 25.91522 ], [ 90.9168364, 25.9140564 ], [ 90.9061745, 25.9250217 ], [ 90.9052921, 25.9289033 ], [ 90.8944217, 25.9311798 ], [ 90.8974526, 25.9374753 ], [ 90.8900253, 25.9380721 ], [ 90.889575, 25.9427365 ], [ 90.8857632, 25.9456953 ], [ 90.8845256, 25.9503079 ], [ 90.880492, 25.9504932 ], [ 90.8810757, 25.9428252 ], [ 90.876688, 25.9494237 ], [ 90.871691, 25.9476273 ], [ 90.8748259, 25.94255 ], [ 90.848474, 25.9443801 ], [ 90.8443554, 25.9459724 ], [ 90.8423447, 25.9421222 ], [ 90.8390404, 25.9413091 ], [ 90.8354679, 25.9366054 ], [ 90.834823, 25.9396517 ], [ 90.8364289, 25.9437952 ], [ 90.8361879, 25.9484212 ], [ 90.832914, 25.9458613 ], [ 90.8258992, 25.9486935 ], [ 90.824413, 25.9453983 ], [ 90.819274, 25.9503159 ], [ 90.8162046, 25.9489335 ], [ 90.8156099, 25.950188 ], [ 90.8090541, 25.9524373 ], [ 90.8078817, 25.95097 ], [ 90.8091467, 25.9474096 ], [ 90.7963818, 25.9405207 ], [ 90.7844883, 25.9251282 ], [ 90.7853174, 25.9242892 ], [ 90.7833779, 25.9217697 ], [ 90.7811652, 25.911266 ], [ 90.7780513, 25.9112008 ], [ 90.7781032, 25.9086147 ], [ 90.7638866, 25.9077155 ], [ 90.7566774, 25.9109864 ], [ 90.7567897, 25.9134282 ], [ 90.7606653, 25.9156652 ], [ 90.7605245, 25.9218844 ], [ 90.7587194, 25.9202627 ], [ 90.7547068, 25.9202594 ], [ 90.7510656, 25.9182661 ], [ 90.7471409, 25.9155369 ], [ 90.745305, 25.9117691 ], [ 90.7424458, 25.9123862 ], [ 90.7389766, 25.9161584 ], [ 90.7477931, 25.91886 ], [ 90.7469612, 25.9248066 ], [ 90.75344, 25.9283247 ], [ 90.7546271, 25.9334428 ], [ 90.7527883, 25.9342702 ], [ 90.7513914, 25.9322983 ], [ 90.7500915, 25.9330055 ], [ 90.7467155, 25.9280883 ], [ 90.740397, 25.9393946 ], [ 90.7477646, 25.9482987 ], [ 90.7478277, 25.9499325 ], [ 90.7457994, 25.9505784 ], [ 90.745686, 25.9518964 ], [ 90.748095, 25.9567161 ], [ 90.7444162, 25.9550567 ], [ 90.7428166, 25.9579871 ], [ 90.7377571, 25.9556985 ], [ 90.7383284, 25.9527102 ], [ 90.7324669, 25.9520964 ], [ 90.724475, 25.9467766 ], [ 90.719939, 25.9487925 ], [ 90.718676, 25.9551073 ], [ 90.7138459, 25.9516713 ], [ 90.7076459, 25.9520812 ], [ 90.7029272, 25.9504907 ], [ 90.6883345, 25.9489092 ], [ 90.6726537, 25.93464 ], [ 90.6350921, 25.9214916 ], [ 90.6285389, 25.9175924 ], [ 90.6261932, 25.9133501 ], [ 90.6261333, 25.909735 ], [ 90.6306745, 25.9095002 ], [ 90.6307991, 25.9062822 ], [ 90.6249355, 25.8982623 ], [ 90.6218662, 25.8978364 ], [ 90.6136048, 25.8993222 ], [ 90.6062662, 25.916617 ], [ 90.6123062, 25.9256619 ], [ 90.6231189, 25.9350587 ], [ 90.6245364, 25.9371348 ], [ 90.6241242, 25.9391755 ], [ 90.6048973, 25.9470908 ], [ 90.5996733, 25.955128 ], [ 90.5906923, 25.956062 ], [ 90.5893138, 25.9582263 ], [ 90.5878705, 25.9580707 ], [ 90.5838229, 25.9560023 ], [ 90.5797659, 25.9512707 ], [ 90.5770618, 25.9445148 ], [ 90.5767314, 25.9367498 ], [ 90.5524238, 25.922748 ], [ 90.5488754, 25.9214005 ], [ 90.5438019, 25.9235934 ], [ 90.5444836, 25.9205538 ], [ 90.5483766, 25.9192003 ], [ 90.5500588, 25.91684 ], [ 90.5491235, 25.9154286 ], [ 90.5381416, 25.913747 ], [ 90.5374933, 25.9111968 ], [ 90.526419, 25.9048444 ], [ 90.5213861, 25.8984772 ], [ 90.5136277, 25.8962724 ], [ 90.5085532, 25.9015037 ], [ 90.5179966, 25.9156784 ], [ 90.5206854, 25.9259671 ], [ 90.5264082, 25.9327227 ], [ 90.5311369, 25.9350797 ], [ 90.5341632, 25.9389594 ], [ 90.5350044, 25.9495882 ], [ 90.5317954, 25.9560098 ], [ 90.5204628, 25.9705237 ], [ 90.5096436, 25.9804899 ], [ 90.5025351, 25.991461 ], [ 90.488661, 26.0033884 ], [ 90.4761344, 26.0095867 ], [ 90.4562191, 26.0001788 ], [ 90.4437385, 25.9959665 ], [ 90.4374688, 25.991718 ], [ 90.4332787, 25.9913181 ], [ 90.4302214, 25.9889498 ], [ 90.4251877, 25.9888389 ], [ 90.4168391, 25.9915043 ], [ 90.4154933, 25.9988161 ], [ 90.4111472, 26.0004224 ], [ 90.4053898, 26.0089782 ], [ 90.3997468, 26.0125162 ], [ 90.3721768, 26.0112655 ], [ 90.3497139, 26.0041284 ], [ 90.3487316, 26.0011364 ], [ 90.3469534, 26.0004215 ], [ 90.3467055, 25.9978491 ], [ 90.3430694, 25.9963086 ], [ 90.3403557, 25.9883434 ], [ 90.3315318, 25.9876498 ], [ 90.331049, 25.9826899 ], [ 90.3279195, 25.9750066 ], [ 90.3247762, 25.9733957 ], [ 90.2705824, 25.9603097 ], [ 90.2114931, 25.9525932 ], [ 90.2099369, 25.9596611 ], [ 90.2028702, 25.9608626 ], [ 90.1998319, 25.9569544 ], [ 90.1924206, 25.9552534 ], [ 90.1908255, 25.9512142 ], [ 90.1873909, 25.9498738 ], [ 90.1869066, 25.9468545 ], [ 90.1887587, 25.9458345 ], [ 90.1868842, 25.9440946 ], [ 90.1808014, 25.9497743 ], [ 90.1784347, 25.9554429 ], [ 90.1772117, 25.9552735 ], [ 90.1769242, 25.958954 ], [ 90.1657592, 25.955762 ], [ 90.1584701, 25.9571509 ], [ 90.1564304, 25.9582696 ], [ 90.151413, 25.9666699 ], [ 90.1438214, 25.9601372 ], [ 90.1393833, 25.9596371 ], [ 90.1406372, 25.9573267 ], [ 90.1317177, 25.9587431 ], [ 90.1195596, 25.9541841 ], [ 90.120752, 25.957476 ], [ 90.1158723, 25.9625887 ], [ 90.1176641, 25.9672104 ], [ 90.1200706, 25.96921 ], [ 90.125383, 25.9692283 ], [ 90.1288981, 25.9672696 ], [ 90.133976, 25.9750819 ], [ 90.1401624, 25.9737818 ], [ 90.1416507, 25.977108 ], [ 90.1404028, 25.981206 ], [ 90.1417561, 25.9822484 ], [ 90.1493308, 25.9803115 ], [ 90.1509688, 25.9811417 ], [ 90.1522128, 25.9846979 ], [ 90.1574917, 25.9877478 ], [ 90.1604032, 25.9882438 ], [ 90.1651667, 25.9869113 ], [ 90.170761, 25.9906603 ], [ 90.1751399, 25.9890748 ], [ 90.1736977, 25.9917291 ], [ 90.1740682, 25.9942021 ], [ 90.1762766, 25.9969229 ], [ 90.1794929, 25.9971204 ], [ 90.1795051, 26.0003849 ], [ 90.1875099, 26.001392 ], [ 90.1862235, 26.006011 ], [ 90.183465, 26.0088504 ], [ 90.1947426, 26.0200129 ], [ 90.1972785, 26.025924 ], [ 90.1912671, 26.0313561 ], [ 90.1804298, 26.0335546 ], [ 90.1775432, 26.0378873 ], [ 90.1771424, 26.0411906 ], [ 90.1744284, 26.0438582 ], [ 90.1706836, 26.0440424 ], [ 90.1712207, 26.0452751 ], [ 90.1820692, 26.0488451 ], [ 90.1846176, 26.051619 ], [ 90.1829983, 26.0619922 ], [ 90.1748374, 26.0723893 ], [ 90.1687436, 26.0774843 ], [ 90.1694355, 26.0825772 ], [ 90.1734314, 26.0902044 ], [ 90.1736577, 26.1030461 ], [ 90.1809773, 26.1064679 ], [ 90.186076, 26.1107167 ], [ 90.1891528, 26.1216966 ], [ 90.1954296, 26.1272592 ], [ 90.2146659, 26.1272417 ], [ 90.2317953, 26.1351416 ], [ 90.2479354, 26.1404109 ], [ 90.2499002, 26.1504166 ], [ 90.2500065, 26.1771796 ], [ 90.2518238, 26.1781961 ], [ 90.2682731, 26.185155 ], [ 90.2721509, 26.1838627 ], [ 90.2791223, 26.1855374 ], [ 90.2889366, 26.185273 ], [ 90.3053968, 26.1796317 ], [ 90.31523, 26.1803042 ], [ 90.3228734, 26.1789939 ], [ 90.3274408, 26.1772445 ], [ 90.3303086, 26.1728272 ], [ 90.3666165, 26.1769407 ], [ 90.3744356, 26.1557233 ], [ 90.4043926, 26.1562576 ], [ 90.4245487, 26.1476856 ], [ 90.4395288, 26.1479505 ], [ 90.479198, 26.1620336 ], [ 90.4939993, 26.1712157 ], [ 90.5000051, 26.1767964 ], [ 90.5009672, 26.1867261 ], [ 90.5061101, 26.1914313 ], [ 90.5157199, 26.1962914 ], [ 90.6020842, 26.2065904 ], [ 90.6104165, 26.2115114 ], [ 90.6180562, 26.209254 ] ] ] } }
]
}
