{
"type": "FeatureCollection",
"name": "1808",
"crs": { "type": "name", "properties": { "name": "urn:ogc:def:crs:OGC:1.3:CRS84" } },
"features": [
{ "type": "Feature", "properties": { "code": "1808", "name": "Darrang", "type": "district" }, "geometry": { "type": "Polygon", "coordinates": [ [ [ 92.1810214, 26.6596445 ], [ 92.1811503, 26.6415883 ], [ 92.2062664, 26.6417307 ], [ 92.2063288, 26.6327025 ], [ 92.2013373, 26.6281603 ], [ 92.1963147, 26.628132 ], [ 92.1963463, 26.6236179 ], [ 92.2013687, 26.6236462 ], [ 92.2064223, 26.6191602 ], [ 92.2114446, 26.6191882 ], [ 92.2115065, 26.6101599 ], [ 92.2215503, 26.6102152 ], [ 92.2216419, 26.5966728 ], [ 92.2266936, 26.5921861 ], [ 92.2317147, 26.5922133 ], [ 92.2318352, 26.5741566 ], [ 92.2369153, 26.5651553 ], [ 92.2369452, 26.5606411 ], [ 92.2319556, 26.5561 ], [ 92.2319857, 26.5515858 ], [ 92.237005, 26.5516127 ], [ 92.2419947, 26.5561537 ], [ 92.2570534, 26.556233 ], [ 92.2569951, 26.5652614 ], [ 92.2519459, 26.5697493 ], [ 92.2519165, 26.5742635 ], [ 92.2468667, 26.5787512 ], [ 92.2468371, 26.5832654 ], [ 92.2417867, 26.5877529 ], [ 92.2467781, 26.5922938 ], [ 92.2417272, 26.5967813 ], [ 92.2466894, 26.6058362 ], [ 92.2516817, 26.6103769 ], [ 92.2767914, 26.6105067 ], [ 92.2767346, 26.6195351 ], [ 92.2716551, 26.6285378 ], [ 92.2714832, 26.6556228 ], [ 92.2765072, 26.6556484 ], [ 92.2815594, 26.6511598 ], [ 92.2865831, 26.6511851 ], [ 92.2866112, 26.6466709 ], [ 92.3018465, 26.6196605 ], [ 92.3018739, 26.6151463 ], [ 92.3119183, 26.6151953 ], [ 92.3119724, 26.6061668 ], [ 92.317021, 26.6016768 ], [ 92.3169942, 26.606191 ], [ 92.322016, 26.606215 ], [ 92.3220426, 26.6017008 ], [ 92.3270642, 26.6017246 ], [ 92.327117, 26.5926961 ], [ 92.3371855, 26.588229 ], [ 92.3321907, 26.5836913 ], [ 92.332243, 26.5746628 ], [ 92.3598557, 26.5747896 ], [ 92.3581, 26.5619143 ], [ 92.3692932, 26.5569734 ], [ 92.3767788, 26.5492425 ], [ 92.3817973, 26.5387279 ], [ 92.3818449, 26.5298551 ], [ 92.3731989, 26.5231627 ], [ 92.3570758, 26.5230909 ], [ 92.3465466, 26.5208249 ], [ 92.3410131, 26.5124811 ], [ 92.344135, 26.5047064 ], [ 92.3401571, 26.5004317 ], [ 92.3117925, 26.4855434 ], [ 92.3007771, 26.4748304 ], [ 92.2948061, 26.4663171 ], [ 92.2812677, 26.4541142 ], [ 92.2740492, 26.4509932 ], [ 92.2558049, 26.4516974 ], [ 92.2447008, 26.4460147 ], [ 92.238533, 26.4393857 ], [ 92.2364546, 26.4311062 ], [ 92.2342356, 26.4274841 ], [ 92.2209437, 26.4167394 ], [ 92.2162858, 26.4146304 ], [ 92.2080259, 26.4142926 ], [ 92.2056209, 26.4152055 ], [ 92.2000915, 26.4211476 ], [ 92.181974, 26.4243601 ], [ 92.1757181, 26.4231034 ], [ 92.154513, 26.4108027 ], [ 92.1430145, 26.4012328 ], [ 92.133507, 26.3882906 ], [ 92.1229896, 26.370555 ], [ 92.1161614, 26.3635326 ], [ 92.1040596, 26.3544016 ], [ 92.1038655, 26.3469327 ], [ 92.0999247, 26.3409027 ], [ 92.0942153, 26.3388392 ], [ 92.0864313, 26.3404124 ], [ 92.0842631, 26.3388458 ], [ 92.0792727, 26.3306081 ], [ 92.0752568, 26.317104 ], [ 92.0716678, 26.3134879 ], [ 92.0615292, 26.3103427 ], [ 92.057756, 26.2973977 ], [ 92.0471818, 26.2817729 ], [ 92.0479348, 26.2786187 ], [ 92.0438858, 26.2774477 ], [ 92.0401696, 26.2729596 ], [ 92.0322976, 26.2702154 ], [ 92.0243779, 26.2709818 ], [ 92.017877, 26.2756763 ], [ 92.0150132, 26.2806102 ], [ 92.0154915, 26.283025 ], [ 92.0105204, 26.2778222 ], [ 92.0066813, 26.2773317 ], [ 92.0005035, 26.2729444 ], [ 91.9921555, 26.2696012 ], [ 91.98659, 26.2703232 ], [ 91.9851466, 26.2738129 ], [ 91.9803173, 26.275342 ], [ 91.9601319, 26.2597139 ], [ 91.9538192, 26.2569367 ], [ 91.9528572, 26.2542085 ], [ 91.9453014, 26.2510202 ], [ 91.9338393, 26.2432163 ], [ 91.9292848, 26.2423063 ], [ 91.926413, 26.2441395 ], [ 91.9246827, 26.2474933 ], [ 91.919134, 26.2463096 ], [ 91.9183425, 26.2443196 ], [ 91.9123807, 26.2401783 ], [ 91.9086346, 26.2308914 ], [ 91.9021635, 26.2264926 ], [ 91.8999169, 26.2270075 ], [ 91.8861557, 26.2216884 ], [ 91.8854391, 26.2184723 ], [ 91.8798852, 26.2167214 ], [ 91.8726152, 26.2171048 ], [ 91.8701333, 26.2194605 ], [ 91.8709187, 26.2210762 ], [ 91.8696778, 26.2210851 ], [ 91.8591309, 26.2171351 ], [ 91.8398984, 26.2152762 ], [ 91.8308784, 26.2125521 ], [ 91.8207494, 26.207611 ], [ 91.8175325, 26.2074562 ], [ 91.8159306, 26.2091344 ], [ 91.8007435, 26.2058097 ], [ 91.7918632, 26.2058813 ], [ 91.7846269, 26.202176 ], [ 91.7709176, 26.1984791 ], [ 91.7465717, 26.2100663 ], [ 91.7452235, 26.2120823 ], [ 91.7450567, 26.2178544 ], [ 91.7467084, 26.2217913 ], [ 91.7642104, 26.2326332 ], [ 91.765039, 26.2348002 ], [ 91.7630881, 26.2390454 ], [ 91.7638929, 26.2400118 ], [ 91.7734789, 26.2426639 ], [ 91.775818, 26.2404948 ], [ 91.7774624, 26.2428292 ], [ 91.7814249, 26.2441994 ], [ 91.7844817, 26.2513418 ], [ 91.7863528, 26.2648369 ], [ 91.7902649, 26.267791 ], [ 91.7905315, 26.272602 ], [ 91.7877769, 26.2744235 ], [ 91.7858458, 26.2791023 ], [ 91.7865524, 26.2844642 ], [ 91.7845173, 26.2875995 ], [ 91.7860456, 26.2922173 ], [ 91.7821771, 26.2962312 ], [ 91.7832694, 26.3012865 ], [ 91.7854105, 26.3036257 ], [ 91.7821156, 26.3038672 ], [ 91.7818389, 26.3054376 ], [ 91.7873911, 26.3065108 ], [ 91.7894099, 26.3118781 ], [ 91.7931108, 26.3114381 ], [ 91.7930614, 26.3171469 ], [ 91.7915321, 26.3197635 ], [ 91.7933435, 26.3215744 ], [ 91.7957454, 26.3209327 ], [ 91.7954604, 26.3167693 ], [ 91.7974159, 26.3132593 ], [ 91.8035471, 26.3177983 ], [ 91.8051373, 26.3135298 ], [ 91.8099347, 26.3133833 ], [ 91.8141222, 26.3111513 ], [ 91.8167882, 26.3168885 ], [ 91.8088495, 26.3192632 ], [ 91.8084819, 26.3225394 ], [ 91.8114595, 26.3262415 ], [ 91.8149944, 26.3277279 ], [ 91.8188622, 26.3250309 ], [ 91.8189755, 26.3284517 ], [ 91.8216932, 26.3320813 ], [ 91.8169745, 26.3429015 ], [ 91.8195121, 26.3464814 ], [ 91.8161492, 26.3499685 ], [ 91.821592, 26.35438 ], [ 91.819495, 26.360273 ], [ 91.8229548, 26.3640743 ], [ 91.8201738, 26.3651337 ], [ 91.8222659, 26.3691015 ], [ 91.8206552, 26.3741915 ], [ 91.8179418, 26.3794524 ], [ 91.8101733, 26.3836053 ], [ 91.8057547, 26.3824208 ], [ 91.8029379, 26.3837415 ], [ 91.804262, 26.3893383 ], [ 91.7963373, 26.3929939 ], [ 91.798625, 26.3963709 ], [ 91.7979204, 26.4006939 ], [ 91.7946314, 26.4027499 ], [ 91.796353, 26.4060003 ], [ 91.7945664, 26.409429 ], [ 91.7891199, 26.4078281 ], [ 91.7847947, 26.408042 ], [ 91.7808577, 26.4114781 ], [ 91.7800136, 26.413892 ], [ 91.7825881, 26.4158072 ], [ 91.7829374, 26.4177436 ], [ 91.7773171, 26.4196757 ], [ 91.7790874, 26.4242463 ], [ 91.7787088, 26.4274298 ], [ 91.7772248, 26.4277537 ], [ 91.7746807, 26.425324 ], [ 91.7732423, 26.4305488 ], [ 91.7708691, 26.4328938 ], [ 91.7722762, 26.4345646 ], [ 91.7710387, 26.444657 ], [ 91.7721391, 26.4472278 ], [ 91.7646627, 26.4588066 ], [ 91.7659824, 26.4628602 ], [ 91.7657919, 26.4680093 ], [ 91.7669696, 26.4686601 ], [ 91.7705368, 26.4663929 ], [ 91.7731511, 26.4697615 ], [ 91.7775031, 26.4703152 ], [ 91.7773884, 26.4752116 ], [ 91.7793074, 26.477158 ], [ 91.7792488, 26.4809849 ], [ 91.7808555, 26.4845242 ], [ 91.7758117, 26.4888259 ], [ 91.7757604, 26.490103 ], [ 91.7786929, 26.4917297 ], [ 91.7831625, 26.4904196 ], [ 91.7846898, 26.4932908 ], [ 91.7812122, 26.4956442 ], [ 91.7809899, 26.4975394 ], [ 91.7872441, 26.4978324 ], [ 91.7830528, 26.5043263 ], [ 91.804307, 26.5066247 ], [ 91.8183455, 26.5058186 ], [ 91.8181763, 26.5118243 ], [ 91.8267212, 26.5150902 ], [ 91.8332069, 26.5152836 ], [ 91.8326652, 26.5255506 ], [ 91.8418217, 26.5229056 ], [ 91.8458662, 26.5240179 ], [ 91.8458762, 26.5259091 ], [ 91.8419566, 26.5297002 ], [ 91.841786, 26.5344939 ], [ 91.8432499, 26.5360296 ], [ 91.8397637, 26.5389981 ], [ 91.8407413, 26.5398918 ], [ 91.8607214, 26.5399649 ], [ 91.8658928, 26.5354885 ], [ 91.8757792, 26.5356587 ], [ 91.8858707, 26.5403551 ], [ 91.8907683, 26.5447858 ], [ 91.8958361, 26.5586667 ], [ 91.9005946, 26.5675028 ], [ 91.9055722, 26.5719459 ], [ 91.9206557, 26.5721157 ], [ 91.9255269, 26.5678 ], [ 91.9308577, 26.5585899 ], [ 91.9309317, 26.5496262 ], [ 91.9158512, 26.5495618 ], [ 91.9159998, 26.5359005 ], [ 91.9260332, 26.5270687 ], [ 91.9311363, 26.5270319 ], [ 91.9360411, 26.536133 ], [ 91.94107, 26.5406884 ], [ 91.9510701, 26.5362316 ], [ 91.9712017, 26.5363581 ], [ 91.9810957, 26.5455206 ], [ 91.9710113, 26.5544343 ], [ 91.9860925, 26.5545276 ], [ 91.9861224, 26.5455515 ], [ 91.9911151, 26.5501051 ], [ 91.9911196, 26.5545931 ], [ 91.9961079, 26.5545193 ], [ 91.9961419, 26.5501356 ], [ 92.0011434, 26.5456406 ], [ 92.0061621, 26.5456757 ], [ 92.0112196, 26.5411967 ], [ 92.0212951, 26.536752 ], [ 92.0277253, 26.536796 ], [ 92.0271924, 26.5305131 ], [ 92.0208905, 26.5297603 ], [ 92.0187928, 26.5276111 ], [ 92.0194116, 26.5218724 ], [ 92.0223932, 26.5204546 ], [ 92.0226111, 26.5243324 ], [ 92.0263466, 26.5264518 ], [ 92.0293817, 26.5257502 ], [ 92.0285346, 26.5235719 ], [ 92.0293464, 26.5225887 ], [ 92.0331048, 26.5251927 ], [ 92.0344777, 26.5243415 ], [ 92.0348178, 26.5204021 ], [ 92.0313786, 26.513753 ], [ 92.0264149, 26.5113116 ], [ 92.025084, 26.5088878 ], [ 92.0275621, 26.5068846 ], [ 92.036981, 26.5094123 ], [ 92.0466856, 26.5008103 ], [ 92.0467601, 26.4917823 ], [ 92.041781, 26.4872347 ], [ 92.0468345, 26.4827543 ], [ 92.0468717, 26.4782403 ], [ 92.0519246, 26.4737597 ], [ 92.0518506, 26.4827877 ], [ 92.0618829, 26.482854 ], [ 92.0619195, 26.47834 ], [ 92.0669718, 26.4738588 ], [ 92.0719876, 26.4738915 ], [ 92.0769673, 26.478438 ], [ 92.0769313, 26.4829521 ], [ 92.0718789, 26.4874336 ], [ 92.0668626, 26.4874009 ], [ 92.0667532, 26.5009429 ], [ 92.0617363, 26.50091 ], [ 92.0566825, 26.505391 ], [ 92.0566456, 26.509905 ], [ 92.0716976, 26.5100037 ], [ 92.0766427, 26.5190643 ], [ 92.0815527, 26.5326387 ], [ 92.0764621, 26.5416343 ], [ 92.0965369, 26.541763 ], [ 92.1015205, 26.5463087 ], [ 92.1014853, 26.5508228 ], [ 92.1165428, 26.5509169 ], [ 92.1165082, 26.5554309 ], [ 92.111454, 26.5599138 ], [ 92.116439, 26.564459 ], [ 92.1164043, 26.5689731 ], [ 92.1062944, 26.5779385 ], [ 92.0962538, 26.5778751 ], [ 92.086249, 26.573297 ], [ 92.0811929, 26.5777787 ], [ 92.0660954, 26.5821947 ], [ 92.0661686, 26.5731668 ], [ 92.0612222, 26.5641059 ], [ 92.0614427, 26.537022 ], [ 92.0463873, 26.5369221 ], [ 92.0413313, 26.5414024 ], [ 92.0262754, 26.5413003 ], [ 92.0212185, 26.5457799 ], [ 92.0208733, 26.5864051 ], [ 92.0258938, 26.5864395 ], [ 92.0358972, 26.5910218 ], [ 92.040918, 26.5910557 ], [ 92.0358215, 26.6000496 ], [ 92.0307623, 26.6045294 ], [ 92.0458265, 26.6046312 ], [ 92.045789, 26.6091452 ], [ 92.0407298, 26.6136253 ], [ 92.0457141, 26.618173 ], [ 92.0557581, 26.61824 ], [ 92.0607432, 26.6227872 ], [ 92.0708242, 26.6183392 ], [ 92.0758463, 26.6183719 ], [ 92.0807961, 26.6274324 ], [ 92.0757373, 26.6319138 ], [ 92.075701, 26.6364277 ], [ 92.0806877, 26.6409742 ], [ 92.10078, 26.6411027 ], [ 92.110896, 26.6321379 ], [ 92.1159187, 26.6321692 ], [ 92.1259298, 26.6367453 ], [ 92.1258955, 26.6412593 ], [ 92.1559679, 26.6504695 ], [ 92.1709735, 26.6595863 ], [ 92.1810214, 26.6596445 ] ] ] } }
]
}
