{
"type": "FeatureCollection",
"name": "1828",
"crs": { "type": "name", "properties": { "name": "urn:ogc:def:crs:OGC:1.3:CRS84" } },
"features": [
{ "type": "Feature", "properties": { "code": "1828", "name": "Biswanath", "type": "district" }, "geometry": { "type": "Polygon", "coordinates": [ [ [ 93.7007009, 26.9911459 ], [ 93.698958, 26.9911016 ], [ 93.6992035, 26.98894 ], [ 93.7010272, 26.9894039 ], [ 93.7044053, 26.9866269 ], [ 93.7088371, 26.9854421 ], [ 93.7084831, 26.98352 ], [ 93.7109562, 26.9834915 ], [ 93.7110498, 26.9805222 ], [ 93.7141376, 26.9809129 ], [ 93.715597, 26.9792018 ], [ 93.7188015, 26.9806754 ], [ 93.718331, 26.9781351 ], [ 93.7215984, 26.9763821 ], [ 93.7211786, 26.9742299 ], [ 93.7239147, 26.96972 ], [ 93.7287403, 26.9707005 ], [ 93.7369211, 26.9673281 ], [ 93.738619, 26.9628819 ], [ 93.7441981, 26.9577642 ], [ 93.7435631, 26.9429935 ], [ 93.7419116, 26.9402248 ], [ 93.7459624, 26.9364919 ], [ 93.7488862, 26.9140382 ], [ 93.7417983, 26.9125015 ], [ 93.7422713, 26.9110207 ], [ 93.7392671, 26.9093845 ], [ 93.7425688, 26.9040164 ], [ 93.7392086, 26.900982 ], [ 93.7397467, 26.8986176 ], [ 93.7427132, 26.898043 ], [ 93.7460368, 26.8952597 ], [ 93.7490513, 26.8955857 ], [ 93.7529011, 26.8914512 ], [ 93.7581092, 26.8922455 ], [ 93.7612671, 26.8899918 ], [ 93.7751031, 26.8888881 ], [ 93.7778102, 26.8837863 ], [ 93.7804151, 26.8859767 ], [ 93.7804662, 26.8735264 ], [ 93.786652, 26.8655928 ], [ 93.7850029, 26.864062 ], [ 93.7876295, 26.8638967 ], [ 93.786036, 26.8620635 ], [ 93.7894834, 26.8609737 ], [ 93.7878714, 26.8572136 ], [ 93.7845651, 26.8580237 ], [ 93.7780271, 26.8550228 ], [ 93.7780153, 26.8513585 ], [ 93.7739056, 26.8505884 ], [ 93.7747533, 26.847931 ], [ 93.765762, 26.8427101 ], [ 93.7631992, 26.8399335 ], [ 93.7584395, 26.8306962 ], [ 93.7600977, 26.8219127 ], [ 93.7574397, 26.8172492 ], [ 93.755706, 26.8101349 ], [ 93.7509411, 26.8036725 ], [ 93.7437903, 26.8016552 ], [ 93.738234, 26.8043106 ], [ 93.7323272, 26.81116 ], [ 93.7123664, 26.8161078 ], [ 93.7082708, 26.8144991 ], [ 93.7049863, 26.8097015 ], [ 93.700695, 26.8074648 ], [ 93.6960658, 26.8018515 ], [ 93.6893343, 26.7975974 ], [ 93.6753047, 26.7974817 ], [ 93.670313, 26.8010016 ], [ 93.6590464, 26.792752 ], [ 93.6487181, 26.7882337 ], [ 93.6493671, 26.75065 ], [ 93.6628383, 26.7322888 ], [ 93.6705189, 26.7120875 ], [ 93.6672501, 26.7132951 ], [ 93.6620648, 26.7124308 ], [ 93.6509263, 26.7062196 ], [ 93.6244128, 26.7103601 ], [ 93.6123936, 26.7139976 ], [ 93.6009564, 26.715051 ], [ 93.5897036, 26.7192762 ], [ 93.5748642, 26.7193245 ], [ 93.5615995, 26.7241014 ], [ 93.5585625, 26.7264374 ], [ 93.5579308, 26.7315274 ], [ 93.5617299, 26.7319763 ], [ 93.5568163, 26.7368473 ], [ 93.5224915, 26.749999 ], [ 93.4459318, 26.7500005 ], [ 93.438875, 26.7483537 ], [ 93.3949044, 26.7500313 ], [ 93.3720682, 26.7458614 ], [ 93.3451663, 26.731701 ], [ 93.3407155, 26.7257972 ], [ 93.3364327, 26.7152181 ], [ 93.3308928, 26.7088263 ], [ 93.3213715, 26.7075997 ], [ 93.3166806, 26.7036852 ], [ 93.3104919, 26.7011146 ], [ 93.2906735, 26.6974663 ], [ 93.2847654, 26.6908603 ], [ 93.2857165, 26.6889655 ], [ 93.2738585, 26.68532 ], [ 93.2614823, 26.6831667 ], [ 93.2506667, 26.687318 ], [ 93.2416738, 26.6838617 ], [ 93.2330395, 26.668764 ], [ 93.2265429, 26.6605644 ], [ 93.2245777, 26.6407997 ], [ 93.2197843, 26.6310462 ], [ 93.167546, 26.6120438 ], [ 93.1630114, 26.6078706 ], [ 93.1602434, 26.6014676 ], [ 93.1548409, 26.5971769 ], [ 93.1242756, 26.5823363 ], [ 93.1098311, 26.5780073 ], [ 93.0985537, 26.5767914 ], [ 93.0949498, 26.5776796 ], [ 93.078843, 26.5909335 ], [ 93.0744835, 26.5961758 ], [ 93.0711143, 26.5979209 ], [ 93.055439, 26.5950209 ], [ 93.0335, 26.5981803 ], [ 93.0232104, 26.5969591 ], [ 93.0095497, 26.5986315 ], [ 92.9962026, 26.6040087 ], [ 92.9951869, 26.6064606 ], [ 92.9963056, 26.6105663 ], [ 92.9930755, 26.6136918 ], [ 92.9847319, 26.6144158 ], [ 92.9784293, 26.6182382 ], [ 92.954867, 26.6184015 ], [ 92.951198, 26.6204026 ], [ 92.9405077, 26.6185844 ], [ 92.9342027, 26.61515 ], [ 92.930671, 26.6202186 ], [ 92.9202699, 26.6440211 ], [ 92.9176824, 26.6577804 ], [ 92.9142649, 26.6656475 ], [ 92.9079522, 26.6741181 ], [ 92.9022365, 26.6869554 ], [ 92.8949445, 26.6960378 ], [ 92.8836246, 26.7021342 ], [ 92.8827767, 26.6990108 ], [ 92.8813792, 26.6982101 ], [ 92.8726298, 26.7025854 ], [ 92.8616936, 26.7136203 ], [ 92.8600841, 26.7176208 ], [ 92.8601923, 26.7254693 ], [ 92.8625865, 26.7324137 ], [ 92.8672125, 26.7367796 ], [ 92.8741128, 26.7472078 ], [ 92.8747072, 26.7617827 ], [ 92.8790124, 26.7621962 ], [ 92.8708906, 26.7754249 ], [ 92.8686534, 26.7858504 ], [ 92.8679644, 26.7903514 ], [ 92.8704404, 26.8040607 ], [ 92.8651237, 26.8258172 ], [ 92.8672664, 26.8348517 ], [ 92.8647514, 26.8390516 ], [ 92.8598716, 26.8404829 ], [ 92.858824, 26.8421791 ], [ 92.8671955, 26.8440035 ], [ 92.8677813, 26.8483351 ], [ 92.8611089, 26.8512018 ], [ 92.8655575, 26.8525755 ], [ 92.8694708, 26.8564405 ], [ 92.8733036, 26.8567052 ], [ 92.8742887, 26.8579124 ], [ 92.8739121, 26.8647705 ], [ 92.8796243, 26.8665552 ], [ 92.8865459, 26.8668233 ], [ 92.893473, 26.8727584 ], [ 92.8957947, 26.8764962 ], [ 92.8997235, 26.8748847 ], [ 92.9051683, 26.8803618 ], [ 92.9162234, 26.881705 ], [ 92.9192188, 26.8850005 ], [ 92.929709, 26.8899318 ], [ 92.9335233, 26.8900034 ], [ 92.9397838, 26.8936087 ], [ 92.9515358, 26.9059057 ], [ 92.9577516, 26.9090632 ], [ 92.9593919, 26.9145309 ], [ 92.9655983, 26.9196854 ], [ 92.9687988, 26.9242512 ], [ 92.9720355, 26.9270748 ], [ 92.9781937, 26.9296567 ], [ 92.983036, 26.9354215 ], [ 93.0218561, 26.9134166 ], [ 93.0627154, 26.9222714 ], [ 93.0882259, 26.9143923 ], [ 93.1073728, 26.9257586 ], [ 93.1725563, 26.935995 ], [ 93.2009521, 26.9432162 ], [ 93.2468242, 26.9512459 ], [ 93.3241019, 26.9600792 ], [ 93.3804922, 26.9592205 ], [ 93.4487706, 26.9507818 ], [ 93.4624901, 26.9378804 ], [ 93.4706478, 26.9365972 ], [ 93.4747297, 26.9393241 ], [ 93.486259, 26.9422774 ], [ 93.4891022, 26.9361768 ], [ 93.507278, 26.943942 ], [ 93.524771, 26.9485267 ], [ 93.5410095, 26.9489749 ], [ 93.5449355, 26.951229 ], [ 93.549151, 26.9500083 ], [ 93.5596633, 26.9527121 ], [ 93.5866695, 26.9504701 ], [ 93.6147259, 26.9603032 ], [ 93.6274566, 26.9631555 ], [ 93.660121, 26.9669551 ], [ 93.6672884, 26.9694621 ], [ 93.675671, 26.9745856 ], [ 93.6936701, 26.9889955 ], [ 93.6977834, 26.9942031 ], [ 93.7007009, 26.9911459 ] ] ] } }
]
}
