{
"type": "FeatureCollection",
"name": "1902",
"crs": { "type": "name", "properties": { "name": "urn:ogc:def:crs:OGC:1.3:CRS84" } },
"features": [
{ "type": "Feature", "properties": { "code": "1902", "name": "Jalpaiguri", "type": "district" }, "geometry": { "type": "Polygon", "coordinates": [ [ [ 88.9536058, 26.9473332 ], [ 88.9472613, 26.9412538 ], [ 88.9491396, 26.9378833 ], [ 88.9439238, 26.9341473 ], [ 88.9803462, 26.9171859 ], [ 88.9921628, 26.9221015 ], [ 89.0214867, 26.9406302 ], [ 89.0299865, 26.9231219 ], [ 89.0407641, 26.9229504 ], [ 89.050896, 26.91597 ], [ 89.0488585, 26.8991145 ], [ 89.0694465, 26.9036881 ], [ 89.0796284, 26.8970058 ], [ 89.0956988, 26.8916732 ], [ 89.0926872, 26.872446 ], [ 89.106249, 26.8603525 ], [ 89.1041345, 26.8568411 ], [ 89.0979025, 26.8334364 ], [ 89.0920621, 26.8307046 ], [ 89.0926829, 26.819401 ], [ 89.0999401, 26.8177819 ], [ 89.0981733, 26.8136185 ], [ 89.0986442, 26.8097673 ], [ 89.0981682, 26.8073821 ], [ 89.0917545, 26.7993351 ], [ 89.0921896, 26.790187 ], [ 89.0905694, 26.7860133 ], [ 89.0808967, 26.7758098 ], [ 89.0784922, 26.7668777 ], [ 89.0744208, 26.7603654 ], [ 89.0792705, 26.7500478 ], [ 89.0816389, 26.7481668 ], [ 89.0781596, 26.7456781 ], [ 89.0753067, 26.7413421 ], [ 89.076715, 26.7413449 ], [ 89.0784066, 26.7319975 ], [ 89.0799953, 26.732464 ], [ 89.0804735, 26.7298727 ], [ 89.082141, 26.7291147 ], [ 89.0799484, 26.727542 ], [ 89.0794165, 26.7292576 ], [ 89.0770482, 26.7287655 ], [ 89.0757464, 26.7304328 ], [ 89.0746217, 26.7232204 ], [ 89.0704914, 26.7171961 ], [ 89.0705643, 26.7073373 ], [ 89.0689752, 26.7046579 ], [ 89.0690133, 26.6990986 ], [ 89.0651605, 26.6925211 ], [ 89.0669938, 26.6912788 ], [ 89.0639276, 26.6891931 ], [ 89.0654093, 26.6852937 ], [ 89.0618805, 26.6815722 ], [ 89.0617765, 26.675323 ], [ 89.0641831, 26.67143 ], [ 89.0585142, 26.6618585 ], [ 89.0544979, 26.6591205 ], [ 89.0539817, 26.6560309 ], [ 89.0527176, 26.6557558 ], [ 89.0496444, 26.648436 ], [ 89.0479272, 26.6480559 ], [ 89.0486128, 26.6444877 ], [ 89.046344, 26.6425944 ], [ 89.0471584, 26.6399149 ], [ 89.0451144, 26.6384128 ], [ 89.0449859, 26.6364629 ], [ 89.0487818, 26.6307084 ], [ 89.050148, 26.6257622 ], [ 89.0474237, 26.6245634 ], [ 89.0475858, 26.6236318 ], [ 89.0493985, 26.6229635 ], [ 89.0521549, 26.6243609 ], [ 89.0536139, 26.6213197 ], [ 89.0496919, 26.6193666 ], [ 89.0526114, 26.6161655 ], [ 89.0535816, 26.6118952 ], [ 89.0499924, 26.6095015 ], [ 89.0554883, 26.609483 ], [ 89.0604121, 26.6116677 ], [ 89.0616181, 26.6047221 ], [ 89.0643737, 26.6039335 ], [ 89.0670985, 26.5972067 ], [ 89.07208, 26.5980989 ], [ 89.074606, 26.5958894 ], [ 89.0725696, 26.5930328 ], [ 89.0747363, 26.5932059 ], [ 89.0786596, 26.5974614 ], [ 89.0803079, 26.5964733 ], [ 89.0807618, 26.5924507 ], [ 89.0829008, 26.5923529 ], [ 89.0854575, 26.5965465 ], [ 89.0870778, 26.5957888 ], [ 89.086623, 26.5923558 ], [ 89.0879878, 26.5916813 ], [ 89.091642, 26.596634 ], [ 89.0938164, 26.594481 ], [ 89.0940431, 26.5919459 ], [ 89.1000966, 26.5914966 ], [ 89.10259, 26.5932473 ], [ 89.1051251, 26.5920532 ], [ 89.1052833, 26.5902456 ], [ 89.1026934, 26.5883828 ], [ 89.1030797, 26.5852321 ], [ 89.1072916, 26.5916974 ], [ 89.1094305, 26.5910889 ], [ 89.1048937, 26.5822238 ], [ 89.1052855, 26.5765532 ], [ 89.1015581, 26.5754445 ], [ 89.1031508, 26.5734359 ], [ 89.1025315, 26.5712054 ], [ 89.103956, 26.5684395 ], [ 89.0994554, 26.5683529 ], [ 89.0988371, 26.5662217 ], [ 89.1017875, 26.5618271 ], [ 89.1041826, 26.5617993 ], [ 89.1071954, 26.564345 ], [ 89.1111105, 26.5605568 ], [ 89.1106906, 26.5586951 ], [ 89.1056078, 26.5580849 ], [ 89.10415, 26.5563758 ], [ 89.1052523, 26.5535492 ], [ 89.1083269, 26.552676 ], [ 89.1131194, 26.5477698 ], [ 89.1124414, 26.5452011 ], [ 89.114419, 26.5420559 ], [ 89.1095295, 26.5411237 ], [ 89.1092048, 26.5371883 ], [ 89.1153231, 26.5344258 ], [ 89.1168432, 26.5358497 ], [ 89.1168795, 26.5400447 ], [ 89.1182031, 26.5403684 ], [ 89.1193071, 26.5377583 ], [ 89.1187873, 26.5334182 ], [ 89.1227368, 26.531219 ], [ 89.1239038, 26.5289201 ], [ 89.1212507, 26.5256266 ], [ 89.1213813, 26.5241127 ], [ 89.1262829, 26.5212689 ], [ 89.1148545, 26.5225028 ], [ 89.1087316, 26.5200992 ], [ 89.1075479, 26.5212195 ], [ 89.1029627, 26.5210163 ], [ 89.1026699, 26.5229198 ], [ 89.1021856, 26.5216411 ], [ 89.0976799, 26.5223944 ], [ 89.0947419, 26.5206923 ], [ 89.095404, 26.5227283 ], [ 89.0939329, 26.5221753 ], [ 89.0936216, 26.5237313 ], [ 89.0917133, 26.5241932 ], [ 89.0920023, 26.5265708 ], [ 89.0871763, 26.524829 ], [ 89.086269, 26.5265431 ], [ 89.0848117, 26.5258769 ], [ 89.0852404, 26.5308051 ], [ 89.0821226, 26.5307885 ], [ 89.081619, 26.5322149 ], [ 89.0793039, 26.5316006 ], [ 89.079722, 26.534921 ], [ 89.0759729, 26.5350628 ], [ 89.0758415, 26.5365585 ], [ 89.0739808, 26.5357012 ], [ 89.0740417, 26.5366503 ], [ 89.0623956, 26.5375597 ], [ 89.06141, 26.5341666 ], [ 89.048847, 26.5339947 ], [ 89.051962, 26.5304445 ], [ 89.0504572, 26.5273397 ], [ 89.0350854, 26.5168823 ], [ 89.0273974, 26.5182484 ], [ 89.0217403, 26.5227288 ], [ 89.0123107, 26.526446 ], [ 89.0103556, 26.5284517 ], [ 89.0021191, 26.5309178 ], [ 89.0014438, 26.5323452 ], [ 88.9856246, 26.5354447 ], [ 88.9692225, 26.5464946 ], [ 88.9675706, 26.5387111 ], [ 88.9705598, 26.5312901 ], [ 88.9671833, 26.5248074 ], [ 88.9621718, 26.5249414 ], [ 88.9569877, 26.515138 ], [ 88.9567093, 26.5116181 ], [ 88.9548578, 26.510667 ], [ 88.9548157, 26.5076524 ], [ 88.9526876, 26.505862 ], [ 88.9418886, 26.5058538 ], [ 88.9400118, 26.5042571 ], [ 88.9402324, 26.500471 ], [ 88.9431385, 26.4989089 ], [ 88.9434085, 26.4973337 ], [ 88.9396554, 26.4853358 ], [ 88.9464295, 26.4753547 ], [ 88.9403753, 26.4724468 ], [ 88.936992, 26.4655075 ], [ 88.9275606, 26.4656692 ], [ 88.9258919, 26.4679396 ], [ 88.9263142, 26.4706833 ], [ 88.9142099, 26.4712377 ], [ 88.9078734, 26.4770067 ], [ 88.9040418, 26.4756627 ], [ 88.903575, 26.4732754 ], [ 88.9056659, 26.4727696 ], [ 88.9057062, 26.4713985 ], [ 88.9020686, 26.4726695 ], [ 88.8992872, 26.470635 ], [ 88.8992972, 26.4678909 ], [ 88.903277, 26.4656535 ], [ 88.9056655, 26.4663618 ], [ 88.9073097, 26.4696178 ], [ 88.9101778, 26.4694245 ], [ 88.9103119, 26.4651102 ], [ 88.912528, 26.4646087 ], [ 88.9126876, 26.4617159 ], [ 88.9169842, 26.4611778 ], [ 88.9170992, 26.4599141 ], [ 88.9139454, 26.4597706 ], [ 88.9159155, 26.4589261 ], [ 88.9133077, 26.4568193 ], [ 88.9144143, 26.4525905 ], [ 88.9125138, 26.4514537 ], [ 88.9084431, 26.4520774 ], [ 88.9027501, 26.4405302 ], [ 88.9006246, 26.4402869 ], [ 88.8988195, 26.4382158 ], [ 88.8872848, 26.4381945 ], [ 88.8897355, 26.4328375 ], [ 88.8872286, 26.4315859 ], [ 88.8882464, 26.4297373 ], [ 88.8871684, 26.4263933 ], [ 88.8836647, 26.4255587 ], [ 88.8849271, 26.4164561 ], [ 88.8831579, 26.4153325 ], [ 88.8816288, 26.408473 ], [ 88.8796844, 26.4071011 ], [ 88.8797494, 26.4044655 ], [ 88.8698471, 26.3993568 ], [ 88.8684192, 26.3943745 ], [ 88.8653227, 26.3923029 ], [ 88.86188, 26.3937107 ], [ 88.8592142, 26.3929747 ], [ 88.8549648, 26.3940392 ], [ 88.8525151, 26.390266 ], [ 88.8531472, 26.3864166 ], [ 88.8504918, 26.3850578 ], [ 88.8439432, 26.3845195 ], [ 88.839483, 26.3868469 ], [ 88.8356068, 26.3809702 ], [ 88.8335028, 26.3800715 ], [ 88.8198607, 26.3774357 ], [ 88.811869, 26.3783484 ], [ 88.8098753, 26.3775396 ], [ 88.8074092, 26.3793437 ], [ 88.8034731, 26.3759209 ], [ 88.8005423, 26.3755179 ], [ 88.7987736, 26.3757966 ], [ 88.7915026, 26.384349 ], [ 88.7892501, 26.3880257 ], [ 88.7894972, 26.3925253 ], [ 88.7860745, 26.3929066 ], [ 88.7839609, 26.3979147 ], [ 88.7751305, 26.3986849 ], [ 88.7739658, 26.3954483 ], [ 88.7696921, 26.3947186 ], [ 88.7693734, 26.3925161 ], [ 88.757374, 26.3760888 ], [ 88.7561796, 26.3684112 ], [ 88.7536964, 26.36664 ], [ 88.7534538, 26.3639773 ], [ 88.749229, 26.3608641 ], [ 88.7480029, 26.3552129 ], [ 88.750807, 26.3469116 ], [ 88.7547381, 26.3430022 ], [ 88.7541577, 26.3377938 ], [ 88.7597847, 26.3352983 ], [ 88.7613196, 26.3328626 ], [ 88.759117, 26.3269533 ], [ 88.7569257, 26.3247086 ], [ 88.7565637, 26.3212604 ], [ 88.7579041, 26.3130976 ], [ 88.7566403, 26.3106712 ], [ 88.7601723, 26.3031303 ], [ 88.7585788, 26.2947592 ], [ 88.7475209, 26.295505 ], [ 88.749016, 26.3005219 ], [ 88.7473177, 26.301049 ], [ 88.7466664, 26.2996629 ], [ 88.7425954, 26.2992528 ], [ 88.7411142, 26.2953383 ], [ 88.7379047, 26.292431 ], [ 88.7369732, 26.2936135 ], [ 88.7305439, 26.2946443 ], [ 88.7296235, 26.2939753 ], [ 88.7305361, 26.2912678 ], [ 88.7296021, 26.2926811 ], [ 88.727187, 26.2929824 ], [ 88.7211549, 26.2832752 ], [ 88.717111, 26.2810823 ], [ 88.716294, 26.2822388 ], [ 88.7132517, 26.2815906 ], [ 88.7124669, 26.282649 ], [ 88.7140299, 26.2857125 ], [ 88.7095736, 26.286623 ], [ 88.7065595, 26.2848197 ], [ 88.7038296, 26.2855318 ], [ 88.7013804, 26.2845402 ], [ 88.7015976, 26.283221 ], [ 88.6997382, 26.2841657 ], [ 88.6985543, 26.2804139 ], [ 88.6958941, 26.279187 ], [ 88.6961871, 26.2772823 ], [ 88.6915961, 26.2763584 ], [ 88.6891786, 26.2790456 ], [ 88.6884004, 26.2773665 ], [ 88.6860713, 26.2767546 ], [ 88.6858465, 26.2744726 ], [ 88.6874494, 26.2726557 ], [ 88.6898811, 26.2738275 ], [ 88.6917832, 26.2724865 ], [ 88.6923598, 26.2690398 ], [ 88.6901085, 26.2685292 ], [ 88.6894466, 26.2666747 ], [ 88.6860241, 26.2675704 ], [ 88.6846232, 26.2656675 ], [ 88.6861164, 26.2629475 ], [ 88.6798115, 26.2589727 ], [ 88.6778708, 26.264538 ], [ 88.6662267, 26.2626568 ], [ 88.6674953, 26.2665012 ], [ 88.6718684, 26.2668412 ], [ 88.6722452, 26.2684895 ], [ 88.6721128, 26.2722644 ], [ 88.6676315, 26.2719478 ], [ 88.6669159, 26.2732377 ], [ 88.6673824, 26.2780795 ], [ 88.6696442, 26.280758 ], [ 88.6656518, 26.284862 ], [ 88.6661805, 26.2892501 ], [ 88.6696658, 26.2895512 ], [ 88.6682711, 26.2920327 ], [ 88.6682671, 26.2943235 ], [ 88.6692773, 26.2945024 ], [ 88.6680447, 26.2971729 ], [ 88.6786735, 26.2988271 ], [ 88.6801003, 26.3018252 ], [ 88.6780949, 26.3069757 ], [ 88.6830925, 26.308453 ], [ 88.6825615, 26.312509 ], [ 88.6808053, 26.31154 ], [ 88.6790706, 26.3146571 ], [ 88.6779606, 26.3145213 ], [ 88.6771017, 26.3116582 ], [ 88.675296, 26.311366 ], [ 88.6759394, 26.3133713 ], [ 88.6745933, 26.3142229 ], [ 88.6758744, 26.3143522 ], [ 88.6761887, 26.3164194 ], [ 88.6751306, 26.320072 ], [ 88.6782664, 26.3201534 ], [ 88.6798763, 26.3222729 ], [ 88.6897448, 26.3230038 ], [ 88.6910009, 26.3288807 ], [ 88.6957331, 26.3287261 ], [ 88.6967895, 26.3257496 ], [ 88.6926358, 26.3256086 ], [ 88.6898661, 26.3232441 ], [ 88.6924476, 26.3211266 ], [ 88.6909249, 26.3184 ], [ 88.6935327, 26.3140317 ], [ 88.6964744, 26.3143121 ], [ 88.6962124, 26.3125244 ], [ 88.6972666, 26.3121179 ], [ 88.698945, 26.3128876 ], [ 88.6989934, 26.3144194 ], [ 88.7063549, 26.3146877 ], [ 88.7062674, 26.3155925 ], [ 88.7082271, 26.3153044 ], [ 88.708102, 26.3162788 ], [ 88.7151523, 26.3179037 ], [ 88.7191204, 26.3156794 ], [ 88.7188238, 26.312115 ], [ 88.7207801, 26.3143164 ], [ 88.7258453, 26.3153766 ], [ 88.7263154, 26.3175148 ], [ 88.7312364, 26.3183511 ], [ 88.7306487, 26.3236208 ], [ 88.7465083, 26.3223855 ], [ 88.7487423, 26.3319274 ], [ 88.7457323, 26.3324305 ], [ 88.7411169, 26.3296597 ], [ 88.7338667, 26.3286553 ], [ 88.7362611, 26.334021 ], [ 88.7392886, 26.3367236 ], [ 88.7433058, 26.3373225 ], [ 88.7442484, 26.3408316 ], [ 88.742585, 26.3440977 ], [ 88.744821, 26.3438041 ], [ 88.7457768, 26.3470636 ], [ 88.7439747, 26.3487215 ], [ 88.7363196, 26.3495905 ], [ 88.7360191, 26.3519815 ], [ 88.737568, 26.3531402 ], [ 88.7332623, 26.3538317 ], [ 88.7329678, 26.3503385 ], [ 88.7349111, 26.3499496 ], [ 88.7359172, 26.3479672 ], [ 88.7296341, 26.3479652 ], [ 88.7293544, 26.344633 ], [ 88.7269088, 26.3445627 ], [ 88.7261503, 26.3412675 ], [ 88.7243173, 26.3411048 ], [ 88.72323, 26.343135 ], [ 88.712847, 26.3436521 ], [ 88.712924, 26.3411197 ], [ 88.7117675, 26.340434 ], [ 88.7127217, 26.3384205 ], [ 88.7105045, 26.3368676 ], [ 88.7101536, 26.3346781 ], [ 88.7046798, 26.3325208 ], [ 88.7027639, 26.3343945 ], [ 88.7020566, 26.3363657 ], [ 88.7032312, 26.3376427 ], [ 88.7016354, 26.3387827 ], [ 88.7040602, 26.339841 ], [ 88.7040231, 26.3418715 ], [ 88.6985863, 26.3411207 ], [ 88.6980303, 26.3436799 ], [ 88.6951004, 26.3441335 ], [ 88.6941049, 26.3467287 ], [ 88.6966679, 26.346894 ], [ 88.6984979, 26.3571581 ], [ 88.6945754, 26.3563496 ], [ 88.6925923, 26.3577005 ], [ 88.6914733, 26.3611789 ], [ 88.6953004, 26.3608178 ], [ 88.6957657, 26.3619064 ], [ 88.6949359, 26.3634365 ], [ 88.6906456, 26.3633089 ], [ 88.6890241, 26.364943 ], [ 88.6874595, 26.3718125 ], [ 88.6853373, 26.3746437 ], [ 88.6866112, 26.3788101 ], [ 88.681303, 26.377896 ], [ 88.681012, 26.3794079 ], [ 88.6826583, 26.3804771 ], [ 88.6821235, 26.3822002 ], [ 88.6851125, 26.3824114 ], [ 88.684935, 26.3833386 ], [ 88.6895189, 26.3829951 ], [ 88.6917013, 26.3846344 ], [ 88.7021634, 26.3857535 ], [ 88.7022702, 26.3884436 ], [ 88.6978087, 26.3899727 ], [ 88.6978578, 26.388853 ], [ 88.6945974, 26.3885449 ], [ 88.6923964, 26.3864123 ], [ 88.688262, 26.3866791 ], [ 88.6867534, 26.3883145 ], [ 88.6880501, 26.3896198 ], [ 88.6877779, 26.3915457 ], [ 88.6863236, 26.3901865 ], [ 88.6856522, 26.391074 ], [ 88.6896999, 26.3949114 ], [ 88.6891721, 26.3956834 ], [ 88.686635, 26.3956755 ], [ 88.6857562, 26.3939147 ], [ 88.6781467, 26.393417 ], [ 88.6781224, 26.3955795 ], [ 88.6723285, 26.395702 ], [ 88.6719789, 26.3974474 ], [ 88.6699705, 26.3976141 ], [ 88.6736695, 26.4018106 ], [ 88.6738022, 26.4008914 ], [ 88.6795361, 26.4018789 ], [ 88.6791734, 26.4004594 ], [ 88.6816307, 26.4020583 ], [ 88.6874257, 26.4009853 ], [ 88.6856601, 26.4054323 ], [ 88.6867548, 26.4060287 ], [ 88.6797228, 26.4063394 ], [ 88.6790388, 26.4043722 ], [ 88.6786196, 26.4079261 ], [ 88.6678068, 26.4071853 ], [ 88.6677007, 26.4095499 ], [ 88.6628181, 26.409863 ], [ 88.6604481, 26.4163165 ], [ 88.6553033, 26.41673 ], [ 88.6544003, 26.4156477 ], [ 88.6505666, 26.4155175 ], [ 88.6503694, 26.4174369 ], [ 88.6468435, 26.4169483 ], [ 88.6468069, 26.4180979 ], [ 88.6444594, 26.4187456 ], [ 88.6510641, 26.4216605 ], [ 88.6516999, 26.4253373 ], [ 88.6497966, 26.4295878 ], [ 88.6446836, 26.4286943 ], [ 88.6429161, 26.4299639 ], [ 88.6383596, 26.4295289 ], [ 88.6360364, 26.4301207 ], [ 88.6351502, 26.4319782 ], [ 88.6308199, 26.4314029 ], [ 88.6304506, 26.4346688 ], [ 88.6281196, 26.4345809 ], [ 88.6277668, 26.4334736 ], [ 88.6237602, 26.4350123 ], [ 88.6231751, 26.4383187 ], [ 88.6283011, 26.4410418 ], [ 88.6268369, 26.4508511 ], [ 88.6256345, 26.4508013 ], [ 88.6243853, 26.4539359 ], [ 88.6228897, 26.4710645 ], [ 88.5947536, 26.4706372 ], [ 88.5962613, 26.4694232 ], [ 88.5951194, 26.4530645 ], [ 88.5931297, 26.4522078 ], [ 88.5929522, 26.4498141 ], [ 88.5903415, 26.4496433 ], [ 88.5918438, 26.450726 ], [ 88.5895189, 26.4513454 ], [ 88.5843508, 26.4502821 ], [ 88.5850051, 26.4533173 ], [ 88.5826432, 26.455606 ], [ 88.5784749, 26.4566284 ], [ 88.5595336, 26.4574867 ], [ 88.5583995, 26.4596794 ], [ 88.5627662, 26.4589743 ], [ 88.5626308, 26.4608271 ], [ 88.5594887, 26.4618415 ], [ 88.5598951, 26.464482 ], [ 88.5627531, 26.4665525 ], [ 88.5613862, 26.4676146 ], [ 88.5581037, 26.4667659 ], [ 88.5576377, 26.4706915 ], [ 88.5599265, 26.4733326 ], [ 88.5567335, 26.4715164 ], [ 88.5544893, 26.4718143 ], [ 88.5539118, 26.4728528 ], [ 88.5561749, 26.4727059 ], [ 88.5568038, 26.4752461 ], [ 88.5526206, 26.4753229 ], [ 88.5527285, 26.4772407 ], [ 88.5553031, 26.4788164 ], [ 88.5546122, 26.4811184 ], [ 88.5564897, 26.4825642 ], [ 88.556764, 26.4847992 ], [ 88.5264817, 26.4813789 ], [ 88.5276818, 26.484468 ], [ 88.5241983, 26.484768 ], [ 88.524147, 26.4856421 ], [ 88.5279487, 26.4864783 ], [ 88.5274883, 26.487457 ], [ 88.5228696, 26.4867077 ], [ 88.5247709, 26.4917073 ], [ 88.5232904, 26.496113 ], [ 88.5213968, 26.4981103 ], [ 88.5195265, 26.4982499 ], [ 88.5199707, 26.5005791 ], [ 88.5187971, 26.5013829 ], [ 88.522927, 26.5054009 ], [ 88.5213934, 26.5105072 ], [ 88.5106806, 26.5107411 ], [ 88.5072682, 26.5164033 ], [ 88.5002214, 26.5156461 ], [ 88.4993555, 26.5122735 ], [ 88.4924743, 26.5118761 ], [ 88.4898715, 26.5105741 ], [ 88.4906075, 26.5148509 ], [ 88.4887167, 26.5179076 ], [ 88.4900521, 26.5250743 ], [ 88.489005, 26.5262098 ], [ 88.4853385, 26.5260872 ], [ 88.4859819, 26.5271462 ], [ 88.4894998, 26.5270366 ], [ 88.4886134, 26.5291481 ], [ 88.4896533, 26.5319552 ], [ 88.4883747, 26.5325525 ], [ 88.4829668, 26.5302617 ], [ 88.482025, 26.5313399 ], [ 88.4823455, 26.536166 ], [ 88.4846795, 26.5382883 ], [ 88.4850097, 26.5406853 ], [ 88.478079, 26.5419343 ], [ 88.4759058, 26.5444688 ], [ 88.4625586, 26.5437623 ], [ 88.4618403, 26.5468735 ], [ 88.4588879, 26.5471179 ], [ 88.4574491, 26.5417456 ], [ 88.4584288, 26.5402322 ], [ 88.4551841, 26.5389755 ], [ 88.4564835, 26.5368933 ], [ 88.4482651, 26.5352872 ], [ 88.4433777, 26.539276 ], [ 88.4430794, 26.5439537 ], [ 88.4371565, 26.5440721 ], [ 88.4321642, 26.5485536 ], [ 88.4211702, 26.571017 ], [ 88.4225915, 26.5827708 ], [ 88.4216018, 26.5828173 ], [ 88.4217329, 26.5852228 ], [ 88.4192412, 26.5904928 ], [ 88.4199192, 26.5981454 ], [ 88.4168136, 26.613211 ], [ 88.4179223, 26.6215662 ], [ 88.4144537, 26.6226213 ], [ 88.4160004, 26.6316289 ], [ 88.4148442, 26.6318932 ], [ 88.4151882, 26.6331734 ], [ 88.4091347, 26.6349307 ], [ 88.4064597, 26.6401165 ], [ 88.3998968, 26.6424418 ], [ 88.4008333, 26.6540033 ], [ 88.3985792, 26.6586111 ], [ 88.4004187, 26.6647482 ], [ 88.4004203, 26.6724243 ], [ 88.3914196, 26.6764419 ], [ 88.3898324, 26.6785902 ], [ 88.391807, 26.6816 ], [ 88.3980216, 26.6843203 ], [ 88.4016506, 26.6930834 ], [ 88.4083386, 26.6971661 ], [ 88.4097763, 26.6995033 ], [ 88.4143385, 26.6999986 ], [ 88.4149956, 26.6966544 ], [ 88.4285104, 26.6965554 ], [ 88.431418, 26.6934179 ], [ 88.4376474, 26.692743 ], [ 88.4379846, 26.6940109 ], [ 88.4433107, 26.695051 ], [ 88.4492401, 26.7044209 ], [ 88.4439034, 26.711838 ], [ 88.4426046, 26.7163332 ], [ 88.4384986, 26.715261 ], [ 88.4363588, 26.7169406 ], [ 88.4335584, 26.7239455 ], [ 88.4353385, 26.7261199 ], [ 88.4293685, 26.7267541 ], [ 88.4250348, 26.7225949 ], [ 88.4215792, 26.7270817 ], [ 88.4253313, 26.7342511 ], [ 88.4227945, 26.7374153 ], [ 88.4228131, 26.745845 ], [ 88.427423, 26.7478877 ], [ 88.4244234, 26.7504475 ], [ 88.4229724, 26.7544991 ], [ 88.4242193, 26.7552163 ], [ 88.4260936, 26.7537986 ], [ 88.4273861, 26.7550166 ], [ 88.4260759, 26.7592906 ], [ 88.4284729, 26.7575027 ], [ 88.4304666, 26.7532465 ], [ 88.4325889, 26.7554252 ], [ 88.4316001, 26.7583905 ], [ 88.435712, 26.7582444 ], [ 88.4340821, 26.765691 ], [ 88.4352296, 26.7682492 ], [ 88.4375225, 26.7691237 ], [ 88.4355874, 26.7701218 ], [ 88.437589, 26.7712988 ], [ 88.4363086, 26.7742913 ], [ 88.4378526, 26.7752607 ], [ 88.4349932, 26.7778974 ], [ 88.4319914, 26.7774338 ], [ 88.4316098, 26.7784177 ], [ 88.433828, 26.7801767 ], [ 88.434423, 26.7836828 ], [ 88.4402497, 26.78234 ], [ 88.4399488, 26.7837798 ], [ 88.4421418, 26.7852814 ], [ 88.4386839, 26.7877425 ], [ 88.4423507, 26.7899113 ], [ 88.4387364, 26.7917451 ], [ 88.4375919, 26.7954866 ], [ 88.4314721, 26.7951868 ], [ 88.4312418, 26.7971905 ], [ 88.429804, 26.7980304 ], [ 88.4305538, 26.7993343 ], [ 88.4294987, 26.8012526 ], [ 88.4345027, 26.8019997 ], [ 88.4348442, 26.8036373 ], [ 88.4338021, 26.8085749 ], [ 88.42878, 26.8129586 ], [ 88.4348237, 26.8099147 ], [ 88.4358198, 26.8107401 ], [ 88.4334534, 26.8152943 ], [ 88.4299796, 26.8184275 ], [ 88.4300156, 26.8202235 ], [ 88.4339389, 26.8206777 ], [ 88.4358107, 26.8223105 ], [ 88.4355051, 26.8245263 ], [ 88.4372826, 26.8281809 ], [ 88.4412739, 26.8326692 ], [ 88.4411758, 26.8371638 ], [ 88.4443752, 26.8372344 ], [ 88.4496791, 26.8402101 ], [ 88.4546243, 26.8405279 ], [ 88.4706574, 26.847621 ], [ 88.4746171, 26.8481236 ], [ 88.4847498, 26.8540729 ], [ 88.490026, 26.852715 ], [ 88.4930768, 26.8498199 ], [ 88.496875, 26.8495956 ], [ 88.499508, 26.8463707 ], [ 88.4997037, 26.8423141 ], [ 88.5020298, 26.8404434 ], [ 88.5124697, 26.8388141 ], [ 88.5079181, 26.8476731 ], [ 88.5059395, 26.8490343 ], [ 88.502378, 26.8486702 ], [ 88.4930268, 26.8549147 ], [ 88.4798124, 26.8686252 ], [ 88.4796925, 26.8751596 ], [ 88.4776563, 26.8770834 ], [ 88.4753266, 26.8772205 ], [ 88.4756508, 26.8798285 ], [ 88.4960847, 26.8730663 ], [ 88.5098267, 26.8654995 ], [ 88.5426255, 26.8752068 ], [ 88.5426543, 26.8771652 ], [ 88.5458674, 26.8806418 ], [ 88.5556805, 26.8802995 ], [ 88.5607871, 26.8823237 ], [ 88.5732477, 26.8919904 ], [ 88.5887853, 26.887573 ], [ 88.5923935, 26.8879485 ], [ 88.5960782, 26.8849078 ], [ 88.6080509, 26.8817014 ], [ 88.6069933, 26.8862454 ], [ 88.6079588, 26.8915434 ], [ 88.612458, 26.8919364 ], [ 88.6153311, 26.8974827 ], [ 88.6192668, 26.8996129 ], [ 88.6202331, 26.9022663 ], [ 88.6192, 26.9032092 ], [ 88.6211238, 26.9055786 ], [ 88.6361586, 26.9066659 ], [ 88.638964, 26.9228974 ], [ 88.6373085, 26.9301627 ], [ 88.6390106, 26.9343187 ], [ 88.647863, 26.9423003 ], [ 88.6500247, 26.9501293 ], [ 88.6566542, 26.9614139 ], [ 88.6567354, 26.9635302 ], [ 88.6554363, 26.9644376 ], [ 88.657376, 26.9674154 ], [ 88.6603579, 26.968773 ], [ 88.6625618, 26.9628881 ], [ 88.6730203, 26.9479711 ], [ 88.6645109, 26.9335875 ], [ 88.6636278, 26.9275003 ], [ 88.7593506, 26.9258755 ], [ 88.7564762, 26.9636657 ], [ 88.7614517, 26.9687329 ], [ 88.7691121, 26.9683644 ], [ 88.775331, 26.974813 ], [ 88.7820595, 26.9750929 ], [ 88.7845012, 26.9763715 ], [ 88.7928711, 26.9910244 ], [ 88.8029509, 26.990511 ], [ 88.8113167, 26.9918915 ], [ 88.8190456, 26.9884292 ], [ 88.8216999, 26.98871 ], [ 88.8240795, 26.9843699 ], [ 88.8310504, 26.9845437 ], [ 88.838628, 26.9780435 ], [ 88.841549, 26.9788384 ], [ 88.8443353, 26.9752967 ], [ 88.8480777, 26.974386 ], [ 88.8520524, 26.9694726 ], [ 88.8528842, 26.9656099 ], [ 88.8725341, 26.9641747 ], [ 88.8711051, 26.9625242 ], [ 88.8717404, 26.9592113 ], [ 88.8741529, 26.9576029 ], [ 88.874886, 26.9486674 ], [ 88.8771473, 26.9443468 ], [ 88.8835235, 26.9481337 ], [ 88.8850151, 26.9563127 ], [ 88.8916221, 26.9628099 ], [ 88.8968766, 26.9657698 ], [ 88.8978108, 26.9689467 ], [ 88.9086528, 26.9794589 ], [ 88.9116853, 26.9867066 ], [ 88.9216838, 26.9939272 ], [ 88.9524753, 26.9684069 ], [ 88.9545887, 26.9539005 ], [ 88.9536058, 26.9473332 ] ] ] } }
]
}
