{
"type": "FeatureCollection",
"name": "1903",
"crs": { "type": "name", "properties": { "name": "urn:ogc:def:crs:OGC:1.3:CRS84" } },
"features": [
{ "type": "Feature", "properties": { "code": "1903", "name": "Coochbehar", "type": "district" }, "geometry": { "type": "MultiPolygon", "coordinates": [ [ [ [ 89.8161323, 26.3427283 ], [ 89.8193669, 26.3368311 ], [ 89.819675, 26.3330219 ], [ 89.823026, 26.3297844 ], [ 89.8231213, 26.3279374 ], [ 89.8202391, 26.3232482 ], [ 89.8174147, 26.3209353 ], [ 89.8111389, 26.3237067 ], [ 89.8028315, 26.3296486 ], [ 89.7998344, 26.3297253 ], [ 89.796123, 26.3329919 ], [ 89.7980573, 26.337849 ], [ 89.7934108, 26.3413865 ], [ 89.7897213, 26.3418328 ], [ 89.7940804, 26.3438321 ], [ 89.7955856, 26.3493699 ], [ 89.8000068, 26.3506053 ], [ 89.8067406, 26.349102 ], [ 89.8161323, 26.3427283 ] ] ], [ [ [ 89.6555788, 26.4408306 ], [ 89.658175, 26.4410576 ], [ 89.6583519, 26.4406843 ], [ 89.6573387, 26.4391196 ], [ 89.6549319, 26.4399403 ], [ 89.6546454, 26.4418722 ], [ 89.6555788, 26.4408306 ] ] ], [ [ [ 88.9856246, 26.5354447 ], [ 89.0014438, 26.5323452 ], [ 89.0021191, 26.5309178 ], [ 89.0103556, 26.5284517 ], [ 89.0123107, 26.526446 ], [ 89.0217403, 26.5227288 ], [ 89.0273974, 26.5182484 ], [ 89.0357473, 26.5168096 ], [ 89.0504572, 26.5273397 ], [ 89.051962, 26.5304445 ], [ 89.048847, 26.5339947 ], [ 89.06141, 26.5341666 ], [ 89.0623956, 26.5375597 ], [ 89.0740417, 26.5366503 ], [ 89.0739808, 26.5357012 ], [ 89.0758415, 26.5365585 ], [ 89.0759729, 26.5350628 ], [ 89.079722, 26.534921 ], [ 89.0793039, 26.5316006 ], [ 89.081619, 26.5322149 ], [ 89.0821226, 26.5307885 ], [ 89.0852404, 26.5308051 ], [ 89.0851055, 26.5256263 ], [ 89.0860387, 26.5266217 ], [ 89.0871763, 26.524829 ], [ 89.0887897, 26.5250333 ], [ 89.0920023, 26.5265708 ], [ 89.0917133, 26.5241932 ], [ 89.0936216, 26.5237313 ], [ 89.0939329, 26.5221753 ], [ 89.095404, 26.5227283 ], [ 89.0947419, 26.5206923 ], [ 89.0976799, 26.5223944 ], [ 89.1021856, 26.5216411 ], [ 89.1026699, 26.5229198 ], [ 89.1029627, 26.5210163 ], [ 89.1075479, 26.5212195 ], [ 89.1091333, 26.5201005 ], [ 89.1097974, 26.5212785 ], [ 89.111635, 26.5207942 ], [ 89.1148545, 26.5225028 ], [ 89.1306252, 26.5207689 ], [ 89.1325025, 26.5192364 ], [ 89.1446756, 26.5177331 ], [ 89.1469417, 26.5184462 ], [ 89.1579993, 26.5139025 ], [ 89.1586433, 26.5120773 ], [ 89.162932, 26.5112966 ], [ 89.1805342, 26.5010203 ], [ 89.1836103, 26.5009673 ], [ 89.1882381, 26.5048209 ], [ 89.1914142, 26.5056655 ], [ 89.1915457, 26.5100675 ], [ 89.2313673, 26.5019018 ], [ 89.2403756, 26.4962928 ], [ 89.2446915, 26.4912192 ], [ 89.2648672, 26.4901673 ], [ 89.2800363, 26.4861259 ], [ 89.2843378, 26.4879293 ], [ 89.2937962, 26.4879351 ], [ 89.299073, 26.4864217 ], [ 89.3047579, 26.4816682 ], [ 89.3074759, 26.4817913 ], [ 89.3101269, 26.4849651 ], [ 89.3154079, 26.4843492 ], [ 89.318958, 26.4852803 ], [ 89.3224369, 26.4885309 ], [ 89.3257591, 26.4948411 ], [ 89.3388716, 26.4877735 ], [ 89.343586, 26.4868585 ], [ 89.3552191, 26.4965408 ], [ 89.3568892, 26.4965545 ], [ 89.3590462, 26.4937479 ], [ 89.3665695, 26.4893079 ], [ 89.3782094, 26.4763112 ], [ 89.3785805, 26.4741811 ], [ 89.3821306, 26.4736846 ], [ 89.3831384, 26.47067 ], [ 89.3854299, 26.4697086 ], [ 89.3881722, 26.4659176 ], [ 89.3943494, 26.4643058 ], [ 89.4015647, 26.4646974 ], [ 89.411991, 26.4715683 ], [ 89.4196527, 26.4708215 ], [ 89.4210057, 26.468867 ], [ 89.4314699, 26.4679427 ], [ 89.4333612, 26.4696975 ], [ 89.4391174, 26.4693385 ], [ 89.4400157, 26.4707597 ], [ 89.4418811, 26.4708536 ], [ 89.4437494, 26.4759252 ], [ 89.4490338, 26.4744514 ], [ 89.4496919, 26.4765315 ], [ 89.45239, 26.4768505 ], [ 89.4525491, 26.4822478 ], [ 89.4549719, 26.4906269 ], [ 89.4713649, 26.4886628 ], [ 89.4723219, 26.4875114 ], [ 89.4791562, 26.486252 ], [ 89.4797614, 26.4844555 ], [ 89.4831398, 26.4826659 ], [ 89.4838794, 26.4852196 ], [ 89.4850863, 26.4834677 ], [ 89.4892385, 26.4833246 ], [ 89.4925599, 26.4799644 ], [ 89.4955048, 26.4811307 ], [ 89.4952667, 26.4788114 ], [ 89.4924432, 26.4786151 ], [ 89.495369, 26.4758644 ], [ 89.4947339, 26.4727736 ], [ 89.4984715, 26.471816 ], [ 89.4996466, 26.4749129 ], [ 89.5032195, 26.4723662 ], [ 89.5053102, 26.47272 ], [ 89.5023488, 26.4707318 ], [ 89.5049636, 26.4685408 ], [ 89.5082087, 26.4726006 ], [ 89.5108049, 26.4738708 ], [ 89.5125873, 26.4766431 ], [ 89.511789, 26.4776218 ], [ 89.5139064, 26.4763554 ], [ 89.5141141, 26.4742029 ], [ 89.5206302, 26.4715453 ], [ 89.5227606, 26.4723682 ], [ 89.5249183, 26.4764448 ], [ 89.527616, 26.4764874 ], [ 89.5299123, 26.471069 ], [ 89.5325802, 26.4706149 ], [ 89.5361339, 26.4725893 ], [ 89.5375298, 26.4699502 ], [ 89.5364607, 26.4649403 ], [ 89.5347675, 26.4629671 ], [ 89.5381874, 26.4624457 ], [ 89.5420601, 26.4597945 ], [ 89.5405134, 26.4563457 ], [ 89.5371813, 26.4537849 ], [ 89.5430029, 26.4525789 ], [ 89.544498, 26.4509326 ], [ 89.5423342, 26.4483635 ], [ 89.5382646, 26.4467546 ], [ 89.5383211, 26.4448862 ], [ 89.5464816, 26.4462404 ], [ 89.5493251, 26.4447933 ], [ 89.5484961, 26.4399821 ], [ 89.5524773, 26.4385446 ], [ 89.5522261, 26.431563 ], [ 89.5560156, 26.4318403 ], [ 89.5588338, 26.4297702 ], [ 89.5570015, 26.425965 ], [ 89.5502594, 26.4267422 ], [ 89.5511427, 26.4249827 ], [ 89.5565775, 26.4225439 ], [ 89.5572801, 26.4210776 ], [ 89.5557127, 26.4187798 ], [ 89.5497283, 26.4187903 ], [ 89.5490783, 26.4164658 ], [ 89.5496455, 26.4150806 ], [ 89.5584267, 26.4145209 ], [ 89.5583377, 26.4125623 ], [ 89.5551266, 26.4100967 ], [ 89.5645335, 26.4102996 ], [ 89.5718518, 26.4183175 ], [ 89.5693702, 26.4194132 ], [ 89.5721215, 26.4203665 ], [ 89.5689335, 26.4208617 ], [ 89.5708622, 26.4227984 ], [ 89.5667519, 26.4233157 ], [ 89.5670083, 26.4218672 ], [ 89.5658555, 26.421763 ], [ 89.5643713, 26.4228589 ], [ 89.5654328, 26.4250392 ], [ 89.5636619, 26.4279402 ], [ 89.5676619, 26.4278109 ], [ 89.573202, 26.4250467 ], [ 89.5840118, 26.4298385 ], [ 89.600437, 26.4112357 ], [ 89.6028278, 26.4102839 ], [ 89.6052242, 26.4061686 ], [ 89.6188461, 26.3953344 ], [ 89.6207453, 26.3973833 ], [ 89.6197328, 26.399879 ], [ 89.624719, 26.3998565 ], [ 89.6247892, 26.4013683 ], [ 89.6233709, 26.400899 ], [ 89.6253855, 26.4026455 ], [ 89.6262274, 26.4071268 ], [ 89.6278812, 26.4080835 ], [ 89.6271396, 26.4111749 ], [ 89.623937, 26.4133682 ], [ 89.6230398, 26.4159179 ], [ 89.6242727, 26.4198487 ], [ 89.626894, 26.4201736 ], [ 89.628578, 26.4163196 ], [ 89.6370684, 26.4179303 ], [ 89.6366924, 26.4164004 ], [ 89.6376045, 26.4164004 ], [ 89.6375346, 26.4187787 ], [ 89.6475889, 26.4194139 ], [ 89.6483411, 26.4213588 ], [ 89.6500246, 26.4183936 ], [ 89.6510674, 26.419648 ], [ 89.6510527, 26.4214216 ], [ 89.6491983, 26.4219318 ], [ 89.6505015, 26.4219045 ], [ 89.6501259, 26.4236285 ], [ 89.654331, 26.4229734 ], [ 89.6589993, 26.4296605 ], [ 89.6614609, 26.4309551 ], [ 89.6576966, 26.4317142 ], [ 89.6606406, 26.4368447 ], [ 89.6627701, 26.4340235 ], [ 89.6654979, 26.4364778 ], [ 89.6777636, 26.4348538 ], [ 89.6759317, 26.4295789 ], [ 89.6820314, 26.4285071 ], [ 89.6875406, 26.4294841 ], [ 89.6891633, 26.4269743 ], [ 89.6933135, 26.4267919 ], [ 89.6925089, 26.4223651 ], [ 89.6992347, 26.4213193 ], [ 89.7026147, 26.4240479 ], [ 89.7108723, 26.4272925 ], [ 89.7111232, 26.4344904 ], [ 89.7185164, 26.4337818 ], [ 89.7243026, 26.4355786 ], [ 89.7277941, 26.4442228 ], [ 89.7334323, 26.4425038 ], [ 89.7387992, 26.4455007 ], [ 89.7423024, 26.4395003 ], [ 89.7471585, 26.4386705 ], [ 89.7480959, 26.4477196 ], [ 89.7450133, 26.4559618 ], [ 89.7483316, 26.4566734 ], [ 89.7487856, 26.463249 ], [ 89.7727357, 26.4651998 ], [ 89.7850228, 26.4618597 ], [ 89.8277626, 26.459394 ], [ 89.8309902, 26.462721 ], [ 89.83156, 26.4674507 ], [ 89.8296144, 26.4674771 ], [ 89.8292978, 26.469228 ], [ 89.8245146, 26.4684637 ], [ 89.8258223, 26.4708605 ], [ 89.8471585, 26.4693501 ], [ 89.8492943, 26.4705013 ], [ 89.8580653, 26.4646135 ], [ 89.8641323, 26.4642214 ], [ 89.8619073, 26.4547397 ], [ 89.8581318, 26.4562331 ], [ 89.8529227, 26.4554606 ], [ 89.852858, 26.4532357 ], [ 89.8511435, 26.4523509 ], [ 89.8507786, 26.4479102 ], [ 89.8540323, 26.4475091 ], [ 89.8538975, 26.4444854 ], [ 89.8298029, 26.4477199 ], [ 89.8318842, 26.4456537 ], [ 89.8316346, 26.4428646 ], [ 89.8334901, 26.4412631 ], [ 89.8313707, 26.4382704 ], [ 89.8250584, 26.440624 ], [ 89.8228068, 26.4313808 ], [ 89.836777, 26.4310649 ], [ 89.8365874, 26.4287362 ], [ 89.8356894, 26.4306495 ], [ 89.8327781, 26.4281801 ], [ 89.8313663, 26.4238247 ], [ 89.8295724, 26.4223529 ], [ 89.8302007, 26.4177995 ], [ 89.8318905, 26.4159227 ], [ 89.8345818, 26.4166095 ], [ 89.8352544, 26.4120203 ], [ 89.8329659, 26.4083821 ], [ 89.8324279, 26.4000149 ], [ 89.8299535, 26.3970041 ], [ 89.8308521, 26.392875 ], [ 89.8363097, 26.3908955 ], [ 89.8413702, 26.3923861 ], [ 89.8471963, 26.3989041 ], [ 89.8478114, 26.4041527 ], [ 89.8486633, 26.4040264 ], [ 89.8573445, 26.3961303 ], [ 89.8554211, 26.3908725 ], [ 89.8589798, 26.3843969 ], [ 89.8544957, 26.3821624 ], [ 89.8514837, 26.3852533 ], [ 89.8470544, 26.3852525 ], [ 89.8450255, 26.3835958 ], [ 89.8443655, 26.378663 ], [ 89.843023, 26.3778143 ], [ 89.8396658, 26.3786213 ], [ 89.8352498, 26.3839588 ], [ 89.8320231, 26.3839172 ], [ 89.8280157, 26.3811315 ], [ 89.8259179, 26.3776332 ], [ 89.829478, 26.3707793 ], [ 89.8276412, 26.3663064 ], [ 89.8220717, 26.3631454 ], [ 89.8219682, 26.3596749 ], [ 89.8257724, 26.3548475 ], [ 89.8227633, 26.3516331 ], [ 89.8153793, 26.3525824 ], [ 89.8128322, 26.3570988 ], [ 89.8133058, 26.3615126 ], [ 89.8155836, 26.3643477 ], [ 89.819976, 26.3666285 ], [ 89.8219224, 26.3718102 ], [ 89.8201694, 26.3707218 ], [ 89.8134861, 26.370683 ], [ 89.8048187, 26.3628399 ], [ 89.7930489, 26.3586817 ], [ 89.7831811, 26.3513963 ], [ 89.7815411, 26.3416292 ], [ 89.7837274, 26.3320857 ], [ 89.7810665, 26.3278554 ], [ 89.7692555, 26.3242863 ], [ 89.769093, 26.3212941 ], [ 89.7642755, 26.3160689 ], [ 89.7603089, 26.3166029 ], [ 89.7553495, 26.3232147 ], [ 89.7512404, 26.3209502 ], [ 89.7541445, 26.302224 ], [ 89.7578439, 26.2981293 ], [ 89.760889, 26.2921024 ], [ 89.759805, 26.2897006 ], [ 89.7579632, 26.2890628 ], [ 89.7581248, 26.2877858 ], [ 89.7478026, 26.2912609 ], [ 89.7448438, 26.2968899 ], [ 89.7369089, 26.2926135 ], [ 89.7263217, 26.2947108 ], [ 89.721394, 26.2995114 ], [ 89.7258467, 26.3072165 ], [ 89.7237054, 26.3092804 ], [ 89.7198131, 26.3073199 ], [ 89.7178312, 26.2958176 ], [ 89.7241278, 26.2876405 ], [ 89.7350025, 26.2776724 ], [ 89.7385393, 26.2699435 ], [ 89.7342818, 26.2670269 ], [ 89.735573, 26.261493 ], [ 89.7340044, 26.2594092 ], [ 89.7220204, 26.2574591 ], [ 89.7146798, 26.2599369 ], [ 89.7125791, 26.2619103 ], [ 89.714464, 26.2657181 ], [ 89.7147124, 26.2699421 ], [ 89.7121953, 26.2710132 ], [ 89.7058527, 26.2704302 ], [ 89.7045418, 26.2638917 ], [ 89.7024228, 26.2610631 ], [ 89.7026158, 26.2578633 ], [ 89.705828, 26.2562053 ], [ 89.7144333, 26.2582537 ], [ 89.7170753, 26.2573674 ], [ 89.7184455, 26.2558457 ], [ 89.7164821, 26.2475345 ], [ 89.7178815, 26.2451508 ], [ 89.7192032, 26.2456554 ], [ 89.7262923, 26.2428661 ], [ 89.7318295, 26.239879 ], [ 89.732158, 26.2378299 ], [ 89.7271696, 26.2332381 ], [ 89.7141019, 26.2302466 ], [ 89.7136404, 26.2221235 ], [ 89.7100398, 26.2178428 ], [ 89.7044655, 26.2171916 ], [ 89.7037412, 26.2188888 ], [ 89.7011851, 26.2199373 ], [ 89.7003936, 26.2184484 ], [ 89.7018786, 26.2154201 ], [ 89.7074992, 26.2122797 ], [ 89.7128727, 26.2124571 ], [ 89.7257008, 26.2181849 ], [ 89.7317131, 26.2161633 ], [ 89.7332303, 26.2119921 ], [ 89.7309156, 26.2083924 ], [ 89.7272063, 26.2059626 ], [ 89.7191621, 26.2066224 ], [ 89.7116, 26.2029669 ], [ 89.7178122, 26.2013475 ], [ 89.7203689, 26.1956008 ], [ 89.7191107, 26.1922935 ], [ 89.7130745, 26.1877166 ], [ 89.7060965, 26.1877252 ], [ 89.6986005, 26.191177 ], [ 89.7031123, 26.1832796 ], [ 89.7035871, 26.1780338 ], [ 89.7085484, 26.1746539 ], [ 89.7092373, 26.1728078 ], [ 89.7136536, 26.1726562 ], [ 89.7223503, 26.1777097 ], [ 89.7255766, 26.1779784 ], [ 89.7324688, 26.1778245 ], [ 89.7365505, 26.1727894 ], [ 89.7289044, 26.1741084 ], [ 89.7274821, 26.1719612 ], [ 89.728864, 26.1679436 ], [ 89.7276082, 26.1673488 ], [ 89.7218418, 26.1674745 ], [ 89.716979, 26.1653626 ], [ 89.7167417, 26.1682388 ], [ 89.7128065, 26.1680728 ], [ 89.7104844, 26.1625675 ], [ 89.7099733, 26.1562206 ], [ 89.7083327, 26.1544477 ], [ 89.7013781, 26.1517548 ], [ 89.7001825, 26.1555015 ], [ 89.6971589, 26.1585342 ], [ 89.6813188, 26.1635862 ], [ 89.6810725, 26.1661309 ], [ 89.6842036, 26.1696156 ], [ 89.6978542, 26.1698951 ], [ 89.70206, 26.1739766 ], [ 89.6937551, 26.1757886 ], [ 89.6873896, 26.1815031 ], [ 89.682166, 26.1924194 ], [ 89.6833648, 26.1958837 ], [ 89.6863472, 26.1982231 ], [ 89.6831488, 26.1992049 ], [ 89.6811196, 26.1975344 ], [ 89.6781281, 26.1975304 ], [ 89.674642, 26.1995286 ], [ 89.6732113, 26.2030416 ], [ 89.6735204, 26.2056814 ], [ 89.6771601, 26.2096651 ], [ 89.6805704, 26.210228 ], [ 89.6857112, 26.2070058 ], [ 89.687263, 26.2097833 ], [ 89.6915042, 26.2116711 ], [ 89.6913872, 26.2135029 ], [ 89.6852091, 26.2086759 ], [ 89.6837849, 26.2087429 ], [ 89.6794102, 26.21479 ], [ 89.679031, 26.2240897 ], [ 89.6842839, 26.2200971 ], [ 89.6869227, 26.2198693 ], [ 89.6894249, 26.2212786 ], [ 89.6888802, 26.2227046 ], [ 89.6848527, 26.2225377 ], [ 89.6836959, 26.2236925 ], [ 89.687487, 26.2265078 ], [ 89.6857354, 26.226538 ], [ 89.6867046, 26.2285123 ], [ 89.6860506, 26.2306596 ], [ 89.6842401, 26.2276835 ], [ 89.6819886, 26.227516 ], [ 89.678714, 26.238207 ], [ 89.677337, 26.2338686 ], [ 89.6733994, 26.231597 ], [ 89.672405, 26.2290863 ], [ 89.6719085, 26.2200192 ], [ 89.6647854, 26.2209283 ], [ 89.6645598, 26.2197489 ], [ 89.6619965, 26.2192202 ], [ 89.6555662, 26.2190796 ], [ 89.6550927, 26.2204429 ], [ 89.6505093, 26.2209757 ], [ 89.6452818, 26.2256184 ], [ 89.6397478, 26.2260466 ], [ 89.6377018, 26.229098 ], [ 89.63444, 26.2294101 ], [ 89.6357952, 26.2235095 ], [ 89.6336466, 26.2185724 ], [ 89.6365051, 26.2176037 ], [ 89.6340796, 26.2151345 ], [ 89.6326908, 26.2099967 ], [ 89.6382592, 26.210438 ], [ 89.6391007, 26.2060473 ], [ 89.6379691, 26.2046944 ], [ 89.6395619, 26.2030502 ], [ 89.6395563, 26.1998875 ], [ 89.6417635, 26.1988718 ], [ 89.6441369, 26.1949063 ], [ 89.646442, 26.1950113 ], [ 89.6499961, 26.1902057 ], [ 89.647686, 26.189268 ], [ 89.6475008, 26.1876948 ], [ 89.6455614, 26.1885056 ], [ 89.6474512, 26.1851886 ], [ 89.6421525, 26.1855102 ], [ 89.6383447, 26.1867099 ], [ 89.637228, 26.1880217 ], [ 89.6379151, 26.1895515 ], [ 89.6351552, 26.1902654 ], [ 89.6358145, 26.193748 ], [ 89.6339622, 26.1946076 ], [ 89.6342028, 26.1955825 ], [ 89.6301818, 26.1957621 ], [ 89.6285328, 26.191826 ], [ 89.6328625, 26.1902883 ], [ 89.6276658, 26.1893108 ], [ 89.6278255, 26.1843001 ], [ 89.6296488, 26.1819111 ], [ 89.6323731, 26.1810968 ], [ 89.6331125, 26.1826967 ], [ 89.6333392, 26.1804398 ], [ 89.6378292, 26.1799291 ], [ 89.6377023, 26.1789012 ], [ 89.6391381, 26.1786094 ], [ 89.6403197, 26.1822455 ], [ 89.6439812, 26.1824655 ], [ 89.6498714, 26.179718 ], [ 89.6550955, 26.181383 ], [ 89.6558737, 26.1786967 ], [ 89.658661, 26.1762269 ], [ 89.6549404, 26.1733643 ], [ 89.655148, 26.1703821 ], [ 89.6513207, 26.1709161 ], [ 89.6501712, 26.1697718 ], [ 89.649325, 26.1644304 ], [ 89.6464329, 26.1644371 ], [ 89.6450466, 26.1657548 ], [ 89.6388712, 26.1668903 ], [ 89.6379165, 26.1721445 ], [ 89.6321633, 26.1718907 ], [ 89.6319487, 26.1736392 ], [ 89.6334186, 26.1733944 ], [ 89.6338217, 26.1749834 ], [ 89.6373736, 26.1761937 ], [ 89.6365597, 26.1787463 ], [ 89.6321169, 26.1802265 ], [ 89.6303081, 26.1795268 ], [ 89.6303782, 26.178321 ], [ 89.6256608, 26.1762652 ], [ 89.6239895, 26.1711154 ], [ 89.6220366, 26.171762 ], [ 89.6228244, 26.1732494 ], [ 89.6217167, 26.1735512 ], [ 89.6233416, 26.1742917 ], [ 89.6239077, 26.1791256 ], [ 89.6148254, 26.1785517 ], [ 89.6151183, 26.1764578 ], [ 89.6093289, 26.1785624 ], [ 89.6101955, 26.1803166 ], [ 89.6074558, 26.1791413 ], [ 89.608628, 26.1763728 ], [ 89.615153, 26.1758782 ], [ 89.6153968, 26.1730268 ], [ 89.6136237, 26.1731744 ], [ 89.6125538, 26.1748091 ], [ 89.6109795, 26.1743606 ], [ 89.6112489, 26.1685948 ], [ 89.6133192, 26.1676319 ], [ 89.6180712, 26.1691317 ], [ 89.6197599, 26.1677587 ], [ 89.6165124, 26.1659394 ], [ 89.6137779, 26.1661815 ], [ 89.6134988, 26.1620278 ], [ 89.6101507, 26.1618378 ], [ 89.6100131, 26.1596823 ], [ 89.6082449, 26.1582229 ], [ 89.6113951, 26.1575249 ], [ 89.60902, 26.1536238 ], [ 89.6070141, 26.1544347 ], [ 89.6080504, 26.158353 ], [ 89.606043, 26.1576536 ], [ 89.6046662, 26.1591017 ], [ 89.6044017, 26.1561488 ], [ 89.6008763, 26.1581445 ], [ 89.6000064, 26.160832 ], [ 89.5958043, 26.1608155 ], [ 89.591398, 26.1576131 ], [ 89.5962988, 26.1562382 ], [ 89.5976931, 26.1544067 ], [ 89.5984145, 26.1504607 ], [ 89.596662, 26.1499376 ], [ 89.5981808, 26.1463665 ], [ 89.5955954, 26.1398934 ], [ 89.598227, 26.1389926 ], [ 89.5983416, 26.1378138 ], [ 89.596597, 26.1350324 ], [ 89.6023237, 26.1270038 ], [ 89.6041665, 26.1257744 ], [ 89.6041438, 26.1247877 ], [ 89.6027052, 26.1249072 ], [ 89.6043107, 26.1246541 ], [ 89.6043725, 26.1257111 ], [ 89.6031976, 26.1269257 ], [ 89.6042855, 26.1286186 ], [ 89.6074826, 26.1251116 ], [ 89.6063328, 26.1224224 ], [ 89.6038914, 26.1238643 ], [ 89.6023587, 26.1218965 ], [ 89.6012898, 26.1234172 ], [ 89.6042397, 26.1174542 ], [ 89.6077419, 26.1186333 ], [ 89.608836, 26.1238294 ], [ 89.6120444, 26.1277007 ], [ 89.6135194, 26.1273667 ], [ 89.6135927, 26.1253733 ], [ 89.6166427, 26.120905 ], [ 89.6205124, 26.1197153 ], [ 89.6224349, 26.1257966 ], [ 89.625346, 26.1285966 ], [ 89.6292781, 26.1249495 ], [ 89.6303575, 26.1182725 ], [ 89.6276319, 26.1141402 ], [ 89.6162233, 26.1068587 ], [ 89.6100405, 26.1085802 ], [ 89.6052467, 26.1063685 ], [ 89.6044889, 26.1090086 ], [ 89.6030351, 26.1092264 ], [ 89.6031007, 26.111647 ], [ 89.6007176, 26.1118955 ], [ 89.6004802, 26.1131143 ], [ 89.5979479, 26.1127008 ], [ 89.597957, 26.1104758 ], [ 89.6007108, 26.10905 ], [ 89.5956069, 26.1078053 ], [ 89.6006534, 26.1075166 ], [ 89.6003102, 26.1040601 ], [ 89.5995271, 26.1032487 ], [ 89.5965357, 26.104301 ], [ 89.5938827, 26.1021613 ], [ 89.5974298, 26.0974019 ], [ 89.6058586, 26.0933263 ], [ 89.6086224, 26.0883931 ], [ 89.6102561, 26.0900394 ], [ 89.608849, 26.0940984 ], [ 89.6101372, 26.0959086 ], [ 89.617292, 26.0946873 ], [ 89.613451, 26.1013076 ], [ 89.6139612, 26.1036101 ], [ 89.6161928, 26.1041403 ], [ 89.6198016, 26.1005604 ], [ 89.6215112, 26.1003492 ], [ 89.6234277, 26.1029129 ], [ 89.6240888, 26.1078943 ], [ 89.6299588, 26.1070435 ], [ 89.6324543, 26.1017286 ], [ 89.6362246, 26.0993651 ], [ 89.6321033, 26.0972094 ], [ 89.6332369, 26.0943959 ], [ 89.6396759, 26.0900601 ], [ 89.6368778, 26.0892681 ], [ 89.6364703, 26.0858334 ], [ 89.6356891, 26.0863228 ], [ 89.6339406, 26.0841462 ], [ 89.6335659, 26.0808704 ], [ 89.637347, 26.0747707 ], [ 89.6482577, 26.0684606 ], [ 89.6497005, 26.0663128 ], [ 89.649901, 26.0624841 ], [ 89.6490849, 26.0613586 ], [ 89.6436992, 26.0630353 ], [ 89.6356666, 26.0607145 ], [ 89.6306265, 26.062657 ], [ 89.628161, 26.0612812 ], [ 89.6279061, 26.0576687 ], [ 89.6246954, 26.0570048 ], [ 89.620511, 26.0532773 ], [ 89.6176728, 26.0539576 ], [ 89.6163835, 26.0556615 ], [ 89.6178045, 26.0601111 ], [ 89.6106096, 26.0597068 ], [ 89.6085896, 26.0645666 ], [ 89.6056777, 26.0640366 ], [ 89.60498, 26.0615743 ], [ 89.6060775, 26.059211 ], [ 89.6129259, 26.0569274 ], [ 89.6128262, 26.0526439 ], [ 89.6103038, 26.0504292 ], [ 89.6037399, 26.0485286 ], [ 89.599481, 26.0444262 ], [ 89.5922324, 26.0447954 ], [ 89.5938016, 26.0411045 ], [ 89.5966332, 26.0413989 ], [ 89.5977584, 26.0401819 ], [ 89.5977499, 26.0378502 ], [ 89.595237, 26.035493 ], [ 89.5926679, 26.0352673 ], [ 89.5894444, 26.0388974 ], [ 89.5870906, 26.0383784 ], [ 89.5872645, 26.0355385 ], [ 89.5832559, 26.0325729 ], [ 89.5853507, 26.026277 ], [ 89.5833558, 26.0242275 ], [ 89.5787222, 26.0262617 ], [ 89.5783597, 26.0215959 ], [ 89.5812311, 26.0094996 ], [ 89.5787482, 26.0067764 ], [ 89.5815297, 26.0058164 ], [ 89.5801671, 26.0050294 ], [ 89.5815647, 26.003344 ], [ 89.5800304, 26.0021247 ], [ 89.5829408, 26.0017915 ], [ 89.5862465, 25.9950812 ], [ 89.5856367, 25.9922559 ], [ 89.5832023, 25.990194 ], [ 89.5853993, 25.9850244 ], [ 89.5851404, 25.9828083 ], [ 89.5867469, 25.9810843 ], [ 89.5851797, 25.9758984 ], [ 89.5825715, 25.9790753 ], [ 89.5768825, 25.9781672 ], [ 89.5758894, 25.9814395 ], [ 89.5734839, 25.9785711 ], [ 89.5744545, 25.9773822 ], [ 89.5767119, 25.9780256 ], [ 89.5784798, 25.9734044 ], [ 89.5778655, 25.9692767 ], [ 89.5689068, 25.9677565 ], [ 89.5673417, 25.9710267 ], [ 89.5684007, 25.9791159 ], [ 89.5659687, 25.9803422 ], [ 89.5638538, 25.9784179 ], [ 89.5627043, 25.9711479 ], [ 89.557793, 25.969826 ], [ 89.557696, 25.9653553 ], [ 89.5508299, 25.9658996 ], [ 89.5476444, 25.9679339 ], [ 89.5409577, 25.9695048 ], [ 89.5380845, 25.9738632 ], [ 89.5416943, 25.9831943 ], [ 89.5367803, 25.9849556 ], [ 89.5355314, 25.9901651 ], [ 89.5377159, 25.9908506 ], [ 89.5382145, 25.9946822 ], [ 89.5481469, 25.9986788 ], [ 89.5482229, 26.0006099 ], [ 89.544972, 26.0003383 ], [ 89.5448122, 26.0025936 ], [ 89.5429569, 26.0026019 ], [ 89.540896, 26.0059014 ], [ 89.5375369, 26.0066207 ], [ 89.5336644, 26.005365 ], [ 89.5350505, 26.0040744 ], [ 89.5394179, 26.005374 ], [ 89.5393723, 26.0037161 ], [ 89.5374607, 26.0021277 ], [ 89.5324456, 26.0035198 ], [ 89.5298304, 26.0057384 ], [ 89.5261199, 26.0047409 ], [ 89.524304, 26.0065655 ], [ 89.5220712, 26.0051562 ], [ 89.5212108, 26.0085621 ], [ 89.5192419, 26.0087438 ], [ 89.5142266, 26.0070287 ], [ 89.5089373, 26.0018382 ], [ 89.4968928, 26.0028856 ], [ 89.4964591, 26.0040724 ], [ 89.4942437, 26.0039757 ], [ 89.4912837, 26.005965 ], [ 89.4871057, 26.0002732 ], [ 89.4803525, 25.9960677 ], [ 89.4765629, 25.9979822 ], [ 89.4616481, 25.9983718 ], [ 89.4471558, 26.0079644 ], [ 89.4344213, 26.0098712 ], [ 89.427477, 26.0131474 ], [ 89.426761, 26.0152103 ], [ 89.4286393, 26.0144827 ], [ 89.42769, 26.020334 ], [ 89.4335889, 26.0304199 ], [ 89.4328021, 26.0375012 ], [ 89.4289646, 26.0429737 ], [ 89.4252438, 26.0445684 ], [ 89.4238434, 26.0469201 ], [ 89.4227073, 26.046848 ], [ 89.4227226, 26.0456357 ], [ 89.424446, 26.0441766 ], [ 89.4189718, 26.0418862 ], [ 89.4107284, 26.0407335 ], [ 89.4074231, 26.04151 ], [ 89.4062695, 26.0402844 ], [ 89.4076936, 26.0397833 ], [ 89.4064493, 26.0380039 ], [ 89.4071279, 26.0360212 ], [ 89.4048472, 26.0339292 ], [ 89.4066664, 26.0329524 ], [ 89.4065988, 26.0315115 ], [ 89.4041563, 26.0309101 ], [ 89.4030242, 26.0273062 ], [ 89.3935831, 26.022882 ], [ 89.3908571, 26.0229212 ], [ 89.3912034, 26.016691 ], [ 89.3945015, 26.0131543 ], [ 89.3927929, 26.0071906 ], [ 89.3912281, 26.0094272 ], [ 89.389414, 26.0083328 ], [ 89.38944, 26.0094165 ], [ 89.3859127, 26.0107513 ], [ 89.384147, 26.0097933 ], [ 89.3804641, 26.0107059 ], [ 89.3778492, 26.0092119 ], [ 89.376378, 26.0102607 ], [ 89.3756515, 26.0093084 ], [ 89.3724788, 26.0118333 ], [ 89.3715778, 26.0115303 ], [ 89.3722959, 26.0094434 ], [ 89.3711628, 26.0089355 ], [ 89.3666877, 26.0102482 ], [ 89.364724, 26.0082345 ], [ 89.3603409, 26.0092245 ], [ 89.3596977, 26.0078453 ], [ 89.3594798, 26.0092003 ], [ 89.3569704, 26.0079725 ], [ 89.3564221, 26.009897 ], [ 89.356062, 26.0083253 ], [ 89.3544379, 26.0087974 ], [ 89.3547622, 26.0114409 ], [ 89.3534801, 26.0119009 ], [ 89.352468, 26.0101044 ], [ 89.3502475, 26.0111539 ], [ 89.3490621, 26.0103507 ], [ 89.3484034, 26.0121972 ], [ 89.3469866, 26.0113538 ], [ 89.344261, 26.0131752 ], [ 89.3468163, 26.0133575 ], [ 89.3467059, 26.0144793 ], [ 89.3491818, 26.0149037 ], [ 89.3492126, 26.0161438 ], [ 89.345072, 26.0146733 ], [ 89.3437243, 26.0170268 ], [ 89.3435699, 26.0145933 ], [ 89.3401094, 26.0152551 ], [ 89.3393704, 26.0174622 ], [ 89.3373216, 26.0180214 ], [ 89.3391088, 26.0182278 ], [ 89.3373448, 26.0189386 ], [ 89.3372246, 26.0199818 ], [ 89.3387537, 26.0193635 ], [ 89.3371288, 26.0205327 ], [ 89.3374469, 26.0221146 ], [ 89.336291, 26.0202926 ], [ 89.3345163, 26.0200038 ], [ 89.3352535, 26.0226215 ], [ 89.3365125, 26.0235479 ], [ 89.3382712, 26.0228224 ], [ 89.3386248, 26.0239121 ], [ 89.3366788, 26.0249912 ], [ 89.336534, 26.0265217 ], [ 89.3352211, 26.025472 ], [ 89.3343815, 26.0274965 ], [ 89.3327771, 26.0269279 ], [ 89.3332485, 26.0283677 ], [ 89.3316621, 26.0294386 ], [ 89.330792, 26.0271944 ], [ 89.3289028, 26.0282842 ], [ 89.3295105, 26.0302459 ], [ 89.3276249, 26.0302618 ], [ 89.3289741, 26.031617 ], [ 89.3260999, 26.0320123 ], [ 89.3280004, 26.0332224 ], [ 89.325671, 26.0345951 ], [ 89.3257431, 26.0362841 ], [ 89.3243677, 26.0356918 ], [ 89.3232003, 26.0378034 ], [ 89.3195628, 26.0391797 ], [ 89.315224, 26.0374164 ], [ 89.317343, 26.0385193 ], [ 89.3098771, 26.041616 ], [ 89.3077291, 26.0451005 ], [ 89.3059232, 26.0444962 ], [ 89.3061947, 26.0465209 ], [ 89.3037803, 26.0455838 ], [ 89.3047304, 26.0471392 ], [ 89.303192, 26.0464557 ], [ 89.3028948, 26.0474159 ], [ 89.2999851, 26.0475908 ], [ 89.3004372, 26.0504322 ], [ 89.2983671, 26.0500788 ], [ 89.2966399, 26.0453364 ], [ 89.2937385, 26.0462553 ], [ 89.2909626, 26.0452457 ], [ 89.2892596, 26.0481453 ], [ 89.275756, 26.0490802 ], [ 89.2768572, 26.0513868 ], [ 89.2790415, 26.0506765 ], [ 89.2815742, 26.056136 ], [ 89.2811247, 26.0613855 ], [ 89.2825403, 26.0641402 ], [ 89.2809149, 26.0656491 ], [ 89.2782986, 26.0664833 ], [ 89.275207, 26.0621403 ], [ 89.2762078, 26.0611951 ], [ 89.2730741, 26.0616545 ], [ 89.2724972, 26.0606498 ], [ 89.2704995, 26.0618991 ], [ 89.2708791, 26.059949 ], [ 89.2544074, 26.0641208 ], [ 89.2561092, 26.0715436 ], [ 89.254734, 26.0746633 ], [ 89.2568449, 26.0795815 ], [ 89.2606745, 26.0827914 ], [ 89.2614422, 26.0857843 ], [ 89.265872, 26.0878418 ], [ 89.2655486, 26.0907602 ], [ 89.2667988, 26.0926373 ], [ 89.2655144, 26.093431 ], [ 89.2658841, 26.0925055 ], [ 89.2639784, 26.0931582 ], [ 89.2633923, 26.0920848 ], [ 89.2636125, 26.0934797 ], [ 89.2622126, 26.0939813 ], [ 89.2603598, 26.0918043 ], [ 89.2588198, 26.093116 ], [ 89.2561815, 26.0917352 ], [ 89.2548918, 26.0933715 ], [ 89.2516228, 26.0913504 ], [ 89.2512676, 26.0925172 ], [ 89.2523673, 26.092754 ], [ 89.2503254, 26.0941171 ], [ 89.2523979, 26.0978389 ], [ 89.2510509, 26.1000429 ], [ 89.2517826, 26.1011849 ], [ 89.249308, 26.1007011 ], [ 89.2497666, 26.1022559 ], [ 89.2477223, 26.1016915 ], [ 89.2486096, 26.1034317 ], [ 89.2452087, 26.1065669 ], [ 89.2441516, 26.1049392 ], [ 89.243965, 26.1061767 ], [ 89.2415569, 26.1054745 ], [ 89.2429365, 26.1067049 ], [ 89.241197, 26.1062478 ], [ 89.2422194, 26.10906 ], [ 89.2403078, 26.107749 ], [ 89.239536, 26.109236 ], [ 89.2413442, 26.1102745 ], [ 89.2394395, 26.1101301 ], [ 89.2391984, 26.1114986 ], [ 89.2419207, 26.113194 ], [ 89.2397799, 26.1125143 ], [ 89.2385173, 26.1146802 ], [ 89.2388508, 26.1136203 ], [ 89.2372386, 26.1125795 ], [ 89.2355043, 26.1147234 ], [ 89.2330326, 26.113003 ], [ 89.2318228, 26.1170862 ], [ 89.2292233, 26.1165973 ], [ 89.2302968, 26.1178581 ], [ 89.2284869, 26.1204274 ], [ 89.2295316, 26.1210884 ], [ 89.2294373, 26.1238536 ], [ 89.2278682, 26.1239927 ], [ 89.2282617, 26.1226611 ], [ 89.2269262, 26.1220576 ], [ 89.2251089, 26.1240566 ], [ 89.2231951, 26.1241775 ], [ 89.223332, 26.1254431 ], [ 89.2193394, 26.1242583 ], [ 89.2198991, 26.1263619 ], [ 89.218427, 26.1266358 ], [ 89.2173781, 26.1255127 ], [ 89.217234, 26.1264393 ], [ 89.2145801, 26.1264708 ], [ 89.2143812, 26.1252703 ], [ 89.2113861, 26.1242218 ], [ 89.2098126, 26.1271855 ], [ 89.2047309, 26.1274305 ], [ 89.2030826, 26.1292753 ], [ 89.2001729, 26.1284827 ], [ 89.1983174, 26.1259033 ], [ 89.1950922, 26.12717 ], [ 89.1963873, 26.1256992 ], [ 89.1947379, 26.1259031 ], [ 89.1923502, 26.1236352 ], [ 89.1913278, 26.1250419 ], [ 89.1897306, 26.1245021 ], [ 89.1889846, 26.1272652 ], [ 89.1860985, 26.1278953 ], [ 89.1851385, 26.1267274 ], [ 89.1848433, 26.1290507 ], [ 89.1831978, 26.1280212 ], [ 89.1823832, 26.1292644 ], [ 89.1813741, 26.1280434 ], [ 89.1806997, 26.1291858 ], [ 89.179587, 26.1279601 ], [ 89.1765096, 26.1314789 ], [ 89.1715329, 26.1303328 ], [ 89.1682471, 26.1313398 ], [ 89.1667789, 26.1301754 ], [ 89.1665751, 26.1322635 ], [ 89.1644191, 26.1316679 ], [ 89.1641319, 26.1333394 ], [ 89.1618629, 26.1336609 ], [ 89.162525, 26.1353921 ], [ 89.1603326, 26.1353762 ], [ 89.16131, 26.1369498 ], [ 89.1593301, 26.13683 ], [ 89.1602062, 26.139238 ], [ 89.158204, 26.1382831 ], [ 89.1571152, 26.1399342 ], [ 89.1553806, 26.1386108 ], [ 89.1528774, 26.143998 ], [ 89.1537045, 26.1448665 ], [ 89.1521974, 26.1456355 ], [ 89.1524681, 26.1483803 ], [ 89.1511167, 26.1481148 ], [ 89.1516292, 26.1518087 ], [ 89.14977, 26.1531344 ], [ 89.1503142, 26.1548005 ], [ 89.149294, 26.1548816 ], [ 89.1485404, 26.158096 ], [ 89.1493243, 26.1594257 ], [ 89.1553967, 26.1595516 ], [ 89.1572802, 26.1631963 ], [ 89.1525001, 26.1645286 ], [ 89.1518769, 26.1671228 ], [ 89.1491931, 26.1700348 ], [ 89.1410097, 26.16937 ], [ 89.1401364, 26.1727991 ], [ 89.1412058, 26.1758053 ], [ 89.1375466, 26.1763671 ], [ 89.1370953, 26.1797598 ], [ 89.1346119, 26.1811709 ], [ 89.1365698, 26.1837539 ], [ 89.1357275, 26.1873036 ], [ 89.1382697, 26.1886678 ], [ 89.140088, 26.1950438 ], [ 89.1393809, 26.1983113 ], [ 89.1401706, 26.1996301 ], [ 89.1438947, 26.2004081 ], [ 89.1441135, 26.2034175 ], [ 89.1486039, 26.2064172 ], [ 89.149175, 26.2088666 ], [ 89.1490107, 26.2101952 ], [ 89.1475626, 26.2101712 ], [ 89.1472818, 26.211569 ], [ 89.145884, 26.2111343 ], [ 89.1420973, 26.2147636 ], [ 89.1421103, 26.2206637 ], [ 89.1438423, 26.2212592 ], [ 89.140535, 26.2256937 ], [ 89.1396225, 26.2294174 ], [ 89.141297, 26.2314276 ], [ 89.1409425, 26.2358408 ], [ 89.1394092, 26.2380335 ], [ 89.137, 26.2365578 ], [ 89.1339365, 26.2375513 ], [ 89.1361279, 26.2406035 ], [ 89.1318975, 26.2395199 ], [ 89.1325507, 26.2418768 ], [ 89.1309522, 26.2429682 ], [ 89.1318393, 26.2468422 ], [ 89.1292883, 26.248788 ], [ 89.1269798, 26.2488383 ], [ 89.1261522, 26.2506901 ], [ 89.1239757, 26.2497425 ], [ 89.1199816, 26.2527862 ], [ 89.1222694, 26.255519 ], [ 89.1214044, 26.2581966 ], [ 89.1253534, 26.2612643 ], [ 89.1252288, 26.263462 ], [ 89.1116181, 26.2726818 ], [ 89.1094141, 26.2720793 ], [ 89.1087912, 26.2755743 ], [ 89.1058453, 26.2740068 ], [ 89.1049872, 26.2757173 ], [ 89.1059554, 26.2810832 ], [ 89.1034237, 26.2810151 ], [ 89.102898, 26.2782301 ], [ 89.1001047, 26.2794677 ], [ 89.1026197, 26.2816664 ], [ 89.1017251, 26.2830342 ], [ 89.1025998, 26.2884815 ], [ 89.1071462, 26.2916435 ], [ 89.1047158, 26.2922975 ], [ 89.1033435, 26.294357 ], [ 89.1040512, 26.2979658 ], [ 89.107572, 26.2997978 ], [ 89.0999248, 26.3045682 ], [ 89.1029432, 26.3082774 ], [ 89.1023556, 26.3113943 ], [ 89.1034409, 26.31316 ], [ 89.1049774, 26.3131109 ], [ 89.1047112, 26.3157998 ], [ 89.1060958, 26.3157595 ], [ 89.1050442, 26.3138344 ], [ 89.108283, 26.3130436 ], [ 89.1090806, 26.3044421 ], [ 89.1142462, 26.3036399 ], [ 89.1139154, 26.2982433 ], [ 89.1167032, 26.2971197 ], [ 89.1171581, 26.2911703 ], [ 89.1199066, 26.2872387 ], [ 89.1220335, 26.2871633 ], [ 89.1254154, 26.2909332 ], [ 89.1245692, 26.2940505 ], [ 89.1273657, 26.2948668 ], [ 89.1282619, 26.2978528 ], [ 89.1316335, 26.2973243 ], [ 89.1311627, 26.2986119 ], [ 89.1325047, 26.2987154 ], [ 89.1324288, 26.3002179 ], [ 89.1311463, 26.3003673 ], [ 89.1300164, 26.3002342 ], [ 89.1304638, 26.2988633 ], [ 89.1287047, 26.2987881 ], [ 89.1274836, 26.3016083 ], [ 89.1277065, 26.3030198 ], [ 89.1289222, 26.3031103 ], [ 89.1287973, 26.3015235 ], [ 89.1313441, 26.300892 ], [ 89.130093, 26.3032805 ], [ 89.1305847, 26.3051775 ], [ 89.1257026, 26.3041473 ], [ 89.1252154, 26.3053362 ], [ 89.1337101, 26.3057968 ], [ 89.1364417, 26.307938 ], [ 89.1349344, 26.3112641 ], [ 89.1329779, 26.311179 ], [ 89.1349387, 26.3120558 ], [ 89.1348324, 26.3131465 ], [ 89.1295534, 26.3128368 ], [ 89.1351468, 26.3137445 ], [ 89.1363077, 26.3201069 ], [ 89.1346433, 26.3213473 ], [ 89.1283119, 26.3187996 ], [ 89.1244602, 26.3208399 ], [ 89.1296767, 26.320483 ], [ 89.1286073, 26.3223184 ], [ 89.1236402, 26.3221721 ], [ 89.1194628, 26.3201182 ], [ 89.115502, 26.3199039 ], [ 89.1164902, 26.3184932 ], [ 89.1127354, 26.3183888 ], [ 89.1106765, 26.3218461 ], [ 89.1117618, 26.3229281 ], [ 89.10788, 26.3265603 ], [ 89.1056924, 26.3265003 ], [ 89.1043501, 26.3234646 ], [ 89.100528, 26.3233943 ], [ 89.0986159, 26.3242209 ], [ 89.0990433, 26.3286055 ], [ 89.0970701, 26.3292337 ], [ 89.0953452, 26.3257233 ], [ 89.0936293, 26.3257812 ], [ 89.0919228, 26.3202939 ], [ 89.0897186, 26.322411 ], [ 89.0857928, 26.3210123 ], [ 89.0834867, 26.3223601 ], [ 89.0842876, 26.3240535 ], [ 89.088006, 26.3233084 ], [ 89.0916353, 26.3279888 ], [ 89.0909432, 26.3294866 ], [ 89.0953516, 26.3297742 ], [ 89.0965257, 26.3339384 ], [ 89.1013432, 26.3365339 ], [ 89.0978148, 26.339855 ], [ 89.0988369, 26.3420803 ], [ 89.0979297, 26.3497247 ], [ 89.0952199, 26.3519745 ], [ 89.0959301, 26.353745 ], [ 89.0944582, 26.3524317 ], [ 89.0933301, 26.3529137 ], [ 89.0938859, 26.35459 ], [ 89.0958623, 26.3541637 ], [ 89.0964252, 26.3571636 ], [ 89.0983159, 26.3589297 ], [ 89.0898552, 26.3604915 ], [ 89.0895027, 26.3620574 ], [ 89.0858138, 26.3627212 ], [ 89.0858093, 26.3638584 ], [ 89.0829406, 26.3621015 ], [ 89.0797295, 26.3628147 ], [ 89.0800312, 26.3666552 ], [ 89.0884621, 26.3656915 ], [ 89.0905661, 26.3738865 ], [ 89.0905519, 26.3750989 ], [ 89.0892298, 26.3750619 ], [ 89.0890654, 26.3801725 ], [ 89.0917108, 26.3824597 ], [ 89.0916759, 26.3847533 ], [ 89.0900524, 26.3857134 ], [ 89.0915485, 26.3889792 ], [ 89.0962506, 26.3911549 ], [ 89.0919862, 26.3936938 ], [ 89.0904755, 26.3917554 ], [ 89.0862136, 26.3922798 ], [ 89.0815872, 26.3901857 ], [ 89.0799699, 26.3914979 ], [ 89.0807904, 26.3929148 ], [ 89.085237, 26.3937291 ], [ 89.0878181, 26.3965592 ], [ 89.0843826, 26.3982661 ], [ 89.0783192, 26.395853 ], [ 89.0753417, 26.3959738 ], [ 89.0739491, 26.3911056 ], [ 89.0748347, 26.3959557 ], [ 89.0712299, 26.3983857 ], [ 89.0681711, 26.397683 ], [ 89.0672822, 26.4000022 ], [ 89.0644461, 26.3989476 ], [ 89.0644558, 26.3966344 ], [ 89.063365, 26.3966856 ], [ 89.0618562, 26.3978247 ], [ 89.0631529, 26.4007488 ], [ 89.061487, 26.3981756 ], [ 89.0590124, 26.3988232 ], [ 89.0581355, 26.3952934 ], [ 89.0557309, 26.3958056 ], [ 89.0538852, 26.3986347 ], [ 89.0405892, 26.4002436 ], [ 89.0378441, 26.3996743 ], [ 89.0367111, 26.3948734 ], [ 89.0335604, 26.3954424 ], [ 89.0343764, 26.3994649 ], [ 89.0317855, 26.3995486 ], [ 89.0313966, 26.4038659 ], [ 89.0294107, 26.4049103 ], [ 89.0299349, 26.4070698 ], [ 89.0248149, 26.407544 ], [ 89.0220277, 26.4058097 ], [ 89.0227071, 26.4039241 ], [ 89.0198544, 26.404119 ], [ 89.0189481, 26.4060636 ], [ 89.0227894, 26.408283 ], [ 89.0224644, 26.4136387 ], [ 89.0165054, 26.4149747 ], [ 89.0072267, 26.4127341 ], [ 89.0048465, 26.4177584 ], [ 89.0054846, 26.4215673 ], [ 88.9993066, 26.421775 ], [ 88.9987976, 26.4203243 ], [ 88.9966085, 26.4204998 ], [ 88.9959047, 26.4225846 ], [ 88.9937371, 26.4229896 ], [ 88.9930113, 26.4203054 ], [ 88.9960351, 26.4197016 ], [ 88.9953044, 26.4166573 ], [ 88.9986093, 26.4138845 ], [ 88.9964808, 26.412479 ], [ 88.9942276, 26.4128376 ], [ 88.9941956, 26.4165896 ], [ 88.9922155, 26.4170877 ], [ 88.9924543, 26.4189673 ], [ 88.983002, 26.4210392 ], [ 88.9835118, 26.423892 ], [ 88.980752, 26.4252669 ], [ 88.9830559, 26.4308753 ], [ 88.9802912, 26.4316911 ], [ 88.9798203, 26.4337245 ], [ 88.9785861, 26.4338522 ], [ 88.978778, 26.4359942 ], [ 88.9831285, 26.4385481 ], [ 88.9842406, 26.4418445 ], [ 88.9809425, 26.4418539 ], [ 88.9809194, 26.4433633 ], [ 88.9826816, 26.4440008 ], [ 88.983266, 26.4465093 ], [ 88.9785425, 26.4461617 ], [ 88.9794383, 26.4496309 ], [ 88.9772669, 26.4486192 ], [ 88.9764166, 26.4462035 ], [ 88.9744882, 26.450153 ], [ 88.966313, 26.451262 ], [ 88.9654357, 26.4577004 ], [ 88.9558416, 26.4602081 ], [ 88.9570864, 26.4589062 ], [ 88.9573444, 26.4548525 ], [ 88.959119, 26.4542037 ], [ 88.95978, 26.4522876 ], [ 88.9653556, 26.4514901 ], [ 88.9605688, 26.4482733 ], [ 88.9557956, 26.4511564 ], [ 88.9512796, 26.4520635 ], [ 88.9518761, 26.4484192 ], [ 88.9461689, 26.4479385 ], [ 88.946876, 26.443519 ], [ 88.9492663, 26.4429014 ], [ 88.9490198, 26.4398997 ], [ 88.9469136, 26.439321 ], [ 88.9511869, 26.4351259 ], [ 88.9512003, 26.4336141 ], [ 88.9457575, 26.4330629 ], [ 88.9446489, 26.4318485 ], [ 88.9457642, 26.4293607 ], [ 88.9428174, 26.4281885 ], [ 88.9447667, 26.4255917 ], [ 88.9380499, 26.4256022 ], [ 88.9381272, 26.4277773 ], [ 88.9347576, 26.4314509 ], [ 88.9283842, 26.4329159 ], [ 88.9281596, 26.4319381 ], [ 88.9261928, 26.4320505 ], [ 88.9259379, 26.4276202 ], [ 88.9327985, 26.4268335 ], [ 88.9309904, 26.4245227 ], [ 88.9230327, 26.4233608 ], [ 88.9254717, 26.4164029 ], [ 88.92985, 26.4162533 ], [ 88.9313134, 26.4141881 ], [ 88.9265597, 26.4067882 ], [ 88.913465, 26.4085202 ], [ 88.9067887, 26.4066487 ], [ 88.9047889, 26.408459 ], [ 88.9061569, 26.4035131 ], [ 88.9085835, 26.4036583 ], [ 88.9099541, 26.4007758 ], [ 88.912161, 26.401332 ], [ 88.9132582, 26.4032331 ], [ 88.9173654, 26.4031963 ], [ 88.9182267, 26.4002584 ], [ 88.9184505, 26.3901174 ], [ 88.9164379, 26.3891859 ], [ 88.9163355, 26.3853518 ], [ 88.9097427, 26.3822073 ], [ 88.9090932, 26.3800318 ], [ 88.912329, 26.3802783 ], [ 88.9143212, 26.3777972 ], [ 88.9206143, 26.3785307 ], [ 88.9214021, 26.3771754 ], [ 88.9195459, 26.3768521 ], [ 88.9200779, 26.3745704 ], [ 88.913266, 26.374222 ], [ 88.9102652, 26.3704972 ], [ 88.9115818, 26.3691222 ], [ 88.9110058, 26.3680504 ], [ 88.9128171, 26.3684449 ], [ 88.9119313, 26.366105 ], [ 88.9143005, 26.365222 ], [ 88.9200794, 26.3662333 ], [ 88.9216797, 26.3627294 ], [ 88.919389, 26.3593791 ], [ 88.9207001, 26.3595476 ], [ 88.9235231, 26.3639415 ], [ 88.9260839, 26.3647422 ], [ 88.9289697, 26.3637199 ], [ 88.9280013, 26.3626691 ], [ 88.931069, 26.3595529 ], [ 88.9356185, 26.3586498 ], [ 88.9366855, 26.3569194 ], [ 88.9411726, 26.3577024 ], [ 88.9467714, 26.3556923 ], [ 88.9477919, 26.3559959 ], [ 88.9475148, 26.3598735 ], [ 88.9497628, 26.3658425 ], [ 88.9533119, 26.3659517 ], [ 88.9547507, 26.3617878 ], [ 88.9584295, 26.361681 ], [ 88.9585051, 26.3579212 ], [ 88.949072, 26.3526374 ], [ 88.9497941, 26.3490852 ], [ 88.9464913, 26.3462741 ], [ 88.9461535, 26.3438754 ], [ 88.9517756, 26.3437938 ], [ 88.9529721, 26.3462065 ], [ 88.9589722, 26.3435337 ], [ 88.9560264, 26.3412189 ], [ 88.9524634, 26.3428158 ], [ 88.9517556, 26.3425896 ], [ 88.9530569, 26.3420897 ], [ 88.9518724, 26.339306 ], [ 88.952298, 26.3323375 ], [ 88.9539084, 26.333036 ], [ 88.9541113, 26.3318966 ], [ 88.9546914, 26.3331758 ], [ 88.9568664, 26.3299742 ], [ 88.9603705, 26.3300546 ], [ 88.959478, 26.335867 ], [ 88.962918, 26.3362746 ], [ 88.9635268, 26.3382883 ], [ 88.9617202, 26.3408318 ], [ 88.9626255, 26.3454531 ], [ 88.9591499, 26.3479442 ], [ 88.9607013, 26.3490964 ], [ 88.9614106, 26.3522956 ], [ 88.963119, 26.3517992 ], [ 88.9651911, 26.3486931 ], [ 88.9667558, 26.3518159 ], [ 88.9705339, 26.3496385 ], [ 88.9726777, 26.351693 ], [ 88.9776053, 26.3481023 ], [ 88.9778192, 26.3465508 ], [ 88.9821486, 26.3474777 ], [ 88.9827685, 26.3490219 ], [ 88.9849512, 26.3489618 ], [ 88.9842236, 26.349716 ], [ 88.9851251, 26.3499146 ], [ 88.9871462, 26.3483513 ], [ 88.9877287, 26.3471456 ], [ 88.9861233, 26.3470759 ], [ 88.9871551, 26.3424294 ], [ 88.9900927, 26.3388306 ], [ 88.9872696, 26.3379826 ], [ 88.9887628, 26.3391169 ], [ 88.9859874, 26.3398159 ], [ 88.9866491, 26.341381 ], [ 88.9818079, 26.3409965 ], [ 88.9845994, 26.3366613 ], [ 88.9848568, 26.3339492 ], [ 88.9870886, 26.3320613 ], [ 88.9885384, 26.3323246 ], [ 88.9906062, 26.3353526 ], [ 88.9926671, 26.3348098 ], [ 88.99202, 26.3326992 ], [ 88.9986412, 26.3318249 ], [ 89.000968, 26.3297475 ], [ 88.9999127, 26.3254985 ], [ 88.9960223, 26.3209006 ], [ 88.9948078, 26.3221668 ], [ 88.9915887, 26.3217942 ], [ 88.9940827, 26.3198784 ], [ 88.9949564, 26.3168287 ], [ 88.997138, 26.3163795 ], [ 88.9971183, 26.3137373 ], [ 88.9949262, 26.3132325 ], [ 88.9933663, 26.3149268 ], [ 88.9846204, 26.3179573 ], [ 88.9841351, 26.3163205 ], [ 88.9858678, 26.3145867 ], [ 88.9826901, 26.3094022 ], [ 88.9849418, 26.3005863 ], [ 88.9926253, 26.3006222 ], [ 88.9944408, 26.2991105 ], [ 88.9948983, 26.2966724 ], [ 88.9953719, 26.2999712 ], [ 88.9960574, 26.2969442 ], [ 88.9964801, 26.2996857 ], [ 88.997562, 26.2996316 ], [ 88.9953851, 26.2935184 ], [ 88.9957383, 26.2902378 ], [ 89.0000269, 26.2906778 ], [ 89.0012155, 26.2951415 ], [ 89.0049514, 26.2978011 ], [ 89.004377, 26.3036554 ], [ 89.0065906, 26.3027143 ], [ 89.0068517, 26.30439 ], [ 89.0084519, 26.3016096 ], [ 89.0104387, 26.3012752 ], [ 89.0105532, 26.2986862 ], [ 89.013051, 26.2980073 ], [ 89.0123576, 26.2962056 ], [ 89.0136455, 26.2952807 ], [ 89.0121749, 26.294093 ], [ 89.0123534, 26.2924756 ], [ 89.0166614, 26.2914085 ], [ 89.0167932, 26.2894892 ], [ 89.0180385, 26.2897102 ], [ 89.0200679, 26.2936372 ], [ 89.0160498, 26.2994982 ], [ 89.0146372, 26.2989193 ], [ 89.0146245, 26.2997551 ], [ 89.0163554, 26.3013954 ], [ 89.0154975, 26.3030085 ], [ 89.020102, 26.3050024 ], [ 89.018747, 26.3071066 ], [ 89.0204345, 26.3072919 ], [ 89.0211569, 26.3090818 ], [ 89.0217751, 26.3074246 ], [ 89.026239, 26.3069267 ], [ 89.0266103, 26.3054016 ], [ 89.0213074, 26.2981446 ], [ 89.0233298, 26.2933018 ], [ 89.0215655, 26.2928595 ], [ 89.0197478, 26.2898106 ], [ 89.0216394, 26.2875671 ], [ 89.0247296, 26.288067 ], [ 89.0248176, 26.286244 ], [ 89.0270949, 26.2855368 ], [ 89.0275188, 26.2824682 ], [ 89.0314623, 26.2855158 ], [ 89.037122, 26.2831195 ], [ 89.0387157, 26.2837212 ], [ 89.0385514, 26.2854741 ], [ 89.0407733, 26.285767 ], [ 89.0406939, 26.2839352 ], [ 89.0374064, 26.2824105 ], [ 89.0403428, 26.2807378 ], [ 89.0380319, 26.277709 ], [ 89.0401972, 26.2780942 ], [ 89.03988, 26.2765235 ], [ 89.0451238, 26.2751364 ], [ 89.0446442, 26.279329 ], [ 89.0431948, 26.2799607 ], [ 89.0464604, 26.2810177 ], [ 89.0482687, 26.2799941 ], [ 89.048979, 26.2870303 ], [ 89.0505362, 26.2884468 ], [ 89.0477813, 26.2883321 ], [ 89.0468125, 26.2825229 ], [ 89.0459253, 26.2840955 ], [ 89.0448069, 26.283576 ], [ 89.0463151, 26.2894506 ], [ 89.0424847, 26.2898272 ], [ 89.0453465, 26.2910283 ], [ 89.0458687, 26.2953511 ], [ 89.0523311, 26.2960232 ], [ 89.0531007, 26.2919947 ], [ 89.0564844, 26.2938828 ], [ 89.0594891, 26.2933344 ], [ 89.0612187, 26.2903553 ], [ 89.0602204, 26.2876251 ], [ 89.0582523, 26.2871951 ], [ 89.0575067, 26.2855753 ], [ 89.0619927, 26.2830275 ], [ 89.0624775, 26.278661 ], [ 89.0578924, 26.2771772 ], [ 89.0543696, 26.2780714 ], [ 89.0538886, 26.277141 ], [ 89.0593268, 26.2760676 ], [ 89.0598811, 26.2737415 ], [ 89.0633396, 26.2703659 ], [ 89.0611672, 26.2688285 ], [ 89.0611455, 26.2639656 ], [ 89.0629059, 26.2626757 ], [ 89.063313, 26.2598777 ], [ 89.0606543, 26.2589104 ], [ 89.0601812, 26.2567759 ], [ 89.0628446, 26.2557867 ], [ 89.0626424, 26.2537515 ], [ 89.0589954, 26.2541357 ], [ 89.0555963, 26.2572294 ], [ 89.0521611, 26.2560049 ], [ 89.0512303, 26.2526813 ], [ 89.0483595, 26.2497885 ], [ 89.0480528, 26.2460064 ], [ 89.0499932, 26.2453746 ], [ 89.0495228, 26.2431799 ], [ 89.0510886, 26.2424743 ], [ 89.0506857, 26.2416534 ], [ 89.0460242, 26.2406561 ], [ 89.0373707, 26.2457222 ], [ 89.0367314, 26.2423833 ], [ 89.0353611, 26.2425335 ], [ 89.0341453, 26.2429237 ], [ 89.0330327, 26.2466974 ], [ 89.028122, 26.2475209 ], [ 89.0273379, 26.2440696 ], [ 89.0214795, 26.2449977 ], [ 89.0186796, 26.242304 ], [ 89.0158997, 26.2446275 ], [ 88.9997763, 26.2443452 ], [ 88.9930321, 26.2454638 ], [ 88.9791696, 26.2447887 ], [ 88.9786736, 26.2426581 ], [ 88.9720254, 26.2416249 ], [ 88.970754, 26.2397327 ], [ 88.9658085, 26.2388006 ], [ 88.9573168, 26.2402965 ], [ 88.9570413, 26.2425797 ], [ 88.9530777, 26.2422144 ], [ 88.9512253, 26.2470392 ], [ 88.9442801, 26.2544683 ], [ 88.9402407, 26.2635169 ], [ 88.9349499, 26.2677327 ], [ 88.931131, 26.2774427 ], [ 88.9262808, 26.2837781 ], [ 88.9198972, 26.2844713 ], [ 88.9181421, 26.2879342 ], [ 88.9090293, 26.2872489 ], [ 88.898269, 26.2886439 ], [ 88.8759338, 26.2865789 ], [ 88.870432, 26.2838535 ], [ 88.8664112, 26.2794039 ], [ 88.8671592, 26.2762139 ], [ 88.8662337, 26.2748956 ], [ 88.8613851, 26.2726633 ], [ 88.8645864, 26.2687297 ], [ 88.861385, 26.2638267 ], [ 88.8614689, 26.2519991 ], [ 88.8673364, 26.2497336 ], [ 88.868154, 26.245646 ], [ 88.8716262, 26.2449509 ], [ 88.8722216, 26.2399071 ], [ 88.8776917, 26.2421948 ], [ 88.8764579, 26.2371901 ], [ 88.8778646, 26.233378 ], [ 88.8728874, 26.2329007 ], [ 88.8715483, 26.234026 ], [ 88.8598245, 26.2314196 ], [ 88.8542998, 26.2350357 ], [ 88.851898, 26.2351001 ], [ 88.8437945, 26.2325286 ], [ 88.8439253, 26.2305658 ], [ 88.8423055, 26.230579 ], [ 88.8382811, 26.2322535 ], [ 88.8381165, 26.238058 ], [ 88.8319578, 26.2382433 ], [ 88.8310584, 26.2401813 ], [ 88.8276671, 26.2396397 ], [ 88.8267296, 26.2436963 ], [ 88.8296346, 26.2462202 ], [ 88.8291634, 26.2497064 ], [ 88.8234841, 26.2485042 ], [ 88.8241829, 26.2513933 ], [ 88.8232431, 26.2533434 ], [ 88.819569, 26.2537942 ], [ 88.8185053, 26.2552306 ], [ 88.8139822, 26.2542509 ], [ 88.8129421, 26.2559902 ], [ 88.8121669, 26.2647675 ], [ 88.8143839, 26.2651538 ], [ 88.814994, 26.2689881 ], [ 88.8138385, 26.2733688 ], [ 88.8104385, 26.2740718 ], [ 88.8100187, 26.2768111 ], [ 88.8113253, 26.2773423 ], [ 88.8132779, 26.2884502 ], [ 88.8191101, 26.2944942 ], [ 88.813155, 26.2972423 ], [ 88.8019325, 26.3062079 ], [ 88.7935644, 26.30997 ], [ 88.7828121, 26.3031626 ], [ 88.7762423, 26.3036221 ], [ 88.7719012, 26.3005563 ], [ 88.7643177, 26.2989797 ], [ 88.7598599, 26.3002071 ], [ 88.7598658, 26.3042808 ], [ 88.7566403, 26.3106712 ], [ 88.7579041, 26.3130976 ], [ 88.7565637, 26.3212604 ], [ 88.7569257, 26.3247086 ], [ 88.759117, 26.3269533 ], [ 88.7613196, 26.3328626 ], [ 88.7597847, 26.3352983 ], [ 88.7541577, 26.3377938 ], [ 88.7547381, 26.3430022 ], [ 88.750807, 26.3469116 ], [ 88.7480029, 26.3552129 ], [ 88.749229, 26.3608641 ], [ 88.7534538, 26.3639773 ], [ 88.7536964, 26.36664 ], [ 88.7561796, 26.3684112 ], [ 88.757374, 26.3760888 ], [ 88.7693734, 26.3925161 ], [ 88.7696921, 26.3947186 ], [ 88.7739658, 26.3954483 ], [ 88.7751305, 26.3986849 ], [ 88.7839609, 26.3979147 ], [ 88.7860745, 26.3929066 ], [ 88.7894972, 26.3925253 ], [ 88.7892501, 26.3880257 ], [ 88.7915026, 26.384349 ], [ 88.7987736, 26.3757966 ], [ 88.8005423, 26.3755179 ], [ 88.8034731, 26.3759209 ], [ 88.8074092, 26.3793437 ], [ 88.8098753, 26.3775396 ], [ 88.811869, 26.3783484 ], [ 88.8198607, 26.3774357 ], [ 88.8335028, 26.3800715 ], [ 88.8356068, 26.3809702 ], [ 88.839483, 26.3868469 ], [ 88.8439432, 26.3845195 ], [ 88.8504918, 26.3850578 ], [ 88.8531472, 26.3864166 ], [ 88.8525151, 26.390266 ], [ 88.8549648, 26.3940392 ], [ 88.8592142, 26.3929747 ], [ 88.86188, 26.3937107 ], [ 88.8649168, 26.3922397 ], [ 88.8668409, 26.392989 ], [ 88.8684192, 26.3943745 ], [ 88.8698471, 26.3993568 ], [ 88.8795138, 26.404258 ], [ 88.8798096, 26.4074305 ], [ 88.8816288, 26.408473 ], [ 88.8831579, 26.4153325 ], [ 88.8849522, 26.4166051 ], [ 88.8836647, 26.4255587 ], [ 88.8871684, 26.4263933 ], [ 88.8882464, 26.4297373 ], [ 88.8872286, 26.4315859 ], [ 88.8897355, 26.4328375 ], [ 88.8872848, 26.4381945 ], [ 88.8990251, 26.4383015 ], [ 88.9040864, 26.4422663 ], [ 88.9084431, 26.4520774 ], [ 88.9125138, 26.4514537 ], [ 88.9144143, 26.4525905 ], [ 88.9133077, 26.4568193 ], [ 88.9159155, 26.4589261 ], [ 88.9139454, 26.4597706 ], [ 88.9173051, 26.4606271 ], [ 88.9126876, 26.4617159 ], [ 88.912528, 26.4646087 ], [ 88.9103119, 26.4651102 ], [ 88.9101778, 26.4694245 ], [ 88.9073097, 26.4696178 ], [ 88.9047889, 26.4658049 ], [ 88.8992972, 26.4678909 ], [ 88.8992872, 26.470635 ], [ 88.9020686, 26.4726695 ], [ 88.9057062, 26.4713985 ], [ 88.9056659, 26.4727696 ], [ 88.903575, 26.4732754 ], [ 88.9044784, 26.476511 ], [ 88.9083898, 26.4768351 ], [ 88.9108007, 26.4733821 ], [ 88.9152276, 26.4708944 ], [ 88.9263142, 26.4706833 ], [ 88.9258919, 26.4679396 ], [ 88.9275606, 26.4656692 ], [ 88.936992, 26.4655075 ], [ 88.9403753, 26.4724468 ], [ 88.9464295, 26.4753547 ], [ 88.9396554, 26.4853358 ], [ 88.9434085, 26.4973337 ], [ 88.9431385, 26.4989089 ], [ 88.9402324, 26.500471 ], [ 88.9400118, 26.5042571 ], [ 88.9418886, 26.5058538 ], [ 88.9526876, 26.505862 ], [ 88.9548157, 26.5076524 ], [ 88.9548578, 26.510667 ], [ 88.9567093, 26.5116181 ], [ 88.9569877, 26.515138 ], [ 88.9621718, 26.5249414 ], [ 88.9671833, 26.5248074 ], [ 88.9705598, 26.5312901 ], [ 88.9675706, 26.5387111 ], [ 88.9691894, 26.542889 ], [ 88.9690317, 26.546364 ], [ 88.9856246, 26.5354447 ] ] ] ] } }
]
}
