{
"type": "FeatureCollection",
"name": "1910",
"crs": { "type": "name", "properties": { "name": "urn:ogc:def:crs:OGC:1.3:CRS84" } },
"features": [
{ "type": "Feature", "properties": { "code": "1910", "name": "Nadia", "type": "district" }, "geometry": { "type": "Polygon", "coordinates": [ [ [ 88.7009887, 24.0942217 ], [ 88.7040094, 24.0896876 ], [ 88.7236116, 24.0727976 ], [ 88.723451, 24.0686731 ], [ 88.7254583, 24.065437 ], [ 88.7280986, 24.064087 ], [ 88.7341432, 24.0656982 ], [ 88.7416313, 24.0571224 ], [ 88.7424072, 24.0540667 ], [ 88.7411136, 24.0485525 ], [ 88.7246403, 24.0477044 ], [ 88.7247544, 24.041612 ], [ 88.7418451, 24.035248 ], [ 88.7420357, 24.0328503 ], [ 88.7574906, 24.032095 ], [ 88.7489881, 24.0221555 ], [ 88.734683, 24.0174905 ], [ 88.7316372, 24.0118949 ], [ 88.7305425, 24.0037982 ], [ 88.7285133, 23.9987643 ], [ 88.7290455, 23.9961136 ], [ 88.7328991, 23.994825 ], [ 88.7364543, 23.9956434 ], [ 88.7416796, 24.0031706 ], [ 88.7450221, 24.0055287 ], [ 88.7463836, 24.0044589 ], [ 88.7525877, 24.0066358 ], [ 88.7601949, 24.0060582 ], [ 88.7621114, 24.0037367 ], [ 88.7624856, 23.9965732 ], [ 88.768742, 23.9852063 ], [ 88.7687113, 23.9814625 ], [ 88.7506091, 23.9852287 ], [ 88.7441714, 23.9851982 ], [ 88.7382391, 23.9829861 ], [ 88.7362682, 23.9790722 ], [ 88.7370539, 23.9704281 ], [ 88.7357315, 23.9634345 ], [ 88.7324861, 23.9611272 ], [ 88.735118, 23.9587492 ], [ 88.7335804, 23.9570838 ], [ 88.737469, 23.9533639 ], [ 88.7402547, 23.9539216 ], [ 88.7424901, 23.9510304 ], [ 88.7388848, 23.9492523 ], [ 88.7398968, 23.94672 ], [ 88.7390201, 23.9458512 ], [ 88.7415588, 23.9389132 ], [ 88.7402888, 23.9378241 ], [ 88.7434265, 23.9301698 ], [ 88.7425378, 23.9295441 ], [ 88.7418773, 23.931163 ], [ 88.7402713, 23.9302155 ], [ 88.7362858, 23.9333271 ], [ 88.7350179, 23.9325928 ], [ 88.7371643, 23.9290474 ], [ 88.73419, 23.9282487 ], [ 88.7355523, 23.922925 ], [ 88.7330429, 23.9222174 ], [ 88.7354421, 23.9146187 ], [ 88.7335887, 23.9133547 ], [ 88.7334035, 23.9109751 ], [ 88.7298237, 23.910908 ], [ 88.7305851, 23.9136149 ], [ 88.7248785, 23.9128317 ], [ 88.7229493, 23.9163169 ], [ 88.7149945, 23.9160345 ], [ 88.7150724, 23.914114 ], [ 88.7129999, 23.9125022 ], [ 88.7064168, 23.9157866 ], [ 88.7047294, 23.9125735 ], [ 88.7009162, 23.9122869 ], [ 88.6993271, 23.9101814 ], [ 88.699739, 23.9080298 ], [ 88.7017567, 23.9082064 ], [ 88.7013615, 23.9064515 ], [ 88.7038573, 23.9071888 ], [ 88.7029711, 23.9060679 ], [ 88.7006611, 23.9064158 ], [ 88.7003109, 23.9052236 ], [ 88.7013814, 23.9046067 ], [ 88.7011959, 23.9023208 ], [ 88.7023998, 23.9035149 ], [ 88.703286, 23.8999033 ], [ 88.7044164, 23.9008215 ], [ 88.7039757, 23.9021177 ], [ 88.7055499, 23.9020501 ], [ 88.7043386, 23.8991749 ], [ 88.700757, 23.9010809 ], [ 88.700418, 23.8988463 ], [ 88.6883874, 23.9014828 ], [ 88.682935, 23.8886232 ], [ 88.6754008, 23.8838676 ], [ 88.6642828, 23.8824223 ], [ 88.6634212, 23.8779981 ], [ 88.6675859, 23.869445 ], [ 88.660993, 23.870695 ], [ 88.6606466, 23.8686243 ], [ 88.6546217, 23.8685789 ], [ 88.6544344, 23.8660178 ], [ 88.6534916, 23.8654701 ], [ 88.6539875, 23.8672494 ], [ 88.6515113, 23.86657 ], [ 88.6460933, 23.869242 ], [ 88.6418914, 23.8682416 ], [ 88.6377321, 23.8713936 ], [ 88.6322914, 23.8664918 ], [ 88.6264117, 23.8649416 ], [ 88.6239644, 23.8678757 ], [ 88.6255245, 23.8723597 ], [ 88.624818, 23.8751057 ], [ 88.6223641, 23.8763704 ], [ 88.616439, 23.8765121 ], [ 88.608986, 23.8727494 ], [ 88.6099544, 23.86521 ], [ 88.6080483, 23.8623493 ], [ 88.5990986, 23.8694827 ], [ 88.5938168, 23.8691553 ], [ 88.5874895, 23.8714524 ], [ 88.5862207, 23.8693214 ], [ 88.5843046, 23.8695115 ], [ 88.5847051, 23.8661837 ], [ 88.5826933, 23.8667375 ], [ 88.5824686, 23.8625038 ], [ 88.5756406, 23.8615517 ], [ 88.5779824, 23.8577071 ], [ 88.5765562, 23.8548386 ], [ 88.5783818, 23.8506713 ], [ 88.5842703, 23.8550496 ], [ 88.5910928, 23.8530152 ], [ 88.5915182, 23.8511248 ], [ 88.5885841, 23.8482913 ], [ 88.5871997, 23.843923 ], [ 88.5869509, 23.8299604 ], [ 88.5887486, 23.8275396 ], [ 88.5996629, 23.8218332 ], [ 88.6017386, 23.8190369 ], [ 88.6019906, 23.8163158 ], [ 88.598457, 23.8107973 ], [ 88.5952381, 23.8107196 ], [ 88.5944583, 23.8088506 ], [ 88.5935196, 23.8095258 ], [ 88.5940567, 23.8112105 ], [ 88.5904734, 23.8108538 ], [ 88.5895163, 23.8136078 ], [ 88.5851471, 23.8136455 ], [ 88.5847532, 23.8122916 ], [ 88.5867201, 23.8110864 ], [ 88.5861637, 23.812759 ], [ 88.5887598, 23.8127846 ], [ 88.587612, 23.8104698 ], [ 88.5912192, 23.8079315 ], [ 88.5931553, 23.8079593 ], [ 88.5931326, 23.8064473 ], [ 88.5960482, 23.8063915 ], [ 88.5962021, 23.8048889 ], [ 88.5923861, 23.8044776 ], [ 88.5929458, 23.7992427 ], [ 88.5916208, 23.7978263 ], [ 88.5873637, 23.7965887 ], [ 88.5816436, 23.7972788 ], [ 88.5809633, 23.7950891 ], [ 88.5827043, 23.7911435 ], [ 88.5781268, 23.7865761 ], [ 88.5712656, 23.7830278 ], [ 88.5593037, 23.7859786 ], [ 88.5560353, 23.7842114 ], [ 88.5607356, 23.7840223 ], [ 88.5600539, 23.7807929 ], [ 88.5655407, 23.7772771 ], [ 88.5715996, 23.7750763 ], [ 88.5795653, 23.7746965 ], [ 88.5803578, 23.7582297 ], [ 88.5778153, 23.7574546 ], [ 88.5741334, 23.7496007 ], [ 88.570082, 23.7480847 ], [ 88.5702622, 23.7464286 ], [ 88.5724116, 23.7475842 ], [ 88.5742889, 23.739684 ], [ 88.5721351, 23.7391491 ], [ 88.5717336, 23.7344876 ], [ 88.5742898, 23.7337095 ], [ 88.5736704, 23.7380996 ], [ 88.5752665, 23.7382415 ], [ 88.5766028, 23.7329666 ], [ 88.573687, 23.7329722 ], [ 88.5742336, 23.7288773 ], [ 88.5710711, 23.7289558 ], [ 88.5690388, 23.7275657 ], [ 88.5684757, 23.7188527 ], [ 88.5672724, 23.7190599 ], [ 88.5678835, 23.7148217 ], [ 88.5647287, 23.7130675 ], [ 88.5645063, 23.7113291 ], [ 88.567874, 23.701284 ], [ 88.5671074, 23.7000359 ], [ 88.5687495, 23.6893001 ], [ 88.5677635, 23.689297 ], [ 88.567529, 23.6861766 ], [ 88.5728961, 23.6850759 ], [ 88.5740757, 23.6809725 ], [ 88.5744104, 23.675225 ], [ 88.5722098, 23.6737462 ], [ 88.5738206, 23.6669409 ], [ 88.5694337, 23.6660618 ], [ 88.5703143, 23.6612033 ], [ 88.5662639, 23.6568479 ], [ 88.5627493, 23.6576428 ], [ 88.558208, 23.6491543 ], [ 88.5596878, 23.6491782 ], [ 88.5605301, 23.646873 ], [ 88.5633671, 23.6454584 ], [ 88.5621949, 23.6371502 ], [ 88.5710276, 23.6361189 ], [ 88.5755562, 23.6387598 ], [ 88.586273, 23.6391346 ], [ 88.5904813, 23.641217 ], [ 88.5937649, 23.6408102 ], [ 88.5926411, 23.6349436 ], [ 88.5942626, 23.6315672 ], [ 88.5929812, 23.6313433 ], [ 88.5928198, 23.6292818 ], [ 88.5949814, 23.6277257 ], [ 88.5925838, 23.6272879 ], [ 88.5924711, 23.6255558 ], [ 88.5940885, 23.6175954 ], [ 88.587771, 23.6155197 ], [ 88.5853167, 23.6165436 ], [ 88.5848265, 23.6131466 ], [ 88.5812631, 23.609719 ], [ 88.5803251, 23.6028816 ], [ 88.5836953, 23.6039801 ], [ 88.5848388, 23.6029706 ], [ 88.5901048, 23.6034127 ], [ 88.5971858, 23.6019461 ], [ 88.596537, 23.60447 ], [ 88.5978979, 23.6062727 ], [ 88.6062728, 23.6103565 ], [ 88.6015066, 23.6068517 ], [ 88.6090936, 23.6043905 ], [ 88.6083843, 23.6018587 ], [ 88.6072697, 23.6029565 ], [ 88.6051754, 23.6017339 ], [ 88.6056881, 23.6001472 ], [ 88.6093918, 23.600738 ], [ 88.613793, 23.6033552 ], [ 88.6181653, 23.6017567 ], [ 88.6249384, 23.6068776 ], [ 88.6275805, 23.6065739 ], [ 88.629452, 23.6090894 ], [ 88.6318089, 23.6081955 ], [ 88.633173, 23.6092405 ], [ 88.6370968, 23.606737 ], [ 88.6382309, 23.6107437 ], [ 88.6405321, 23.6110896 ], [ 88.6412861, 23.6089236 ], [ 88.6455316, 23.6092839 ], [ 88.645759, 23.6080816 ], [ 88.6436329, 23.6069399 ], [ 88.642466, 23.6008185 ], [ 88.6382676, 23.5975808 ], [ 88.6393999, 23.5952202 ], [ 88.6387632, 23.5907351 ], [ 88.6441009, 23.5915396 ], [ 88.6456978, 23.5894173 ], [ 88.6437645, 23.5893288 ], [ 88.6505623, 23.5853683 ], [ 88.6508957, 23.5836019 ], [ 88.648308, 23.580428 ], [ 88.6551602, 23.5630168 ], [ 88.653581, 23.5597649 ], [ 88.6547996, 23.5578537 ], [ 88.6542532, 23.5561534 ], [ 88.6599668, 23.5529313 ], [ 88.6597802, 23.5493657 ], [ 88.6633407, 23.5473465 ], [ 88.6677296, 23.545805 ], [ 88.6737086, 23.5488327 ], [ 88.6783366, 23.5458304 ], [ 88.6861794, 23.5378049 ], [ 88.6861242, 23.5329096 ], [ 88.6842318, 23.5293302 ], [ 88.6851506, 23.528912 ], [ 88.6879067, 23.5313717 ], [ 88.6911651, 23.5312648 ], [ 88.6917239, 23.5245363 ], [ 88.6964258, 23.525665 ], [ 88.6957533, 23.5173114 ], [ 88.6994725, 23.5155269 ], [ 88.7061918, 23.5170479 ], [ 88.7124882, 23.509591 ], [ 88.714921, 23.5085316 ], [ 88.7187937, 23.511934 ], [ 88.7242789, 23.5125285 ], [ 88.730397, 23.50373 ], [ 88.7311076, 23.4987217 ], [ 88.729571, 23.4964014 ], [ 88.7308762, 23.4948802 ], [ 88.7319431, 23.4958664 ], [ 88.742543, 23.4868867 ], [ 88.7440385, 23.483419 ], [ 88.7414215, 23.4796798 ], [ 88.7434999, 23.4813169 ], [ 88.7433506, 23.4791447 ], [ 88.7463015, 23.4829367 ], [ 88.7536675, 23.4789567 ], [ 88.7609057, 23.4783856 ], [ 88.7617146, 23.4802463 ], [ 88.7568318, 23.4861814 ], [ 88.7578744, 23.4888578 ], [ 88.7606789, 23.4899193 ], [ 88.7632097, 23.4887899 ], [ 88.767896, 23.4808641 ], [ 88.7749081, 23.4798512 ], [ 88.775011, 23.4823887 ], [ 88.7713184, 23.4869158 ], [ 88.7685019, 23.4882778 ], [ 88.7682505, 23.4901307 ], [ 88.772039, 23.497785 ], [ 88.7839784, 23.5023677 ], [ 88.7863777, 23.504941 ], [ 88.7859515, 23.5072401 ], [ 88.7876497, 23.5059946 ], [ 88.7835355, 23.5008011 ], [ 88.784499, 23.4971727 ], [ 88.7873049, 23.4974993 ], [ 88.7897693, 23.5017264 ], [ 88.7927476, 23.5028665 ], [ 88.800787, 23.4971241 ], [ 88.7979538, 23.4954953 ], [ 88.7983086, 23.4927034 ], [ 88.8005532, 23.4913944 ], [ 88.7984974, 23.4913264 ], [ 88.7965509, 23.4868726 ], [ 88.7945554, 23.4855793 ], [ 88.8014132, 23.4858098 ], [ 88.7995223, 23.485153 ], [ 88.7993592, 23.482179 ], [ 88.7941165, 23.481009 ], [ 88.7897785, 23.4729857 ], [ 88.7908975, 23.4718969 ], [ 88.7873122, 23.4690822 ], [ 88.7879823, 23.46688 ], [ 88.7895721, 23.4666836 ], [ 88.7883487, 23.46586 ], [ 88.7898968, 23.4657386 ], [ 88.7891935, 23.4642786 ], [ 88.7909939, 23.4646063 ], [ 88.7919569, 23.4634621 ], [ 88.7904663, 23.46213 ], [ 88.7904902, 23.4601877 ], [ 88.792847, 23.4610468 ], [ 88.7895335, 23.4590967 ], [ 88.7908761, 23.4556299 ], [ 88.7928321, 23.4553763 ], [ 88.7906157, 23.4534811 ], [ 88.7919403, 23.4512929 ], [ 88.7900053, 23.4491239 ], [ 88.7908017, 23.4478784 ], [ 88.792339, 23.4491479 ], [ 88.7944654, 23.4474839 ], [ 88.7933252, 23.4441431 ], [ 88.7948859, 23.4430653 ], [ 88.7930445, 23.4422024 ], [ 88.7925444, 23.4438347 ], [ 88.7899142, 23.4439198 ], [ 88.7904144, 23.4413906 ], [ 88.7887345, 23.441401 ], [ 88.7867572, 23.4420454 ], [ 88.7893758, 23.4426629 ], [ 88.7893287, 23.444233 ], [ 88.7875733, 23.4446354 ], [ 88.7873315, 23.443286 ], [ 88.7850677, 23.4447958 ], [ 88.7831894, 23.441853 ], [ 88.7842331, 23.4415518 ], [ 88.7843369, 23.4383988 ], [ 88.7823078, 23.4403682 ], [ 88.7810831, 23.4387697 ], [ 88.7827959, 23.4372112 ], [ 88.7795581, 23.4383799 ], [ 88.7791209, 23.4372904 ], [ 88.7788271, 23.4386321 ], [ 88.7822342, 23.441313 ], [ 88.7784897, 23.441916 ], [ 88.7783128, 23.4435764 ], [ 88.7733324, 23.4440454 ], [ 88.7718156, 23.4466564 ], [ 88.7732757, 23.4483162 ], [ 88.7720271, 23.4488035 ], [ 88.7703181, 23.4462529 ], [ 88.7687159, 23.4484277 ], [ 88.7643144, 23.4482056 ], [ 88.7647967, 23.4464907 ], [ 88.7629621, 23.4458541 ], [ 88.7643846, 23.444376 ], [ 88.7631664, 23.4427606 ], [ 88.7643559, 23.4424239 ], [ 88.7621087, 23.4388803 ], [ 88.7610134, 23.4330535 ], [ 88.7622722, 23.43157 ], [ 88.7596561, 23.4290522 ], [ 88.7612966, 23.426592 ], [ 88.7598698, 23.4242636 ], [ 88.7580647, 23.4253857 ], [ 88.7544448, 23.416384 ], [ 88.7545796, 23.4143067 ], [ 88.7584678, 23.4131222 ], [ 88.757989, 23.4118015 ], [ 88.758993, 23.4105403 ], [ 88.7603929, 23.4112866 ], [ 88.7612302, 23.4084278 ], [ 88.7540829, 23.4025282 ], [ 88.751133, 23.4027586 ], [ 88.7492615, 23.4005539 ], [ 88.7499449, 23.3967327 ], [ 88.7543798, 23.3948684 ], [ 88.753944, 23.3922112 ], [ 88.7525713, 23.3912991 ], [ 88.7529978, 23.3894155 ], [ 88.7563557, 23.3884111 ], [ 88.7596032, 23.3845628 ], [ 88.7603003, 23.3867315 ], [ 88.7628939, 23.3872085 ], [ 88.7613274, 23.3862774 ], [ 88.7624729, 23.3844131 ], [ 88.7613247, 23.3842327 ], [ 88.7608741, 23.3806331 ], [ 88.7592041, 23.3805705 ], [ 88.7587674, 23.3793128 ], [ 88.7590667, 23.3768267 ], [ 88.7602881, 23.3764033 ], [ 88.7585416, 23.3741118 ], [ 88.7636902, 23.3720106 ], [ 88.7654345, 23.3678839 ], [ 88.7613695, 23.3621944 ], [ 88.7581598, 23.3599375 ], [ 88.7510141, 23.362327 ], [ 88.7477132, 23.362002 ], [ 88.7457249, 23.3590599 ], [ 88.7462095, 23.3562854 ], [ 88.7437499, 23.3545104 ], [ 88.746506, 23.3505902 ], [ 88.7459528, 23.3490074 ], [ 88.741497, 23.3493098 ], [ 88.7343446, 23.3532783 ], [ 88.7320321, 23.3519866 ], [ 88.7331757, 23.3470441 ], [ 88.7369351, 23.3461485 ], [ 88.7390519, 23.34345 ], [ 88.7352635, 23.3380603 ], [ 88.7348136, 23.3329809 ], [ 88.7326628, 23.3280703 ], [ 88.7437039, 23.3279145 ], [ 88.7456206, 23.32432 ], [ 88.7496652, 23.3214719 ], [ 88.7458836, 23.3145399 ], [ 88.7452985, 23.3078202 ], [ 88.7423616, 23.3054975 ], [ 88.7392646, 23.3048915 ], [ 88.7318006, 23.308033 ], [ 88.7286962, 23.3126422 ], [ 88.7316391, 23.318901 ], [ 88.730417, 23.3195825 ], [ 88.7247582, 23.3179626 ], [ 88.7269528, 23.3141605 ], [ 88.7274071, 23.3029107 ], [ 88.7271271, 23.3004362 ], [ 88.7254088, 23.2986918 ], [ 88.7190045, 23.2978977 ], [ 88.7199512, 23.3032576 ], [ 88.7145997, 23.3058388 ], [ 88.7067899, 23.3039927 ], [ 88.7073922, 23.308232 ], [ 88.7126419, 23.3107449 ], [ 88.7123584, 23.3121698 ], [ 88.7103451, 23.3128541 ], [ 88.7087291, 23.3127062 ], [ 88.6962814, 23.3019982 ], [ 88.6976374, 23.2917399 ], [ 88.705308, 23.2917591 ], [ 88.7089547, 23.2897373 ], [ 88.7118958, 23.2853674 ], [ 88.7113799, 23.2782157 ], [ 88.7143659, 23.2753135 ], [ 88.7232025, 23.2732872 ], [ 88.7244099, 23.2716213 ], [ 88.7188942, 23.2547982 ], [ 88.7251896, 23.2533162 ], [ 88.7348387, 23.2475033 ], [ 88.7473345, 23.2439542 ], [ 88.7518851, 23.2401893 ], [ 88.7542337, 23.2356983 ], [ 88.7473917, 23.2339952 ], [ 88.7380072, 23.2345349 ], [ 88.7339141, 23.2357658 ], [ 88.7302624, 23.2392627 ], [ 88.7229731, 23.2394615 ], [ 88.7204515, 23.2386413 ], [ 88.7209518, 23.2344648 ], [ 88.7198423, 23.2336347 ], [ 88.7131129, 23.2379728 ], [ 88.7081749, 23.2321107 ], [ 88.7112195, 23.2259283 ], [ 88.711056, 23.2223663 ], [ 88.7022053, 23.2154089 ], [ 88.7038212, 23.2138234 ], [ 88.712903, 23.2155434 ], [ 88.7164042, 23.2136949 ], [ 88.7182189, 23.2102671 ], [ 88.7144848, 23.2089521 ], [ 88.7158426, 23.2065663 ], [ 88.7157, 23.190349 ], [ 88.7195706, 23.1871232 ], [ 88.7190559, 23.1842385 ], [ 88.7179387, 23.1834498 ], [ 88.716634, 23.1848043 ], [ 88.7153386, 23.1828998 ], [ 88.7151568, 23.1812204 ], [ 88.7159626, 23.1814186 ], [ 88.7138061, 23.1768733 ], [ 88.7146256, 23.1756268 ], [ 88.7166311, 23.18061 ], [ 88.7161051, 23.1753911 ], [ 88.7174621, 23.174519 ], [ 88.7121785, 23.1747432 ], [ 88.7112389, 23.1715336 ], [ 88.7092421, 23.1723339 ], [ 88.7121839, 23.1679123 ], [ 88.7089895, 23.1665731 ], [ 88.7066373, 23.1688271 ], [ 88.705069, 23.1673245 ], [ 88.7001185, 23.1690109 ], [ 88.6973188, 23.1658337 ], [ 88.6974486, 23.1621361 ], [ 88.6960082, 23.1620148 ], [ 88.6972867, 23.1604521 ], [ 88.6970105, 23.1573391 ], [ 88.6939499, 23.1570042 ], [ 88.6953215, 23.1560736 ], [ 88.694847, 23.1542813 ], [ 88.696121, 23.1537841 ], [ 88.6959103, 23.1520054 ], [ 88.7047625, 23.1357567 ], [ 88.7034638, 23.1355136 ], [ 88.7020067, 23.1313516 ], [ 88.6998187, 23.1296369 ], [ 88.700247, 23.1271852 ], [ 88.6969658, 23.1258684 ], [ 88.6930138, 23.1201227 ], [ 88.6952914, 23.1162117 ], [ 88.6945514, 23.1103157 ], [ 88.6903188, 23.1085476 ], [ 88.6834417, 23.1089701 ], [ 88.6828115, 23.1075797 ], [ 88.6858221, 23.1057005 ], [ 88.681182, 23.0973948 ], [ 88.6742314, 23.0952253 ], [ 88.6742066, 23.0941056 ], [ 88.6772349, 23.0922775 ], [ 88.68157, 23.079457 ], [ 88.6829555, 23.0783955 ], [ 88.6828981, 23.0693883 ], [ 88.6842598, 23.0702095 ], [ 88.684747, 23.0684123 ], [ 88.6869326, 23.0674904 ], [ 88.693486, 23.0680838 ], [ 88.6956362, 23.0651166 ], [ 88.6932937, 23.0640792 ], [ 88.6928875, 23.0616684 ], [ 88.6910679, 23.0623419 ], [ 88.6908376, 23.0601567 ], [ 88.6885341, 23.0592501 ], [ 88.6880402, 23.0567942 ], [ 88.6863326, 23.0568175 ], [ 88.6859993, 23.0533456 ], [ 88.6822961, 23.0532792 ], [ 88.6821978, 23.0514959 ], [ 88.684925, 23.0513188 ], [ 88.6848118, 23.0490162 ], [ 88.6832453, 23.0479152 ], [ 88.6824555, 23.0493377 ], [ 88.6811571, 23.0478888 ], [ 88.6815811, 23.0468684 ], [ 88.6826645, 23.0473465 ], [ 88.6824098, 23.0450937 ], [ 88.6811314, 23.0447194 ], [ 88.6830324, 23.0406191 ], [ 88.6861981, 23.0394622 ], [ 88.6857778, 23.0379002 ], [ 88.6843096, 23.0383251 ], [ 88.6841187, 23.0367224 ], [ 88.6868193, 23.0324864 ], [ 88.6878702, 23.0261651 ], [ 88.6822286, 23.0195482 ], [ 88.6800512, 23.0146594 ], [ 88.6756081, 23.0156134 ], [ 88.6770018, 23.0120191 ], [ 88.6766731, 23.0069896 ], [ 88.6788486, 23.0074945 ], [ 88.6782809, 23.0025464 ], [ 88.6792461, 23.0012909 ], [ 88.6775237, 22.9991189 ], [ 88.6764701, 22.998713 ], [ 88.675856, 22.9998869 ], [ 88.674651, 22.9989798 ], [ 88.6746403, 22.9961806 ], [ 88.6704655, 22.9955046 ], [ 88.6669386, 22.9922412 ], [ 88.663049, 22.9816546 ], [ 88.6625156, 22.9744804 ], [ 88.6639755, 22.9650451 ], [ 88.6663889, 22.9635397 ], [ 88.6653564, 22.9505324 ], [ 88.6683829, 22.9473395 ], [ 88.6760418, 22.947396 ], [ 88.6795799, 22.944415 ], [ 88.6756394, 22.940276 ], [ 88.6692932, 22.9431719 ], [ 88.6665778, 22.9426941 ], [ 88.6665674, 22.9405856 ], [ 88.6574265, 22.9386281 ], [ 88.6586397, 22.9354403 ], [ 88.6616571, 22.9355841 ], [ 88.6625243, 22.9335477 ], [ 88.6605534, 22.9275747 ], [ 88.6583939, 22.9272727 ], [ 88.6579695, 22.9253449 ], [ 88.6552202, 22.924456 ], [ 88.6567527, 22.9112945 ], [ 88.6602949, 22.9073296 ], [ 88.6645782, 22.9049989 ], [ 88.6661065, 22.8977745 ], [ 88.6689562, 22.8941347 ], [ 88.6682434, 22.8896831 ], [ 88.661687, 22.8813319 ], [ 88.6592589, 22.8752507 ], [ 88.656659, 22.884516 ], [ 88.6543638, 22.8844035 ], [ 88.6549001, 22.8856993 ], [ 88.6534334, 22.8857672 ], [ 88.6534336, 22.8867921 ], [ 88.6497057, 22.886707 ], [ 88.6473665, 22.8848561 ], [ 88.6462749, 22.8848743 ], [ 88.6471863, 22.8858224 ], [ 88.6445062, 22.885922 ], [ 88.6436821, 22.8812355 ], [ 88.6272658, 22.8834488 ], [ 88.6269101, 22.886054 ], [ 88.623655, 22.8862075 ], [ 88.6228996, 22.8885687 ], [ 88.6207165, 22.8890427 ], [ 88.6205554, 22.8954315 ], [ 88.6185328, 22.8990705 ], [ 88.6169537, 22.899242 ], [ 88.6168614, 22.9007779 ], [ 88.6138149, 22.9033098 ], [ 88.6143265, 22.9051881 ], [ 88.6120111, 22.9097886 ], [ 88.6106756, 22.9096937 ], [ 88.6108075, 22.9073459 ], [ 88.607981, 22.9054493 ], [ 88.6035069, 22.9061079 ], [ 88.6019029, 22.9093359 ], [ 88.5913701, 22.9118985 ], [ 88.5862475, 22.9121998 ], [ 88.5858923, 22.9104027 ], [ 88.5835771, 22.9107678 ], [ 88.5832022, 22.9093545 ], [ 88.5817741, 22.9095889 ], [ 88.5794384, 22.913146 ], [ 88.579881, 22.91595 ], [ 88.5760988, 22.915863 ], [ 88.575695, 22.9138312 ], [ 88.5739603, 22.9128825 ], [ 88.5664831, 22.9144826 ], [ 88.5643347, 22.9227938 ], [ 88.561421, 22.920472 ], [ 88.5589058, 22.9207193 ], [ 88.5564774, 22.9226913 ], [ 88.5483036, 22.9223127 ], [ 88.5475032, 22.9241093 ], [ 88.5381955, 22.9281363 ], [ 88.53601, 22.9307628 ], [ 88.5327699, 22.9285892 ], [ 88.5319247, 22.9315776 ], [ 88.5271846, 22.9342431 ], [ 88.5251142, 22.9324222 ], [ 88.5215741, 22.9340092 ], [ 88.514395, 22.9324647 ], [ 88.5114248, 22.9343633 ], [ 88.5140001, 22.9410056 ], [ 88.5069588, 22.9462479 ], [ 88.5045361, 22.946052 ], [ 88.4999973, 22.9413139 ], [ 88.491059, 22.9370031 ], [ 88.4832288, 22.9352838 ], [ 88.4705795, 22.9360503 ], [ 88.4707203, 22.9422629 ], [ 88.4664804, 22.9441616 ], [ 88.4636814, 22.9507279 ], [ 88.4536083, 22.9491935 ], [ 88.4267389, 22.9563153 ], [ 88.4185093, 22.9567873 ], [ 88.4139545, 22.9526211 ], [ 88.4136845, 22.9457487 ], [ 88.411827, 22.9455918 ], [ 88.4082212, 22.9529791 ], [ 88.4094071, 22.9581439 ], [ 88.4041794, 22.9762771 ], [ 88.4041271, 22.9823317 ], [ 88.4059475, 22.9894017 ], [ 88.4199807, 23.0146605 ], [ 88.4239964, 23.0187498 ], [ 88.4328491, 23.0182322 ], [ 88.4413568, 23.0202742 ], [ 88.4476174, 23.0260572 ], [ 88.4542246, 23.0387962 ], [ 88.4586846, 23.0641016 ], [ 88.4652361, 23.0766224 ], [ 88.4686105, 23.0804535 ], [ 88.4752233, 23.0810816 ], [ 88.4909448, 23.0733189 ], [ 88.4952932, 23.0741374 ], [ 88.4990799, 23.0769319 ], [ 88.5076636, 23.1156357 ], [ 88.5058946, 23.1233774 ], [ 88.5021363, 23.128124 ], [ 88.497644, 23.1293891 ], [ 88.4582705, 23.1295857 ], [ 88.4506522, 23.1332419 ], [ 88.4498341, 23.1370845 ], [ 88.4508381, 23.1517302 ], [ 88.4725417, 23.2077883 ], [ 88.4721116, 23.2143396 ], [ 88.4680227, 23.2210781 ], [ 88.4634914, 23.2240876 ], [ 88.4508392, 23.2245049 ], [ 88.4188329, 23.2119927 ], [ 88.4087749, 23.2103516 ], [ 88.3997875, 23.2115993 ], [ 88.3939555, 23.2138394 ], [ 88.3688862, 23.227615 ], [ 88.3603562, 23.2303006 ], [ 88.3541557, 23.2365393 ], [ 88.3510574, 23.2406925 ], [ 88.3583065, 23.2505944 ], [ 88.3629919, 23.2545043 ], [ 88.3593757, 23.2577817 ], [ 88.3567898, 23.2643279 ], [ 88.3554069, 23.2643503 ], [ 88.3497108, 23.280368 ], [ 88.3419747, 23.2792739 ], [ 88.3308705, 23.2812349 ], [ 88.3343512, 23.2936876 ], [ 88.340422, 23.2926598 ], [ 88.343795, 23.2904844 ], [ 88.3487703, 23.2909595 ], [ 88.3410111, 23.3007775 ], [ 88.3381758, 23.3021268 ], [ 88.3308803, 23.3099038 ], [ 88.3279128, 23.3110496 ], [ 88.3264304, 23.3141147 ], [ 88.327356, 23.3227517 ], [ 88.3354214, 23.3262214 ], [ 88.3364082, 23.3286461 ], [ 88.3352145, 23.3312552 ], [ 88.3292844, 23.3302197 ], [ 88.3327346, 23.3349025 ], [ 88.3312328, 23.337182 ], [ 88.3309478, 23.3415794 ], [ 88.3386734, 23.3399967 ], [ 88.3431748, 23.3470633 ], [ 88.3301952, 23.3543378 ], [ 88.3290375, 23.3647078 ], [ 88.3307618, 23.3705097 ], [ 88.3337148, 23.3729756 ], [ 88.3361099, 23.3773645 ], [ 88.3529022, 23.3906593 ], [ 88.3551906, 23.3954634 ], [ 88.35671, 23.4069174 ], [ 88.3544884, 23.4117298 ], [ 88.3495126, 23.414975 ], [ 88.3415771, 23.4169013 ], [ 88.3362257, 23.4148232 ], [ 88.3310989, 23.4147586 ], [ 88.3280055, 23.4191324 ], [ 88.3290077, 23.4208483 ], [ 88.3354999, 23.4206018 ], [ 88.3424354, 23.4276736 ], [ 88.3516719, 23.4311516 ], [ 88.3494251, 23.435982 ], [ 88.3427953, 23.4360845 ], [ 88.3455179, 23.4477872 ], [ 88.3400022, 23.4510636 ], [ 88.3390266, 23.4575058 ], [ 88.3428384, 23.4588295 ], [ 88.3462838, 23.4578235 ], [ 88.3486912, 23.4592054 ], [ 88.3576763, 23.457613 ], [ 88.3618063, 23.4594781 ], [ 88.3675272, 23.4591445 ], [ 88.3683002, 23.4615553 ], [ 88.3639485, 23.4612536 ], [ 88.3567012, 23.4659471 ], [ 88.3633025, 23.4732119 ], [ 88.3647757, 23.4729411 ], [ 88.3624353, 23.4810944 ], [ 88.3752442, 23.4881605 ], [ 88.3891026, 23.5007409 ], [ 88.3843547, 23.5093958 ], [ 88.3691581, 23.5232558 ], [ 88.3662904, 23.5320254 ], [ 88.364333, 23.530786 ], [ 88.3601918, 23.5357426 ], [ 88.3577478, 23.5401622 ], [ 88.3587315, 23.5448259 ], [ 88.3556021, 23.5466178 ], [ 88.3547504, 23.5445093 ], [ 88.3560825, 23.5431823 ], [ 88.3467429, 23.5490047 ], [ 88.3272729, 23.547397 ], [ 88.3193041, 23.5506764 ], [ 88.3153975, 23.5480203 ], [ 88.3169212, 23.5462512 ], [ 88.3146336, 23.5476904 ], [ 88.3077313, 23.5429969 ], [ 88.2984898, 23.5451189 ], [ 88.293138, 23.5442899 ], [ 88.2913485, 23.5401535 ], [ 88.2840916, 23.5400501 ], [ 88.2750247, 23.537742 ], [ 88.2748373, 23.5458366 ], [ 88.2730185, 23.5483816 ], [ 88.2749669, 23.5556199 ], [ 88.2736611, 23.5595693 ], [ 88.2765588, 23.5617653 ], [ 88.2835762, 23.5607795 ], [ 88.2955405, 23.5634378 ], [ 88.3115039, 23.5687273 ], [ 88.3157882, 23.5715823 ], [ 88.3213354, 23.5766227 ], [ 88.3201341, 23.5835165 ], [ 88.3179964, 23.5843866 ], [ 88.3181912, 23.5867252 ], [ 88.3148926, 23.5911257 ], [ 88.3103074, 23.5912051 ], [ 88.3076294, 23.5883236 ], [ 88.2950191, 23.5828142 ], [ 88.2882429, 23.5783184 ], [ 88.2846625, 23.5782306 ], [ 88.2830227, 23.5836336 ], [ 88.2861004, 23.5883848 ], [ 88.2797929, 23.5928188 ], [ 88.2812013, 23.5960702 ], [ 88.2809044, 23.6068508 ], [ 88.2774704, 23.6065146 ], [ 88.2761113, 23.5963514 ], [ 88.2722591, 23.5984888 ], [ 88.2676358, 23.6028829 ], [ 88.2646183, 23.614113 ], [ 88.2618664, 23.6178942 ], [ 88.257579, 23.6202374 ], [ 88.2548366, 23.616697 ], [ 88.2546532, 23.6189226 ], [ 88.2534231, 23.6192872 ], [ 88.2474445, 23.6173187 ], [ 88.2284733, 23.6161443 ], [ 88.2273147, 23.613923 ], [ 88.2291732, 23.6126413 ], [ 88.2249326, 23.6099976 ], [ 88.2235829, 23.6068373 ], [ 88.2145809, 23.6078806 ], [ 88.196969, 23.622316 ], [ 88.1786841, 23.6218214 ], [ 88.164325, 23.6234738 ], [ 88.1533567, 23.6314447 ], [ 88.1521358, 23.6396909 ], [ 88.1460443, 23.6470477 ], [ 88.1372085, 23.6541491 ], [ 88.1343355, 23.6625092 ], [ 88.1368932, 23.6732656 ], [ 88.1444153, 23.6894287 ], [ 88.1514723, 23.6995266 ], [ 88.164239, 23.7132649 ], [ 88.1810202, 23.7172599 ], [ 88.1830128, 23.7155025 ], [ 88.2080182, 23.7119454 ], [ 88.2168056, 23.7085322 ], [ 88.2267699, 23.7089794 ], [ 88.2279392, 23.7077869 ], [ 88.2324679, 23.7110615 ], [ 88.2324462, 23.7190534 ], [ 88.2264398, 23.7238446 ], [ 88.2160809, 23.7290067 ], [ 88.213948, 23.7285084 ], [ 88.203696, 23.731651 ], [ 88.2009022, 23.730153 ], [ 88.1936297, 23.7349581 ], [ 88.1917658, 23.7377985 ], [ 88.1953183, 23.7441256 ], [ 88.1932957, 23.7507352 ], [ 88.1936338, 23.7614482 ], [ 88.1949129, 23.7655926 ], [ 88.1987338, 23.7686833 ], [ 88.2021745, 23.7698938 ], [ 88.2155711, 23.7606043 ], [ 88.2228952, 23.7584241 ], [ 88.2315514, 23.7596784 ], [ 88.2406929, 23.766058 ], [ 88.2414409, 23.768355 ], [ 88.2347882, 23.7844972 ], [ 88.2347253, 23.8006995 ], [ 88.2373603, 23.8048011 ], [ 88.2421158, 23.8037559 ], [ 88.249998, 23.8043154 ], [ 88.2515108, 23.8009163 ], [ 88.2576965, 23.8023975 ], [ 88.2597533, 23.8067826 ], [ 88.2629126, 23.807435 ], [ 88.2654767, 23.8098747 ], [ 88.2666748, 23.8089998 ], [ 88.2691843, 23.8122881 ], [ 88.2727938, 23.8086158 ], [ 88.2777542, 23.808917 ], [ 88.2777555, 23.8072195 ], [ 88.2929278, 23.8058787 ], [ 88.294641, 23.8046332 ], [ 88.2958196, 23.8107875 ], [ 88.2974729, 23.8114654 ], [ 88.2982095, 23.8103598 ], [ 88.3057609, 23.8106749 ], [ 88.3107475, 23.808298 ], [ 88.3170235, 23.8073435 ], [ 88.3195006, 23.809236 ], [ 88.3179172, 23.8168919 ], [ 88.3194945, 23.8230999 ], [ 88.3252906, 23.8215535 ], [ 88.3484378, 23.8222231 ], [ 88.3502678, 23.8242233 ], [ 88.35194, 23.8305213 ], [ 88.3533736, 23.8269776 ], [ 88.3565243, 23.8264454 ], [ 88.3564999, 23.8255334 ], [ 88.3632082, 23.8257644 ], [ 88.3632231, 23.8233446 ], [ 88.3643028, 23.8228482 ], [ 88.3678311, 23.8236249 ], [ 88.3668304, 23.8186092 ], [ 88.3679493, 23.8169931 ], [ 88.377621, 23.8137701 ], [ 88.383416, 23.813639 ], [ 88.3861591, 23.814799 ], [ 88.3877349, 23.8220988 ], [ 88.3938589, 23.820455 ], [ 88.4077416, 23.8218252 ], [ 88.4094089, 23.8171434 ], [ 88.408589, 23.8154506 ], [ 88.4060175, 23.8146701 ], [ 88.410339, 23.8087236 ], [ 88.4092639, 23.8063041 ], [ 88.4185808, 23.8039633 ], [ 88.428957, 23.8253723 ], [ 88.4361644, 23.8436081 ], [ 88.4428346, 23.8534785 ], [ 88.4482353, 23.8563112 ], [ 88.4506007, 23.8553711 ], [ 88.4557705, 23.849125 ], [ 88.4577347, 23.8428669 ], [ 88.456661, 23.8366917 ], [ 88.4478462, 23.8269584 ], [ 88.4489196, 23.824511 ], [ 88.4513725, 23.8233406 ], [ 88.4609961, 23.8239089 ], [ 88.4766195, 23.8219494 ], [ 88.478857, 23.8280875 ], [ 88.4737256, 23.8369979 ], [ 88.4736736, 23.8397021 ], [ 88.4774978, 23.8535409 ], [ 88.4764594, 23.8629091 ], [ 88.4740598, 23.8704813 ], [ 88.4629529, 23.888636 ], [ 88.4828641, 23.9033496 ], [ 88.4871592, 23.9017981 ], [ 88.4973904, 23.8893125 ], [ 88.5039423, 23.8851375 ], [ 88.5090794, 23.8886401 ], [ 88.5108556, 23.8955892 ], [ 88.5102039, 23.8994395 ], [ 88.5070267, 23.9052381 ], [ 88.497386, 23.9109592 ], [ 88.4734904, 23.9166056 ], [ 88.4613005, 23.9220481 ], [ 88.4580367, 23.9253048 ], [ 88.4572526, 23.9279732 ], [ 88.4653143, 23.9385596 ], [ 88.4705475, 23.9419603 ], [ 88.4801549, 23.9357017 ], [ 88.4856208, 23.9350614 ], [ 88.4900667, 23.9362138 ], [ 88.4951299, 23.9408282 ], [ 88.497809, 23.9507133 ], [ 88.5073252, 23.9491183 ], [ 88.5119161, 23.9568505 ], [ 88.5204979, 23.9507983 ], [ 88.5232778, 23.9512561 ], [ 88.524869, 23.9579205 ], [ 88.5228202, 23.9705684 ], [ 88.5194396, 23.9773015 ], [ 88.513597, 23.984105 ], [ 88.5116077, 23.9888843 ], [ 88.5119392, 23.9919001 ], [ 88.5138978, 23.9940774 ], [ 88.5185548, 23.9954757 ], [ 88.5275587, 23.9931208 ], [ 88.5336468, 23.9930163 ], [ 88.5424591, 23.9974274 ], [ 88.5497361, 24.022785 ], [ 88.5487593, 24.0372981 ], [ 88.5535054, 24.0409796 ], [ 88.5606382, 24.0402425 ], [ 88.5698964, 24.0348606 ], [ 88.5787792, 24.0323988 ], [ 88.5837497, 24.0286668 ], [ 88.5903135, 24.0208136 ], [ 88.5912893, 24.0105391 ], [ 88.5946775, 24.0016149 ], [ 88.6113036, 23.9851299 ], [ 88.6158683, 23.9825887 ], [ 88.6206195, 23.9822549 ], [ 88.6287167, 23.9849772 ], [ 88.6340873, 23.9902543 ], [ 88.6421325, 24.0037979 ], [ 88.6479414, 24.0067903 ], [ 88.649893, 24.0102209 ], [ 88.6502181, 24.0142928 ], [ 88.6471328, 24.0207578 ], [ 88.6433193, 24.0229207 ], [ 88.6333914, 24.0238243 ], [ 88.6306687, 24.029377 ], [ 88.6320501, 24.0348619 ], [ 88.6464052, 24.0514509 ], [ 88.6476802, 24.0619737 ], [ 88.6506952, 24.0690561 ], [ 88.6567928, 24.0733437 ], [ 88.6644875, 24.0735406 ], [ 88.6737819, 24.0780118 ], [ 88.6793965, 24.0768271 ], [ 88.681408, 24.0781221 ], [ 88.6810604, 24.0814492 ], [ 88.6782091, 24.0830076 ], [ 88.6748411, 24.0834873 ], [ 88.6669879, 24.0817877 ], [ 88.6689707, 24.0855656 ], [ 88.6845745, 24.0890906 ], [ 88.6910133, 24.09302 ], [ 88.7009887, 24.0942217 ] ] ] } }
]
}
