{
"type": "FeatureCollection",
"name": "1913",
"crs": { "type": "name", "properties": { "name": "urn:ogc:def:crs:OGC:1.3:CRS84" } },
"features": [
{ "type": "Feature", "properties": { "code": "1913", "name": "Bankura", "type": "district" }, "geometry": { "type": "Polygon", "coordinates": [ [ [ 86.917124, 23.6295041 ], [ 86.95566, 23.6332318 ], [ 86.9718408, 23.6269925 ], [ 86.9954741, 23.6335359 ], [ 87.0013279, 23.6315915 ], [ 87.0133618, 23.6325173 ], [ 87.0198176, 23.6295964 ], [ 87.0337271, 23.6180164 ], [ 87.0529256, 23.6146769 ], [ 87.0596344, 23.6120253 ], [ 87.0627179, 23.6082073 ], [ 87.0718332, 23.6015969 ], [ 87.0887116, 23.5966314 ], [ 87.0947282, 23.5932738 ], [ 87.0974526, 23.5898207 ], [ 87.1218527, 23.5764014 ], [ 87.1276373, 23.5764782 ], [ 87.1424731, 23.5729198 ], [ 87.1480813, 23.5731404 ], [ 87.1535272, 23.5707558 ], [ 87.1558533, 23.5683537 ], [ 87.1659368, 23.5655162 ], [ 87.1736554, 23.5650761 ], [ 87.1848031, 23.566815 ], [ 87.1916195, 23.5643339 ], [ 87.1985032, 23.5599606 ], [ 87.2103926, 23.5575213 ], [ 87.2167396, 23.5502853 ], [ 87.2421219, 23.5287789 ], [ 87.2488282, 23.5190062 ], [ 87.2676412, 23.509481 ], [ 87.2712909, 23.5064587 ], [ 87.2747173, 23.5006506 ], [ 87.2939083, 23.4900585 ], [ 87.3028456, 23.4826138 ], [ 87.3170821, 23.4759155 ], [ 87.3309443, 23.4714327 ], [ 87.3437735, 23.4649348 ], [ 87.3538513, 23.4580517 ], [ 87.3605859, 23.4507026 ], [ 87.3690517, 23.4464052 ], [ 87.3775121, 23.4401345 ], [ 87.3910308, 23.4339758 ], [ 87.3959872, 23.4335509 ], [ 87.4112559, 23.4271644 ], [ 87.4195317, 23.4200427 ], [ 87.4278033, 23.4169296 ], [ 87.4302582, 23.4143419 ], [ 87.4416979, 23.408649 ], [ 87.468297, 23.3831907 ], [ 87.4738378, 23.3756116 ], [ 87.4774753, 23.3742775 ], [ 87.4888596, 23.3613667 ], [ 87.4911536, 23.3562227 ], [ 87.4992052, 23.3485623 ], [ 87.5228697, 23.3377624 ], [ 87.527571, 23.334122 ], [ 87.5397098, 23.3204315 ], [ 87.5450504, 23.3167006 ], [ 87.5572938, 23.3117041 ], [ 87.5616107, 23.3006538 ], [ 87.5622435, 23.2958324 ], [ 87.5674317, 23.2906379 ], [ 87.5773558, 23.2840678 ], [ 87.5939568, 23.2688302 ], [ 87.5972961, 23.2609977 ], [ 87.6003607, 23.2571426 ], [ 87.6079936, 23.2532654 ], [ 87.6206245, 23.2507156 ], [ 87.6276181, 23.2432629 ], [ 87.6349612, 23.240206 ], [ 87.6535954, 23.2408761 ], [ 87.6527812, 23.2264289 ], [ 87.6564838, 23.2251234 ], [ 87.6585201, 23.2222515 ], [ 87.6544755, 23.2231869 ], [ 87.6555545, 23.2205862 ], [ 87.6517978, 23.2198511 ], [ 87.6480358, 23.217057 ], [ 87.6477615, 23.2129079 ], [ 87.6497734, 23.209684 ], [ 87.6480583, 23.2065239 ], [ 87.6469429, 23.1964108 ], [ 87.6497268, 23.196293 ], [ 87.6524173, 23.1937236 ], [ 87.6545127, 23.1942063 ], [ 87.6536226, 23.1888112 ], [ 87.6558446, 23.1883728 ], [ 87.6560842, 23.1897949 ], [ 87.6576127, 23.188973 ], [ 87.6576562, 23.1873611 ], [ 87.6559812, 23.1876775 ], [ 87.6555023, 23.1865354 ], [ 87.660278, 23.1843536 ], [ 87.660072, 23.1812746 ], [ 87.6614389, 23.1797708 ], [ 87.6603931, 23.1767686 ], [ 87.6616374, 23.1737209 ], [ 87.6654121, 23.1732368 ], [ 87.665792, 23.170135 ], [ 87.66901, 23.169949 ], [ 87.6690041, 23.1670369 ], [ 87.665791, 23.1669701 ], [ 87.6642785, 23.1708758 ], [ 87.6618467, 23.1710977 ], [ 87.6605173, 23.1667412 ], [ 87.6697633, 23.1597361 ], [ 87.6710528, 23.1609909 ], [ 87.6775702, 23.1583792 ], [ 87.6773252, 23.1560767 ], [ 87.6787505, 23.1549475 ], [ 87.6781295, 23.1526903 ], [ 87.6829602, 23.1461059 ], [ 87.6899902, 23.1452046 ], [ 87.6882815, 23.1351777 ], [ 87.6858187, 23.1303117 ], [ 87.684087, 23.122285 ], [ 87.6855172, 23.1222212 ], [ 87.688957, 23.1288973 ], [ 87.6920422, 23.1288057 ], [ 87.7067132, 23.1235072 ], [ 87.7167096, 23.1223096 ], [ 87.7185022, 23.1172293 ], [ 87.7254228, 23.1157034 ], [ 87.7286434, 23.1207309 ], [ 87.7298147, 23.1204547 ], [ 87.73052, 23.1173751 ], [ 87.7328289, 23.1174547 ], [ 87.7327622, 23.119482 ], [ 87.7310343, 23.1196006 ], [ 87.7310759, 23.1228061 ], [ 87.7293675, 23.1229156 ], [ 87.7308039, 23.1305674 ], [ 87.7332303, 23.1308546 ], [ 87.733251, 23.1203485 ], [ 87.7381063, 23.1183224 ], [ 87.7381489, 23.1168098 ], [ 87.7452182, 23.1128314 ], [ 87.7469586, 23.1104869 ], [ 87.7476806, 23.1047479 ], [ 87.7459227, 23.1039005 ], [ 87.7427021, 23.1046569 ], [ 87.7428864, 23.1033655 ], [ 87.7443976, 23.1013417 ], [ 87.7492477, 23.1017749 ], [ 87.7507827, 23.0983279 ], [ 87.753937, 23.0967186 ], [ 87.7540416, 23.0943755 ], [ 87.7552941, 23.0941026 ], [ 87.7558116, 23.0907017 ], [ 87.7529649, 23.0816833 ], [ 87.7615049, 23.081604 ], [ 87.7642602, 23.0754954 ], [ 87.76026, 23.0708124 ], [ 87.7579469, 23.0710635 ], [ 87.7541539, 23.0673223 ], [ 87.7519139, 23.0676637 ], [ 87.7499107, 23.0653098 ], [ 87.7510879, 23.0640376 ], [ 87.7505183, 23.0625788 ], [ 87.7430094, 23.0550245 ], [ 87.7434872, 23.0492314 ], [ 87.7443849, 23.0491134 ], [ 87.7426263, 23.0466812 ], [ 87.7430546, 23.0454258 ], [ 87.7407988, 23.0433822 ], [ 87.7405853, 23.033427 ], [ 87.7391842, 23.0322451 ], [ 87.7416761, 23.0312409 ], [ 87.7373071, 23.0276321 ], [ 87.7221474, 23.0290691 ], [ 87.7205501, 23.0192818 ], [ 87.7121498, 23.0106316 ], [ 87.705516, 23.0176785 ], [ 87.7023999, 23.0273465 ], [ 87.6924229, 23.0241908 ], [ 87.6872431, 23.0251772 ], [ 87.6864406, 23.0198815 ], [ 87.6901224, 23.0181508 ], [ 87.6938643, 23.0195895 ], [ 87.6994581, 23.0179208 ], [ 87.6989787, 23.0153566 ], [ 87.6961244, 23.0136739 ], [ 87.6962643, 23.0017408 ], [ 87.697302, 22.9999614 ], [ 87.694685, 22.9941112 ], [ 87.6877542, 22.9922945 ], [ 87.6829706, 22.993127 ], [ 87.6796879, 22.9914305 ], [ 87.6757481, 22.9931023 ], [ 87.6712791, 22.9876676 ], [ 87.6680225, 22.9865654 ], [ 87.6564982, 22.9869894 ], [ 87.6545625, 22.9884345 ], [ 87.6479158, 22.9892482 ], [ 87.6468476, 22.9878939 ], [ 87.6419953, 22.9870276 ], [ 87.6381424, 22.9810636 ], [ 87.6410389, 22.9805306 ], [ 87.6427355, 22.9785891 ], [ 87.6421403, 22.9749455 ], [ 87.6396485, 22.9747832 ], [ 87.6421402, 22.9747108 ], [ 87.6405888, 22.9668052 ], [ 87.6487362, 22.9663167 ], [ 87.6502958, 22.9625736 ], [ 87.6492017, 22.9502342 ], [ 87.6523607, 22.9497507 ], [ 87.6509272, 22.9487621 ], [ 87.6494824, 22.9387978 ], [ 87.6478638, 22.9377551 ], [ 87.6470979, 22.9337187 ], [ 87.6451236, 22.9333307 ], [ 87.6440129, 22.9305078 ], [ 87.6437868, 22.9233663 ], [ 87.6403353, 22.9185402 ], [ 87.6327122, 22.9196332 ], [ 87.6199083, 22.9118268 ], [ 87.621395, 22.9082554 ], [ 87.6196699, 22.9027923 ], [ 87.6267852, 22.9032394 ], [ 87.6313614, 22.8991623 ], [ 87.6270533, 22.8990449 ], [ 87.6258301, 22.8976724 ], [ 87.6261323, 22.8952433 ], [ 87.6196899, 22.8941189 ], [ 87.6163518, 22.8923128 ], [ 87.6148073, 22.8894636 ], [ 87.6113573, 22.8887546 ], [ 87.6104878, 22.8910134 ], [ 87.6020592, 22.8903698 ], [ 87.6006022, 22.8975809 ], [ 87.5993824, 22.8980177 ], [ 87.5952984, 22.8984324 ], [ 87.5916491, 22.8952756 ], [ 87.5871462, 22.895243 ], [ 87.586362, 22.8940417 ], [ 87.5843097, 22.8961632 ], [ 87.5846689, 22.9007235 ], [ 87.5817829, 22.9033865 ], [ 87.5823962, 22.9058655 ], [ 87.5794081, 22.9076119 ], [ 87.5801143, 22.9090298 ], [ 87.5785746, 22.9080045 ], [ 87.578798, 22.9100544 ], [ 87.5764107, 22.9078232 ], [ 87.5745437, 22.9086173 ], [ 87.5757423, 22.9097239 ], [ 87.5751813, 22.911033 ], [ 87.5706541, 22.9094963 ], [ 87.5722618, 22.9112532 ], [ 87.5702923, 22.9122369 ], [ 87.5721049, 22.9133481 ], [ 87.5687798, 22.9162366 ], [ 87.5652169, 22.9160998 ], [ 87.5653425, 22.9186056 ], [ 87.5640513, 22.9176524 ], [ 87.5617598, 22.9191505 ], [ 87.5590499, 22.9188288 ], [ 87.558791, 22.9200433 ], [ 87.5519534, 22.9186315 ], [ 87.5464489, 22.9214823 ], [ 87.5415694, 22.9220306 ], [ 87.5396671, 22.9241471 ], [ 87.5379861, 22.9232883 ], [ 87.5356922, 22.9277072 ], [ 87.531274, 22.9306078 ], [ 87.5172985, 22.9309284 ], [ 87.5175178, 22.9248604 ], [ 87.5137558, 22.9236748 ], [ 87.5127584, 22.9216288 ], [ 87.5123476, 22.9231591 ], [ 87.5109542, 22.9224357 ], [ 87.5095198, 22.9240194 ], [ 87.5112298, 22.9250049 ], [ 87.509377, 22.9256627 ], [ 87.5062045, 22.9249921 ], [ 87.5032007, 22.9261863 ], [ 87.5021392, 22.9250116 ], [ 87.4995207, 22.9261383 ], [ 87.498842, 22.9221239 ], [ 87.4959404, 22.9200698 ], [ 87.4928253, 22.9195212 ], [ 87.4834171, 22.9139162 ], [ 87.4793783, 22.9139635 ], [ 87.4737315, 22.9101294 ], [ 87.4596278, 22.9117898 ], [ 87.4553654, 22.9155666 ], [ 87.4520661, 22.9162228 ], [ 87.4472529, 22.9208122 ], [ 87.4415408, 22.9216364 ], [ 87.4339629, 22.9251475 ], [ 87.4221015, 22.9246955 ], [ 87.4220225, 22.9301585 ], [ 87.4113091, 22.9332314 ], [ 87.3993664, 22.9337934 ], [ 87.3990992, 22.9390082 ], [ 87.3936932, 22.9403439 ], [ 87.3923772, 22.942323 ], [ 87.3723705, 22.942098 ], [ 87.3702351, 22.9448069 ], [ 87.3620105, 22.948626 ], [ 87.3588359, 22.955195 ], [ 87.346829, 22.9498881 ], [ 87.3374108, 22.9473397 ], [ 87.3308585, 22.9479113 ], [ 87.3272174, 22.945901 ], [ 87.3239458, 22.9471235 ], [ 87.3194366, 22.9464221 ], [ 87.3106054, 22.9313206 ], [ 87.3034326, 22.9265993 ], [ 87.2867848, 22.9220036 ], [ 87.284993, 22.9117941 ], [ 87.2761979, 22.9088902 ], [ 87.2710846, 22.903496 ], [ 87.2681988, 22.904379 ], [ 87.2679826, 22.9066002 ], [ 87.265328, 22.9046524 ], [ 87.2603624, 22.9040935 ], [ 87.2560072, 22.9019953 ], [ 87.2560775, 22.8996386 ], [ 87.2546882, 22.9000935 ], [ 87.2473584, 22.8956814 ], [ 87.2303708, 22.902809 ], [ 87.2262362, 22.9068977 ], [ 87.2214362, 22.9078805 ], [ 87.2161586, 22.9013819 ], [ 87.2152988, 22.8982761 ], [ 87.2110174, 22.8939756 ], [ 87.2028017, 22.8949866 ], [ 87.2023478, 22.8937362 ], [ 87.1988045, 22.8928077 ], [ 87.1925404, 22.8884219 ], [ 87.1860739, 22.8885644 ], [ 87.1817674, 22.891573 ], [ 87.1713286, 22.8900366 ], [ 87.1688464, 22.8839646 ], [ 87.1635476, 22.8764981 ], [ 87.1553116, 22.869953 ], [ 87.1530939, 22.8660073 ], [ 87.1432118, 22.8560169 ], [ 87.1420762, 22.8523237 ], [ 87.1372337, 22.8507528 ], [ 87.1356259, 22.8484909 ], [ 87.1334385, 22.8487484 ], [ 87.1282805, 22.8442719 ], [ 87.1024357, 22.8457923 ], [ 87.0932587, 22.8442797 ], [ 87.0782832, 22.8463618 ], [ 87.0690496, 22.8511221 ], [ 87.0638177, 22.8507544 ], [ 87.0609637, 22.848866 ], [ 87.059889, 22.8449284 ], [ 87.0610696, 22.8312755 ], [ 87.0583054, 22.8263348 ], [ 87.0549694, 22.8252316 ], [ 87.0535144, 22.8228335 ], [ 87.0568862, 22.8203427 ], [ 87.0554838, 22.819561 ], [ 87.058176, 22.8122252 ], [ 87.0578949, 22.8095702 ], [ 87.0652373, 22.8028368 ], [ 87.0649448, 22.792583 ], [ 87.0709715, 22.7852527 ], [ 87.0759727, 22.7841301 ], [ 87.0780382, 22.781774 ], [ 87.0798191, 22.7710693 ], [ 87.082864, 22.7649296 ], [ 87.0831417, 22.7490164 ], [ 87.088587, 22.7391388 ], [ 87.0799297, 22.7320614 ], [ 87.075931, 22.7258384 ], [ 87.0725953, 22.7297429 ], [ 87.069178, 22.7307756 ], [ 87.057298, 22.7281522 ], [ 87.0532385, 22.7284258 ], [ 87.0425544, 22.7210473 ], [ 87.0371533, 22.718981 ], [ 87.0387578, 22.7137308 ], [ 87.0366922, 22.7096029 ], [ 87.0326431, 22.7096366 ], [ 87.0312175, 22.7020414 ], [ 87.0252217, 22.7027375 ], [ 87.0215289, 22.701645 ], [ 87.0212546, 22.6976871 ], [ 87.016276, 22.6920309 ], [ 87.0191387, 22.6839236 ], [ 87.0187117, 22.6700123 ], [ 87.0177593, 22.6684991 ], [ 87.0216126, 22.6683571 ], [ 87.0201458, 22.6652272 ], [ 87.0214657, 22.6632278 ], [ 87.0168884, 22.6563122 ], [ 87.0172074, 22.6527951 ], [ 87.015299, 22.6486353 ], [ 87.0135363, 22.6505981 ], [ 87.0117129, 22.6496577 ], [ 87.0081072, 22.6509103 ], [ 87.0061827, 22.648841 ], [ 87.0016147, 22.6543324 ], [ 87.0015723, 22.6582921 ], [ 86.998956, 22.6576702 ], [ 86.9943175, 22.6607296 ], [ 86.9850925, 22.6717575 ], [ 86.9825667, 22.6708607 ], [ 86.9726627, 22.6732329 ], [ 86.9707387, 22.6701231 ], [ 86.9667491, 22.6699718 ], [ 86.9646191, 22.6715624 ], [ 86.9644224, 22.6759602 ], [ 86.9629534, 22.6764576 ], [ 86.9618958, 22.6736815 ], [ 86.9603339, 22.6733526 ], [ 86.9578244, 22.666947 ], [ 86.9492585, 22.6700123 ], [ 86.9485234, 22.6691367 ], [ 86.9485372, 22.6582598 ], [ 86.9460961, 22.6506845 ], [ 86.9495876, 22.6483847 ], [ 86.9487258, 22.6467867 ], [ 86.951414, 22.6434759 ], [ 86.9513643, 22.6415932 ], [ 86.9537279, 22.6407115 ], [ 86.953653, 22.6372123 ], [ 86.9499124, 22.6371418 ], [ 86.9459319, 22.6337708 ], [ 86.9428149, 22.6352395 ], [ 86.9377699, 22.6333001 ], [ 86.9360681, 22.6344972 ], [ 86.9287366, 22.6307206 ], [ 86.925968, 22.6279085 ], [ 86.9239789, 22.6281619 ], [ 86.9219371, 22.6313096 ], [ 86.9179229, 22.6264208 ], [ 86.9144717, 22.6340206 ], [ 86.9124536, 22.635484 ], [ 86.9047489, 22.6355036 ], [ 86.9049494, 22.6406057 ], [ 86.9032615, 22.6402899 ], [ 86.9035148, 22.6422901 ], [ 86.9003094, 22.643302 ], [ 86.898841, 22.6472168 ], [ 86.8951541, 22.6500889 ], [ 86.8954559, 22.6515202 ], [ 86.8913455, 22.6530783 ], [ 86.8904993, 22.6552727 ], [ 86.8881155, 22.6548936 ], [ 86.8712006, 22.6633057 ], [ 86.8616648, 22.6661496 ], [ 86.8552323, 22.6713277 ], [ 86.8498056, 22.6809577 ], [ 86.8458782, 22.6848851 ], [ 86.8399031, 22.6843691 ], [ 86.838715, 22.6874708 ], [ 86.8353039, 22.6878266 ], [ 86.8154363, 22.6992119 ], [ 86.804117, 22.7090591 ], [ 86.7915168, 22.709834 ], [ 86.7875736, 22.711647 ], [ 86.7832249, 22.7155681 ], [ 86.7729431, 22.7196524 ], [ 86.7735249, 22.722529 ], [ 86.7690574, 22.7281247 ], [ 86.7571873, 22.7322701 ], [ 86.7496478, 22.7373077 ], [ 86.7430902, 22.7374494 ], [ 86.7323711, 22.7430917 ], [ 86.7247492, 22.7448259 ], [ 86.7183721, 22.7445633 ], [ 86.7027779, 22.7577801 ], [ 86.6971001, 22.7648805 ], [ 86.6958166, 22.7683802 ], [ 86.6792431, 22.7676505 ], [ 86.6718483, 22.7700233 ], [ 86.6603912, 22.7865558 ], [ 86.6558486, 22.7889316 ], [ 86.6429013, 22.7941348 ], [ 86.6296121, 22.7974586 ], [ 86.6113065, 22.7986229 ], [ 86.6114521, 22.8035578 ], [ 86.6089777, 22.8067407 ], [ 86.6128928, 22.8108813 ], [ 86.6139882, 22.8157035 ], [ 86.6180693, 22.8214108 ], [ 86.61728, 22.8244314 ], [ 86.6337467, 22.824544 ], [ 86.6421266, 22.8305764 ], [ 86.6479076, 22.8389237 ], [ 86.6561072, 22.8364976 ], [ 86.6622975, 22.8518926 ], [ 86.6731435, 22.8535665 ], [ 86.6772086, 22.8616771 ], [ 86.6861586, 22.8618365 ], [ 86.7017596, 22.8717584 ], [ 86.7048947, 22.8755812 ], [ 86.7045205, 22.877437 ], [ 86.7065935, 22.8809126 ], [ 86.7068067, 22.8872289 ], [ 86.7013116, 22.8901618 ], [ 86.7033505, 22.8936599 ], [ 86.706791, 22.893568 ], [ 86.7050823, 22.8969055 ], [ 86.7057856, 22.8993703 ], [ 86.6999668, 22.9084798 ], [ 86.7019029, 22.910777 ], [ 86.6997608, 22.9152118 ], [ 86.6974318, 22.9167344 ], [ 86.6966389, 22.9197778 ], [ 86.69803, 22.923484 ], [ 86.6959108, 22.925765 ], [ 86.6933226, 22.9258067 ], [ 86.6907321, 22.9315012 ], [ 86.6932095, 22.9337486 ], [ 86.6929034, 22.9358031 ], [ 86.6952971, 22.9361497 ], [ 86.698166, 22.9410427 ], [ 86.7024819, 22.9528203 ], [ 86.7041343, 22.9521106 ], [ 86.7076606, 22.9546779 ], [ 86.7124727, 22.9625765 ], [ 86.7139184, 22.9663864 ], [ 86.7105002, 22.9660496 ], [ 86.7121418, 22.9713448 ], [ 86.7172398, 22.9752835 ], [ 86.7188942, 22.9844298 ], [ 86.720265, 22.9851921 ], [ 86.7187986, 22.9873961 ], [ 86.7196644, 22.9911702 ], [ 86.721085, 22.9933274 ], [ 86.7259242, 22.9953155 ], [ 86.7283554, 22.9986235 ], [ 86.7292779, 23.0159559 ], [ 86.7322134, 23.0177972 ], [ 86.732539, 23.0207933 ], [ 86.7357017, 23.0263162 ], [ 86.7272815, 23.0297222 ], [ 86.7256151, 23.0345729 ], [ 86.7368271, 23.0401956 ], [ 86.7391509, 23.0428991 ], [ 86.7395059, 23.0447485 ], [ 86.7381794, 23.045827 ], [ 86.7321762, 23.0449071 ], [ 86.7306337, 23.0484177 ], [ 86.7350891, 23.0580228 ], [ 86.7388867, 23.0601547 ], [ 86.742208, 23.0695254 ], [ 86.7447389, 23.0708849 ], [ 86.7467524, 23.0739834 ], [ 86.7476305, 23.0815166 ], [ 86.7509827, 23.0850446 ], [ 86.7521544, 23.0896225 ], [ 86.7506127, 23.09591 ], [ 86.7482386, 23.0970949 ], [ 86.7483495, 23.098463 ], [ 86.7511845, 23.098718 ], [ 86.750183, 23.099984 ], [ 86.746291, 23.1030848 ], [ 86.7387477, 23.1027816 ], [ 86.7303533, 23.104955 ], [ 86.7242036, 23.1156512 ], [ 86.717285, 23.1220339 ], [ 86.7217547, 23.1222431 ], [ 86.7278333, 23.1312097 ], [ 86.7312079, 23.1333385 ], [ 86.7307748, 23.1405729 ], [ 86.7327439, 23.1483576 ], [ 86.7376967, 23.1549901 ], [ 86.7390864, 23.1620797 ], [ 86.7421341, 23.1660028 ], [ 86.7461999, 23.1679331 ], [ 86.7471461, 23.1663327 ], [ 86.7523432, 23.1655801 ], [ 86.7524213, 23.1673234 ], [ 86.7543078, 23.1688676 ], [ 86.7514855, 23.1728925 ], [ 86.7560205, 23.1719139 ], [ 86.7589999, 23.1767781 ], [ 86.7597411, 23.1812819 ], [ 86.7580662, 23.1818342 ], [ 86.7586341, 23.1903893 ], [ 86.7572477, 23.1932282 ], [ 86.75851, 23.1975985 ], [ 86.7614316, 23.2004097 ], [ 86.7644034, 23.2007379 ], [ 86.7687324, 23.2034686 ], [ 86.7797621, 23.2003819 ], [ 86.7827689, 23.2018027 ], [ 86.7843143, 23.2045179 ], [ 86.7874547, 23.2045445 ], [ 86.7900604, 23.2090324 ], [ 86.7889331, 23.2101034 ], [ 86.790619, 23.2117902 ], [ 86.7873421, 23.2158892 ], [ 86.7851089, 23.2225282 ], [ 86.7821964, 23.2238486 ], [ 86.7824532, 23.2294396 ], [ 86.7749911, 23.2350482 ], [ 86.7740851, 23.2376603 ], [ 86.7715334, 23.2378453 ], [ 86.770221, 23.2411498 ], [ 86.7748782, 23.2451286 ], [ 86.7772362, 23.244161 ], [ 86.7778378, 23.2411179 ], [ 86.7797838, 23.2426983 ], [ 86.7819248, 23.2479006 ], [ 86.7806968, 23.2506763 ], [ 86.7814413, 23.2550968 ], [ 86.7845647, 23.2605119 ], [ 86.7806431, 23.2643291 ], [ 86.7806404, 23.268108 ], [ 86.781856, 23.2696527 ], [ 86.7803682, 23.2728032 ], [ 86.7838408, 23.2756812 ], [ 86.7872564, 23.2762565 ], [ 86.7829724, 23.2806062 ], [ 86.7827312, 23.2831254 ], [ 86.7800116, 23.2861893 ], [ 86.7783346, 23.2936918 ], [ 86.7789539, 23.2956651 ], [ 86.7867292, 23.2973222 ], [ 86.7872268, 23.2986407 ], [ 86.7918701, 23.298991 ], [ 86.7865341, 23.3039182 ], [ 86.7850884, 23.3093305 ], [ 86.7855277, 23.3174348 ], [ 86.7873131, 23.3232012 ], [ 86.7860372, 23.3302569 ], [ 86.7889104, 23.3401324 ], [ 86.7954562, 23.3417296 ], [ 86.7967504, 23.3441818 ], [ 86.799153, 23.3410361 ], [ 86.8053566, 23.3430437 ], [ 86.8101787, 23.3407206 ], [ 86.8101078, 23.3455966 ], [ 86.8119353, 23.3480804 ], [ 86.8111406, 23.3532495 ], [ 86.8155539, 23.358222 ], [ 86.815934, 23.3611206 ], [ 86.818536, 23.3601194 ], [ 86.8243302, 23.3614622 ], [ 86.8320137, 23.3580154 ], [ 86.8356355, 23.3637501 ], [ 86.8350028, 23.3694746 ], [ 86.8374172, 23.3745046 ], [ 86.8330442, 23.3768556 ], [ 86.8310086, 23.3799432 ], [ 86.8367687, 23.3844685 ], [ 86.841773, 23.3814448 ], [ 86.8460287, 23.3818647 ], [ 86.8516468, 23.3851804 ], [ 86.8501247, 23.3902456 ], [ 86.8542813, 23.3962825 ], [ 86.8523827, 23.400517 ], [ 86.8477933, 23.4054237 ], [ 86.8506582, 23.4139615 ], [ 86.8498939, 23.4194377 ], [ 86.8536901, 23.4203322 ], [ 86.8543455, 23.4216371 ], [ 86.8563123, 23.4213168 ], [ 86.8567816, 23.423818 ], [ 86.8598877, 23.4276062 ], [ 86.8628821, 23.4265139 ], [ 86.8636155, 23.4314937 ], [ 86.8660615, 23.4360176 ], [ 86.8620589, 23.4381844 ], [ 86.8611633, 23.4402204 ], [ 86.8553648, 23.4417502 ], [ 86.8458589, 23.435893 ], [ 86.8408868, 23.4396888 ], [ 86.8371244, 23.4387038 ], [ 86.8363091, 23.4345405 ], [ 86.8256461, 23.437039 ], [ 86.8249498, 23.4407769 ], [ 86.826929, 23.4474142 ], [ 86.8231984, 23.452194 ], [ 86.8243474, 23.4547316 ], [ 86.8233919, 23.4577335 ], [ 86.8270169, 23.4611117 ], [ 86.8265355, 23.4660552 ], [ 86.8378165, 23.4647175 ], [ 86.8463315, 23.4665027 ], [ 86.857064, 23.4660755 ], [ 86.8655848, 23.4619905 ], [ 86.8727491, 23.4707223 ], [ 86.8725386, 23.4733362 ], [ 86.8705025, 23.4756296 ], [ 86.8722886, 23.4835846 ], [ 86.8710452, 23.4864197 ], [ 86.8726702, 23.4879458 ], [ 86.8731205, 23.4909435 ], [ 86.8745009, 23.489255 ], [ 86.8816326, 23.489106 ], [ 86.8805461, 23.4907042 ], [ 86.8824357, 23.4974491 ], [ 86.8927787, 23.4942294 ], [ 86.9060536, 23.4925028 ], [ 86.9055993, 23.4964352 ], [ 86.9011703, 23.5018114 ], [ 86.8977437, 23.5031979 ], [ 86.8969958, 23.5097623 ], [ 86.8944112, 23.5116091 ], [ 86.8937708, 23.5191035 ], [ 86.8971067, 23.5304755 ], [ 86.8958783, 23.5343537 ], [ 86.8912956, 23.5383091 ], [ 86.88445, 23.5366978 ], [ 86.8825551, 23.5376775 ], [ 86.886155, 23.5513477 ], [ 86.8855482, 23.5572619 ], [ 86.8833445, 23.557876 ], [ 86.8784274, 23.5556505 ], [ 86.8801759, 23.5583953 ], [ 86.879554, 23.561393 ], [ 86.8805923, 23.5635826 ], [ 86.8794072, 23.5671175 ], [ 86.8643859, 23.5675866 ], [ 86.8662614, 23.5703542 ], [ 86.870361, 23.5701242 ], [ 86.8811266, 23.5754876 ], [ 86.8832325, 23.5718894 ], [ 86.88504, 23.5734604 ], [ 86.8921519, 23.5749948 ], [ 86.8921815, 23.5766245 ], [ 86.8877444, 23.5827468 ], [ 86.8882051, 23.5861327 ], [ 86.8906693, 23.5882001 ], [ 86.8912869, 23.5915635 ], [ 86.88827, 23.5993108 ], [ 86.8883731, 23.6023356 ], [ 86.8948599, 23.6058744 ], [ 86.8951794, 23.6130165 ], [ 86.8967816, 23.6140185 ], [ 86.8970124, 23.6171786 ], [ 86.895867, 23.6242893 ], [ 86.8944364, 23.626005 ], [ 86.8959505, 23.6263524 ], [ 86.8951472, 23.6279868 ], [ 86.8986605, 23.6282572 ], [ 86.901983, 23.6301619 ], [ 86.9023619, 23.6381391 ], [ 86.9084614, 23.632436 ], [ 86.917124, 23.6295041 ] ] ] } }
]
}
