{
"type": "FeatureCollection",
"name": "1919",
"crs": { "type": "name", "properties": { "name": "urn:ogc:def:crs:OGC:1.3:CRS84" } },
"features": [
{ "type": "Feature", "properties": { "code": "1919", "name": "Purba Medinipur", "type": "district" }, "geometry": { "type": "MultiPolygon", "coordinates": [ [ [ [ 88.0001367, 22.2429641 ], [ 87.9961209, 22.2382815 ], [ 87.9864903, 22.2382589 ], [ 87.9849355, 22.2393208 ], [ 87.9698513, 22.2561728 ], [ 87.9681063, 22.2599637 ], [ 87.9683595, 22.2647289 ], [ 87.9789736, 22.2603456 ], [ 87.9908136, 22.2528918 ], [ 87.9953555, 22.2491406 ], [ 87.9954829, 22.2449547 ], [ 88.0001367, 22.2429641 ] ] ], [ [ [ 87.8861712, 22.5114851 ], [ 87.8845289, 22.5065569 ], [ 87.8799097, 22.5026435 ], [ 87.8796451, 22.4978326 ], [ 87.8828325, 22.4908203 ], [ 87.8905382, 22.4841689 ], [ 87.8931517, 22.4800959 ], [ 87.8919511, 22.4754906 ], [ 87.8851149, 22.4693458 ], [ 87.8758698, 22.4562969 ], [ 87.8744806, 22.4512128 ], [ 87.8752384, 22.4466388 ], [ 87.8779245, 22.4414643 ], [ 87.8817276, 22.4376127 ], [ 87.8833402, 22.438448 ], [ 87.8913733, 22.4327582 ], [ 87.8980464, 22.4303147 ], [ 87.921231, 22.4240563 ], [ 87.9332965, 22.4157761 ], [ 87.9389784, 22.4050727 ], [ 87.9436001, 22.3822055 ], [ 87.9487238, 22.3757239 ], [ 87.9538209, 22.3657246 ], [ 87.9557818, 22.3564628 ], [ 87.9518326, 22.3242299 ], [ 87.952837, 22.3150091 ], [ 87.9489448, 22.3050997 ], [ 87.9559319, 22.2697323 ], [ 87.9478635, 22.2587999 ], [ 87.9469118, 22.2570347 ], [ 87.9476431, 22.2547542 ], [ 87.9588908, 22.2444716 ], [ 87.9652677, 22.2420571 ], [ 87.9710755, 22.2377552 ], [ 87.9730178, 22.2338212 ], [ 87.9722916, 22.228787 ], [ 87.973403, 22.2227944 ], [ 87.9771418, 22.2208403 ], [ 87.9825664, 22.2147418 ], [ 87.983886, 22.2140698 ], [ 87.9838679, 22.2184331 ], [ 87.9812765, 22.2189862 ], [ 87.9761718, 22.2236691 ], [ 87.9752252, 22.2333992 ], [ 87.9816962, 22.2318878 ], [ 87.9819842, 22.2286657 ], [ 87.9862141, 22.2272083 ], [ 87.9822592, 22.2291383 ], [ 87.9832685, 22.2305549 ], [ 87.9918616, 22.2244976 ], [ 87.9977687, 22.2084276 ], [ 88.0081508, 22.2020833 ], [ 88.0174434, 22.1995296 ], [ 88.0234171, 22.199687 ], [ 88.0270085, 22.2018792 ], [ 88.0292738, 22.2077777 ], [ 88.0347768, 22.2089323 ], [ 88.0497196, 22.2047678 ], [ 88.0666883, 22.1888402 ], [ 88.0737047, 22.1871312 ], [ 88.0844297, 22.1867912 ], [ 88.0878191, 22.1855638 ], [ 88.0912467, 22.1866624 ], [ 88.0951487, 22.1909884 ], [ 88.0996335, 22.1915266 ], [ 88.1010253, 22.190565 ], [ 88.1033717, 22.1921954 ], [ 88.1211373, 22.1869455 ], [ 88.1320367, 22.1863676 ], [ 88.1358861, 22.184778 ], [ 88.1571208, 22.1562696 ], [ 88.1561318, 22.155439 ], [ 88.1579835, 22.1555289 ], [ 88.1614239, 22.1507735 ], [ 88.1688335, 22.1448294 ], [ 88.1725689, 22.1374275 ], [ 88.1811667, 22.1257391 ], [ 88.1901088, 22.116267 ], [ 88.1894317, 22.1080807 ], [ 88.1854831, 22.0982386 ], [ 88.171726, 22.0800727 ], [ 88.164249, 22.0745341 ], [ 88.1593062, 22.0685341 ], [ 88.1519319, 22.0623989 ], [ 88.1258072, 22.0498343 ], [ 88.082992, 22.021715 ], [ 88.0630773, 22.0133142 ], [ 88.055613, 22.0200554 ], [ 88.0499688, 22.0137551 ], [ 88.052422, 22.0073222 ], [ 88.0496073, 22.000814 ], [ 88.0360032, 21.9821789 ], [ 88.032142, 21.971353 ], [ 88.0256568, 21.9618575 ], [ 88.0181334, 21.943768 ], [ 88.0134931, 21.9420038 ], [ 88.0107965, 21.9428464 ], [ 88.0119884, 21.9412893 ], [ 88.0156519, 21.9418788 ], [ 88.0166163, 21.9402133 ], [ 88.0136749, 21.9325078 ], [ 88.0119806, 21.9209197 ], [ 88.0018237, 21.9063148 ], [ 88.0036646, 21.905999 ], [ 87.9999978, 21.9054615 ], [ 88.0016329, 21.9053291 ], [ 87.9971759, 21.8965344 ], [ 87.9855035, 21.8816187 ], [ 87.9776277, 21.8686369 ], [ 87.9750277, 21.8654143 ], [ 87.9706578, 21.8629649 ], [ 87.9680839, 21.8547706 ], [ 87.9555146, 21.8417045 ], [ 87.9533501, 21.8371989 ], [ 87.9492238, 21.8357017 ], [ 87.9483521, 21.8333674 ], [ 87.9451612, 21.835744 ], [ 87.9480619, 21.833214 ], [ 87.946735, 21.8298459 ], [ 87.9355394, 21.8192026 ], [ 87.9169316, 21.8058283 ], [ 87.9120762, 21.8033234 ], [ 87.9119508, 21.8048406 ], [ 87.9088317, 21.8034865 ], [ 87.9092423, 21.8019648 ], [ 87.9132512, 21.8031741 ], [ 87.9112877, 21.8018288 ], [ 87.9066647, 21.8001138 ], [ 87.9036862, 21.8007962 ], [ 87.8944308, 21.7957851 ], [ 87.8832665, 21.7933498 ], [ 87.8855192, 21.7899923 ], [ 87.8835316, 21.7819771 ], [ 87.8770434, 21.7748291 ], [ 87.872383, 21.7725531 ], [ 87.8666402, 21.7668496 ], [ 87.8625319, 21.7576193 ], [ 87.8555236, 21.7524618 ], [ 87.8619086, 21.7562465 ], [ 87.8607729, 21.7533248 ], [ 87.8339847, 21.7351053 ], [ 87.8268487, 21.7276615 ], [ 87.8182486, 21.7214587 ], [ 87.8151426, 21.718414 ], [ 87.8131164, 21.7103212 ], [ 87.807639, 21.7051937 ], [ 87.7959829, 21.6981891 ], [ 87.7854616, 21.6941964 ], [ 87.7696761, 21.6941643 ], [ 87.761691, 21.6979296 ], [ 87.7601707, 21.7017804 ], [ 87.7588151, 21.6989797 ], [ 87.7567962, 21.6981113 ], [ 87.751818, 21.6995436 ], [ 87.7564521, 21.6992941 ], [ 87.7574612, 21.7002296 ], [ 87.746989, 21.6997756 ], [ 87.7437389, 21.6960434 ], [ 87.7480352, 21.6934446 ], [ 87.747701, 21.6889015 ], [ 87.743812, 21.6847993 ], [ 87.7372097, 21.681521 ], [ 87.7326097, 21.680824 ], [ 87.7312965, 21.6820848 ], [ 87.7318068, 21.6796324 ], [ 87.7395428, 21.680973 ], [ 87.7331372, 21.6754636 ], [ 87.7126857, 21.6653287 ], [ 87.6739626, 21.6525287 ], [ 87.6514087, 21.6485057 ], [ 87.6448204, 21.6496805 ], [ 87.6414974, 21.6519613 ], [ 87.6404639, 21.6548198 ], [ 87.6436525, 21.6592539 ], [ 87.6465753, 21.6604367 ], [ 87.6439332, 21.6631058 ], [ 87.6430054, 21.6604417 ], [ 87.6371841, 21.6555877 ], [ 87.6343387, 21.6495911 ], [ 87.6319524, 21.6478029 ], [ 87.5641754, 21.634366 ], [ 87.5565875, 21.6349772 ], [ 87.5535577, 21.6380465 ], [ 87.5514249, 21.6340627 ], [ 87.5517208, 21.6315477 ], [ 87.5478378, 21.6313832 ], [ 87.5340376, 21.6265986 ], [ 87.5328216, 21.6251258 ], [ 87.5052557, 21.6183208 ], [ 87.484787, 21.6112612 ], [ 87.4845267, 21.6249575 ], [ 87.4860148, 21.6322358 ], [ 87.480611, 21.6332056 ], [ 87.4811782, 21.6360186 ], [ 87.4793074, 21.6371579 ], [ 87.4793064, 21.6392485 ], [ 87.4751656, 21.6439924 ], [ 87.4764702, 21.6447638 ], [ 87.4764717, 21.6469314 ], [ 87.4719562, 21.6480629 ], [ 87.4725629, 21.6524699 ], [ 87.4612634, 21.6503672 ], [ 87.4603704, 21.6513973 ], [ 87.4605031, 21.6554432 ], [ 87.4624805, 21.6584407 ], [ 87.4612753, 21.6626408 ], [ 87.4671987, 21.6641324 ], [ 87.4667295, 21.6785693 ], [ 87.4694496, 21.6787258 ], [ 87.4686117, 21.6830884 ], [ 87.4711149, 21.6838908 ], [ 87.4708425, 21.6885783 ], [ 87.4695869, 21.6893466 ], [ 87.4719842, 21.6906548 ], [ 87.471234, 21.6961779 ], [ 87.4736312, 21.6971067 ], [ 87.4721969, 21.6981462 ], [ 87.4730673, 21.6991392 ], [ 87.4717938, 21.6988092 ], [ 87.4708005, 21.7056701 ], [ 87.4724011, 21.7073399 ], [ 87.4735898, 21.7145688 ], [ 87.4712286, 21.717415 ], [ 87.4674069, 21.7186771 ], [ 87.465979, 21.7228774 ], [ 87.4634626, 21.7253804 ], [ 87.4638606, 21.7283244 ], [ 87.4670886, 21.7275685 ], [ 87.4691844, 21.7325165 ], [ 87.4650565, 21.7317782 ], [ 87.4596399, 21.733944 ], [ 87.4447782, 21.7340321 ], [ 87.4452927, 21.7386965 ], [ 87.4531946, 21.737799 ], [ 87.454172, 21.739808 ], [ 87.4491956, 21.7435672 ], [ 87.4454255, 21.7437856 ], [ 87.4472441, 21.7462142 ], [ 87.4452292, 21.7476827 ], [ 87.4441458, 21.7564874 ], [ 87.4455822, 21.7680423 ], [ 87.4402895, 21.7699275 ], [ 87.4415189, 21.7732143 ], [ 87.439446, 21.7755994 ], [ 87.438095, 21.7818586 ], [ 87.4388188, 21.7897878 ], [ 87.4354161, 21.7927106 ], [ 87.4279122, 21.792993 ], [ 87.4259889, 21.7962268 ], [ 87.431262, 21.8035133 ], [ 87.436262, 21.8037645 ], [ 87.4385221, 21.8082477 ], [ 87.4372233, 21.8129534 ], [ 87.4388047, 21.8133502 ], [ 87.4412841, 21.8210484 ], [ 87.4447904, 21.821512 ], [ 87.444653, 21.827283 ], [ 87.4406563, 21.8338232 ], [ 87.441046, 21.8400817 ], [ 87.4456656, 21.8413849 ], [ 87.4512396, 21.8453832 ], [ 87.4565069, 21.845313 ], [ 87.4567777, 21.8539828 ], [ 87.454317, 21.8565217 ], [ 87.4554882, 21.8574062 ], [ 87.4552139, 21.8601925 ], [ 87.4570816, 21.8610405 ], [ 87.4574367, 21.8645309 ], [ 87.4558315, 21.8748272 ], [ 87.4510814, 21.8762698 ], [ 87.4501824, 21.8779365 ], [ 87.4487178, 21.8901653 ], [ 87.4497449, 21.8926664 ], [ 87.4549794, 21.8915983 ], [ 87.4569831, 21.8923786 ], [ 87.4605177, 21.8968066 ], [ 87.4671122, 21.8960851 ], [ 87.4715943, 21.8984217 ], [ 87.4771157, 21.8992899 ], [ 87.4777745, 21.9070969 ], [ 87.4840852, 21.9210775 ], [ 87.4810383, 21.9302867 ], [ 87.4814658, 21.9390465 ], [ 87.4863827, 21.9384473 ], [ 87.4890116, 21.9393757 ], [ 87.4920982, 21.9377435 ], [ 87.4952491, 21.9378 ], [ 87.4989844, 21.9437192 ], [ 87.4980714, 21.9471187 ], [ 87.4996368, 21.9502988 ], [ 87.5071415, 21.9478029 ], [ 87.5128961, 21.9484662 ], [ 87.5131116, 21.9513382 ], [ 87.5097564, 21.9523293 ], [ 87.5091588, 21.9550517 ], [ 87.5063004, 21.9580524 ], [ 87.5002727, 21.9592942 ], [ 87.497578, 21.9575355 ], [ 87.4859711, 21.9571192 ], [ 87.4843442, 21.962977 ], [ 87.4845961, 21.969592 ], [ 87.4814314, 21.9781013 ], [ 87.4791863, 21.9796877 ], [ 87.4809124, 21.9833306 ], [ 87.4834486, 21.9822994 ], [ 87.4831689, 21.9902831 ], [ 87.4792038, 21.9907507 ], [ 87.4798281, 21.9970449 ], [ 87.4787222, 22.0011519 ], [ 87.4690452, 22.0047655 ], [ 87.4611334, 22.0053522 ], [ 87.4599912, 22.0064365 ], [ 87.4635928, 22.0126209 ], [ 87.4624295, 22.0188077 ], [ 87.4651462, 22.0265684 ], [ 87.4721894, 22.0287319 ], [ 87.4715908, 22.0316447 ], [ 87.4750112, 22.0332547 ], [ 87.4751967, 22.0354582 ], [ 87.4774391, 22.0352987 ], [ 87.477993, 22.0377548 ], [ 87.4814597, 22.0363438 ], [ 87.4838725, 22.0319516 ], [ 87.4855729, 22.0315006 ], [ 87.4905531, 22.0455087 ], [ 87.4847454, 22.0451288 ], [ 87.4785417, 22.0465009 ], [ 87.4783861, 22.0524525 ], [ 87.4803578, 22.0594277 ], [ 87.4821174, 22.0611424 ], [ 87.4871275, 22.0626201 ], [ 87.4849972, 22.0642471 ], [ 87.4768552, 22.0659231 ], [ 87.4746035, 22.0741697 ], [ 87.4783493, 22.0755942 ], [ 87.4844146, 22.0817133 ], [ 87.4888784, 22.0839003 ], [ 87.49193, 22.0889645 ], [ 87.509355, 22.0871993 ], [ 87.5140634, 22.0883947 ], [ 87.5190448, 22.0875672 ], [ 87.5308225, 22.0886447 ], [ 87.5328531, 22.0876524 ], [ 87.532836, 22.0842975 ], [ 87.536796, 22.0816491 ], [ 87.5393735, 22.0815647 ], [ 87.5439794, 22.0841996 ], [ 87.5537427, 22.0826916 ], [ 87.5553752, 22.0832432 ], [ 87.5610107, 22.091861 ], [ 87.5641154, 22.0945354 ], [ 87.5674002, 22.0950108 ], [ 87.575134, 22.0930808 ], [ 87.5941687, 22.1030015 ], [ 87.6118409, 22.1002091 ], [ 87.6152471, 22.1019297 ], [ 87.6243858, 22.1017179 ], [ 87.6383799, 22.104508 ], [ 87.6524708, 22.1031202 ], [ 87.6733897, 22.1047185 ], [ 87.6768954, 22.1109985 ], [ 87.6855524, 22.1167663 ], [ 87.6909292, 22.1223815 ], [ 87.6992995, 22.1239764 ], [ 87.7020193, 22.1258085 ], [ 87.7052591, 22.1475578 ], [ 87.7042827, 22.1527239 ], [ 87.7085758, 22.1583299 ], [ 87.7087347, 22.1647327 ], [ 87.7126793, 22.1703659 ], [ 87.7084217, 22.1768386 ], [ 87.7095293, 22.1805226 ], [ 87.7131943, 22.1800963 ], [ 87.7151865, 22.1870986 ], [ 87.7187128, 22.1821297 ], [ 87.722941, 22.1828181 ], [ 87.7276176, 22.1867391 ], [ 87.729249, 22.1898809 ], [ 87.7283975, 22.192532 ], [ 87.7295256, 22.2036391 ], [ 87.7130938, 22.2060689 ], [ 87.7135991, 22.2155419 ], [ 87.7019127, 22.216952 ], [ 87.6991448, 22.2191658 ], [ 87.7057489, 22.2692339 ], [ 87.7078448, 22.2694405 ], [ 87.7059005, 22.2800526 ], [ 87.7084908, 22.2875512 ], [ 87.7148341, 22.2982087 ], [ 87.7205803, 22.3143478 ], [ 87.7238448, 22.3193398 ], [ 87.7145979, 22.3239236 ], [ 87.7068533, 22.325797 ], [ 87.705913, 22.3279422 ], [ 87.6991336, 22.3293316 ], [ 87.6952012, 22.3268996 ], [ 87.6777286, 22.3244993 ], [ 87.6744772, 22.3255207 ], [ 87.6729109, 22.3293774 ], [ 87.6713183, 22.327102 ], [ 87.6680425, 22.3275318 ], [ 87.6669012, 22.3248365 ], [ 87.6642897, 22.3233065 ], [ 87.6633788, 22.3286708 ], [ 87.6653499, 22.3312125 ], [ 87.6599334, 22.3307396 ], [ 87.6565751, 22.3319639 ], [ 87.6551675, 22.3315443 ], [ 87.654104, 22.3283927 ], [ 87.6512351, 22.3256298 ], [ 87.6474641, 22.3251156 ], [ 87.6471008, 22.3298025 ], [ 87.6497897, 22.3308497 ], [ 87.6497899, 22.3322992 ], [ 87.6460188, 22.331654 ], [ 87.6440775, 22.3331849 ], [ 87.6462718, 22.3369007 ], [ 87.6438848, 22.3444235 ], [ 87.6454726, 22.3485548 ], [ 87.6450273, 22.3587686 ], [ 87.646125, 22.362507 ], [ 87.6443095, 22.3635413 ], [ 87.6478976, 22.367397 ], [ 87.6483742, 22.3731178 ], [ 87.6510744, 22.3781113 ], [ 87.6542437, 22.3968989 ], [ 87.6578425, 22.4006008 ], [ 87.6582229, 22.4076356 ], [ 87.6580873, 22.4092971 ], [ 87.6560432, 22.4109185 ], [ 87.6553702, 22.420622 ], [ 87.6527574, 22.4208572 ], [ 87.6520251, 22.426533 ], [ 87.6462462, 22.4310446 ], [ 87.6460525, 22.4350767 ], [ 87.649793, 22.4387878 ], [ 87.6527338, 22.4461093 ], [ 87.6528845, 22.4506354 ], [ 87.6546482, 22.4528069 ], [ 87.6565087, 22.4530053 ], [ 87.6592797, 22.4619043 ], [ 87.6675425, 22.4601775 ], [ 87.6711571, 22.4610119 ], [ 87.6742296, 22.4680051 ], [ 87.6727762, 22.4798445 ], [ 87.6738075, 22.4836506 ], [ 87.6832695, 22.4887994 ], [ 87.6889889, 22.4898855 ], [ 87.6913585, 22.5073754 ], [ 87.6985781, 22.5042884 ], [ 87.7095421, 22.4896324 ], [ 87.7389756, 22.4872893 ], [ 87.7414568, 22.4852827 ], [ 87.7409825, 22.4816122 ], [ 87.7463924, 22.4785379 ], [ 87.7457624, 22.4747049 ], [ 87.7571364, 22.4730314 ], [ 87.7616545, 22.4732198 ], [ 87.7622799, 22.4748231 ], [ 87.7703038, 22.4777364 ], [ 87.7765803, 22.4786073 ], [ 87.77892, 22.4816746 ], [ 87.7845586, 22.4851411 ], [ 87.7881197, 22.4781309 ], [ 87.7904511, 22.4793648 ], [ 87.7932887, 22.4788878 ], [ 87.7990198, 22.4826608 ], [ 87.805468, 22.4906784 ], [ 87.8160874, 22.4959294 ], [ 87.8163533, 22.4991489 ], [ 87.8216593, 22.4997783 ], [ 87.8251147, 22.4985695 ], [ 87.8293222, 22.5002187 ], [ 87.8329703, 22.5043366 ], [ 87.8392823, 22.5055256 ], [ 87.8465561, 22.5097443 ], [ 87.8465556, 22.5119207 ], [ 87.8566252, 22.5098318 ], [ 87.8723462, 22.5108985 ], [ 87.8845535, 22.5092412 ], [ 87.8860508, 22.5162217 ], [ 87.8906373, 22.5193933 ], [ 87.8911452, 22.5148415 ], [ 87.8861712, 22.5114851 ] ] ] ] } }
]
}
