{
"type": "FeatureCollection",
"name": "1926",
"crs": { "type": "name", "properties": { "name": "urn:ogc:def:crs:OGC:1.3:CRS84" } },
"features": [
{ "type": "Feature", "properties": { "code": "1926", "name": "Paschim Bardhaman", "type": "district" }, "geometry": { "type": "Polygon", "coordinates": [ [ [ 86.9162049, 23.8818593 ], [ 86.9276662, 23.8738236 ], [ 86.9324799, 23.8686574 ], [ 86.9331568, 23.8563057 ], [ 86.9357171, 23.8518444 ], [ 86.9459923, 23.8465763 ], [ 86.9562849, 23.8468557 ], [ 86.9614841, 23.8491508 ], [ 86.9637498, 23.8535691 ], [ 86.9656569, 23.8647638 ], [ 86.9682851, 23.8674755 ], [ 86.9732392, 23.8687727 ], [ 86.9859556, 23.8595998 ], [ 87.0110019, 23.8525953 ], [ 87.0242316, 23.8444697 ], [ 87.0379678, 23.8392143 ], [ 87.0573293, 23.8209768 ], [ 87.0652122, 23.816723 ], [ 87.0734421, 23.8148616 ], [ 87.0909671, 23.8061853 ], [ 87.1010374, 23.7965353 ], [ 87.1153461, 23.7737072 ], [ 87.1201094, 23.7685745 ], [ 87.1301307, 23.7634371 ], [ 87.1416025, 23.7550755 ], [ 87.1509455, 23.7520586 ], [ 87.1551431, 23.7487332 ], [ 87.1638783, 23.7503115 ], [ 87.165962, 23.747679 ], [ 87.1701456, 23.7480073 ], [ 87.1767975, 23.7517254 ], [ 87.1853903, 23.7517719 ], [ 87.1915146, 23.7487899 ], [ 87.209814, 23.7499504 ], [ 87.2141715, 23.7460159 ], [ 87.2178784, 23.7449663 ], [ 87.2207839, 23.7409963 ], [ 87.2257708, 23.7401625 ], [ 87.2329775, 23.7410206 ], [ 87.2426843, 23.744602 ], [ 87.2475583, 23.7436999 ], [ 87.2496521, 23.7463833 ], [ 87.2553244, 23.7487173 ], [ 87.2639998, 23.7494236 ], [ 87.2684099, 23.7481988 ], [ 87.2706632, 23.7454736 ], [ 87.279116, 23.7288522 ], [ 87.2931204, 23.7222286 ], [ 87.2977545, 23.7215177 ], [ 87.3124888, 23.7228789 ], [ 87.3309475, 23.7174184 ], [ 87.3411008, 23.7227256 ], [ 87.3552037, 23.7198388 ], [ 87.3603431, 23.7144717 ], [ 87.3636782, 23.7054068 ], [ 87.3670565, 23.7022739 ], [ 87.3878634, 23.6991408 ], [ 87.4095548, 23.6885872 ], [ 87.414608, 23.6848389 ], [ 87.4173509, 23.677642 ], [ 87.4095824, 23.6615269 ], [ 87.4099735, 23.6576262 ], [ 87.417567, 23.6474576 ], [ 87.423888, 23.6450179 ], [ 87.4254007, 23.6406745 ], [ 87.433321, 23.6320715 ], [ 87.4418786, 23.6162715 ], [ 87.4459634, 23.6136423 ], [ 87.4557952, 23.6115203 ], [ 87.4674863, 23.6133829 ], [ 87.4736445, 23.6127787 ], [ 87.486365, 23.608829 ], [ 87.498713, 23.6008354 ], [ 87.5023038, 23.6010279 ], [ 87.5066377, 23.6028055 ], [ 87.5102989, 23.606578 ], [ 87.5120301, 23.6101097 ], [ 87.5126371, 23.6164576 ], [ 87.5145903, 23.6183552 ], [ 87.5263477, 23.6207244 ], [ 87.5310135, 23.618795 ], [ 87.5347882, 23.6097549 ], [ 87.5331834, 23.605993 ], [ 87.5326005, 23.5989318 ], [ 87.5285118, 23.5897963 ], [ 87.524644, 23.5871302 ], [ 87.5194503, 23.588779 ], [ 87.5150525, 23.5816158 ], [ 87.5132321, 23.5796732 ], [ 87.5110182, 23.5795948 ], [ 87.5118859, 23.5787421 ], [ 87.5045197, 23.5727637 ], [ 87.4975247, 23.5598418 ], [ 87.4943257, 23.5588646 ], [ 87.4906628, 23.5536213 ], [ 87.4874645, 23.5530141 ], [ 87.4909128, 23.5480727 ], [ 87.4918979, 23.5377966 ], [ 87.4880696, 23.5387746 ], [ 87.4849689, 23.5375669 ], [ 87.4782205, 23.542691 ], [ 87.479498, 23.5357061 ], [ 87.4778755, 23.5333911 ], [ 87.4751673, 23.5327969 ], [ 87.4769538, 23.5318432 ], [ 87.4801957, 23.5324867 ], [ 87.4791004, 23.5281127 ], [ 87.4827607, 23.5254827 ], [ 87.4831216, 23.5237579 ], [ 87.4895776, 23.5272296 ], [ 87.4930086, 23.5257328 ], [ 87.4979907, 23.5275446 ], [ 87.5016105, 23.5259989 ], [ 87.5038078, 23.5270752 ], [ 87.5088521, 23.525797 ], [ 87.5107048, 23.5235591 ], [ 87.5143315, 23.5252411 ], [ 87.5120734, 23.5263275 ], [ 87.5137807, 23.5280038 ], [ 87.5165973, 23.526534 ], [ 87.5198825, 23.5266762 ], [ 87.5246438, 23.5239029 ], [ 87.5352269, 23.527151 ], [ 87.5405462, 23.5241202 ], [ 87.5430806, 23.5268168 ], [ 87.5468753, 23.5267014 ], [ 87.5509472, 23.529787 ], [ 87.5539985, 23.5282083 ], [ 87.5582579, 23.5288558 ], [ 87.5631012, 23.5270339 ], [ 87.566478, 23.5304709 ], [ 87.5704744, 23.528215 ], [ 87.5739253, 23.5307083 ], [ 87.5776611, 23.5309759 ], [ 87.5767757, 23.5285378 ], [ 87.5781571, 23.5269174 ], [ 87.576649, 23.5269666 ], [ 87.5747019, 23.5231105 ], [ 87.5761776, 23.5177385 ], [ 87.5695766, 23.5096369 ], [ 87.5702004, 23.5065366 ], [ 87.5649425, 23.5052154 ], [ 87.5595045, 23.495668 ], [ 87.5568714, 23.4936586 ], [ 87.5529484, 23.493492 ], [ 87.5535883, 23.4966375 ], [ 87.5519446, 23.4970363 ], [ 87.5513268, 23.4944958 ], [ 87.5402035, 23.4938302 ], [ 87.5403625, 23.4908083 ], [ 87.5381213, 23.4899489 ], [ 87.5393044, 23.487086 ], [ 87.5372258, 23.4876758 ], [ 87.5349212, 23.4862681 ], [ 87.5354307, 23.484525 ], [ 87.5318955, 23.4845371 ], [ 87.531135, 23.4829184 ], [ 87.5332785, 23.4777715 ], [ 87.5366164, 23.4750232 ], [ 87.5399745, 23.4748851 ], [ 87.5429301, 23.4756697 ], [ 87.5441771, 23.4776977 ], [ 87.5463699, 23.477541 ], [ 87.5432726, 23.4720464 ], [ 87.5444771, 23.4637051 ], [ 87.5407841, 23.4681078 ], [ 87.5391091, 23.4679375 ], [ 87.5388896, 23.4621212 ], [ 87.5404862, 23.4562671 ], [ 87.5380063, 23.4555485 ], [ 87.5421486, 23.4497668 ], [ 87.5460825, 23.4481317 ], [ 87.5507109, 23.4487387 ], [ 87.5556766, 23.4527542 ], [ 87.558503, 23.4531957 ], [ 87.5595113, 23.4578033 ], [ 87.5603775, 23.4519516 ], [ 87.5629336, 23.4498242 ], [ 87.5631564, 23.4469601 ], [ 87.5659773, 23.4472615 ], [ 87.5670519, 23.4352622 ], [ 87.5697439, 23.4318336 ], [ 87.5703787, 23.4234806 ], [ 87.5717626, 23.4220755 ], [ 87.5702941, 23.4205658 ], [ 87.5678878, 23.4074928 ], [ 87.5716993, 23.4039471 ], [ 87.5764412, 23.4039704 ], [ 87.5696659, 23.3873028 ], [ 87.5693235, 23.3815999 ], [ 87.5656029, 23.37763 ], [ 87.5659142, 23.3714279 ], [ 87.5682162, 23.3697711 ], [ 87.5677378, 23.365401 ], [ 87.5642557, 23.3610237 ], [ 87.5589666, 23.3607852 ], [ 87.557859, 23.3591271 ], [ 87.5583491, 23.3570253 ], [ 87.5553803, 23.3536034 ], [ 87.5505219, 23.3545464 ], [ 87.5493959, 23.3507611 ], [ 87.5410628, 23.3464318 ], [ 87.5422764, 23.3453573 ], [ 87.5414198, 23.3439918 ], [ 87.5350505, 23.3437653 ], [ 87.5354215, 23.3423594 ], [ 87.5407612, 23.340801 ], [ 87.5399268, 23.3376514 ], [ 87.5440145, 23.3337531 ], [ 87.5426855, 23.3292639 ], [ 87.5458446, 23.3243978 ], [ 87.5447828, 23.3230692 ], [ 87.5472933, 23.3222791 ], [ 87.5449977, 23.3218129 ], [ 87.5429502, 23.318129 ], [ 87.536687, 23.3228813 ], [ 87.5239655, 23.3370363 ], [ 87.4992052, 23.3485623 ], [ 87.4911536, 23.3562227 ], [ 87.4888596, 23.3613667 ], [ 87.4774753, 23.3742775 ], [ 87.4738378, 23.3756116 ], [ 87.468297, 23.3831907 ], [ 87.4416979, 23.408649 ], [ 87.4302582, 23.4143419 ], [ 87.4278033, 23.4169296 ], [ 87.4195317, 23.4200427 ], [ 87.4112559, 23.4271644 ], [ 87.3959872, 23.4335509 ], [ 87.3910308, 23.4339758 ], [ 87.3775121, 23.4401345 ], [ 87.3690517, 23.4464052 ], [ 87.3605859, 23.4507026 ], [ 87.3538513, 23.4580517 ], [ 87.3437735, 23.4649348 ], [ 87.3309443, 23.4714327 ], [ 87.3170821, 23.4759155 ], [ 87.3028456, 23.4826138 ], [ 87.2939083, 23.4900585 ], [ 87.2747173, 23.5006506 ], [ 87.2712909, 23.5064587 ], [ 87.2676412, 23.509481 ], [ 87.2488282, 23.5190062 ], [ 87.2421219, 23.5287789 ], [ 87.2167396, 23.5502853 ], [ 87.2103926, 23.5575213 ], [ 87.1985032, 23.5599606 ], [ 87.1916195, 23.5643339 ], [ 87.1848031, 23.566815 ], [ 87.1736554, 23.5650761 ], [ 87.1659368, 23.5655162 ], [ 87.1558533, 23.5683537 ], [ 87.1535272, 23.5707558 ], [ 87.1480813, 23.5731404 ], [ 87.1424731, 23.5729198 ], [ 87.1276373, 23.5764782 ], [ 87.1218527, 23.5764014 ], [ 87.0974526, 23.5898207 ], [ 87.0947282, 23.5932738 ], [ 87.0887116, 23.5966314 ], [ 87.0718332, 23.6015969 ], [ 87.0627179, 23.6082073 ], [ 87.0596344, 23.6120253 ], [ 87.0529256, 23.6146769 ], [ 87.0337271, 23.6180164 ], [ 87.0198176, 23.6295964 ], [ 87.0133618, 23.6325173 ], [ 87.0013279, 23.6315915 ], [ 86.9954741, 23.6335359 ], [ 86.9718408, 23.6269925 ], [ 86.9572329, 23.6331542 ], [ 86.9311927, 23.6312965 ], [ 86.9203286, 23.6293316 ], [ 86.9122047, 23.6305255 ], [ 86.9067663, 23.6336508 ], [ 86.9023619, 23.6381391 ], [ 86.8942096, 23.652167 ], [ 86.8879369, 23.6556573 ], [ 86.8778604, 23.6564478 ], [ 86.8639752, 23.6616887 ], [ 86.8581171, 23.6698007 ], [ 86.8579939, 23.6747487 ], [ 86.8477475, 23.6832074 ], [ 86.8263692, 23.6847956 ], [ 86.800615, 23.6993852 ], [ 86.7991284, 23.7012354 ], [ 86.7992937, 23.7037004 ], [ 86.8081972, 23.7223902 ], [ 86.8079582, 23.7294644 ], [ 86.8122855, 23.7447614 ], [ 86.8135405, 23.7460531 ], [ 86.8260944, 23.7492133 ], [ 86.8279372, 23.7527012 ], [ 86.828366, 23.7601953 ], [ 86.8258533, 23.7766815 ], [ 86.8202137, 23.7839344 ], [ 86.819839, 23.7882545 ], [ 86.81932, 23.7859294 ], [ 86.8090752, 23.7980466 ], [ 86.8050662, 23.798889 ], [ 86.8033575, 23.801299 ], [ 86.8065185, 23.8079909 ], [ 86.8100887, 23.8214095 ], [ 86.8074773, 23.8228123 ], [ 86.8038864, 23.8296772 ], [ 86.8005294, 23.8300232 ], [ 86.7994042, 23.8322438 ], [ 86.8057225, 23.8373301 ], [ 86.8102583, 23.8352871 ], [ 86.814776, 23.8299438 ], [ 86.8160296, 23.825168 ], [ 86.8137872, 23.8247472 ], [ 86.81295, 23.8207471 ], [ 86.8138732, 23.8193164 ], [ 86.8164064, 23.8168841 ], [ 86.8197329, 23.8177205 ], [ 86.8204455, 23.8155493 ], [ 86.8265356, 23.8139398 ], [ 86.8369464, 23.8195362 ], [ 86.8400272, 23.8224804 ], [ 86.8387851, 23.8245883 ], [ 86.8480405, 23.8236513 ], [ 86.8528985, 23.8249523 ], [ 86.8550224, 23.8305596 ], [ 86.8612742, 23.8350477 ], [ 86.8622405, 23.8393004 ], [ 86.8637667, 23.8405736 ], [ 86.8626524, 23.8420137 ], [ 86.8636289, 23.8444606 ], [ 86.8742155, 23.8473097 ], [ 86.8799728, 23.8452782 ], [ 86.8795161, 23.8352607 ], [ 86.8809441, 23.829008 ], [ 86.8864598, 23.8256491 ], [ 86.8860227, 23.8212023 ], [ 86.8902968, 23.8205022 ], [ 86.8945669, 23.8263481 ], [ 86.8928163, 23.8372823 ], [ 86.8893564, 23.8392961 ], [ 86.8863484, 23.8456933 ], [ 86.8870119, 23.8564421 ], [ 86.8809205, 23.8603745 ], [ 86.8802432, 23.8623247 ], [ 86.8875332, 23.8684866 ], [ 86.8959192, 23.8782867 ], [ 86.9026062, 23.8809447 ], [ 86.9132793, 23.8807935 ], [ 86.9162049, 23.8818593 ] ] ] } }
]
}
