{
"type": "FeatureCollection",
"name": "2001",
"crs": { "type": "name", "properties": { "name": "urn:ogc:def:crs:OGC:1.3:CRS84" } },
"features": [
{ "type": "Feature", "properties": { "code": "2001", "name": "Garhwa", "type": "district" }, "geometry": { "type": "Polygon", "coordinates": [ [ [ 83.8726578, 24.5318001 ], [ 83.8745229, 24.5323057 ], [ 83.874025, 24.5270619 ], [ 83.8582992, 24.4993415 ], [ 83.8537856, 24.4810689 ], [ 83.8544273, 24.4481535 ], [ 83.8570185, 24.4418281 ], [ 83.8577305, 24.4256219 ], [ 83.853032, 24.4013802 ], [ 83.8448939, 24.3934492 ], [ 83.8220382, 24.3783206 ], [ 83.8173012, 24.3722272 ], [ 83.8145316, 24.3630669 ], [ 83.8133187, 24.3503263 ], [ 83.8282778, 24.3313781 ], [ 83.8318044, 24.3225585 ], [ 83.8321891, 24.3181961 ], [ 83.8312497, 24.3132921 ], [ 83.8205579, 24.3027209 ], [ 83.8178815, 24.2949416 ], [ 83.8182658, 24.2917778 ], [ 83.81988, 24.288586 ], [ 83.829433, 24.280948 ], [ 83.8467799, 24.2567836 ], [ 83.8608203, 24.2412344 ], [ 83.8736405, 24.2219813 ], [ 83.877996, 24.2115004 ], [ 83.882252, 24.2050546 ], [ 83.8915721, 24.1972709 ], [ 83.906583, 24.1889992 ], [ 83.936114, 24.1631751 ], [ 83.9692342, 24.1500151 ], [ 83.9727579, 24.1405855 ], [ 83.9761636, 24.1407345 ], [ 83.9776588, 24.1394034 ], [ 83.9766499, 24.137184 ], [ 83.978083, 24.1334811 ], [ 83.9772688, 24.1275793 ], [ 83.9786815, 24.1234793 ], [ 83.9829342, 24.1205804 ], [ 83.9865861, 24.1135504 ], [ 83.9900465, 24.1113295 ], [ 83.9911966, 24.1062416 ], [ 83.989843, 24.1011224 ], [ 83.9844881, 24.1003674 ], [ 83.9788469, 24.1017788 ], [ 83.9782224, 24.1007659 ], [ 83.9714021, 24.1059571 ], [ 83.9689484, 24.1054666 ], [ 83.9609155, 24.1091549 ], [ 83.9550558, 24.0977626 ], [ 83.952413, 24.0948977 ], [ 83.9485965, 24.0951547 ], [ 83.944721, 24.0987272 ], [ 83.9397805, 24.100818 ], [ 83.9368736, 24.0970913 ], [ 83.9312808, 24.0956448 ], [ 83.927973, 24.0902156 ], [ 83.9214278, 24.0883711 ], [ 83.9178887, 24.0918234 ], [ 83.9116885, 24.0948521 ], [ 83.9111332, 24.0917947 ], [ 83.9083905, 24.0882332 ], [ 83.8980711, 24.0836976 ], [ 83.8927191, 24.086166 ], [ 83.8894911, 24.0795483 ], [ 83.8852579, 24.0783804 ], [ 83.8738295, 24.0694409 ], [ 83.8662, 24.0690861 ], [ 83.8657554, 24.0582719 ], [ 83.8641269, 24.0562017 ], [ 83.8632334, 24.0509475 ], [ 83.864001, 24.0451958 ], [ 83.8619587, 24.0423873 ], [ 83.8626414, 24.0385172 ], [ 83.8581285, 24.0347927 ], [ 83.8507048, 24.036965 ], [ 83.8490721, 24.035895 ], [ 83.8471979, 24.0326483 ], [ 83.8455305, 24.024134 ], [ 83.8317394, 24.0033482 ], [ 83.8267858, 24.0008757 ], [ 83.829937, 23.9955791 ], [ 83.8387602, 23.9910304 ], [ 83.8426294, 23.9908848 ], [ 83.8422616, 23.9874438 ], [ 83.8397412, 23.9882119 ], [ 83.8374414, 23.9855512 ], [ 83.8367078, 23.9794083 ], [ 83.8333796, 23.9722477 ], [ 83.8359807, 23.9697601 ], [ 83.8323372, 23.9654947 ], [ 83.8203052, 23.9629302 ], [ 83.8179741, 23.9603769 ], [ 83.8215828, 23.9555855 ], [ 83.8258792, 23.9559716 ], [ 83.8292419, 23.9515984 ], [ 83.8333469, 23.950169 ], [ 83.8376356, 23.9520866 ], [ 83.8421626, 23.9510533 ], [ 83.8456814, 23.9531801 ], [ 83.8674093, 23.9547328 ], [ 83.8648013, 23.9722256 ], [ 83.8655561, 23.9738812 ], [ 83.8699602, 23.9759536 ], [ 83.8677613, 23.9792702 ], [ 83.8680543, 23.9817725 ], [ 83.8739301, 23.9842624 ], [ 83.8834798, 23.9849434 ], [ 83.892606, 23.9807666 ], [ 83.8945929, 23.980969 ], [ 83.8952022, 23.9772232 ], [ 83.8977785, 23.974094 ], [ 83.89627, 23.9735859 ], [ 83.896925, 23.9712108 ], [ 83.8952044, 23.9693106 ], [ 83.8968682, 23.9661808 ], [ 83.9019131, 23.9652463 ], [ 83.9067349, 23.9600712 ], [ 83.9076327, 23.9507525 ], [ 83.9201102, 23.9411791 ], [ 83.9177545, 23.9383381 ], [ 83.9150491, 23.9374367 ], [ 83.9209701, 23.9342386 ], [ 83.9232269, 23.9366991 ], [ 83.9263471, 23.9358151 ], [ 83.9273731, 23.9305542 ], [ 83.9294311, 23.9293695 ], [ 83.926059, 23.9267877 ], [ 83.9276657, 23.9247739 ], [ 83.9322663, 23.923063 ], [ 83.9379844, 23.9251415 ], [ 83.941707, 23.9223854 ], [ 83.9416719, 23.9213752 ], [ 83.9383252, 23.9202183 ], [ 83.9384152, 23.915948 ], [ 83.9391072, 23.9102566 ], [ 83.9421778, 23.904324 ], [ 83.9359492, 23.9006224 ], [ 83.9355235, 23.8970178 ], [ 83.9370493, 23.8955069 ], [ 83.932872, 23.8825087 ], [ 83.9357828, 23.8812956 ], [ 83.9389295, 23.8758421 ], [ 83.9374405, 23.873271 ], [ 83.9388653, 23.8706044 ], [ 83.937982, 23.8681173 ], [ 83.9410959, 23.8674309 ], [ 83.9486933, 23.8611006 ], [ 83.9579531, 23.8574523 ], [ 83.9630627, 23.8594724 ], [ 83.9669742, 23.8590444 ], [ 83.9737335, 23.8579688 ], [ 83.9815669, 23.8540927 ], [ 83.9843658, 23.8431599 ], [ 83.9839872, 23.8374289 ], [ 83.9935846, 23.8223012 ], [ 84.0019138, 23.8171803 ], [ 84.0009364, 23.81361 ], [ 84.0020972, 23.8099638 ], [ 83.9981819, 23.8028486 ], [ 83.9984766, 23.799366 ], [ 84.0003262, 23.7977432 ], [ 83.9992296, 23.79381 ], [ 84.0022067, 23.7925875 ], [ 84.0053211, 23.7952525 ], [ 84.0130762, 23.7946264 ], [ 84.0187952, 23.7969581 ], [ 84.019209, 23.7925086 ], [ 84.0249714, 23.7846234 ], [ 84.0251023, 23.7801009 ], [ 84.0100204, 23.7645967 ], [ 84.0078015, 23.7569916 ], [ 84.008735, 23.7516371 ], [ 84.0073969, 23.747988 ], [ 84.0043141, 23.7452608 ], [ 83.9965362, 23.7426956 ], [ 83.9838228, 23.7331936 ], [ 83.9832038, 23.7311176 ], [ 83.9859443, 23.7234098 ], [ 83.9917577, 23.7183659 ], [ 83.9945774, 23.718393 ], [ 84.0021954, 23.7097237 ], [ 84.0103954, 23.7073657 ], [ 84.0152431, 23.7003371 ], [ 84.0240831, 23.6951509 ], [ 84.0313065, 23.6943956 ], [ 84.0402628, 23.6962957 ], [ 84.0497205, 23.6932469 ], [ 84.057263, 23.6980042 ], [ 84.0582739, 23.7001236 ], [ 84.0649383, 23.6958585 ], [ 84.0639958, 23.6941912 ], [ 84.063014, 23.6956422 ], [ 84.0620354, 23.6911615 ], [ 84.0630849, 23.6906404 ], [ 84.0649033, 23.6934419 ], [ 84.067525, 23.6944465 ], [ 84.0696927, 23.6933873 ], [ 84.0694571, 23.6880552 ], [ 84.0644964, 23.6883411 ], [ 84.0619228, 23.6855975 ], [ 84.0589365, 23.6717942 ], [ 84.0565792, 23.6708035 ], [ 84.0564778, 23.6665107 ], [ 84.0526769, 23.6603906 ], [ 84.0392554, 23.6546576 ], [ 84.0216347, 23.6397307 ], [ 84.0208166, 23.6364611 ], [ 84.0181226, 23.6343728 ], [ 83.9971355, 23.6344773 ], [ 83.9873611, 23.6322934 ], [ 83.9806499, 23.6336518 ], [ 83.9795093, 23.6287204 ], [ 83.9804493, 23.6248854 ], [ 83.9755038, 23.6257095 ], [ 83.9734862, 23.6240098 ], [ 83.9727469, 23.6259174 ], [ 83.9693501, 23.6266903 ], [ 83.9613438, 23.6251801 ], [ 83.9477535, 23.6267 ], [ 83.9425202, 23.6259923 ], [ 83.9319061, 23.6204135 ], [ 83.9305568, 23.6182586 ], [ 83.9306509, 23.6112384 ], [ 83.9338161, 23.6073575 ], [ 83.9329906, 23.6007538 ], [ 83.9391182, 23.5903077 ], [ 83.9380349, 23.5842493 ], [ 83.9398044, 23.5708565 ], [ 83.9376938, 23.5689921 ], [ 83.9187939, 23.5763609 ], [ 83.9085657, 23.5762479 ], [ 83.900172, 23.5801504 ], [ 83.8993944, 23.5824088 ], [ 83.8944542, 23.582653 ], [ 83.8880646, 23.5787622 ], [ 83.8530531, 23.5870533 ], [ 83.844682, 23.5866488 ], [ 83.8386048, 23.5893945 ], [ 83.8258746, 23.5907139 ], [ 83.8152899, 23.5960194 ], [ 83.8120535, 23.5889509 ], [ 83.8072235, 23.5874711 ], [ 83.8054186, 23.5888235 ], [ 83.8043788, 23.5953711 ], [ 83.8006439, 23.6020163 ], [ 83.7942852, 23.6049981 ], [ 83.7898699, 23.6045639 ], [ 83.7796636, 23.6071135 ], [ 83.7724817, 23.6108983 ], [ 83.7763718, 23.617593 ], [ 83.7751391, 23.6219435 ], [ 83.7723522, 23.6237804 ], [ 83.759449, 23.6260107 ], [ 83.7566576, 23.6300035 ], [ 83.7553863, 23.6346959 ], [ 83.7519193, 23.6386656 ], [ 83.751794, 23.6413607 ], [ 83.753213, 23.6433935 ], [ 83.760575, 23.6478966 ], [ 83.7611238, 23.651463 ], [ 83.7462345, 23.662989 ], [ 83.7388528, 23.6667676 ], [ 83.7300066, 23.6758384 ], [ 83.7228596, 23.6858647 ], [ 83.7230224, 23.6887645 ], [ 83.7321158, 23.6950019 ], [ 83.7350702, 23.7003065 ], [ 83.7421159, 23.7038294 ], [ 83.746068, 23.7194949 ], [ 83.7394762, 23.7343156 ], [ 83.737736, 23.7604897 ], [ 83.7341117, 23.7646988 ], [ 83.7243057, 23.7687227 ], [ 83.7215894, 23.771489 ], [ 83.7226227, 23.7865785 ], [ 83.7126592, 23.8006762 ], [ 83.705136, 23.803872 ], [ 83.7043903, 23.8066078 ], [ 83.7072153, 23.8131824 ], [ 83.7076381, 23.8174139 ], [ 83.705347, 23.8207573 ], [ 83.7025941, 23.8229721 ], [ 83.6914931, 23.8264152 ], [ 83.688729, 23.82558 ], [ 83.6852828, 23.8203271 ], [ 83.6828158, 23.8193808 ], [ 83.6786873, 23.8216828 ], [ 83.67434, 23.8271738 ], [ 83.6644908, 23.8276555 ], [ 83.6633508, 23.8311946 ], [ 83.6684876, 23.8366649 ], [ 83.6665566, 23.8442829 ], [ 83.6594941, 23.8492635 ], [ 83.6546419, 23.8498978 ], [ 83.6463356, 23.846776 ], [ 83.6433793, 23.8469281 ], [ 83.6180859, 23.8554866 ], [ 83.6102878, 23.8539709 ], [ 83.5896991, 23.8633136 ], [ 83.5824152, 23.8635129 ], [ 83.5746575, 23.8612113 ], [ 83.5711901, 23.8621354 ], [ 83.5689351, 23.8661809 ], [ 83.5694865, 23.8690801 ], [ 83.5744186, 23.8732678 ], [ 83.5813622, 23.8755874 ], [ 83.5835315, 23.8777827 ], [ 83.5860341, 23.8826107 ], [ 83.5857579, 23.8864027 ], [ 83.5805734, 23.8910328 ], [ 83.5763343, 23.8929142 ], [ 83.5704262, 23.8944514 ], [ 83.5628528, 23.8925502 ], [ 83.5591542, 23.8929005 ], [ 83.5555618, 23.8948047 ], [ 83.5534441, 23.8980682 ], [ 83.5469193, 23.9143045 ], [ 83.5492422, 23.931019 ], [ 83.5473902, 23.9375448 ], [ 83.5413733, 23.9434447 ], [ 83.535361, 23.9524566 ], [ 83.5264876, 23.9605013 ], [ 83.5226015, 23.9703275 ], [ 83.5175325, 23.9759229 ], [ 83.5153032, 23.9806894 ], [ 83.5154946, 23.9899855 ], [ 83.5138012, 23.9963519 ], [ 83.515214, 23.9993069 ], [ 83.5229294, 24.0063618 ], [ 83.5239034, 24.0113779 ], [ 83.5218259, 24.0159631 ], [ 83.5161688, 24.0224509 ], [ 83.5157225, 24.0271636 ], [ 83.5082628, 24.0311578 ], [ 83.4997501, 24.0325589 ], [ 83.4935334, 24.0363084 ], [ 83.4778092, 24.0411945 ], [ 83.4528894, 24.0419904 ], [ 83.4448688, 24.0528197 ], [ 83.4420461, 24.0538405 ], [ 83.4377735, 24.0581674 ], [ 83.4367974, 24.0628474 ], [ 83.4386181, 24.0713594 ], [ 83.4377313, 24.0762185 ], [ 83.4347228, 24.0835447 ], [ 83.4322474, 24.0859808 ], [ 83.4267148, 24.0864797 ], [ 83.4212247, 24.0827205 ], [ 83.4066442, 24.0804442 ], [ 83.4030158, 24.0857391 ], [ 83.4011069, 24.092031 ], [ 83.3882891, 24.0999615 ], [ 83.3642422, 24.1032854 ], [ 83.3544944, 24.1001994 ], [ 83.3477461, 24.0962928 ], [ 83.3293539, 24.101329 ], [ 83.3401561, 24.1090146 ], [ 83.3449091, 24.1108513 ], [ 83.3503653, 24.121499 ], [ 83.3540621, 24.1249067 ], [ 83.3548107, 24.1355862 ], [ 83.3587603, 24.1403518 ], [ 83.3615608, 24.1488442 ], [ 83.3619759, 24.1563948 ], [ 83.3717721, 24.1742893 ], [ 83.3753835, 24.1839461 ], [ 83.3750224, 24.1861012 ], [ 83.3829919, 24.197918 ], [ 83.3813937, 24.2001892 ], [ 83.3818492, 24.2046018 ], [ 83.380361, 24.2050625 ], [ 83.3806487, 24.2077573 ], [ 83.3786165, 24.2107577 ], [ 83.3793722, 24.2132472 ], [ 83.3830068, 24.2147948 ], [ 83.3812208, 24.2170885 ], [ 83.3846245, 24.220543 ], [ 83.3813354, 24.2259038 ], [ 83.3785709, 24.2266581 ], [ 83.3787319, 24.2303607 ], [ 83.3811547, 24.2339693 ], [ 83.3848843, 24.2360545 ], [ 83.3852405, 24.2391117 ], [ 83.3976396, 24.2438439 ], [ 83.4003159, 24.2563912 ], [ 83.4075334, 24.2621274 ], [ 83.4091018, 24.2663282 ], [ 83.4078183, 24.2694855 ], [ 83.4078938, 24.2811041 ], [ 83.4063497, 24.2859558 ], [ 83.4071667, 24.2887821 ], [ 83.4017739, 24.2922715 ], [ 83.4014946, 24.2955391 ], [ 83.392358, 24.2959868 ], [ 83.3861866, 24.2988285 ], [ 83.3854464, 24.3040263 ], [ 83.3830852, 24.3084748 ], [ 83.3802274, 24.3102377 ], [ 83.3800328, 24.3131317 ], [ 83.3851184, 24.3170504 ], [ 83.3877692, 24.3161951 ], [ 83.3921045, 24.3247846 ], [ 83.3944611, 24.3257049 ], [ 83.3972502, 24.3297416 ], [ 83.3998257, 24.3307126 ], [ 83.4047756, 24.3358555 ], [ 83.4114159, 24.3398644 ], [ 83.4209691, 24.3379886 ], [ 83.4334599, 24.3387791 ], [ 83.4340414, 24.3429692 ], [ 83.4394727, 24.3462541 ], [ 83.4432713, 24.3526574 ], [ 83.445166, 24.3588447 ], [ 83.4572662, 24.3645495 ], [ 83.4485439, 24.3701002 ], [ 83.4479698, 24.3737309 ], [ 83.4495024, 24.3770322 ], [ 83.4453719, 24.3782342 ], [ 83.4422666, 24.386081 ], [ 83.4388028, 24.3877314 ], [ 83.4397569, 24.3888273 ], [ 83.4374886, 24.3920934 ], [ 83.4335156, 24.3932807 ], [ 83.433951, 24.3949596 ], [ 83.4326758, 24.3961744 ], [ 83.4360368, 24.3992483 ], [ 83.4344185, 24.4007526 ], [ 83.4300187, 24.3999453 ], [ 83.4235558, 24.4045372 ], [ 83.418938, 24.4062139 ], [ 83.4134147, 24.4047301 ], [ 83.4050702, 24.4047845 ], [ 83.4033141, 24.4198152 ], [ 83.4048941, 24.4359986 ], [ 83.3941182, 24.4346481 ], [ 83.3935412, 24.4374269 ], [ 83.3907372, 24.4394223 ], [ 83.3898059, 24.444785 ], [ 83.3865682, 24.448162 ], [ 83.3854169, 24.4570192 ], [ 83.3903969, 24.4640579 ], [ 83.3909258, 24.4735762 ], [ 83.3934661, 24.4753867 ], [ 83.3935317, 24.4779228 ], [ 83.3965615, 24.4812334 ], [ 83.3981967, 24.4854177 ], [ 83.3975532, 24.487589 ], [ 83.3953622, 24.4887273 ], [ 83.3983664, 24.4929483 ], [ 83.3960862, 24.4944697 ], [ 83.4015049, 24.5034332 ], [ 83.4294296, 24.5109331 ], [ 83.4689383, 24.5167346 ], [ 83.4841987, 24.5221066 ], [ 83.504633, 24.5255805 ], [ 83.550927, 24.5233127 ], [ 83.5725214, 24.5165462 ], [ 83.5970041, 24.5124631 ], [ 83.6288954, 24.5124882 ], [ 83.652395, 24.5148015 ], [ 83.6783114, 24.5130567 ], [ 83.6881643, 24.5136759 ], [ 83.6919619, 24.5110561 ], [ 83.7059814, 24.5080294 ], [ 83.7155198, 24.5037762 ], [ 83.7205663, 24.5034526 ], [ 83.7276068, 24.5042515 ], [ 83.7464678, 24.510169 ], [ 83.7555383, 24.5097244 ], [ 83.7847939, 24.5207684 ], [ 83.8001832, 24.5295318 ], [ 83.816503, 24.5290822 ], [ 83.8428921, 24.5326966 ], [ 83.8535055, 24.535985 ], [ 83.8617562, 24.5367259 ], [ 83.8726578, 24.5318001 ] ] ] } }
]
}
