{
"type": "FeatureCollection",
"name": "2002",
"crs": { "type": "name", "properties": { "name": "urn:ogc:def:crs:OGC:1.3:CRS84" } },
"features": [
{ "type": "Feature", "properties": { "code": "2002", "name": "Palamu", "type": "district" }, "geometry": { "type": "Polygon", "coordinates": [ [ [ 84.0252421, 24.6282112 ], [ 84.0334432, 24.6300266 ], [ 84.0343718, 24.6228724 ], [ 84.0330848, 24.6203754 ], [ 84.037188, 24.6206081 ], [ 84.0392195, 24.6176842 ], [ 84.0425717, 24.6186024 ], [ 84.0453199, 24.6142208 ], [ 84.0446997, 24.61116 ], [ 84.0489259, 24.6117038 ], [ 84.0520228, 24.6099224 ], [ 84.0508834, 24.6080124 ], [ 84.0487054, 24.6090044 ], [ 84.0468963, 24.6041825 ], [ 84.0489306, 24.6040436 ], [ 84.0503154, 24.6000494 ], [ 84.0572068, 24.5924782 ], [ 84.0509503, 24.5866386 ], [ 84.0541947, 24.5849113 ], [ 84.0617566, 24.586463 ], [ 84.0624838, 24.583326 ], [ 84.0649087, 24.5810294 ], [ 84.063162, 24.5796338 ], [ 84.060608, 24.5736472 ], [ 84.0636586, 24.5733912 ], [ 84.0635908, 24.5707821 ], [ 84.0683096, 24.5705988 ], [ 84.0688541, 24.5672812 ], [ 84.072867, 24.5672059 ], [ 84.0733179, 24.5629312 ], [ 84.0756185, 24.5613883 ], [ 84.0724903, 24.5590896 ], [ 84.0727291, 24.5547201 ], [ 84.0750394, 24.5531139 ], [ 84.077633, 24.5463255 ], [ 84.0780695, 24.5404169 ], [ 84.0824912, 24.5398268 ], [ 84.0856353, 24.5376429 ], [ 84.0852761, 24.5345371 ], [ 84.0892333, 24.5357975 ], [ 84.0932161, 24.5336452 ], [ 84.0888303, 24.5296989 ], [ 84.0872391, 24.5210903 ], [ 84.0885723, 24.5177637 ], [ 84.0863424, 24.5170499 ], [ 84.0846167, 24.5135556 ], [ 84.0852042, 24.5125626 ], [ 84.0878387, 24.5127393 ], [ 84.086231, 24.5104593 ], [ 84.0856258, 24.5051822 ], [ 84.0919655, 24.5043081 ], [ 84.0921978, 24.5026153 ], [ 84.0890456, 24.5018247 ], [ 84.0899052, 24.4977674 ], [ 84.0908279, 24.4968874 ], [ 84.0919031, 24.4977407 ], [ 84.0919579, 24.4956011 ], [ 84.0944053, 24.4932182 ], [ 84.0982777, 24.4926681 ], [ 84.1000008, 24.4853737 ], [ 84.1043226, 24.4805263 ], [ 84.1108091, 24.4767352 ], [ 84.1172159, 24.4804598 ], [ 84.1218277, 24.4814395 ], [ 84.1247379, 24.4807399 ], [ 84.1251375, 24.4919122 ], [ 84.1276088, 24.4952391 ], [ 84.1301149, 24.497505 ], [ 84.1371495, 24.4979651 ], [ 84.1405339, 24.5005333 ], [ 84.1390896, 24.509895 ], [ 84.1365349, 24.5195914 ], [ 84.1345811, 24.5204221 ], [ 84.134305, 24.5243223 ], [ 84.1442791, 24.5382517 ], [ 84.1537432, 24.5358172 ], [ 84.159575, 24.5322905 ], [ 84.1634884, 24.5334045 ], [ 84.1642072, 24.5281815 ], [ 84.1573554, 24.5224927 ], [ 84.1524558, 24.5151746 ], [ 84.1536835, 24.5115722 ], [ 84.1697494, 24.5033302 ], [ 84.1786255, 24.5056385 ], [ 84.1840305, 24.5137674 ], [ 84.1849469, 24.5195936 ], [ 84.1846715, 24.5214444 ], [ 84.1814986, 24.5208182 ], [ 84.1739611, 24.537893 ], [ 84.173184, 24.5447004 ], [ 84.1843173, 24.5447912 ], [ 84.1879366, 24.5488028 ], [ 84.1872329, 24.5529289 ], [ 84.199927, 24.5539975 ], [ 84.1992716, 24.547299 ], [ 84.2019787, 24.543578 ], [ 84.2095027, 24.5410056 ], [ 84.2095031, 24.5341803 ], [ 84.2150633, 24.5327191 ], [ 84.218691, 24.5338454 ], [ 84.2208763, 24.5460906 ], [ 84.2333256, 24.5498649 ], [ 84.2363998, 24.549321 ], [ 84.2362672, 24.5389162 ], [ 84.2423491, 24.541453 ], [ 84.24459, 24.5367386 ], [ 84.2496253, 24.5347061 ], [ 84.2509599, 24.5323554 ], [ 84.2504528, 24.5279453 ], [ 84.2567927, 24.5268846 ], [ 84.259021, 24.534339 ], [ 84.2638568, 24.5344419 ], [ 84.2648306, 24.5381261 ], [ 84.2681176, 24.5382982 ], [ 84.2692873, 24.543185 ], [ 84.2773751, 24.5437818 ], [ 84.2798641, 24.5478732 ], [ 84.2737229, 24.5504195 ], [ 84.2738385, 24.5540309 ], [ 84.2708772, 24.5541146 ], [ 84.2705317, 24.5600142 ], [ 84.2815488, 24.5588659 ], [ 84.284554, 24.5593959 ], [ 84.2894676, 24.5628159 ], [ 84.2974501, 24.5600982 ], [ 84.2997435, 24.5463993 ], [ 84.3113666, 24.534465 ], [ 84.3129971, 24.5301774 ], [ 84.3124133, 24.5234647 ], [ 84.3224718, 24.5166975 ], [ 84.3222238, 24.5080891 ], [ 84.3238979, 24.5039458 ], [ 84.3274087, 24.5005338 ], [ 84.3264227, 24.4939846 ], [ 84.3275283, 24.4923554 ], [ 84.3274463, 24.4873403 ], [ 84.3151841, 24.4861848 ], [ 84.3084929, 24.4817266 ], [ 84.3037387, 24.4805327 ], [ 84.2960978, 24.4734779 ], [ 84.296031, 24.4698982 ], [ 84.2915007, 24.4664154 ], [ 84.2925545, 24.4614731 ], [ 84.296261, 24.4569248 ], [ 84.2973752, 24.4493914 ], [ 84.321791, 24.4463685 ], [ 84.3221275, 24.4434931 ], [ 84.3245296, 24.4418012 ], [ 84.3251224, 24.4390523 ], [ 84.3279823, 24.4390758 ], [ 84.3337932, 24.4319271 ], [ 84.3356028, 24.4314897 ], [ 84.3352091, 24.4292822 ], [ 84.3368066, 24.4288493 ], [ 84.3355654, 24.4248991 ], [ 84.3334253, 24.4260361 ], [ 84.3290425, 24.4251365 ], [ 84.3244515, 24.4274689 ], [ 84.3205978, 24.423292 ], [ 84.3205346, 24.421071 ], [ 84.3228235, 24.4179435 ], [ 84.3297004, 24.4191961 ], [ 84.3303453, 24.4217107 ], [ 84.3345265, 24.420642 ], [ 84.3329792, 24.4183394 ], [ 84.3336269, 24.4126924 ], [ 84.3303493, 24.4105924 ], [ 84.3331366, 24.4046977 ], [ 84.3445545, 24.399446 ], [ 84.3416231, 24.3935455 ], [ 84.3492933, 24.3907572 ], [ 84.3614187, 24.3890028 ], [ 84.363277, 24.3883169 ], [ 84.3634843, 24.3854775 ], [ 84.3691917, 24.3854372 ], [ 84.3731896, 24.3836224 ], [ 84.3787042, 24.3879787 ], [ 84.3882417, 24.3892919 ], [ 84.3867085, 24.3852338 ], [ 84.3888179, 24.3845068 ], [ 84.3869448, 24.3823266 ], [ 84.3935286, 24.3766652 ], [ 84.3938731, 24.3733924 ], [ 84.3986238, 24.3727417 ], [ 84.4065736, 24.3748935 ], [ 84.4052074, 24.3703842 ], [ 84.4005742, 24.3667782 ], [ 84.400357, 24.364625 ], [ 84.4043137, 24.3629496 ], [ 84.4100447, 24.3625782 ], [ 84.4165138, 24.3590014 ], [ 84.4311136, 24.3565229 ], [ 84.4273237, 24.3551294 ], [ 84.4249808, 24.3491941 ], [ 84.4249882, 24.3431135 ], [ 84.4230146, 24.3354852 ], [ 84.4244017, 24.3298375 ], [ 84.4499231, 24.3325401 ], [ 84.4515344, 24.3330313 ], [ 84.4518325, 24.3372971 ], [ 84.4599223, 24.3369858 ], [ 84.4655694, 24.3313986 ], [ 84.4637589, 24.328023 ], [ 84.4676877, 24.3243326 ], [ 84.465455, 24.3228985 ], [ 84.464872, 24.3205469 ], [ 84.4663919, 24.3173093 ], [ 84.4704878, 24.3151949 ], [ 84.4717181, 24.3114695 ], [ 84.470822, 24.3065482 ], [ 84.4719242, 24.3045826 ], [ 84.4822544, 24.2979197 ], [ 84.4836586, 24.2980966 ], [ 84.4859867, 24.3017617 ], [ 84.4889537, 24.3009302 ], [ 84.4904094, 24.3039491 ], [ 84.4968184, 24.2995834 ], [ 84.4941997, 24.2961231 ], [ 84.4891597, 24.2945199 ], [ 84.4897026, 24.290213 ], [ 84.493082, 24.2850002 ], [ 84.4920914, 24.2812907 ], [ 84.4884343, 24.2765939 ], [ 84.4879015, 24.2731759 ], [ 84.487876, 24.2699827 ], [ 84.4909774, 24.2674098 ], [ 84.4925887, 24.2640455 ], [ 84.4915509, 24.2612774 ], [ 84.4864894, 24.2599575 ], [ 84.4659896, 24.259109 ], [ 84.4751814, 24.2659915 ], [ 84.4678443, 24.2643079 ], [ 84.4593087, 24.2654899 ], [ 84.4591419, 24.2605359 ], [ 84.4487627, 24.2466793 ], [ 84.4487892, 24.2389597 ], [ 84.4598516, 24.2352954 ], [ 84.4760861, 24.2262603 ], [ 84.4773923, 24.223378 ], [ 84.4755643, 24.2148246 ], [ 84.4760617, 24.2055705 ], [ 84.4830245, 24.2041263 ], [ 84.4856077, 24.2013102 ], [ 84.4907553, 24.1991229 ], [ 84.4992433, 24.1996332 ], [ 84.5027777, 24.1974458 ], [ 84.5167612, 24.2006342 ], [ 84.5239257, 24.1989117 ], [ 84.5295515, 24.2055519 ], [ 84.5388764, 24.2014737 ], [ 84.53778, 24.1945468 ], [ 84.5362794, 24.194324 ], [ 84.5296815, 24.186577 ], [ 84.5332405, 24.182044 ], [ 84.5337637, 24.1773354 ], [ 84.5386605, 24.1758366 ], [ 84.5386406, 24.1707222 ], [ 84.5454367, 24.1670802 ], [ 84.5488706, 24.1674965 ], [ 84.5508728, 24.1620268 ], [ 84.5541988, 24.1582832 ], [ 84.5545969, 24.1523456 ], [ 84.5535039, 24.151399 ], [ 84.5624143, 24.1487011 ], [ 84.5712194, 24.1442691 ], [ 84.5834921, 24.1410192 ], [ 84.5834128, 24.1358224 ], [ 84.5807718, 24.1324791 ], [ 84.5812098, 24.1295726 ], [ 84.5782813, 24.1247995 ], [ 84.5775796, 24.1197642 ], [ 84.5746145, 24.1180031 ], [ 84.5734687, 24.1156758 ], [ 84.569213, 24.115644 ], [ 84.5678543, 24.1121045 ], [ 84.5652359, 24.1117831 ], [ 84.5617557, 24.1066041 ], [ 84.5594979, 24.1059275 ], [ 84.5567681, 24.1011123 ], [ 84.5556197, 24.1010308 ], [ 84.5556463, 24.0985868 ], [ 84.559117, 24.0959185 ], [ 84.5604756, 24.0869475 ], [ 84.5661864, 24.0759262 ], [ 84.5738555, 24.0741361 ], [ 84.5782083, 24.0720584 ], [ 84.5788358, 24.0705621 ], [ 84.57498, 24.0655129 ], [ 84.5734752, 24.0598154 ], [ 84.5707506, 24.0568226 ], [ 84.5698746, 24.0511352 ], [ 84.562407, 24.0506464 ], [ 84.5573989, 24.0489429 ], [ 84.5561039, 24.0472806 ], [ 84.5580708, 24.040908 ], [ 84.5616711, 24.0375198 ], [ 84.5634562, 24.0376745 ], [ 84.5663974, 24.0337977 ], [ 84.5666595, 24.0308162 ], [ 84.5585632, 24.0251583 ], [ 84.5592801, 24.0225539 ], [ 84.5555697, 24.0145754 ], [ 84.555501, 24.0082965 ], [ 84.561944, 23.9978007 ], [ 84.5716606, 23.9870586 ], [ 84.5817161, 23.9860176 ], [ 84.5860701, 23.9810439 ], [ 84.5898146, 23.980345 ], [ 84.5907045, 23.9778873 ], [ 84.5901427, 23.9742705 ], [ 84.5871079, 23.9689911 ], [ 84.5834765, 23.9667783 ], [ 84.5745138, 23.9645716 ], [ 84.5713668, 23.9590289 ], [ 84.5693447, 23.9457916 ], [ 84.5729641, 23.9348353 ], [ 84.5679803, 23.9272791 ], [ 84.5608095, 23.9265165 ], [ 84.55651, 23.9296955 ], [ 84.5451247, 23.9291268 ], [ 84.5382356, 23.9300994 ], [ 84.5365884, 23.9320935 ], [ 84.5325444, 23.9331383 ], [ 84.5314632, 23.9321739 ], [ 84.5312317, 23.923447 ], [ 84.5188199, 23.9208138 ], [ 84.519601, 23.9168758 ], [ 84.524274, 23.9131626 ], [ 84.5263051, 23.9011991 ], [ 84.5090971, 23.8994254 ], [ 84.4961705, 23.8939312 ], [ 84.4966928, 23.8984493 ], [ 84.4870526, 23.8940539 ], [ 84.4863811, 23.8983812 ], [ 84.4840664, 23.901401 ], [ 84.4817852, 23.9082995 ], [ 84.477326, 23.9100395 ], [ 84.4773699, 23.9118441 ], [ 84.473286, 23.9129408 ], [ 84.4710746, 23.9161694 ], [ 84.4732781, 23.9276146 ], [ 84.4804636, 23.9260186 ], [ 84.4818385, 23.9295495 ], [ 84.4771737, 23.9424335 ], [ 84.4710926, 23.945238 ], [ 84.4695961, 23.9475042 ], [ 84.4703957, 23.9569151 ], [ 84.4628723, 23.9530664 ], [ 84.4578223, 23.9583404 ], [ 84.45739, 23.9603805 ], [ 84.4511214, 23.9606555 ], [ 84.4477796, 23.9583637 ], [ 84.4434889, 23.9503648 ], [ 84.4407988, 23.9503922 ], [ 84.4380159, 23.9476404 ], [ 84.4247934, 23.9496835 ], [ 84.4145004, 23.9460208 ], [ 84.4115961, 23.943988 ], [ 84.4114657, 23.941154 ], [ 84.4081855, 23.9377891 ], [ 84.4068176, 23.9340055 ], [ 84.391605, 23.9369953 ], [ 84.3842464, 23.9398375 ], [ 84.3824727, 23.942152 ], [ 84.3717457, 23.9416537 ], [ 84.3693147, 23.9405301 ], [ 84.3605309, 23.9434459 ], [ 84.3570515, 23.9471015 ], [ 84.3449288, 23.9534668 ], [ 84.34299, 23.9508273 ], [ 84.339585, 23.9319668 ], [ 84.3343118, 23.9191159 ], [ 84.3374714, 23.9118662 ], [ 84.3308267, 23.9059424 ], [ 84.3275859, 23.8959265 ], [ 84.3276798, 23.893788 ], [ 84.3321514, 23.8884254 ], [ 84.3323109, 23.8833099 ], [ 84.3341279, 23.8781473 ], [ 84.3325437, 23.875446 ], [ 84.3234247, 23.8751667 ], [ 84.3214542, 23.8782356 ], [ 84.3183349, 23.8783037 ], [ 84.3037015, 23.8651788 ], [ 84.2981924, 23.8678513 ], [ 84.2892097, 23.8695913 ], [ 84.2870082, 23.868242 ], [ 84.2831868, 23.8693027 ], [ 84.2785268, 23.8660751 ], [ 84.2778546, 23.8683061 ], [ 84.2800684, 23.8725157 ], [ 84.2776233, 23.8750634 ], [ 84.277389, 23.8804858 ], [ 84.2750339, 23.8820011 ], [ 84.2665277, 23.8806371 ], [ 84.2583188, 23.8832308 ], [ 84.2485, 23.8836092 ], [ 84.237585, 23.899407 ], [ 84.2245883, 23.8956105 ], [ 84.2182267, 23.8979241 ], [ 84.2145258, 23.9018729 ], [ 84.2161094, 23.9123215 ], [ 84.2143534, 23.9164733 ], [ 84.2108369, 23.9185196 ], [ 84.2003276, 23.9172382 ], [ 84.1956023, 23.9280797 ], [ 84.1845247, 23.935415 ], [ 84.1518237, 23.9412508 ], [ 84.1428895, 23.9455479 ], [ 84.1415942, 23.9410702 ], [ 84.1471453, 23.9218172 ], [ 84.1429982, 23.9154026 ], [ 84.1388386, 23.9041827 ], [ 84.1345244, 23.9014161 ], [ 84.1184919, 23.8985484 ], [ 84.1062708, 23.8865555 ], [ 84.0895012, 23.8654131 ], [ 84.0719306, 23.8608845 ], [ 84.0648086, 23.8571078 ], [ 84.0636496, 23.8466471 ], [ 84.0619845, 23.8426221 ], [ 84.0518022, 23.8337211 ], [ 84.0519758, 23.8298933 ], [ 84.0567314, 23.8197072 ], [ 84.0567159, 23.816002 ], [ 84.0453466, 23.8116306 ], [ 84.0427945, 23.8078682 ], [ 84.0405711, 23.7999294 ], [ 84.0379909, 23.7969958 ], [ 84.0328951, 23.7956907 ], [ 84.0290996, 23.8015135 ], [ 84.0238998, 23.8030907 ], [ 84.0206764, 23.801758 ], [ 84.0188049, 23.7969628 ], [ 84.0173334, 23.7961683 ], [ 84.0130762, 23.7946264 ], [ 84.0053211, 23.7952525 ], [ 84.0022067, 23.7925875 ], [ 83.9992296, 23.79381 ], [ 84.0003262, 23.7977432 ], [ 83.9984766, 23.799366 ], [ 83.9981819, 23.8028486 ], [ 84.0020972, 23.8099638 ], [ 84.0009364, 23.81361 ], [ 84.0019138, 23.8171803 ], [ 83.9935846, 23.8223012 ], [ 83.9839872, 23.8374289 ], [ 83.9843658, 23.8431599 ], [ 83.9815669, 23.8540927 ], [ 83.9737335, 23.8579688 ], [ 83.9669742, 23.8590444 ], [ 83.9630627, 23.8594724 ], [ 83.9579531, 23.8574523 ], [ 83.9486933, 23.8611006 ], [ 83.9410959, 23.8674309 ], [ 83.937982, 23.8681173 ], [ 83.9388653, 23.8706044 ], [ 83.9374405, 23.873271 ], [ 83.9389295, 23.8758421 ], [ 83.9357828, 23.8812956 ], [ 83.932872, 23.8825087 ], [ 83.9370493, 23.8955069 ], [ 83.9355235, 23.8970178 ], [ 83.9359492, 23.9006224 ], [ 83.9421778, 23.904324 ], [ 83.9391072, 23.9102566 ], [ 83.9384152, 23.915948 ], [ 83.9383252, 23.9202183 ], [ 83.9416719, 23.9213752 ], [ 83.941707, 23.9223854 ], [ 83.9379844, 23.9251415 ], [ 83.9322663, 23.923063 ], [ 83.9276657, 23.9247739 ], [ 83.926059, 23.9267877 ], [ 83.9294311, 23.9293695 ], [ 83.9273731, 23.9305542 ], [ 83.9263471, 23.9358151 ], [ 83.9232269, 23.9366991 ], [ 83.9209701, 23.9342386 ], [ 83.9150491, 23.9374367 ], [ 83.9177545, 23.9383381 ], [ 83.9201102, 23.9411791 ], [ 83.9076327, 23.9507525 ], [ 83.9067349, 23.9600712 ], [ 83.9019131, 23.9652463 ], [ 83.8968682, 23.9661808 ], [ 83.8952044, 23.9693106 ], [ 83.896925, 23.9712108 ], [ 83.89627, 23.9735859 ], [ 83.8977785, 23.974094 ], [ 83.8952022, 23.9772232 ], [ 83.8945929, 23.980969 ], [ 83.892606, 23.9807666 ], [ 83.8834798, 23.9849434 ], [ 83.8739301, 23.9842624 ], [ 83.8680543, 23.9817725 ], [ 83.8677613, 23.9792702 ], [ 83.8699602, 23.9759536 ], [ 83.8655561, 23.9738812 ], [ 83.8648013, 23.9722256 ], [ 83.8674093, 23.9547328 ], [ 83.8456814, 23.9531801 ], [ 83.8421626, 23.9510533 ], [ 83.8376356, 23.9520866 ], [ 83.8333469, 23.950169 ], [ 83.8292419, 23.9515984 ], [ 83.8258792, 23.9559716 ], [ 83.8215828, 23.9555855 ], [ 83.8189147, 23.9580083 ], [ 83.8179741, 23.9603769 ], [ 83.8190645, 23.9623188 ], [ 83.8323372, 23.9654947 ], [ 83.8359807, 23.9697601 ], [ 83.8333796, 23.9722477 ], [ 83.8367078, 23.9794083 ], [ 83.8374414, 23.9855512 ], [ 83.8397412, 23.9882119 ], [ 83.8422616, 23.9874438 ], [ 83.8426294, 23.9908848 ], [ 83.8387602, 23.9910304 ], [ 83.829937, 23.9955791 ], [ 83.8267858, 24.0008757 ], [ 83.8317394, 24.0033482 ], [ 83.8455305, 24.024134 ], [ 83.8471979, 24.0326483 ], [ 83.8490721, 24.035895 ], [ 83.8507048, 24.036965 ], [ 83.8581285, 24.0347927 ], [ 83.8626414, 24.0385172 ], [ 83.8619587, 24.0423873 ], [ 83.864001, 24.0451958 ], [ 83.8632334, 24.0509475 ], [ 83.8641269, 24.0562017 ], [ 83.8657554, 24.0582719 ], [ 83.8662, 24.0690861 ], [ 83.8738295, 24.0694409 ], [ 83.8852579, 24.0783804 ], [ 83.8894911, 24.0795483 ], [ 83.8927191, 24.086166 ], [ 83.8980711, 24.0836976 ], [ 83.9083905, 24.0882332 ], [ 83.9111332, 24.0917947 ], [ 83.9116885, 24.0948521 ], [ 83.9178887, 24.0918234 ], [ 83.9214278, 24.0883711 ], [ 83.927973, 24.0902156 ], [ 83.9312808, 24.0956448 ], [ 83.9368736, 24.0970913 ], [ 83.9397805, 24.100818 ], [ 83.944721, 24.0987272 ], [ 83.9485965, 24.0951547 ], [ 83.952413, 24.0948977 ], [ 83.9550558, 24.0977626 ], [ 83.9609155, 24.1091549 ], [ 83.9689484, 24.1054666 ], [ 83.9714021, 24.1059571 ], [ 83.9782224, 24.1007659 ], [ 83.9788469, 24.1017788 ], [ 83.9844881, 24.1003674 ], [ 83.989843, 24.1011224 ], [ 83.9911966, 24.1062416 ], [ 83.9900465, 24.1113295 ], [ 83.9865861, 24.1135504 ], [ 83.9829342, 24.1205804 ], [ 83.9786815, 24.1234793 ], [ 83.9772688, 24.1275793 ], [ 83.978083, 24.1334811 ], [ 83.9766499, 24.137184 ], [ 83.9776588, 24.1394034 ], [ 83.9761636, 24.1407345 ], [ 83.9727579, 24.1405855 ], [ 83.9692342, 24.1500151 ], [ 83.936114, 24.1631751 ], [ 83.906583, 24.1889992 ], [ 83.8915721, 24.1972709 ], [ 83.882252, 24.2050546 ], [ 83.877996, 24.2115004 ], [ 83.8736405, 24.2219813 ], [ 83.8608203, 24.2412344 ], [ 83.8467799, 24.2567836 ], [ 83.829433, 24.280948 ], [ 83.81988, 24.288586 ], [ 83.8178815, 24.2949416 ], [ 83.8205579, 24.3027209 ], [ 83.8312497, 24.3132921 ], [ 83.8321891, 24.3181961 ], [ 83.8318044, 24.3225585 ], [ 83.8282778, 24.3313781 ], [ 83.8133187, 24.3503263 ], [ 83.8136383, 24.359092 ], [ 83.8173012, 24.3722272 ], [ 83.8240218, 24.380048 ], [ 83.8448939, 24.3934492 ], [ 83.853032, 24.4013802 ], [ 83.8577305, 24.4256219 ], [ 83.8570185, 24.4418281 ], [ 83.8544273, 24.4481535 ], [ 83.8537856, 24.4810689 ], [ 83.8569437, 24.4960594 ], [ 83.8669624, 24.5160169 ], [ 83.874025, 24.5270619 ], [ 83.8745229, 24.5323057 ], [ 83.8886202, 24.5378712 ], [ 83.8990569, 24.5405691 ], [ 83.9092566, 24.5412122 ], [ 83.9361324, 24.5491159 ], [ 83.9430691, 24.5581594 ], [ 83.9553326, 24.5678897 ], [ 83.967324, 24.5815733 ], [ 83.9689704, 24.5856484 ], [ 83.9754158, 24.5914125 ], [ 83.992939, 24.6299519 ], [ 84.0054124, 24.6414904 ], [ 84.0077915, 24.6428916 ], [ 84.0221629, 24.6375124 ], [ 84.0275641, 24.6331555 ], [ 84.0233284, 24.6314194 ], [ 84.0252421, 24.6282112 ] ] ] } }
]
}
