{
"type": "FeatureCollection",
"name": "2007",
"crs": { "type": "name", "properties": { "name": "urn:ogc:def:crs:OGC:1.3:CRS84" } },
"features": [
{ "type": "Feature", "properties": { "code": "2007", "name": "Deoghar", "type": "district" }, "geometry": { "type": "Polygon", "coordinates": [ [ [ 86.7732353, 24.6218126 ], [ 86.7850508, 24.6165117 ], [ 86.7890094, 24.6186942 ], [ 86.7968654, 24.6110157 ], [ 86.7984376, 24.6075272 ], [ 86.8035993, 24.6018691 ], [ 86.8083566, 24.5986348 ], [ 86.8112374, 24.5982724 ], [ 86.8075737, 24.5947976 ], [ 86.8071553, 24.5926126 ], [ 86.8117121, 24.5825438 ], [ 86.8099163, 24.5803267 ], [ 86.8053712, 24.5782662 ], [ 86.8026293, 24.5736019 ], [ 86.8031495, 24.570325 ], [ 86.8119163, 24.5690514 ], [ 86.8159728, 24.5701569 ], [ 86.8182522, 24.5731843 ], [ 86.8216076, 24.5745122 ], [ 86.8235538, 24.5723918 ], [ 86.8318318, 24.5715953 ], [ 86.8337073, 24.5723814 ], [ 86.8346491, 24.5750764 ], [ 86.8426459, 24.5742253 ], [ 86.8436444, 24.5685378 ], [ 86.8414493, 24.5633281 ], [ 86.8430005, 24.5580967 ], [ 86.8501914, 24.5585088 ], [ 86.85684, 24.554885 ], [ 86.8601268, 24.5563795 ], [ 86.8620166, 24.5608125 ], [ 86.8604319, 24.5638096 ], [ 86.8636152, 24.5665996 ], [ 86.8690051, 24.5654713 ], [ 86.8767198, 24.568031 ], [ 86.8805058, 24.5721928 ], [ 86.882105, 24.571299 ], [ 86.8830277, 24.5672588 ], [ 86.8879485, 24.5648029 ], [ 86.8863984, 24.5611015 ], [ 86.886872, 24.5588354 ], [ 86.8899171, 24.5575532 ], [ 86.8935002, 24.5578236 ], [ 86.8950603, 24.5608163 ], [ 86.8963234, 24.5581031 ], [ 86.9024916, 24.5527304 ], [ 86.9035613, 24.547521 ], [ 86.9160612, 24.541648 ], [ 86.9171286, 24.5378805 ], [ 86.9192234, 24.5361113 ], [ 86.9153305, 24.5206644 ], [ 86.9174744, 24.5186153 ], [ 86.9191462, 24.5126551 ], [ 86.9191103, 24.5053121 ], [ 86.917326, 24.5000003 ], [ 86.9192232, 24.4970207 ], [ 86.9166905, 24.4877165 ], [ 86.9109555, 24.4861418 ], [ 86.9104453, 24.4806952 ], [ 86.9063607, 24.4766917 ], [ 86.9046756, 24.4718586 ], [ 86.9092274, 24.469811 ], [ 86.9115804, 24.4633274 ], [ 86.903895, 24.4571721 ], [ 86.9030806, 24.4496388 ], [ 86.8999136, 24.4478034 ], [ 86.8936761, 24.4479709 ], [ 86.8901836, 24.4463427 ], [ 86.8890428, 24.4408414 ], [ 86.8905785, 24.432506 ], [ 86.8958879, 24.4319225 ], [ 86.8982447, 24.4344079 ], [ 86.9030123, 24.4323877 ], [ 86.9031734, 24.4272938 ], [ 86.8996313, 24.4267497 ], [ 86.8986566, 24.423353 ], [ 86.9033836, 24.4224347 ], [ 86.9011578, 24.4159122 ], [ 86.9049198, 24.4112993 ], [ 86.9131373, 24.4136433 ], [ 86.9148149, 24.4131204 ], [ 86.9163066, 24.4094812 ], [ 86.9212394, 24.4101341 ], [ 86.9283889, 24.4186908 ], [ 86.9362536, 24.4167432 ], [ 86.94161, 24.4209903 ], [ 86.9473134, 24.4200619 ], [ 86.9452728, 24.4132963 ], [ 86.9419584, 24.4111546 ], [ 86.9429948, 24.409502 ], [ 86.9395442, 24.4019501 ], [ 86.9326216, 24.393701 ], [ 86.9276605, 24.3914951 ], [ 86.92782, 24.3873585 ], [ 86.9323107, 24.3811285 ], [ 86.9385945, 24.3802638 ], [ 86.935498, 24.3779505 ], [ 86.9331427, 24.372449 ], [ 86.9344068, 24.3681865 ], [ 86.9371786, 24.3671037 ], [ 86.9395189, 24.3588855 ], [ 86.9453186, 24.3560424 ], [ 86.949036, 24.3588345 ], [ 86.9534252, 24.3564784 ], [ 86.9592142, 24.3567238 ], [ 86.9682089, 24.3512162 ], [ 86.9659827, 24.3306771 ], [ 86.9662396, 24.3257817 ], [ 86.9679259, 24.323226 ], [ 86.9641208, 24.3175712 ], [ 86.962899, 24.3128111 ], [ 86.966655, 24.3146092 ], [ 86.9672369, 24.3121616 ], [ 86.9705972, 24.3102455 ], [ 86.9827839, 24.3094993 ], [ 86.9913307, 24.3045051 ], [ 86.9987348, 24.309292 ], [ 87.0220389, 24.3059027 ], [ 87.0273595, 24.2985405 ], [ 87.0270024, 24.2924621 ], [ 87.0236503, 24.2904576 ], [ 87.0257038, 24.2721132 ], [ 87.0308464, 24.2670631 ], [ 87.0316138, 24.263685 ], [ 87.0368354, 24.2604772 ], [ 87.046157, 24.2588034 ], [ 87.0525307, 24.2550619 ], [ 87.0666505, 24.2532133 ], [ 87.0679595, 24.2510541 ], [ 87.0665876, 24.2478031 ], [ 87.0601808, 24.2446177 ], [ 87.055112, 24.2374755 ], [ 87.0554033, 24.2303762 ], [ 87.0466113, 24.2228287 ], [ 87.0460179, 24.2184032 ], [ 87.0500844, 24.2145992 ], [ 87.048703, 24.2104541 ], [ 87.0520592, 24.2052413 ], [ 87.0443927, 24.1993912 ], [ 87.0421846, 24.195761 ], [ 87.0269316, 24.2067299 ], [ 87.0242421, 24.205746 ], [ 87.0168942, 24.207391 ], [ 87.0134774, 24.2124314 ], [ 87.0031738, 24.2143019 ], [ 86.9960019, 24.2110597 ], [ 86.9902789, 24.2139498 ], [ 86.9891951, 24.2128117 ], [ 86.9830581, 24.2147172 ], [ 86.978832, 24.2119981 ], [ 86.9746651, 24.2129008 ], [ 86.9739164, 24.2120517 ], [ 86.9757981, 24.2094236 ], [ 86.9778767, 24.2014576 ], [ 86.9760545, 24.199976 ], [ 86.9763994, 24.1965891 ], [ 86.9798566, 24.1937354 ], [ 86.9801915, 24.1853627 ], [ 86.9784286, 24.1841341 ], [ 86.9810779, 24.1806119 ], [ 86.9781628, 24.1791935 ], [ 86.9725787, 24.180358 ], [ 86.9654094, 24.1776741 ], [ 86.9628987, 24.1740066 ], [ 86.9640314, 24.172083 ], [ 86.9601614, 24.1715313 ], [ 86.9568338, 24.1664906 ], [ 86.9592273, 24.1627066 ], [ 86.9506209, 24.1633818 ], [ 86.9459234, 24.1651416 ], [ 86.9395367, 24.1521602 ], [ 86.9393713, 24.1457655 ], [ 86.9357124, 24.1354314 ], [ 86.9381052, 24.133942 ], [ 86.9487178, 24.1341533 ], [ 86.9566045, 24.1286189 ], [ 86.9674237, 24.1265077 ], [ 86.9636845, 24.1144401 ], [ 86.9718153, 24.1111177 ], [ 86.9774948, 24.1070089 ], [ 86.9740992, 24.1028265 ], [ 86.9746702, 24.1001802 ], [ 86.9715012, 24.097425 ], [ 86.9725448, 24.0936225 ], [ 86.9755858, 24.0913017 ], [ 86.9797489, 24.0787204 ], [ 86.9758228, 24.0708348 ], [ 86.9752719, 24.0660477 ], [ 86.9779975, 24.064612 ], [ 86.9772006, 24.0608003 ], [ 86.9717595, 24.0618112 ], [ 86.9668305, 24.057231 ], [ 86.9641445, 24.0570859 ], [ 86.9577401, 24.0531104 ], [ 86.9563533, 24.0505449 ], [ 86.9606239, 24.0456415 ], [ 86.9549188, 24.041124 ], [ 86.9310612, 24.0443313 ], [ 86.9202964, 24.0491044 ], [ 86.9158767, 24.0535912 ], [ 86.9194844, 24.060033 ], [ 86.919208, 24.062038 ], [ 86.9087508, 24.0584286 ], [ 86.9030938, 24.0578562 ], [ 86.9032405, 24.0592292 ], [ 86.8998351, 24.0610697 ], [ 86.8964564, 24.0670739 ], [ 86.8879634, 24.0690011 ], [ 86.8841655, 24.0686823 ], [ 86.8843059, 24.0651147 ], [ 86.8817509, 24.0608315 ], [ 86.87001, 24.0641552 ], [ 86.8613272, 24.0582679 ], [ 86.8557779, 24.0583623 ], [ 86.8520503, 24.0570221 ], [ 86.8513454, 24.053508 ], [ 86.8487898, 24.0512204 ], [ 86.8398875, 24.0498748 ], [ 86.8312744, 24.0623212 ], [ 86.8271222, 24.0623889 ], [ 86.8254118, 24.0610412 ], [ 86.8211589, 24.0629693 ], [ 86.8217673, 24.0643339 ], [ 86.820055, 24.0645396 ], [ 86.8195799, 24.0667068 ], [ 86.8205876, 24.0714498 ], [ 86.818057, 24.0728017 ], [ 86.8161146, 24.0758343 ], [ 86.815919, 24.0826081 ], [ 86.8138037, 24.0822262 ], [ 86.8115551, 24.0784932 ], [ 86.8100373, 24.0802888 ], [ 86.8070572, 24.0791019 ], [ 86.8071911, 24.0819472 ], [ 86.8051237, 24.082586 ], [ 86.8037267, 24.0822952 ], [ 86.8031303, 24.0795487 ], [ 86.800526, 24.0770164 ], [ 86.7942267, 24.0780921 ], [ 86.7937467, 24.0697368 ], [ 86.7948041, 24.0666492 ], [ 86.7912579, 24.0626162 ], [ 86.7800737, 24.0670626 ], [ 86.7740245, 24.0657895 ], [ 86.7658214, 24.0757488 ], [ 86.7588787, 24.0788362 ], [ 86.7599155, 24.0825409 ], [ 86.7624284, 24.0804764 ], [ 86.7624647, 24.0822197 ], [ 86.7645415, 24.0820513 ], [ 86.7688273, 24.0848757 ], [ 86.7629893, 24.0921196 ], [ 86.7579909, 24.0914887 ], [ 86.7489323, 24.0939762 ], [ 86.7471279, 24.095852 ], [ 86.745112, 24.0949093 ], [ 86.742609, 24.0966935 ], [ 86.740741, 24.0956698 ], [ 86.7392109, 24.0981329 ], [ 86.7355103, 24.0981719 ], [ 86.7305917, 24.102002 ], [ 86.725985, 24.1022649 ], [ 86.7198058, 24.1063002 ], [ 86.7132204, 24.1066494 ], [ 86.710822, 24.1051908 ], [ 86.6990451, 24.1121591 ], [ 86.6983509, 24.1278552 ], [ 86.700582, 24.1339651 ], [ 86.7059075, 24.1387894 ], [ 86.7133195, 24.1393633 ], [ 86.713198, 24.1409979 ], [ 86.7171828, 24.1421794 ], [ 86.7148153, 24.1444059 ], [ 86.7173085, 24.1480685 ], [ 86.7174153, 24.1535962 ], [ 86.7164366, 24.155482 ], [ 86.7057935, 24.1597342 ], [ 86.7048907, 24.1628756 ], [ 86.6974212, 24.1654261 ], [ 86.698632, 24.1611203 ], [ 86.6973808, 24.1569902 ], [ 86.6936364, 24.1538308 ], [ 86.6930643, 24.1499458 ], [ 86.6915409, 24.1487145 ], [ 86.6931397, 24.1426482 ], [ 86.6898231, 24.1421178 ], [ 86.6893098, 24.1383505 ], [ 86.6879832, 24.1373181 ], [ 86.6887764, 24.1348449 ], [ 86.6855109, 24.1335829 ], [ 86.6845825, 24.1306366 ], [ 86.6819682, 24.1287888 ], [ 86.6730078, 24.1297545 ], [ 86.6647524, 24.1281652 ], [ 86.6576238, 24.1287095 ], [ 86.644222, 24.1339808 ], [ 86.6369429, 24.1318233 ], [ 86.6288909, 24.1315783 ], [ 86.6266745, 24.1356643 ], [ 86.6213842, 24.1370242 ], [ 86.6186018, 24.1391941 ], [ 86.6159337, 24.1392325 ], [ 86.6117672, 24.1365668 ], [ 86.6050585, 24.141463 ], [ 86.6010823, 24.1410373 ], [ 86.5956627, 24.1361098 ], [ 86.5875599, 24.1395564 ], [ 86.5745673, 24.1387713 ], [ 86.5691525, 24.145851 ], [ 86.5512194, 24.1552238 ], [ 86.5480457, 24.1532817 ], [ 86.5302303, 24.1545378 ], [ 86.5278754, 24.1550002 ], [ 86.52428, 24.1582315 ], [ 86.5156064, 24.1498771 ], [ 86.5057672, 24.1481929 ], [ 86.498909, 24.1523432 ], [ 86.4851462, 24.1520085 ], [ 86.4945982, 24.1674569 ], [ 86.496834, 24.1750869 ], [ 86.5018536, 24.18101 ], [ 86.5014492, 24.1864095 ], [ 86.5038656, 24.1933717 ], [ 86.5003366, 24.1994023 ], [ 86.5114848, 24.2077294 ], [ 86.5069974, 24.2092684 ], [ 86.5120154, 24.2187857 ], [ 86.5169679, 24.2221251 ], [ 86.5165574, 24.2239392 ], [ 86.512631, 24.225462 ], [ 86.5126, 24.2285326 ], [ 86.5086806, 24.2307779 ], [ 86.5101217, 24.2327153 ], [ 86.5100322, 24.235569 ], [ 86.5160659, 24.2398061 ], [ 86.5130901, 24.2452246 ], [ 86.5099771, 24.2477524 ], [ 86.5087007, 24.2518486 ], [ 86.5105954, 24.2537242 ], [ 86.5084297, 24.2558125 ], [ 86.5110495, 24.2588285 ], [ 86.5111535, 24.2626492 ], [ 86.5050022, 24.2763482 ], [ 86.5046143, 24.2825335 ], [ 86.5018069, 24.2847461 ], [ 86.4922059, 24.2850665 ], [ 86.4883746, 24.2869231 ], [ 86.4861208, 24.2911242 ], [ 86.4861265, 24.2972204 ], [ 86.4809476, 24.2982685 ], [ 86.4779812, 24.3005794 ], [ 86.4755284, 24.3100359 ], [ 86.4725014, 24.3126084 ], [ 86.474015, 24.3211213 ], [ 86.473432, 24.3238828 ], [ 86.4755681, 24.3271507 ], [ 86.4755761, 24.3300678 ], [ 86.4699104, 24.3316737 ], [ 86.4628799, 24.3318295 ], [ 86.4615907, 24.3336222 ], [ 86.4576613, 24.3348906 ], [ 86.4602194, 24.338521 ], [ 86.4633793, 24.3392708 ], [ 86.4669245, 24.3433228 ], [ 86.4669443, 24.3457343 ], [ 86.4697133, 24.3485979 ], [ 86.4703143, 24.3535673 ], [ 86.4627199, 24.3540379 ], [ 86.4569817, 24.3560126 ], [ 86.4590234, 24.3653945 ], [ 86.4577956, 24.3713057 ], [ 86.4553744, 24.3718603 ], [ 86.4573404, 24.3733476 ], [ 86.4561685, 24.3747156 ], [ 86.4575246, 24.3779354 ], [ 86.4634691, 24.37895 ], [ 86.4671266, 24.3810736 ], [ 86.4667205, 24.3848388 ], [ 86.4719266, 24.3933479 ], [ 86.4700965, 24.3974127 ], [ 86.4714571, 24.4015177 ], [ 86.4707472, 24.4056699 ], [ 86.4678862, 24.4061551 ], [ 86.4680957, 24.4087521 ], [ 86.4668872, 24.4101277 ], [ 86.4691546, 24.4153542 ], [ 86.4691831, 24.4198628 ], [ 86.4664985, 24.4213458 ], [ 86.4664965, 24.4238619 ], [ 86.4686637, 24.4262671 ], [ 86.4770222, 24.4245088 ], [ 86.4794318, 24.4279376 ], [ 86.4912793, 24.4280812 ], [ 86.4942071, 24.4408225 ], [ 86.4967677, 24.443751 ], [ 86.4953228, 24.4562593 ], [ 86.4874835, 24.4622702 ], [ 86.4867314, 24.4641398 ], [ 86.4908607, 24.4671845 ], [ 86.4903072, 24.4713243 ], [ 86.4944718, 24.473384 ], [ 86.4918403, 24.4758508 ], [ 86.495359, 24.4830976 ], [ 86.4943359, 24.4862041 ], [ 86.4970825, 24.4902469 ], [ 86.5003963, 24.4894403 ], [ 86.5026764, 24.4932431 ], [ 86.5007815, 24.5040385 ], [ 86.5093443, 24.5218533 ], [ 86.5153509, 24.5253743 ], [ 86.5175079, 24.5303323 ], [ 86.5205401, 24.5332279 ], [ 86.523071, 24.5338029 ], [ 86.5293577, 24.5402847 ], [ 86.5362941, 24.5358471 ], [ 86.5415267, 24.540337 ], [ 86.5497297, 24.537967 ], [ 86.5523216, 24.535973 ], [ 86.5533635, 24.5434985 ], [ 86.5553174, 24.5440456 ], [ 86.55833, 24.549035 ], [ 86.5637865, 24.5525492 ], [ 86.5583449, 24.5582392 ], [ 86.5591769, 24.562266 ], [ 86.5616299, 24.562222 ], [ 86.5664698, 24.5664897 ], [ 86.5698071, 24.5647079 ], [ 86.580285, 24.566526 ], [ 86.5892152, 24.5793031 ], [ 86.589099, 24.5886877 ], [ 86.5971637, 24.5965664 ], [ 86.5981899, 24.5999115 ], [ 86.6030675, 24.6019391 ], [ 86.6041383, 24.6056091 ], [ 86.6032934, 24.6083805 ], [ 86.6145854, 24.608305 ], [ 86.6148025, 24.606095 ], [ 86.6129856, 24.6065101 ], [ 86.6109171, 24.603991 ], [ 86.610419, 24.5987006 ], [ 86.6136775, 24.5980147 ], [ 86.6210189, 24.6000554 ], [ 86.624386, 24.5993784 ], [ 86.6228111, 24.5962637 ], [ 86.6241738, 24.5885674 ], [ 86.6267952, 24.5885854 ], [ 86.6294164, 24.58608 ], [ 86.6379464, 24.5824954 ], [ 86.6457506, 24.5806303 ], [ 86.6477248, 24.5786754 ], [ 86.6496142, 24.5722246 ], [ 86.6517303, 24.5704008 ], [ 86.6702395, 24.5648783 ], [ 86.6807701, 24.5709913 ], [ 86.6859817, 24.5699482 ], [ 86.6916169, 24.5761165 ], [ 86.7015912, 24.573286 ], [ 86.7230764, 24.5839899 ], [ 86.734688, 24.5794904 ], [ 86.7352798, 24.5845502 ], [ 86.7416257, 24.5871229 ], [ 86.7466777, 24.5942962 ], [ 86.7498362, 24.5950721 ], [ 86.7502351, 24.5979054 ], [ 86.7482487, 24.605756 ], [ 86.7539925, 24.6212973 ], [ 86.7586904, 24.6193825 ], [ 86.7649416, 24.6194549 ], [ 86.7732353, 24.6218126 ] ] ] } }
]
}
