{
"type": "FeatureCollection",
"name": "2018",
"crs": { "type": "name", "properties": { "name": "urn:ogc:def:crs:OGC:1.3:CRS84" } },
"features": [
{ "type": "Feature", "properties": { "code": "2018", "name": "East Singhbhum", "type": "district" }, "geometry": { "type": "Polygon", "coordinates": [ [ [ 86.3022393, 23.0100606 ], [ 86.3090935, 23.0070523 ], [ 86.3088953, 23.0034176 ], [ 86.3161198, 23.0000741 ], [ 86.319792, 23.0005992 ], [ 86.321588, 22.9974439 ], [ 86.3259294, 22.9949034 ], [ 86.3395333, 22.9898141 ], [ 86.3406091, 22.993553 ], [ 86.3436953, 22.9964929 ], [ 86.3476359, 22.9966156 ], [ 86.3545274, 22.9929686 ], [ 86.3544338, 22.9993437 ], [ 86.3638951, 22.9995795 ], [ 86.3717812, 22.9967356 ], [ 86.3727518, 22.9981533 ], [ 86.3743904, 22.9977289 ], [ 86.3835588, 22.9942838 ], [ 86.385017, 22.9952635 ], [ 86.3854068, 22.9894483 ], [ 86.3877131, 22.9853124 ], [ 86.3942567, 22.9804944 ], [ 86.3981674, 22.9799115 ], [ 86.4010836, 22.9808592 ], [ 86.4068933, 22.989721 ], [ 86.4084049, 22.989057 ], [ 86.4100635, 22.9911335 ], [ 86.4132868, 22.9908078 ], [ 86.4171645, 22.9932043 ], [ 86.4173314, 22.9970509 ], [ 86.4197211, 22.9967839 ], [ 86.4182538, 22.9992088 ], [ 86.4192589, 23.0002741 ], [ 86.4261129, 22.9965715 ], [ 86.4422993, 22.9932275 ], [ 86.4464225, 22.9882366 ], [ 86.4508505, 22.9883475 ], [ 86.4515538, 22.9902435 ], [ 86.464505, 22.9884354 ], [ 86.4705084, 22.9888879 ], [ 86.4745434, 22.9916621 ], [ 86.4804187, 22.9901279 ], [ 86.4870625, 22.9924305 ], [ 86.4976865, 22.992039 ], [ 86.5011475, 22.9935903 ], [ 86.5041584, 22.9861069 ], [ 86.5137771, 22.977486 ], [ 86.5086171, 22.9730351 ], [ 86.5193607, 22.9708214 ], [ 86.5261907, 22.9726137 ], [ 86.526837, 22.9754947 ], [ 86.5238175, 22.9771272 ], [ 86.5281401, 22.980638 ], [ 86.5347808, 22.9819062 ], [ 86.539909, 22.9845774 ], [ 86.5454209, 22.9903324 ], [ 86.5473777, 22.9881527 ], [ 86.5474981, 22.9823239 ], [ 86.5505629, 22.9779911 ], [ 86.5474501, 22.9726303 ], [ 86.5440825, 22.96973 ], [ 86.5449869, 22.9658927 ], [ 86.5403689, 22.9668023 ], [ 86.5316034, 22.965208 ], [ 86.5300377, 22.9521543 ], [ 86.52598, 22.9476053 ], [ 86.5214101, 22.9500584 ], [ 86.5192079, 22.9482419 ], [ 86.5126951, 22.9477588 ], [ 86.5078416, 22.9508796 ], [ 86.5025803, 22.9518734 ], [ 86.5029047, 22.948966 ], [ 86.5008878, 22.9475738 ], [ 86.5007771, 22.9459393 ], [ 86.4975744, 22.945973 ], [ 86.4974734, 22.9474539 ], [ 86.49524, 22.9468461 ], [ 86.4945447, 22.9432573 ], [ 86.4891334, 22.9372428 ], [ 86.4854912, 22.9424736 ], [ 86.4772747, 22.9460865 ], [ 86.4779256, 22.949364 ], [ 86.4763181, 22.9511754 ], [ 86.4763612, 22.9502318 ], [ 86.4709781, 22.9489258 ], [ 86.4691177, 22.9445113 ], [ 86.4653498, 22.9454616 ], [ 86.4621493, 22.9413682 ], [ 86.4599761, 22.9350574 ], [ 86.4543635, 22.9319811 ], [ 86.4513079, 22.9332467 ], [ 86.4468025, 22.9307113 ], [ 86.4430052, 22.9306724 ], [ 86.4420095, 22.9279683 ], [ 86.4353401, 22.9251852 ], [ 86.4361968, 22.9223223 ], [ 86.4406501, 22.9188937 ], [ 86.4415067, 22.9162927 ], [ 86.4445031, 22.9139482 ], [ 86.4467185, 22.9095361 ], [ 86.4513461, 22.9051093 ], [ 86.4513746, 22.9037683 ], [ 86.4525639, 22.9041651 ], [ 86.4529675, 22.9024627 ], [ 86.455551, 22.9032967 ], [ 86.4575191, 22.902018 ], [ 86.464449, 22.9015312 ], [ 86.465429, 22.9023931 ], [ 86.467138, 22.8999269 ], [ 86.4652752, 22.8981671 ], [ 86.4658346, 22.8965956 ], [ 86.4646295, 22.8943432 ], [ 86.4600424, 22.8920837 ], [ 86.4564729, 22.8880627 ], [ 86.4562474, 22.8857737 ], [ 86.4534261, 22.8858654 ], [ 86.4547521, 22.8784014 ], [ 86.4519765, 22.8729216 ], [ 86.452359, 22.8685373 ], [ 86.4507717, 22.8615353 ], [ 86.4396891, 22.8642625 ], [ 86.4349712, 22.8605124 ], [ 86.4358768, 22.8591169 ], [ 86.4333995, 22.8533567 ], [ 86.435555, 22.8359234 ], [ 86.4388457, 22.8310233 ], [ 86.4284758, 22.8193421 ], [ 86.4225161, 22.8099752 ], [ 86.4252519, 22.8065384 ], [ 86.4233949, 22.8021639 ], [ 86.4254831, 22.7993097 ], [ 86.4225555, 22.7968725 ], [ 86.4232696, 22.7919192 ], [ 86.4209617, 22.7928139 ], [ 86.4188087, 22.7906834 ], [ 86.4163255, 22.7913658 ], [ 86.4162225, 22.7888599 ], [ 86.4186763, 22.7875183 ], [ 86.4176087, 22.7836763 ], [ 86.4214835, 22.7801354 ], [ 86.4258072, 22.7797459 ], [ 86.4301046, 22.7746921 ], [ 86.4374845, 22.7712626 ], [ 86.4484248, 22.7619299 ], [ 86.4579321, 22.7633639 ], [ 86.4601822, 22.7619106 ], [ 86.4696837, 22.7520986 ], [ 86.4736377, 22.7396957 ], [ 86.4750489, 22.739126 ], [ 86.4765062, 22.7349848 ], [ 86.4817255, 22.7302 ], [ 86.4815436, 22.7278612 ], [ 86.4844338, 22.7266131 ], [ 86.4853939, 22.7282469 ], [ 86.4866837, 22.7281287 ], [ 86.4932141, 22.7263948 ], [ 86.4946814, 22.7232783 ], [ 86.4976792, 22.7228697 ], [ 86.50001, 22.7204551 ], [ 86.5068731, 22.7096385 ], [ 86.5113412, 22.7050108 ], [ 86.51345, 22.7071691 ], [ 86.5115091, 22.7119718 ], [ 86.5129312, 22.7166188 ], [ 86.5203264, 22.7152307 ], [ 86.5243271, 22.7194344 ], [ 86.5351284, 22.7172505 ], [ 86.5441953, 22.7216029 ], [ 86.5613873, 22.7092963 ], [ 86.5629939, 22.7062012 ], [ 86.5698436, 22.7022338 ], [ 86.5722385, 22.6992581 ], [ 86.5852749, 22.6910767 ], [ 86.5957696, 22.6895476 ], [ 86.5976349, 22.6876997 ], [ 86.6029843, 22.6869622 ], [ 86.6084854, 22.683993 ], [ 86.611632, 22.6799069 ], [ 86.6202666, 22.6778932 ], [ 86.6235252, 22.6756414 ], [ 86.6293514, 22.6666905 ], [ 86.6360365, 22.6649699 ], [ 86.6423852, 22.6570135 ], [ 86.6386308, 22.6507798 ], [ 86.6398638, 22.6355657 ], [ 86.6390209, 22.625308 ], [ 86.6353763, 22.6183065 ], [ 86.6341097, 22.6103881 ], [ 86.6385999, 22.6094668 ], [ 86.6381322, 22.6012248 ], [ 86.6394347, 22.5978209 ], [ 86.6444848, 22.5944879 ], [ 86.6570307, 22.5907993 ], [ 86.6536338, 22.5818104 ], [ 86.6595178, 22.5750358 ], [ 86.6792577, 22.5744588 ], [ 86.6846519, 22.5783273 ], [ 86.7111485, 22.5823945 ], [ 86.7314913, 22.5769148 ], [ 86.7479498, 22.5772828 ], [ 86.7520845, 22.5785176 ], [ 86.7533807, 22.5774622 ], [ 86.7584998, 22.577876 ], [ 86.7668552, 22.5750227 ], [ 86.7677427, 22.5669815 ], [ 86.7719329, 22.5646426 ], [ 86.7715696, 22.5610617 ], [ 86.7666227, 22.5584125 ], [ 86.7690952, 22.5545762 ], [ 86.7725093, 22.5525738 ], [ 86.7751905, 22.5488007 ], [ 86.7837911, 22.550205 ], [ 86.7892874, 22.5490032 ], [ 86.7902644, 22.541224 ], [ 86.7875687, 22.5380439 ], [ 86.7889565, 22.5340893 ], [ 86.7868517, 22.5268548 ], [ 86.7929184, 22.5249752 ], [ 86.794937, 22.5139817 ], [ 86.7931692, 22.5139318 ], [ 86.7926642, 22.5113166 ], [ 86.7965141, 22.5095847 ], [ 86.7976919, 22.5063976 ], [ 86.802388, 22.5030404 ], [ 86.8008002, 22.5007415 ], [ 86.795242, 22.4993808 ], [ 86.7937762, 22.4964587 ], [ 86.7951578, 22.4939264 ], [ 86.8002562, 22.4915087 ], [ 86.8016036, 22.4888318 ], [ 86.7953697, 22.4804169 ], [ 86.7911737, 22.4774257 ], [ 86.7842867, 22.4812417 ], [ 86.7690217, 22.4800899 ], [ 86.7660857, 22.4819257 ], [ 86.7498713, 22.4829476 ], [ 86.7473834, 22.4780061 ], [ 86.7472795, 22.4747821 ], [ 86.7510629, 22.465434 ], [ 86.7510077, 22.456706 ], [ 86.7631735, 22.4483844 ], [ 86.7590322, 22.4458123 ], [ 86.7618659, 22.4317041 ], [ 86.7645311, 22.4272629 ], [ 86.7858153, 22.424355 ], [ 86.7938935, 22.4216591 ], [ 86.8070744, 22.421259 ], [ 86.8093726, 22.4192281 ], [ 86.8119999, 22.4192066 ], [ 86.8312877, 22.4110045 ], [ 86.8463542, 22.3990831 ], [ 86.8456323, 22.3915199 ], [ 86.8408761, 22.3831927 ], [ 86.842489, 22.3788809 ], [ 86.8426363, 22.3722119 ], [ 86.8364207, 22.3601185 ], [ 86.8322884, 22.3485085 ], [ 86.8315715, 22.3287809 ], [ 86.8332714, 22.3249073 ], [ 86.8397374, 22.3189305 ], [ 86.8501234, 22.3156364 ], [ 86.865367, 22.3080976 ], [ 86.8722432, 22.3071181 ], [ 86.8758342, 22.301501 ], [ 86.8877902, 22.2974594 ], [ 86.8873394, 22.291958 ], [ 86.8892462, 22.2840024 ], [ 86.8893297, 22.2737563 ], [ 86.8875343, 22.2738685 ], [ 86.8872896, 22.2644788 ], [ 86.8883631, 22.2613743 ], [ 86.8863246, 22.2572386 ], [ 86.8848889, 22.2585314 ], [ 86.883243, 22.2574211 ], [ 86.8800568, 22.2592561 ], [ 86.876616, 22.2591004 ], [ 86.8759743, 22.2606513 ], [ 86.8732204, 22.2590938 ], [ 86.8718643, 22.2600626 ], [ 86.8662556, 22.25892 ], [ 86.8652545, 22.2609627 ], [ 86.8634266, 22.2587777 ], [ 86.85929, 22.2579778 ], [ 86.8510907, 22.2652067 ], [ 86.8494213, 22.2633412 ], [ 86.8465548, 22.2640367 ], [ 86.8427138, 22.2616256 ], [ 86.8401707, 22.2625942 ], [ 86.8400811, 22.2644906 ], [ 86.8378411, 22.2656453 ], [ 86.8309288, 22.2632167 ], [ 86.8239556, 22.2667552 ], [ 86.8182516, 22.2537202 ], [ 86.8166966, 22.2545462 ], [ 86.8149373, 22.2670621 ], [ 86.8135921, 22.267391 ], [ 86.8091646, 22.2502523 ], [ 86.8105895, 22.2498732 ], [ 86.8090586, 22.2466359 ], [ 86.807203, 22.2472305 ], [ 86.8039925, 22.2435846 ], [ 86.7999512, 22.2446105 ], [ 86.7980059, 22.2470216 ], [ 86.7998182, 22.2523798 ], [ 86.8011121, 22.2651971 ], [ 86.7922617, 22.266302 ], [ 86.7940993, 22.2522223 ], [ 86.7957007, 22.2487403 ], [ 86.7948618, 22.2431694 ], [ 86.7992497, 22.2378756 ], [ 86.8034824, 22.2432207 ], [ 86.8082113, 22.2429835 ], [ 86.812023, 22.2412268 ], [ 86.8022981, 22.2198472 ], [ 86.8024146, 22.2175498 ], [ 86.7918724, 22.2218277 ], [ 86.7901408, 22.2187355 ], [ 86.7890412, 22.2192482 ], [ 86.7847385, 22.215052 ], [ 86.7786493, 22.2173247 ], [ 86.779868, 22.2226591 ], [ 86.7844693, 22.2305973 ], [ 86.7932142, 22.2241995 ], [ 86.7949051, 22.2277877 ], [ 86.7885839, 22.2316562 ], [ 86.789736, 22.2354094 ], [ 86.7839312, 22.2364112 ], [ 86.7776753, 22.2365942 ], [ 86.7747516, 22.2333406 ], [ 86.7743422, 22.231096 ], [ 86.7773749, 22.2255174 ], [ 86.7771502, 22.2215771 ], [ 86.7758263, 22.2206903 ], [ 86.7764136, 22.2178646 ], [ 86.7723772, 22.218816 ], [ 86.7711367, 22.2203542 ], [ 86.7652917, 22.2152902 ], [ 86.7579179, 22.2116501 ], [ 86.7497791, 22.21169 ], [ 86.74295, 22.216174 ], [ 86.7276624, 22.2161238 ], [ 86.7208597, 22.2204077 ], [ 86.7138518, 22.2200458 ], [ 86.7079372, 22.2233045 ], [ 86.7034597, 22.2211844 ], [ 86.6843381, 22.2224115 ], [ 86.6753055, 22.2292507 ], [ 86.6726075, 22.2396685 ], [ 86.6703239, 22.2422564 ], [ 86.6662397, 22.2416162 ], [ 86.659351, 22.2361587 ], [ 86.6548306, 22.2359338 ], [ 86.6531721, 22.2374106 ], [ 86.6512963, 22.2443826 ], [ 86.6546594, 22.2507319 ], [ 86.649513, 22.2635314 ], [ 86.6467277, 22.2653638 ], [ 86.6435071, 22.2646611 ], [ 86.6443807, 22.268489 ], [ 86.6426431, 22.2685349 ], [ 86.6397099, 22.2655065 ], [ 86.6380018, 22.2711038 ], [ 86.6357649, 22.2728108 ], [ 86.6321821, 22.2732319 ], [ 86.6273096, 22.2695122 ], [ 86.6257896, 22.2735289 ], [ 86.6217713, 22.2770384 ], [ 86.6164072, 22.2810008 ], [ 86.6129417, 22.2810333 ], [ 86.6104794, 22.2833491 ], [ 86.603523, 22.2820675 ], [ 86.5997609, 22.2788738 ], [ 86.5930834, 22.2785591 ], [ 86.5924048, 22.2799486 ], [ 86.5939179, 22.2820438 ], [ 86.5927238, 22.2854421 ], [ 86.5879296, 22.2899923 ], [ 86.5873924, 22.2944085 ], [ 86.5850597, 22.2953557 ], [ 86.5822548, 22.3016452 ], [ 86.5768099, 22.3011207 ], [ 86.5778295, 22.2962224 ], [ 86.5768558, 22.2955649 ], [ 86.5719805, 22.2961754 ], [ 86.5708809, 22.3001882 ], [ 86.5688675, 22.3014386 ], [ 86.5616921, 22.3017175 ], [ 86.5573971, 22.2983181 ], [ 86.5540716, 22.2984716 ], [ 86.5484898, 22.3013606 ], [ 86.5474133, 22.3040136 ], [ 86.5438593, 22.3072107 ], [ 86.5407394, 22.3082408 ], [ 86.5393479, 22.3047633 ], [ 86.5327635, 22.3009592 ], [ 86.5254501, 22.3076051 ], [ 86.5257686, 22.3110299 ], [ 86.523188, 22.3147308 ], [ 86.5234857, 22.3156983 ], [ 86.5278265, 22.3154897 ], [ 86.5270908, 22.3235007 ], [ 86.5216875, 22.3234171 ], [ 86.5081849, 22.327862 ], [ 86.5071884, 22.3295664 ], [ 86.5074813, 22.3346534 ], [ 86.5038387, 22.3363362 ], [ 86.5022502, 22.3434049 ], [ 86.4985154, 22.3449834 ], [ 86.4969148, 22.3472007 ], [ 86.4941429, 22.3456563 ], [ 86.492885, 22.3470798 ], [ 86.4872598, 22.3476809 ], [ 86.4844506, 22.3431098 ], [ 86.4834638, 22.3381335 ], [ 86.4718147, 22.3357788 ], [ 86.4679563, 22.3302509 ], [ 86.4624274, 22.3299617 ], [ 86.4636167, 22.3287505 ], [ 86.4619469, 22.3261071 ], [ 86.4529197, 22.3253226 ], [ 86.4465204, 22.3291131 ], [ 86.4448327, 22.3286557 ], [ 86.4430652, 22.3262602 ], [ 86.4440267, 22.3102734 ], [ 86.4394805, 22.3035998 ], [ 86.4372016, 22.3041565 ], [ 86.4350126, 22.3065113 ], [ 86.4295636, 22.3083171 ], [ 86.4268073, 22.3175806 ], [ 86.4082821, 22.320965 ], [ 86.377076, 22.3416304 ], [ 86.3664208, 22.3442902 ], [ 86.3581437, 22.3492127 ], [ 86.357606, 22.3542288 ], [ 86.3531224, 22.3587911 ], [ 86.3501638, 22.3642943 ], [ 86.3402795, 22.3729222 ], [ 86.3346638, 22.3742678 ], [ 86.3285227, 22.3777972 ], [ 86.321157, 22.385418 ], [ 86.3206295, 22.3890203 ], [ 86.3227102, 22.3926425 ], [ 86.320817, 22.3974088 ], [ 86.3064369, 22.4096064 ], [ 86.3059577, 22.4122106 ], [ 86.3074531, 22.4153065 ], [ 86.3026433, 22.4222011 ], [ 86.2963329, 22.4240301 ], [ 86.293027, 22.4266836 ], [ 86.2813008, 22.4486617 ], [ 86.2764584, 22.4473212 ], [ 86.2688084, 22.4421015 ], [ 86.2639421, 22.445345 ], [ 86.2565998, 22.4454062 ], [ 86.2520043, 22.4479189 ], [ 86.2466095, 22.4481377 ], [ 86.237246, 22.4525879 ], [ 86.2246802, 22.4525461 ], [ 86.2173987, 22.4626126 ], [ 86.2225778, 22.4672531 ], [ 86.2138761, 22.466443 ], [ 86.2079329, 22.4734856 ], [ 86.2015422, 22.4717738 ], [ 86.1972622, 22.4723488 ], [ 86.1697783, 22.4815185 ], [ 86.1604745, 22.4825498 ], [ 86.1563177, 22.4803646 ], [ 86.1502777, 22.4802076 ], [ 86.1511624, 22.4824597 ], [ 86.1503312, 22.4833503 ], [ 86.1287619, 22.4879461 ], [ 86.1237467, 22.4886054 ], [ 86.117596, 22.4866613 ], [ 86.1116357, 22.4905874 ], [ 86.1027498, 22.500243 ], [ 86.1002437, 22.5081339 ], [ 86.0971542, 22.5103263 ], [ 86.0948748, 22.5194991 ], [ 86.0792495, 22.5375498 ], [ 86.0754638, 22.544107 ], [ 86.0673457, 22.5510381 ], [ 86.0654922, 22.5549763 ], [ 86.0806693, 22.5696584 ], [ 86.1021072, 22.5810562 ], [ 86.1072175, 22.5890968 ], [ 86.1141058, 22.5959893 ], [ 86.1167176, 22.6038547 ], [ 86.1315376, 22.6130104 ], [ 86.1470132, 22.6253393 ], [ 86.1492162, 22.6317017 ], [ 86.1545782, 22.635568 ], [ 86.1575345, 22.6448614 ], [ 86.1567829, 22.6469267 ], [ 86.1607685, 22.6532796 ], [ 86.1668261, 22.6688489 ], [ 86.1643326, 22.6776907 ], [ 86.1634853, 22.691645 ], [ 86.1645476, 22.7037113 ], [ 86.1624844, 22.7120851 ], [ 86.1656263, 22.725083 ], [ 86.1645125, 22.7273814 ], [ 86.1658262, 22.7293844 ], [ 86.1610978, 22.73695 ], [ 86.160293, 22.7414541 ], [ 86.1619987, 22.7447872 ], [ 86.1599427, 22.7482823 ], [ 86.1597463, 22.7519854 ], [ 86.163345, 22.754858 ], [ 86.1629656, 22.7599334 ], [ 86.1673495, 22.7601085 ], [ 86.1719694, 22.7633836 ], [ 86.1753889, 22.7880907 ], [ 86.1722042, 22.7929265 ], [ 86.1658082, 22.7950904 ], [ 86.1591547, 22.8013721 ], [ 86.1571169, 22.8014975 ], [ 86.1508677, 22.7983494 ], [ 86.1481855, 22.7986701 ], [ 86.1461513, 22.8015688 ], [ 86.1458568, 22.8053074 ], [ 86.1486484, 22.8130907 ], [ 86.1598251, 22.8223253 ], [ 86.1588955, 22.8332066 ], [ 86.1606039, 22.8362324 ], [ 86.1758846, 22.832071 ], [ 86.1855526, 22.822018 ], [ 86.1992621, 22.8178015 ], [ 86.1990096, 22.8212242 ], [ 86.1979498, 22.8225201 ], [ 86.1963917, 22.8222146 ], [ 86.1952714, 22.8256512 ], [ 86.2011616, 22.8379113 ], [ 86.1989489, 22.8396083 ], [ 86.2003218, 22.8417559 ], [ 86.1993675, 22.8433323 ], [ 86.2024657, 22.8491739 ], [ 86.2003787, 22.8546296 ], [ 86.2016745, 22.858421 ], [ 86.2065129, 22.861687 ], [ 86.2080598, 22.8659854 ], [ 86.2077723, 22.870465 ], [ 86.2144824, 22.8757903 ], [ 86.2198527, 22.8892397 ], [ 86.1967463, 22.8948852 ], [ 86.1937475, 22.9063708 ], [ 86.1905714, 22.9109987 ], [ 86.1897182, 22.9206245 ], [ 86.1905855, 22.9313878 ], [ 86.1934631, 22.9385292 ], [ 86.1962457, 22.9412061 ], [ 86.1946802, 22.9442805 ], [ 86.1886706, 22.9459406 ], [ 86.188389, 22.9474569 ], [ 86.1928892, 22.9558618 ], [ 86.1969357, 22.9599375 ], [ 86.1996845, 22.967593 ], [ 86.2047158, 22.966524 ], [ 86.2182626, 22.9679251 ], [ 86.2186875, 22.9724078 ], [ 86.2201057, 22.9736339 ], [ 86.2426711, 22.9730695 ], [ 86.2469541, 22.9789788 ], [ 86.248152, 22.9832391 ], [ 86.2383478, 22.9945858 ], [ 86.2392654, 22.9963133 ], [ 86.242032, 22.9961527 ], [ 86.243063, 22.9980983 ], [ 86.245351, 22.9982005 ], [ 86.2484992, 22.9949103 ], [ 86.2500001, 22.9963396 ], [ 86.2605574, 22.9985939 ], [ 86.2658494, 22.9979836 ], [ 86.2682375, 22.9998364 ], [ 86.2678659, 23.0011554 ], [ 86.2771717, 23.0073786 ], [ 86.284785, 23.0074599 ], [ 86.2921169, 23.0129767 ], [ 86.2962063, 23.0096829 ], [ 86.2993814, 23.0097884 ], [ 86.3037384, 23.0159984 ], [ 86.3046899, 23.0153036 ], [ 86.3022393, 23.0100606 ] ] ] } }
]
}
