{
"type": "FeatureCollection",
"name": "2021",
"crs": { "type": "name", "properties": { "name": "urn:ogc:def:crs:OGC:1.3:CRS84" } },
"features": [
{ "type": "Feature", "properties": { "code": "2021", "name": "Simdega", "type": "district" }, "geometry": { "type": "Polygon", "coordinates": [ [ [ 84.4613934, 22.8361976 ], [ 84.4657706, 22.8369856 ], [ 84.4814996, 22.8333166 ], [ 84.4848656, 22.829542 ], [ 84.4862023, 22.831619 ], [ 84.4904899, 22.8274611 ], [ 84.4948412, 22.8274901 ], [ 84.499403, 22.8237871 ], [ 84.5034376, 22.8246773 ], [ 84.5043741, 22.8115551 ], [ 84.5030115, 22.8092793 ], [ 84.5024944, 22.7985895 ], [ 84.5084649, 22.7983714 ], [ 84.5114092, 22.7963941 ], [ 84.5175743, 22.7956101 ], [ 84.524778, 22.796709 ], [ 84.5273811, 22.7930301 ], [ 84.5310534, 22.7917217 ], [ 84.5460748, 22.7950455 ], [ 84.5532453, 22.7917847 ], [ 84.5555263, 22.7892735 ], [ 84.5558322, 22.7867064 ], [ 84.5562331, 22.7761556 ], [ 84.5542571, 22.7715344 ], [ 84.5437152, 22.765859 ], [ 84.5356865, 22.7687281 ], [ 84.5328786, 22.767875 ], [ 84.5312304, 22.7692313 ], [ 84.5288393, 22.7638909 ], [ 84.5258238, 22.7615188 ], [ 84.5188996, 22.7623914 ], [ 84.5157589, 22.7540166 ], [ 84.5183746, 22.7549222 ], [ 84.5196937, 22.7517476 ], [ 84.521768, 22.7510744 ], [ 84.5211083, 22.7480963 ], [ 84.5226182, 22.7439771 ], [ 84.5288057, 22.7405852 ], [ 84.5286663, 22.7436508 ], [ 84.5339117, 22.7459111 ], [ 84.5372206, 22.7510753 ], [ 84.5393313, 22.7615093 ], [ 84.5434673, 22.7649801 ], [ 84.5467783, 22.7642705 ], [ 84.5641222, 22.7472795 ], [ 84.569382, 22.7469764 ], [ 84.5621418, 22.7388235 ], [ 84.5620488, 22.7344821 ], [ 84.5592862, 22.7309412 ], [ 84.5646557, 22.7310187 ], [ 84.5701244, 22.7286522 ], [ 84.5711587, 22.7255451 ], [ 84.5804085, 22.7227814 ], [ 84.5855705, 22.7159705 ], [ 84.5892655, 22.7160953 ], [ 84.5921514, 22.7127617 ], [ 84.5981714, 22.7217986 ], [ 84.6051082, 22.723025 ], [ 84.6043656, 22.730937 ], [ 84.6123205, 22.7336034 ], [ 84.6452619, 22.7316205 ], [ 84.6486169, 22.7396263 ], [ 84.6583677, 22.7311169 ], [ 84.6660767, 22.730989 ], [ 84.6679049, 22.7329003 ], [ 84.6684331, 22.7382228 ], [ 84.6697081, 22.7394315 ], [ 84.6864649, 22.737045 ], [ 84.6899222, 22.7411985 ], [ 84.6953664, 22.7415616 ], [ 84.6953997, 22.7431503 ], [ 84.6975297, 22.7438563 ], [ 84.6952057, 22.7455843 ], [ 84.699295, 22.7479503 ], [ 84.6973433, 22.7575346 ], [ 84.704315, 22.764786 ], [ 84.708605, 22.7655753 ], [ 84.7134678, 22.7639719 ], [ 84.7139981, 22.7649176 ], [ 84.7246767, 22.7655044 ], [ 84.7248639, 22.7703531 ], [ 84.7288129, 22.772437 ], [ 84.7293645, 22.7751427 ], [ 84.72772, 22.7763478 ], [ 84.7280005, 22.7777144 ], [ 84.7218242, 22.7792463 ], [ 84.7228909, 22.7826268 ], [ 84.7175609, 22.7835563 ], [ 84.7172573, 22.7849148 ], [ 84.7186575, 22.7881284 ], [ 84.7228888, 22.7889799 ], [ 84.7259041, 22.7929013 ], [ 84.7258972, 22.7964568 ], [ 84.7282616, 22.7977974 ], [ 84.729315, 22.8001669 ], [ 84.7333399, 22.8018006 ], [ 84.7531127, 22.7937546 ], [ 84.7627111, 22.7919512 ], [ 84.7658142, 22.7927687 ], [ 84.7690081, 22.7895622 ], [ 84.7721164, 22.7893958 ], [ 84.7750224, 22.7935496 ], [ 84.7805081, 22.7952015 ], [ 84.7797597, 22.7912838 ], [ 84.7747455, 22.7823641 ], [ 84.7763694, 22.7703643 ], [ 84.7754093, 22.7650088 ], [ 84.7843428, 22.7587819 ], [ 84.7857903, 22.7686022 ], [ 84.7892947, 22.7718251 ], [ 84.7925306, 22.7722105 ], [ 84.7925571, 22.7646658 ], [ 84.7939744, 22.764928 ], [ 84.7946546, 22.7598467 ], [ 84.7941531, 22.7548314 ], [ 84.7917004, 22.7524344 ], [ 84.7916766, 22.7482103 ], [ 84.7878682, 22.7361479 ], [ 84.7881931, 22.730755 ], [ 84.7859205, 22.7265736 ], [ 84.7878812, 22.7256245 ], [ 84.7865646, 22.7232337 ], [ 84.7902031, 22.7187956 ], [ 84.7922052, 22.7196161 ], [ 84.7961913, 22.7179261 ], [ 84.7965163, 22.7150783 ], [ 84.8005263, 22.7117911 ], [ 84.8029159, 22.7140153 ], [ 84.8060048, 22.711799 ], [ 84.8058685, 22.7104976 ], [ 84.8102846, 22.7093183 ], [ 84.8212888, 22.7159859 ], [ 84.8186661, 22.7182807 ], [ 84.8193856, 22.7209345 ], [ 84.8154975, 22.727157 ], [ 84.8166865, 22.7316221 ], [ 84.8145175, 22.7360887 ], [ 84.8145059, 22.7433811 ], [ 84.8199677, 22.7504827 ], [ 84.8311176, 22.7416458 ], [ 84.8319101, 22.7393996 ], [ 84.8307321, 22.737444 ], [ 84.8322733, 22.7345846 ], [ 84.8314471, 22.7305666 ], [ 84.8347842, 22.7299956 ], [ 84.8388699, 22.7268348 ], [ 84.8417131, 22.7267447 ], [ 84.8485533, 22.7222287 ], [ 84.8555223, 22.721514 ], [ 84.8578034, 22.7199272 ], [ 84.8579914, 22.7217168 ], [ 84.856614, 22.7227373 ], [ 84.85868, 22.7225468 ], [ 84.8594988, 22.7237938 ], [ 84.8577053, 22.7239787 ], [ 84.8555229, 22.7307927 ], [ 84.8464171, 22.7457228 ], [ 84.8414412, 22.7570587 ], [ 84.8410757, 22.767957 ], [ 84.8432717, 22.7702145 ], [ 84.8469902, 22.7709119 ], [ 84.8518366, 22.7677336 ], [ 84.8587963, 22.7658184 ], [ 84.8581888, 22.7614422 ], [ 84.8634317, 22.757745 ], [ 84.8697961, 22.7558849 ], [ 84.8762014, 22.7451797 ], [ 84.8810674, 22.743237 ], [ 84.8811934, 22.7385721 ], [ 84.8873931, 22.7453652 ], [ 84.8914467, 22.744396 ], [ 84.8970379, 22.7522644 ], [ 84.9001834, 22.7542261 ], [ 84.8982953, 22.7582464 ], [ 84.9057094, 22.7592232 ], [ 84.9058408, 22.7609218 ], [ 84.91089, 22.7632139 ], [ 84.9130084, 22.7621299 ], [ 84.9142164, 22.7668476 ], [ 84.9164389, 22.7666585 ], [ 84.9169003, 22.7681098 ], [ 84.9185102, 22.7682005 ], [ 84.9227922, 22.7827045 ], [ 84.9222963, 22.7847022 ], [ 84.9252369, 22.7833395 ], [ 84.9273341, 22.7837624 ], [ 84.9306027, 22.7922153 ], [ 84.9394266, 22.7872959 ], [ 84.9402994, 22.7834071 ], [ 84.9447709, 22.778425 ], [ 84.950282, 22.7756669 ], [ 84.9610075, 22.7756565 ], [ 84.9686792, 22.7851693 ], [ 84.9804845, 22.7856544 ], [ 84.9826132, 22.7845245 ], [ 84.9931548, 22.7862664 ], [ 84.9967597, 22.7847206 ], [ 85.0001461, 22.7870267 ], [ 85.005106, 22.7875098 ], [ 85.0058872, 22.7809383 ], [ 85.0101965, 22.7698408 ], [ 85.0214044, 22.7654954 ], [ 85.0227773, 22.7604561 ], [ 85.0276203, 22.7558367 ], [ 85.0383441, 22.7540751 ], [ 85.0466437, 22.7544873 ], [ 85.0492492, 22.7533168 ], [ 85.0520677, 22.746371 ], [ 85.0588546, 22.7374847 ], [ 85.057328, 22.729261 ], [ 85.0530448, 22.7211771 ], [ 85.0539616, 22.7092891 ], [ 85.0509712, 22.7006422 ], [ 85.0455018, 22.6918223 ], [ 85.0413874, 22.6821241 ], [ 85.041861, 22.6794393 ], [ 85.046416, 22.6742466 ], [ 85.0587028, 22.6700812 ], [ 85.0610614, 22.6675712 ], [ 85.0594798, 22.6576043 ], [ 85.0543654, 22.6521561 ], [ 85.0543602, 22.6458997 ], [ 85.0505332, 22.6409897 ], [ 85.0495691, 22.6366362 ], [ 85.0569388, 22.6228893 ], [ 85.0540276, 22.6112278 ], [ 85.070096, 22.60528 ], [ 85.0709517, 22.6008025 ], [ 85.068466, 22.59524 ], [ 85.0685346, 22.5907085 ], [ 85.0718447, 22.5791894 ], [ 85.0758491, 22.5740973 ], [ 85.0738037, 22.5698399 ], [ 85.068515, 22.5652299 ], [ 85.0686641, 22.5619723 ], [ 85.0722789, 22.5538873 ], [ 85.0709397, 22.5499267 ], [ 85.0722679, 22.5479643 ], [ 85.069499, 22.546299 ], [ 85.0645621, 22.5393636 ], [ 85.0676818, 22.5334398 ], [ 85.073111, 22.5300788 ], [ 85.0777259, 22.5250112 ], [ 85.0796453, 22.5193716 ], [ 85.0777671, 22.5036133 ], [ 85.0738453, 22.4926173 ], [ 85.0672673, 22.4841649 ], [ 85.0596768, 22.4864452 ], [ 85.0521568, 22.4825142 ], [ 85.0442972, 22.4823259 ], [ 85.0439943, 22.4809592 ], [ 85.0416478, 22.4805534 ], [ 85.0380828, 22.4804315 ], [ 85.0380532, 22.4819571 ], [ 85.0359479, 22.4824297 ], [ 85.0362794, 22.4793728 ], [ 85.0376481, 22.4794876 ], [ 85.0371813, 22.4728191 ], [ 85.0354681, 22.4737838 ], [ 85.0193788, 22.4706024 ], [ 85.0115437, 22.4664225 ], [ 84.9828051, 22.4559955 ], [ 84.9730188, 22.4511231 ], [ 84.9648819, 22.4493302 ], [ 84.9593515, 22.4430537 ], [ 84.9566684, 22.4582254 ], [ 84.9449035, 22.4524615 ], [ 84.9433456, 22.4484326 ], [ 84.9402054, 22.4452039 ], [ 84.9319416, 22.446222 ], [ 84.9238567, 22.4435523 ], [ 84.9238734, 22.4409253 ], [ 84.9265635, 22.4395763 ], [ 84.9261511, 22.434949 ], [ 84.9158985, 22.4261141 ], [ 84.9102263, 22.4232832 ], [ 84.8992485, 22.4234303 ], [ 84.8855764, 22.4210794 ], [ 84.8855931, 22.426126 ], [ 84.8887069, 22.4292063 ], [ 84.8849002, 22.4374472 ], [ 84.885088, 22.4427577 ], [ 84.8823947, 22.4484662 ], [ 84.8729232, 22.4422655 ], [ 84.8730695, 22.4394688 ], [ 84.8537315, 22.435917 ], [ 84.8456257, 22.4362587 ], [ 84.8422259, 22.4342304 ], [ 84.8421645, 22.431738 ], [ 84.8385532, 22.4309257 ], [ 84.837384, 22.432527 ], [ 84.8176323, 22.437605 ], [ 84.8177832, 22.4446208 ], [ 84.812524, 22.4529313 ], [ 84.8057134, 22.4476726 ], [ 84.8014473, 22.4484579 ], [ 84.7990746, 22.4472994 ], [ 84.797297, 22.4486398 ], [ 84.7960399, 22.4462588 ], [ 84.7887459, 22.4481876 ], [ 84.7655144, 22.4486471 ], [ 84.7593155, 22.4474657 ], [ 84.7520611, 22.430604 ], [ 84.7497429, 22.418989 ], [ 84.7187735, 22.4198964 ], [ 84.7155642, 22.4172777 ], [ 84.698631, 22.4164022 ], [ 84.6859825, 22.4185493 ], [ 84.6838382, 22.4199201 ], [ 84.6760049, 22.4194194 ], [ 84.6741264, 22.4219132 ], [ 84.6680576, 22.4180644 ], [ 84.6521554, 22.4262063 ], [ 84.6372848, 22.4318122 ], [ 84.6310598, 22.4328087 ], [ 84.6286481, 22.434553 ], [ 84.6219608, 22.4315602 ], [ 84.6102981, 22.430937 ], [ 84.602588, 22.4288251 ], [ 84.5997414, 22.4309319 ], [ 84.5978545, 22.4347967 ], [ 84.5941813, 22.4300595 ], [ 84.5708956, 22.427404 ], [ 84.5492906, 22.4210417 ], [ 84.5475344, 22.4224819 ], [ 84.546942, 22.4260651 ], [ 84.540331, 22.4271895 ], [ 84.5380565, 22.42556 ], [ 84.5362015, 22.4273745 ], [ 84.5313613, 22.4258978 ], [ 84.5305383, 22.4227998 ], [ 84.5243943, 22.4199762 ], [ 84.5169805, 22.4193478 ], [ 84.5106449, 22.421026 ], [ 84.4895838, 22.4136385 ], [ 84.4824352, 22.413273 ], [ 84.4806911, 22.4101707 ], [ 84.4769801, 22.4080052 ], [ 84.4767311, 22.4052775 ], [ 84.4779254, 22.399254 ], [ 84.4802909, 22.3979786 ], [ 84.4788369, 22.394077 ], [ 84.4843985, 22.3925791 ], [ 84.4854524, 22.3909661 ], [ 84.48463, 22.3888474 ], [ 84.4760123, 22.3866516 ], [ 84.4611818, 22.3790507 ], [ 84.4532052, 22.3810476 ], [ 84.4534454, 22.3794631 ], [ 84.4495299, 22.3802899 ], [ 84.4349595, 22.3741652 ], [ 84.4315325, 22.3713806 ], [ 84.4306629, 22.3683644 ], [ 84.4322595, 22.365308 ], [ 84.4306661, 22.3640379 ], [ 84.4333138, 22.3627625 ], [ 84.4342689, 22.3604707 ], [ 84.429984, 22.3579301 ], [ 84.4295593, 22.3543967 ], [ 84.4281327, 22.3532658 ], [ 84.4236978, 22.3544365 ], [ 84.4204051, 22.3523484 ], [ 84.4161813, 22.3528084 ], [ 84.4003202, 22.3464623 ], [ 84.399686, 22.3478218 ], [ 84.3967648, 22.3474 ], [ 84.3921331, 22.3498649 ], [ 84.3883046, 22.3486821 ], [ 84.3830183, 22.3491123 ], [ 84.3795901, 22.3526233 ], [ 84.3703188, 22.3557318 ], [ 84.3678923, 22.3546575 ], [ 84.3656352, 22.3481984 ], [ 84.3584962, 22.3472746 ], [ 84.3567635, 22.3489714 ], [ 84.3444157, 22.3467807 ], [ 84.3395105, 22.3475504 ], [ 84.3299399, 22.344252 ], [ 84.324737, 22.3452772 ], [ 84.3168292, 22.3423149 ], [ 84.3133646, 22.3444405 ], [ 84.2953349, 22.3410248 ], [ 84.291505, 22.3421322 ], [ 84.2900369, 22.3468857 ], [ 84.2783646, 22.3492752 ], [ 84.2688108, 22.354552 ], [ 84.2606261, 22.3654255 ], [ 84.255608, 22.374425 ], [ 84.2514559, 22.3780779 ], [ 84.2430039, 22.3787003 ], [ 84.1989553, 22.3758149 ], [ 84.1848869, 22.3902287 ], [ 84.1659782, 22.3998516 ], [ 84.1561327, 22.4077351 ], [ 84.1409252, 22.425619 ], [ 84.1405477, 22.4413942 ], [ 84.1388954, 22.4477626 ], [ 84.1413809, 22.4533505 ], [ 84.1428915, 22.4642349 ], [ 84.1420626, 22.4715539 ], [ 84.1406843, 22.4739151 ], [ 84.1370002, 22.4737867 ], [ 84.1353506, 22.4765858 ], [ 84.1317124, 22.4762591 ], [ 84.1287976, 22.4775993 ], [ 84.1248406, 22.4749253 ], [ 84.1134899, 22.4756864 ], [ 84.1063086, 22.4806451 ], [ 84.1068562, 22.4827446 ], [ 84.1088319, 22.4826821 ], [ 84.1079463, 22.4837631 ], [ 84.1024768, 22.4840769 ], [ 84.0903068, 22.4892904 ], [ 84.0811501, 22.4939953 ], [ 84.0730521, 22.5009654 ], [ 84.070237, 22.5013522 ], [ 84.075278, 22.5028287 ], [ 84.075489, 22.5061981 ], [ 84.0651217, 22.5076077 ], [ 84.0645386, 22.5124796 ], [ 84.0613191, 22.5132418 ], [ 84.0597149, 22.5164318 ], [ 84.0530585, 22.5129032 ], [ 84.0492493, 22.5170406 ], [ 84.0365573, 22.5159709 ], [ 84.0341529, 22.5180395 ], [ 84.0296213, 22.519181 ], [ 84.0277133, 22.5205004 ], [ 84.0255203, 22.5257533 ], [ 84.0129286, 22.5233738 ], [ 84.0092112, 22.5255774 ], [ 84.0123422, 22.5276929 ], [ 84.0097005, 22.5284189 ], [ 84.0100169, 22.5316823 ], [ 84.0028459, 22.5459039 ], [ 84.0076505, 22.5524605 ], [ 84.0076167, 22.5611921 ], [ 84.0095054, 22.5730486 ], [ 84.0241735, 22.5858088 ], [ 84.0244333, 22.5918032 ], [ 84.0342248, 22.5923129 ], [ 84.0418255, 22.5953735 ], [ 84.0488493, 22.5952999 ], [ 84.0541257, 22.5981072 ], [ 84.05766, 22.6057724 ], [ 84.0637473, 22.6085925 ], [ 84.0695976, 22.6204298 ], [ 84.0840162, 22.6381164 ], [ 84.0934323, 22.6349406 ], [ 84.1045627, 22.6371769 ], [ 84.1108052, 22.6397549 ], [ 84.1234765, 22.637049 ], [ 84.139794, 22.6382318 ], [ 84.1524675, 22.6368006 ], [ 84.1562723, 22.6385335 ], [ 84.1632753, 22.6454279 ], [ 84.1726829, 22.6497012 ], [ 84.1801338, 22.6511059 ], [ 84.1880299, 22.6552275 ], [ 84.200188, 22.6664572 ], [ 84.2079017, 22.6683782 ], [ 84.2130819, 22.6677096 ], [ 84.2131888, 22.6657644 ], [ 84.2175442, 22.6658184 ], [ 84.2261237, 22.6717739 ], [ 84.2332074, 22.6792404 ], [ 84.2347494, 22.6861089 ], [ 84.2382026, 22.6914543 ], [ 84.2329291, 22.7003329 ], [ 84.2344343, 22.7048928 ], [ 84.234127, 22.7105356 ], [ 84.232087, 22.725553 ], [ 84.2298491, 22.728065 ], [ 84.2302655, 22.7382048 ], [ 84.2326441, 22.7417781 ], [ 84.2416547, 22.7474759 ], [ 84.2453211, 22.7526651 ], [ 84.2555668, 22.7601011 ], [ 84.2596454, 22.7669872 ], [ 84.2759547, 22.768705 ], [ 84.2861018, 22.7632402 ], [ 84.2893595, 22.7661171 ], [ 84.2898594, 22.7713747 ], [ 84.2918694, 22.7742756 ], [ 84.2945076, 22.7736836 ], [ 84.2970954, 22.7716056 ], [ 84.3032739, 22.7705412 ], [ 84.3104449, 22.7673546 ], [ 84.3131202, 22.7647364 ], [ 84.319533, 22.7657226 ], [ 84.325343, 22.7640471 ], [ 84.3309515, 22.7590216 ], [ 84.3354659, 22.7526255 ], [ 84.3367908, 22.7482624 ], [ 84.3434624, 22.7467711 ], [ 84.3502478, 22.7481228 ], [ 84.3543347, 22.7507488 ], [ 84.351929, 22.7557264 ], [ 84.3494798, 22.7577266 ], [ 84.3492164, 22.7620433 ], [ 84.3578631, 22.7595181 ], [ 84.3592033, 22.7569682 ], [ 84.3621061, 22.7583849 ], [ 84.3718801, 22.7542888 ], [ 84.3796532, 22.7646035 ], [ 84.3841063, 22.7636985 ], [ 84.3878938, 22.7678979 ], [ 84.391435, 22.7657607 ], [ 84.3892455, 22.7722851 ], [ 84.3924981, 22.7754027 ], [ 84.3971759, 22.775015 ], [ 84.399787, 22.7764717 ], [ 84.4042735, 22.770984 ], [ 84.4073904, 22.7719071 ], [ 84.4128032, 22.7679309 ], [ 84.4132633, 22.7655834 ], [ 84.4163509, 22.764864 ], [ 84.4193012, 22.7680486 ], [ 84.418128, 22.7727487 ], [ 84.4213223, 22.7808447 ], [ 84.4262449, 22.7875328 ], [ 84.4300857, 22.7893778 ], [ 84.4352734, 22.7981807 ], [ 84.4321459, 22.8077226 ], [ 84.4293312, 22.8111166 ], [ 84.4408345, 22.8090191 ], [ 84.448084, 22.8124675 ], [ 84.4510323, 22.8164096 ], [ 84.449713, 22.8205754 ], [ 84.4511379, 22.8303312 ], [ 84.4493829, 22.8349054 ], [ 84.4512552, 22.8347264 ], [ 84.4532221, 22.8374809 ], [ 84.4613934, 22.8361976 ] ] ] } }
]
}
