{
"type": "FeatureCollection",
"name": "2101",
"crs": { "type": "name", "properties": { "name": "urn:ogc:def:crs:OGC:1.3:CRS84" } },
"features": [
{ "type": "Feature", "properties": { "code": "2101", "name": "Bargarh", "type": "district" }, "geometry": { "type": "Polygon", "coordinates": [ [ [ 83.581114, 21.7390115 ], [ 83.5903871, 21.7382663 ], [ 83.6040938, 21.7310183 ], [ 83.6369016, 21.7267206 ], [ 83.6482834, 21.723289 ], [ 83.6534622, 21.7209355 ], [ 83.6645496, 21.7107457 ], [ 83.6782747, 21.7100685 ], [ 83.6952926, 21.6994738 ], [ 83.7019645, 21.6881845 ], [ 83.7133284, 21.6572287 ], [ 83.7196857, 21.6483815 ], [ 83.7232177, 21.6382309 ], [ 83.7297767, 21.6260534 ], [ 83.741033, 21.6183167 ], [ 83.7444618, 21.6130331 ], [ 83.7481223, 21.6108243 ], [ 83.7509495, 21.6059073 ], [ 83.7659035, 21.5978371 ], [ 83.7725106, 21.5909926 ], [ 83.7765216, 21.5834331 ], [ 83.7989679, 21.5639287 ], [ 83.8151352, 21.5363583 ], [ 83.8452133, 21.5274346 ], [ 83.8468562, 21.5213947 ], [ 83.8563092, 21.5067765 ], [ 83.8580077, 21.5006588 ], [ 83.8626674, 21.4923284 ], [ 83.8618965, 21.4886677 ], [ 83.8691868, 21.4782747 ], [ 83.8711837, 21.4657698 ], [ 83.8729614, 21.461754 ], [ 83.8723594, 21.4573683 ], [ 83.8836093, 21.441775 ], [ 83.8850116, 21.4380679 ], [ 83.8816977, 21.4327993 ], [ 83.8789105, 21.4312767 ], [ 83.8789411, 21.4298904 ], [ 83.8811091, 21.4298306 ], [ 83.8809402, 21.4271254 ], [ 83.8788002, 21.4256638 ], [ 83.8740284, 21.4237147 ], [ 83.872335, 21.4248677 ], [ 83.8702123, 21.4242813 ], [ 83.8646241, 21.4214929 ], [ 83.8586988, 21.4236523 ], [ 83.8481643, 21.4205596 ], [ 83.8457692, 21.4141326 ], [ 83.8497478, 21.4095198 ], [ 83.8511664, 21.4031452 ], [ 83.8597468, 21.3992573 ], [ 83.8685351, 21.3974367 ], [ 83.8727771, 21.3947286 ], [ 83.8750283, 21.3900818 ], [ 83.8790902, 21.3880893 ], [ 83.8778428, 21.3834485 ], [ 83.8794072, 21.3774503 ], [ 83.8776627, 21.3730074 ], [ 83.8811855, 21.3629317 ], [ 83.8784649, 21.3588306 ], [ 83.8803199, 21.3499615 ], [ 83.8769662, 21.3447565 ], [ 83.8749283, 21.3383326 ], [ 83.8767304, 21.3336619 ], [ 83.8754641, 21.3294997 ], [ 83.87626, 21.3248552 ], [ 83.874252, 21.3194554 ], [ 83.8706871, 21.3149713 ], [ 83.8696987, 21.3104657 ], [ 83.873001, 21.3093847 ], [ 83.8720511, 21.3048829 ], [ 83.8752907, 21.2993437 ], [ 83.8758155, 21.2936479 ], [ 83.8780495, 21.2926257 ], [ 83.8837343, 21.2937153 ], [ 83.8861481, 21.2969688 ], [ 83.8902292, 21.2948451 ], [ 83.8885145, 21.2820249 ], [ 83.8974784, 21.2651847 ], [ 83.9023026, 21.2605025 ], [ 83.9058772, 21.2596239 ], [ 83.9071372, 21.2575802 ], [ 83.9118799, 21.2456056 ], [ 83.9126807, 21.2336854 ], [ 83.905485, 21.2163022 ], [ 83.8956692, 21.1863755 ], [ 83.8906256, 21.1764825 ], [ 83.8844367, 21.1754509 ], [ 83.8711818, 21.1563949 ], [ 83.8611169, 21.1339075 ], [ 83.8564813, 21.1159405 ], [ 83.8462717, 21.0994437 ], [ 83.83976, 21.0936627 ], [ 83.8342033, 21.0988968 ], [ 83.821935, 21.1020308 ], [ 83.8124802, 21.1097665 ], [ 83.8069336, 21.1105085 ], [ 83.7995683, 21.1137855 ], [ 83.7856134, 21.1333481 ], [ 83.7846476, 21.1375347 ], [ 83.7866513, 21.1458794 ], [ 83.7841075, 21.1516176 ], [ 83.7789835, 21.1539633 ], [ 83.7681422, 21.1549717 ], [ 83.7658627, 21.1514114 ], [ 83.766144, 21.1489423 ], [ 83.7619027, 21.1428546 ], [ 83.7514283, 21.1389539 ], [ 83.7464442, 21.1395087 ], [ 83.739682, 21.1357228 ], [ 83.7372528, 21.131298 ], [ 83.7274793, 21.1314421 ], [ 83.7262797, 21.1284688 ], [ 83.7241055, 21.1269103 ], [ 83.7224997, 21.1277531 ], [ 83.722615, 21.1240634 ], [ 83.7202476, 21.1227201 ], [ 83.7194179, 21.1236454 ], [ 83.7172278, 21.1212159 ], [ 83.7126658, 21.1192983 ], [ 83.7105099, 21.1216486 ], [ 83.7038159, 21.1217827 ], [ 83.6946366, 21.1177941 ], [ 83.6852801, 21.1162183 ], [ 83.6819022, 21.1180549 ], [ 83.6820864, 21.1210765 ], [ 83.6803315, 21.1235374 ], [ 83.6758505, 21.1261135 ], [ 83.6684325, 21.1256167 ], [ 83.6617138, 21.1284488 ], [ 83.6572988, 21.1280082 ], [ 83.6482584, 21.1307185 ], [ 83.6428003, 21.1305961 ], [ 83.6371687, 21.1277543 ], [ 83.636151, 21.1289754 ], [ 83.6312403, 21.1290563 ], [ 83.6235928, 21.1275723 ], [ 83.6140517, 21.1289252 ], [ 83.6126274, 21.1278233 ], [ 83.6074342, 21.1296457 ], [ 83.6043374, 21.1283753 ], [ 83.6017822, 21.1181491 ], [ 83.5948394, 21.1078998 ], [ 83.5882029, 21.1036044 ], [ 83.5838946, 21.1026047 ], [ 83.5792129, 21.0972678 ], [ 83.5635647, 21.0869279 ], [ 83.5572093, 21.0843243 ], [ 83.5482171, 21.0768664 ], [ 83.543821, 21.0757449 ], [ 83.5391597, 21.0720408 ], [ 83.5295488, 21.0716921 ], [ 83.5266784, 21.070331 ], [ 83.5237103, 21.0660322 ], [ 83.5163206, 21.0656227 ], [ 83.5125489, 21.0618458 ], [ 83.5077599, 21.0613478 ], [ 83.5043164, 21.0633714 ], [ 83.5042752, 21.0646406 ], [ 83.5018837, 21.0648656 ], [ 83.4936853, 21.0635325 ], [ 83.4918671, 21.0620964 ], [ 83.4930974, 21.0594374 ], [ 83.4930606, 21.0529053 ], [ 83.497071, 21.0448013 ], [ 83.4969169, 21.0424696 ], [ 83.4939155, 21.0406988 ], [ 83.4878992, 21.0415455 ], [ 83.4811249, 21.0509222 ], [ 83.4741469, 21.0526808 ], [ 83.4728704, 21.0566272 ], [ 83.4614561, 21.0618133 ], [ 83.457554, 21.0599692 ], [ 83.4562672, 21.0533557 ], [ 83.4368857, 21.046285 ], [ 83.4370867, 21.0421105 ], [ 83.4311359, 21.0333964 ], [ 83.4236043, 21.0312557 ], [ 83.4190916, 21.034995 ], [ 83.4139563, 21.0365309 ], [ 83.4139493, 21.0396687 ], [ 83.4097675, 21.0398003 ], [ 83.4041115, 21.0502555 ], [ 83.4053541, 21.057245 ], [ 83.4033902, 21.0622392 ], [ 83.3931476, 21.0680951 ], [ 83.3912472, 21.0710791 ], [ 83.3854262, 21.0692242 ], [ 83.3787159, 21.06195 ], [ 83.3770894, 21.0615936 ], [ 83.3682797, 21.0641593 ], [ 83.3622612, 21.0692547 ], [ 83.3558534, 21.0689104 ], [ 83.351954, 21.0711543 ], [ 83.3523652, 21.0664123 ], [ 83.3509347, 21.0638452 ], [ 83.3410382, 21.057548 ], [ 83.3344908, 21.0583967 ], [ 83.3304329, 21.0551069 ], [ 83.3217196, 21.0561698 ], [ 83.3175828, 21.047133 ], [ 83.3171861, 21.0410793 ], [ 83.3106073, 21.0330011 ], [ 83.3071762, 21.0316165 ], [ 83.3022758, 21.0253573 ], [ 83.29926, 21.0240707 ], [ 83.2976459, 21.0200967 ], [ 83.2996616, 21.0176403 ], [ 83.2957102, 21.0136482 ], [ 83.3065989, 21.0019151 ], [ 83.321423, 20.9982279 ], [ 83.3267077, 20.9948552 ], [ 83.3284331, 20.9917208 ], [ 83.3290962, 20.9848804 ], [ 83.3326266, 20.9806602 ], [ 83.3424804, 20.9864261 ], [ 83.3500082, 20.9986663 ], [ 83.3609052, 21.0033917 ], [ 83.3668774, 21.0034306 ], [ 83.3713131, 21.0017705 ], [ 83.3728721, 21.0006381 ], [ 83.3722892, 20.9929573 ], [ 83.3819605, 20.9892194 ], [ 83.3864997, 20.9889707 ], [ 83.3873226, 20.9862953 ], [ 83.38402, 20.9820659 ], [ 83.385601, 20.9805178 ], [ 83.3840609, 20.9725254 ], [ 83.38938, 20.9711822 ], [ 83.3905079, 20.9644212 ], [ 83.3850754, 20.9576932 ], [ 83.3807275, 20.9569143 ], [ 83.3796027, 20.9550879 ], [ 83.3849655, 20.9525884 ], [ 83.3830908, 20.9507545 ], [ 83.3840667, 20.9495535 ], [ 83.3809178, 20.9473715 ], [ 83.3799143, 20.9401481 ], [ 83.3807357, 20.937685 ], [ 83.3867285, 20.9376826 ], [ 83.3911535, 20.9324646 ], [ 83.3921703, 20.9244634 ], [ 83.3973777, 20.9201373 ], [ 83.4080148, 20.9161184 ], [ 83.4145423, 20.9084458 ], [ 83.4155896, 20.9003448 ], [ 83.4138299, 20.8963649 ], [ 83.4049907, 20.8922095 ], [ 83.4035623, 20.8903062 ], [ 83.3968638, 20.8899218 ], [ 83.3909418, 20.8863973 ], [ 83.3815461, 20.8858693 ], [ 83.3730774, 20.8831923 ], [ 83.3641281, 20.8777267 ], [ 83.3492615, 20.8744506 ], [ 83.3384005, 20.8831871 ], [ 83.328921, 20.8809597 ], [ 83.3278745, 20.8797684 ], [ 83.3286982, 20.8739869 ], [ 83.3222239, 20.8712755 ], [ 83.3211755, 20.8655646 ], [ 83.3171311, 20.8611991 ], [ 83.3151492, 20.8610229 ], [ 83.3121614, 20.8575685 ], [ 83.307064, 20.8593937 ], [ 83.3021226, 20.8525611 ], [ 83.2982678, 20.8549156 ], [ 83.2847118, 20.8532911 ], [ 83.28348, 20.8509235 ], [ 83.2848281, 20.8485982 ], [ 83.2840097, 20.8459226 ], [ 83.2793328, 20.8418671 ], [ 83.2764852, 20.8444696 ], [ 83.2758082, 20.8473594 ], [ 83.2774495, 20.856833 ], [ 83.2764009, 20.8605675 ], [ 83.2754623, 20.86044 ], [ 83.271601, 20.8688084 ], [ 83.2760246, 20.8693817 ], [ 83.2692865, 20.8810302 ], [ 83.2680867, 20.8804682 ], [ 83.2639665, 20.8841259 ], [ 83.2621411, 20.8879972 ], [ 83.2593939, 20.8887062 ], [ 83.2591676, 20.8918744 ], [ 83.2557567, 20.8941635 ], [ 83.2543325, 20.8985305 ], [ 83.2512647, 20.8983858 ], [ 83.2508856, 20.8993796 ], [ 83.2541778, 20.9029711 ], [ 83.2516684, 20.9099757 ], [ 83.2489626, 20.9118807 ], [ 83.2503134, 20.9177011 ], [ 83.2332526, 20.9280213 ], [ 83.2258746, 20.9276346 ], [ 83.216524, 20.9303662 ], [ 83.2158217, 20.9286957 ], [ 83.2193061, 20.9267403 ], [ 83.2176558, 20.9213886 ], [ 83.210327, 20.9194201 ], [ 83.2108081, 20.9174903 ], [ 83.2076367, 20.9132509 ], [ 83.2001323, 20.9064572 ], [ 83.1914564, 20.8960614 ], [ 83.1882858, 20.8974251 ], [ 83.1783477, 20.890025 ], [ 83.167794, 20.8875312 ], [ 83.1654359, 20.883926 ], [ 83.1495087, 20.8825963 ], [ 83.144536, 20.8809249 ], [ 83.1408634, 20.8777468 ], [ 83.1292636, 20.8588856 ], [ 83.1167024, 20.8630874 ], [ 83.1147818, 20.8665972 ], [ 83.1076647, 20.8699047 ], [ 83.1023696, 20.8746886 ], [ 83.0942737, 20.8680823 ], [ 83.0921822, 20.8631136 ], [ 83.0867172, 20.8576983 ], [ 83.0556847, 20.8574869 ], [ 83.0502924, 20.8566304 ], [ 83.0473572, 20.8545024 ], [ 83.0313995, 20.8542457 ], [ 83.0182434, 20.8565914 ], [ 83.0144253, 20.8617257 ], [ 83.0082922, 20.8575348 ], [ 83.0024645, 20.8488064 ], [ 82.9825822, 20.8470869 ], [ 82.9803779, 20.8456763 ], [ 82.9806266, 20.8525511 ], [ 82.9795125, 20.8559013 ], [ 82.9816256, 20.8606094 ], [ 82.9804913, 20.8624018 ], [ 82.9813249, 20.8658784 ], [ 82.9769753, 20.8694422 ], [ 82.9730167, 20.8768397 ], [ 82.9748511, 20.8804312 ], [ 82.9728246, 20.884564 ], [ 82.9642515, 20.8789728 ], [ 82.962837, 20.8854918 ], [ 82.966939, 20.8931127 ], [ 82.959497, 20.8958219 ], [ 82.9530498, 20.8959725 ], [ 82.9421277, 20.8840936 ], [ 82.9256112, 20.882894 ], [ 82.9254713, 20.8945242 ], [ 82.9188471, 20.8977644 ], [ 82.9166759, 20.9008597 ], [ 82.9126527, 20.9030815 ], [ 82.9033054, 20.9008058 ], [ 82.9027351, 20.9036122 ], [ 82.9005201, 20.903262 ], [ 82.8997416, 20.9044087 ], [ 82.8904634, 20.9034233 ], [ 82.8879823, 20.9090958 ], [ 82.8843155, 20.9064086 ], [ 82.8796853, 20.8966101 ], [ 82.8753464, 20.8947294 ], [ 82.8732761, 20.8913334 ], [ 82.8587563, 20.8798404 ], [ 82.8584791, 20.8764519 ], [ 82.840684, 20.8680366 ], [ 82.8071346, 20.8357511 ], [ 82.8009418, 20.8348995 ], [ 82.7955308, 20.8290897 ], [ 82.7926173, 20.8236013 ], [ 82.7837837, 20.8175062 ], [ 82.7801849, 20.8112841 ], [ 82.7707856, 20.8022946 ], [ 82.7705773, 20.7980154 ], [ 82.7654688, 20.7866146 ], [ 82.7533664, 20.7708004 ], [ 82.7454644, 20.7705603 ], [ 82.7441799, 20.7611432 ], [ 82.7449746, 20.7601143 ], [ 82.7393745, 20.7507545 ], [ 82.7395832, 20.74802 ], [ 82.7351192, 20.7329713 ], [ 82.7354515, 20.7267399 ], [ 82.7335409, 20.7225272 ], [ 82.7275906, 20.7223116 ], [ 82.7255112, 20.7239403 ], [ 82.7208911, 20.7241853 ], [ 82.7192249, 20.726284 ], [ 82.7142832, 20.725692 ], [ 82.7126004, 20.7275966 ], [ 82.7107722, 20.7272534 ], [ 82.7104072, 20.7285172 ], [ 82.7046171, 20.7276218 ], [ 82.685354, 20.7330281 ], [ 82.6848517, 20.740133 ], [ 82.6861578, 20.7436114 ], [ 82.6881246, 20.7434476 ], [ 82.6900604, 20.7452712 ], [ 82.6919609, 20.7503832 ], [ 82.6967679, 20.7543195 ], [ 82.6976533, 20.7613654 ], [ 82.6947251, 20.7704814 ], [ 82.6897074, 20.7744196 ], [ 82.6878196, 20.8011485 ], [ 82.6844239, 20.8067731 ], [ 82.6831184, 20.8137866 ], [ 82.6842112, 20.8261103 ], [ 82.6872267, 20.8307279 ], [ 82.6850028, 20.8445701 ], [ 82.6866134, 20.8550188 ], [ 82.6847271, 20.8655426 ], [ 82.6817635, 20.8695282 ], [ 82.6826709, 20.8716195 ], [ 82.6808875, 20.8853759 ], [ 82.6809477, 20.88734 ], [ 82.6861843, 20.8910506 ], [ 82.6924648, 20.8999762 ], [ 82.6945923, 20.9224963 ], [ 82.6937272, 20.9242211 ], [ 82.6954522, 20.9271443 ], [ 82.696467, 20.9344506 ], [ 82.6985506, 20.9376139 ], [ 82.6964401, 20.9448656 ], [ 82.6971521, 20.9487472 ], [ 82.6871727, 20.9733114 ], [ 82.6892245, 20.9919978 ], [ 82.6895105, 21.0173995 ], [ 82.6923726, 21.0216706 ], [ 82.6872865, 21.0274885 ], [ 82.6849196, 21.0279049 ], [ 82.6844547, 21.0306283 ], [ 82.6796977, 21.0345369 ], [ 82.6763521, 21.0485164 ], [ 82.6719525, 21.0564816 ], [ 82.6723103, 21.0587994 ], [ 82.669243, 21.0650441 ], [ 82.6576759, 21.0771935 ], [ 82.6543959, 21.0790774 ], [ 82.646882, 21.079751 ], [ 82.6416894, 21.0836392 ], [ 82.6397106, 21.0892598 ], [ 82.6386511, 21.0878881 ], [ 82.63723, 21.0908148 ], [ 82.6356394, 21.0905952 ], [ 82.6384789, 21.0945604 ], [ 82.647506, 21.1018662 ], [ 82.6499056, 21.1064677 ], [ 82.6484525, 21.1095619 ], [ 82.6415367, 21.1117924 ], [ 82.6397414, 21.1157391 ], [ 82.6405677, 21.1182196 ], [ 82.6527557, 21.1287101 ], [ 82.6519781, 21.1332521 ], [ 82.6439521, 21.1348748 ], [ 82.637273, 21.14474 ], [ 82.6372185, 21.1507339 ], [ 82.6405615, 21.1548248 ], [ 82.655488, 21.1571363 ], [ 82.6640532, 21.1549974 ], [ 82.6841451, 21.1610581 ], [ 82.6854557, 21.1647251 ], [ 82.6930044, 21.1657435 ], [ 82.697084, 21.1641985 ], [ 82.6957326, 21.1605269 ], [ 82.6998313, 21.1576992 ], [ 82.7052615, 21.1580781 ], [ 82.7104492, 21.1608077 ], [ 82.7156578, 21.160326 ], [ 82.7211878, 21.1576731 ], [ 82.7211524, 21.1658477 ], [ 82.7368326, 21.1653307 ], [ 82.7405663, 21.1634677 ], [ 82.7448171, 21.1646613 ], [ 82.7455042, 21.1637239 ], [ 82.7500057, 21.1641064 ], [ 82.7559068, 21.1664343 ], [ 82.7575001, 21.1635455 ], [ 82.7601003, 21.165203 ], [ 82.7629825, 21.1626213 ], [ 82.7633369, 21.1640854 ], [ 82.7658058, 21.1627816 ], [ 82.7652202, 21.1617128 ], [ 82.767816, 21.1605567 ], [ 82.7671284, 21.1590103 ], [ 82.7743495, 21.1541295 ], [ 82.7794027, 21.1535841 ], [ 82.7807664, 21.1496679 ], [ 82.7837323, 21.1480967 ], [ 82.7856385, 21.1448702 ], [ 82.789441, 21.1428158 ], [ 82.7936786, 21.1425452 ], [ 82.7966598, 21.1486509 ], [ 82.796217, 21.1506517 ], [ 82.8003153, 21.1559462 ], [ 82.8050232, 21.1559186 ], [ 82.8119653, 21.161065 ], [ 82.8260024, 21.1636778 ], [ 82.8280173, 21.1654444 ], [ 82.8312575, 21.1646733 ], [ 82.8427634, 21.1677185 ], [ 82.8471009, 21.1665332 ], [ 82.8508823, 21.1686324 ], [ 82.8514858, 21.1660608 ], [ 82.8501016, 21.1616051 ], [ 82.8524639, 21.1595379 ], [ 82.855598, 21.161468 ], [ 82.8595869, 21.1597668 ], [ 82.8664277, 21.1628211 ], [ 82.8716998, 21.1574837 ], [ 82.872546, 21.1623831 ], [ 82.876364, 21.1635466 ], [ 82.8764464, 21.160913 ], [ 82.8785159, 21.1585823 ], [ 82.8781817, 21.1534514 ], [ 82.8821763, 21.1484304 ], [ 82.8939316, 21.1563737 ], [ 82.8954826, 21.1609806 ], [ 82.8999032, 21.1637037 ], [ 82.9021068, 21.1669936 ], [ 82.9102201, 21.1652043 ], [ 82.914983, 21.1619577 ], [ 82.9209433, 21.1634706 ], [ 82.9322517, 21.1630844 ], [ 82.9338666, 21.1639871 ], [ 82.9349677, 21.1683323 ], [ 82.9376979, 21.1698455 ], [ 82.9403113, 21.16497 ], [ 82.9399842, 21.1609322 ], [ 82.9421418, 21.1606318 ], [ 82.9460123, 21.1624705 ], [ 82.9476833, 21.1617784 ], [ 82.9475701, 21.1645343 ], [ 82.9428585, 21.1716422 ], [ 82.9468182, 21.1754983 ], [ 82.9438448, 21.1778537 ], [ 82.9468266, 21.1798153 ], [ 82.946894, 21.1820274 ], [ 82.9490323, 21.1839038 ], [ 82.9591609, 21.1888759 ], [ 82.9609876, 21.1926615 ], [ 82.9649344, 21.1932749 ], [ 82.9674332, 21.1830718 ], [ 82.9651097, 21.1770298 ], [ 82.965559, 21.1753311 ], [ 82.9694505, 21.1765231 ], [ 82.9700063, 21.1788559 ], [ 82.9753413, 21.1821534 ], [ 82.9778699, 21.1825798 ], [ 82.9832527, 21.1800556 ], [ 82.9880851, 21.1828121 ], [ 82.9900027, 21.1818323 ], [ 82.9805627, 21.1700262 ], [ 82.9860735, 21.1681101 ], [ 82.9878347, 21.169855 ], [ 82.9931858, 21.1711106 ], [ 82.9965221, 21.1696848 ], [ 83.0013533, 21.170567 ], [ 83.0037643, 21.1669305 ], [ 82.9962464, 21.1641926 ], [ 82.9933174, 21.161888 ], [ 82.9923967, 21.1585572 ], [ 82.9857639, 21.1510398 ], [ 82.9903222, 21.1398595 ], [ 82.9937288, 21.1408399 ], [ 82.99545, 21.1385347 ], [ 82.9993584, 21.1389086 ], [ 83.0015501, 21.1368732 ], [ 83.0045836, 21.1369593 ], [ 83.0101272, 21.1425743 ], [ 83.0100506, 21.1447427 ], [ 83.0159971, 21.1463066 ], [ 83.0202954, 21.1434601 ], [ 83.0230367, 21.1365636 ], [ 83.0289084, 21.1351251 ], [ 83.0333758, 21.1373023 ], [ 83.0348153, 21.1366256 ], [ 83.0338319, 21.1319322 ], [ 83.0386517, 21.1317298 ], [ 83.0452504, 21.1240097 ], [ 83.052332, 21.1262721 ], [ 83.0560313, 21.1223122 ], [ 83.0593586, 21.1227867 ], [ 83.0661114, 21.1207581 ], [ 83.0685117, 21.1168545 ], [ 83.0749976, 21.1136549 ], [ 83.0772506, 21.1140653 ], [ 83.0780315, 21.112009 ], [ 83.0848963, 21.112951 ], [ 83.0901065, 21.1111347 ], [ 83.0944195, 21.113276 ], [ 83.0966596, 21.110372 ], [ 83.1012568, 21.1099916 ], [ 83.113544, 21.1126637 ], [ 83.117016, 21.1104575 ], [ 83.1215988, 21.1099035 ], [ 83.1223188, 21.1074064 ], [ 83.1240988, 21.1066978 ], [ 83.1314917, 21.1058148 ], [ 83.1386713, 21.1095128 ], [ 83.140651, 21.1123371 ], [ 83.138933, 21.1133341 ], [ 83.1474293, 21.1185593 ], [ 83.1478904, 21.1204951 ], [ 83.1556236, 21.1278064 ], [ 83.1573262, 21.1310675 ], [ 83.164371, 21.1351882 ], [ 83.1669147, 21.1387882 ], [ 83.1710444, 21.1361705 ], [ 83.1742531, 21.13673 ], [ 83.1776946, 21.1351099 ], [ 83.1919834, 21.1390163 ], [ 83.1981038, 21.1454434 ], [ 83.1965605, 21.1514281 ], [ 83.1983617, 21.1534592 ], [ 83.1976281, 21.1582143 ], [ 83.1985164, 21.1642577 ], [ 83.2046174, 21.1656954 ], [ 83.202633, 21.1727695 ], [ 83.2028449, 21.1776432 ], [ 83.2051147, 21.1794334 ], [ 83.2093266, 21.1894472 ], [ 83.2146203, 21.1947872 ], [ 83.2105263, 21.205036 ], [ 83.2127508, 21.2101995 ], [ 83.2170638, 21.2133312 ], [ 83.2185684, 21.2208874 ], [ 83.2175848, 21.2259663 ], [ 83.2188957, 21.2286086 ], [ 83.222148, 21.2287237 ], [ 83.2189158, 21.2418513 ], [ 83.2176463, 21.2548491 ], [ 83.2216741, 21.2600653 ], [ 83.2229542, 21.2657691 ], [ 83.2319077, 21.2727169 ], [ 83.2379589, 21.269607 ], [ 83.2393348, 21.2736252 ], [ 83.2462654, 21.2811589 ], [ 83.2505908, 21.2823834 ], [ 83.2558328, 21.2821192 ], [ 83.2677675, 21.2775566 ], [ 83.2709474, 21.2725697 ], [ 83.2749082, 21.2858086 ], [ 83.2785946, 21.2893165 ], [ 83.2792694, 21.2949557 ], [ 83.2770799, 21.2979336 ], [ 83.2762945, 21.3023012 ], [ 83.2720483, 21.3018845 ], [ 83.2673287, 21.3057861 ], [ 83.2620794, 21.3078343 ], [ 83.2581503, 21.3158697 ], [ 83.2573442, 21.3204994 ], [ 83.2628329, 21.330273 ], [ 83.2665283, 21.3308552 ], [ 83.2623546, 21.3330154 ], [ 83.2576939, 21.3335974 ], [ 83.2578009, 21.335551 ], [ 83.2686811, 21.3454864 ], [ 83.2721473, 21.3590028 ], [ 83.2746945, 21.3638263 ], [ 83.2742199, 21.3770709 ], [ 83.2687284, 21.3785899 ], [ 83.2724785, 21.3798304 ], [ 83.2840506, 21.3803279 ], [ 83.2860569, 21.3776051 ], [ 83.3113683, 21.370838 ], [ 83.3145705, 21.3675702 ], [ 83.3196523, 21.3658341 ], [ 83.3204312, 21.3638729 ], [ 83.3229721, 21.3623976 ], [ 83.3300299, 21.3618933 ], [ 83.3438497, 21.3583599 ], [ 83.3471807, 21.3562862 ], [ 83.3477188, 21.3537548 ], [ 83.35125, 21.3548748 ], [ 83.3546142, 21.3542857 ], [ 83.3574423, 21.3521197 ], [ 83.3668632, 21.349364 ], [ 83.3697652, 21.3467091 ], [ 83.3752155, 21.3464064 ], [ 83.3788819, 21.344553 ], [ 83.3822355, 21.3463159 ], [ 83.3854881, 21.3462968 ], [ 83.3918333, 21.3426354 ], [ 83.3943111, 21.3447672 ], [ 83.3999806, 21.3463928 ], [ 83.4026377, 21.3497543 ], [ 83.4068802, 21.3516258 ], [ 83.4086356, 21.3590635 ], [ 83.4080178, 21.3613659 ], [ 83.4006227, 21.3639051 ], [ 83.3968698, 21.367557 ], [ 83.4005094, 21.3758798 ], [ 83.3972032, 21.3880309 ], [ 83.3989903, 21.3962222 ], [ 83.3989271, 21.4053427 ], [ 83.3934649, 21.4077142 ], [ 83.3908835, 21.4114306 ], [ 83.3852922, 21.4153749 ], [ 83.3781541, 21.4268309 ], [ 83.3758692, 21.4280598 ], [ 83.375731, 21.4323282 ], [ 83.3742838, 21.4349764 ], [ 83.3712449, 21.4355115 ], [ 83.3736178, 21.4423899 ], [ 83.3668645, 21.4455512 ], [ 83.3543715, 21.4480705 ], [ 83.3514721, 21.4600303 ], [ 83.34655, 21.4716032 ], [ 83.3457428, 21.4796193 ], [ 83.3470601, 21.4889778 ], [ 83.3413212, 21.4942007 ], [ 83.337836, 21.5013018 ], [ 83.3432397, 21.5097543 ], [ 83.3496209, 21.5126489 ], [ 83.3519624, 21.5208327 ], [ 83.3570926, 21.5280832 ], [ 83.3586607, 21.5382417 ], [ 83.3613973, 21.5391646 ], [ 83.3599353, 21.5403727 ], [ 83.3601443, 21.5428483 ], [ 83.3614941, 21.5445493 ], [ 83.3642665, 21.5449977 ], [ 83.3645071, 21.5470438 ], [ 83.3661991, 21.5466316 ], [ 83.3662082, 21.5483831 ], [ 83.3676616, 21.5493241 ], [ 83.3659822, 21.5508107 ], [ 83.3699865, 21.5525236 ], [ 83.3697802, 21.5564588 ], [ 83.3731622, 21.5581624 ], [ 83.3721738, 21.5593726 ], [ 83.370329, 21.5587491 ], [ 83.3718643, 21.5644157 ], [ 83.3703835, 21.5668475 ], [ 83.3692997, 21.566678 ], [ 83.3698868, 21.5680555 ], [ 83.3674846, 21.5687398 ], [ 83.3668308, 21.5709793 ], [ 83.3677515, 21.5720949 ], [ 83.3649751, 21.5758906 ], [ 83.3664553, 21.5772783 ], [ 83.3654587, 21.5786242 ], [ 83.3689461, 21.584999 ], [ 83.3669361, 21.5866619 ], [ 83.3689289, 21.5889812 ], [ 83.3677375, 21.5917159 ], [ 83.3705058, 21.5912612 ], [ 83.3694545, 21.5931046 ], [ 83.3705365, 21.5955136 ], [ 83.3696571, 21.6005058 ], [ 83.3801369, 21.6081258 ], [ 83.3830424, 21.6142557 ], [ 83.3826848, 21.6201299 ], [ 83.3843592, 21.6203632 ], [ 83.3874452, 21.6174792 ], [ 83.3894331, 21.6176945 ], [ 83.3924639, 21.627294 ], [ 83.3955892, 21.6270864 ], [ 83.3989354, 21.6297243 ], [ 83.4034651, 21.6309365 ], [ 83.4090736, 21.6371982 ], [ 83.4150436, 21.6407999 ], [ 83.4275715, 21.6435246 ], [ 83.4288407, 21.6472259 ], [ 83.4426491, 21.6554068 ], [ 83.4507559, 21.6507457 ], [ 83.4481474, 21.6441164 ], [ 83.4443818, 21.6392873 ], [ 83.4429713, 21.6316559 ], [ 83.4446284, 21.6304262 ], [ 83.4439748, 21.6240027 ], [ 83.4524695, 21.6224149 ], [ 83.4522652, 21.6128699 ], [ 83.4556289, 21.6116599 ], [ 83.4554441, 21.6104392 ], [ 83.4592026, 21.6094537 ], [ 83.4606036, 21.6077988 ], [ 83.4659576, 21.6092363 ], [ 83.4681607, 21.6130274 ], [ 83.4698646, 21.6215433 ], [ 83.4734883, 21.6273671 ], [ 83.4735562, 21.6324946 ], [ 83.4887714, 21.6303125 ], [ 83.4895496, 21.634865 ], [ 83.491929, 21.6381835 ], [ 83.4871444, 21.6398983 ], [ 83.4866126, 21.6441297 ], [ 83.489501, 21.6472306 ], [ 83.5038714, 21.6536595 ], [ 83.5163802, 21.6640654 ], [ 83.527635, 21.6772249 ], [ 83.5337526, 21.6892883 ], [ 83.5398325, 21.7205914 ], [ 83.5449011, 21.7302418 ], [ 83.5510648, 21.7383852 ], [ 83.5572048, 21.7432424 ], [ 83.5630522, 21.7443887 ], [ 83.581114, 21.7390115 ] ] ] } }
]
}
