{
"type": "FeatureCollection",
"name": "2105",
"crs": { "type": "name", "properties": { "name": "urn:ogc:def:crs:OGC:1.3:CRS84" } },
"features": [
{ "type": "Feature", "properties": { "code": "2105", "name": "Sundargarh", "type": "district" }, "geometry": { "type": "Polygon", "coordinates": [ [ [ 83.9980092, 22.5309692 ], [ 84.0029214, 22.5303334 ], [ 84.0043889, 22.5275709 ], [ 84.0100074, 22.5263997 ], [ 84.0092112, 22.5255774 ], [ 84.0129286, 22.5233738 ], [ 84.0255203, 22.5257533 ], [ 84.0277133, 22.5205004 ], [ 84.0365573, 22.5159709 ], [ 84.0492493, 22.5170406 ], [ 84.0530585, 22.5129032 ], [ 84.0597149, 22.5164318 ], [ 84.0613191, 22.5132418 ], [ 84.0645386, 22.5124796 ], [ 84.0651217, 22.5076077 ], [ 84.075489, 22.5061981 ], [ 84.075278, 22.5028287 ], [ 84.070237, 22.5013522 ], [ 84.0730521, 22.5009654 ], [ 84.0811501, 22.4939953 ], [ 84.0903068, 22.4892904 ], [ 84.1024768, 22.4840769 ], [ 84.1079463, 22.4837631 ], [ 84.1088319, 22.4826821 ], [ 84.1068562, 22.4827446 ], [ 84.1063086, 22.4806451 ], [ 84.1134899, 22.4756864 ], [ 84.1248406, 22.4749253 ], [ 84.1287976, 22.4775993 ], [ 84.1317124, 22.4762591 ], [ 84.1353506, 22.4765858 ], [ 84.1370002, 22.4737867 ], [ 84.1406843, 22.4739151 ], [ 84.1420626, 22.4715539 ], [ 84.1428915, 22.4642349 ], [ 84.1413809, 22.4533505 ], [ 84.1388954, 22.4477626 ], [ 84.1405477, 22.4413942 ], [ 84.1409252, 22.425619 ], [ 84.1561327, 22.4077351 ], [ 84.1659782, 22.3998516 ], [ 84.1848869, 22.3902287 ], [ 84.1989553, 22.3758149 ], [ 84.2430039, 22.3787003 ], [ 84.2514559, 22.3780779 ], [ 84.255608, 22.374425 ], [ 84.2606261, 22.3654255 ], [ 84.2688108, 22.354552 ], [ 84.2783646, 22.3492752 ], [ 84.2900369, 22.3468857 ], [ 84.291505, 22.3421322 ], [ 84.2953349, 22.3410248 ], [ 84.3133646, 22.3444405 ], [ 84.3168292, 22.3423149 ], [ 84.324737, 22.3452772 ], [ 84.3299399, 22.344252 ], [ 84.3395105, 22.3475504 ], [ 84.3444157, 22.3467807 ], [ 84.3567635, 22.3489714 ], [ 84.3584962, 22.3472746 ], [ 84.3656352, 22.3481984 ], [ 84.3678923, 22.3546575 ], [ 84.3703188, 22.3557318 ], [ 84.3795901, 22.3526233 ], [ 84.3830183, 22.3491123 ], [ 84.3883046, 22.3486821 ], [ 84.3921331, 22.3498649 ], [ 84.3967648, 22.3474 ], [ 84.399686, 22.3478218 ], [ 84.4003202, 22.3464623 ], [ 84.4161813, 22.3528084 ], [ 84.4204051, 22.3523484 ], [ 84.4236978, 22.3544365 ], [ 84.4281327, 22.3532658 ], [ 84.4295593, 22.3543967 ], [ 84.429984, 22.3579301 ], [ 84.4342689, 22.3604707 ], [ 84.4333138, 22.3627625 ], [ 84.4306661, 22.3640379 ], [ 84.4322595, 22.365308 ], [ 84.4306629, 22.3683644 ], [ 84.4315325, 22.3713806 ], [ 84.4349595, 22.3741652 ], [ 84.4495299, 22.3802899 ], [ 84.4534454, 22.3794631 ], [ 84.4532052, 22.3810476 ], [ 84.4611818, 22.3790507 ], [ 84.4760123, 22.3866516 ], [ 84.48463, 22.3888474 ], [ 84.4854524, 22.3909661 ], [ 84.4843985, 22.3925791 ], [ 84.4788369, 22.394077 ], [ 84.4802909, 22.3979786 ], [ 84.4779254, 22.399254 ], [ 84.4767311, 22.4052775 ], [ 84.4769801, 22.4080052 ], [ 84.4806911, 22.4101707 ], [ 84.4824352, 22.413273 ], [ 84.4895838, 22.4136385 ], [ 84.5106449, 22.421026 ], [ 84.5169805, 22.4193478 ], [ 84.5243943, 22.4199762 ], [ 84.5305383, 22.4227998 ], [ 84.5313613, 22.4258978 ], [ 84.5362015, 22.4273745 ], [ 84.5380565, 22.42556 ], [ 84.540331, 22.4271895 ], [ 84.546942, 22.4260651 ], [ 84.5475344, 22.4224819 ], [ 84.5492906, 22.4210417 ], [ 84.5708956, 22.427404 ], [ 84.5941813, 22.4300595 ], [ 84.5978545, 22.4347967 ], [ 84.5997414, 22.4309319 ], [ 84.602588, 22.4288251 ], [ 84.6102981, 22.430937 ], [ 84.6219608, 22.4315602 ], [ 84.6286481, 22.434553 ], [ 84.6310598, 22.4328087 ], [ 84.6372848, 22.4318122 ], [ 84.6521554, 22.4262063 ], [ 84.6680576, 22.4180644 ], [ 84.6741264, 22.4219132 ], [ 84.6760049, 22.4194194 ], [ 84.6838382, 22.4199201 ], [ 84.6859825, 22.4185493 ], [ 84.698631, 22.4164022 ], [ 84.7155642, 22.4172777 ], [ 84.7187735, 22.4198964 ], [ 84.7497429, 22.418989 ], [ 84.7520611, 22.430604 ], [ 84.7593155, 22.4474657 ], [ 84.7655144, 22.4486471 ], [ 84.7887459, 22.4481876 ], [ 84.7960399, 22.4462588 ], [ 84.797297, 22.4486398 ], [ 84.7990746, 22.4472994 ], [ 84.8014473, 22.4484579 ], [ 84.8057134, 22.4476726 ], [ 84.812524, 22.4529313 ], [ 84.8177832, 22.4446208 ], [ 84.8176323, 22.437605 ], [ 84.837384, 22.432527 ], [ 84.8385532, 22.4309257 ], [ 84.8421645, 22.431738 ], [ 84.8422259, 22.4342304 ], [ 84.8456257, 22.4362587 ], [ 84.8537315, 22.435917 ], [ 84.8730695, 22.4394688 ], [ 84.8729232, 22.4422655 ], [ 84.8823947, 22.4484662 ], [ 84.885088, 22.4427577 ], [ 84.8849002, 22.4374472 ], [ 84.8887069, 22.4292063 ], [ 84.8855931, 22.426126 ], [ 84.8855764, 22.4210794 ], [ 84.8992485, 22.4234303 ], [ 84.9102263, 22.4232832 ], [ 84.9158985, 22.4261141 ], [ 84.9261511, 22.434949 ], [ 84.9265635, 22.4395763 ], [ 84.9238734, 22.4409253 ], [ 84.9238567, 22.4435523 ], [ 84.9319416, 22.446222 ], [ 84.9402054, 22.4452039 ], [ 84.9433456, 22.4484326 ], [ 84.9449035, 22.4524615 ], [ 84.9566684, 22.4582254 ], [ 84.9593515, 22.4430537 ], [ 84.9648819, 22.4493302 ], [ 84.9730188, 22.4511231 ], [ 84.9828051, 22.4559955 ], [ 85.0115437, 22.4664225 ], [ 85.0193788, 22.4706024 ], [ 85.0354681, 22.4737838 ], [ 85.0371813, 22.4728191 ], [ 85.0376481, 22.4794876 ], [ 85.0362794, 22.4793728 ], [ 85.0359479, 22.4824297 ], [ 85.0380532, 22.4819571 ], [ 85.0380828, 22.4804315 ], [ 85.0416478, 22.4805534 ], [ 85.0439943, 22.4809592 ], [ 85.0442972, 22.4823259 ], [ 85.0521568, 22.4825142 ], [ 85.0596768, 22.4864452 ], [ 85.0672574, 22.4841693 ], [ 85.0685055, 22.4815784 ], [ 85.0717917, 22.4792044 ], [ 85.076015, 22.4802899 ], [ 85.0780271, 22.4764569 ], [ 85.0764861, 22.4723315 ], [ 85.0767458, 22.4687409 ], [ 85.0752411, 22.4686158 ], [ 85.074027, 22.4655323 ], [ 85.0771496, 22.4637522 ], [ 85.0642216, 22.4542357 ], [ 85.0602882, 22.4495598 ], [ 85.0610642, 22.4451262 ], [ 85.0668313, 22.4409109 ], [ 85.0674307, 22.4350757 ], [ 85.0663918, 22.4342605 ], [ 85.0677974, 22.4284253 ], [ 85.0753685, 22.4205547 ], [ 85.0820837, 22.4165298 ], [ 85.079932, 22.4123163 ], [ 85.0802333, 22.4100082 ], [ 85.0829122, 22.4071031 ], [ 85.0865256, 22.3994228 ], [ 85.0862243, 22.3894327 ], [ 85.0878682, 22.3884666 ], [ 85.0869619, 22.3825423 ], [ 85.0773878, 22.3655062 ], [ 85.0789586, 22.361072 ], [ 85.0766702, 22.3562068 ], [ 85.0789228, 22.352367 ], [ 85.083839, 22.3490529 ], [ 85.0826015, 22.3463124 ], [ 85.0833324, 22.3453361 ], [ 85.0946073, 22.3467328 ], [ 85.0946118, 22.3448275 ], [ 85.0957488, 22.3447406 ], [ 85.0938919, 22.3332794 ], [ 85.0893925, 22.3204259 ], [ 85.0907359, 22.3185804 ], [ 85.0954898, 22.3157064 ], [ 85.1006894, 22.3199168 ], [ 85.1063689, 22.3214774 ], [ 85.1153506, 22.3197774 ], [ 85.1180958, 22.3175946 ], [ 85.1154449, 22.3152814 ], [ 85.1141649, 22.3104455 ], [ 85.116009, 22.3081084 ], [ 85.1141297, 22.3054243 ], [ 85.1156015, 22.3025775 ], [ 85.115997, 22.2940933 ], [ 85.1064427, 22.2959047 ], [ 85.0996285, 22.2935734 ], [ 85.0706145, 22.2736522 ], [ 85.0714809, 22.2703567 ], [ 85.0738203, 22.2687569 ], [ 85.0721823, 22.2670503 ], [ 85.0745972, 22.2648464 ], [ 85.0734086, 22.262901 ], [ 85.0749651, 22.2610488 ], [ 85.0766435, 22.2610762 ], [ 85.0782035, 22.2573909 ], [ 85.076522, 22.256054 ], [ 85.0766019, 22.2527679 ], [ 85.0734862, 22.2497358 ], [ 85.0733229, 22.2480544 ], [ 85.0713411, 22.2490169 ], [ 85.0702469, 22.2480568 ], [ 85.0704185, 22.2444375 ], [ 85.0693619, 22.2435771 ], [ 85.0722492, 22.237721 ], [ 85.0584903, 22.209251 ], [ 85.0592102, 22.2059989 ], [ 85.0558176, 22.2027106 ], [ 85.0541504, 22.1979875 ], [ 85.0491874, 22.1954133 ], [ 85.0536881, 22.1853941 ], [ 85.0526581, 22.1824569 ], [ 85.0502555, 22.1791613 ], [ 85.0428299, 22.1773365 ], [ 85.0416241, 22.1729886 ], [ 85.0290983, 22.1634942 ], [ 85.0283446, 22.1571827 ], [ 85.0341655, 22.1470158 ], [ 85.0323523, 22.1347503 ], [ 85.0283013, 22.1284834 ], [ 85.0268451, 22.122516 ], [ 85.0191071, 22.1157655 ], [ 85.0106758, 22.1132693 ], [ 84.9994827, 22.1076985 ], [ 84.9914059, 22.0995615 ], [ 84.9833935, 22.0955248 ], [ 84.9845554, 22.0866068 ], [ 84.9869495, 22.082823 ], [ 84.9936941, 22.0813999 ], [ 85.0029886, 22.0874824 ], [ 85.005514, 22.0878267 ], [ 85.0065808, 22.0900602 ], [ 85.0086511, 22.0888606 ], [ 85.010181, 22.0912473 ], [ 85.0116634, 22.0912909 ], [ 85.0130608, 22.0987929 ], [ 85.0158009, 22.1036097 ], [ 85.0176451, 22.1034225 ], [ 85.0238704, 22.1101562 ], [ 85.0289218, 22.1093273 ], [ 85.0402982, 22.1158557 ], [ 85.055269, 22.1156768 ], [ 85.0657448, 22.112901 ], [ 85.0704565, 22.112898 ], [ 85.0880025, 22.1059075 ], [ 85.0916755, 22.1060102 ], [ 85.0942444, 22.1083948 ], [ 85.095431, 22.1080824 ], [ 85.0957447, 22.1062072 ], [ 85.0988078, 22.1054452 ], [ 85.1001095, 22.1036348 ], [ 85.0999129, 22.1007053 ], [ 85.1016889, 22.0981155 ], [ 85.0999035, 22.0950709 ], [ 85.1005694, 22.0937233 ], [ 85.10379, 22.0895308 ], [ 85.1055749, 22.0902272 ], [ 85.1088057, 22.0875972 ], [ 85.1123989, 22.0870392 ], [ 85.113808, 22.0835408 ], [ 85.1125052, 22.0798422 ], [ 85.1186602, 22.0741992 ], [ 85.1200654, 22.0701768 ], [ 85.1211362, 22.0697997 ], [ 85.12608, 22.0746023 ], [ 85.1317918, 22.0768117 ], [ 85.1403317, 22.0776053 ], [ 85.143594, 22.0795991 ], [ 85.1558709, 22.0783445 ], [ 85.1605421, 22.074712 ], [ 85.1603834, 22.0696571 ], [ 85.1651237, 22.063808 ], [ 85.1668507, 22.0537007 ], [ 85.1705987, 22.0514448 ], [ 85.1738656, 22.0513788 ], [ 85.1738612, 22.0525891 ], [ 85.170829, 22.0566316 ], [ 85.1712055, 22.0634186 ], [ 85.1676159, 22.0695056 ], [ 85.1717896, 22.0714052 ], [ 85.1746034, 22.0745899 ], [ 85.1805709, 22.0732328 ], [ 85.1857154, 22.059213 ], [ 85.1981689, 22.0559426 ], [ 85.2103974, 22.0494174 ], [ 85.2134473, 22.0496918 ], [ 85.2150785, 22.0477209 ], [ 85.2148474, 22.0433287 ], [ 85.2185865, 22.0409272 ], [ 85.2187267, 22.0379567 ], [ 85.2168673, 22.0335665 ], [ 85.2214333, 22.0179852 ], [ 85.2251432, 22.0163869 ], [ 85.2292092, 22.0124075 ], [ 85.2362925, 22.0098033 ], [ 85.2392335, 22.0102297 ], [ 85.2330743, 22.0027426 ], [ 85.2314148, 21.9968105 ], [ 85.2435269, 21.986806 ], [ 85.2649174, 21.9749403 ], [ 85.2667051, 21.9680591 ], [ 85.2708852, 21.9642919 ], [ 85.2722053, 21.9604176 ], [ 85.2778377, 21.9586253 ], [ 85.2838498, 21.9542221 ], [ 85.2986345, 21.952538 ], [ 85.3090157, 21.9588726 ], [ 85.3139033, 21.9586158 ], [ 85.3228858, 21.9534783 ], [ 85.3302386, 21.9522842 ], [ 85.3350081, 21.9530101 ], [ 85.3353452, 21.9514916 ], [ 85.3369623, 21.9523027 ], [ 85.3406593, 21.9507505 ], [ 85.341094, 21.9491744 ], [ 85.3439764, 21.9485757 ], [ 85.3474241, 21.9497395 ], [ 85.3490636, 21.9486089 ], [ 85.348119, 21.9465718 ], [ 85.3529647, 21.9419374 ], [ 85.368328, 21.9424158 ], [ 85.3759081, 21.9364801 ], [ 85.376572, 21.9244696 ], [ 85.3727832, 21.9184393 ], [ 85.3755827, 21.910564 ], [ 85.3740706, 21.9026506 ], [ 85.3708024, 21.8993938 ], [ 85.3675422, 21.8996912 ], [ 85.3688466, 21.8913856 ], [ 85.3658921, 21.8844107 ], [ 85.3662564, 21.8770667 ], [ 85.3638671, 21.8748663 ], [ 85.3628206, 21.8699064 ], [ 85.3640394, 21.8597529 ], [ 85.3597379, 21.857258 ], [ 85.359889, 21.8554756 ], [ 85.3559246, 21.8484951 ], [ 85.3489463, 21.8394701 ], [ 85.3458885, 21.8294546 ], [ 85.3405826, 21.8248356 ], [ 85.3356075, 21.8234261 ], [ 85.3243086, 21.8239079 ], [ 85.3133199, 21.8197903 ], [ 85.3093941, 21.8196869 ], [ 85.305096, 21.8244885 ], [ 85.2973176, 21.8258264 ], [ 85.2963572, 21.8325949 ], [ 85.2907329, 21.8374093 ], [ 85.2828172, 21.8331634 ], [ 85.2807988, 21.8349036 ], [ 85.2712692, 21.8180998 ], [ 85.2553998, 21.8162393 ], [ 85.2428537, 21.8044418 ], [ 85.2396172, 21.8053511 ], [ 85.2315091, 21.8123182 ], [ 85.2310139, 21.8179894 ], [ 85.2262809, 21.8202235 ], [ 85.2268546, 21.8184008 ], [ 85.2251693, 21.8130991 ], [ 85.2215691, 21.8066164 ], [ 85.2152401, 21.7991242 ], [ 85.2114175, 21.7837561 ], [ 85.2090851, 21.7788584 ], [ 85.2095967, 21.7746417 ], [ 85.2023409, 21.7687375 ], [ 85.2000009, 21.7621551 ], [ 85.2044136, 21.7501911 ], [ 85.2068186, 21.746871 ], [ 85.2143256, 21.7472367 ], [ 85.2127994, 21.739331 ], [ 85.2053982, 21.7339719 ], [ 85.1986568, 21.7265199 ], [ 85.1912653, 21.7220229 ], [ 85.1842176, 21.7090577 ], [ 85.1879552, 21.7061815 ], [ 85.1894069, 21.7002185 ], [ 85.1928287, 21.6966838 ], [ 85.1930179, 21.6896593 ], [ 85.1906613, 21.6833656 ], [ 85.1869317, 21.6821779 ], [ 85.1863071, 21.6788112 ], [ 85.1911979, 21.6612665 ], [ 85.1880939, 21.6568388 ], [ 85.1803609, 21.6544512 ], [ 85.1829759, 21.6523981 ], [ 85.1842309, 21.6493861 ], [ 85.1802899, 21.6451027 ], [ 85.182953, 21.6430365 ], [ 85.1868562, 21.6449351 ], [ 85.191843, 21.6451611 ], [ 85.194251, 21.639529 ], [ 85.1892234, 21.6356132 ], [ 85.1880664, 21.6288584 ], [ 85.186075, 21.627044 ], [ 85.1811738, 21.6258162 ], [ 85.1769475, 21.6200665 ], [ 85.1713567, 21.6230036 ], [ 85.1659644, 21.6228313 ], [ 85.1595947, 21.6128759 ], [ 85.1493942, 21.6057722 ], [ 85.148211, 21.5981952 ], [ 85.1439401, 21.5953523 ], [ 85.1308919, 21.5996046 ], [ 85.1262847, 21.5981529 ], [ 85.1217913, 21.5991273 ], [ 85.1163123, 21.5960262 ], [ 85.1057838, 21.5943534 ], [ 85.101997, 21.597417 ], [ 85.0967103, 21.5988468 ], [ 85.0946151, 21.601767 ], [ 85.0920099, 21.602699 ], [ 85.086209, 21.6035671 ], [ 85.0838648, 21.6022757 ], [ 85.0773309, 21.6037808 ], [ 85.0753275, 21.6012018 ], [ 85.0661978, 21.5985672 ], [ 85.0650709, 21.5918077 ], [ 85.0569686, 21.5922055 ], [ 85.0514226, 21.5895533 ], [ 85.0484918, 21.591009 ], [ 85.0437959, 21.5940878 ], [ 85.0429743, 21.5973879 ], [ 85.0382001, 21.6005198 ], [ 85.03751, 21.6047969 ], [ 85.0351642, 21.608657 ], [ 85.0372606, 21.6114679 ], [ 85.03757, 21.6157388 ], [ 85.039403, 21.617675 ], [ 85.037811, 21.6225691 ], [ 85.0327232, 21.6270381 ], [ 85.0293806, 21.6278022 ], [ 85.0296569, 21.6302168 ], [ 85.0279444, 21.6332761 ], [ 85.0295739, 21.6423941 ], [ 85.0276506, 21.6517049 ], [ 85.0261513, 21.6532675 ], [ 85.0308832, 21.6587333 ], [ 85.0293353, 21.6656418 ], [ 85.0260687, 21.6724665 ], [ 85.022919, 21.6753054 ], [ 85.0085202, 21.6769032 ], [ 84.9978888, 21.6820311 ], [ 84.9886293, 21.6787673 ], [ 84.9842629, 21.6821868 ], [ 84.9825441, 21.681764 ], [ 84.9812112, 21.6806912 ], [ 84.9822596, 21.6786042 ], [ 84.9811188, 21.6744904 ], [ 84.9787944, 21.6755863 ], [ 84.9753892, 21.6727814 ], [ 84.9653338, 21.6829445 ], [ 84.9564296, 21.6843521 ], [ 84.9535512, 21.6781261 ], [ 84.9536095, 21.6651001 ], [ 84.9509568, 21.6637895 ], [ 84.9473837, 21.6640343 ], [ 84.9413287, 21.6594349 ], [ 84.9270039, 21.6677725 ], [ 84.9143714, 21.6705176 ], [ 84.9033845, 21.6683382 ], [ 84.9010838, 21.6630939 ], [ 84.9009428, 21.6588208 ], [ 84.8776592, 21.658326 ], [ 84.8733253, 21.6574262 ], [ 84.8704896, 21.6548252 ], [ 84.8644263, 21.6523137 ], [ 84.8610602, 21.6519769 ], [ 84.8565417, 21.6521534 ], [ 84.855273, 21.6605396 ], [ 84.8282706, 21.6603782 ], [ 84.7899117, 21.6685723 ], [ 84.7858231, 21.6566975 ], [ 84.7822218, 21.651841 ], [ 84.7817626, 21.6493471 ], [ 84.7828054, 21.6477853 ], [ 84.7829122, 21.6414296 ], [ 84.7863404, 21.6392448 ], [ 84.7927315, 21.6387927 ], [ 84.7934104, 21.6367066 ], [ 84.7884738, 21.6329749 ], [ 84.7879133, 21.6310982 ], [ 84.7842851, 21.6308962 ], [ 84.7824442, 21.6277925 ], [ 84.7788695, 21.625686 ], [ 84.7574243, 21.6244769 ], [ 84.7524582, 21.6280579 ], [ 84.7532884, 21.6421286 ], [ 84.7493541, 21.6547983 ], [ 84.7492461, 21.6636281 ], [ 84.7472158, 21.6652891 ], [ 84.7458744, 21.6692485 ], [ 84.7410865, 21.6693188 ], [ 84.7415327, 21.6735509 ], [ 84.7469509, 21.6801621 ], [ 84.7467599, 21.6824982 ], [ 84.7297594, 21.6934001 ], [ 84.7218615, 21.7056443 ], [ 84.7180288, 21.7170636 ], [ 84.713457, 21.7134745 ], [ 84.7125659, 21.7111598 ], [ 84.708255, 21.71124 ], [ 84.7030541, 21.7074299 ], [ 84.6913017, 21.7097225 ], [ 84.6871636, 21.7153128 ], [ 84.6800653, 21.7316244 ], [ 84.6750005, 21.7364789 ], [ 84.6786025, 21.7489812 ], [ 84.6637227, 21.7633225 ], [ 84.6388965, 21.7673896 ], [ 84.6334737, 21.7635649 ], [ 84.6273804, 21.7614416 ], [ 84.6098057, 21.7665427 ], [ 84.6055416, 21.7625443 ], [ 84.604225, 21.7638346 ], [ 84.6023268, 21.7623126 ], [ 84.5965242, 21.7622103 ], [ 84.596088, 21.7602537 ], [ 84.5881203, 21.7578488 ], [ 84.5846796, 21.7607194 ], [ 84.5760377, 21.7625071 ], [ 84.5717709, 21.7650538 ], [ 84.5699637, 21.7679076 ], [ 84.5536656, 21.7694142 ], [ 84.555564, 21.772318 ], [ 84.5598832, 21.7732712 ], [ 84.5602781, 21.7753491 ], [ 84.5646979, 21.7763669 ], [ 84.5672671, 21.7865079 ], [ 84.5633412, 21.7911451 ], [ 84.545077, 21.8003594 ], [ 84.5258723, 21.8138187 ], [ 84.5267066, 21.8206885 ], [ 84.5228369, 21.824734 ], [ 84.5227413, 21.8305273 ], [ 84.5263267, 21.8363023 ], [ 84.5283507, 21.8473838 ], [ 84.5277646, 21.8524941 ], [ 84.5287119, 21.8542057 ], [ 84.5346026, 21.8564158 ], [ 84.5393363, 21.8621023 ], [ 84.5249998, 21.8723336 ], [ 84.5246853, 21.8740262 ], [ 84.5271075, 21.8743606 ], [ 84.529901, 21.8778379 ], [ 84.5271516, 21.8830241 ], [ 84.5265858, 21.8902973 ], [ 84.521575, 21.8919644 ], [ 84.5070577, 21.9051117 ], [ 84.5031614, 21.904407 ], [ 84.499329, 21.9061275 ], [ 84.4931288, 21.9055004 ], [ 84.4908596, 21.9116005 ], [ 84.4946239, 21.9206864 ], [ 84.4964366, 21.9193912 ], [ 84.507028, 21.9201481 ], [ 84.5087648, 21.9193213 ], [ 84.5125886, 21.9225572 ], [ 84.5212482, 21.9237038 ], [ 84.5251085, 21.9259649 ], [ 84.5252159, 21.9298306 ], [ 84.5203265, 21.9350025 ], [ 84.5189206, 21.9449216 ], [ 84.5166538, 21.9483995 ], [ 84.5189231, 21.9534175 ], [ 84.5180921, 21.9575265 ], [ 84.5213117, 21.9591145 ], [ 84.5271939, 21.9584132 ], [ 84.5261188, 21.9606947 ], [ 84.5277992, 21.9681685 ], [ 84.5265589, 21.9729982 ], [ 84.5233635, 21.9750174 ], [ 84.5200014, 21.9718609 ], [ 84.5183744, 21.9735834 ], [ 84.5148451, 21.9736473 ], [ 84.5141158, 21.9663412 ], [ 84.5096025, 21.9648327 ], [ 84.5082241, 21.9609026 ], [ 84.5052164, 21.9590963 ], [ 84.5000459, 21.9611619 ], [ 84.501841, 21.9642183 ], [ 84.5000001, 21.9723384 ], [ 84.5020859, 21.9842423 ], [ 84.5072685, 21.9934445 ], [ 84.5089473, 22.0006927 ], [ 84.5066502, 22.013013 ], [ 84.5082821, 22.0201884 ], [ 84.5109628, 22.0211004 ], [ 84.5120581, 22.0254642 ], [ 84.5146267, 22.0283697 ], [ 84.5241605, 22.0330645 ], [ 84.527668, 22.0457663 ], [ 84.5269453, 22.0477867 ], [ 84.5113003, 22.054673 ], [ 84.5101884, 22.0573329 ], [ 84.5084095, 22.0701305 ], [ 84.5120657, 22.0748404 ], [ 84.5140759, 22.0850594 ], [ 84.510176, 22.0884263 ], [ 84.4996333, 22.089141 ], [ 84.4971288, 22.0921722 ], [ 84.4949234, 22.0925357 ], [ 84.4937608, 22.0988467 ], [ 84.499206, 22.1021126 ], [ 84.5005844, 22.1088236 ], [ 84.4994529, 22.1136545 ], [ 84.4982015, 22.1145652 ], [ 84.4959193, 22.1378772 ], [ 84.4898925, 22.1438515 ], [ 84.4864519, 22.1577739 ], [ 84.4812347, 22.166365 ], [ 84.4763637, 22.1899973 ], [ 84.4558596, 22.1865635 ], [ 84.446112, 22.1814952 ], [ 84.4370468, 22.1799986 ], [ 84.417951, 22.172583 ], [ 84.4107043, 22.1681663 ], [ 84.4057971, 22.1633035 ], [ 84.3983835, 22.1601069 ], [ 84.3945625, 22.1549812 ], [ 84.3827996, 22.1467357 ], [ 84.376929, 22.1492413 ], [ 84.3701759, 22.148645 ], [ 84.3637332, 22.1501207 ], [ 84.3582771, 22.1444219 ], [ 84.3513121, 22.1409326 ], [ 84.3467809, 22.1365934 ], [ 84.3435036, 22.1356734 ], [ 84.3441836, 22.133509 ], [ 84.3402163, 22.1303931 ], [ 84.3155615, 22.127606 ], [ 84.3102628, 22.1229554 ], [ 84.3051833, 22.1225828 ], [ 84.3006505, 22.1186938 ], [ 84.2981002, 22.1180512 ], [ 84.2776259, 22.1232582 ], [ 84.2763064, 22.1168044 ], [ 84.2783783, 22.1120772 ], [ 84.2778759, 22.1102452 ], [ 84.2754288, 22.1092928 ], [ 84.2699165, 22.1100492 ], [ 84.2674073, 22.1077956 ], [ 84.266715, 22.1042589 ], [ 84.2712569, 22.0907356 ], [ 84.2657586, 22.0762319 ], [ 84.2668669, 22.064935 ], [ 84.2702497, 22.0615117 ], [ 84.2693573, 22.0504972 ], [ 84.2662892, 22.0443752 ], [ 84.2679741, 22.0279876 ], [ 84.2691586, 22.0257958 ], [ 84.2680238, 22.0089436 ], [ 84.2631768, 22.0081469 ], [ 84.2577323, 22.0038741 ], [ 84.2559498, 21.9987026 ], [ 84.2414471, 21.9805179 ], [ 84.2376482, 21.9779037 ], [ 84.2361087, 21.9793464 ], [ 84.23619, 21.9778108 ], [ 84.2303244, 21.9747183 ], [ 84.2280503, 21.9751241 ], [ 84.2278191, 21.9766672 ], [ 84.2239489, 21.9745234 ], [ 84.2139664, 21.9782749 ], [ 84.2034729, 21.9780103 ], [ 84.200646, 21.9814143 ], [ 84.2009104, 21.9856505 ], [ 84.1921458, 21.9878926 ], [ 84.1918888, 21.9891655 ], [ 84.1899661, 21.9890811 ], [ 84.1891957, 21.990328 ], [ 84.1834983, 21.991066 ], [ 84.1828712, 21.9926709 ], [ 84.1807922, 21.9925173 ], [ 84.1803753, 21.9944296 ], [ 84.1773481, 21.9936399 ], [ 84.1741257, 21.9958096 ], [ 84.174255, 21.9972645 ], [ 84.1713004, 21.9971322 ], [ 84.1714621, 21.9985234 ], [ 84.1669934, 22.0018858 ], [ 84.16647, 22.0005467 ], [ 84.1633396, 22.0009862 ], [ 84.1623342, 21.9999497 ], [ 84.1598293, 22.000887 ], [ 84.154912, 21.9986444 ], [ 84.1459099, 22.0003021 ], [ 84.1441288, 21.9989645 ], [ 84.1410329, 22.0003189 ], [ 84.138897, 21.9986902 ], [ 84.1361029, 21.9989865 ], [ 84.1320466, 22.0031442 ], [ 84.1276863, 22.0051093 ], [ 84.1247039, 22.0045931 ], [ 84.1240979, 22.0065269 ], [ 84.12098, 22.0073354 ], [ 84.1191183, 22.0118156 ], [ 84.1173979, 22.0130352 ], [ 84.1102287, 22.0022873 ], [ 84.1084988, 21.9959667 ], [ 84.1060107, 21.9921467 ], [ 84.1028706, 21.9974858 ], [ 84.0945375, 21.9963392 ], [ 84.0929982, 21.9972076 ], [ 84.0926682, 21.9991677 ], [ 84.0887973, 21.9993942 ], [ 84.0868834, 21.9979366 ], [ 84.0882959, 21.9954642 ], [ 84.0863619, 21.9901713 ], [ 84.0812106, 21.9913693 ], [ 84.0701814, 21.989708 ], [ 84.0688108, 21.9847022 ], [ 84.0721217, 21.9843197 ], [ 84.0723341, 21.9827273 ], [ 84.0746026, 21.9813446 ], [ 84.0840881, 21.9798894 ], [ 84.0849088, 21.9713046 ], [ 84.0875867, 21.963601 ], [ 84.0878727, 21.9609377 ], [ 84.0867845, 21.9596089 ], [ 84.0834208, 21.9586387 ], [ 84.0785196, 21.9538842 ], [ 84.076834, 21.9430044 ], [ 84.0786069, 21.9375065 ], [ 84.0713747, 21.9363287 ], [ 84.0670483, 21.9373482 ], [ 84.0655337, 21.9350615 ], [ 84.061316, 21.934382 ], [ 84.0606223, 21.9367731 ], [ 84.0535868, 21.9370981 ], [ 84.0475132, 21.9439709 ], [ 84.0461477, 21.9484413 ], [ 84.0353057, 21.9488226 ], [ 84.0270747, 21.9539476 ], [ 84.0049846, 21.9232603 ], [ 83.9962589, 21.9188436 ], [ 83.9761499, 21.9053996 ], [ 83.9714732, 21.9100512 ], [ 83.965151, 21.9207256 ], [ 83.9588848, 21.9425639 ], [ 83.9346104, 21.9441955 ], [ 83.9282294, 21.9425223 ], [ 83.9168084, 21.9449053 ], [ 83.9045899, 21.9442554 ], [ 83.8963043, 21.9459859 ], [ 83.8769528, 21.9231057 ], [ 83.8618756, 21.9245379 ], [ 83.851743, 21.9236218 ], [ 83.8643954, 21.9112432 ], [ 83.8620929, 21.9092839 ], [ 83.8587239, 21.909636 ], [ 83.8580036, 21.9072294 ], [ 83.8543691, 21.9068682 ], [ 83.8539857, 21.9041308 ], [ 83.8519361, 21.9027266 ], [ 83.846031, 21.904192 ], [ 83.8454112, 21.9018977 ], [ 83.8431558, 21.9009063 ], [ 83.8429432, 21.8985285 ], [ 83.8392346, 21.8968037 ], [ 83.8376271, 21.8935414 ], [ 83.8351552, 21.895457 ], [ 83.8308967, 21.8960538 ], [ 83.8290621, 21.8773551 ], [ 83.8251331, 21.8791872 ], [ 83.8207573, 21.8841322 ], [ 83.8163417, 21.8848352 ], [ 83.8140128, 21.8822347 ], [ 83.8120544, 21.8686693 ], [ 83.8094038, 21.8607213 ], [ 83.809521, 21.8578127 ], [ 83.8120515, 21.8576657 ], [ 83.8127942, 21.8546064 ], [ 83.8072308, 21.8566602 ], [ 83.7991584, 21.8676659 ], [ 83.798999, 21.8701555 ], [ 83.7937518, 21.8666384 ], [ 83.7786643, 21.8533306 ], [ 83.7668991, 21.8389274 ], [ 83.7583428, 21.8361911 ], [ 83.7382585, 21.8167878 ], [ 83.7279369, 21.8026866 ], [ 83.7290355, 21.794088 ], [ 83.7264854, 21.793417 ], [ 83.7251344, 21.7912366 ], [ 83.721167, 21.7904941 ], [ 83.7209126, 21.7877675 ], [ 83.7192114, 21.7859765 ], [ 83.7133257, 21.7872965 ], [ 83.7112173, 21.7890282 ], [ 83.7028092, 21.7896039 ], [ 83.7015212, 21.791277 ], [ 83.695697, 21.7899639 ], [ 83.6887986, 21.7903878 ], [ 83.6868247, 21.8016819 ], [ 83.672821, 21.8088965 ], [ 83.6670637, 21.8083577 ], [ 83.6493007, 21.8136543 ], [ 83.636377, 21.8190568 ], [ 83.6344836, 21.8260024 ], [ 83.6311872, 21.8297383 ], [ 83.6266139, 21.8392724 ], [ 83.6280279, 21.8457364 ], [ 83.6232565, 21.8486922 ], [ 83.6191584, 21.8466855 ], [ 83.6090131, 21.8458217 ], [ 83.6101961, 21.8377501 ], [ 83.6076686, 21.8351495 ], [ 83.6075012, 21.8328501 ], [ 83.6030227, 21.8335663 ], [ 83.6013905, 21.8320708 ], [ 83.5965891, 21.8323089 ], [ 83.5948034, 21.829263 ], [ 83.5899653, 21.8258498 ], [ 83.5805846, 21.8295223 ], [ 83.5790809, 21.8305975 ], [ 83.5779116, 21.8375188 ], [ 83.5814526, 21.8381743 ], [ 83.5870807, 21.8435197 ], [ 83.5908875, 21.8511013 ], [ 83.5742166, 21.8751038 ], [ 83.5759812, 21.8781272 ], [ 83.5764355, 21.882373 ], [ 83.5808082, 21.883267 ], [ 83.5777425, 21.8889779 ], [ 83.5815453, 21.889851 ], [ 83.5870847, 21.8945318 ], [ 83.5852322, 21.8996409 ], [ 83.5859657, 21.902133 ], [ 83.5946997, 21.9034285 ], [ 83.5970025, 21.9060026 ], [ 83.598792, 21.9053629 ], [ 83.6029364, 21.9085752 ], [ 83.6059233, 21.9141184 ], [ 83.6015654, 21.9180616 ], [ 83.5998695, 21.9220735 ], [ 83.5903558, 21.9297038 ], [ 83.5567208, 21.9353451 ], [ 83.5591467, 21.9450458 ], [ 83.5616915, 21.948009 ], [ 83.5420404, 21.9621137 ], [ 83.5390108, 21.9659882 ], [ 83.5371581, 21.9779581 ], [ 83.5435457, 21.9876164 ], [ 83.5433074, 21.9938505 ], [ 83.5530545, 22.0032545 ], [ 83.5561517, 22.0078175 ], [ 83.539787, 22.0216743 ], [ 83.5364684, 22.0296025 ], [ 83.5367206, 22.0434846 ], [ 83.5437383, 22.0569686 ], [ 83.5478086, 22.0591524 ], [ 83.5485435, 22.0583874 ], [ 83.5468977, 22.0570038 ], [ 83.55035, 22.0533503 ], [ 83.5582165, 22.0548515 ], [ 83.5599852, 22.0539593 ], [ 83.5817771, 22.0545833 ], [ 83.5830724, 22.0502253 ], [ 83.5867088, 22.0487312 ], [ 83.589877, 22.0544502 ], [ 83.5932088, 22.0551693 ], [ 83.5961684, 22.0578883 ], [ 83.6015195, 22.058771 ], [ 83.6034022, 22.0638314 ], [ 83.6064751, 22.0666879 ], [ 83.5935796, 22.074211 ], [ 83.5769373, 22.0903208 ], [ 83.5626422, 22.0963183 ], [ 83.5618143, 22.0989175 ], [ 83.5639062, 22.1052865 ], [ 83.5759177, 22.1209003 ], [ 83.5832105, 22.1250684 ], [ 83.5936934, 22.1402928 ], [ 83.6077387, 22.1537458 ], [ 83.6133317, 22.177701 ], [ 83.6272549, 22.2037825 ], [ 83.6495128, 22.2233404 ], [ 83.655309, 22.2200399 ], [ 83.6644731, 22.2287914 ], [ 83.6657659, 22.2327295 ], [ 83.6910456, 22.2427255 ], [ 83.691473, 22.2441239 ], [ 83.7039456, 22.2467146 ], [ 83.7130634, 22.242717 ], [ 83.7212029, 22.2430438 ], [ 83.7282072, 22.2413353 ], [ 83.729491, 22.2428229 ], [ 83.7443614, 22.2396341 ], [ 83.7577508, 22.2403395 ], [ 83.7576766, 22.2471376 ], [ 83.7597106, 22.2512074 ], [ 83.7626476, 22.25206 ], [ 83.7664531, 22.2556281 ], [ 83.7728932, 22.2557067 ], [ 83.7755797, 22.2573437 ], [ 83.7767251, 22.261301 ], [ 83.7752385, 22.2616595 ], [ 83.7747211, 22.2647715 ], [ 83.7767905, 22.2662745 ], [ 83.7766453, 22.2698542 ], [ 83.7797539, 22.2738277 ], [ 83.7858027, 22.2740921 ], [ 83.7922251, 22.2764752 ], [ 83.7960396, 22.2824705 ], [ 83.7948451, 22.2859482 ], [ 83.8027783, 22.2901522 ], [ 83.8092637, 22.2889534 ], [ 83.8118375, 22.2904839 ], [ 83.816905, 22.2908768 ], [ 83.8190584, 22.2895654 ], [ 83.8198484, 22.291291 ], [ 83.8263594, 22.2928219 ], [ 83.8272667, 22.2938729 ], [ 83.8228516, 22.3012766 ], [ 83.8260049, 22.305503 ], [ 83.821984, 22.3115337 ], [ 83.8281479, 22.3175247 ], [ 83.8305562, 22.3234016 ], [ 83.8352373, 22.3222794 ], [ 83.8502877, 22.325226 ], [ 83.8528787, 22.3271219 ], [ 83.8528811, 22.3302578 ], [ 83.8549337, 22.3345347 ], [ 83.854306, 22.337645 ], [ 83.8602375, 22.3387529 ], [ 83.8604125, 22.3404663 ], [ 83.8639854, 22.3416321 ], [ 83.8642639, 22.3432754 ], [ 83.8693196, 22.3412526 ], [ 83.8720651, 22.3377771 ], [ 83.8792096, 22.3353836 ], [ 83.8828809, 22.3367132 ], [ 83.8903348, 22.3365451 ], [ 83.901317, 22.3393594 ], [ 83.9025152, 22.3465931 ], [ 83.9065249, 22.351286 ], [ 83.9232838, 22.3584102 ], [ 83.932691, 22.3539591 ], [ 83.9432938, 22.3547103 ], [ 83.9482167, 22.3563193 ], [ 83.9549892, 22.3616635 ], [ 83.9579961, 22.3619367 ], [ 83.9702461, 22.3588047 ], [ 83.9825257, 22.3673283 ], [ 83.9928429, 22.369763 ], [ 83.9966706, 22.3719869 ], [ 84.0057827, 22.3736814 ], [ 84.0102923, 22.3715844 ], [ 84.0063791, 22.3822049 ], [ 84.013182, 22.3942704 ], [ 84.0133856, 22.3974205 ], [ 84.0200596, 22.4085553 ], [ 84.0234686, 22.4094481 ], [ 84.0246846, 22.4155006 ], [ 84.0277577, 22.4169636 ], [ 84.0302725, 22.4200835 ], [ 84.0311561, 22.4218016 ], [ 84.0303365, 22.4266392 ], [ 84.0387936, 22.429697 ], [ 84.0417188, 22.434985 ], [ 84.0472467, 22.4382331 ], [ 84.0448942, 22.4528619 ], [ 84.0463951, 22.4553524 ], [ 84.0454212, 22.462604 ], [ 84.0472472, 22.4692209 ], [ 84.0407454, 22.4731041 ], [ 84.0266018, 22.4753236 ], [ 84.0174232, 22.4892498 ], [ 84.0028664, 22.4933151 ], [ 83.9978478, 22.4976164 ], [ 83.980072, 22.5023916 ], [ 83.9804794, 22.5075703 ], [ 83.9747824, 22.5122381 ], [ 83.9773168, 22.5156635 ], [ 83.9809886, 22.5161521 ], [ 83.9809129, 22.5215491 ], [ 83.9867287, 22.5255411 ], [ 83.9948912, 22.5280999 ], [ 83.9980092, 22.5309692 ] ] ] } }
]
}
