{
"type": "FeatureCollection",
"name": "2106",
"crs": { "type": "name", "properties": { "name": "urn:ogc:def:crs:OGC:1.3:CRS84" } },
"features": [
{ "type": "Feature", "properties": { "code": "2106", "name": "Keonjhar", "type": "district" }, "geometry": { "type": "Polygon", "coordinates": [ [ [ 85.3972672, 22.1632023 ], [ 85.4113715, 22.161823 ], [ 85.4211455, 22.1587838 ], [ 85.4341228, 22.150988 ], [ 85.4387692, 22.1503461 ], [ 85.4429934, 22.1466653 ], [ 85.446996, 22.1463738 ], [ 85.4618711, 22.1399032 ], [ 85.4706881, 22.1341198 ], [ 85.4747044, 22.1289278 ], [ 85.4829297, 22.1275954 ], [ 85.4899062, 22.1210756 ], [ 85.4955293, 22.1196508 ], [ 85.4998624, 22.1201061 ], [ 85.5149734, 22.1156379 ], [ 85.5265445, 22.1089188 ], [ 85.5341265, 22.1026373 ], [ 85.5397757, 22.1018479 ], [ 85.5390152, 22.0971036 ], [ 85.5429796, 22.0904731 ], [ 85.5604361, 22.0960743 ], [ 85.5609933, 22.0917753 ], [ 85.5661979, 22.0888946 ], [ 85.571554, 22.0911634 ], [ 85.5769556, 22.0884421 ], [ 85.5862686, 22.0860886 ], [ 85.590229, 22.0840002 ], [ 85.5922851, 22.0804366 ], [ 85.5971825, 22.0791237 ], [ 85.6068086, 22.0798428 ], [ 85.6111816, 22.0870428 ], [ 85.6138755, 22.0860857 ], [ 85.6127525, 22.0834748 ], [ 85.6134451, 22.0815386 ], [ 85.6215013, 22.082763 ], [ 85.6249194, 22.0820872 ], [ 85.6283859, 22.08591 ], [ 85.6315436, 22.0840893 ], [ 85.6370293, 22.0870978 ], [ 85.6398102, 22.0866693 ], [ 85.6448996, 22.0946648 ], [ 85.6499547, 22.095637 ], [ 85.6539329, 22.0941705 ], [ 85.6573833, 22.0839287 ], [ 85.6615806, 22.0833353 ], [ 85.6640644, 22.0768476 ], [ 85.6702456, 22.073434 ], [ 85.6716579, 22.0674838 ], [ 85.6786894, 22.0621844 ], [ 85.6773332, 22.0569526 ], [ 85.6731951, 22.0517751 ], [ 85.6736801, 22.0423624 ], [ 85.6665002, 22.0387903 ], [ 85.6621518, 22.0339584 ], [ 85.6691161, 22.0149515 ], [ 85.6749359, 22.0146599 ], [ 85.6840815, 22.0082616 ], [ 85.6874932, 22.0080405 ], [ 85.6928436, 22.0103144 ], [ 85.700871, 22.0063992 ], [ 85.7026401, 22.0041234 ], [ 85.7024626, 22.0007392 ], [ 85.6970738, 21.9926211 ], [ 85.7061096, 21.9847208 ], [ 85.7147087, 21.9880944 ], [ 85.7267785, 21.9889834 ], [ 85.7315208, 21.9931844 ], [ 85.7375869, 21.9928789 ], [ 85.7461856, 21.9870646 ], [ 85.7450651, 21.9806696 ], [ 85.7467369, 21.9772226 ], [ 85.7529972, 21.9773381 ], [ 85.7586339, 21.9734197 ], [ 85.764827, 21.9740039 ], [ 85.7664079, 21.9720422 ], [ 85.7662765, 21.9687533 ], [ 85.7724095, 21.9644725 ], [ 85.7756109, 21.9592888 ], [ 85.7846875, 21.9612035 ], [ 85.7937673, 21.9513022 ], [ 85.7923612, 21.9469561 ], [ 85.7943805, 21.9325493 ], [ 85.792567, 21.9208472 ], [ 85.7882988, 21.9104231 ], [ 85.7878276, 21.9037486 ], [ 85.8048528, 21.8882861 ], [ 85.8043968, 21.8843489 ], [ 85.8002123, 21.8766538 ], [ 85.8028516, 21.8711898 ], [ 85.8033344, 21.8626117 ], [ 85.8091261, 21.8521163 ], [ 85.8093591, 21.8391732 ], [ 85.8062999, 21.8347158 ], [ 85.8055277, 21.8310019 ], [ 85.8093363, 21.819715 ], [ 85.8094281, 21.8115407 ], [ 85.8148493, 21.8104867 ], [ 85.8177927, 21.8078156 ], [ 85.823877, 21.8072628 ], [ 85.8253456, 21.8033302 ], [ 85.8284305, 21.8052175 ], [ 85.8309755, 21.8092645 ], [ 85.8383537, 21.8108161 ], [ 85.8452788, 21.8055439 ], [ 85.8457927, 21.8035873 ], [ 85.8553941, 21.8022945 ], [ 85.8575556, 21.8005253 ], [ 85.860106, 21.8003307 ], [ 85.8601992, 21.7983171 ], [ 85.863747, 21.7961327 ], [ 85.8686865, 21.7971919 ], [ 85.8732334, 21.7958678 ], [ 85.8827007, 21.7905485 ], [ 85.8851196, 21.782945 ], [ 85.8909383, 21.7834404 ], [ 85.8932345, 21.7816807 ], [ 85.8945242, 21.7780939 ], [ 85.9017576, 21.7712403 ], [ 85.9002497, 21.7673189 ], [ 85.9049141, 21.7669253 ], [ 85.9082604, 21.770746 ], [ 85.9094507, 21.770641 ], [ 85.9116243, 21.7677644 ], [ 85.9116911, 21.7653078 ], [ 85.9165781, 21.762946 ], [ 85.9174731, 21.760305 ], [ 85.9201027, 21.763642 ], [ 85.9262954, 21.763845 ], [ 85.9325546, 21.7622323 ], [ 85.9362533, 21.7635886 ], [ 85.9409456, 21.7567396 ], [ 85.94736, 21.7536774 ], [ 85.948183, 21.7508822 ], [ 85.9520572, 21.7520315 ], [ 85.9516149, 21.7476789 ], [ 85.9567637, 21.748398 ], [ 85.9587785, 21.7465722 ], [ 85.9591185, 21.7443609 ], [ 85.9615678, 21.7446247 ], [ 85.9658821, 21.7396741 ], [ 85.9684729, 21.7424591 ], [ 85.9702251, 21.7414943 ], [ 85.9704711, 21.7388581 ], [ 85.9730572, 21.7402653 ], [ 85.9752714, 21.7436803 ], [ 85.9749538, 21.7407515 ], [ 85.976772, 21.7393488 ], [ 85.9797877, 21.7429268 ], [ 85.9833135, 21.7441138 ], [ 85.9837893, 21.7459053 ], [ 85.9882104, 21.7469895 ], [ 85.9900592, 21.746016 ], [ 85.9928904, 21.7484003 ], [ 85.9944361, 21.7472216 ], [ 85.9956083, 21.7427435 ], [ 86.0019474, 21.7496385 ], [ 86.0053766, 21.7452597 ], [ 86.0057275, 21.7469378 ], [ 86.009322, 21.7473298 ], [ 86.0098292, 21.7516506 ], [ 86.0128659, 21.7515921 ], [ 86.0151498, 21.7485073 ], [ 86.0144817, 21.7458022 ], [ 86.0166458, 21.7460723 ], [ 86.01479, 21.7452844 ], [ 86.0156793, 21.7431715 ], [ 86.019091, 21.7398581 ], [ 86.0187362, 21.7316035 ], [ 86.0224339, 21.7266701 ], [ 86.0275708, 21.7247898 ], [ 86.0254836, 21.7124283 ], [ 86.0234768, 21.7075292 ], [ 86.0248432, 21.7020217 ], [ 86.0241205, 21.6959513 ], [ 86.0321798, 21.6905555 ], [ 86.0337229, 21.6917886 ], [ 86.0361585, 21.6939889 ], [ 86.0389972, 21.7046971 ], [ 86.04904, 21.7159078 ], [ 86.0488387, 21.7178759 ], [ 86.0499499, 21.7179411 ], [ 86.051085, 21.7107204 ], [ 86.056091, 21.7057938 ], [ 86.0563455, 21.7023489 ], [ 86.0550536, 21.6995861 ], [ 86.0567702, 21.6942881 ], [ 86.0649824, 21.6882096 ], [ 86.0708836, 21.6897063 ], [ 86.0712434, 21.6946411 ], [ 86.0729687, 21.6954277 ], [ 86.075587, 21.695623 ], [ 86.0756446, 21.6941779 ], [ 86.0783431, 21.6954441 ], [ 86.0820822, 21.6919325 ], [ 86.0815859, 21.687878 ], [ 86.076069, 21.6791657 ], [ 86.0762329, 21.6746812 ], [ 86.0734562, 21.6713274 ], [ 86.072149, 21.6641786 ], [ 86.0725159, 21.6614563 ], [ 86.0739467, 21.660363 ], [ 86.0726281, 21.6451511 ], [ 86.0745684, 21.6416793 ], [ 86.0810432, 21.6369859 ], [ 86.0784106, 21.6331048 ], [ 86.0791326, 21.6304799 ], [ 86.0750006, 21.6253933 ], [ 86.071508, 21.6238516 ], [ 86.0706746, 21.6174418 ], [ 86.0656746, 21.6137188 ], [ 86.0683789, 21.608562 ], [ 86.0587309, 21.6028659 ], [ 86.0566521, 21.5979305 ], [ 86.0502972, 21.5947595 ], [ 86.0488749, 21.5906859 ], [ 86.0508489, 21.5901371 ], [ 86.0511726, 21.5878986 ], [ 86.0502301, 21.5857838 ], [ 86.0477704, 21.5860136 ], [ 86.0488489, 21.5828217 ], [ 86.0459536, 21.5772898 ], [ 86.0410274, 21.5766066 ], [ 86.0344736, 21.5722956 ], [ 86.0294912, 21.5713858 ], [ 86.0270418, 21.5722704 ], [ 86.026181, 21.5695686 ], [ 86.0207396, 21.5658283 ], [ 86.018973, 21.5628457 ], [ 86.0157478, 21.5613451 ], [ 86.0188739, 21.5538924 ], [ 86.0187104, 21.5516374 ], [ 86.0162139, 21.5502314 ], [ 86.01061, 21.5428536 ], [ 86.0062871, 21.5338885 ], [ 86.0342112, 21.5222266 ], [ 86.0675733, 21.5041495 ], [ 86.0765105, 21.5014437 ], [ 86.0783036, 21.4995426 ], [ 86.0911171, 21.4966905 ], [ 86.1263693, 21.473588 ], [ 86.1286242, 21.4717747 ], [ 86.1309988, 21.466041 ], [ 86.1348308, 21.4626912 ], [ 86.1348741, 21.4553555 ], [ 86.1370338, 21.4524349 ], [ 86.1448945, 21.4474113 ], [ 86.147641, 21.4422445 ], [ 86.1509615, 21.4404183 ], [ 86.1558423, 21.4323706 ], [ 86.1576291, 21.4261866 ], [ 86.1612633, 21.4234176 ], [ 86.1534643, 21.4121893 ], [ 86.1412546, 21.4056223 ], [ 86.1350437, 21.3995418 ], [ 86.1197773, 21.3713289 ], [ 86.1221353, 21.368911 ], [ 86.1212819, 21.3656632 ], [ 86.1233478, 21.3653441 ], [ 86.1247312, 21.3605588 ], [ 86.1108044, 21.3550017 ], [ 86.1044254, 21.3509384 ], [ 86.1042692, 21.3496728 ], [ 86.1080055, 21.3457853 ], [ 86.10856, 21.3417995 ], [ 86.1078581, 21.3366777 ], [ 86.1037354, 21.3288003 ], [ 86.1046318, 21.3264787 ], [ 86.1035801, 21.324996 ], [ 86.1021489, 21.3256885 ], [ 86.1012409, 21.3227836 ], [ 86.0961225, 21.3233344 ], [ 86.0963328, 21.3189131 ], [ 86.0944979, 21.3162381 ], [ 86.089015, 21.3126262 ], [ 86.0917246, 21.3133274 ], [ 86.0924945, 21.3080826 ], [ 86.0964706, 21.3058452 ], [ 86.1059507, 21.3045228 ], [ 86.1051372, 21.2987725 ], [ 86.1064787, 21.2961413 ], [ 86.1090734, 21.2958886 ], [ 86.1084272, 21.2927458 ], [ 86.110622, 21.2908511 ], [ 86.109993, 21.2888467 ], [ 86.1140309, 21.2834022 ], [ 86.112457, 21.2766225 ], [ 86.1137456, 21.2739321 ], [ 86.1232577, 21.2710363 ], [ 86.1245481, 21.2678542 ], [ 86.1270675, 21.2680345 ], [ 86.1307245, 21.2648776 ], [ 86.1322654, 21.2667377 ], [ 86.1351768, 21.2657995 ], [ 86.1352183, 21.2817955 ], [ 86.1397751, 21.2780921 ], [ 86.1428834, 21.2789797 ], [ 86.1498332, 21.2882257 ], [ 86.1559225, 21.2921368 ], [ 86.1592438, 21.2920765 ], [ 86.1585966, 21.2846877 ], [ 86.1732586, 21.2768822 ], [ 86.1829444, 21.2745489 ], [ 86.1849688, 21.2724958 ], [ 86.1890823, 21.2723018 ], [ 86.1942401, 21.2747704 ], [ 86.198909, 21.2803219 ], [ 86.2063838, 21.281324 ], [ 86.2052238, 21.2828364 ], [ 86.205789, 21.2861864 ], [ 86.2105272, 21.2897503 ], [ 86.2122822, 21.2951023 ], [ 86.216117, 21.2973155 ], [ 86.21604, 21.302727 ], [ 86.218463, 21.3076079 ], [ 86.2181935, 21.3102357 ], [ 86.223644, 21.3179135 ], [ 86.2243061, 21.324024 ], [ 86.236936, 21.3308488 ], [ 86.2492405, 21.3468865 ], [ 86.2504508, 21.3506597 ], [ 86.265089, 21.3625734 ], [ 86.2677392, 21.368819 ], [ 86.2638993, 21.3796752 ], [ 86.2657872, 21.3801984 ], [ 86.2760484, 21.3796828 ], [ 86.282621, 21.376951 ], [ 86.2952864, 21.3567081 ], [ 86.3275726, 21.3416574 ], [ 86.3427177, 21.3287297 ], [ 86.3543065, 21.3214066 ], [ 86.359873, 21.3118467 ], [ 86.3579628, 21.2993434 ], [ 86.3528977, 21.2842184 ], [ 86.3561689, 21.2745952 ], [ 86.3609989, 21.2699561 ], [ 86.3597046, 21.2661113 ], [ 86.3688941, 21.2640996 ], [ 86.369721, 21.260037 ], [ 86.3722424, 21.2585702 ], [ 86.3676826, 21.2408255 ], [ 86.3633151, 21.2367659 ], [ 86.3518887, 21.2372284 ], [ 86.3506792, 21.2317574 ], [ 86.3533773, 21.2229317 ], [ 86.3519509, 21.2130555 ], [ 86.3533131, 21.2111137 ], [ 86.3501888, 21.2039821 ], [ 86.3491095, 21.1963434 ], [ 86.3476142, 21.1945893 ], [ 86.3480598, 21.1918489 ], [ 86.3443227, 21.1916583 ], [ 86.3442244, 21.1899277 ], [ 86.3406427, 21.1894753 ], [ 86.3416142, 21.1865249 ], [ 86.3385156, 21.1792577 ], [ 86.3301446, 21.180327 ], [ 86.3272583, 21.1773792 ], [ 86.3231518, 21.1759851 ], [ 86.3254676, 21.1792828 ], [ 86.3205035, 21.1810655 ], [ 86.3193075, 21.1792445 ], [ 86.320443, 21.1763445 ], [ 86.3171262, 21.1749262 ], [ 86.3111813, 21.1690023 ], [ 86.3052508, 21.1694027 ], [ 86.3060274, 21.1732591 ], [ 86.3012936, 21.1751733 ], [ 86.299559, 21.1743123 ], [ 86.2917266, 21.17554 ], [ 86.2905567, 21.1714062 ], [ 86.2868184, 21.1705908 ], [ 86.2823762, 21.165946 ], [ 86.2833651, 21.1625894 ], [ 86.2743432, 21.1530597 ], [ 86.2717226, 21.1473382 ], [ 86.2731781, 21.146075 ], [ 86.2706788, 21.1402187 ], [ 86.2742705, 21.1383547 ], [ 86.2791968, 21.1392431 ], [ 86.2835283, 21.1366687 ], [ 86.2912871, 21.1261981 ], [ 86.2906056, 21.1216824 ], [ 86.2870491, 21.1203888 ], [ 86.2885384, 21.1190397 ], [ 86.2907727, 21.1199661 ], [ 86.2993418, 21.1180954 ], [ 86.3083685, 21.1129917 ], [ 86.3027559, 21.1045617 ], [ 86.3046628, 21.1023785 ], [ 86.3029464, 21.0998597 ], [ 86.3072184, 21.0973293 ], [ 86.3050701, 21.0924461 ], [ 86.3049848, 21.0880186 ], [ 86.3076199, 21.0885895 ], [ 86.3072957, 21.0858507 ], [ 86.3102245, 21.0864137 ], [ 86.3105129, 21.0833656 ], [ 86.3149223, 21.0832976 ], [ 86.3178196, 21.0812809 ], [ 86.3166838, 21.0791215 ], [ 86.3179532, 21.0772969 ], [ 86.3162024, 21.0759979 ], [ 86.3186689, 21.0765725 ], [ 86.3176211, 21.0741603 ], [ 86.3189697, 21.0739442 ], [ 86.3195507, 21.0721171 ], [ 86.3177365, 21.0699504 ], [ 86.3185414, 21.068666 ], [ 86.3214529, 21.0687318 ], [ 86.3236633, 21.0641691 ], [ 86.3222892, 21.0636578 ], [ 86.3240394, 21.0629599 ], [ 86.3243831, 21.0593112 ], [ 86.3216049, 21.057475 ], [ 86.3210293, 21.0549339 ], [ 86.3132985, 21.0600522 ], [ 86.3109589, 21.0450631 ], [ 86.3086082, 21.0413765 ], [ 86.3096437, 21.0401652 ], [ 86.3025327, 21.0244061 ], [ 86.3040629, 21.0243669 ], [ 86.3039539, 21.0198672 ], [ 86.3006984, 21.0194835 ], [ 86.2862116, 21.0234936 ], [ 86.2816366, 21.0223583 ], [ 86.2737543, 21.0275561 ], [ 86.2689533, 21.0332999 ], [ 86.2606471, 21.0393898 ], [ 86.2477426, 21.0410723 ], [ 86.239253, 21.0393947 ], [ 86.2313858, 21.0412386 ], [ 86.2178889, 21.0521545 ], [ 86.2062439, 21.0583662 ], [ 86.1987379, 21.0598488 ], [ 86.1965561, 21.0575076 ], [ 86.1919914, 21.0570748 ], [ 86.177205, 21.0627997 ], [ 86.1583031, 21.0649748 ], [ 86.1450636, 21.0733788 ], [ 86.1335818, 21.0763788 ], [ 86.1299566, 21.067425 ], [ 86.1237471, 21.0676233 ], [ 86.1209259, 21.0694158 ], [ 86.1175265, 21.0680609 ], [ 86.1134398, 21.0584131 ], [ 86.1107147, 21.0561764 ], [ 86.1071286, 21.0587777 ], [ 86.1049804, 21.0566793 ], [ 86.1030617, 21.058047 ], [ 86.0933655, 21.0539344 ], [ 86.0902834, 21.0432253 ], [ 86.0911168, 21.042263 ], [ 86.0905041, 21.0361838 ], [ 86.0866753, 21.0265007 ], [ 86.0883265, 21.0231984 ], [ 86.0869352, 21.0201598 ], [ 86.0820824, 21.0191126 ], [ 86.0831321, 21.0158024 ], [ 86.0626592, 21.019996 ], [ 86.0552796, 21.024459 ], [ 86.054264, 21.0214718 ], [ 86.0495191, 21.0216487 ], [ 86.0502753, 21.0230398 ], [ 86.0481659, 21.0226079 ], [ 86.0436761, 21.0280261 ], [ 86.0410095, 21.0327091 ], [ 86.0411485, 21.0350544 ], [ 86.0363875, 21.040656 ], [ 86.036616, 21.0440092 ], [ 86.0340053, 21.0474185 ], [ 86.0350314, 21.0494662 ], [ 86.0328071, 21.0526337 ], [ 86.0341141, 21.0536846 ], [ 86.0338083, 21.056321 ], [ 86.0343412, 21.0572501 ], [ 86.0370733, 21.056719 ], [ 86.0381956, 21.060285 ], [ 86.0330909, 21.0645746 ], [ 86.0335867, 21.0667818 ], [ 86.0310304, 21.0713614 ], [ 86.0297684, 21.0707985 ], [ 86.0269433, 21.0730274 ], [ 86.0302407, 21.0788601 ], [ 86.0311712, 21.0823483 ], [ 86.0298253, 21.0835602 ], [ 86.032086, 21.0867262 ], [ 86.0330442, 21.0933857 ], [ 86.0364438, 21.0969105 ], [ 86.0463442, 21.1008693 ], [ 86.050961, 21.117442 ], [ 86.0707039, 21.1298928 ], [ 86.0746315, 21.1308585 ], [ 86.0758021, 21.1462914 ], [ 86.0750064, 21.1550146 ], [ 86.0799945, 21.1644783 ], [ 86.0841664, 21.1634755 ], [ 86.0864686, 21.1642108 ], [ 86.0894047, 21.1684052 ], [ 86.0823475, 21.1702688 ], [ 86.0780075, 21.1696128 ], [ 86.0754293, 21.165235 ], [ 86.0732318, 21.1639039 ], [ 86.0683959, 21.1648079 ], [ 86.0657626, 21.163908 ], [ 86.0640903, 21.1610212 ], [ 86.0652704, 21.1556206 ], [ 86.0631275, 21.1533275 ], [ 86.0570606, 21.1540076 ], [ 86.0506898, 21.1585298 ], [ 86.0494264, 21.161057 ], [ 86.0456902, 21.1579326 ], [ 86.0428916, 21.1572979 ], [ 86.0365809, 21.1606229 ], [ 86.0347669, 21.1589185 ], [ 86.0323038, 21.150385 ], [ 86.027471, 21.1493861 ], [ 86.0268684, 21.1479959 ], [ 86.0268097, 21.1466809 ], [ 86.0303769, 21.1431146 ], [ 86.0251681, 21.1392497 ], [ 86.0213786, 21.139273 ], [ 86.0195855, 21.1447014 ], [ 86.0118981, 21.1414404 ], [ 86.0074184, 21.1453216 ], [ 86.0016293, 21.1419268 ], [ 85.9934025, 21.1430434 ], [ 85.9937502, 21.140028 ], [ 85.9927268, 21.1390011 ], [ 85.9822573, 21.1364811 ], [ 85.9770043, 21.1427826 ], [ 85.9752308, 21.1430023 ], [ 85.9694675, 21.1374066 ], [ 85.9640978, 21.1375725 ], [ 85.9617769, 21.140359 ], [ 85.9606315, 21.1368195 ], [ 85.9638241, 21.1339977 ], [ 85.9618889, 21.1304851 ], [ 85.9601675, 21.133632 ], [ 85.9587064, 21.1339573 ], [ 85.9593929, 21.1321727 ], [ 85.9577494, 21.1303376 ], [ 85.9485447, 21.1288759 ], [ 85.9469924, 21.1325749 ], [ 85.939603, 21.1297191 ], [ 85.9366747, 21.1352614 ], [ 85.9291385, 21.1360903 ], [ 85.9301842, 21.1319411 ], [ 85.9289437, 21.1236578 ], [ 85.9169894, 21.0925354 ], [ 85.9015946, 21.0901552 ], [ 85.8872474, 21.0861453 ], [ 85.8781341, 21.0877206 ], [ 85.8749971, 21.0856354 ], [ 85.8631704, 21.0876931 ], [ 85.8607012, 21.0883316 ], [ 85.8548447, 21.0932248 ], [ 85.8476735, 21.0956291 ], [ 85.835887, 21.0960771 ], [ 85.8281599, 21.0901652 ], [ 85.8219982, 21.0909084 ], [ 85.8122366, 21.0939933 ], [ 85.806996, 21.1065094 ], [ 85.8018404, 21.1059354 ], [ 85.7975393, 21.1038588 ], [ 85.7930603, 21.1059545 ], [ 85.7889007, 21.1054461 ], [ 85.7843811, 21.1012536 ], [ 85.7800852, 21.1027224 ], [ 85.7793308, 21.1019716 ], [ 85.7758143, 21.1058128 ], [ 85.7725908, 21.1050488 ], [ 85.7709706, 21.1088809 ], [ 85.7711818, 21.1148314 ], [ 85.7662513, 21.1161144 ], [ 85.7655148, 21.1196052 ], [ 85.7669747, 21.1258538 ], [ 85.7626771, 21.1361167 ], [ 85.7619044, 21.1451043 ], [ 85.751456, 21.1491696 ], [ 85.7470311, 21.1479895 ], [ 85.7405463, 21.1393547 ], [ 85.734682, 21.1388096 ], [ 85.7287997, 21.1409246 ], [ 85.7249798, 21.1451012 ], [ 85.7183784, 21.1613529 ], [ 85.7057789, 21.1688769 ], [ 85.7034583, 21.1743427 ], [ 85.707513, 21.181009 ], [ 85.7019059, 21.182827 ], [ 85.6904781, 21.1794777 ], [ 85.6830145, 21.1864478 ], [ 85.6686824, 21.1697317 ], [ 85.66338, 21.1665688 ], [ 85.657239, 21.1646005 ], [ 85.6433559, 21.1662377 ], [ 85.6254866, 21.160985 ], [ 85.6176002, 21.1469007 ], [ 85.6122368, 21.1406959 ], [ 85.6064225, 21.1363978 ], [ 85.5923433, 21.1381694 ], [ 85.5903206, 21.142308 ], [ 85.5852764, 21.1436886 ], [ 85.5582778, 21.1594997 ], [ 85.550719, 21.1613953 ], [ 85.5452182, 21.1670165 ], [ 85.5307617, 21.1466615 ], [ 85.4977909, 21.1152301 ], [ 85.4850163, 21.1189871 ], [ 85.4745, 21.1207671 ], [ 85.471497, 21.1202207 ], [ 85.4679217, 21.1243165 ], [ 85.4639791, 21.1238698 ], [ 85.458559, 21.1285178 ], [ 85.4527549, 21.1367346 ], [ 85.4439345, 21.1428279 ], [ 85.4370762, 21.1508852 ], [ 85.4246385, 21.1606295 ], [ 85.4217333, 21.164893 ], [ 85.4158611, 21.167417 ], [ 85.4108307, 21.1717959 ], [ 85.399664, 21.1781039 ], [ 85.3868215, 21.1905329 ], [ 85.3798632, 21.199332 ], [ 85.3812299, 21.2029672 ], [ 85.3799942, 21.2107281 ], [ 85.3823106, 21.2142866 ], [ 85.3788787, 21.2180428 ], [ 85.3746108, 21.229076 ], [ 85.3610517, 21.2442821 ], [ 85.3550332, 21.2487579 ], [ 85.3407267, 21.2555006 ], [ 85.3390786, 21.2581174 ], [ 85.3149168, 21.2632518 ], [ 85.3075542, 21.2679561 ], [ 85.3064318, 21.270465 ], [ 85.3012123, 21.2714241 ], [ 85.2981644, 21.2754442 ], [ 85.295087, 21.2765648 ], [ 85.2911318, 21.2694117 ], [ 85.2878317, 21.2668898 ], [ 85.2869641, 21.2640132 ], [ 85.2805344, 21.2650632 ], [ 85.2704329, 21.2739831 ], [ 85.2712427, 21.2826127 ], [ 85.2758703, 21.2861783 ], [ 85.2743403, 21.2905252 ], [ 85.2762836, 21.2933045 ], [ 85.2749944, 21.2964119 ], [ 85.2723135, 21.2981909 ], [ 85.2715928, 21.3021261 ], [ 85.2751817, 21.3043035 ], [ 85.2824786, 21.2992794 ], [ 85.2853229, 21.3050033 ], [ 85.2968031, 21.3086968 ], [ 85.2967942, 21.3174129 ], [ 85.3033976, 21.3169558 ], [ 85.3151746, 21.3302435 ], [ 85.3164829, 21.3287979 ], [ 85.3175636, 21.3295583 ], [ 85.3219133, 21.3242952 ], [ 85.3208426, 21.3218232 ], [ 85.3229417, 21.3215958 ], [ 85.3227079, 21.3188385 ], [ 85.3287546, 21.3284009 ], [ 85.331104, 21.3414175 ], [ 85.3307669, 21.346933 ], [ 85.3360383, 21.3480014 ], [ 85.3347637, 21.3511682 ], [ 85.3369609, 21.3533939 ], [ 85.3354019, 21.3561198 ], [ 85.3366724, 21.3576047 ], [ 85.3391456, 21.3571776 ], [ 85.339993, 21.359837 ], [ 85.3375917, 21.3607164 ], [ 85.3384541, 21.3620617 ], [ 85.3398189, 21.361172 ], [ 85.3424715, 21.3662203 ], [ 85.3300007, 21.3770982 ], [ 85.3294693, 21.3844136 ], [ 85.3276027, 21.3861473 ], [ 85.3263114, 21.3907319 ], [ 85.3221075, 21.3897867 ], [ 85.304894, 21.3963651 ], [ 85.3077428, 21.4015017 ], [ 85.3058698, 21.402508 ], [ 85.3072849, 21.4039946 ], [ 85.3068442, 21.4074992 ], [ 85.3036447, 21.411021 ], [ 85.306689, 21.4121763 ], [ 85.3020161, 21.417151 ], [ 85.296263, 21.4204299 ], [ 85.2839309, 21.4236911 ], [ 85.2823111, 21.4269216 ], [ 85.2717191, 21.4285784 ], [ 85.2680523, 21.4393068 ], [ 85.2588187, 21.4434697 ], [ 85.2591237, 21.4474425 ], [ 85.255203, 21.4510009 ], [ 85.2579786, 21.4565259 ], [ 85.2624773, 21.4571235 ], [ 85.267751, 21.4541932 ], [ 85.26965, 21.4563761 ], [ 85.2767639, 21.4532385 ], [ 85.2869898, 21.45417 ], [ 85.2909648, 21.4496359 ], [ 85.2930671, 21.4505425 ], [ 85.299693, 21.4470015 ], [ 85.3016938, 21.4487696 ], [ 85.3036325, 21.447981 ], [ 85.3104419, 21.4582021 ], [ 85.306944, 21.4619918 ], [ 85.3117053, 21.4620173 ], [ 85.3131369, 21.4646557 ], [ 85.321351, 21.4652487 ], [ 85.3235658, 21.4707038 ], [ 85.3262492, 21.4719005 ], [ 85.3274676, 21.4712532 ], [ 85.3284916, 21.4736887 ], [ 85.3264678, 21.4738807 ], [ 85.3264417, 21.4749011 ], [ 85.3276304, 21.4772795 ], [ 85.3295237, 21.4766797 ], [ 85.3307157, 21.4813116 ], [ 85.3320752, 21.4818446 ], [ 85.3309376, 21.4838655 ], [ 85.3315102, 21.4861157 ], [ 85.3292099, 21.4872714 ], [ 85.3277368, 21.4899257 ], [ 85.328911, 21.491053 ], [ 85.3282844, 21.4939505 ], [ 85.3304952, 21.4951559 ], [ 85.3275167, 21.5007397 ], [ 85.3291679, 21.5048975 ], [ 85.3272283, 21.5073936 ], [ 85.3285483, 21.509701 ], [ 85.3266101, 21.5116461 ], [ 85.3257846, 21.5137784 ], [ 85.3267978, 21.5146512 ], [ 85.323998, 21.5188999 ], [ 85.3209112, 21.5203998 ], [ 85.3215869, 21.5225021 ], [ 85.3195157, 21.5313689 ], [ 85.3216394, 21.5343168 ], [ 85.320891, 21.5351627 ], [ 85.3113441, 21.5338607 ], [ 85.3078477, 21.531522 ], [ 85.3014238, 21.5310638 ], [ 85.3034293, 21.5379169 ], [ 85.3048352, 21.5390557 ], [ 85.3043114, 21.5405091 ], [ 85.3011188, 21.5410954 ], [ 85.2986204, 21.5458931 ], [ 85.300055, 21.5540998 ], [ 85.3044404, 21.5568316 ], [ 85.307677, 21.5570586 ], [ 85.3066188, 21.5592292 ], [ 85.3088076, 21.5624036 ], [ 85.308822, 21.5653167 ], [ 85.3108002, 21.5658335 ], [ 85.3125871, 21.5682768 ], [ 85.311505, 21.5695891 ], [ 85.3063844, 21.5690132 ], [ 85.306513, 21.5670906 ], [ 85.3027436, 21.5669845 ], [ 85.3033629, 21.5714301 ], [ 85.2958739, 21.5739685 ], [ 85.2894304, 21.5803784 ], [ 85.2895845, 21.5824664 ], [ 85.2863831, 21.5841134 ], [ 85.2860826, 21.5887348 ], [ 85.2825313, 21.5918768 ], [ 85.2830938, 21.5964987 ], [ 85.2917501, 21.6003586 ], [ 85.2886077, 21.6051764 ], [ 85.2832354, 21.6020999 ], [ 85.2824887, 21.6060347 ], [ 85.2787214, 21.6081273 ], [ 85.2745991, 21.6173197 ], [ 85.2666309, 21.6233606 ], [ 85.2622805, 21.6333632 ], [ 85.2657953, 21.6415783 ], [ 85.2628301, 21.6435434 ], [ 85.2628816, 21.6452916 ], [ 85.2607831, 21.6486837 ], [ 85.2580232, 21.6500321 ], [ 85.2577454, 21.6522601 ], [ 85.2551259, 21.6523681 ], [ 85.2525151, 21.6665884 ], [ 85.2529742, 21.6749973 ], [ 85.2476241, 21.6787343 ], [ 85.2427656, 21.6801551 ], [ 85.2362849, 21.6767175 ], [ 85.2257253, 21.6769571 ], [ 85.2189916, 21.6733173 ], [ 85.2160415, 21.6751327 ], [ 85.209221, 21.675416 ], [ 85.2018578, 21.6610257 ], [ 85.1983324, 21.6597682 ], [ 85.1911979, 21.6612665 ], [ 85.1863071, 21.6788112 ], [ 85.1869317, 21.6821779 ], [ 85.1906613, 21.6833656 ], [ 85.1920766, 21.6861086 ], [ 85.1928287, 21.6966838 ], [ 85.1894069, 21.7002185 ], [ 85.1879552, 21.7061815 ], [ 85.1842176, 21.7090577 ], [ 85.1912653, 21.7220229 ], [ 85.1986568, 21.7265199 ], [ 85.2053982, 21.7339719 ], [ 85.2127994, 21.739331 ], [ 85.2143256, 21.7472367 ], [ 85.2068186, 21.746871 ], [ 85.2044136, 21.7501911 ], [ 85.2000009, 21.7621551 ], [ 85.2023409, 21.7687375 ], [ 85.2095967, 21.7746417 ], [ 85.2090851, 21.7788584 ], [ 85.2114175, 21.7837561 ], [ 85.2152401, 21.7991242 ], [ 85.2215691, 21.8066164 ], [ 85.2251693, 21.8130991 ], [ 85.2268546, 21.8184008 ], [ 85.2262809, 21.8202235 ], [ 85.2310139, 21.8179894 ], [ 85.2315091, 21.8123182 ], [ 85.2396172, 21.8053511 ], [ 85.2428537, 21.8044418 ], [ 85.2553998, 21.8162393 ], [ 85.2712692, 21.8180998 ], [ 85.2807988, 21.8349036 ], [ 85.2828172, 21.8331634 ], [ 85.2907329, 21.8374093 ], [ 85.2963572, 21.8325949 ], [ 85.2973176, 21.8258264 ], [ 85.305096, 21.8244885 ], [ 85.3093941, 21.8196869 ], [ 85.3133199, 21.8197903 ], [ 85.3243086, 21.8239079 ], [ 85.3356075, 21.8234261 ], [ 85.3405826, 21.8248356 ], [ 85.3458885, 21.8294546 ], [ 85.3489463, 21.8394701 ], [ 85.3559246, 21.8484951 ], [ 85.359889, 21.8554756 ], [ 85.3597379, 21.857258 ], [ 85.3640394, 21.8597529 ], [ 85.3628206, 21.8699064 ], [ 85.3638671, 21.8748663 ], [ 85.3662564, 21.8770667 ], [ 85.3658921, 21.8844107 ], [ 85.3688466, 21.8913856 ], [ 85.3675422, 21.8996912 ], [ 85.3708024, 21.8993938 ], [ 85.3740706, 21.9026506 ], [ 85.3755827, 21.910564 ], [ 85.3727832, 21.9184393 ], [ 85.376572, 21.9244696 ], [ 85.3759081, 21.9364801 ], [ 85.368328, 21.9424158 ], [ 85.3529647, 21.9419374 ], [ 85.348119, 21.9465718 ], [ 85.3490636, 21.9486089 ], [ 85.3474241, 21.9497395 ], [ 85.3439764, 21.9485757 ], [ 85.341094, 21.9491744 ], [ 85.3406593, 21.9507505 ], [ 85.3369623, 21.9523027 ], [ 85.3353452, 21.9514916 ], [ 85.3350081, 21.9530101 ], [ 85.3302386, 21.9522842 ], [ 85.3228858, 21.9534783 ], [ 85.3139033, 21.9586158 ], [ 85.3090157, 21.9588726 ], [ 85.2986345, 21.952538 ], [ 85.2838498, 21.9542221 ], [ 85.2778377, 21.9586253 ], [ 85.2718926, 21.9606627 ], [ 85.2708852, 21.9642919 ], [ 85.2667051, 21.9680591 ], [ 85.2649174, 21.9749403 ], [ 85.2435269, 21.986806 ], [ 85.2314148, 21.9968105 ], [ 85.2330743, 22.0027426 ], [ 85.238734, 22.0091075 ], [ 85.2405618, 22.01363 ], [ 85.2441713, 22.0158062 ], [ 85.2517028, 22.0269722 ], [ 85.2585185, 22.0433431 ], [ 85.2627192, 22.0578817 ], [ 85.2670787, 22.0633709 ], [ 85.2708017, 22.0720966 ], [ 85.2726626, 22.0734355 ], [ 85.2751258, 22.0822889 ], [ 85.2813017, 22.0904281 ], [ 85.3008677, 22.107034 ], [ 85.3096498, 22.1179316 ], [ 85.3137169, 22.1202992 ], [ 85.3188431, 22.1208307 ], [ 85.3235121, 22.1276524 ], [ 85.3435376, 22.1273828 ], [ 85.346194, 22.1302637 ], [ 85.3505941, 22.1294999 ], [ 85.3575867, 22.1246255 ], [ 85.363935, 22.1234565 ], [ 85.365301, 22.1277197 ], [ 85.3608367, 22.1315135 ], [ 85.3618941, 22.1410976 ], [ 85.3602959, 22.1434796 ], [ 85.3634538, 22.1474806 ], [ 85.3639622, 22.1521416 ], [ 85.3665436, 22.1536261 ], [ 85.3654627, 22.1565463 ], [ 85.3661188, 22.1589145 ], [ 85.3713207, 22.1610258 ], [ 85.3751102, 22.1573742 ], [ 85.3839195, 22.1564818 ], [ 85.3920689, 22.1590326 ], [ 85.3972672, 22.1632023 ] ] ] } }
]
}
