{
"type": "FeatureCollection",
"name": "2107",
"crs": { "type": "name", "properties": { "name": "urn:ogc:def:crs:OGC:1.3:CRS84" } },
"features": [
{ "type": "Feature", "properties": { "code": "2107", "name": "Mayurbhanj", "type": "district" }, "geometry": { "type": "Polygon", "coordinates": [ [ [ 86.0454436, 22.5675074 ], [ 86.0513137, 22.5624791 ], [ 86.0648652, 22.5554856 ], [ 86.0684329, 22.5498695 ], [ 86.0754638, 22.544107 ], [ 86.0792495, 22.5375498 ], [ 86.0948748, 22.5194991 ], [ 86.0971542, 22.5103263 ], [ 86.1002437, 22.5081339 ], [ 86.1027498, 22.500243 ], [ 86.1116357, 22.4905874 ], [ 86.1166315, 22.4870038 ], [ 86.1191854, 22.4866565 ], [ 86.1237467, 22.4886054 ], [ 86.1337294, 22.4871282 ], [ 86.1503312, 22.4833503 ], [ 86.1511624, 22.4824597 ], [ 86.1502777, 22.4802076 ], [ 86.1563177, 22.4803646 ], [ 86.1604745, 22.4825498 ], [ 86.1705567, 22.4813825 ], [ 86.2002882, 22.4718037 ], [ 86.2079329, 22.4734856 ], [ 86.2138761, 22.466443 ], [ 86.2225778, 22.4672531 ], [ 86.2173987, 22.4626126 ], [ 86.2246802, 22.4525461 ], [ 86.237246, 22.4525879 ], [ 86.2466095, 22.4481377 ], [ 86.2520043, 22.4479189 ], [ 86.2565998, 22.4454062 ], [ 86.2639421, 22.445345 ], [ 86.268463, 22.4421722 ], [ 86.2764584, 22.4473212 ], [ 86.2813008, 22.4486617 ], [ 86.293027, 22.4266836 ], [ 86.2963329, 22.4240301 ], [ 86.3026433, 22.4222011 ], [ 86.3074531, 22.4153065 ], [ 86.3059577, 22.4122106 ], [ 86.3064369, 22.4096064 ], [ 86.320817, 22.3974088 ], [ 86.3227102, 22.3926425 ], [ 86.3206295, 22.3890203 ], [ 86.321157, 22.385418 ], [ 86.3285227, 22.3777972 ], [ 86.3346638, 22.3742678 ], [ 86.3402795, 22.3729222 ], [ 86.3501638, 22.3642943 ], [ 86.3531224, 22.3587911 ], [ 86.357606, 22.3542288 ], [ 86.3575488, 22.3497659 ], [ 86.3664208, 22.3442902 ], [ 86.377076, 22.3416304 ], [ 86.4082821, 22.320965 ], [ 86.4268073, 22.3175806 ], [ 86.4278636, 22.3121234 ], [ 86.4303437, 22.3074616 ], [ 86.4350126, 22.3065113 ], [ 86.4391698, 22.3035942 ], [ 86.4419352, 22.3064313 ], [ 86.4445963, 22.3123216 ], [ 86.4429585, 22.3176685 ], [ 86.4430652, 22.3262602 ], [ 86.4452686, 22.3289237 ], [ 86.4529197, 22.3253226 ], [ 86.4619469, 22.3261071 ], [ 86.4636167, 22.3287505 ], [ 86.4624274, 22.3299617 ], [ 86.4679563, 22.3302509 ], [ 86.4718147, 22.3357788 ], [ 86.4834638, 22.3381335 ], [ 86.4844506, 22.3431098 ], [ 86.4872598, 22.3476809 ], [ 86.492885, 22.3470798 ], [ 86.4941429, 22.3456563 ], [ 86.4967787, 22.3472319 ], [ 86.4985154, 22.3449834 ], [ 86.5021233, 22.3435852 ], [ 86.5035653, 22.3367599 ], [ 86.5074813, 22.3346534 ], [ 86.5071884, 22.3295664 ], [ 86.5081849, 22.327862 ], [ 86.5216875, 22.3234171 ], [ 86.5270908, 22.3235007 ], [ 86.5278265, 22.3154897 ], [ 86.5234857, 22.3156983 ], [ 86.523188, 22.3147308 ], [ 86.5257686, 22.3110299 ], [ 86.5254501, 22.3076051 ], [ 86.5327635, 22.3009592 ], [ 86.5393479, 22.3047633 ], [ 86.5407394, 22.3082408 ], [ 86.5438593, 22.3072107 ], [ 86.5474133, 22.3040136 ], [ 86.5484898, 22.3013606 ], [ 86.5540716, 22.2984716 ], [ 86.5573971, 22.2983181 ], [ 86.5616921, 22.3017175 ], [ 86.5688675, 22.3014386 ], [ 86.5708809, 22.3001882 ], [ 86.5719805, 22.2961754 ], [ 86.5768558, 22.2955649 ], [ 86.5778295, 22.2962224 ], [ 86.5768099, 22.3011207 ], [ 86.5822548, 22.3016452 ], [ 86.5850597, 22.2953557 ], [ 86.5873924, 22.2944085 ], [ 86.5879296, 22.2899923 ], [ 86.5927238, 22.2854421 ], [ 86.5939179, 22.2820438 ], [ 86.5924048, 22.2799486 ], [ 86.5930834, 22.2785591 ], [ 86.5997609, 22.2788738 ], [ 86.603523, 22.2820675 ], [ 86.6104794, 22.2833491 ], [ 86.6129417, 22.2810333 ], [ 86.6164072, 22.2810008 ], [ 86.6217713, 22.2770384 ], [ 86.6257896, 22.2735289 ], [ 86.6273096, 22.2695122 ], [ 86.6321821, 22.2732319 ], [ 86.6357649, 22.2728108 ], [ 86.6380018, 22.2711038 ], [ 86.6397099, 22.2655065 ], [ 86.6441327, 22.2686737 ], [ 86.6435071, 22.2646611 ], [ 86.6467277, 22.2653638 ], [ 86.649513, 22.2635314 ], [ 86.6546594, 22.2507319 ], [ 86.6512963, 22.2443826 ], [ 86.6524496, 22.2384402 ], [ 86.6542535, 22.236268 ], [ 86.6608207, 22.2367229 ], [ 86.6662397, 22.2416162 ], [ 86.6695867, 22.2425365 ], [ 86.6723943, 22.2402239 ], [ 86.6753055, 22.2292507 ], [ 86.6843381, 22.2224115 ], [ 86.7034597, 22.2211844 ], [ 86.7079372, 22.2233045 ], [ 86.7138518, 22.2200458 ], [ 86.7208597, 22.2204077 ], [ 86.724962, 22.2180201 ], [ 86.72208, 22.2106448 ], [ 86.7213287, 22.2039127 ], [ 86.7195189, 22.2021708 ], [ 86.7188865, 22.199051 ], [ 86.7212221, 22.1893867 ], [ 86.7163667, 22.1863191 ], [ 86.7160535, 22.1817225 ], [ 86.7192961, 22.1730421 ], [ 86.7192146, 22.1670412 ], [ 86.7178855, 22.1657957 ], [ 86.7197107, 22.1472815 ], [ 86.7276986, 22.1471774 ], [ 86.7358774, 22.1494298 ], [ 86.7649851, 22.1495065 ], [ 86.7796353, 22.153652 ], [ 86.7866444, 22.1537961 ], [ 86.7884063, 22.1577706 ], [ 86.7938453, 22.1574844 ], [ 86.7987151, 22.1521677 ], [ 86.8020072, 22.1507062 ], [ 86.8037438, 22.1387095 ], [ 86.8022929, 22.1328162 ], [ 86.7994105, 22.130372 ], [ 86.8014175, 22.1292441 ], [ 86.8025025, 22.1304683 ], [ 86.8047853, 22.1303338 ], [ 86.8099676, 22.1274101 ], [ 86.8064141, 22.1197053 ], [ 86.8189184, 22.1166441 ], [ 86.8246214, 22.1189219 ], [ 86.8346475, 22.1042631 ], [ 86.8337382, 22.0986998 ], [ 86.8436332, 22.0963089 ], [ 86.846617, 22.1004592 ], [ 86.8491659, 22.0999991 ], [ 86.8501537, 22.1037787 ], [ 86.8602181, 22.102326 ], [ 86.8641287, 22.0993507 ], [ 86.871145, 22.0996446 ], [ 86.9058514, 22.0919343 ], [ 86.9263848, 22.0900508 ], [ 86.9342922, 22.0904772 ], [ 86.9427064, 22.0865185 ], [ 86.9473185, 22.0858031 ], [ 86.9579597, 22.0885526 ], [ 86.9647071, 22.0857405 ], [ 86.9678188, 22.0801306 ], [ 86.9710297, 22.0783362 ], [ 86.9717476, 22.0723889 ], [ 86.9931417, 22.0552479 ], [ 86.9977565, 22.0540332 ], [ 87.0058787, 22.0487216 ], [ 87.0143997, 22.04768 ], [ 87.0190639, 22.0417769 ], [ 87.0266956, 22.0370857 ], [ 87.0223398, 22.0194861 ], [ 87.0274025, 22.0026555 ], [ 87.0309992, 21.9970522 ], [ 87.0316123, 21.9924378 ], [ 87.0303534, 21.9853431 ], [ 87.0291983, 21.9823351 ], [ 87.0212267, 21.9726715 ], [ 87.0171416, 21.9589191 ], [ 87.0128408, 21.9496007 ], [ 87.0093636, 21.9475313 ], [ 87.0058325, 21.9375256 ], [ 87.0046326, 21.9257211 ], [ 87.001454, 21.9245627 ], [ 87.0018629, 21.9218086 ], [ 87.0035579, 21.9204868 ], [ 86.9997218, 21.9132455 ], [ 87.0046846, 21.9101335 ], [ 87.0059273, 21.9054428 ], [ 87.0093821, 21.8997827 ], [ 87.0229262, 21.8923141 ], [ 87.0255669, 21.8868881 ], [ 87.0250968, 21.8810898 ], [ 87.0274781, 21.8797411 ], [ 87.0261649, 21.8757711 ], [ 87.0301135, 21.8744775 ], [ 87.0334593, 21.8701354 ], [ 87.0392412, 21.8686349 ], [ 87.0437399, 21.8691882 ], [ 87.0461307, 21.8675005 ], [ 87.049507, 21.8681704 ], [ 87.0613118, 21.8658726 ], [ 87.0739614, 21.8672408 ], [ 87.079288, 21.865951 ], [ 87.0842556, 21.8681243 ], [ 87.0909076, 21.8666809 ], [ 87.0978495, 21.8669374 ], [ 87.103085, 21.8591737 ], [ 87.1132486, 21.8550115 ], [ 87.1183179, 21.8550028 ], [ 87.1213511, 21.8487488 ], [ 87.122014, 21.8422012 ], [ 87.1293271, 21.839343 ], [ 87.1439762, 21.8301076 ], [ 87.1560225, 21.825351 ], [ 87.1764271, 21.8135062 ], [ 87.1790834, 21.8041943 ], [ 87.1816794, 21.8027665 ], [ 87.1829982, 21.7994381 ], [ 87.1835081, 21.7926599 ], [ 87.1800995, 21.7928642 ], [ 87.1799848, 21.7968064 ], [ 87.1757532, 21.8087786 ], [ 87.1728338, 21.8125455 ], [ 87.1685532, 21.809187 ], [ 87.1687219, 21.8072498 ], [ 87.1707717, 21.8060435 ], [ 87.1692754, 21.7987286 ], [ 87.1700918, 21.7959829 ], [ 87.1721029, 21.7952238 ], [ 87.1708989, 21.7947138 ], [ 87.1710663, 21.7889971 ], [ 87.1663224, 21.786054 ], [ 87.1618123, 21.7890038 ], [ 87.1618505, 21.7873285 ], [ 87.1644221, 21.7849708 ], [ 87.1622454, 21.780862 ], [ 87.1613396, 21.773854 ], [ 87.1587042, 21.77124 ], [ 87.1392173, 21.7750493 ], [ 87.1299496, 21.7789015 ], [ 87.1253761, 21.777005 ], [ 87.1264397, 21.7720243 ], [ 87.1219341, 21.7719881 ], [ 87.1216533, 21.7831733 ], [ 87.1175002, 21.7834078 ], [ 87.1151843, 21.7851236 ], [ 87.1128152, 21.7846448 ], [ 87.112409, 21.7856472 ], [ 87.1141155, 21.7878329 ], [ 87.118322, 21.78502 ], [ 87.1167458, 21.7871649 ], [ 87.1169874, 21.7892646 ], [ 87.1112144, 21.7889707 ], [ 87.108342, 21.7829735 ], [ 87.1038371, 21.7840252 ], [ 87.1057085, 21.7817225 ], [ 87.1015755, 21.7779875 ], [ 87.1032194, 21.7769175 ], [ 87.102205, 21.7716883 ], [ 87.1125947, 21.7655527 ], [ 87.1130154, 21.7638278 ], [ 87.1200976, 21.7585449 ], [ 87.1224905, 21.7553615 ], [ 87.12207, 21.7537088 ], [ 87.1145051, 21.7546838 ], [ 87.1114068, 21.7530308 ], [ 87.1071818, 21.7552791 ], [ 87.1043251, 21.7545427 ], [ 87.1037937, 21.7526461 ], [ 87.0973956, 21.746896 ], [ 87.0949686, 21.7474802 ], [ 87.0936694, 21.7423943 ], [ 87.0942859, 21.7387529 ], [ 87.0962575, 21.73699 ], [ 87.0959986, 21.7330284 ], [ 87.0862112, 21.7388658 ], [ 87.0834211, 21.7384109 ], [ 87.086064, 21.7351886 ], [ 87.0863042, 21.7325278 ], [ 87.0890985, 21.7321378 ], [ 87.0898783, 21.7342831 ], [ 87.0911002, 21.7321051 ], [ 87.0936627, 21.732072 ], [ 87.0928038, 21.7272117 ], [ 87.0916144, 21.7272124 ], [ 87.0916977, 21.7289154 ], [ 87.0878884, 21.7298707 ], [ 87.0882057, 21.726898 ], [ 87.0864694, 21.7257786 ], [ 87.0899339, 21.7226236 ], [ 87.0886234, 21.7220325 ], [ 87.0875849, 21.7156815 ], [ 87.0833808, 21.7188369 ], [ 87.0825506, 21.7211593 ], [ 87.0813032, 21.7210425 ], [ 87.0761948, 21.7151677 ], [ 87.0785473, 21.7118282 ], [ 87.0737464, 21.710805 ], [ 87.0714655, 21.7126852 ], [ 87.0726295, 21.7104531 ], [ 87.068978, 21.7070304 ], [ 87.0668614, 21.7085492 ], [ 87.0596579, 21.7073322 ], [ 87.0447426, 21.7161324 ], [ 87.0429093, 21.729125 ], [ 87.0443655, 21.7320158 ], [ 87.0423749, 21.7368138 ], [ 87.046104, 21.7407249 ], [ 87.0438457, 21.7398446 ], [ 87.0420716, 21.7413991 ], [ 87.0337018, 21.7411977 ], [ 87.0258109, 21.7430241 ], [ 87.0235473, 21.7386019 ], [ 87.0284159, 21.7363153 ], [ 87.0284831, 21.7342509 ], [ 87.0306683, 21.732972 ], [ 87.0296864, 21.7310342 ], [ 87.0304306, 21.7290781 ], [ 87.0282594, 21.7275199 ], [ 87.0310865, 21.7215564 ], [ 87.0338516, 21.720544 ], [ 87.0362598, 21.7225221 ], [ 87.03742, 21.7221017 ], [ 87.038062, 21.7186322 ], [ 87.0362777, 21.7171102 ], [ 87.036137, 21.7148605 ], [ 87.0388389, 21.7129536 ], [ 87.0393169, 21.7109161 ], [ 87.035154, 21.7081478 ], [ 87.0352209, 21.7051211 ], [ 87.0368591, 21.7028937 ], [ 87.0365, 21.6973463 ], [ 87.0416518, 21.6939209 ], [ 87.0428314, 21.6944266 ], [ 87.0428159, 21.6909662 ], [ 87.0465671, 21.6922391 ], [ 87.0480893, 21.6908654 ], [ 87.0463441, 21.6901114 ], [ 87.0464208, 21.6882593 ], [ 87.0508434, 21.6880005 ], [ 87.0526064, 21.6846525 ], [ 87.0518467, 21.6822269 ], [ 87.048858, 21.6772043 ], [ 87.0409611, 21.6785346 ], [ 87.0415258, 21.675964 ], [ 87.0383399, 21.6724864 ], [ 87.0341404, 21.6738606 ], [ 87.0318542, 21.6731202 ], [ 87.0305467, 21.6610181 ], [ 87.0280486, 21.6626765 ], [ 87.0236606, 21.6629618 ], [ 87.0248021, 21.6683961 ], [ 87.0258315, 21.6684953 ], [ 87.0246527, 21.6707678 ], [ 87.0252474, 21.6727238 ], [ 87.0218404, 21.6739259 ], [ 87.0199793, 21.670913 ], [ 87.0178768, 21.6700865 ], [ 87.0171376, 21.6715547 ], [ 87.01838, 21.6742019 ], [ 87.0110582, 21.6775003 ], [ 87.0103525, 21.6759599 ], [ 87.0082984, 21.6765744 ], [ 87.0088783, 21.6744014 ], [ 87.0073751, 21.6733941 ], [ 87.0070418, 21.6756664 ], [ 87.0022716, 21.6766649 ], [ 87.0020589, 21.6749844 ], [ 87.000725, 21.6759195 ], [ 86.9976463, 21.6733852 ], [ 86.9921802, 21.6738413 ], [ 86.9908077, 21.6732495 ], [ 86.9913055, 21.6719123 ], [ 86.9888842, 21.6716637 ], [ 86.9887056, 21.668881 ], [ 86.9906679, 21.6675032 ], [ 86.9912917, 21.6605735 ], [ 86.9887793, 21.6534357 ], [ 86.9938582, 21.6516606 ], [ 87.004523, 21.6523609 ], [ 87.0076253, 21.6511456 ], [ 87.0078523, 21.6483402 ], [ 87.010539, 21.6497179 ], [ 87.011834, 21.6488053 ], [ 87.0125096, 21.6379136 ], [ 87.0098276, 21.6331975 ], [ 87.0054646, 21.6321813 ], [ 87.0050151, 21.627334 ], [ 87.0027008, 21.6258433 ], [ 86.9991352, 21.6272528 ], [ 86.9986955, 21.6227714 ], [ 86.9976423, 21.6226901 ], [ 86.9951203, 21.6262273 ], [ 86.9975841, 21.6345485 ], [ 86.99282, 21.6360888 ], [ 86.9906459, 21.6336674 ], [ 86.9888582, 21.6334369 ], [ 86.9873896, 21.6302158 ], [ 86.9882256, 21.629362 ], [ 86.9869356, 21.6288063 ], [ 86.9890324, 21.6292446 ], [ 86.9931973, 21.6268822 ], [ 86.9934439, 21.6224054 ], [ 86.9879607, 21.6189402 ], [ 86.9949272, 21.6201919 ], [ 86.9988695, 21.6175357 ], [ 87.0010338, 21.6148568 ], [ 86.9968019, 21.610669 ], [ 86.9989952, 21.6110305 ], [ 87.0018936, 21.6050132 ], [ 87.0070285, 21.6014577 ], [ 87.0069028, 21.5993436 ], [ 87.0050286, 21.598526 ], [ 87.0032799, 21.5993211 ], [ 87.0011883, 21.5964164 ], [ 86.9951841, 21.5955986 ], [ 86.9913586, 21.5929828 ], [ 86.9897307, 21.5932719 ], [ 86.9925514, 21.5968454 ], [ 86.9918413, 21.5974236 ], [ 86.9885135, 21.5930324 ], [ 86.9849633, 21.5921783 ], [ 86.9837125, 21.5901001 ], [ 86.9773515, 21.587556 ], [ 86.9744394, 21.5849083 ], [ 86.9700004, 21.5855762 ], [ 86.9693573, 21.588797 ], [ 86.9632859, 21.5882176 ], [ 86.9638807, 21.5855388 ], [ 86.9603174, 21.5807223 ], [ 86.9579072, 21.5810154 ], [ 86.958254, 21.5843675 ], [ 86.9627436, 21.5934939 ], [ 86.9593332, 21.5940442 ], [ 86.9583855, 21.5973508 ], [ 86.9574727, 21.5969937 ], [ 86.9580433, 21.5950016 ], [ 86.9553669, 21.5962071 ], [ 86.952948, 21.5926421 ], [ 86.9562493, 21.5853066 ], [ 86.9552402, 21.5839194 ], [ 86.9522911, 21.5838617 ], [ 86.9523676, 21.5822728 ], [ 86.9529856, 21.5794043 ], [ 86.9561692, 21.5785755 ], [ 86.9573347, 21.5733806 ], [ 86.9478918, 21.5758129 ], [ 86.9470847, 21.5772989 ], [ 86.9421778, 21.5768817 ], [ 86.9413898, 21.5786839 ], [ 86.9291969, 21.583549 ], [ 86.927805, 21.5853554 ], [ 86.928325, 21.5867953 ], [ 86.9259273, 21.5875426 ], [ 86.9243729, 21.5905806 ], [ 86.9203151, 21.5914461 ], [ 86.9173038, 21.5864438 ], [ 86.9168038, 21.5824049 ], [ 86.9101345, 21.5809422 ], [ 86.9089764, 21.5870357 ], [ 86.9120886, 21.5922642 ], [ 86.9068752, 21.5946737 ], [ 86.9043324, 21.597508 ], [ 86.9043095, 21.5935732 ], [ 86.9021581, 21.5930124 ], [ 86.9010366, 21.5949102 ], [ 86.9019672, 21.5986715 ], [ 86.9059891, 21.5980297 ], [ 86.9067368, 21.5996022 ], [ 86.9045482, 21.6001972 ], [ 86.9041843, 21.6025597 ], [ 86.9019855, 21.6038911 ], [ 86.9027427, 21.6056443 ], [ 86.899427, 21.6082896 ], [ 86.8997091, 21.612482 ], [ 86.8920861, 21.6121565 ], [ 86.8888046, 21.6138439 ], [ 86.8875116, 21.6178681 ], [ 86.8885989, 21.6238906 ], [ 86.8843843, 21.625898 ], [ 86.8833568, 21.6239096 ], [ 86.8810838, 21.6267404 ], [ 86.8813338, 21.6282992 ], [ 86.8768477, 21.6315076 ], [ 86.8788777, 21.6360403 ], [ 86.8749426, 21.6384227 ], [ 86.8727176, 21.6356969 ], [ 86.8733186, 21.6224296 ], [ 86.8759055, 21.6199424 ], [ 86.8831352, 21.6171513 ], [ 86.8859795, 21.6125002 ], [ 86.8790853, 21.6130646 ], [ 86.8755719, 21.6032861 ], [ 86.8716187, 21.6051715 ], [ 86.8663949, 21.5913303 ], [ 86.8647084, 21.5922008 ], [ 86.8640388, 21.5902306 ], [ 86.862922, 21.5912777 ], [ 86.8637124, 21.5932345 ], [ 86.8623449, 21.5937574 ], [ 86.8628587, 21.5969336 ], [ 86.857268, 21.5989301 ], [ 86.854534, 21.6036124 ], [ 86.8507009, 21.6012825 ], [ 86.8471805, 21.6047939 ], [ 86.8471297, 21.6026029 ], [ 86.8455548, 21.6026918 ], [ 86.8445586, 21.5992395 ], [ 86.8379668, 21.601885 ], [ 86.8376165, 21.6040892 ], [ 86.8363764, 21.6028953 ], [ 86.8358992, 21.6062875 ], [ 86.8343545, 21.6052695 ], [ 86.8328741, 21.6071518 ], [ 86.8327424, 21.6041024 ], [ 86.8314865, 21.6040198 ], [ 86.8305264, 21.6070862 ], [ 86.8320232, 21.6078015 ], [ 86.8301089, 21.6089199 ], [ 86.8298224, 21.6059923 ], [ 86.8279441, 21.6052675 ], [ 86.823648, 21.6066002 ], [ 86.8205025, 21.6049788 ], [ 86.8073554, 21.6091345 ], [ 86.799092, 21.6075753 ], [ 86.7987416, 21.605935 ], [ 86.7938874, 21.6054638 ], [ 86.7937941, 21.6030694 ], [ 86.7925914, 21.6029956 ], [ 86.7928693, 21.6012025 ], [ 86.7959853, 21.6010257 ], [ 86.796326, 21.599192 ], [ 86.7947733, 21.5972204 ], [ 86.7814241, 21.602254 ], [ 86.7763291, 21.601416 ], [ 86.7741507, 21.6044127 ], [ 86.7721979, 21.6021332 ], [ 86.7679751, 21.6026424 ], [ 86.7656586, 21.601311 ], [ 86.7599542, 21.6039004 ], [ 86.7587147, 21.6056514 ], [ 86.7534224, 21.6071931 ], [ 86.7493335, 21.6056375 ], [ 86.7461108, 21.6059534 ], [ 86.7450264, 21.6045151 ], [ 86.7416258, 21.604406 ], [ 86.7401214, 21.6056053 ], [ 86.7352495, 21.6043282 ], [ 86.7345828, 21.5990598 ], [ 86.7223712, 21.5991438 ], [ 86.7203829, 21.5981647 ], [ 86.7199422, 21.5962395 ], [ 86.7186355, 21.5975654 ], [ 86.7183769, 21.596404 ], [ 86.7131137, 21.5954283 ], [ 86.7103157, 21.5887466 ], [ 86.7074608, 21.5869731 ], [ 86.7006553, 21.5864346 ], [ 86.6954165, 21.5878843 ], [ 86.6947802, 21.5849784 ], [ 86.6935349, 21.5845695 ], [ 86.68866, 21.5875014 ], [ 86.687241, 21.593778 ], [ 86.6829453, 21.5967107 ], [ 86.6758868, 21.586447 ], [ 86.6698421, 21.581091 ], [ 86.6662835, 21.5806321 ], [ 86.6641072, 21.5776733 ], [ 86.6493381, 21.5795764 ], [ 86.6478412, 21.5754578 ], [ 86.6496275, 21.5736953 ], [ 86.6500219, 21.5703667 ], [ 86.6488588, 21.5660275 ], [ 86.6462344, 21.5628823 ], [ 86.6486151, 21.5589301 ], [ 86.6429615, 21.5564289 ], [ 86.6419391, 21.5519409 ], [ 86.6399501, 21.5497773 ], [ 86.6380788, 21.5391165 ], [ 86.6392337, 21.5367925 ], [ 86.6378267, 21.533695 ], [ 86.6338129, 21.5323807 ], [ 86.6306695, 21.5343389 ], [ 86.6285211, 21.5323826 ], [ 86.6259101, 21.5338539 ], [ 86.6251421, 21.5320814 ], [ 86.6269863, 21.5283767 ], [ 86.6233018, 21.5286214 ], [ 86.6237038, 21.5243713 ], [ 86.6201312, 21.5262109 ], [ 86.6190877, 21.52273 ], [ 86.6161942, 21.5233468 ], [ 86.6113649, 21.5184252 ], [ 86.6081688, 21.5184448 ], [ 86.6044058, 21.521038 ], [ 86.599874, 21.5187007 ], [ 86.582473, 21.5227057 ], [ 86.5675619, 21.495816 ], [ 86.5608936, 21.4804347 ], [ 86.5597089, 21.4731449 ], [ 86.5495791, 21.4588653 ], [ 86.5421691, 21.4426229 ], [ 86.5319492, 21.4259929 ], [ 86.5218231, 21.4183027 ], [ 86.5080014, 21.4023882 ], [ 86.5020367, 21.3987928 ], [ 86.488876, 21.3839358 ], [ 86.4806569, 21.3771705 ], [ 86.4708045, 21.3728391 ], [ 86.4633214, 21.3669878 ], [ 86.4558233, 21.3653373 ], [ 86.4562815, 21.3640242 ], [ 86.4503339, 21.3618003 ], [ 86.447168, 21.3585554 ], [ 86.435654, 21.3530058 ], [ 86.4341224, 21.341192 ], [ 86.4298889, 21.3374327 ], [ 86.4264002, 21.3368697 ], [ 86.4204931, 21.3308592 ], [ 86.4136663, 21.3283058 ], [ 86.4046107, 21.3202012 ], [ 86.3936292, 21.3199406 ], [ 86.389781, 21.3178125 ], [ 86.3826884, 21.3099353 ], [ 86.3757017, 21.3068422 ], [ 86.370335, 21.3071474 ], [ 86.3657333, 21.3021564 ], [ 86.3624215, 21.3021981 ], [ 86.357962, 21.2993394 ], [ 86.359873, 21.3118467 ], [ 86.3543065, 21.3214066 ], [ 86.3427177, 21.3287297 ], [ 86.3275726, 21.3416574 ], [ 86.2952864, 21.3567081 ], [ 86.282621, 21.376951 ], [ 86.2760484, 21.3796828 ], [ 86.2657872, 21.3801984 ], [ 86.2638993, 21.3796752 ], [ 86.2677392, 21.368819 ], [ 86.265089, 21.3625734 ], [ 86.2504508, 21.3506597 ], [ 86.2492405, 21.3468865 ], [ 86.236936, 21.3308488 ], [ 86.2243061, 21.324024 ], [ 86.223644, 21.3179135 ], [ 86.2181935, 21.3102357 ], [ 86.218463, 21.3076079 ], [ 86.21604, 21.302727 ], [ 86.216117, 21.2973155 ], [ 86.2122822, 21.2951023 ], [ 86.2105272, 21.2897503 ], [ 86.205789, 21.2861864 ], [ 86.2052238, 21.2828364 ], [ 86.2063838, 21.281324 ], [ 86.198909, 21.2803219 ], [ 86.1942401, 21.2747704 ], [ 86.1890823, 21.2723018 ], [ 86.1849688, 21.2724958 ], [ 86.1829444, 21.2745489 ], [ 86.1732586, 21.2768822 ], [ 86.1585966, 21.2846877 ], [ 86.1592438, 21.2920765 ], [ 86.1559225, 21.2921368 ], [ 86.1498332, 21.2882257 ], [ 86.1428834, 21.2789797 ], [ 86.1397751, 21.2780921 ], [ 86.1352183, 21.2817955 ], [ 86.1351768, 21.2657995 ], [ 86.1322654, 21.2667377 ], [ 86.1307245, 21.2648776 ], [ 86.1270675, 21.2680345 ], [ 86.1245481, 21.2678542 ], [ 86.1232577, 21.2710363 ], [ 86.1140022, 21.2737348 ], [ 86.112457, 21.2766225 ], [ 86.1140309, 21.2834022 ], [ 86.109993, 21.2888467 ], [ 86.110622, 21.2908511 ], [ 86.1084272, 21.2927458 ], [ 86.1090734, 21.2958886 ], [ 86.1064787, 21.2961413 ], [ 86.1051372, 21.2987725 ], [ 86.1059507, 21.3045228 ], [ 86.0964706, 21.3058452 ], [ 86.0924945, 21.3080826 ], [ 86.0917246, 21.3133274 ], [ 86.089015, 21.3126262 ], [ 86.0944979, 21.3162381 ], [ 86.0963328, 21.3189131 ], [ 86.0961225, 21.3233344 ], [ 86.1012409, 21.3227836 ], [ 86.1021489, 21.3256885 ], [ 86.1035801, 21.324996 ], [ 86.1046318, 21.3264787 ], [ 86.1037354, 21.3288003 ], [ 86.1078581, 21.3366777 ], [ 86.10856, 21.3417995 ], [ 86.1080055, 21.3457853 ], [ 86.1042692, 21.3496728 ], [ 86.1044254, 21.3509384 ], [ 86.1108044, 21.3550017 ], [ 86.1247312, 21.3605588 ], [ 86.1233478, 21.3653441 ], [ 86.1212819, 21.3656632 ], [ 86.1221353, 21.368911 ], [ 86.1197773, 21.3713289 ], [ 86.1350437, 21.3995418 ], [ 86.1412546, 21.4056223 ], [ 86.1534643, 21.4121893 ], [ 86.1612633, 21.4234176 ], [ 86.1576291, 21.4261866 ], [ 86.1558423, 21.4323706 ], [ 86.1509615, 21.4404183 ], [ 86.147641, 21.4422445 ], [ 86.1448945, 21.4474113 ], [ 86.1370338, 21.4524349 ], [ 86.1348741, 21.4553555 ], [ 86.1348308, 21.4626912 ], [ 86.1309988, 21.466041 ], [ 86.1286242, 21.4717747 ], [ 86.1263693, 21.473588 ], [ 86.0911171, 21.4966905 ], [ 86.0783036, 21.4995426 ], [ 86.0765105, 21.5014437 ], [ 86.0675733, 21.5041495 ], [ 86.0342112, 21.5222266 ], [ 86.0062871, 21.5338885 ], [ 86.01061, 21.5428536 ], [ 86.0162139, 21.5502314 ], [ 86.0187104, 21.5516374 ], [ 86.0188739, 21.5538924 ], [ 86.0157478, 21.5613451 ], [ 86.018973, 21.5628457 ], [ 86.0207396, 21.5658283 ], [ 86.026181, 21.5695686 ], [ 86.0270418, 21.5722704 ], [ 86.0294912, 21.5713858 ], [ 86.0344736, 21.5722956 ], [ 86.0410274, 21.5766066 ], [ 86.0459536, 21.5772898 ], [ 86.0488489, 21.5828217 ], [ 86.0477704, 21.5860136 ], [ 86.0502301, 21.5857838 ], [ 86.0511726, 21.5878986 ], [ 86.0508489, 21.5901371 ], [ 86.0488749, 21.5906859 ], [ 86.0502972, 21.5947595 ], [ 86.0566521, 21.5979305 ], [ 86.0587309, 21.6028659 ], [ 86.0683789, 21.608562 ], [ 86.0656746, 21.6137188 ], [ 86.0706746, 21.6174418 ], [ 86.071508, 21.6238516 ], [ 86.0750006, 21.6253933 ], [ 86.0791326, 21.6304799 ], [ 86.0784106, 21.6331048 ], [ 86.0810432, 21.6369859 ], [ 86.0745684, 21.6416793 ], [ 86.0726281, 21.6451511 ], [ 86.0739467, 21.660363 ], [ 86.0725159, 21.6614563 ], [ 86.072149, 21.6641786 ], [ 86.0734562, 21.6713274 ], [ 86.0762329, 21.6746812 ], [ 86.076069, 21.6791657 ], [ 86.0815859, 21.687878 ], [ 86.0820822, 21.6919325 ], [ 86.0783431, 21.6954441 ], [ 86.0756446, 21.6941779 ], [ 86.075587, 21.695623 ], [ 86.0729687, 21.6954277 ], [ 86.0712434, 21.6946411 ], [ 86.0708836, 21.6897063 ], [ 86.0649824, 21.6882096 ], [ 86.0567702, 21.6942881 ], [ 86.0550536, 21.6995861 ], [ 86.0563455, 21.7023489 ], [ 86.056091, 21.7057938 ], [ 86.051085, 21.7107204 ], [ 86.0499499, 21.7179411 ], [ 86.0488387, 21.7178759 ], [ 86.04904, 21.7159078 ], [ 86.0389972, 21.7046971 ], [ 86.0361585, 21.6939889 ], [ 86.0337229, 21.6917886 ], [ 86.0321798, 21.6905555 ], [ 86.0241205, 21.6959513 ], [ 86.0248432, 21.7020217 ], [ 86.0234768, 21.7075292 ], [ 86.0254836, 21.7124283 ], [ 86.0275708, 21.7247898 ], [ 86.0224339, 21.7266701 ], [ 86.0187362, 21.7316035 ], [ 86.019091, 21.7398581 ], [ 86.0156793, 21.7431715 ], [ 86.01479, 21.7452844 ], [ 86.0166458, 21.7460723 ], [ 86.0144817, 21.7458022 ], [ 86.0151498, 21.7485073 ], [ 86.0128659, 21.7515921 ], [ 86.0098292, 21.7516506 ], [ 86.009322, 21.7473298 ], [ 86.0057275, 21.7469378 ], [ 86.0053766, 21.7452597 ], [ 86.0019474, 21.7496385 ], [ 85.9956083, 21.7427435 ], [ 85.9944361, 21.7472216 ], [ 85.9928904, 21.7484003 ], [ 85.9900592, 21.746016 ], [ 85.9882104, 21.7469895 ], [ 85.9837893, 21.7459053 ], [ 85.9833135, 21.7441138 ], [ 85.9797877, 21.7429268 ], [ 85.976772, 21.7393488 ], [ 85.9749538, 21.7407515 ], [ 85.9752714, 21.7436803 ], [ 85.9730572, 21.7402653 ], [ 85.9704711, 21.7388581 ], [ 85.9702251, 21.7414943 ], [ 85.9684729, 21.7424591 ], [ 85.9658821, 21.7396741 ], [ 85.9615678, 21.7446247 ], [ 85.9591185, 21.7443609 ], [ 85.9587785, 21.7465722 ], [ 85.9567637, 21.748398 ], [ 85.9516149, 21.7476789 ], [ 85.9520572, 21.7520315 ], [ 85.948183, 21.7508822 ], [ 85.94736, 21.7536774 ], [ 85.9409456, 21.7567396 ], [ 85.9362533, 21.7635886 ], [ 85.9325546, 21.7622323 ], [ 85.9262954, 21.763845 ], [ 85.9201027, 21.763642 ], [ 85.9174731, 21.760305 ], [ 85.9165781, 21.762946 ], [ 85.9116911, 21.7653078 ], [ 85.9116243, 21.7677644 ], [ 85.9094507, 21.770641 ], [ 85.9082604, 21.770746 ], [ 85.9049141, 21.7669253 ], [ 85.9002497, 21.7673189 ], [ 85.9017576, 21.7712403 ], [ 85.8945242, 21.7780939 ], [ 85.8932345, 21.7816807 ], [ 85.8909383, 21.7834404 ], [ 85.8851196, 21.782945 ], [ 85.8827007, 21.7905485 ], [ 85.8732334, 21.7958678 ], [ 85.8686865, 21.7971919 ], [ 85.863747, 21.7961327 ], [ 85.8601992, 21.7983171 ], [ 85.860106, 21.8003307 ], [ 85.8575556, 21.8005253 ], [ 85.8553941, 21.8022945 ], [ 85.8457927, 21.8035873 ], [ 85.8452788, 21.8055439 ], [ 85.8383537, 21.8108161 ], [ 85.8309755, 21.8092645 ], [ 85.8284305, 21.8052175 ], [ 85.8253456, 21.8033302 ], [ 85.823877, 21.8072628 ], [ 85.8177927, 21.8078156 ], [ 85.8148493, 21.8104867 ], [ 85.8094281, 21.8115407 ], [ 85.8093363, 21.819715 ], [ 85.8055277, 21.8310019 ], [ 85.8062999, 21.8347158 ], [ 85.8093591, 21.8391732 ], [ 85.8091261, 21.8521163 ], [ 85.8033344, 21.8626117 ], [ 85.8028516, 21.8711898 ], [ 85.8002123, 21.8766538 ], [ 85.8043968, 21.8843489 ], [ 85.8048528, 21.8882861 ], [ 85.7878276, 21.9037486 ], [ 85.7882988, 21.9104231 ], [ 85.792567, 21.9208472 ], [ 85.7943805, 21.9325493 ], [ 85.7923612, 21.9469561 ], [ 85.7937673, 21.9513022 ], [ 85.7846875, 21.9612035 ], [ 85.7756109, 21.9592888 ], [ 85.7724095, 21.9644725 ], [ 85.7662765, 21.9687533 ], [ 85.7664079, 21.9720422 ], [ 85.764827, 21.9740039 ], [ 85.7586339, 21.9734197 ], [ 85.7529972, 21.9773381 ], [ 85.7467369, 21.9772226 ], [ 85.7450651, 21.9806696 ], [ 85.7461856, 21.9870646 ], [ 85.7371883, 21.9930339 ], [ 85.7315208, 21.9931844 ], [ 85.7267785, 21.9889834 ], [ 85.7152453, 21.9881981 ], [ 85.7074983, 21.9848445 ], [ 85.705433, 21.9851039 ], [ 85.6970738, 21.9926211 ], [ 85.7024626, 22.0007392 ], [ 85.7021123, 22.0051806 ], [ 85.6942652, 22.0100502 ], [ 85.6850571, 22.0080346 ], [ 85.6802046, 22.0100686 ], [ 85.6749359, 22.0146599 ], [ 85.6691161, 22.0149515 ], [ 85.6621518, 22.0339584 ], [ 85.6665002, 22.0387903 ], [ 85.6736801, 22.0423624 ], [ 85.6731951, 22.0517751 ], [ 85.6773242, 22.0569579 ], [ 85.6862883, 22.0541299 ], [ 85.689381, 22.0560515 ], [ 85.6905751, 22.0615937 ], [ 85.6930763, 22.062526 ], [ 85.7009426, 22.061726 ], [ 85.7091675, 22.0582277 ], [ 85.7133685, 22.0624836 ], [ 85.7180023, 22.0617431 ], [ 85.7205364, 22.0638947 ], [ 85.7302049, 22.0652798 ], [ 85.7401455, 22.0709842 ], [ 85.7493923, 22.0735663 ], [ 85.7570506, 22.0783083 ], [ 85.7573979, 22.0845843 ], [ 85.7638835, 22.0888473 ], [ 85.767295, 22.0927844 ], [ 85.7809927, 22.0965003 ], [ 85.7901687, 22.1048427 ], [ 85.7973185, 22.104751 ], [ 85.7975493, 22.108402 ], [ 85.8011673, 22.1098603 ], [ 85.8074254, 22.1161119 ], [ 85.8210436, 22.1064957 ], [ 85.8194294, 22.1030244 ], [ 85.8161434, 22.1012707 ], [ 85.8130524, 22.0964879 ], [ 85.8133179, 22.0942948 ], [ 85.8197556, 22.0964326 ], [ 85.8217671, 22.0946585 ], [ 85.832685, 22.0930432 ], [ 85.8340993, 22.0907859 ], [ 85.8341061, 22.0852397 ], [ 85.8358633, 22.0801575 ], [ 85.8309539, 22.0790204 ], [ 85.8226618, 22.0744263 ], [ 85.8174658, 22.0745876 ], [ 85.8161126, 22.0735706 ], [ 85.7934374, 22.0818101 ], [ 85.7749422, 22.0562853 ], [ 85.7787263, 22.0455553 ], [ 85.7837575, 22.0401819 ], [ 85.7795892, 22.0296726 ], [ 85.7749615, 22.0287167 ], [ 85.7671593, 22.0234867 ], [ 85.7607995, 22.0145367 ], [ 85.7585669, 22.009493 ], [ 85.7625084, 22.001253 ], [ 85.7629934, 21.996144 ], [ 85.7749119, 21.9905336 ], [ 85.7827517, 21.9849462 ], [ 85.7858429, 21.9870422 ], [ 85.7904055, 21.9858203 ], [ 85.8053684, 21.9894213 ], [ 85.8104551, 21.9863147 ], [ 85.8169925, 21.9857748 ], [ 85.8186822, 21.9840616 ], [ 85.8209015, 21.9774563 ], [ 85.8243707, 21.9754487 ], [ 85.832583, 21.9772823 ], [ 85.8361373, 21.9808531 ], [ 85.8532084, 21.9837646 ], [ 85.8642582, 21.9814928 ], [ 85.8820753, 21.9801382 ], [ 85.8915876, 21.981219 ], [ 85.8936956, 21.9822856 ], [ 85.8938536, 21.9843914 ], [ 85.8957663, 21.9844133 ], [ 85.89636, 21.9832377 ], [ 85.8987107, 21.9831639 ], [ 85.9000894, 21.9795824 ], [ 85.9023025, 21.978328 ], [ 85.9021788, 21.9755223 ], [ 85.9058693, 21.9703889 ], [ 85.9082496, 21.9706667 ], [ 85.9110782, 21.9731245 ], [ 85.9111571, 21.9742091 ], [ 85.90656, 21.9769472 ], [ 85.9118913, 21.980167 ], [ 85.910622, 21.981509 ], [ 85.9114233, 21.9843915 ], [ 85.9095324, 21.9878478 ], [ 85.9122071, 21.997188 ], [ 85.9143701, 22.0018997 ], [ 85.9161313, 22.0027695 ], [ 85.9161535, 22.0087768 ], [ 85.9229547, 22.0112381 ], [ 85.9308803, 22.0233406 ], [ 85.9362994, 22.0228971 ], [ 85.9435942, 22.0203562 ], [ 85.9650388, 22.0523676 ], [ 85.9687715, 22.0607968 ], [ 85.9804378, 22.0752105 ], [ 85.9864165, 22.0889695 ], [ 85.9925067, 22.0946801 ], [ 86.0038054, 22.1138597 ], [ 86.0073843, 22.1170929 ], [ 86.0070145, 22.1186715 ], [ 85.9971661, 22.1280241 ], [ 85.9967615, 22.132448 ], [ 85.9987742, 22.1330205 ], [ 85.9994728, 22.1356941 ], [ 86.0035131, 22.1395671 ], [ 86.0055137, 22.150862 ], [ 86.0152618, 22.1616574 ], [ 86.0172292, 22.1716196 ], [ 86.031432, 22.190851 ], [ 86.0310822, 22.1930666 ], [ 86.0183673, 22.2053301 ], [ 86.0028634, 22.2138311 ], [ 85.9913134, 22.2267634 ], [ 85.9856744, 22.2371392 ], [ 85.9809217, 22.2389116 ], [ 85.9738759, 22.2470785 ], [ 85.9897035, 22.2544088 ], [ 85.9906412, 22.2569395 ], [ 85.9877143, 22.2631542 ], [ 85.9883225, 22.2669745 ], [ 85.9906069, 22.2698433 ], [ 85.994023, 22.2712285 ], [ 85.9987068, 22.277242 ], [ 86.004097, 22.2801793 ], [ 86.0070406, 22.2846101 ], [ 86.0061086, 22.2873912 ], [ 86.014251, 22.2972871 ], [ 86.0189811, 22.3003781 ], [ 86.0221773, 22.300027 ], [ 86.024965, 22.3025957 ], [ 86.0288175, 22.3006992 ], [ 86.029418, 22.3030018 ], [ 86.0328914, 22.3032935 ], [ 86.0340995, 22.3061868 ], [ 86.0405787, 22.3063201 ], [ 86.0472059, 22.3089563 ], [ 86.0471647, 22.3114492 ], [ 86.0440805, 22.311002 ], [ 86.0406726, 22.3124588 ], [ 86.0381483, 22.3103572 ], [ 86.0323562, 22.311217 ], [ 86.0289148, 22.307687 ], [ 86.0273455, 22.3093036 ], [ 86.0225663, 22.3089994 ], [ 86.0160485, 22.3143709 ], [ 86.0137033, 22.3130694 ], [ 86.0130578, 22.3178892 ], [ 86.0107479, 22.3184759 ], [ 86.0119344, 22.3223177 ], [ 86.0220652, 22.3321486 ], [ 86.0267119, 22.334864 ], [ 86.0195606, 22.3390259 ], [ 86.0187743, 22.3382939 ], [ 86.0107525, 22.3412261 ], [ 86.0082929, 22.3409536 ], [ 86.0094873, 22.3395743 ], [ 86.0078251, 22.337762 ], [ 86.0033829, 22.3356842 ], [ 86.0003836, 22.3378878 ], [ 85.9980567, 22.3418391 ], [ 85.9982127, 22.3451463 ], [ 86.004142, 22.3470572 ], [ 86.0075335, 22.3515133 ], [ 86.0108006, 22.3522921 ], [ 86.0146722, 22.3596507 ], [ 86.0191891, 22.3608976 ], [ 86.019297, 22.3628178 ], [ 86.0218776, 22.365295 ], [ 86.0201327, 22.3717657 ], [ 86.0210634, 22.3761841 ], [ 86.0221803, 22.3768864 ], [ 86.02475, 22.3753934 ], [ 86.0247831, 22.3790069 ], [ 86.0271277, 22.3805611 ], [ 86.0252076, 22.3836118 ], [ 86.0271953, 22.3862118 ], [ 86.0233902, 22.3900099 ], [ 86.0239496, 22.3926691 ], [ 86.0226747, 22.3937137 ], [ 86.0243717, 22.3962217 ], [ 86.0208723, 22.3972393 ], [ 86.0203375, 22.4007861 ], [ 86.0183293, 22.4024677 ], [ 86.0192465, 22.4074324 ], [ 86.0178829, 22.4100122 ], [ 86.0177952, 22.4169581 ], [ 86.0150015, 22.4287294 ], [ 86.0106868, 22.430189 ], [ 86.0027465, 22.4263688 ], [ 85.9846132, 22.435447 ], [ 85.9728813, 22.4471699 ], [ 85.9656364, 22.4511524 ], [ 85.9678847, 22.4611935 ], [ 85.9603464, 22.4613889 ], [ 85.9571234, 22.4648187 ], [ 85.9625989, 22.472794 ], [ 85.9627403, 22.4851205 ], [ 85.9683888, 22.4862949 ], [ 85.9723294, 22.4916947 ], [ 85.9709604, 22.4973948 ], [ 85.9735297, 22.4996242 ], [ 85.9734034, 22.505855 ], [ 85.9781482, 22.5084211 ], [ 85.9800068, 22.5113594 ], [ 85.98179, 22.5109202 ], [ 85.9851371, 22.5154783 ], [ 85.9885098, 22.515336 ], [ 85.9896141, 22.5166899 ], [ 85.9938742, 22.5144021 ], [ 86.001026, 22.5145751 ], [ 86.0040949, 22.5177557 ], [ 86.0209109, 22.5273164 ], [ 86.0265298, 22.5240218 ], [ 86.0323889, 22.5308681 ], [ 86.0338368, 22.53449 ], [ 86.0240271, 22.5446246 ], [ 86.0321669, 22.5550301 ], [ 86.0454436, 22.5675074 ] ] ] } }
]
}
