{
"type": "FeatureCollection",
"name": "2111",
"crs": { "type": "name", "properties": { "name": "urn:ogc:def:crs:OGC:1.3:CRS84" } },
"features": [
{ "type": "Feature", "properties": { "code": "2111", "name": "Jagatsinghapur", "type": "district" }, "geometry": { "type": "Polygon", "coordinates": [ [ [ 86.0278854, 20.3964148 ], [ 86.0313082, 20.3938316 ], [ 86.0355178, 20.3980338 ], [ 86.0414823, 20.3958666 ], [ 86.0452095, 20.3959367 ], [ 86.0672812, 20.3828375 ], [ 86.0689681, 20.3779809 ], [ 86.0729593, 20.3730959 ], [ 86.0781466, 20.3716687 ], [ 86.0799585, 20.3739463 ], [ 86.0893334, 20.3618291 ], [ 86.0939275, 20.3618034 ], [ 86.0977698, 20.3658756 ], [ 86.1010557, 20.3667871 ], [ 86.1039506, 20.3740168 ], [ 86.1099347, 20.3722809 ], [ 86.1136081, 20.3691192 ], [ 86.1115219, 20.3678436 ], [ 86.1063295, 20.3693938 ], [ 86.1058933, 20.366943 ], [ 86.1074208, 20.3653831 ], [ 86.1198969, 20.3600884 ], [ 86.1302985, 20.3572356 ], [ 86.1373942, 20.3570269 ], [ 86.1450157, 20.3613471 ], [ 86.1556742, 20.3702495 ], [ 86.159888, 20.3759169 ], [ 86.1645332, 20.3789752 ], [ 86.1863823, 20.3767879 ], [ 86.1900882, 20.3754272 ], [ 86.1987999, 20.3630073 ], [ 86.2058161, 20.3671551 ], [ 86.2160785, 20.3613509 ], [ 86.2211849, 20.3604702 ], [ 86.229268, 20.3620829 ], [ 86.2380452, 20.3658259 ], [ 86.254359, 20.3645501 ], [ 86.2569248, 20.366969 ], [ 86.2574474, 20.3658643 ], [ 86.2619076, 20.3658697 ], [ 86.2651293, 20.3674239 ], [ 86.2646334, 20.3689489 ], [ 86.2665525, 20.3693681 ], [ 86.2671227, 20.3713944 ], [ 86.2691057, 20.372478 ], [ 86.2711657, 20.3694506 ], [ 86.2741679, 20.3677644 ], [ 86.2710941, 20.3632699 ], [ 86.2711898, 20.3602433 ], [ 86.2729999, 20.3593744 ], [ 86.2731675, 20.3573465 ], [ 86.2778422, 20.3564804 ], [ 86.2790036, 20.3611883 ], [ 86.2879252, 20.3629372 ], [ 86.3020356, 20.3550744 ], [ 86.3052702, 20.3548388 ], [ 86.3072806, 20.3551811 ], [ 86.3095038, 20.3615782 ], [ 86.3117354, 20.3606834 ], [ 86.3145953, 20.3541844 ], [ 86.3176233, 20.3540878 ], [ 86.3187363, 20.3558767 ], [ 86.3250092, 20.3576134 ], [ 86.3242957, 20.3597475 ], [ 86.3256873, 20.3647226 ], [ 86.3246446, 20.3654054 ], [ 86.3248069, 20.3688532 ], [ 86.3358915, 20.3703504 ], [ 86.3396396, 20.3677217 ], [ 86.3459712, 20.3602231 ], [ 86.3484867, 20.3532703 ], [ 86.3497663, 20.3531442 ], [ 86.3487747, 20.3508499 ], [ 86.3591857, 20.3504592 ], [ 86.3608392, 20.3549064 ], [ 86.3593465, 20.3567623 ], [ 86.3600543, 20.3582242 ], [ 86.3664269, 20.3555954 ], [ 86.3692134, 20.3571731 ], [ 86.3701145, 20.3594038 ], [ 86.3748338, 20.3568817 ], [ 86.3792031, 20.3568205 ], [ 86.3816264, 20.3545881 ], [ 86.3895907, 20.353943 ], [ 86.3917575, 20.3572397 ], [ 86.3894033, 20.3626304 ], [ 86.3937765, 20.3652615 ], [ 86.4002928, 20.3601199 ], [ 86.4059266, 20.3588561 ], [ 86.4124358, 20.3591719 ], [ 86.411758, 20.3522209 ], [ 86.4218702, 20.3458572 ], [ 86.4234839, 20.3421668 ], [ 86.4280531, 20.3423263 ], [ 86.4336277, 20.346587 ], [ 86.4316751, 20.3355929 ], [ 86.4411483, 20.337277 ], [ 86.4482525, 20.3317017 ], [ 86.4522048, 20.3301193 ], [ 86.4592009, 20.3306426 ], [ 86.4682311, 20.335848 ], [ 86.4733291, 20.3368393 ], [ 86.4810204, 20.3329452 ], [ 86.4987915, 20.3282892 ], [ 86.5116214, 20.3349716 ], [ 86.516579, 20.3411435 ], [ 86.5202956, 20.3413254 ], [ 86.5212188, 20.3386035 ], [ 86.5302991, 20.3376161 ], [ 86.5354979, 20.3322626 ], [ 86.5366577, 20.3336346 ], [ 86.5386438, 20.3325917 ], [ 86.5381951, 20.3304759 ], [ 86.5485636, 20.3243857 ], [ 86.5600773, 20.3263171 ], [ 86.5667492, 20.3315386 ], [ 86.5772873, 20.3366563 ], [ 86.5886044, 20.3355312 ], [ 86.5894403, 20.338253 ], [ 86.5941708, 20.3409026 ], [ 86.5991979, 20.3418766 ], [ 86.5978091, 20.3398945 ], [ 86.6046703, 20.3411074 ], [ 86.6184975, 20.3360959 ], [ 86.6411305, 20.3340113 ], [ 86.6639637, 20.3277133 ], [ 86.664378, 20.328803 ], [ 86.6788151, 20.3192878 ], [ 86.6818481, 20.3186472 ], [ 86.6806898, 20.31602 ], [ 86.6841516, 20.3117161 ], [ 86.6889569, 20.3013601 ], [ 86.6920085, 20.2983654 ], [ 86.6974852, 20.2969155 ], [ 86.7233787, 20.2984222 ], [ 86.7649567, 20.3247652 ], [ 86.7713156, 20.3293053 ], [ 86.779131, 20.3372944 ], [ 86.7797166, 20.3364458 ], [ 86.7726957, 20.3288689 ], [ 86.7509657, 20.3128405 ], [ 86.7499998, 20.3089129 ], [ 86.7475269, 20.3069665 ], [ 86.7138788, 20.2857065 ], [ 86.7034086, 20.2820114 ], [ 86.6811552, 20.2710655 ], [ 86.6800271, 20.2701506 ], [ 86.6798383, 20.264218 ], [ 86.679453, 20.2675743 ], [ 86.6756811, 20.2671111 ], [ 86.673645, 20.2699628 ], [ 86.6755065, 20.2751079 ], [ 86.6732433, 20.2766489 ], [ 86.6719302, 20.2748843 ], [ 86.6692519, 20.2757197 ], [ 86.6676191, 20.2734123 ], [ 86.6678769, 20.2715875 ], [ 86.6682628, 20.270174 ], [ 86.6711854, 20.2692759 ], [ 86.6727634, 20.2657546 ], [ 86.672119, 20.2625004 ], [ 86.677391, 20.2599078 ], [ 86.6801869, 20.2599445 ], [ 86.6777368, 20.2593798 ], [ 86.6741832, 20.2598658 ], [ 86.6565002, 20.2542745 ], [ 86.5955698, 20.224465 ], [ 86.5757585, 20.2101545 ], [ 86.5390945, 20.1864775 ], [ 86.5238256, 20.1734472 ], [ 86.5126598, 20.1587779 ], [ 86.4977337, 20.1267972 ], [ 86.4768988, 20.0973461 ], [ 86.4339645, 20.0521407 ], [ 86.4339518, 20.0463484 ], [ 86.4260272, 20.035163 ], [ 86.414037, 20.0106534 ], [ 86.4132694, 20.0015312 ], [ 86.4149108, 19.9992661 ], [ 86.4140242, 19.9973158 ], [ 86.4043757, 19.9918302 ], [ 86.3935204, 19.9821562 ], [ 86.3900734, 19.9812317 ], [ 86.3896465, 19.9766849 ], [ 86.3846117, 19.9760938 ], [ 86.3779974, 19.9668335 ], [ 86.3735509, 19.9764273 ], [ 86.3551191, 19.9728606 ], [ 86.3495884, 19.9743214 ], [ 86.3430604, 19.9789465 ], [ 86.3351959, 19.9899279 ], [ 86.331248, 20.0024199 ], [ 86.3227873, 20.0184742 ], [ 86.3164412, 20.0213143 ], [ 86.3135367, 20.0253196 ], [ 86.308391, 20.0246671 ], [ 86.2951142, 20.0293361 ], [ 86.292058, 20.0328977 ], [ 86.2790731, 20.0404086 ], [ 86.2733321, 20.0423097 ], [ 86.2697744, 20.0414547 ], [ 86.2695181, 20.0441283 ], [ 86.2754125, 20.0473649 ], [ 86.2781281, 20.0546908 ], [ 86.2738513, 20.0552244 ], [ 86.2650257, 20.0509952 ], [ 86.2610106, 20.0528218 ], [ 86.2537169, 20.0533198 ], [ 86.2427816, 20.0365159 ], [ 86.2384156, 20.0397591 ], [ 86.2312363, 20.0414585 ], [ 86.2302152, 20.0429948 ], [ 86.2280672, 20.0422987 ], [ 86.2238007, 20.0368719 ], [ 86.2203423, 20.0353342 ], [ 86.2113657, 20.0398666 ], [ 86.2128103, 20.0416034 ], [ 86.2113982, 20.0429028 ], [ 86.2072034, 20.042369 ], [ 86.206492, 20.0393388 ], [ 86.2048027, 20.0387348 ], [ 86.2026889, 20.042665 ], [ 86.2065409, 20.0429307 ], [ 86.2068921, 20.0453359 ], [ 86.2011969, 20.0474654 ], [ 86.2009049, 20.0522577 ], [ 86.1989351, 20.0512954 ], [ 86.1971378, 20.0521638 ], [ 86.1943828, 20.0495625 ], [ 86.191566, 20.0515962 ], [ 86.1879827, 20.0501702 ], [ 86.1835432, 20.0507055 ], [ 86.1828733, 20.0572805 ], [ 86.1676137, 20.0722857 ], [ 86.1673536, 20.0771729 ], [ 86.1664941, 20.0796673 ], [ 86.1652924, 20.0799416 ], [ 86.1645783, 20.0838417 ], [ 86.160186, 20.0851899 ], [ 86.154105, 20.0911064 ], [ 86.1547108, 20.1002898 ], [ 86.1595444, 20.102382 ], [ 86.1606566, 20.1081613 ], [ 86.163969, 20.1094466 ], [ 86.1643313, 20.1141876 ], [ 86.1552183, 20.1215716 ], [ 86.1566256, 20.1320914 ], [ 86.1557715, 20.135268 ], [ 86.1418217, 20.1441822 ], [ 86.1485137, 20.1601718 ], [ 86.1447843, 20.1614775 ], [ 86.1448938, 20.1650923 ], [ 86.1423515, 20.1671716 ], [ 86.1464701, 20.1725996 ], [ 86.1546482, 20.1724177 ], [ 86.1593257, 20.1710124 ], [ 86.16263, 20.1677663 ], [ 86.1680115, 20.1679861 ], [ 86.1619148, 20.1744539 ], [ 86.1503582, 20.1782613 ], [ 86.1498672, 20.184995 ], [ 86.1474228, 20.1909965 ], [ 86.1387805, 20.1953593 ], [ 86.1396455, 20.2008075 ], [ 86.1443598, 20.1989511 ], [ 86.1469208, 20.199709 ], [ 86.1507928, 20.2137421 ], [ 86.1455571, 20.2198339 ], [ 86.1398461, 20.2191645 ], [ 86.1308085, 20.221153 ], [ 86.1276951, 20.2233016 ], [ 86.1257746, 20.2218057 ], [ 86.1123421, 20.230661 ], [ 86.1055552, 20.2331204 ], [ 86.0990796, 20.2338508 ], [ 86.0777367, 20.2443883 ], [ 86.0686942, 20.2524273 ], [ 86.0691851, 20.2576343 ], [ 86.0666725, 20.2662951 ], [ 86.0417456, 20.2816518 ], [ 86.0390384, 20.285075 ], [ 86.0370878, 20.2923559 ], [ 86.032557, 20.2948563 ], [ 86.0334408, 20.3052112 ], [ 86.0326548, 20.3099594 ], [ 86.0262619, 20.3183675 ], [ 86.0252397, 20.3217411 ], [ 86.0255177, 20.3285959 ], [ 86.0222975, 20.349436 ], [ 86.0224279, 20.3568729 ], [ 86.0192696, 20.3631934 ], [ 86.0133232, 20.3664578 ], [ 86.0108844, 20.3770198 ], [ 86.0123133, 20.3821238 ], [ 86.0259071, 20.4024393 ], [ 86.0302839, 20.4005618 ], [ 86.0282973, 20.3987528 ], [ 86.0291969, 20.3981749 ], [ 86.0278854, 20.3964148 ] ] ] } }
]
}
