{
"type": "FeatureCollection",
"name": "2119",
"crs": { "type": "name", "properties": { "name": "urn:ogc:def:crs:OGC:1.3:CRS84" } },
"features": [
{ "type": "Feature", "properties": { "code": "2119", "name": "Ganjam", "type": "district" }, "geometry": { "type": "Polygon", "coordinates": [ [ [ 84.735965, 20.2439889 ], [ 84.7580581, 20.2420917 ], [ 84.7628554, 20.2458784 ], [ 84.7656737, 20.2458601 ], [ 84.7737462, 20.2434432 ], [ 84.7821544, 20.2321973 ], [ 84.8030496, 20.2248648 ], [ 84.8178076, 20.2221815 ], [ 84.822662, 20.2232984 ], [ 84.8257424, 20.2185229 ], [ 84.8316179, 20.2163874 ], [ 84.8315727, 20.2082631 ], [ 84.829523, 20.1987681 ], [ 84.8236447, 20.179815 ], [ 84.8231606, 20.1733383 ], [ 84.8259381, 20.1589265 ], [ 84.8217056, 20.1365619 ], [ 84.8218662, 20.1204785 ], [ 84.819938, 20.1167924 ], [ 84.8148929, 20.1151765 ], [ 84.8073457, 20.1154034 ], [ 84.8041085, 20.11101 ], [ 84.8066107, 20.1040012 ], [ 84.8046893, 20.1005541 ], [ 84.8020086, 20.0998028 ], [ 84.8016125, 20.097007 ], [ 84.7978213, 20.092268 ], [ 84.8046191, 20.0832941 ], [ 84.8106844, 20.0678307 ], [ 84.8224531, 20.059708 ], [ 84.8347404, 20.0541059 ], [ 84.8443082, 20.0439266 ], [ 84.8492887, 20.0364728 ], [ 84.8567066, 20.0307104 ], [ 84.8575258, 20.0238472 ], [ 84.8611872, 20.0187973 ], [ 84.8598387, 20.0058114 ], [ 84.8624341, 20.0000624 ], [ 84.873484, 19.9982898 ], [ 84.8833784, 20.000743 ], [ 84.891367, 19.995306 ], [ 84.9007959, 19.9928799 ], [ 84.9055243, 19.9806796 ], [ 84.9096134, 19.9759634 ], [ 84.9125905, 19.9628161 ], [ 84.9119152, 19.9607757 ], [ 84.9141015, 19.9543254 ], [ 84.9206871, 19.9430719 ], [ 84.9208614, 19.9399713 ], [ 84.9173948, 19.9344708 ], [ 84.917846, 19.9320961 ], [ 84.9153007, 19.930287 ], [ 84.9154918, 19.9251862 ], [ 84.9134061, 19.926557 ], [ 84.9094663, 19.9189598 ], [ 84.9062214, 19.9155391 ], [ 84.9060284, 19.9095216 ], [ 84.9072535, 19.9074946 ], [ 84.9225184, 19.9059982 ], [ 84.9278105, 19.908056 ], [ 84.9335352, 19.9007297 ], [ 84.9399186, 19.8974125 ], [ 84.9359564, 19.8745282 ], [ 84.937295, 19.8751172 ], [ 84.9372282, 19.8736443 ], [ 84.9452783, 19.8694379 ], [ 84.9460288, 19.8708285 ], [ 84.9526682, 19.868281 ], [ 84.9509423, 19.8659084 ], [ 84.9692897, 19.854417 ], [ 84.9840023, 19.8202741 ], [ 84.9892866, 19.8178814 ], [ 84.9917309, 19.8151494 ], [ 84.9984221, 19.8166021 ], [ 84.9992047, 19.809746 ], [ 85.0042367, 19.804577 ], [ 85.0067982, 19.8035081 ], [ 85.0219291, 19.8070049 ], [ 85.0294798, 19.8049341 ], [ 85.0360884, 19.8065289 ], [ 85.0450245, 19.805886 ], [ 85.0560971, 19.8002303 ], [ 85.061016, 19.7995069 ], [ 85.0723131, 19.7945619 ], [ 85.0776336, 19.7866025 ], [ 85.0777662, 19.7803262 ], [ 85.082799, 19.7764056 ], [ 85.0839695, 19.7702894 ], [ 85.0918093, 19.7641719 ], [ 85.1257074, 19.749341 ], [ 85.1337518, 19.7414171 ], [ 85.1377865, 19.7390247 ], [ 85.1385213, 19.7361235 ], [ 85.1439694, 19.7290439 ], [ 85.1436023, 19.7211856 ], [ 85.1600683, 19.7031441 ], [ 85.1613054, 19.6962959 ], [ 85.1693286, 19.6910935 ], [ 85.1724551, 19.6841064 ], [ 85.1827186, 19.6780495 ], [ 85.179371, 19.6210142 ], [ 85.1729991, 19.5592597 ], [ 85.1354376, 19.5215405 ], [ 85.1487167, 19.4949514 ], [ 85.1730945, 19.466829 ], [ 85.1460021, 19.447195 ], [ 85.1055508, 19.4137689 ], [ 85.0938026, 19.3986054 ], [ 85.0925168, 19.3958142 ], [ 85.0933229, 19.3915634 ], [ 85.0920216, 19.3880585 ], [ 85.0798732, 19.3748096 ], [ 84.983601, 19.3178314 ], [ 84.9333112, 19.278825 ], [ 84.8784075, 19.2299797 ], [ 84.850081, 19.2024751 ], [ 84.811325, 19.1574555 ], [ 84.8003678, 19.1383251 ], [ 84.7936386, 19.1208574 ], [ 84.7796467, 19.1016084 ], [ 84.7662655, 19.0781436 ], [ 84.7545454, 19.0821696 ], [ 84.7081983, 19.1157212 ], [ 84.7027955, 19.1178621 ], [ 84.7014435, 19.1221851 ], [ 84.7025234, 19.1258563 ], [ 84.6978354, 19.1264436 ], [ 84.7061243, 19.1410252 ], [ 84.7003574, 19.1429672 ], [ 84.7012612, 19.1446224 ], [ 84.7000478, 19.1443949 ], [ 84.701175, 19.1470598 ], [ 84.7105159, 19.1464584 ], [ 84.7118293, 19.1497623 ], [ 84.7128447, 19.1495311 ], [ 84.7137298, 19.152193 ], [ 84.7148543, 19.1523199 ], [ 84.7120113, 19.158277 ], [ 84.7099772, 19.1596652 ], [ 84.7047264, 19.1593016 ], [ 84.7033984, 19.1611681 ], [ 84.6969222, 19.1607574 ], [ 84.6962227, 19.1594525 ], [ 84.6924863, 19.1608574 ], [ 84.6843492, 19.1599896 ], [ 84.6807254, 19.1652816 ], [ 84.6777581, 19.166784 ], [ 84.6732673, 19.1660858 ], [ 84.6725238, 19.1645546 ], [ 84.6709061, 19.1660423 ], [ 84.6687393, 19.1629892 ], [ 84.6679317, 19.1541732 ], [ 84.6710154, 19.1562309 ], [ 84.6716554, 19.1482189 ], [ 84.6697421, 19.1379437 ], [ 84.6666919, 19.1318402 ], [ 84.6673184, 19.1298567 ], [ 84.6599452, 19.1315016 ], [ 84.6555554, 19.130809 ], [ 84.6542644, 19.1293745 ], [ 84.644078, 19.1337239 ], [ 84.6436266, 19.1297082 ], [ 84.6310224, 19.1296771 ], [ 84.6308556, 19.1267081 ], [ 84.6297776, 19.1266807 ], [ 84.6248325, 19.1279626 ], [ 84.6141581, 19.1278876 ], [ 84.6071982, 19.1291789 ], [ 84.6032771, 19.1319275 ], [ 84.59553, 19.1324495 ], [ 84.5960058, 19.1287891 ], [ 84.60285, 19.1266207 ], [ 84.6027633, 19.1230882 ], [ 84.601864, 19.1231758 ], [ 84.6055179, 19.1175382 ], [ 84.6084124, 19.107533 ], [ 84.6112822, 19.1068478 ], [ 84.6095452, 19.1007787 ], [ 84.618666, 19.1000841 ], [ 84.6196542, 19.1043959 ], [ 84.6254777, 19.0990929 ], [ 84.6249001, 19.0956353 ], [ 84.6226785, 19.0938637 ], [ 84.6250137, 19.091663 ], [ 84.6241116, 19.0883142 ], [ 84.6260018, 19.0876659 ], [ 84.6254948, 19.0849136 ], [ 84.6304183, 19.0843901 ], [ 84.631931, 19.0865634 ], [ 84.6311965, 19.0821015 ], [ 84.6343282, 19.0886671 ], [ 84.6367845, 19.0859485 ], [ 84.6368401, 19.089738 ], [ 84.644243, 19.092908 ], [ 84.647041, 19.0962629 ], [ 84.6531896, 19.09309 ], [ 84.6586633, 19.0943338 ], [ 84.6586777, 19.0919586 ], [ 84.6638788, 19.0875721 ], [ 84.6634717, 19.0823963 ], [ 84.6708523, 19.0763301 ], [ 84.6694785, 19.0743756 ], [ 84.6630824, 19.0746062 ], [ 84.661131, 19.0630389 ], [ 84.6575799, 19.064308 ], [ 84.6579611, 19.065559 ], [ 84.6546747, 19.0658966 ], [ 84.6539439, 19.0675356 ], [ 84.6416135, 19.0672744 ], [ 84.6371149, 19.0599781 ], [ 84.6310107, 19.0604191 ], [ 84.6298718, 19.0617004 ], [ 84.6306379, 19.0646049 ], [ 84.6291338, 19.0645042 ], [ 84.6278226, 19.0662079 ], [ 84.6229918, 19.0669269 ], [ 84.6183524, 19.0658672 ], [ 84.617046, 19.06093 ], [ 84.6224243, 19.0601008 ], [ 84.6207425, 19.0561415 ], [ 84.6176075, 19.0545341 ], [ 84.6134279, 19.0565663 ], [ 84.6128112, 19.0535282 ], [ 84.6142681, 19.0519395 ], [ 84.6117558, 19.0502903 ], [ 84.6058531, 19.0416972 ], [ 84.6037629, 19.0341425 ], [ 84.6019783, 19.0324395 ], [ 84.6012739, 19.025282 ], [ 84.5956817, 19.025548 ], [ 84.5941479, 19.0222585 ], [ 84.587783, 19.0250791 ], [ 84.5862279, 19.0278811 ], [ 84.5816662, 19.0300883 ], [ 84.5822997, 19.0348786 ], [ 84.5812645, 19.0375157 ], [ 84.5832864, 19.0424823 ], [ 84.57729, 19.040471 ], [ 84.5786771, 19.0456595 ], [ 84.5830509, 19.0492391 ], [ 84.5815191, 19.0530212 ], [ 84.5818234, 19.0589092 ], [ 84.5804583, 19.0600246 ], [ 84.5833752, 19.0681457 ], [ 84.5829507, 19.0731842 ], [ 84.5766297, 19.0676102 ], [ 84.5747022, 19.0675668 ], [ 84.5715764, 19.0695758 ], [ 84.5738783, 19.0732682 ], [ 84.5728648, 19.07372 ], [ 84.5662127, 19.0680781 ], [ 84.5623397, 19.0617504 ], [ 84.5566027, 19.0565809 ], [ 84.5432717, 19.0550535 ], [ 84.5360625, 19.0502884 ], [ 84.5261345, 19.0460374 ], [ 84.5241197, 19.0486971 ], [ 84.516379, 19.048426 ], [ 84.5117337, 19.0402401 ], [ 84.5053191, 19.0338635 ], [ 84.5004724, 19.0331658 ], [ 84.4943674, 19.0290012 ], [ 84.4887747, 19.0195061 ], [ 84.4850234, 19.0192427 ], [ 84.4826423, 19.0165689 ], [ 84.4829324, 19.0048689 ], [ 84.4788932, 18.9884592 ], [ 84.4760277, 18.9880409 ], [ 84.4743436, 18.9917566 ], [ 84.4702713, 18.9914164 ], [ 84.4667784, 18.9938791 ], [ 84.4648915, 18.9937314 ], [ 84.4647385, 18.9916071 ], [ 84.4605917, 18.9930582 ], [ 84.4603596, 18.9967803 ], [ 84.455818, 18.9973274 ], [ 84.454377, 19.0000032 ], [ 84.4496081, 19.0030034 ], [ 84.4448344, 19.0044455 ], [ 84.4416063, 19.0035295 ], [ 84.4405595, 19.0074116 ], [ 84.4371222, 19.0071292 ], [ 84.435523, 19.0101909 ], [ 84.4326227, 19.0107964 ], [ 84.4316034, 19.0134823 ], [ 84.4245799, 19.0139535 ], [ 84.4240982, 19.0159471 ], [ 84.4257333, 19.0192072 ], [ 84.4210854, 19.0219914 ], [ 84.4220113, 19.0127482 ], [ 84.4240705, 19.0131246 ], [ 84.4282369, 19.007674 ], [ 84.432498, 19.0065548 ], [ 84.4322188, 18.9950506 ], [ 84.443296, 18.9904992 ], [ 84.4446832, 18.9832624 ], [ 84.4524262, 18.9759775 ], [ 84.4505838, 18.9766565 ], [ 84.4477291, 18.9755651 ], [ 84.4450543, 18.9732435 ], [ 84.4460474, 18.9719296 ], [ 84.4416788, 18.9686499 ], [ 84.4373433, 18.970369 ], [ 84.4310729, 18.9691894 ], [ 84.4294118, 18.9648589 ], [ 84.4314723, 18.9628204 ], [ 84.4324284, 18.9590895 ], [ 84.429923, 18.9553478 ], [ 84.4260146, 18.9527469 ], [ 84.4255827, 18.9509078 ], [ 84.4194424, 18.9481086 ], [ 84.4172928, 18.9450264 ], [ 84.4180457, 18.942662 ], [ 84.4166969, 18.9408912 ], [ 84.4111966, 18.9393967 ], [ 84.4010097, 18.9445595 ], [ 84.393869, 18.9539862 ], [ 84.3988286, 18.958842 ], [ 84.4016576, 18.9581774 ], [ 84.4030577, 18.9590864 ], [ 84.4041539, 18.9652244 ], [ 84.4103715, 18.96579 ], [ 84.4070814, 18.9732437 ], [ 84.3967664, 18.9730583 ], [ 84.3890562, 18.9683714 ], [ 84.387086, 18.9647676 ], [ 84.3838831, 18.9726374 ], [ 84.3839566, 18.9764446 ], [ 84.3875842, 18.9748162 ], [ 84.3988264, 18.9843571 ], [ 84.3995383, 18.9877174 ], [ 84.392627, 18.9905007 ], [ 84.3902387, 18.9969463 ], [ 84.3918813, 19.0002511 ], [ 84.3971646, 19.0009023 ], [ 84.3956975, 19.0035089 ], [ 84.3885032, 19.0057635 ], [ 84.3808873, 18.9912243 ], [ 84.3754219, 18.9907632 ], [ 84.3718454, 18.991832 ], [ 84.3644275, 18.9893741 ], [ 84.3597049, 18.9935268 ], [ 84.3622626, 18.9966351 ], [ 84.3656559, 19.0075196 ], [ 84.3711885, 19.0142942 ], [ 84.3664949, 19.0157264 ], [ 84.3644442, 19.0145142 ], [ 84.3622056, 19.0098768 ], [ 84.3539233, 19.0083227 ], [ 84.353349, 19.010712 ], [ 84.3568378, 19.0143242 ], [ 84.3468123, 19.0140136 ], [ 84.3516942, 19.0222738 ], [ 84.3515398, 19.027229 ], [ 84.353873, 19.0306803 ], [ 84.3599342, 19.0325641 ], [ 84.3619317, 19.0428553 ], [ 84.3641574, 19.0453252 ], [ 84.3620513, 19.0479048 ], [ 84.3683971, 19.0507497 ], [ 84.3565276, 19.0647841 ], [ 84.3614973, 19.0688059 ], [ 84.3623695, 19.0737127 ], [ 84.3671499, 19.0738036 ], [ 84.3702116, 19.0720821 ], [ 84.3739917, 19.0805068 ], [ 84.3746878, 19.0869552 ], [ 84.3721791, 19.0909423 ], [ 84.367052, 19.0902098 ], [ 84.3711355, 19.1049872 ], [ 84.3772639, 19.1048941 ], [ 84.3785162, 19.1059098 ], [ 84.3779332, 19.1079422 ], [ 84.3744784, 19.108954 ], [ 84.3747568, 19.1114728 ], [ 84.381, 19.1191968 ], [ 84.3870826, 19.1211435 ], [ 84.3882386, 19.1252686 ], [ 84.3879218, 19.1290974 ], [ 84.3804926, 19.1308835 ], [ 84.3778459, 19.1285251 ], [ 84.3764076, 19.1287574 ], [ 84.3773938, 19.1345868 ], [ 84.3761458, 19.1360047 ], [ 84.3784975, 19.1405037 ], [ 84.3859139, 19.1395664 ], [ 84.3894203, 19.1416526 ], [ 84.377119, 19.1474687 ], [ 84.3752947, 19.1507612 ], [ 84.3741243, 19.1577744 ], [ 84.3646814, 19.161215 ], [ 84.3688862, 19.1800667 ], [ 84.3634515, 19.1802822 ], [ 84.3609725, 19.1822783 ], [ 84.3598926, 19.1859289 ], [ 84.3606771, 19.1903739 ], [ 84.3682175, 19.1952185 ], [ 84.3810534, 19.1970143 ], [ 84.3856532, 19.1937387 ], [ 84.3873956, 19.1977549 ], [ 84.3931767, 19.200027 ], [ 84.3962324, 19.1994293 ], [ 84.398957, 19.2014456 ], [ 84.3952493, 19.2099491 ], [ 84.3971887, 19.2114394 ], [ 84.3968212, 19.2139491 ], [ 84.4024501, 19.2180835 ], [ 84.4025537, 19.2199589 ], [ 84.4076861, 19.2224335 ], [ 84.4079481, 19.2248303 ], [ 84.4110512, 19.2251767 ], [ 84.4091637, 19.2288433 ], [ 84.4093072, 19.2390901 ], [ 84.425514, 19.2609058 ], [ 84.4242024, 19.2696872 ], [ 84.4199278, 19.2775961 ], [ 84.4234008, 19.28719 ], [ 84.4277465, 19.2945207 ], [ 84.4200628, 19.2938658 ], [ 84.4233565, 19.3015564 ], [ 84.4221037, 19.3044239 ], [ 84.4173059, 19.3086363 ], [ 84.4200855, 19.3127212 ], [ 84.4180846, 19.3244456 ], [ 84.4155826, 19.3277919 ], [ 84.4172292, 19.3380058 ], [ 84.4189398, 19.3405358 ], [ 84.4199093, 19.34725 ], [ 84.425309, 19.3544738 ], [ 84.436577, 19.3615636 ], [ 84.4363722, 19.364315 ], [ 84.4254641, 19.3673124 ], [ 84.4199218, 19.3670126 ], [ 84.4179915, 19.3681411 ], [ 84.4163448, 19.3666729 ], [ 84.4080626, 19.3672639 ], [ 84.3935118, 19.3722348 ], [ 84.3857418, 19.380652 ], [ 84.3810695, 19.3833434 ], [ 84.3807945, 19.3847707 ], [ 84.385411, 19.3906387 ], [ 84.3891932, 19.3843993 ], [ 84.3924793, 19.3818098 ], [ 84.3935341, 19.3962367 ], [ 84.3880807, 19.4001496 ], [ 84.3881373, 19.4055368 ], [ 84.3786213, 19.40549 ], [ 84.3704155, 19.408902 ], [ 84.3697147, 19.4140028 ], [ 84.371123, 19.4196443 ], [ 84.3708195, 19.4251932 ], [ 84.371955, 19.4267898 ], [ 84.3740038, 19.4278263 ], [ 84.3791811, 19.4231063 ], [ 84.3832681, 19.4231653 ], [ 84.3842081, 19.4298384 ], [ 84.4051808, 19.439165 ], [ 84.4103573, 19.4383722 ], [ 84.41821, 19.4410983 ], [ 84.4233577, 19.4394242 ], [ 84.4229228, 19.4455675 ], [ 84.4160064, 19.4438075 ], [ 84.4032105, 19.4490247 ], [ 84.3958519, 19.4567887 ], [ 84.3966197, 19.4683129 ], [ 84.3935381, 19.4737723 ], [ 84.3902632, 19.4728673 ], [ 84.3842435, 19.4739227 ], [ 84.380195, 19.4802799 ], [ 84.3763219, 19.4828108 ], [ 84.3747289, 19.486246 ], [ 84.3746306, 19.4923397 ], [ 84.3817406, 19.5001994 ], [ 84.3841848, 19.5089711 ], [ 84.387846, 19.5155074 ], [ 84.3855985, 19.5261618 ], [ 84.3804014, 19.5366107 ], [ 84.3829249, 19.5345659 ], [ 84.3856371, 19.5391427 ], [ 84.387402, 19.5502118 ], [ 84.3888129, 19.5522051 ], [ 84.3856134, 19.5536171 ], [ 84.3853444, 19.556128 ], [ 84.3864819, 19.5564696 ], [ 84.3884964, 19.5647519 ], [ 84.3787112, 19.5760688 ], [ 84.3772093, 19.5843904 ], [ 84.3781237, 19.585573 ], [ 84.3747652, 19.5855919 ], [ 84.3711619, 19.5874762 ], [ 84.3653474, 19.595843 ], [ 84.3587464, 19.5948615 ], [ 84.3571651, 19.5910459 ], [ 84.3529746, 19.5886186 ], [ 84.3486637, 19.5918058 ], [ 84.3399635, 19.5945174 ], [ 84.3357554, 19.5943242 ], [ 84.3349156, 19.5981719 ], [ 84.3316642, 19.5942818 ], [ 84.3357058, 19.586057 ], [ 84.3322118, 19.5841813 ], [ 84.3284674, 19.5839092 ], [ 84.3261125, 19.585459 ], [ 84.3227771, 19.5849354 ], [ 84.3225848, 19.583893 ], [ 84.3191132, 19.5841315 ], [ 84.3194735, 19.586814 ], [ 84.3149924, 19.5827203 ], [ 84.3148917, 19.5813192 ], [ 84.3024981, 19.5807233 ], [ 84.2982911, 19.5790666 ], [ 84.2979633, 19.5770257 ], [ 84.2951689, 19.5743652 ], [ 84.288745, 19.5708646 ], [ 84.283499, 19.5704111 ], [ 84.2794687, 19.5673481 ], [ 84.279841, 19.5655975 ], [ 84.2770019, 19.5596721 ], [ 84.2781146, 19.5580728 ], [ 84.2777727, 19.5551738 ], [ 84.2709744, 19.5524886 ], [ 84.2642384, 19.5526124 ], [ 84.2622573, 19.5590924 ], [ 84.2621929, 19.5702423 ], [ 84.2638144, 19.5751922 ], [ 84.2634503, 19.58771 ], [ 84.2596356, 19.5890697 ], [ 84.2550111, 19.5761148 ], [ 84.2528015, 19.5603572 ], [ 84.2448134, 19.5640816 ], [ 84.2408203, 19.5686751 ], [ 84.2357174, 19.570186 ], [ 84.2284073, 19.5746063 ], [ 84.2338835, 19.5732818 ], [ 84.2338727, 19.57697 ], [ 84.2393089, 19.5763175 ], [ 84.2358951, 19.5821024 ], [ 84.2353121, 19.5872399 ], [ 84.2327192, 19.5929109 ], [ 84.2329283, 19.6046335 ], [ 84.2364098, 19.6088539 ], [ 84.2342243, 19.6110233 ], [ 84.2272388, 19.6122205 ], [ 84.2279771, 19.6136223 ], [ 84.2253144, 19.6208044 ], [ 84.2245592, 19.6295507 ], [ 84.2314909, 19.631531 ], [ 84.2346888, 19.6306412 ], [ 84.2362814, 19.6330718 ], [ 84.2360263, 19.6379571 ], [ 84.2369063, 19.6391533 ], [ 84.2411567, 19.6394218 ], [ 84.2460256, 19.6453246 ], [ 84.2462046, 19.647404 ], [ 84.250485, 19.6509502 ], [ 84.2508596, 19.6546984 ], [ 84.2500112, 19.6563874 ], [ 84.2363598, 19.660214 ], [ 84.2405666, 19.663881 ], [ 84.2360791, 19.668516 ], [ 84.2346304, 19.6690671 ], [ 84.2310382, 19.6673369 ], [ 84.2248128, 19.6690916 ], [ 84.2225624, 19.6724607 ], [ 84.2169147, 19.6763458 ], [ 84.218029, 19.6791575 ], [ 84.2141881, 19.6854722 ], [ 84.206838, 19.6816697 ], [ 84.2053657, 19.6841161 ], [ 84.2010228, 19.6863688 ], [ 84.2032643, 19.6873834 ], [ 84.2029166, 19.6912106 ], [ 84.1982545, 19.6981033 ], [ 84.1966786, 19.6971804 ], [ 84.1948998, 19.698051 ], [ 84.1931047, 19.7047672 ], [ 84.1911242, 19.7073635 ], [ 84.1907268, 19.7112892 ], [ 84.1923634, 19.7161045 ], [ 84.1982718, 19.7233656 ], [ 84.2017304, 19.7338884 ], [ 84.1892011, 19.7374615 ], [ 84.1814883, 19.7376698 ], [ 84.1665772, 19.7348659 ], [ 84.1526076, 19.7249886 ], [ 84.1508553, 19.728098 ], [ 84.1478013, 19.7298821 ], [ 84.1463347, 19.7324679 ], [ 84.1485886, 19.7341334 ], [ 84.1515095, 19.7468465 ], [ 84.1492316, 19.7567098 ], [ 84.1301627, 19.7805099 ], [ 84.135673, 19.7827696 ], [ 84.1607877, 19.7866689 ], [ 84.1730387, 19.7934403 ], [ 84.1652411, 19.8055592 ], [ 84.1717134, 19.8114806 ], [ 84.1716968, 19.8180845 ], [ 84.1736799, 19.8235421 ], [ 84.179857, 19.8221952 ], [ 84.1865081, 19.823185 ], [ 84.1999291, 19.835553 ], [ 84.1944285, 19.8464272 ], [ 84.1848096, 19.8605313 ], [ 84.2479995, 19.8716673 ], [ 84.2774793, 19.8806258 ], [ 84.2905017, 19.8958126 ], [ 84.3061777, 19.9086282 ], [ 84.3074658, 19.901894 ], [ 84.3095434, 19.9001196 ], [ 84.3110614, 19.8955874 ], [ 84.3129018, 19.8949781 ], [ 84.3158169, 19.8906571 ], [ 84.3158071, 19.8872799 ], [ 84.3184632, 19.8848596 ], [ 84.3186351, 19.8803205 ], [ 84.3209811, 19.8804327 ], [ 84.320685, 19.8776066 ], [ 84.3225248, 19.8746141 ], [ 84.3242345, 19.8748248 ], [ 84.3241872, 19.8722417 ], [ 84.3255798, 19.8728586 ], [ 84.3267045, 19.8712412 ], [ 84.3272455, 19.8731229 ], [ 84.3326033, 19.8712078 ], [ 84.3353968, 19.8688117 ], [ 84.3359744, 19.8705133 ], [ 84.3373799, 19.8706427 ], [ 84.3374228, 19.8672122 ], [ 84.3388127, 19.865996 ], [ 84.3399877, 19.8679323 ], [ 84.3415913, 19.8659202 ], [ 84.3401646, 19.8639124 ], [ 84.3440635, 19.8616003 ], [ 84.3583382, 19.863465 ], [ 84.3571094, 19.8598802 ], [ 84.3707374, 19.8474406 ], [ 84.3846248, 19.8408774 ], [ 84.3883541, 19.8412751 ], [ 84.414589, 19.8373052 ], [ 84.4216255, 19.8376689 ], [ 84.4240206, 19.8359021 ], [ 84.4269855, 19.8390286 ], [ 84.4313903, 19.8401621 ], [ 84.4393698, 19.8317256 ], [ 84.4428612, 19.8306475 ], [ 84.4486606, 19.8349154 ], [ 84.4428951, 19.8445716 ], [ 84.4542474, 19.8498946 ], [ 84.4622223, 19.8573181 ], [ 84.4610488, 19.8653787 ], [ 84.4577828, 19.8720729 ], [ 84.462104, 19.8815303 ], [ 84.4594793, 19.8862924 ], [ 84.4563771, 19.9054049 ], [ 84.4570169, 19.9083758 ], [ 84.4609026, 19.9110681 ], [ 84.4626855, 19.9153963 ], [ 84.4610304, 19.9248767 ], [ 84.4619835, 19.9309674 ], [ 84.4642189, 19.9359749 ], [ 84.4689267, 19.9398573 ], [ 84.4646213, 19.9478459 ], [ 84.4638366, 19.9542324 ], [ 84.4625827, 19.9553025 ], [ 84.4570347, 19.9526 ], [ 84.4560292, 19.9533666 ], [ 84.4551301, 19.9519676 ], [ 84.4546074, 19.9529941 ], [ 84.447067, 19.9536577 ], [ 84.4454325, 19.9555214 ], [ 84.4432961, 19.9550572 ], [ 84.4336445, 19.9598843 ], [ 84.4332778, 19.9586418 ], [ 84.430448, 19.9588356 ], [ 84.4270323, 19.9562804 ], [ 84.4256344, 19.9579759 ], [ 84.4244327, 19.9567123 ], [ 84.4199463, 19.9574733 ], [ 84.4196275, 19.9559337 ], [ 84.4207271, 19.9555524 ], [ 84.4194263, 19.9553844 ], [ 84.4159577, 19.9578577 ], [ 84.4175845, 19.9602923 ], [ 84.4123442, 19.9583785 ], [ 84.4117657, 19.9601805 ], [ 84.4095294, 19.9599898 ], [ 84.4073586, 19.958414 ], [ 84.40503, 19.960082 ], [ 84.4064418, 19.9619266 ], [ 84.4044561, 19.962471 ], [ 84.4026508, 19.9601556 ], [ 84.3976539, 19.960886 ], [ 84.396807, 19.9569231 ], [ 84.3899488, 19.9561452 ], [ 84.3892462, 19.9585141 ], [ 84.3856312, 19.9620185 ], [ 84.3764344, 19.9657924 ], [ 84.3724642, 19.9731287 ], [ 84.3659936, 19.9780213 ], [ 84.3558837, 19.9906473 ], [ 84.3506761, 19.9896259 ], [ 84.3501408, 19.9876586 ], [ 84.3361627, 19.9782934 ], [ 84.3281755, 19.9807374 ], [ 84.3226316, 19.9897596 ], [ 84.3289726, 20.0008618 ], [ 84.3281115, 20.0032054 ], [ 84.3302874, 20.0075632 ], [ 84.3364139, 20.0099129 ], [ 84.3385928, 20.0087176 ], [ 84.341272, 20.0152634 ], [ 84.3574493, 20.0329999 ], [ 84.3595272, 20.0318526 ], [ 84.3605881, 20.0284012 ], [ 84.3634743, 20.0257672 ], [ 84.3900284, 20.0382016 ], [ 84.3930671, 20.0407882 ], [ 84.402123, 20.043513 ], [ 84.4148657, 20.0451851 ], [ 84.4179563, 20.0495916 ], [ 84.4152265, 20.0514478 ], [ 84.4157288, 20.0627782 ], [ 84.4070745, 20.0672159 ], [ 84.4040284, 20.0717174 ], [ 84.4044384, 20.0836696 ], [ 84.4092041, 20.0856267 ], [ 84.4107257, 20.0846241 ], [ 84.4148303, 20.0965761 ], [ 84.4178173, 20.1003627 ], [ 84.4161957, 20.1036528 ], [ 84.418579, 20.1098729 ], [ 84.4174148, 20.1112058 ], [ 84.4175144, 20.1156136 ], [ 84.4233902, 20.1204808 ], [ 84.4275431, 20.1208123 ], [ 84.4277412, 20.1244812 ], [ 84.4301234, 20.1281685 ], [ 84.428249, 20.1343489 ], [ 84.4293624, 20.1378687 ], [ 84.4319036, 20.141793 ], [ 84.4367, 20.1440345 ], [ 84.4405517, 20.1441267 ], [ 84.4415708, 20.1467149 ], [ 84.4358958, 20.1543526 ], [ 84.4380778, 20.1580414 ], [ 84.4385325, 20.1621113 ], [ 84.4326569, 20.17143 ], [ 84.4313478, 20.1801243 ], [ 84.4315059, 20.1847724 ], [ 84.4365659, 20.1943634 ], [ 84.4346417, 20.2003038 ], [ 84.4462008, 20.205267 ], [ 84.4498023, 20.2011477 ], [ 84.4592682, 20.1880789 ], [ 84.4567835, 20.1820699 ], [ 84.4532873, 20.1821186 ], [ 84.4538363, 20.1780496 ], [ 84.4523609, 20.167915 ], [ 84.4866641, 20.1406508 ], [ 84.4959729, 20.1417948 ], [ 84.5007637, 20.139348 ], [ 84.5070305, 20.1384887 ], [ 84.5092501, 20.1362897 ], [ 84.5103023, 20.1371625 ], [ 84.5081725, 20.1409294 ], [ 84.5099104, 20.146205 ], [ 84.5134588, 20.1503638 ], [ 84.5232614, 20.1523803 ], [ 84.5259248, 20.1438707 ], [ 84.539328, 20.1403518 ], [ 84.555588, 20.1415354 ], [ 84.5604871, 20.1385375 ], [ 84.5632104, 20.1404942 ], [ 84.5642229, 20.1454928 ], [ 84.5623778, 20.1485557 ], [ 84.562867, 20.1506124 ], [ 84.5589955, 20.1523828 ], [ 84.5582693, 20.1572581 ], [ 84.5721356, 20.163726 ], [ 84.579991, 20.1690496 ], [ 84.587587, 20.1713525 ], [ 84.5850677, 20.186516 ], [ 84.597181, 20.1759267 ], [ 84.6118672, 20.1815271 ], [ 84.6156959, 20.18511 ], [ 84.6183661, 20.1853178 ], [ 84.6204044, 20.1884025 ], [ 84.624615, 20.1873171 ], [ 84.6289814, 20.1904736 ], [ 84.6336313, 20.1900667 ], [ 84.6339878, 20.1930649 ], [ 84.6359563, 20.1935112 ], [ 84.6374687, 20.1969272 ], [ 84.6473696, 20.201336 ], [ 84.6480608, 20.2040409 ], [ 84.649168, 20.2032521 ], [ 84.6483788, 20.2067545 ], [ 84.6509903, 20.2258665 ], [ 84.6559141, 20.2308812 ], [ 84.6609905, 20.2410542 ], [ 84.6650385, 20.2438898 ], [ 84.6668411, 20.2570894 ], [ 84.6723671, 20.274109 ], [ 84.6834361, 20.2756646 ], [ 84.6962138, 20.2811072 ], [ 84.7048466, 20.2785203 ], [ 84.7198058, 20.2644514 ], [ 84.7281383, 20.2587346 ], [ 84.7300607, 20.2528894 ], [ 84.735965, 20.2439889 ] ] ] } }
]
}
