{
"type": "FeatureCollection",
"name": "2120",
"crs": { "type": "name", "properties": { "name": "urn:ogc:def:crs:OGC:1.3:CRS84" } },
"features": [
{ "type": "Feature", "properties": { "code": "2120", "name": "Gajapati", "type": "district" }, "geometry": { "type": "MultiPolygon", "coordinates": [ [ [ [ 84.3311132, 18.7895367 ], [ 84.3395916, 18.7894005 ], [ 84.3393616, 18.778692 ], [ 84.3362953, 18.7828698 ], [ 84.3292729, 18.7871987 ], [ 84.3311132, 18.7895367 ] ] ], [ [ [ 84.3517132, 18.7857711 ], [ 84.3496761, 18.7887041 ], [ 84.3496781, 18.791919 ], [ 84.3532191, 18.7897972 ], [ 84.3517132, 18.7857711 ] ] ], [ [ [ 84.0430179, 19.6276146 ], [ 84.0570729, 19.6278198 ], [ 84.0605879, 19.6343665 ], [ 84.0779506, 19.6321307 ], [ 84.0831143, 19.6329548 ], [ 84.086189, 19.628098 ], [ 84.090941, 19.6308878 ], [ 84.1004785, 19.6242573 ], [ 84.1057745, 19.6232773 ], [ 84.1061706, 19.6258974 ], [ 84.1135324, 19.6260833 ], [ 84.1149566, 19.6284941 ], [ 84.1222971, 19.6274831 ], [ 84.1237607, 19.6314338 ], [ 84.1288922, 19.632211 ], [ 84.1337794, 19.6311921 ], [ 84.136805, 19.6287484 ], [ 84.1364872, 19.6259896 ], [ 84.1382117, 19.6232997 ], [ 84.1370484, 19.6209338 ], [ 84.1397815, 19.61482 ], [ 84.1402222, 19.6076901 ], [ 84.1478691, 19.5914024 ], [ 84.148818, 19.5899909 ], [ 84.1492703, 19.5913478 ], [ 84.1506995, 19.590797 ], [ 84.1530392, 19.5874891 ], [ 84.1537958, 19.5859075 ], [ 84.1527646, 19.5857693 ], [ 84.1528858, 19.5834871 ], [ 84.1565182, 19.5849348 ], [ 84.1584707, 19.5816972 ], [ 84.1616651, 19.582321 ], [ 84.1646492, 19.5867964 ], [ 84.1638987, 19.5891319 ], [ 84.1698721, 19.588287 ], [ 84.172656, 19.5892471 ], [ 84.1764242, 19.587839 ], [ 84.1783919, 19.5856308 ], [ 84.1870278, 19.5880681 ], [ 84.1974425, 19.5953495 ], [ 84.2037208, 19.5934066 ], [ 84.2068967, 19.5940292 ], [ 84.2087431, 19.5916471 ], [ 84.2084383, 19.5894393 ], [ 84.2048167, 19.5798715 ], [ 84.2078413, 19.5840039 ], [ 84.2152244, 19.5850977 ], [ 84.2265744, 19.578456 ], [ 84.2280244, 19.5755529 ], [ 84.2296034, 19.5751258 ], [ 84.2284073, 19.5746063 ], [ 84.2357174, 19.570186 ], [ 84.2408203, 19.5686751 ], [ 84.2448134, 19.5640816 ], [ 84.2528015, 19.5603572 ], [ 84.2550111, 19.5761148 ], [ 84.2596356, 19.5890697 ], [ 84.2634503, 19.58771 ], [ 84.2638144, 19.5751922 ], [ 84.2624066, 19.5719701 ], [ 84.2618484, 19.5615963 ], [ 84.2642384, 19.5526124 ], [ 84.2709744, 19.5524886 ], [ 84.2765495, 19.5539951 ], [ 84.2777727, 19.5551738 ], [ 84.2781146, 19.5580728 ], [ 84.2770019, 19.5596721 ], [ 84.279841, 19.5655975 ], [ 84.2794687, 19.5673481 ], [ 84.283499, 19.5704111 ], [ 84.288745, 19.5708646 ], [ 84.2951689, 19.5743652 ], [ 84.2979633, 19.5770257 ], [ 84.2982911, 19.5790666 ], [ 84.3024981, 19.5807233 ], [ 84.3148917, 19.5813192 ], [ 84.3149924, 19.5827203 ], [ 84.3194735, 19.586814 ], [ 84.3191132, 19.5841315 ], [ 84.3225848, 19.583893 ], [ 84.3227771, 19.5849354 ], [ 84.3261125, 19.585459 ], [ 84.3284674, 19.5839092 ], [ 84.3322118, 19.5841813 ], [ 84.3357058, 19.586057 ], [ 84.3316642, 19.5942818 ], [ 84.3349156, 19.5981719 ], [ 84.3357554, 19.5943242 ], [ 84.3399635, 19.5945174 ], [ 84.3486637, 19.5918058 ], [ 84.3529746, 19.5886186 ], [ 84.3571651, 19.5910459 ], [ 84.3587464, 19.5948615 ], [ 84.3653474, 19.595843 ], [ 84.3711619, 19.5874762 ], [ 84.3747652, 19.5855919 ], [ 84.3781237, 19.585573 ], [ 84.3772093, 19.5843904 ], [ 84.3787112, 19.5760688 ], [ 84.3884964, 19.5647519 ], [ 84.3864819, 19.5564696 ], [ 84.3853444, 19.556128 ], [ 84.3856134, 19.5536171 ], [ 84.3888129, 19.5522051 ], [ 84.387402, 19.5502118 ], [ 84.3856371, 19.5391427 ], [ 84.3829249, 19.5345659 ], [ 84.3804014, 19.5366107 ], [ 84.3855985, 19.5261618 ], [ 84.387846, 19.5155074 ], [ 84.3841848, 19.5089711 ], [ 84.3817406, 19.5001994 ], [ 84.3746306, 19.4923397 ], [ 84.3747289, 19.486246 ], [ 84.3763219, 19.4828108 ], [ 84.380195, 19.4802799 ], [ 84.3842435, 19.4739227 ], [ 84.3902632, 19.4728673 ], [ 84.3935381, 19.4737723 ], [ 84.3966197, 19.4683129 ], [ 84.3958519, 19.4567887 ], [ 84.4032105, 19.4490247 ], [ 84.4160064, 19.4438075 ], [ 84.4229228, 19.4455675 ], [ 84.4233577, 19.4394242 ], [ 84.41821, 19.4410983 ], [ 84.4103573, 19.4383722 ], [ 84.4051808, 19.439165 ], [ 84.3842081, 19.4298384 ], [ 84.3832681, 19.4231653 ], [ 84.3791811, 19.4231063 ], [ 84.3740038, 19.4278263 ], [ 84.371955, 19.4267898 ], [ 84.3708195, 19.4251932 ], [ 84.371123, 19.4196443 ], [ 84.3697147, 19.4140028 ], [ 84.3704155, 19.408902 ], [ 84.3786213, 19.40549 ], [ 84.3881373, 19.4055368 ], [ 84.3880807, 19.4001496 ], [ 84.3935341, 19.3962367 ], [ 84.3924793, 19.3818098 ], [ 84.3891932, 19.3843993 ], [ 84.385411, 19.3906387 ], [ 84.3807945, 19.3847707 ], [ 84.3810695, 19.3833434 ], [ 84.3857418, 19.380652 ], [ 84.3935118, 19.3722348 ], [ 84.4080626, 19.3672639 ], [ 84.4163448, 19.3666729 ], [ 84.4179915, 19.3681411 ], [ 84.4199218, 19.3670126 ], [ 84.4254641, 19.3673124 ], [ 84.4363722, 19.364315 ], [ 84.436577, 19.3615636 ], [ 84.425309, 19.3544738 ], [ 84.4199093, 19.34725 ], [ 84.4189398, 19.3405358 ], [ 84.4172292, 19.3380058 ], [ 84.4155826, 19.3277919 ], [ 84.4180846, 19.3244456 ], [ 84.4200855, 19.3127212 ], [ 84.4173059, 19.3086363 ], [ 84.4221037, 19.3044239 ], [ 84.4233565, 19.3015564 ], [ 84.4200628, 19.2938658 ], [ 84.4277465, 19.2945207 ], [ 84.4234008, 19.28719 ], [ 84.4199278, 19.2775961 ], [ 84.4242024, 19.2696872 ], [ 84.425514, 19.2609058 ], [ 84.4093072, 19.2390901 ], [ 84.4091637, 19.2288433 ], [ 84.4110512, 19.2251767 ], [ 84.4079481, 19.2248303 ], [ 84.4076861, 19.2224335 ], [ 84.4025537, 19.2199589 ], [ 84.4024501, 19.2180835 ], [ 84.3968212, 19.2139491 ], [ 84.3971887, 19.2114394 ], [ 84.3952493, 19.2099491 ], [ 84.398957, 19.2014456 ], [ 84.3962324, 19.1994293 ], [ 84.3931767, 19.200027 ], [ 84.3873956, 19.1977549 ], [ 84.3856532, 19.1937387 ], [ 84.3810534, 19.1970143 ], [ 84.3682175, 19.1952185 ], [ 84.3606771, 19.1903739 ], [ 84.3598926, 19.1859289 ], [ 84.3609725, 19.1822783 ], [ 84.3634515, 19.1802822 ], [ 84.3688862, 19.1800667 ], [ 84.3646814, 19.161215 ], [ 84.3741243, 19.1577744 ], [ 84.3752947, 19.1507612 ], [ 84.377119, 19.1474687 ], [ 84.3894203, 19.1416526 ], [ 84.3859139, 19.1395664 ], [ 84.3784975, 19.1405037 ], [ 84.3761458, 19.1360047 ], [ 84.3773938, 19.1345868 ], [ 84.3764076, 19.1287574 ], [ 84.3778459, 19.1285251 ], [ 84.3804926, 19.1308835 ], [ 84.3879218, 19.1290974 ], [ 84.3882386, 19.1252686 ], [ 84.3870826, 19.1211435 ], [ 84.381, 19.1191968 ], [ 84.3747568, 19.1114728 ], [ 84.3744784, 19.108954 ], [ 84.3779332, 19.1079422 ], [ 84.3785162, 19.1059098 ], [ 84.3772639, 19.1048941 ], [ 84.3711355, 19.1049872 ], [ 84.367052, 19.0902098 ], [ 84.3721791, 19.0909423 ], [ 84.3746878, 19.0869552 ], [ 84.3739917, 19.0805068 ], [ 84.3702116, 19.0720821 ], [ 84.3671499, 19.0738036 ], [ 84.3623695, 19.0737127 ], [ 84.3614973, 19.0688059 ], [ 84.3565276, 19.0647841 ], [ 84.3683971, 19.0507497 ], [ 84.3620513, 19.0479048 ], [ 84.3641574, 19.0453252 ], [ 84.3619317, 19.0428553 ], [ 84.3599342, 19.0325641 ], [ 84.353873, 19.0306803 ], [ 84.3515398, 19.027229 ], [ 84.3516942, 19.0222738 ], [ 84.3468123, 19.0140136 ], [ 84.3568378, 19.0143242 ], [ 84.353349, 19.010712 ], [ 84.3539233, 19.0083227 ], [ 84.3622056, 19.0098768 ], [ 84.3644442, 19.0145142 ], [ 84.3664949, 19.0157264 ], [ 84.3711885, 19.0142942 ], [ 84.3656559, 19.0075196 ], [ 84.3622626, 18.9966351 ], [ 84.3597049, 18.9935268 ], [ 84.3644275, 18.9893741 ], [ 84.3718454, 18.991832 ], [ 84.3754219, 18.9907632 ], [ 84.3808873, 18.9912243 ], [ 84.3885032, 19.0057635 ], [ 84.3956975, 19.0035089 ], [ 84.3971646, 19.0009023 ], [ 84.3918813, 19.0002511 ], [ 84.3902387, 18.9969463 ], [ 84.392627, 18.9905007 ], [ 84.3995687, 18.9872935 ], [ 84.397903, 18.9826916 ], [ 84.3890256, 18.97704 ], [ 84.3875842, 18.9748162 ], [ 84.3839566, 18.9764446 ], [ 84.3838831, 18.9726374 ], [ 84.3865494, 18.9653922 ], [ 84.387086, 18.9647676 ], [ 84.3890562, 18.9683714 ], [ 84.3980448, 18.973564 ], [ 84.4070814, 18.9732437 ], [ 84.4103715, 18.96579 ], [ 84.4041539, 18.9652244 ], [ 84.4030577, 18.9590864 ], [ 84.4016576, 18.9581774 ], [ 84.3988286, 18.958842 ], [ 84.393869, 18.9539862 ], [ 84.4014906, 18.9441552 ], [ 84.4118002, 18.9393329 ], [ 84.4166969, 18.9408912 ], [ 84.4180457, 18.942662 ], [ 84.4172928, 18.9450264 ], [ 84.4194424, 18.9481086 ], [ 84.4255827, 18.9509078 ], [ 84.4242198, 18.9472539 ], [ 84.4281968, 18.9422657 ], [ 84.4310283, 18.9358527 ], [ 84.4276838, 18.9320902 ], [ 84.4379853, 18.9323682 ], [ 84.4394657, 18.9270832 ], [ 84.4376529, 18.9196396 ], [ 84.4360804, 18.9203856 ], [ 84.4311082, 18.9166639 ], [ 84.4301924, 18.9113954 ], [ 84.4283926, 18.9090225 ], [ 84.4244299, 18.9103493 ], [ 84.4214997, 18.9139435 ], [ 84.4205269, 18.9176685 ], [ 84.4185728, 18.9173208 ], [ 84.4167595, 18.9146043 ], [ 84.4204744, 18.9108858 ], [ 84.4221903, 18.9054147 ], [ 84.4213447, 18.9011585 ], [ 84.4185089, 18.897376 ], [ 84.4128765, 18.8971668 ], [ 84.4097107, 18.8951223 ], [ 84.4000873, 18.8953085 ], [ 84.3941197, 18.9008146 ], [ 84.393534, 18.9043328 ], [ 84.3889395, 18.9029588 ], [ 84.3855595, 18.9003557 ], [ 84.3784013, 18.9036908 ], [ 84.3806199, 18.9001371 ], [ 84.3850485, 18.8978336 ], [ 84.3851493, 18.8959206 ], [ 84.3903263, 18.8958173 ], [ 84.3959568, 18.8930742 ], [ 84.3975181, 18.8902832 ], [ 84.3983269, 18.8836797 ], [ 84.3976076, 18.8820352 ], [ 84.3951792, 18.8820239 ], [ 84.3953706, 18.8797689 ], [ 84.3921325, 18.8762964 ], [ 84.3913272, 18.8798973 ], [ 84.3881104, 18.8842408 ], [ 84.3814831, 18.8864277 ], [ 84.3833504, 18.8828646 ], [ 84.382557, 18.8814175 ], [ 84.3742667, 18.8865246 ], [ 84.3706792, 18.8866228 ], [ 84.3649534, 18.8896933 ], [ 84.3602665, 18.8945527 ], [ 84.3625502, 18.8871532 ], [ 84.3663687, 18.8850313 ], [ 84.3725914, 18.8780667 ], [ 84.3758074, 18.8789745 ], [ 84.3809693, 18.877163 ], [ 84.3842022, 18.8741397 ], [ 84.3789943, 18.8717004 ], [ 84.3773322, 18.8645114 ], [ 84.3742269, 18.8613884 ], [ 84.3699006, 18.8608395 ], [ 84.3665026, 18.8640199 ], [ 84.3644958, 18.8613274 ], [ 84.3620603, 18.860882 ], [ 84.357788, 18.8693008 ], [ 84.3560512, 18.8693528 ], [ 84.3370228, 18.8899831 ], [ 84.3305332, 18.8832151 ], [ 84.3256043, 18.8760918 ], [ 84.3309405, 18.8676893 ], [ 84.3330603, 18.8605137 ], [ 84.3416338, 18.8542567 ], [ 84.3449882, 18.8490491 ], [ 84.3612339, 18.8421643 ], [ 84.3612612, 18.8388957 ], [ 84.3638496, 18.8371219 ], [ 84.3596031, 18.8312147 ], [ 84.3521115, 18.8314875 ], [ 84.3522304, 18.8290466 ], [ 84.3511845, 18.8295193 ], [ 84.3506575, 18.8277509 ], [ 84.3520142, 18.8271065 ], [ 84.3512535, 18.8227026 ], [ 84.3494079, 18.8200577 ], [ 84.3426552, 18.8222189 ], [ 84.3393191, 18.8196881 ], [ 84.3340992, 18.8199567 ], [ 84.334367, 18.8177074 ], [ 84.3310552, 18.8178497 ], [ 84.3310527, 18.8150097 ], [ 84.3342409, 18.8151862 ], [ 84.3369152, 18.8115583 ], [ 84.3418345, 18.8089781 ], [ 84.3445454, 18.8017971 ], [ 84.3390053, 18.8022645 ], [ 84.3380998, 18.8004501 ], [ 84.3361321, 18.8010721 ], [ 84.3364485, 18.7984399 ], [ 84.3265917, 18.7987865 ], [ 84.3245395, 18.7948426 ], [ 84.3249316, 18.7904371 ], [ 84.3212584, 18.7864924 ], [ 84.312593, 18.7903727 ], [ 84.3089778, 18.7941402 ], [ 84.3059234, 18.7942272 ], [ 84.3049869, 18.798259 ], [ 84.2886615, 18.8046593 ], [ 84.2887711, 18.7984213 ], [ 84.2864894, 18.7923021 ], [ 84.2681169, 18.7845619 ], [ 84.2609667, 18.7832201 ], [ 84.2584618, 18.7842263 ], [ 84.2559218, 18.7879859 ], [ 84.25322, 18.7879777 ], [ 84.2490271, 18.7857896 ], [ 84.2431365, 18.7886237 ], [ 84.2424755, 18.7899141 ], [ 84.2435823, 18.7915152 ], [ 84.2412807, 18.7913773 ], [ 84.2408028, 18.7971446 ], [ 84.2367409, 18.7985519 ], [ 84.2338304, 18.7947705 ], [ 84.2322507, 18.7971534 ], [ 84.2263082, 18.7987671 ], [ 84.2239038, 18.7970926 ], [ 84.2218532, 18.7978342 ], [ 84.2191945, 18.7949187 ], [ 84.2143983, 18.7954249 ], [ 84.2137724, 18.793998 ], [ 84.2189144, 18.7911853 ], [ 84.2180837, 18.7901075 ], [ 84.2132604, 18.7905456 ], [ 84.207581, 18.789147 ], [ 84.2004532, 18.7904893 ], [ 84.200112, 18.7922089 ], [ 84.1981016, 18.7908107 ], [ 84.1975203, 18.7918449 ], [ 84.1953427, 18.7916768 ], [ 84.1934194, 18.7875937 ], [ 84.1946801, 18.7833193 ], [ 84.1899385, 18.777704 ], [ 84.1827059, 18.7819606 ], [ 84.1757743, 18.7800816 ], [ 84.1747923, 18.7821255 ], [ 84.1722864, 18.7828956 ], [ 84.1697185, 18.7882153 ], [ 84.1655881, 18.7877555 ], [ 84.1634956, 18.7893039 ], [ 84.1613615, 18.7876687 ], [ 84.1592635, 18.7878533 ], [ 84.158427, 18.7828928 ], [ 84.1565076, 18.7845792 ], [ 84.1541614, 18.7831619 ], [ 84.1517615, 18.7835406 ], [ 84.146219, 18.7771628 ], [ 84.1403875, 18.7772722 ], [ 84.1389096, 18.7688031 ], [ 84.141995, 18.7642997 ], [ 84.1373975, 18.7612362 ], [ 84.1325601, 18.7606023 ], [ 84.1293048, 18.765333 ], [ 84.1246793, 18.7639392 ], [ 84.1223839, 18.7679442 ], [ 84.1177091, 18.7655382 ], [ 84.1134922, 18.7668726 ], [ 84.1032737, 18.7602679 ], [ 84.0968807, 18.7605434 ], [ 84.0894625, 18.7567804 ], [ 84.0895899, 18.7639873 ], [ 84.0847511, 18.7642729 ], [ 84.0852297, 18.7664878 ], [ 84.0813957, 18.7653898 ], [ 84.0811745, 18.7641945 ], [ 84.0797144, 18.7645057 ], [ 84.0803396, 18.7653461 ], [ 84.076417, 18.7644452 ], [ 84.0737495, 18.7757523 ], [ 84.0718663, 18.7776819 ], [ 84.0692231, 18.778146 ], [ 84.0679899, 18.7823113 ], [ 84.0620106, 18.7813823 ], [ 84.0599119, 18.7824235 ], [ 84.0600181, 18.7851081 ], [ 84.057265, 18.7893699 ], [ 84.0587287, 18.7896908 ], [ 84.0587181, 18.7908508 ], [ 84.0616256, 18.7907295 ], [ 84.0613655, 18.7923371 ], [ 84.0583993, 18.791735 ], [ 84.0574202, 18.7934428 ], [ 84.0587303, 18.7985929 ], [ 84.0598768, 18.7991751 ], [ 84.0585132, 18.8000148 ], [ 84.0510954, 18.7990771 ], [ 84.0466859, 18.8016076 ], [ 84.0454517, 18.8036013 ], [ 84.0459855, 18.8050633 ], [ 84.044257, 18.8060561 ], [ 84.0456072, 18.8128804 ], [ 84.0384833, 18.8164328 ], [ 84.0377829, 18.8130451 ], [ 84.0329638, 18.8115961 ], [ 84.0248276, 18.8154795 ], [ 84.0252219, 18.8170476 ], [ 84.0225212, 18.8158986 ], [ 84.0191152, 18.8179161 ], [ 84.0191742, 18.8164499 ], [ 84.0154659, 18.8170632 ], [ 84.0168764, 18.8161153 ], [ 84.0174373, 18.812802 ], [ 84.0157313, 18.8087526 ], [ 84.0098965, 18.811688 ], [ 84.0052181, 18.8087375 ], [ 84.0010708, 18.8113882 ], [ 83.9999009, 18.8105433 ], [ 83.9956742, 18.8112652 ], [ 83.9938502, 18.8136057 ], [ 83.9872136, 18.8114988 ], [ 83.9884522, 18.810896 ], [ 83.9868605, 18.8100486 ], [ 83.9848738, 18.8119395 ], [ 83.9798058, 18.812521 ], [ 83.9778518, 18.814173 ], [ 83.965093, 18.8146156 ], [ 83.9628061, 18.8128902 ], [ 83.9609598, 18.8140834 ], [ 83.9587691, 18.8096467 ], [ 83.9553895, 18.806486 ], [ 83.9501615, 18.8051773 ], [ 83.9417435, 18.80833 ], [ 83.9423208, 18.8154577 ], [ 83.9381046, 18.8158533 ], [ 83.9375367, 18.8181597 ], [ 83.93465, 18.8181528 ], [ 83.9346272, 18.8162792 ], [ 83.9316483, 18.8158782 ], [ 83.9281101, 18.8188621 ], [ 83.9263435, 18.8224349 ], [ 83.9232781, 18.8218291 ], [ 83.9226299, 18.8235878 ], [ 83.9176731, 18.8242959 ], [ 83.9158049, 18.8279616 ], [ 83.9119923, 18.825962 ], [ 83.9047562, 18.8273992 ], [ 83.8996301, 18.8244026 ], [ 83.896127, 18.815642 ], [ 83.8931623, 18.8144732 ], [ 83.8911563, 18.8250919 ], [ 83.8877254, 18.830961 ], [ 83.8716516, 18.8483351 ], [ 83.8660098, 18.8526951 ], [ 83.8533276, 18.8580688 ], [ 83.8484652, 18.8641679 ], [ 83.8436133, 18.8755427 ], [ 83.8488992, 18.8998968 ], [ 83.8457877, 18.9135828 ], [ 83.8433967, 18.917162 ], [ 83.8403172, 18.9185087 ], [ 83.8307085, 18.9147521 ], [ 83.8265774, 18.9162837 ], [ 83.8261308, 18.918587 ], [ 83.8289391, 18.9306046 ], [ 83.8197306, 18.9392569 ], [ 83.8189501, 18.9476472 ], [ 83.8217617, 18.9602291 ], [ 83.817733, 18.9715334 ], [ 83.8105222, 18.9852246 ], [ 83.8089263, 18.9922829 ], [ 83.7968619, 19.0009156 ], [ 83.7936384, 19.0069482 ], [ 83.794688, 19.017977 ], [ 83.7972248, 19.0195322 ], [ 83.7989349, 19.0278222 ], [ 83.8057029, 19.0314303 ], [ 83.8069893, 19.0334061 ], [ 83.816574, 19.0320322 ], [ 83.8190922, 19.0203554 ], [ 83.823478, 19.0169793 ], [ 83.8334032, 19.0038346 ], [ 83.8366339, 19.007952 ], [ 83.840156, 19.0079746 ], [ 83.8444461, 19.0107347 ], [ 83.8452093, 19.0087321 ], [ 83.8507215, 19.0057805 ], [ 83.8561255, 18.9992821 ], [ 83.8574356, 18.9910614 ], [ 83.8644519, 18.9905308 ], [ 83.8653586, 18.9894035 ], [ 83.8668974, 18.9900641 ], [ 83.8676746, 18.9933249 ], [ 83.8755857, 18.9952651 ], [ 83.8815143, 18.9953353 ], [ 83.8888675, 18.9935322 ], [ 83.8910265, 18.9946135 ], [ 83.8948307, 18.9969827 ], [ 83.8933514, 19.0008971 ], [ 83.895204, 19.0023714 ], [ 83.8960152, 19.0070083 ], [ 83.9078533, 19.0199272 ], [ 83.9171429, 19.0131946 ], [ 83.9207827, 19.0147937 ], [ 83.9284194, 19.0150746 ], [ 83.9306324, 19.0138026 ], [ 83.9301863, 19.0105505 ], [ 83.9378047, 19.0092694 ], [ 83.9502793, 18.9975687 ], [ 83.9601833, 18.9991844 ], [ 83.9681735, 19.0063284 ], [ 83.9724441, 19.0054969 ], [ 83.9762824, 19.0081029 ], [ 83.9815844, 19.0129512 ], [ 83.9855501, 19.022261 ], [ 83.9764185, 19.0333339 ], [ 83.9631588, 19.0430674 ], [ 83.9646882, 19.0513983 ], [ 83.9612821, 19.0529617 ], [ 83.9612718, 19.0565587 ], [ 83.9646623, 19.062982 ], [ 83.9776354, 19.072243 ], [ 83.9842019, 19.071753 ], [ 83.9975883, 19.068236 ], [ 84.0034335, 19.0698742 ], [ 84.0081, 19.0614475 ], [ 84.0090602, 19.0573105 ], [ 84.0189846, 19.0567014 ], [ 84.0242671, 19.0597926 ], [ 84.0317975, 19.0585721 ], [ 84.031547, 19.0656764 ], [ 84.0289963, 19.0718616 ], [ 84.0289277, 19.0756679 ], [ 84.0217677, 19.0751039 ], [ 84.0180963, 19.0797276 ], [ 84.0195174, 19.0892285 ], [ 84.0153619, 19.0946726 ], [ 84.0135186, 19.0998576 ], [ 84.0160151, 19.1024167 ], [ 84.0144897, 19.1062784 ], [ 84.0156024, 19.1181407 ], [ 84.0241091, 19.1255389 ], [ 84.0305348, 19.1276403 ], [ 84.0336864, 19.1322285 ], [ 84.026527, 19.1425072 ], [ 84.0210437, 19.1428953 ], [ 84.0169773, 19.1415403 ], [ 84.0101705, 19.1430648 ], [ 84.0064624, 19.1476536 ], [ 84.0027778, 19.1465983 ], [ 83.998093, 19.1501867 ], [ 83.9942336, 19.1497757 ], [ 83.9922796, 19.1544117 ], [ 83.9888019, 19.1570053 ], [ 83.9884958, 19.161628 ], [ 83.9839717, 19.1646806 ], [ 83.9878282, 19.1683373 ], [ 83.9919883, 19.1687932 ], [ 83.9886675, 19.1793106 ], [ 83.9894605, 19.1840237 ], [ 83.9879871, 19.1866206 ], [ 83.9914618, 19.1893445 ], [ 83.9958608, 19.190383 ], [ 83.9974602, 19.1934354 ], [ 83.9944931, 19.1953979 ], [ 83.9943638, 19.1969167 ], [ 83.9891612, 19.1990102 ], [ 83.9846356, 19.2036205 ], [ 83.9797495, 19.2130078 ], [ 83.9845202, 19.2145912 ], [ 83.9885391, 19.2210979 ], [ 83.9882058, 19.2286821 ], [ 83.994512, 19.2360314 ], [ 83.9922024, 19.2373376 ], [ 83.9923914, 19.2427872 ], [ 83.995395, 19.2440967 ], [ 83.9986143, 19.2575268 ], [ 84.0027741, 19.2586277 ], [ 84.0013485, 19.2646408 ], [ 84.0031287, 19.2697394 ], [ 84.0112499, 19.2714518 ], [ 84.0128987, 19.2849299 ], [ 84.0145664, 19.2874842 ], [ 84.0201231, 19.2908363 ], [ 84.0197649, 19.2961775 ], [ 84.0143214, 19.3065364 ], [ 84.0162418, 19.30859 ], [ 84.016175, 19.3176457 ], [ 84.0253217, 19.3250817 ], [ 84.0268252, 19.3284872 ], [ 84.0264016, 19.3338792 ], [ 84.0239905, 19.3377287 ], [ 84.0277317, 19.3415393 ], [ 84.0288157, 19.3474523 ], [ 84.0219633, 19.3621636 ], [ 84.0189118, 19.3653514 ], [ 84.0154355, 19.3772486 ], [ 83.9971603, 19.3888305 ], [ 83.9897669, 19.3890019 ], [ 83.9870013, 19.40244 ], [ 83.9819142, 19.4015665 ], [ 83.9801533, 19.3999525 ], [ 83.979008, 19.3947894 ], [ 83.9797174, 19.3906431 ], [ 83.9775212, 19.3835567 ], [ 83.9686542, 19.3857598 ], [ 83.9663321, 19.3875447 ], [ 83.9652961, 19.3931091 ], [ 83.9626218, 19.3959514 ], [ 83.9546774, 19.3977825 ], [ 83.9472391, 19.39682 ], [ 83.9471123, 19.4058816 ], [ 83.9418057, 19.4197714 ], [ 83.9510639, 19.4345035 ], [ 83.9548459, 19.4381343 ], [ 83.9547029, 19.4412783 ], [ 83.9633646, 19.4484314 ], [ 83.9618868, 19.4522156 ], [ 83.9653726, 19.4594124 ], [ 83.9680596, 19.4595806 ], [ 83.9692109, 19.4611325 ], [ 83.9701316, 19.4646472 ], [ 83.9681024, 19.4692485 ], [ 83.970747, 19.4730781 ], [ 83.9735332, 19.4823173 ], [ 83.9766966, 19.4861291 ], [ 83.9749645, 19.4900577 ], [ 83.9692327, 19.4923409 ], [ 83.9644386, 19.4980394 ], [ 83.9584768, 19.5023575 ], [ 83.95911, 19.507854 ], [ 83.9657548, 19.5120017 ], [ 83.9712411, 19.5256653 ], [ 83.9782434, 19.5310749 ], [ 83.9746569, 19.5333232 ], [ 83.9707412, 19.5420497 ], [ 83.9661654, 19.5425582 ], [ 83.9550036, 19.5482302 ], [ 83.9460253, 19.546761 ], [ 83.9420975, 19.5496734 ], [ 83.9383786, 19.5557104 ], [ 83.939558, 19.5629811 ], [ 83.9362969, 19.5656933 ], [ 83.9357651, 19.5686357 ], [ 83.9333128, 19.5702194 ], [ 83.9315627, 19.5737732 ], [ 83.934455, 19.5943549 ], [ 83.9313643, 19.5956872 ], [ 83.9249282, 19.6264099 ], [ 83.9257711, 19.6306032 ], [ 83.9302687, 19.6314057 ], [ 83.9337088, 19.6340624 ], [ 83.954962, 19.6361789 ], [ 83.9598728, 19.6316537 ], [ 83.963877, 19.6315138 ], [ 83.9644367, 19.6250507 ], [ 83.9664028, 19.6238517 ], [ 83.9774626, 19.6236452 ], [ 83.9830169, 19.6221135 ], [ 83.9912792, 19.6276051 ], [ 84.0033705, 19.6288316 ], [ 84.0096508, 19.6189563 ], [ 84.0124738, 19.6247176 ], [ 84.0237025, 19.6301081 ], [ 84.0226802, 19.6315446 ], [ 84.0254942, 19.6342092 ], [ 84.026794, 19.6376205 ], [ 84.0354095, 19.635691 ], [ 84.0381458, 19.6314434 ], [ 84.0430179, 19.6276146 ] ] ] ] } }
]
}
