{
"type": "FeatureCollection",
"name": "2122",
"crs": { "type": "name", "properties": { "name": "urn:ogc:def:crs:OGC:1.3:CRS84" } },
"features": [
{ "type": "Feature", "properties": { "code": "2122", "name": "Boudh", "type": "district" }, "geometry": { "type": "Polygon", "coordinates": [ [ [ 84.2349692, 20.8951404 ], [ 84.2479817, 20.891103 ], [ 84.2781721, 20.8743112 ], [ 84.2940064, 20.8684686 ], [ 84.302621, 20.8612918 ], [ 84.3214086, 20.8528928 ], [ 84.3364333, 20.8423699 ], [ 84.3411906, 20.8410941 ], [ 84.3442856, 20.8387631 ], [ 84.352557, 20.8279214 ], [ 84.3555442, 20.8179911 ], [ 84.3531353, 20.8011382 ], [ 84.3551858, 20.7972604 ], [ 84.3555761, 20.793041 ], [ 84.349558, 20.7860683 ], [ 84.3491436, 20.781218 ], [ 84.3599596, 20.7662483 ], [ 84.377736, 20.7538262 ], [ 84.3944027, 20.7499989 ], [ 84.4116653, 20.7407296 ], [ 84.4200384, 20.7376954 ], [ 84.4501857, 20.7388451 ], [ 84.4628107, 20.7351899 ], [ 84.4700512, 20.7320957 ], [ 84.4847834, 20.722542 ], [ 84.4985023, 20.7176179 ], [ 84.5156129, 20.7023847 ], [ 84.5338017, 20.6953233 ], [ 84.5532754, 20.6924181 ], [ 84.5601325, 20.689969 ], [ 84.5817842, 20.674603 ], [ 84.5920362, 20.6636531 ], [ 84.5999814, 20.6513703 ], [ 84.6122685, 20.6392237 ], [ 84.6269531, 20.6291544 ], [ 84.6389779, 20.6238109 ], [ 84.6579237, 20.6183798 ], [ 84.6806598, 20.616876 ], [ 84.6979011, 20.6117696 ], [ 84.7128234, 20.6112589 ], [ 84.7284186, 20.6155194 ], [ 84.7617917, 20.6081254 ], [ 84.7783631, 20.5977459 ], [ 84.7864444, 20.5843888 ], [ 84.7900954, 20.5812702 ], [ 84.7891667, 20.5791631 ], [ 84.7912989, 20.5609434 ], [ 84.787316, 20.5585307 ], [ 84.7865744, 20.5507772 ], [ 84.7844733, 20.549197 ], [ 84.7779059, 20.549167 ], [ 84.7731497, 20.5392893 ], [ 84.7660298, 20.5317879 ], [ 84.7547211, 20.5371099 ], [ 84.7404516, 20.5409657 ], [ 84.7348336, 20.5380251 ], [ 84.7343525, 20.5358697 ], [ 84.7322125, 20.5353628 ], [ 84.7316963, 20.5323308 ], [ 84.7246496, 20.5278314 ], [ 84.7124724, 20.5238105 ], [ 84.7113544, 20.5206714 ], [ 84.71274, 20.5138714 ], [ 84.7102574, 20.5100051 ], [ 84.7111747, 20.5066441 ], [ 84.7039913, 20.5008238 ], [ 84.696691, 20.497747 ], [ 84.6981624, 20.4954682 ], [ 84.6941962, 20.4911937 ], [ 84.695202, 20.4847134 ], [ 84.6917044, 20.4739076 ], [ 84.6925086, 20.4701119 ], [ 84.691411, 20.4685395 ], [ 84.686629, 20.4672703 ], [ 84.6864492, 20.4639311 ], [ 84.6818423, 20.4628357 ], [ 84.6805272, 20.4601318 ], [ 84.6882981, 20.4588447 ], [ 84.6911622, 20.4502448 ], [ 84.6858371, 20.4481916 ], [ 84.6862868, 20.4453533 ], [ 84.6897094, 20.4439223 ], [ 84.6896113, 20.4411936 ], [ 84.6814565, 20.4374681 ], [ 84.6807067, 20.4328436 ], [ 84.6737636, 20.4339428 ], [ 84.6718911, 20.4297773 ], [ 84.6631954, 20.4245133 ], [ 84.6466515, 20.4235634 ], [ 84.6391392, 20.425891 ], [ 84.6348592, 20.4257561 ], [ 84.6291079, 20.4316063 ], [ 84.6236107, 20.4305741 ], [ 84.6198656, 20.4320851 ], [ 84.6181468, 20.4342108 ], [ 84.6137159, 20.4280186 ], [ 84.6089086, 20.4269819 ], [ 84.604001, 20.4200559 ], [ 84.5959689, 20.4197465 ], [ 84.591018, 20.4239629 ], [ 84.5898198, 20.4237114 ], [ 84.5851321, 20.4223959 ], [ 84.563557, 20.4113405 ], [ 84.5551487, 20.4130693 ], [ 84.5423062, 20.4186677 ], [ 84.5396271, 20.4100561 ], [ 84.5304505, 20.4104047 ], [ 84.5220841, 20.4032244 ], [ 84.5183517, 20.4054333 ], [ 84.513669, 20.4027027 ], [ 84.509073, 20.3948894 ], [ 84.4929276, 20.3951049 ], [ 84.4816353, 20.3842691 ], [ 84.4676939, 20.3897512 ], [ 84.4608511, 20.4000041 ], [ 84.4614604, 20.4192097 ], [ 84.4587432, 20.4234004 ], [ 84.4586382, 20.4274576 ], [ 84.460162, 20.4326537 ], [ 84.4644085, 20.4359798 ], [ 84.4649455, 20.4452925 ], [ 84.4551492, 20.4662738 ], [ 84.4507594, 20.4643449 ], [ 84.4481149, 20.4652225 ], [ 84.442431, 20.4702767 ], [ 84.4390547, 20.476561 ], [ 84.4304899, 20.4790802 ], [ 84.4252538, 20.4847949 ], [ 84.4248379, 20.4867435 ], [ 84.4281626, 20.4910772 ], [ 84.4345208, 20.4962458 ], [ 84.4349645, 20.5009567 ], [ 84.433472, 20.5088667 ], [ 84.4244285, 20.5141051 ], [ 84.4187296, 20.5196049 ], [ 84.4068323, 20.5226508 ], [ 84.4012118, 20.528282 ], [ 84.3951454, 20.5282361 ], [ 84.3879561, 20.5305432 ], [ 84.389266, 20.5423006 ], [ 84.3812274, 20.5586843 ], [ 84.3842742, 20.5689105 ], [ 84.3911863, 20.5666629 ], [ 84.3938397, 20.5724406 ], [ 84.3940272, 20.5760777 ], [ 84.3917277, 20.5796591 ], [ 84.3853079, 20.5782936 ], [ 84.3795551, 20.5884048 ], [ 84.3809353, 20.5965743 ], [ 84.3842014, 20.5981903 ], [ 84.379696, 20.6070832 ], [ 84.3764025, 20.6218812 ], [ 84.3746008, 20.6251674 ], [ 84.3724966, 20.6262279 ], [ 84.3697705, 20.6324115 ], [ 84.3693843, 20.6345954 ], [ 84.3725562, 20.641456 ], [ 84.3689426, 20.6507909 ], [ 84.3608005, 20.6581965 ], [ 84.3602978, 20.6611954 ], [ 84.3563716, 20.6644081 ], [ 84.3567147, 20.6711804 ], [ 84.3458166, 20.6692568 ], [ 84.3373374, 20.6727556 ], [ 84.339035, 20.6796615 ], [ 84.330964, 20.683103 ], [ 84.326282, 20.6877614 ], [ 84.3144758, 20.6896993 ], [ 84.2960768, 20.6863012 ], [ 84.2866928, 20.6804206 ], [ 84.2794419, 20.6730655 ], [ 84.2765597, 20.6725054 ], [ 84.2731858, 20.6680418 ], [ 84.2749216, 20.6618894 ], [ 84.2770468, 20.6597064 ], [ 84.2771393, 20.6512891 ], [ 84.2794703, 20.6475069 ], [ 84.2804277, 20.6354691 ], [ 84.2718238, 20.6360691 ], [ 84.2620848, 20.6199756 ], [ 84.2636454, 20.6163664 ], [ 84.2557345, 20.6029694 ], [ 84.2566183, 20.6018052 ], [ 84.2511945, 20.5986855 ], [ 84.2453257, 20.597933 ], [ 84.2365989, 20.5932391 ], [ 84.23183, 20.5881387 ], [ 84.2310824, 20.5849443 ], [ 84.2251545, 20.5819287 ], [ 84.2145882, 20.5833253 ], [ 84.2114716, 20.5823225 ], [ 84.2003643, 20.5852531 ], [ 84.1855875, 20.5843948 ], [ 84.1757935, 20.5992754 ], [ 84.1711731, 20.5955933 ], [ 84.160276, 20.5920201 ], [ 84.152333, 20.5850555 ], [ 84.1512417, 20.5803252 ], [ 84.1447423, 20.5780017 ], [ 84.1413345, 20.5777333 ], [ 84.1345559, 20.582672 ], [ 84.121328, 20.581071 ], [ 84.1125713, 20.5825772 ], [ 84.1046434, 20.5919684 ], [ 84.0960689, 20.5903982 ], [ 84.0849033, 20.5847082 ], [ 84.0816629, 20.5844685 ], [ 84.0781719, 20.5873208 ], [ 84.0735684, 20.5869269 ], [ 84.0699169, 20.590133 ], [ 84.0635417, 20.5888964 ], [ 84.0601523, 20.5899266 ], [ 84.0352231, 20.5817467 ], [ 84.0329898, 20.5790094 ], [ 84.0337483, 20.5764632 ], [ 84.0288114, 20.5737606 ], [ 84.0188432, 20.5712827 ], [ 84.0148533, 20.5682036 ], [ 84.0048666, 20.5686719 ], [ 83.9994646, 20.5704332 ], [ 83.9840442, 20.5801079 ], [ 83.9794654, 20.5860397 ], [ 83.9654801, 20.5870088 ], [ 83.9459953, 20.5818186 ], [ 83.9406681, 20.584351 ], [ 83.9379679, 20.584204 ], [ 83.9350522, 20.5874153 ], [ 83.9314921, 20.5888098 ], [ 83.9294741, 20.5962297 ], [ 83.9406116, 20.6047044 ], [ 83.9318925, 20.6061474 ], [ 83.9214916, 20.6105103 ], [ 83.9128031, 20.6022375 ], [ 83.9104632, 20.5927724 ], [ 83.9123741, 20.5795155 ], [ 83.8964301, 20.5830616 ], [ 83.8852332, 20.580315 ], [ 83.8735962, 20.5824968 ], [ 83.8563698, 20.5723373 ], [ 83.8552192, 20.570263 ], [ 83.8570373, 20.5631476 ], [ 83.8492296, 20.5564799 ], [ 83.8453448, 20.5494324 ], [ 83.8412242, 20.5452459 ], [ 83.8383005, 20.5443713 ], [ 83.8321425, 20.5451343 ], [ 83.8232007, 20.5491583 ], [ 83.819618, 20.5444804 ], [ 83.8200491, 20.5400884 ], [ 83.8246157, 20.5356368 ], [ 83.82348, 20.5312476 ], [ 83.8196252, 20.5267724 ], [ 83.819247, 20.5221263 ], [ 83.8133991, 20.5216126 ], [ 83.805481, 20.5089215 ], [ 83.7963276, 20.5089196 ], [ 83.8032688, 20.5012678 ], [ 83.8063153, 20.4950196 ], [ 83.8075867, 20.4896005 ], [ 83.8061486, 20.486889 ], [ 83.8076501, 20.4858426 ], [ 83.8107989, 20.4750788 ], [ 83.8110842, 20.4629085 ], [ 83.8281597, 20.4521918 ], [ 83.8250617, 20.4505648 ], [ 83.8197351, 20.4509097 ], [ 83.816387, 20.4518952 ], [ 83.8131235, 20.4550486 ], [ 83.8074702, 20.446181 ], [ 83.8148935, 20.437946 ], [ 83.8145449, 20.4362879 ], [ 83.8060851, 20.4314259 ], [ 83.7929419, 20.4333592 ], [ 83.7935674, 20.4345892 ], [ 83.791409, 20.4410116 ], [ 83.785694, 20.4420929 ], [ 83.7835699, 20.4394859 ], [ 83.7848125, 20.4361379 ], [ 83.7810534, 20.4263028 ], [ 83.7829815, 20.4141587 ], [ 83.7800563, 20.4072814 ], [ 83.776846, 20.4111164 ], [ 83.7678214, 20.413264 ], [ 83.7643646, 20.4192513 ], [ 83.7546948, 20.4261064 ], [ 83.7461525, 20.4264388 ], [ 83.7464441, 20.4207719 ], [ 83.7415119, 20.4226787 ], [ 83.7380134, 20.4221889 ], [ 83.7345888, 20.4265875 ], [ 83.7322951, 20.4252675 ], [ 83.7277268, 20.4266933 ], [ 83.7267392, 20.4301538 ], [ 83.7280465, 20.4326242 ], [ 83.7192115, 20.435233 ], [ 83.7172716, 20.434384 ], [ 83.714907, 20.4300886 ], [ 83.7100413, 20.4274923 ], [ 83.6978807, 20.4170459 ], [ 83.6920204, 20.4142044 ], [ 83.6885233, 20.4138989 ], [ 83.6853736, 20.4152513 ], [ 83.6812384, 20.4203617 ], [ 83.6797498, 20.4277155 ], [ 83.6772626, 20.4298566 ], [ 83.6742834, 20.430156 ], [ 83.6709933, 20.4257838 ], [ 83.6660064, 20.4228657 ], [ 83.6607194, 20.4227532 ], [ 83.6575382, 20.4259906 ], [ 83.6563574, 20.4325603 ], [ 83.6352312, 20.4406974 ], [ 83.6270577, 20.4475792 ], [ 83.6184877, 20.4468218 ], [ 83.617226, 20.4497843 ], [ 83.6190905, 20.4531304 ], [ 83.617598, 20.458331 ], [ 83.6097141, 20.4657315 ], [ 83.5966828, 20.4691551 ], [ 83.5957989, 20.4714569 ], [ 83.5966853, 20.4764196 ], [ 83.5869927, 20.4829747 ], [ 83.5833906, 20.4877364 ], [ 83.5797737, 20.487754 ], [ 83.573794, 20.4808542 ], [ 83.5715316, 20.4814743 ], [ 83.5699608, 20.4836405 ], [ 83.5694634, 20.4846158 ], [ 83.5751207, 20.4959969 ], [ 83.5792334, 20.5020565 ], [ 83.5803583, 20.5088705 ], [ 83.5783882, 20.518334 ], [ 83.5816824, 20.5235321 ], [ 83.588994, 20.5262074 ], [ 83.6134185, 20.5283318 ], [ 83.6243762, 20.5311921 ], [ 83.6330363, 20.5354081 ], [ 83.6440941, 20.5366165 ], [ 83.6537824, 20.5414975 ], [ 83.6727399, 20.5554488 ], [ 83.6839908, 20.5588411 ], [ 83.688464, 20.5630195 ], [ 83.6951371, 20.5726305 ], [ 83.7072158, 20.5820978 ], [ 83.7159104, 20.5966462 ], [ 83.7269384, 20.605081 ], [ 83.7307167, 20.6096754 ], [ 83.7323682, 20.6143621 ], [ 83.7320964, 20.6227717 ], [ 83.7267226, 20.6292984 ], [ 83.7169017, 20.6346806 ], [ 83.7156374, 20.640438 ], [ 83.7311089, 20.6638569 ], [ 83.735715, 20.6730558 ], [ 83.7411004, 20.6879479 ], [ 83.7415312, 20.7001652 ], [ 83.7431181, 20.7038415 ], [ 83.7463733, 20.7071797 ], [ 83.7540488, 20.7108577 ], [ 83.757748, 20.717231 ], [ 83.7595252, 20.7401021 ], [ 83.7640377, 20.7573588 ], [ 83.7635989, 20.7635725 ], [ 83.7606599, 20.7729774 ], [ 83.7622156, 20.7803959 ], [ 83.775646, 20.7953911 ], [ 83.7826902, 20.8004816 ], [ 83.7953819, 20.8064457 ], [ 83.8145969, 20.8110197 ], [ 83.8295621, 20.8231996 ], [ 83.8367644, 20.8255541 ], [ 83.8470181, 20.8247249 ], [ 83.8533957, 20.8204977 ], [ 83.8646572, 20.8161211 ], [ 83.8787837, 20.8155369 ], [ 83.896083, 20.8174524 ], [ 83.922139, 20.8345539 ], [ 83.9366204, 20.8422994 ], [ 83.9600981, 20.8398459 ], [ 83.9979843, 20.8421021 ], [ 84.0125239, 20.8405289 ], [ 84.0181008, 20.8377994 ], [ 84.033294, 20.8216898 ], [ 84.0374587, 20.8203928 ], [ 84.0409529, 20.8208589 ], [ 84.0643987, 20.8301937 ], [ 84.0737998, 20.8324171 ], [ 84.0871754, 20.8334401 ], [ 84.1074057, 20.8381827 ], [ 84.1225657, 20.8458585 ], [ 84.1479176, 20.8647402 ], [ 84.1638363, 20.8719782 ], [ 84.1832795, 20.8832507 ], [ 84.1894016, 20.8882448 ], [ 84.198569, 20.8921303 ], [ 84.2168716, 20.8958569 ], [ 84.2349692, 20.8951404 ] ] ] } }
]
}
