{
"type": "FeatureCollection",
"name": "2123",
"crs": { "type": "name", "properties": { "name": "urn:ogc:def:crs:OGC:1.3:CRS84" } },
"features": [
{ "type": "Feature", "properties": { "code": "2123", "name": "Sonepur", "type": "district" }, "geometry": { "type": "Polygon", "coordinates": [ [ [ 83.89863, 21.1770959 ], [ 83.9066852, 21.1749737 ], [ 83.90857, 21.1722599 ], [ 83.9134604, 21.1716995 ], [ 83.913961, 21.170175 ], [ 83.9182242, 21.1681897 ], [ 83.9190889, 21.1647666 ], [ 83.9224827, 21.1621161 ], [ 83.9493611, 21.1511404 ], [ 83.9481102, 21.1450479 ], [ 83.9543987, 21.1454636 ], [ 83.9611117, 21.1432377 ], [ 83.9642784, 21.141751 ], [ 83.9661637, 21.1391718 ], [ 83.9810108, 21.1338593 ], [ 83.9842072, 21.1313619 ], [ 83.9829877, 21.1282921 ], [ 83.9842641, 21.1235642 ], [ 83.9827754, 21.1234575 ], [ 83.9835065, 21.1220208 ], [ 83.9823063, 21.1171569 ], [ 83.9907266, 21.111231 ], [ 83.9913572, 21.1090265 ], [ 83.9899406, 21.1048904 ], [ 83.992146, 21.1002767 ], [ 83.9889413, 21.0907773 ], [ 83.9902381, 21.0854077 ], [ 83.9878536, 21.0823207 ], [ 83.9873027, 21.0788191 ], [ 83.9953553, 21.0758319 ], [ 83.9949834, 21.0725623 ], [ 83.9994153, 21.0658691 ], [ 84.0047609, 21.0622272 ], [ 84.0079566, 21.0616696 ], [ 84.009528, 21.058183 ], [ 84.0161994, 21.055394 ], [ 84.0155284, 21.0531211 ], [ 84.0174326, 21.0516561 ], [ 84.0293445, 21.0529616 ], [ 84.0430906, 21.0435868 ], [ 84.0448835, 21.0438074 ], [ 84.0481785, 21.0474444 ], [ 84.0735633, 21.0489409 ], [ 84.074496, 21.0473038 ], [ 84.0884678, 21.0465389 ], [ 84.0934823, 21.0430726 ], [ 84.1117155, 21.0377419 ], [ 84.1383071, 21.0346939 ], [ 84.1424232, 21.0331473 ], [ 84.1423703, 21.0281048 ], [ 84.1407906, 21.0264939 ], [ 84.1422076, 21.020501 ], [ 84.1396061, 21.0127391 ], [ 84.1447133, 21.0060633 ], [ 84.1450722, 21.0031131 ], [ 84.1494152, 21.0022155 ], [ 84.1480607, 20.9993854 ], [ 84.152764, 20.9962143 ], [ 84.1559126, 20.9961948 ], [ 84.1555029, 20.9901963 ], [ 84.152559, 20.9864975 ], [ 84.1564288, 20.9765553 ], [ 84.1558905, 20.9747513 ], [ 84.1584793, 20.9739428 ], [ 84.1583625, 20.9754412 ], [ 84.1609394, 20.9744071 ], [ 84.1629726, 20.9751209 ], [ 84.169722, 20.9714324 ], [ 84.1904752, 20.9744879 ], [ 84.1920665, 20.9764277 ], [ 84.1920257, 20.9737368 ], [ 84.1995882, 20.9660945 ], [ 84.2091767, 20.9615419 ], [ 84.2136711, 20.9479557 ], [ 84.2246927, 20.9322496 ], [ 84.238102, 20.922839 ], [ 84.2789312, 20.9223506 ], [ 84.2682685, 20.913308 ], [ 84.2679789, 20.9117957 ], [ 84.2705308, 20.9098775 ], [ 84.2707109, 20.908156 ], [ 84.2679758, 20.9042753 ], [ 84.2617823, 20.8997835 ], [ 84.2680625, 20.8888879 ], [ 84.2663145, 20.8811786 ], [ 84.2548187, 20.8863973 ], [ 84.2479817, 20.891103 ], [ 84.2349692, 20.8951404 ], [ 84.2168716, 20.8958569 ], [ 84.2033956, 20.89352 ], [ 84.1894016, 20.8882448 ], [ 84.1832795, 20.8832507 ], [ 84.1638363, 20.8719782 ], [ 84.1479176, 20.8647402 ], [ 84.1225657, 20.8458585 ], [ 84.1074057, 20.8381827 ], [ 84.0871754, 20.8334401 ], [ 84.0737998, 20.8324171 ], [ 84.0643987, 20.8301937 ], [ 84.0409529, 20.8208589 ], [ 84.0374587, 20.8203928 ], [ 84.033294, 20.8216898 ], [ 84.0181008, 20.8377994 ], [ 84.0125239, 20.8405289 ], [ 83.9979843, 20.8421021 ], [ 83.9600981, 20.8398459 ], [ 83.9366204, 20.8422994 ], [ 83.922139, 20.8345539 ], [ 83.896083, 20.8174524 ], [ 83.8787837, 20.8155369 ], [ 83.8646572, 20.8161211 ], [ 83.8533957, 20.8204977 ], [ 83.8470181, 20.8247249 ], [ 83.8367644, 20.8255541 ], [ 83.8295621, 20.8231996 ], [ 83.8145969, 20.8110197 ], [ 83.7953819, 20.8064457 ], [ 83.7861175, 20.8025655 ], [ 83.775646, 20.7953911 ], [ 83.7622156, 20.7803959 ], [ 83.7606599, 20.7729774 ], [ 83.7635989, 20.7635725 ], [ 83.7640377, 20.7573588 ], [ 83.7595252, 20.7401021 ], [ 83.757748, 20.717231 ], [ 83.7540488, 20.7108577 ], [ 83.7463733, 20.7071797 ], [ 83.7431181, 20.7038415 ], [ 83.7415312, 20.7001652 ], [ 83.7411004, 20.6879479 ], [ 83.735715, 20.6730558 ], [ 83.7311089, 20.6638569 ], [ 83.7156374, 20.640438 ], [ 83.7169017, 20.6346806 ], [ 83.7267226, 20.6292984 ], [ 83.7320964, 20.6227717 ], [ 83.7323682, 20.6143621 ], [ 83.7307167, 20.6096754 ], [ 83.7269384, 20.605081 ], [ 83.7159104, 20.5966462 ], [ 83.7072158, 20.5820978 ], [ 83.6951371, 20.5726305 ], [ 83.688464, 20.5630195 ], [ 83.6839908, 20.5588411 ], [ 83.6727399, 20.5554488 ], [ 83.6537824, 20.5414975 ], [ 83.6452517, 20.5370459 ], [ 83.6330363, 20.5354081 ], [ 83.6243762, 20.5311921 ], [ 83.6134185, 20.5283318 ], [ 83.6012805, 20.527721 ], [ 83.602587, 20.5304372 ], [ 83.6007238, 20.5316389 ], [ 83.5978825, 20.5305393 ], [ 83.5944559, 20.5396378 ], [ 83.5954302, 20.5530585 ], [ 83.5971311, 20.5637866 ], [ 83.6050327, 20.5703945 ], [ 83.5959942, 20.5793111 ], [ 83.5999883, 20.58247 ], [ 83.5999014, 20.5900602 ], [ 83.594055, 20.6009829 ], [ 83.594865, 20.6063521 ], [ 83.6008328, 20.6073819 ], [ 83.6007421, 20.6107963 ], [ 83.6041489, 20.6109346 ], [ 83.6066338, 20.6177591 ], [ 83.6093146, 20.6183371 ], [ 83.6214458, 20.6331549 ], [ 83.6224302, 20.6407783 ], [ 83.6267994, 20.6441383 ], [ 83.6281465, 20.6611236 ], [ 83.6361205, 20.6651506 ], [ 83.6384545, 20.6703109 ], [ 83.6415103, 20.6714378 ], [ 83.6364653, 20.6784491 ], [ 83.6366626, 20.6798727 ], [ 83.6503974, 20.6865554 ], [ 83.6522316, 20.6883192 ], [ 83.6522289, 20.6934024 ], [ 83.6551588, 20.6955332 ], [ 83.655916, 20.6998868 ], [ 83.6589175, 20.7028154 ], [ 83.6615323, 20.7025449 ], [ 83.6620959, 20.7051498 ], [ 83.6646119, 20.7049801 ], [ 83.665736, 20.7067097 ], [ 83.6669611, 20.7092774 ], [ 83.665765, 20.7193312 ], [ 83.6670028, 20.7250721 ], [ 83.6712396, 20.7316378 ], [ 83.6724615, 20.7372798 ], [ 83.6766254, 20.7404742 ], [ 83.6772409, 20.7446223 ], [ 83.6739895, 20.7444834 ], [ 83.6712691, 20.7458889 ], [ 83.6617075, 20.744674 ], [ 83.6534109, 20.7458225 ], [ 83.6532012, 20.7497577 ], [ 83.6507305, 20.7520079 ], [ 83.6497534, 20.755964 ], [ 83.6550626, 20.7571279 ], [ 83.6567831, 20.7635703 ], [ 83.6559425, 20.7703998 ], [ 83.6545691, 20.7731071 ], [ 83.6495724, 20.7747508 ], [ 83.6387898, 20.7702309 ], [ 83.6352818, 20.771102 ], [ 83.6348778, 20.7810082 ], [ 83.6360761, 20.7822972 ], [ 83.6345448, 20.7966555 ], [ 83.6287631, 20.7968435 ], [ 83.6275154, 20.7988083 ], [ 83.6249246, 20.7994485 ], [ 83.6182958, 20.7970127 ], [ 83.6168695, 20.7978245 ], [ 83.6164323, 20.8008649 ], [ 83.6132968, 20.803057 ], [ 83.6074103, 20.7994086 ], [ 83.6027551, 20.7989376 ], [ 83.5965906, 20.8003357 ], [ 83.5931824, 20.7995205 ], [ 83.5928199, 20.8047087 ], [ 83.5968884, 20.8042634 ], [ 83.5970957, 20.8057093 ], [ 83.5936767, 20.8208167 ], [ 83.6110612, 20.8193203 ], [ 83.6209067, 20.8158564 ], [ 83.6208942, 20.8209534 ], [ 83.6253418, 20.8271285 ], [ 83.6210495, 20.827438 ], [ 83.6142268, 20.8330228 ], [ 83.6043407, 20.8330876 ], [ 83.5964573, 20.837925 ], [ 83.5894642, 20.8386899 ], [ 83.5825726, 20.8431641 ], [ 83.573671, 20.8458173 ], [ 83.5697118, 20.8454297 ], [ 83.5737788, 20.8555488 ], [ 83.5746487, 20.868551 ], [ 83.5765123, 20.8730554 ], [ 83.5797347, 20.8738383 ], [ 83.58294, 20.8773149 ], [ 83.5893713, 20.8809284 ], [ 83.5927026, 20.883871 ], [ 83.593543, 20.8880567 ], [ 83.6171684, 20.9005623 ], [ 83.6196172, 20.9029715 ], [ 83.6199831, 20.9096561 ], [ 83.6150417, 20.9142237 ], [ 83.6121294, 20.9133473 ], [ 83.615883, 20.9228287 ], [ 83.6151735, 20.9270784 ], [ 83.6090821, 20.9304718 ], [ 83.6109968, 20.9322708 ], [ 83.6134862, 20.9320159 ], [ 83.6151308, 20.9359543 ], [ 83.6169664, 20.950047 ], [ 83.6239416, 20.952382 ], [ 83.6256694, 20.9605082 ], [ 83.6297652, 20.9619527 ], [ 83.6314526, 20.963904 ], [ 83.6353925, 20.9731605 ], [ 83.6359922, 20.9780221 ], [ 83.639299, 20.9788467 ], [ 83.6391252, 20.98126 ], [ 83.625328, 20.9841593 ], [ 83.6150222, 20.9838754 ], [ 83.5887291, 20.9796817 ], [ 83.5751406, 20.9746374 ], [ 83.5681102, 20.9744457 ], [ 83.5295553, 20.9846567 ], [ 83.5232306, 20.9841546 ], [ 83.509824, 20.9798608 ], [ 83.5016486, 20.9831008 ], [ 83.4903436, 20.9953296 ], [ 83.4822052, 20.9965319 ], [ 83.4694598, 20.9950379 ], [ 83.4646279, 20.9979387 ], [ 83.4527863, 21.0129045 ], [ 83.4463196, 21.0161625 ], [ 83.4470636, 21.0175604 ], [ 83.4454785, 21.0226668 ], [ 83.4487194, 21.0273742 ], [ 83.4481869, 21.0327498 ], [ 83.451589, 21.042272 ], [ 83.454073, 21.0440379 ], [ 83.4563412, 21.0481854 ], [ 83.4555177, 21.0531093 ], [ 83.4570124, 21.0542299 ], [ 83.457554, 21.0599692 ], [ 83.4624904, 21.061821 ], [ 83.4642732, 21.0599711 ], [ 83.4728704, 21.0566272 ], [ 83.4741469, 21.0526808 ], [ 83.4811249, 21.0509222 ], [ 83.4878992, 21.0415455 ], [ 83.4939155, 21.0406988 ], [ 83.4969169, 21.0424696 ], [ 83.497071, 21.0448013 ], [ 83.4930606, 21.0529053 ], [ 83.4930974, 21.0594374 ], [ 83.4918671, 21.0620964 ], [ 83.4936853, 21.0635325 ], [ 83.5018837, 21.0648656 ], [ 83.5042752, 21.0646406 ], [ 83.5043164, 21.0633714 ], [ 83.5077599, 21.0613478 ], [ 83.5125489, 21.0618458 ], [ 83.5163206, 21.0656227 ], [ 83.5237103, 21.0660322 ], [ 83.5266784, 21.070331 ], [ 83.5295488, 21.0716921 ], [ 83.5391597, 21.0720408 ], [ 83.543821, 21.0757449 ], [ 83.5482171, 21.0768664 ], [ 83.5572093, 21.0843243 ], [ 83.5635647, 21.0869279 ], [ 83.5792129, 21.0972678 ], [ 83.5838946, 21.1026047 ], [ 83.5882029, 21.1036044 ], [ 83.5948394, 21.1078998 ], [ 83.6017822, 21.1181491 ], [ 83.6043374, 21.1283753 ], [ 83.6074342, 21.1296457 ], [ 83.6126274, 21.1278233 ], [ 83.6140517, 21.1289252 ], [ 83.6235928, 21.1275723 ], [ 83.6312403, 21.1290563 ], [ 83.636151, 21.1289754 ], [ 83.6371687, 21.1277543 ], [ 83.6428003, 21.1305961 ], [ 83.6482584, 21.1307185 ], [ 83.6572988, 21.1280082 ], [ 83.6617138, 21.1284488 ], [ 83.6684325, 21.1256167 ], [ 83.6758505, 21.1261135 ], [ 83.6803315, 21.1235374 ], [ 83.6820864, 21.1210765 ], [ 83.6819022, 21.1180549 ], [ 83.6852801, 21.1162183 ], [ 83.6946366, 21.1177941 ], [ 83.7038159, 21.1217827 ], [ 83.7105099, 21.1216486 ], [ 83.7126658, 21.1192983 ], [ 83.7172278, 21.1212159 ], [ 83.7194179, 21.1236454 ], [ 83.7202476, 21.1227201 ], [ 83.722615, 21.1240634 ], [ 83.7224997, 21.1277531 ], [ 83.7241055, 21.1269103 ], [ 83.7262797, 21.1284688 ], [ 83.7274793, 21.1314421 ], [ 83.7372528, 21.131298 ], [ 83.739682, 21.1357228 ], [ 83.7464442, 21.1395087 ], [ 83.7514283, 21.1389539 ], [ 83.7619027, 21.1428546 ], [ 83.766144, 21.1489423 ], [ 83.7658627, 21.1514114 ], [ 83.7681422, 21.1549717 ], [ 83.7789835, 21.1539633 ], [ 83.7841075, 21.1516176 ], [ 83.7866513, 21.1458794 ], [ 83.7846476, 21.1375347 ], [ 83.7856134, 21.1333481 ], [ 83.7995683, 21.1137855 ], [ 83.8069336, 21.1105085 ], [ 83.8124802, 21.1097665 ], [ 83.821935, 21.1020308 ], [ 83.8342033, 21.0988968 ], [ 83.83976, 21.0936627 ], [ 83.8462717, 21.0994437 ], [ 83.8564813, 21.1159405 ], [ 83.8611169, 21.1339075 ], [ 83.872818, 21.159152 ], [ 83.8844367, 21.1754509 ], [ 83.89863, 21.1770959 ] ] ] } }
]
}
