{
"type": "FeatureCollection",
"name": "2124",
"crs": { "type": "name", "properties": { "name": "urn:ogc:def:crs:OGC:1.3:CRS84" } },
"features": [
{ "type": "Feature", "properties": { "code": "2124", "name": "Balangir", "type": "district" }, "geometry": { "type": "Polygon", "coordinates": [ [ [ 83.3553029, 21.0690715 ], [ 83.3622612, 21.0692547 ], [ 83.3682797, 21.0641593 ], [ 83.3778445, 21.0615965 ], [ 83.3854262, 21.0692242 ], [ 83.3912472, 21.0710791 ], [ 83.3931476, 21.0680951 ], [ 83.4033902, 21.0622392 ], [ 83.4053541, 21.057245 ], [ 83.4041115, 21.0502555 ], [ 83.4097675, 21.0398003 ], [ 83.4139493, 21.0396687 ], [ 83.4139563, 21.0365309 ], [ 83.4190916, 21.034995 ], [ 83.4236043, 21.0312557 ], [ 83.4311359, 21.0333964 ], [ 83.4370867, 21.0421105 ], [ 83.4368857, 21.046285 ], [ 83.4555177, 21.0531093 ], [ 83.4563412, 21.0481854 ], [ 83.454073, 21.0440379 ], [ 83.451589, 21.042272 ], [ 83.4481869, 21.0327498 ], [ 83.4487194, 21.0273742 ], [ 83.4454785, 21.0226668 ], [ 83.4470636, 21.0175604 ], [ 83.4463196, 21.0161625 ], [ 83.4512892, 21.0139735 ], [ 83.455754, 21.0100356 ], [ 83.4667156, 20.9962561 ], [ 83.4722719, 20.9947262 ], [ 83.4822052, 20.9965319 ], [ 83.4903436, 20.9953296 ], [ 83.5003135, 20.9843302 ], [ 83.5048535, 20.9809948 ], [ 83.5105779, 20.9798135 ], [ 83.5232306, 20.9841546 ], [ 83.5295553, 20.9846567 ], [ 83.5646529, 20.9752021 ], [ 83.5728742, 20.9742067 ], [ 83.5887291, 20.9796817 ], [ 83.6150222, 20.9838754 ], [ 83.625328, 20.9841593 ], [ 83.6391252, 20.98126 ], [ 83.639299, 20.9788467 ], [ 83.6359922, 20.9780221 ], [ 83.6353925, 20.9731605 ], [ 83.6314526, 20.963904 ], [ 83.6297652, 20.9619527 ], [ 83.6256694, 20.9605082 ], [ 83.6239416, 20.952382 ], [ 83.6169664, 20.950047 ], [ 83.6151308, 20.9359543 ], [ 83.6134862, 20.9320159 ], [ 83.6109968, 20.9322708 ], [ 83.6090821, 20.9304718 ], [ 83.6151735, 20.9270784 ], [ 83.615883, 20.9228287 ], [ 83.6121294, 20.9133473 ], [ 83.6150417, 20.9142237 ], [ 83.6199831, 20.9096561 ], [ 83.6196172, 20.9029715 ], [ 83.6171684, 20.9005623 ], [ 83.593543, 20.8880567 ], [ 83.5927026, 20.883871 ], [ 83.5893713, 20.8809284 ], [ 83.58294, 20.8773149 ], [ 83.5797347, 20.8738383 ], [ 83.5765123, 20.8730554 ], [ 83.5746487, 20.868551 ], [ 83.5737788, 20.8555488 ], [ 83.5697118, 20.8454297 ], [ 83.573671, 20.8458173 ], [ 83.5825726, 20.8431641 ], [ 83.5894642, 20.8386899 ], [ 83.5964573, 20.837925 ], [ 83.6043407, 20.8330876 ], [ 83.6142268, 20.8330228 ], [ 83.6210495, 20.827438 ], [ 83.6253418, 20.8271285 ], [ 83.6208942, 20.8209534 ], [ 83.6209067, 20.8158564 ], [ 83.6110612, 20.8193203 ], [ 83.5936767, 20.8208167 ], [ 83.5970957, 20.8057093 ], [ 83.5968884, 20.8042634 ], [ 83.5928199, 20.8047087 ], [ 83.5931824, 20.7995205 ], [ 83.5965906, 20.8003357 ], [ 83.6027551, 20.7989376 ], [ 83.6074103, 20.7994086 ], [ 83.6132968, 20.803057 ], [ 83.6164323, 20.8008649 ], [ 83.6168695, 20.7978245 ], [ 83.6182958, 20.7970127 ], [ 83.6249246, 20.7994485 ], [ 83.6275154, 20.7988083 ], [ 83.6287631, 20.7968435 ], [ 83.6345448, 20.7966555 ], [ 83.6360761, 20.7822972 ], [ 83.6348778, 20.7810082 ], [ 83.6352818, 20.771102 ], [ 83.6387898, 20.7702309 ], [ 83.6495724, 20.7747508 ], [ 83.6545691, 20.7731071 ], [ 83.6559425, 20.7703998 ], [ 83.6567831, 20.7635703 ], [ 83.6550626, 20.7571279 ], [ 83.6497534, 20.755964 ], [ 83.6507305, 20.7520079 ], [ 83.6532012, 20.7497577 ], [ 83.6534109, 20.7458225 ], [ 83.6617075, 20.744674 ], [ 83.6712691, 20.7458889 ], [ 83.6739895, 20.7444834 ], [ 83.6772409, 20.7446223 ], [ 83.67703, 20.7413221 ], [ 83.6724615, 20.7372798 ], [ 83.6712396, 20.7316378 ], [ 83.6670028, 20.7250721 ], [ 83.665765, 20.7193312 ], [ 83.6669611, 20.7092774 ], [ 83.6646119, 20.7049801 ], [ 83.6620959, 20.7051498 ], [ 83.6615323, 20.7025449 ], [ 83.6589175, 20.7028154 ], [ 83.655916, 20.6998868 ], [ 83.6551588, 20.6955332 ], [ 83.6522289, 20.6934024 ], [ 83.6522316, 20.6883192 ], [ 83.6503974, 20.6865554 ], [ 83.6365586, 20.6796891 ], [ 83.6415103, 20.6714378 ], [ 83.6384545, 20.6703109 ], [ 83.6361205, 20.6651506 ], [ 83.6281465, 20.6611236 ], [ 83.6267994, 20.6441383 ], [ 83.6224302, 20.6407783 ], [ 83.6214458, 20.6331549 ], [ 83.6093146, 20.6183371 ], [ 83.6066338, 20.6177591 ], [ 83.6041489, 20.6109346 ], [ 83.6007421, 20.6107963 ], [ 83.6008328, 20.6073819 ], [ 83.594865, 20.6063521 ], [ 83.594055, 20.6009829 ], [ 83.5999014, 20.5900602 ], [ 83.5999883, 20.58247 ], [ 83.5959942, 20.5793111 ], [ 83.6050327, 20.5703945 ], [ 83.5971311, 20.5637866 ], [ 83.5944559, 20.5396378 ], [ 83.5978825, 20.5305393 ], [ 83.6014122, 20.5315382 ], [ 83.6024283, 20.5295637 ], [ 83.6012805, 20.527721 ], [ 83.5853852, 20.5254459 ], [ 83.5795941, 20.5213814 ], [ 83.5783882, 20.518334 ], [ 83.5803356, 20.5092894 ], [ 83.5797263, 20.5038033 ], [ 83.5694634, 20.4846158 ], [ 83.5715316, 20.4814743 ], [ 83.573794, 20.4808542 ], [ 83.5797737, 20.487754 ], [ 83.5824494, 20.4883403 ], [ 83.5869927, 20.4829747 ], [ 83.5966853, 20.4764196 ], [ 83.5957989, 20.4714569 ], [ 83.5966828, 20.4691551 ], [ 83.6097141, 20.4657315 ], [ 83.617598, 20.458331 ], [ 83.6190905, 20.4531304 ], [ 83.617226, 20.4497843 ], [ 83.6184877, 20.4468218 ], [ 83.6270577, 20.4475792 ], [ 83.6352312, 20.4406974 ], [ 83.6563574, 20.4325603 ], [ 83.6575382, 20.4259906 ], [ 83.659834, 20.4231964 ], [ 83.6660071, 20.422866 ], [ 83.6653651, 20.4186368 ], [ 83.6625981, 20.4175414 ], [ 83.662457, 20.4143215 ], [ 83.6582343, 20.4141863 ], [ 83.658376, 20.4120276 ], [ 83.6610323, 20.4109293 ], [ 83.6597295, 20.4069773 ], [ 83.6617618, 20.4046204 ], [ 83.6580033, 20.3978113 ], [ 83.6583152, 20.3951929 ], [ 83.6558638, 20.3949232 ], [ 83.65497, 20.3888694 ], [ 83.6499295, 20.3878085 ], [ 83.6475786, 20.3805173 ], [ 83.6504491, 20.3795526 ], [ 83.6536485, 20.3717934 ], [ 83.6524834, 20.3669263 ], [ 83.6494432, 20.3649456 ], [ 83.6440876, 20.3675369 ], [ 83.6376381, 20.3666324 ], [ 83.6309779, 20.3688186 ], [ 83.6272802, 20.3675831 ], [ 83.6222652, 20.3628822 ], [ 83.6221164, 20.3566228 ], [ 83.6240988, 20.352697 ], [ 83.6219447, 20.3507113 ], [ 83.6190229, 20.3505972 ], [ 83.6133557, 20.354032 ], [ 83.6020657, 20.3576 ], [ 83.597756, 20.3577954 ], [ 83.5955968, 20.3606444 ], [ 83.5940176, 20.358957 ], [ 83.5872772, 20.3629668 ], [ 83.58294, 20.3629677 ], [ 83.5787917, 20.364835 ], [ 83.5764538, 20.3630005 ], [ 83.5753117, 20.3686109 ], [ 83.5711231, 20.3761401 ], [ 83.5700411, 20.3874066 ], [ 83.5661815, 20.3870933 ], [ 83.5666997, 20.3883182 ], [ 83.5644561, 20.3933489 ], [ 83.557673, 20.3946225 ], [ 83.5548025, 20.3997121 ], [ 83.5481233, 20.4014893 ], [ 83.5464389, 20.3980692 ], [ 83.5435397, 20.3967752 ], [ 83.5419, 20.3983973 ], [ 83.5357529, 20.3990604 ], [ 83.5314084, 20.4016156 ], [ 83.5204653, 20.4044878 ], [ 83.51962, 20.411692 ], [ 83.4993435, 20.4161333 ], [ 83.4939577, 20.4061515 ], [ 83.4898948, 20.4051395 ], [ 83.4873313, 20.4101109 ], [ 83.4876029, 20.4177778 ], [ 83.4897173, 20.4211925 ], [ 83.4890949, 20.4271565 ], [ 83.4900069, 20.4293648 ], [ 83.496256, 20.4322595 ], [ 83.4974642, 20.4343958 ], [ 83.4949573, 20.4342783 ], [ 83.493721, 20.4375241 ], [ 83.4950123, 20.4397675 ], [ 83.4927704, 20.4430233 ], [ 83.4943397, 20.4440934 ], [ 83.4941235, 20.4476136 ], [ 83.4907089, 20.4530126 ], [ 83.4858042, 20.4542431 ], [ 83.4767706, 20.4450488 ], [ 83.4667281, 20.4376832 ], [ 83.4451591, 20.4183068 ], [ 83.4222333, 20.4030505 ], [ 83.4177752, 20.3969537 ], [ 83.4136, 20.379466 ], [ 83.4083398, 20.3678761 ], [ 83.4044103, 20.3639435 ], [ 83.3953464, 20.359246 ], [ 83.3873968, 20.3469607 ], [ 83.3830054, 20.3449981 ], [ 83.3694888, 20.3451729 ], [ 83.364103, 20.3432682 ], [ 83.3625926, 20.3396539 ], [ 83.3633868, 20.3282828 ], [ 83.3628412, 20.3200995 ], [ 83.3615309, 20.3176564 ], [ 83.3548387, 20.3160354 ], [ 83.3414057, 20.3168389 ], [ 83.3285315, 20.3102108 ], [ 83.313659, 20.3049717 ], [ 83.3001461, 20.305204 ], [ 83.2935853, 20.2955189 ], [ 83.2889662, 20.2847242 ], [ 83.2848948, 20.2799098 ], [ 83.2631158, 20.2677072 ], [ 83.2487279, 20.2647858 ], [ 83.2379547, 20.2569989 ], [ 83.2347894, 20.2528126 ], [ 83.2342389, 20.2454367 ], [ 83.239568, 20.2340166 ], [ 83.2391514, 20.2296463 ], [ 83.2310441, 20.2193772 ], [ 83.2250585, 20.204493 ], [ 83.220278, 20.2009951 ], [ 83.2045065, 20.1954769 ], [ 83.2009896, 20.1919762 ], [ 83.1950717, 20.1802733 ], [ 83.1895192, 20.176179 ], [ 83.1736451, 20.1712822 ], [ 83.1676588, 20.1710354 ], [ 83.1552781, 20.1742539 ], [ 83.1447756, 20.1693516 ], [ 83.1434029, 20.1717933 ], [ 83.1437164, 20.174079 ], [ 83.1418149, 20.1752717 ], [ 83.1397385, 20.1801244 ], [ 83.1330913, 20.184405 ], [ 83.1267952, 20.1948498 ], [ 83.1130121, 20.1953816 ], [ 83.1059176, 20.1942521 ], [ 83.1015694, 20.1920914 ], [ 83.0910656, 20.2003499 ], [ 83.0884733, 20.1996717 ], [ 83.0860861, 20.1921133 ], [ 83.0779794, 20.192539 ], [ 83.0743173, 20.1905094 ], [ 83.0651184, 20.190821 ], [ 83.0607543, 20.1859679 ], [ 83.0550584, 20.1889519 ], [ 83.0522175, 20.1886146 ], [ 83.0460944, 20.1863829 ], [ 83.0440289, 20.1831328 ], [ 83.0387312, 20.1821828 ], [ 83.0344325, 20.1867034 ], [ 83.0294511, 20.1776747 ], [ 83.023731, 20.1743716 ], [ 83.0212115, 20.1759405 ], [ 83.0158151, 20.1717484 ], [ 83.0017363, 20.176764 ], [ 82.9938783, 20.17567 ], [ 82.9905039, 20.1788785 ], [ 82.9798871, 20.1763564 ], [ 82.9785328, 20.1790429 ], [ 82.975689, 20.1806489 ], [ 82.964205, 20.1802942 ], [ 82.9579054, 20.1772257 ], [ 82.9486289, 20.1774552 ], [ 82.9436872, 20.173915 ], [ 82.9318317, 20.1794833 ], [ 82.9261576, 20.1801688 ], [ 82.9217274, 20.1750279 ], [ 82.9217348, 20.1729007 ], [ 82.9135015, 20.1680587 ], [ 82.9110205, 20.1677785 ], [ 82.9092391, 20.1640763 ], [ 82.9084619, 20.1556167 ], [ 82.9095762, 20.1473579 ], [ 82.8952549, 20.1490797 ], [ 82.893001, 20.1521344 ], [ 82.8838775, 20.1582302 ], [ 82.8794911, 20.1585841 ], [ 82.8739625, 20.1565926 ], [ 82.8697169, 20.1587197 ], [ 82.8666197, 20.1580887 ], [ 82.8579076, 20.1618979 ], [ 82.8529248, 20.1607582 ], [ 82.8472196, 20.1612247 ], [ 82.8406676, 20.1641206 ], [ 82.8229209, 20.1652086 ], [ 82.8149246, 20.1681819 ], [ 82.812742, 20.1713659 ], [ 82.8106825, 20.1715406 ], [ 82.8096186, 20.1746816 ], [ 82.8108565, 20.1808203 ], [ 82.8126624, 20.1822696 ], [ 82.8119194, 20.1846304 ], [ 82.8165734, 20.1891079 ], [ 82.8273904, 20.1867195 ], [ 82.8372602, 20.1892633 ], [ 82.8469999, 20.1957823 ], [ 82.8478547, 20.2065946 ], [ 82.8550914, 20.219354 ], [ 82.8547425, 20.2230115 ], [ 82.8564156, 20.2237661 ], [ 82.8567477, 20.2266712 ], [ 82.8576661, 20.2266525 ], [ 82.8564982, 20.2282184 ], [ 82.8608705, 20.2313517 ], [ 82.8607883, 20.234898 ], [ 82.8594056, 20.2365204 ], [ 82.8521845, 20.2368995 ], [ 82.853082, 20.2399431 ], [ 82.8514641, 20.2403214 ], [ 82.8509268, 20.2430325 ], [ 82.8522657, 20.2465817 ], [ 82.8515263, 20.2528313 ], [ 82.858284, 20.2552663 ], [ 82.8568305, 20.2614285 ], [ 82.8598983, 20.2694623 ], [ 82.8558719, 20.2802088 ], [ 82.8453471, 20.2903735 ], [ 82.8401994, 20.2820949 ], [ 82.8286046, 20.2799266 ], [ 82.8259753, 20.2806224 ], [ 82.8246101, 20.2837937 ], [ 82.8218654, 20.2836235 ], [ 82.8212421, 20.2810828 ], [ 82.8173271, 20.2844069 ], [ 82.8125437, 20.2896324 ], [ 82.8104254, 20.2955889 ], [ 82.8135851, 20.2960306 ], [ 82.8167991, 20.3002967 ], [ 82.8190766, 20.3071561 ], [ 82.8184851, 20.3134899 ], [ 82.8151953, 20.3150641 ], [ 82.8158898, 20.3175501 ], [ 82.8191122, 20.3208542 ], [ 82.8289953, 20.3201188 ], [ 82.8338972, 20.3216798 ], [ 82.8367497, 20.316325 ], [ 82.8333422, 20.3095229 ], [ 82.8333902, 20.3066861 ], [ 82.8398408, 20.3056654 ], [ 82.84148, 20.3025861 ], [ 82.8357952, 20.2971041 ], [ 82.8358978, 20.2956532 ], [ 82.8384194, 20.2935312 ], [ 82.8458774, 20.2910952 ], [ 82.84562, 20.2944309 ], [ 82.8487053, 20.2946377 ], [ 82.8516013, 20.301481 ], [ 82.8489372, 20.311748 ], [ 82.8499781, 20.3179559 ], [ 82.8535914, 20.3254736 ], [ 82.8513981, 20.331472 ], [ 82.85231, 20.3376768 ], [ 82.8499582, 20.3404342 ], [ 82.8467418, 20.3409514 ], [ 82.838531, 20.3362011 ], [ 82.8345129, 20.3361439 ], [ 82.8328604, 20.3409666 ], [ 82.8282245, 20.3413179 ], [ 82.8221339, 20.3446017 ], [ 82.8209848, 20.3507424 ], [ 82.8188292, 20.3523232 ], [ 82.8162275, 20.3583481 ], [ 82.8140739, 20.3584742 ], [ 82.8118222, 20.3518268 ], [ 82.8122964, 20.3469125 ], [ 82.8065746, 20.3403643 ], [ 82.8100122, 20.3362187 ], [ 82.8122615, 20.3283098 ], [ 82.8114631, 20.3271709 ], [ 82.8067504, 20.322527 ], [ 82.8031434, 20.321146 ], [ 82.7883988, 20.3242467 ], [ 82.7879075, 20.326894 ], [ 82.7932855, 20.331554 ], [ 82.7919693, 20.3328592 ], [ 82.794014, 20.3386781 ], [ 82.7898131, 20.3447732 ], [ 82.7901846, 20.3471045 ], [ 82.797766, 20.3513218 ], [ 82.8020631, 20.3572212 ], [ 82.8086014, 20.3610422 ], [ 82.8110261, 20.3611661 ], [ 82.8127452, 20.3636232 ], [ 82.8124649, 20.3716068 ], [ 82.8149983, 20.3810061 ], [ 82.8136254, 20.3831974 ], [ 82.8091864, 20.3816537 ], [ 82.8035202, 20.385357 ], [ 82.8013247, 20.3818931 ], [ 82.7978792, 20.3796885 ], [ 82.7965272, 20.3721373 ], [ 82.7904123, 20.3702951 ], [ 82.7810791, 20.3702769 ], [ 82.7800516, 20.3637927 ], [ 82.7765956, 20.3568318 ], [ 82.7715851, 20.3542136 ], [ 82.7637552, 20.3533803 ], [ 82.7604369, 20.3563812 ], [ 82.7533385, 20.3583947 ], [ 82.7481569, 20.3622306 ], [ 82.7438758, 20.3622926 ], [ 82.7334435, 20.3565926 ], [ 82.7257906, 20.3553179 ], [ 82.7185878, 20.3553122 ], [ 82.71495, 20.3567753 ], [ 82.7129214, 20.3600065 ], [ 82.7147841, 20.3677749 ], [ 82.7233465, 20.3706897 ], [ 82.7272092, 20.3807866 ], [ 82.7299087, 20.3831941 ], [ 82.7242636, 20.3881325 ], [ 82.7231114, 20.393496 ], [ 82.7150506, 20.3983768 ], [ 82.7123354, 20.4027889 ], [ 82.7126845, 20.4079255 ], [ 82.7113095, 20.4087882 ], [ 82.7087131, 20.4161937 ], [ 82.7028988, 20.4233507 ], [ 82.6965438, 20.4257795 ], [ 82.6943075, 20.4311536 ], [ 82.6991909, 20.4395203 ], [ 82.6996001, 20.4427457 ], [ 82.6953286, 20.4512921 ], [ 82.6908026, 20.4541409 ], [ 82.6844535, 20.4533309 ], [ 82.683305, 20.4613952 ], [ 82.6894699, 20.4685711 ], [ 82.6871796, 20.4760683 ], [ 82.6954674, 20.481832 ], [ 82.7001684, 20.4926078 ], [ 82.6992577, 20.4973863 ], [ 82.7005363, 20.5007522 ], [ 82.7020902, 20.5029998 ], [ 82.7051533, 20.5042975 ], [ 82.7051384, 20.5116009 ], [ 82.7086902, 20.526683 ], [ 82.7037916, 20.5328556 ], [ 82.704965, 20.5366289 ], [ 82.7044256, 20.5394526 ], [ 82.7070336, 20.5437311 ], [ 82.7096198, 20.5443244 ], [ 82.7077207, 20.5486068 ], [ 82.7079357, 20.55458 ], [ 82.7104153, 20.556344 ], [ 82.7101226, 20.5610622 ], [ 82.7117327, 20.5644021 ], [ 82.710194, 20.5704875 ], [ 82.7161836, 20.5773205 ], [ 82.7285118, 20.5852144 ], [ 82.7264557, 20.5913096 ], [ 82.7307143, 20.6018718 ], [ 82.7300514, 20.6060381 ], [ 82.7358313, 20.6144846 ], [ 82.741976, 20.6308988 ], [ 82.7370346, 20.6347198 ], [ 82.7307401, 20.6351534 ], [ 82.7271322, 20.6393988 ], [ 82.7310611, 20.6541689 ], [ 82.7300648, 20.6556151 ], [ 82.7239317, 20.6576684 ], [ 82.7249523, 20.6613616 ], [ 82.7240223, 20.6669803 ], [ 82.7253135, 20.670829 ], [ 82.7223071, 20.6723224 ], [ 82.7189082, 20.6781781 ], [ 82.7066192, 20.6826269 ], [ 82.700755, 20.683963 ], [ 82.6952083, 20.6832184 ], [ 82.6931668, 20.684792 ], [ 82.6933617, 20.7058144 ], [ 82.6976419, 20.7147285 ], [ 82.699868, 20.7296559 ], [ 82.7046171, 20.7276218 ], [ 82.7104072, 20.7285172 ], [ 82.7107722, 20.7272534 ], [ 82.7126004, 20.7275966 ], [ 82.7142832, 20.725692 ], [ 82.7192249, 20.726284 ], [ 82.7208911, 20.7241853 ], [ 82.7255112, 20.7239403 ], [ 82.7275906, 20.7223116 ], [ 82.7342683, 20.7231748 ], [ 82.7354515, 20.7267399 ], [ 82.7351192, 20.7329713 ], [ 82.7395832, 20.74802 ], [ 82.7393745, 20.7507545 ], [ 82.7449746, 20.7601143 ], [ 82.7441799, 20.7611432 ], [ 82.7454644, 20.7705603 ], [ 82.7533664, 20.7708004 ], [ 82.7654688, 20.7866146 ], [ 82.7705773, 20.7980154 ], [ 82.7707856, 20.8022946 ], [ 82.7801849, 20.8112841 ], [ 82.7837837, 20.8175062 ], [ 82.7926173, 20.8236013 ], [ 82.7955308, 20.8290897 ], [ 82.8009418, 20.8348995 ], [ 82.8071346, 20.8357511 ], [ 82.840684, 20.8680366 ], [ 82.8584791, 20.8764519 ], [ 82.8587563, 20.8798404 ], [ 82.8732761, 20.8913334 ], [ 82.8753464, 20.8947294 ], [ 82.8796853, 20.8966101 ], [ 82.8843155, 20.9064086 ], [ 82.8879823, 20.9090958 ], [ 82.8904634, 20.9034233 ], [ 82.8997416, 20.9044087 ], [ 82.9005201, 20.903262 ], [ 82.9027351, 20.9036122 ], [ 82.9033054, 20.9008058 ], [ 82.9126527, 20.9030815 ], [ 82.9166759, 20.9008597 ], [ 82.9188471, 20.8977644 ], [ 82.9254713, 20.8945242 ], [ 82.9256112, 20.882894 ], [ 82.9421277, 20.8840936 ], [ 82.9530498, 20.8959725 ], [ 82.959497, 20.8958219 ], [ 82.966939, 20.8931127 ], [ 82.962837, 20.8854918 ], [ 82.9642515, 20.8789728 ], [ 82.9728246, 20.884564 ], [ 82.9748511, 20.8804312 ], [ 82.9730167, 20.8768397 ], [ 82.9769753, 20.8694422 ], [ 82.9813249, 20.8658784 ], [ 82.9804913, 20.8624018 ], [ 82.9816256, 20.8606094 ], [ 82.9795125, 20.8559013 ], [ 82.9806266, 20.8525511 ], [ 82.9803779, 20.8456763 ], [ 82.9825822, 20.8470869 ], [ 83.0024645, 20.8488064 ], [ 83.0082922, 20.8575348 ], [ 83.0144253, 20.8617257 ], [ 83.0182434, 20.8565914 ], [ 83.0313995, 20.8542457 ], [ 83.0473572, 20.8545024 ], [ 83.0502924, 20.8566304 ], [ 83.0556847, 20.8574869 ], [ 83.0867172, 20.8576983 ], [ 83.0921822, 20.8631136 ], [ 83.0942737, 20.8680823 ], [ 83.1023696, 20.8746886 ], [ 83.1076647, 20.8699047 ], [ 83.1147818, 20.8665972 ], [ 83.1167024, 20.8630874 ], [ 83.1292636, 20.8588856 ], [ 83.1408634, 20.8777468 ], [ 83.144536, 20.8809249 ], [ 83.1495087, 20.8825963 ], [ 83.1654359, 20.883926 ], [ 83.167794, 20.8875312 ], [ 83.1783477, 20.890025 ], [ 83.1882858, 20.8974251 ], [ 83.1914564, 20.8960614 ], [ 83.2001323, 20.9064572 ], [ 83.2076367, 20.9132509 ], [ 83.2108081, 20.9174903 ], [ 83.210327, 20.9194201 ], [ 83.2176558, 20.9213886 ], [ 83.2193061, 20.9267403 ], [ 83.2158217, 20.9286957 ], [ 83.216524, 20.9303662 ], [ 83.2258746, 20.9276346 ], [ 83.2332526, 20.9280213 ], [ 83.2503134, 20.9177011 ], [ 83.2489626, 20.9118807 ], [ 83.2516684, 20.9099757 ], [ 83.2541778, 20.9029711 ], [ 83.2508856, 20.8993796 ], [ 83.2512647, 20.8983858 ], [ 83.2543325, 20.8985305 ], [ 83.2557567, 20.8941635 ], [ 83.2591676, 20.8918744 ], [ 83.2593939, 20.8887062 ], [ 83.2621411, 20.8879972 ], [ 83.2639665, 20.8841259 ], [ 83.2680867, 20.8804682 ], [ 83.2692865, 20.8810302 ], [ 83.2760246, 20.8693817 ], [ 83.271601, 20.8688084 ], [ 83.2754623, 20.86044 ], [ 83.2764009, 20.8605675 ], [ 83.2774495, 20.856833 ], [ 83.2758082, 20.8473594 ], [ 83.2764852, 20.8444696 ], [ 83.2793328, 20.8418671 ], [ 83.2840097, 20.8459226 ], [ 83.2848281, 20.8485982 ], [ 83.28348, 20.8509235 ], [ 83.2847118, 20.8532911 ], [ 83.2982678, 20.8549156 ], [ 83.3021226, 20.8525611 ], [ 83.307064, 20.8593937 ], [ 83.3121614, 20.8575685 ], [ 83.3151492, 20.8610229 ], [ 83.3171311, 20.8611991 ], [ 83.3211755, 20.8655646 ], [ 83.3222239, 20.8712755 ], [ 83.3286982, 20.8739869 ], [ 83.3278745, 20.8797684 ], [ 83.328921, 20.8809597 ], [ 83.3384005, 20.8831871 ], [ 83.3492615, 20.8744506 ], [ 83.3641281, 20.8777267 ], [ 83.3730774, 20.8831923 ], [ 83.3815461, 20.8858693 ], [ 83.3909418, 20.8863973 ], [ 83.3968638, 20.8899218 ], [ 83.4035623, 20.8903062 ], [ 83.4049907, 20.8922095 ], [ 83.4138299, 20.8963649 ], [ 83.4155896, 20.9003448 ], [ 83.4145423, 20.9084458 ], [ 83.4080148, 20.9161184 ], [ 83.3973777, 20.9201373 ], [ 83.3921703, 20.9244634 ], [ 83.3911535, 20.9324646 ], [ 83.3867285, 20.9376826 ], [ 83.3807357, 20.937685 ], [ 83.3799143, 20.9401481 ], [ 83.3809178, 20.9473715 ], [ 83.3840667, 20.9495535 ], [ 83.3830908, 20.9507545 ], [ 83.3849655, 20.9525884 ], [ 83.3796027, 20.9550879 ], [ 83.3807275, 20.9569143 ], [ 83.3850754, 20.9576932 ], [ 83.3905079, 20.9644212 ], [ 83.38938, 20.9711822 ], [ 83.3840609, 20.9725254 ], [ 83.385601, 20.9805178 ], [ 83.38402, 20.9820659 ], [ 83.3873226, 20.9862953 ], [ 83.3864997, 20.9889707 ], [ 83.3819605, 20.9892194 ], [ 83.3722892, 20.9929573 ], [ 83.3728721, 21.0006381 ], [ 83.3713131, 21.0017705 ], [ 83.3668774, 21.0034306 ], [ 83.3609052, 21.0033917 ], [ 83.3500082, 20.9986663 ], [ 83.3424804, 20.9864261 ], [ 83.3326266, 20.9806602 ], [ 83.3290962, 20.9848804 ], [ 83.3284331, 20.9917208 ], [ 83.3267077, 20.9948552 ], [ 83.321423, 20.9982279 ], [ 83.3065989, 21.0019151 ], [ 83.2957102, 21.0136482 ], [ 83.2996616, 21.0176403 ], [ 83.2976459, 21.0200967 ], [ 83.29926, 21.0240707 ], [ 83.3022758, 21.0253573 ], [ 83.3071762, 21.0316165 ], [ 83.3106073, 21.0330011 ], [ 83.3171861, 21.0410793 ], [ 83.3175828, 21.047133 ], [ 83.3217196, 21.0561698 ], [ 83.3304329, 21.0551069 ], [ 83.3344908, 21.0583967 ], [ 83.3410382, 21.057548 ], [ 83.3509347, 21.0638452 ], [ 83.3523652, 21.0664123 ], [ 83.351954, 21.0711543 ], [ 83.3553029, 21.0690715 ] ] ] } }
]
}
