{
"type": "FeatureCollection",
"name": "2127",
"crs": { "type": "name", "properties": { "name": "urn:ogc:def:crs:OGC:1.3:CRS84" } },
"features": [
{ "type": "Feature", "properties": { "code": "2127", "name": "Rayagada", "type": "district" }, "geometry": { "type": "Polygon", "coordinates": [ [ [ 83.4514548, 19.9736823 ], [ 83.454513, 19.9719332 ], [ 83.4564247, 19.9723357 ], [ 83.4576132, 19.9695243 ], [ 83.4647991, 19.9694427 ], [ 83.4689463, 19.9665134 ], [ 83.4729876, 19.9665925 ], [ 83.4736242, 19.9633146 ], [ 83.4794582, 19.9656624 ], [ 83.4809283, 19.9631811 ], [ 83.4958108, 19.9603174 ], [ 83.4995434, 19.9580886 ], [ 83.5056022, 19.9586533 ], [ 83.5120618, 19.954968 ], [ 83.5148782, 19.9549101 ], [ 83.5337271, 19.9475715 ], [ 83.5369395, 19.9430332 ], [ 83.5413621, 19.9416245 ], [ 83.5430958, 19.9386831 ], [ 83.549915, 19.936093 ], [ 83.5518832, 19.930823 ], [ 83.5598557, 19.9299091 ], [ 83.5592948, 19.9241381 ], [ 83.5561997, 19.9192885 ], [ 83.5535589, 19.9103147 ], [ 83.5475992, 19.9039122 ], [ 83.5428678, 19.902359 ], [ 83.5380701, 19.8969374 ], [ 83.5364875, 19.8913704 ], [ 83.5304936, 19.8803173 ], [ 83.5267199, 19.8777116 ], [ 83.5286563, 19.8655289 ], [ 83.5274846, 19.8561055 ], [ 83.5285492, 19.8543204 ], [ 83.5315732, 19.8536364 ], [ 83.5335532, 19.8545159 ], [ 83.5335566, 19.8577439 ], [ 83.534659, 19.8580397 ], [ 83.5396371, 19.8521083 ], [ 83.5396298, 19.8480496 ], [ 83.5437402, 19.8427852 ], [ 83.5580238, 19.8378808 ], [ 83.568486, 19.8312831 ], [ 83.57545, 19.8296927 ], [ 83.5858707, 19.8251631 ], [ 83.5852836, 19.8232432 ], [ 83.5975082, 19.8283435 ], [ 83.5979714, 19.8330592 ], [ 83.5998073, 19.8344637 ], [ 83.6049374, 19.826059 ], [ 83.6068885, 19.8161024 ], [ 83.6153894, 19.8169623 ], [ 83.6190181, 19.8145388 ], [ 83.6198385, 19.8046303 ], [ 83.6166062, 19.8027003 ], [ 83.6153735, 19.7999508 ], [ 83.6179464, 19.7872355 ], [ 83.6215155, 19.7797563 ], [ 83.6210486, 19.7754065 ], [ 83.6194545, 19.7732943 ], [ 83.6186927, 19.7687049 ], [ 83.6079979, 19.7597548 ], [ 83.6077816, 19.7505567 ], [ 83.6170757, 19.7458927 ], [ 83.625508, 19.7448437 ], [ 83.6321024, 19.7308684 ], [ 83.6316105, 19.7171417 ], [ 83.6414706, 19.7055922 ], [ 83.6436328, 19.6967658 ], [ 83.6349118, 19.6785641 ], [ 83.6345278, 19.6714047 ], [ 83.6477006, 19.6580144 ], [ 83.6489315, 19.6575175 ], [ 83.6543219, 19.6639076 ], [ 83.6625934, 19.664941 ], [ 83.6630107, 19.6679867 ], [ 83.6662308, 19.6699029 ], [ 83.6678087, 19.6754009 ], [ 83.6704339, 19.6782106 ], [ 83.6917138, 19.6906872 ], [ 83.6950093, 19.6910757 ], [ 83.713557, 19.6744669 ], [ 83.7168453, 19.6730403 ], [ 83.7186216, 19.6743586 ], [ 83.722454, 19.6718673 ], [ 83.725829, 19.6620511 ], [ 83.728186, 19.6605301 ], [ 83.7287859, 19.6548642 ], [ 83.7422088, 19.6553596 ], [ 83.7418385, 19.6590897 ], [ 83.7443578, 19.6598323 ], [ 83.7466484, 19.6642124 ], [ 83.7490302, 19.6652729 ], [ 83.7483476, 19.667166 ], [ 83.7494451, 19.6689233 ], [ 83.7559323, 19.6715009 ], [ 83.7581419, 19.6750109 ], [ 83.7629625, 19.6768192 ], [ 83.7620033, 19.6834071 ], [ 83.7647768, 19.6892195 ], [ 83.7631761, 19.6914833 ], [ 83.765221, 19.6937 ], [ 83.7649856, 19.6974821 ], [ 83.7671669, 19.6990466 ], [ 83.7644878, 19.7054036 ], [ 83.7644893, 19.7124234 ], [ 83.7663848, 19.7161953 ], [ 83.7706744, 19.7150501 ], [ 83.7733827, 19.7156447 ], [ 83.7749974, 19.7128073 ], [ 83.7781311, 19.7131831 ], [ 83.779829, 19.7110305 ], [ 83.7879635, 19.7128137 ], [ 83.7914255, 19.7109586 ], [ 83.7935362, 19.7128171 ], [ 83.7974934, 19.7131347 ], [ 83.8032575, 19.7192021 ], [ 83.8121468, 19.7196815 ], [ 83.8140295, 19.721024 ], [ 83.8162712, 19.7197384 ], [ 83.8175854, 19.7144812 ], [ 83.8218129, 19.711187 ], [ 83.8288779, 19.7109492 ], [ 83.8324149, 19.7068983 ], [ 83.8366193, 19.711513 ], [ 83.8450187, 19.7093801 ], [ 83.8425894, 19.7024669 ], [ 83.8498754, 19.7007532 ], [ 83.85018, 19.6921218 ], [ 83.8538359, 19.6856852 ], [ 83.8591429, 19.6810053 ], [ 83.8615317, 19.6810666 ], [ 83.8640649, 19.6793379 ], [ 83.872864, 19.6716858 ], [ 83.8871614, 19.673086 ], [ 83.896291, 19.6719775 ], [ 83.9021491, 19.6733905 ], [ 83.9055062, 19.671666 ], [ 83.9165869, 19.6809521 ], [ 83.9215901, 19.6756663 ], [ 83.9249576, 19.6761033 ], [ 83.927092, 19.6792283 ], [ 83.9303232, 19.6787197 ], [ 83.9321258, 19.6730298 ], [ 83.9357753, 19.6714173 ], [ 83.9238105, 19.6635778 ], [ 83.9340012, 19.6582522 ], [ 83.940069, 19.6352537 ], [ 83.926331, 19.6310049 ], [ 83.9249282, 19.6264099 ], [ 83.9313643, 19.5956872 ], [ 83.934455, 19.5943549 ], [ 83.9315366, 19.5752227 ], [ 83.9320047, 19.5718792 ], [ 83.939558, 19.5629811 ], [ 83.9383786, 19.5557104 ], [ 83.9420975, 19.5496734 ], [ 83.9460253, 19.546761 ], [ 83.9550036, 19.5482302 ], [ 83.9661654, 19.5425582 ], [ 83.9704443, 19.5422171 ], [ 83.9746569, 19.5333232 ], [ 83.9782434, 19.5310749 ], [ 83.9712411, 19.5256653 ], [ 83.9657548, 19.5120017 ], [ 83.95911, 19.507854 ], [ 83.9584768, 19.5023575 ], [ 83.9644386, 19.4980394 ], [ 83.9692327, 19.4923409 ], [ 83.9749645, 19.4900577 ], [ 83.9766966, 19.4861291 ], [ 83.9735332, 19.4823173 ], [ 83.970747, 19.4730781 ], [ 83.9681024, 19.4692485 ], [ 83.9701316, 19.4646472 ], [ 83.9692109, 19.4611325 ], [ 83.9680596, 19.4595806 ], [ 83.9653726, 19.4594124 ], [ 83.9618868, 19.4522156 ], [ 83.9633646, 19.4484314 ], [ 83.9547029, 19.4412783 ], [ 83.9548459, 19.4381343 ], [ 83.9510639, 19.4345035 ], [ 83.9418057, 19.4197714 ], [ 83.9471123, 19.4058816 ], [ 83.9472391, 19.39682 ], [ 83.9546774, 19.3977825 ], [ 83.9626218, 19.3959514 ], [ 83.9652961, 19.3931091 ], [ 83.9663321, 19.3875447 ], [ 83.9686542, 19.3857598 ], [ 83.9775212, 19.3835567 ], [ 83.9797174, 19.3906431 ], [ 83.979008, 19.3947894 ], [ 83.9801533, 19.3999525 ], [ 83.9819142, 19.4015665 ], [ 83.9870013, 19.40244 ], [ 83.9897669, 19.3890019 ], [ 83.9971603, 19.3888305 ], [ 84.0154355, 19.3772486 ], [ 84.0189118, 19.3653514 ], [ 84.0219633, 19.3621636 ], [ 84.0288157, 19.3474523 ], [ 84.0277317, 19.3415393 ], [ 84.0239905, 19.3377287 ], [ 84.0264016, 19.3338792 ], [ 84.0268252, 19.3284872 ], [ 84.0253217, 19.3250817 ], [ 84.016175, 19.3176457 ], [ 84.0162418, 19.30859 ], [ 84.0143214, 19.3065364 ], [ 84.0197649, 19.2961775 ], [ 84.0201231, 19.2908363 ], [ 84.0145664, 19.2874842 ], [ 84.0128987, 19.2849299 ], [ 84.0112499, 19.2714518 ], [ 84.0031287, 19.2697394 ], [ 84.0013485, 19.2646408 ], [ 84.0027741, 19.2586277 ], [ 83.9986143, 19.2575268 ], [ 83.995395, 19.2440967 ], [ 83.9923914, 19.2427872 ], [ 83.9922024, 19.2373376 ], [ 83.994512, 19.2360314 ], [ 83.9882058, 19.2286821 ], [ 83.9885391, 19.2210979 ], [ 83.9845202, 19.2145912 ], [ 83.9797495, 19.2130078 ], [ 83.9846356, 19.2036205 ], [ 83.9891612, 19.1990102 ], [ 83.9943638, 19.1969167 ], [ 83.9944931, 19.1953979 ], [ 83.9974602, 19.1934354 ], [ 83.9958608, 19.190383 ], [ 83.9914618, 19.1893445 ], [ 83.9879871, 19.1866206 ], [ 83.9894605, 19.1840237 ], [ 83.9886675, 19.1793106 ], [ 83.9919883, 19.1687932 ], [ 83.9878282, 19.1683373 ], [ 83.9839717, 19.1646806 ], [ 83.9884958, 19.161628 ], [ 83.9888019, 19.1570053 ], [ 83.9922796, 19.1544117 ], [ 83.9942336, 19.1497757 ], [ 83.998093, 19.1501867 ], [ 84.0027778, 19.1465983 ], [ 84.0064624, 19.1476536 ], [ 84.0101705, 19.1430648 ], [ 84.0169773, 19.1415403 ], [ 84.0210437, 19.1428953 ], [ 84.026527, 19.1425072 ], [ 84.0336864, 19.1322285 ], [ 84.0305348, 19.1276403 ], [ 84.0241091, 19.1255389 ], [ 84.0156024, 19.1181407 ], [ 84.0144897, 19.1062784 ], [ 84.0160151, 19.1024167 ], [ 84.0135186, 19.0998576 ], [ 84.0153619, 19.0946726 ], [ 84.0195174, 19.0892285 ], [ 84.0180963, 19.0797276 ], [ 84.0217677, 19.0751039 ], [ 84.0289277, 19.0756679 ], [ 84.0289963, 19.0718616 ], [ 84.031547, 19.0656764 ], [ 84.0317975, 19.0585721 ], [ 84.0242671, 19.0597926 ], [ 84.0189846, 19.0567014 ], [ 84.0090602, 19.0573105 ], [ 84.0081, 19.0614475 ], [ 84.0034335, 19.0698742 ], [ 83.9975883, 19.068236 ], [ 83.9842019, 19.071753 ], [ 83.9776354, 19.072243 ], [ 83.9646623, 19.062982 ], [ 83.9612718, 19.0565587 ], [ 83.9612821, 19.0529617 ], [ 83.9646882, 19.0513983 ], [ 83.9631588, 19.0430674 ], [ 83.9764185, 19.0333339 ], [ 83.9855501, 19.022261 ], [ 83.9815844, 19.0129512 ], [ 83.9755695, 19.0075185 ], [ 83.9724441, 19.0054969 ], [ 83.9681735, 19.0063284 ], [ 83.9601833, 18.9991844 ], [ 83.9502793, 18.9975687 ], [ 83.9378047, 19.0092694 ], [ 83.9301863, 19.0105505 ], [ 83.9306324, 19.0138026 ], [ 83.9284194, 19.0150746 ], [ 83.9207827, 19.0147937 ], [ 83.9171429, 19.0131946 ], [ 83.9078533, 19.0199272 ], [ 83.8960152, 19.0070083 ], [ 83.895204, 19.0023714 ], [ 83.8933514, 19.0008971 ], [ 83.8948307, 18.9969827 ], [ 83.8910265, 18.9946135 ], [ 83.8888675, 18.9935322 ], [ 83.8815143, 18.9953353 ], [ 83.8755857, 18.9952651 ], [ 83.8676746, 18.9933249 ], [ 83.8668974, 18.9900641 ], [ 83.8653586, 18.9894035 ], [ 83.8644519, 18.9905308 ], [ 83.8574356, 18.9910614 ], [ 83.8557486, 19.0000012 ], [ 83.8507215, 19.0057805 ], [ 83.8452093, 19.0087321 ], [ 83.8444461, 19.0107347 ], [ 83.840156, 19.0079746 ], [ 83.8366339, 19.007952 ], [ 83.8334032, 19.0038346 ], [ 83.8321972, 19.0046524 ], [ 83.823478, 19.0169793 ], [ 83.8190922, 19.0203554 ], [ 83.816923, 19.0316161 ], [ 83.8109111, 19.0331659 ], [ 83.8069893, 19.0334061 ], [ 83.8057029, 19.0314303 ], [ 83.7994951, 19.0286759 ], [ 83.7972248, 19.0195322 ], [ 83.794688, 19.017977 ], [ 83.781982, 19.0177489 ], [ 83.780525, 19.0186241 ], [ 83.7779058, 19.0175348 ], [ 83.7780614, 19.0154693 ], [ 83.7812825, 19.0139355 ], [ 83.781983, 19.0083946 ], [ 83.7788016, 19.0074628 ], [ 83.7716971, 19.0080841 ], [ 83.7648606, 19.0054011 ], [ 83.7628051, 18.9984927 ], [ 83.7606517, 19.0025971 ], [ 83.758676, 19.0022293 ], [ 83.7550287, 18.9986127 ], [ 83.7538371, 18.9992088 ], [ 83.7527313, 18.9977671 ], [ 83.7515502, 18.9986786 ], [ 83.7475321, 18.9959076 ], [ 83.744877, 18.9865203 ], [ 83.7480702, 18.9740438 ], [ 83.7553051, 18.9713177 ], [ 83.7550575, 18.9623191 ], [ 83.7558698, 18.9597742 ], [ 83.7573569, 18.9593142 ], [ 83.7589552, 18.9506131 ], [ 83.7616289, 18.9504649 ], [ 83.7638995, 18.9529277 ], [ 83.7696473, 18.954756 ], [ 83.7725829, 18.9443239 ], [ 83.7762182, 18.9452491 ], [ 83.7788469, 18.9366635 ], [ 83.784456, 18.9335953 ], [ 83.7850477, 18.9237896 ], [ 83.7875709, 18.9191829 ], [ 83.7878908, 18.9158688 ], [ 83.7802141, 18.9117763 ], [ 83.776997, 18.9117207 ], [ 83.7718367, 18.9146465 ], [ 83.769388, 18.914304 ], [ 83.7663614, 18.9226651 ], [ 83.7631688, 18.9272815 ], [ 83.7538587, 18.925131 ], [ 83.7476639, 18.9370786 ], [ 83.7468119, 18.943579 ], [ 83.740541, 18.9500692 ], [ 83.7387874, 18.9603572 ], [ 83.7343996, 18.9691762 ], [ 83.7324581, 18.9799094 ], [ 83.7330127, 18.9877118 ], [ 83.7181698, 18.9934205 ], [ 83.7141996, 18.9929867 ], [ 83.7132009, 18.9980291 ], [ 83.7094769, 19.0026365 ], [ 83.7088269, 19.0055852 ], [ 83.7103051, 19.0071752 ], [ 83.7180713, 19.0104337 ], [ 83.7212143, 19.0093084 ], [ 83.7238924, 19.0102488 ], [ 83.7300169, 19.0219554 ], [ 83.7244684, 19.0205429 ], [ 83.71616, 19.0236768 ], [ 83.7096864, 19.0246431 ], [ 83.7046204, 19.0234126 ], [ 83.7001389, 19.0254512 ], [ 83.6978381, 19.030546 ], [ 83.6985338, 19.0318812 ], [ 83.6930214, 19.0386076 ], [ 83.6912008, 19.0472982 ], [ 83.6852525, 19.0585321 ], [ 83.6765897, 19.0652047 ], [ 83.6746297, 19.0720823 ], [ 83.6679584, 19.075371 ], [ 83.664355, 19.0757121 ], [ 83.6610179, 19.0811376 ], [ 83.6603818, 19.0844247 ], [ 83.6638921, 19.0921937 ], [ 83.6625432, 19.0951481 ], [ 83.6628225, 19.0989501 ], [ 83.6614302, 19.0989115 ], [ 83.6575843, 19.1025475 ], [ 83.6555708, 19.1088026 ], [ 83.6510529, 19.1093464 ], [ 83.6504545, 19.1173871 ], [ 83.6470364, 19.118398 ], [ 83.6496361, 19.1232593 ], [ 83.6543845, 19.1227444 ], [ 83.6549629, 19.1296208 ], [ 83.6527139, 19.1315632 ], [ 83.6467527, 19.1298115 ], [ 83.6421168, 19.1319235 ], [ 83.6370078, 19.1314776 ], [ 83.6317029, 19.140841 ], [ 83.6349356, 19.1496576 ], [ 83.6344095, 19.1518323 ], [ 83.6372583, 19.1535144 ], [ 83.6339225, 19.1594562 ], [ 83.6260341, 19.1626664 ], [ 83.6277871, 19.1566545 ], [ 83.6274734, 19.1506495 ], [ 83.6222929, 19.1478203 ], [ 83.6208038, 19.1416786 ], [ 83.6187602, 19.1413239 ], [ 83.6159611, 19.1370519 ], [ 83.6079694, 19.1396894 ], [ 83.6047047, 19.1359927 ], [ 83.6016522, 19.1355258 ], [ 83.5991264, 19.1301615 ], [ 83.5978086, 19.1188065 ], [ 83.6034138, 19.1121308 ], [ 83.6089562, 19.1020964 ], [ 83.6106142, 19.0960633 ], [ 83.6030746, 19.0925896 ], [ 83.6011923, 19.0949144 ], [ 83.5929503, 19.0926738 ], [ 83.5855886, 19.0865554 ], [ 83.5847134, 19.0837096 ], [ 83.5870218, 19.0693596 ], [ 83.5840539, 19.0650757 ], [ 83.5844551, 19.0575659 ], [ 83.5797717, 19.0605437 ], [ 83.5749651, 19.0613966 ], [ 83.5670975, 19.0598989 ], [ 83.5634192, 19.0578505 ], [ 83.5603493, 19.064499 ], [ 83.5638104, 19.0706366 ], [ 83.5669997, 19.0717391 ], [ 83.5646888, 19.0792576 ], [ 83.5601738, 19.0870685 ], [ 83.5544426, 19.086534 ], [ 83.5490455, 19.0805177 ], [ 83.5485348, 19.0778698 ], [ 83.5556117, 19.0633636 ], [ 83.5554116, 19.0580609 ], [ 83.5575674, 19.0562024 ], [ 83.5516778, 19.0545502 ], [ 83.5468827, 19.0437165 ], [ 83.5417349, 19.0414846 ], [ 83.539842, 19.033469 ], [ 83.5414876, 19.0296083 ], [ 83.538814, 19.0223754 ], [ 83.5367052, 19.0094951 ], [ 83.5345666, 19.0130915 ], [ 83.5259085, 19.0128398 ], [ 83.5247375, 19.0145175 ], [ 83.522493, 19.0120737 ], [ 83.5162427, 19.0166066 ], [ 83.5037791, 19.0187266 ], [ 83.5009358, 19.0206616 ], [ 83.4954581, 19.0318526 ], [ 83.4974733, 19.0345392 ], [ 83.4964664, 19.0354694 ], [ 83.5084705, 19.0355371 ], [ 83.514821, 19.0284563 ], [ 83.5193017, 19.039065 ], [ 83.5131317, 19.0483785 ], [ 83.5147862, 19.0497738 ], [ 83.5167957, 19.0570796 ], [ 83.5130417, 19.060684 ], [ 83.5112003, 19.0667508 ], [ 83.5117148, 19.0703154 ], [ 83.505548, 19.0660465 ], [ 83.5017846, 19.0658945 ], [ 83.5006072, 19.0606496 ], [ 83.4888366, 19.0733531 ], [ 83.4867229, 19.0736526 ], [ 83.4808399, 19.0785048 ], [ 83.4824241, 19.0810278 ], [ 83.4818315, 19.0851337 ], [ 83.4863131, 19.0875399 ], [ 83.4833958, 19.0922559 ], [ 83.4736563, 19.0952724 ], [ 83.4679767, 19.093118 ], [ 83.4687287, 19.0919339 ], [ 83.4672599, 19.0876909 ], [ 83.4697145, 19.0857164 ], [ 83.470995, 19.0868642 ], [ 83.4729967, 19.0857265 ], [ 83.47351, 19.0870337 ], [ 83.4764986, 19.0854353 ], [ 83.478372, 19.0792739 ], [ 83.4729866, 19.0770479 ], [ 83.4703587, 19.0801447 ], [ 83.4662705, 19.0799014 ], [ 83.4630968, 19.0759657 ], [ 83.4649515, 19.074523 ], [ 83.4652033, 19.0710111 ], [ 83.4637347, 19.0696535 ], [ 83.4622943, 19.0637665 ], [ 83.4678225, 19.0631553 ], [ 83.4691977, 19.0610958 ], [ 83.469517, 19.0576462 ], [ 83.4678275, 19.0551447 ], [ 83.4709269, 19.048637 ], [ 83.4707234, 19.0429096 ], [ 83.4833475, 19.0335467 ], [ 83.4793984, 19.0221169 ], [ 83.4795847, 19.0177118 ], [ 83.4825082, 19.0150942 ], [ 83.4806796, 19.0108742 ], [ 83.4813688, 19.0097445 ], [ 83.4796802, 19.0084672 ], [ 83.4715914, 19.0072255 ], [ 83.4615217, 19.0123405 ], [ 83.4522488, 19.0125903 ], [ 83.4515666, 19.0097771 ], [ 83.4499722, 19.0095092 ], [ 83.450659, 19.004533 ], [ 83.4553122, 18.996831 ], [ 83.4552733, 18.9912638 ], [ 83.4659968, 18.9935505 ], [ 83.4678354, 18.9910831 ], [ 83.4641849, 18.9801049 ], [ 83.4653628, 18.9791815 ], [ 83.4685556, 18.9803672 ], [ 83.4698121, 18.9693235 ], [ 83.4678292, 18.9645544 ], [ 83.465988, 18.9645835 ], [ 83.4647361, 18.9627126 ], [ 83.4626653, 18.957439 ], [ 83.4631651, 18.955599 ], [ 83.461297, 18.9560438 ], [ 83.4618291, 18.9547814 ], [ 83.4458599, 18.9577609 ], [ 83.4435381, 18.9609525 ], [ 83.4458051, 18.9657982 ], [ 83.4403283, 18.9716156 ], [ 83.4388838, 18.976385 ], [ 83.4350979, 18.9758568 ], [ 83.4291977, 18.980423 ], [ 83.4263592, 18.9850074 ], [ 83.4196421, 18.9889336 ], [ 83.4153213, 18.9891797 ], [ 83.4200026, 18.9981001 ], [ 83.4196068, 19.0002638 ], [ 83.4170643, 19.0020583 ], [ 83.4158408, 19.0005028 ], [ 83.4143897, 19.0035698 ], [ 83.411275, 19.0002553 ], [ 83.4095536, 19.0043283 ], [ 83.4043021, 19.0046044 ], [ 83.4042179, 19.0066737 ], [ 83.4020094, 19.0062779 ], [ 83.4006245, 19.0093441 ], [ 83.3984661, 19.0084734 ], [ 83.3967223, 19.0096972 ], [ 83.3946937, 19.0059619 ], [ 83.384635, 19.0013775 ], [ 83.376818, 19.0018529 ], [ 83.3759694, 19.0029387 ], [ 83.3726129, 19.0022592 ], [ 83.3666189, 19.0060977 ], [ 83.3659249, 19.0083871 ], [ 83.3670305, 19.0093528 ], [ 83.3652856, 19.0101789 ], [ 83.3669547, 19.0117155 ], [ 83.3660548, 19.0128694 ], [ 83.3674781, 19.016482 ], [ 83.3639248, 19.016681 ], [ 83.3580517, 19.0193797 ], [ 83.3536764, 19.017855 ], [ 83.3504666, 19.0185236 ], [ 83.3480179, 19.01692 ], [ 83.3470412, 19.0254628 ], [ 83.3543653, 19.0377745 ], [ 83.3590582, 19.0398776 ], [ 83.3624691, 19.047696 ], [ 83.358799, 19.0524483 ], [ 83.3453775, 19.0523711 ], [ 83.3403489, 19.0608706 ], [ 83.3410198, 19.0656986 ], [ 83.344779, 19.0733005 ], [ 83.3424187, 19.0810842 ], [ 83.338318, 19.0833355 ], [ 83.3398089, 19.0941113 ], [ 83.3382361, 19.0960982 ], [ 83.3407584, 19.1021761 ], [ 83.3368622, 19.1024468 ], [ 83.3268793, 19.1002522 ], [ 83.3199047, 19.1141361 ], [ 83.3122832, 19.1150721 ], [ 83.3089487, 19.1181847 ], [ 83.3018962, 19.1142675 ], [ 83.2992809, 19.1192405 ], [ 83.2997928, 19.1218986 ], [ 83.2983963, 19.1229547 ], [ 83.291446, 19.1150663 ], [ 83.2852984, 19.115766 ], [ 83.2842678, 19.1199425 ], [ 83.2847772, 19.1255405 ], [ 83.2832096, 19.1263231 ], [ 83.2794594, 19.1233713 ], [ 83.2773843, 19.1137462 ], [ 83.2723979, 19.1014708 ], [ 83.2711415, 19.0935557 ], [ 83.2690581, 19.0906623 ], [ 83.268579, 19.0846861 ], [ 83.2594068, 19.067548 ], [ 83.2622682, 19.0694547 ], [ 83.262214, 19.0650347 ], [ 83.2671103, 19.0633303 ], [ 83.2685396, 19.0556261 ], [ 83.2649301, 19.0509446 ], [ 83.2606995, 19.0388686 ], [ 83.2432719, 19.0272403 ], [ 83.2374542, 19.025048 ], [ 83.2343937, 19.0264705 ], [ 83.2362994, 19.0146885 ], [ 83.2341827, 19.0083735 ], [ 83.2357564, 19.0064036 ], [ 83.2379307, 18.9978556 ], [ 83.236842, 18.989577 ], [ 83.2342748, 18.9896666 ], [ 83.2322412, 18.9856176 ], [ 83.2198527, 18.9836305 ], [ 83.2106426, 18.9746181 ], [ 83.2008613, 18.9603369 ], [ 83.1850046, 18.9608588 ], [ 83.1858284, 18.9687075 ], [ 83.1965259, 18.9913472 ], [ 83.194463, 19.0002188 ], [ 83.1880369, 19.0036776 ], [ 83.1844894, 19.0137998 ], [ 83.1861789, 19.0213445 ], [ 83.1860816, 19.0309697 ], [ 83.1903586, 19.0384521 ], [ 83.1904816, 19.0449269 ], [ 83.1930969, 19.0524107 ], [ 83.1919745, 19.0551744 ], [ 83.1866088, 19.0592489 ], [ 83.1927895, 19.0669524 ], [ 83.195313, 19.075345 ], [ 83.1900794, 19.0801128 ], [ 83.1851857, 19.0811194 ], [ 83.187381, 19.084792 ], [ 83.18952, 19.096459 ], [ 83.1855996, 19.0967224 ], [ 83.1815335, 19.0953074 ], [ 83.17907, 19.0980011 ], [ 83.1879833, 19.1060335 ], [ 83.1906532, 19.1110781 ], [ 83.1902703, 19.1130245 ], [ 83.1951951, 19.1150252 ], [ 83.1953748, 19.1192818 ], [ 83.1990156, 19.1197441 ], [ 83.2048747, 19.1233863 ], [ 83.2040067, 19.1274386 ], [ 83.205371, 19.1325029 ], [ 83.2074162, 19.1315751 ], [ 83.2101377, 19.1336288 ], [ 83.2146454, 19.1342249 ], [ 83.2207961, 19.1382922 ], [ 83.2220591, 19.1364477 ], [ 83.221487, 19.1288404 ], [ 83.2250943, 19.1228811 ], [ 83.2320835, 19.1239525 ], [ 83.2387975, 19.1278721 ], [ 83.2436715, 19.1270988 ], [ 83.2447136, 19.1279126 ], [ 83.2436263, 19.13078 ], [ 83.2401182, 19.1331395 ], [ 83.2410838, 19.145181 ], [ 83.2483187, 19.1484329 ], [ 83.2501036, 19.1529512 ], [ 83.2555671, 19.1531958 ], [ 83.2571295, 19.1639428 ], [ 83.2481319, 19.16245 ], [ 83.2354124, 19.1710864 ], [ 83.2266593, 19.1732928 ], [ 83.2243751, 19.169669 ], [ 83.2236409, 19.1651237 ], [ 83.2201397, 19.1616842 ], [ 83.2079016, 19.1666236 ], [ 83.1982518, 19.1689747 ], [ 83.1974518, 19.1603604 ], [ 83.2048282, 19.1542367 ], [ 83.2012566, 19.1482955 ], [ 83.1965398, 19.1470152 ], [ 83.1928872, 19.1500259 ], [ 83.1891501, 19.1505988 ], [ 83.1888115, 19.1483448 ], [ 83.1813562, 19.1465908 ], [ 83.1774099, 19.143535 ], [ 83.1752793, 19.1452132 ], [ 83.1661893, 19.1383385 ], [ 83.1664702, 19.1340222 ], [ 83.1636839, 19.1309615 ], [ 83.1637942, 19.1288646 ], [ 83.1619708, 19.129306 ], [ 83.1607581, 19.1248537 ], [ 83.1627226, 19.1228119 ], [ 83.1616124, 19.121854 ], [ 83.1500639, 19.1249568 ], [ 83.1472644, 19.1296774 ], [ 83.1477595, 19.1356412 ], [ 83.1413577, 19.1351659 ], [ 83.1380249, 19.1373402 ], [ 83.1357145, 19.136428 ], [ 83.133244, 19.1331416 ], [ 83.1335257, 19.1243633 ], [ 83.1308814, 19.1223209 ], [ 83.1322685, 19.1163795 ], [ 83.1319484, 19.108832 ], [ 83.1295174, 19.0933465 ], [ 83.1255694, 19.0933424 ], [ 83.1203687, 19.0897128 ], [ 83.1187505, 19.0924593 ], [ 83.1162598, 19.0934725 ], [ 83.1169598, 19.0969737 ], [ 83.1158234, 19.0998863 ], [ 83.1120411, 19.1054483 ], [ 83.1100451, 19.1057787 ], [ 83.1068287, 19.1138082 ], [ 83.1005739, 19.1111839 ], [ 83.0978859, 19.1090698 ], [ 83.098422, 19.1067468 ], [ 83.0952813, 19.1044701 ], [ 83.0921524, 19.0955677 ], [ 83.0873449, 19.0880166 ], [ 83.0858508, 19.0866968 ], [ 83.0810019, 19.086038 ], [ 83.0800928, 19.0869149 ], [ 83.0738203, 19.0815619 ], [ 83.0747774, 19.0806026 ], [ 83.0732314, 19.0769978 ], [ 83.0731063, 19.0711413 ], [ 83.0687904, 19.0682406 ], [ 83.0660883, 19.0629324 ], [ 83.0716226, 19.0614612 ], [ 83.0720074, 19.0576359 ], [ 83.0689233, 19.0525354 ], [ 83.0688226, 19.0474825 ], [ 83.0650912, 19.0441549 ], [ 83.054549, 19.0523978 ], [ 83.0504641, 19.0527684 ], [ 83.0481412, 19.0557733 ], [ 83.0436473, 19.0546146 ], [ 83.0316911, 19.0553112 ], [ 83.0303722, 19.0573901 ], [ 83.0218404, 19.0612235 ], [ 83.0204818, 19.0656879 ], [ 83.0190256, 19.0657077 ], [ 83.019338, 19.0738432 ], [ 83.0284729, 19.0789098 ], [ 83.0273953, 19.0824898 ], [ 83.0286117, 19.0867984 ], [ 83.0238868, 19.0924423 ], [ 83.0189061, 19.0953729 ], [ 83.0093118, 19.0956505 ], [ 83.0065701, 19.1007525 ], [ 83.0089039, 19.112235 ], [ 83.0073401, 19.1125773 ], [ 83.0072188, 19.1170954 ], [ 83.0062823, 19.1170561 ], [ 83.0051137, 19.1206234 ], [ 82.9971362, 19.127801 ], [ 82.9909885, 19.1310836 ], [ 82.9863002, 19.1365389 ], [ 82.9805497, 19.1383822 ], [ 82.983021, 19.1479444 ], [ 82.9813291, 19.1503203 ], [ 82.9813305, 19.1576057 ], [ 82.9793883, 19.1629291 ], [ 82.9820882, 19.1689071 ], [ 82.9807397, 19.1718032 ], [ 82.9766931, 19.1724702 ], [ 82.9729635, 19.1658257 ], [ 82.9644214, 19.1605605 ], [ 82.9586417, 19.1593395 ], [ 82.9550467, 19.1559677 ], [ 82.9485976, 19.1547945 ], [ 82.9423228, 19.1601113 ], [ 82.9386227, 19.1615459 ], [ 82.9303743, 19.158808 ], [ 82.9199686, 19.162386 ], [ 82.9166867, 19.1609568 ], [ 82.9144637, 19.1573621 ], [ 82.9073224, 19.1577448 ], [ 82.9013415, 19.1553708 ], [ 82.9039352, 19.1601123 ], [ 82.897063, 19.1677687 ], [ 82.8979898, 19.1743988 ], [ 82.8948998, 19.1739607 ], [ 82.8929682, 19.1788095 ], [ 82.8869166, 19.1817129 ], [ 82.8840076, 19.1817427 ], [ 82.8834598, 19.1844163 ], [ 82.8776375, 19.183425 ], [ 82.8737474, 19.192101 ], [ 82.8712858, 19.1926185 ], [ 82.8699177, 19.194394 ], [ 82.8719062, 19.1991252 ], [ 82.8788289, 19.1983362 ], [ 82.8870231, 19.2006595 ], [ 82.8920353, 19.2053234 ], [ 82.8940998, 19.2116436 ], [ 82.8864427, 19.2152052 ], [ 82.8842455, 19.2180913 ], [ 82.8883742, 19.2190515 ], [ 82.8948151, 19.217228 ], [ 82.9077658, 19.2253548 ], [ 82.9092493, 19.2278281 ], [ 82.9082046, 19.2304134 ], [ 82.9144158, 19.2341969 ], [ 82.9182896, 19.2385556 ], [ 82.913102, 19.2508999 ], [ 82.9090446, 19.2574058 ], [ 82.902553, 19.2640182 ], [ 82.9052984, 19.2665822 ], [ 82.9061453, 19.2703133 ], [ 82.9016309, 19.2764354 ], [ 82.9017438, 19.2833357 ], [ 82.9042651, 19.289118 ], [ 82.911565, 19.2959207 ], [ 82.9198271, 19.2995241 ], [ 82.9261384, 19.296978 ], [ 82.9329778, 19.30093 ], [ 82.9378996, 19.3068353 ], [ 82.9363732, 19.3117476 ], [ 82.9390997, 19.3158152 ], [ 82.9384079, 19.3233112 ], [ 82.9477945, 19.3353202 ], [ 82.9536469, 19.3465175 ], [ 82.951182, 19.3517064 ], [ 82.9521772, 19.3553723 ], [ 82.945177, 19.3637623 ], [ 82.9484784, 19.3700638 ], [ 82.9484607, 19.37538 ], [ 82.9548519, 19.3825244 ], [ 82.9562357, 19.3880063 ], [ 82.9557036, 19.3924653 ], [ 82.9499, 19.3995284 ], [ 82.9381738, 19.4033439 ], [ 82.935875, 19.4077857 ], [ 82.9365234, 19.4147073 ], [ 82.934861, 19.417033 ], [ 82.9360572, 19.4251773 ], [ 82.9334847, 19.4266454 ], [ 82.9327752, 19.4314587 ], [ 82.9310508, 19.4317886 ], [ 82.9286024, 19.4296648 ], [ 82.9224295, 19.4334655 ], [ 82.9213987, 19.4393165 ], [ 82.9251149, 19.441147 ], [ 82.9264325, 19.4442676 ], [ 82.929208, 19.4458641 ], [ 82.9303398, 19.4437202 ], [ 82.9349387, 19.4517197 ], [ 82.9381068, 19.4501943 ], [ 82.9384024, 19.4466873 ], [ 82.9719075, 19.4478662 ], [ 82.9755164, 19.4513905 ], [ 82.9783062, 19.4493954 ], [ 82.993858, 19.4639262 ], [ 82.997031, 19.4675586 ], [ 82.9940102, 19.4845377 ], [ 82.9971009, 19.4891873 ], [ 82.9991783, 19.4977997 ], [ 83.0061553, 19.4993258 ], [ 83.0082835, 19.5015739 ], [ 83.0141622, 19.50285 ], [ 83.0215989, 19.5076087 ], [ 83.0251313, 19.5078581 ], [ 83.028345, 19.5150031 ], [ 83.0246271, 19.5232059 ], [ 83.0249289, 19.5252485 ], [ 83.0273681, 19.5291007 ], [ 83.0283157, 19.5340309 ], [ 83.0348441, 19.5383836 ], [ 83.0366294, 19.5455038 ], [ 83.0360524, 19.5500086 ], [ 83.0406235, 19.5513345 ], [ 83.0434841, 19.5560442 ], [ 83.0495801, 19.55775 ], [ 83.0539377, 19.5568559 ], [ 83.0578883, 19.5599407 ], [ 83.0605911, 19.5589298 ], [ 83.0703985, 19.5617306 ], [ 83.0781567, 19.5592704 ], [ 83.0772627, 19.5541954 ], [ 83.0830785, 19.5496392 ], [ 83.0863529, 19.5453064 ], [ 83.0880398, 19.5372074 ], [ 83.0936625, 19.5399243 ], [ 83.1007286, 19.5374578 ], [ 83.101886, 19.5425972 ], [ 83.1079612, 19.5383083 ], [ 83.1063329, 19.5336079 ], [ 83.1021201, 19.527944 ], [ 83.1025981, 19.5243841 ], [ 83.1088528, 19.5251738 ], [ 83.1090746, 19.5202306 ], [ 83.1142164, 19.5145704 ], [ 83.1071864, 19.5086865 ], [ 83.1223761, 19.4978418 ], [ 83.1248109, 19.4979306 ], [ 83.1285881, 19.506354 ], [ 83.1353951, 19.5078997 ], [ 83.1473023, 19.4949509 ], [ 83.1532856, 19.4907838 ], [ 83.1593855, 19.4814214 ], [ 83.1558319, 19.4791606 ], [ 83.1531197, 19.4749928 ], [ 83.1497565, 19.4734476 ], [ 83.1484466, 19.4669013 ], [ 83.1496567, 19.4651482 ], [ 83.1533247, 19.4638446 ], [ 83.1526756, 19.457602 ], [ 83.1574592, 19.4506536 ], [ 83.1601584, 19.4499125 ], [ 83.1603917, 19.4470419 ], [ 83.1630811, 19.4448511 ], [ 83.1650959, 19.4355917 ], [ 83.1693013, 19.427137 ], [ 83.1733866, 19.4272192 ], [ 83.1765414, 19.4246252 ], [ 83.1805009, 19.4242028 ], [ 83.1823725, 19.4217778 ], [ 83.1851874, 19.4236813 ], [ 83.1840271, 19.4305371 ], [ 83.1850594, 19.435104 ], [ 83.1830864, 19.4370877 ], [ 83.1849857, 19.4409802 ], [ 83.185341, 19.4472487 ], [ 83.182408, 19.4522021 ], [ 83.1847041, 19.4515963 ], [ 83.1841638, 19.4595963 ], [ 83.1865985, 19.4622133 ], [ 83.1856255, 19.4635031 ], [ 83.1864663, 19.4640755 ], [ 83.1920797, 19.4651231 ], [ 83.1945739, 19.4611775 ], [ 83.1949932, 19.4576771 ], [ 83.1982424, 19.4585454 ], [ 83.2042747, 19.4458635 ], [ 83.2045558, 19.4420034 ], [ 83.2010913, 19.4420861 ], [ 83.2015556, 19.4394522 ], [ 83.208163, 19.4404963 ], [ 83.2096773, 19.4384276 ], [ 83.2131026, 19.4382593 ], [ 83.2133363, 19.4361837 ], [ 83.2114736, 19.4350233 ], [ 83.2126, 19.4327831 ], [ 83.2161342, 19.4304911 ], [ 83.2168743, 19.4394191 ], [ 83.2186592, 19.4404496 ], [ 83.2191859, 19.443121 ], [ 83.2180637, 19.444616 ], [ 83.2145707, 19.4422562 ], [ 83.2115035, 19.4435582 ], [ 83.2092876, 19.4497269 ], [ 83.2074562, 19.4480737 ], [ 83.2042874, 19.4510251 ], [ 83.2042997, 19.4540598 ], [ 83.201063, 19.4601008 ], [ 83.2041849, 19.4596564 ], [ 83.2047729, 19.4640479 ], [ 83.2067749, 19.4663266 ], [ 83.2057398, 19.4697081 ], [ 83.2082943, 19.4691848 ], [ 83.2084885, 19.4705101 ], [ 83.2047209, 19.4732295 ], [ 83.2049244, 19.474198 ], [ 83.2118972, 19.4782 ], [ 83.2144221, 19.4831953 ], [ 83.2138671, 19.4857943 ], [ 83.2174723, 19.4872359 ], [ 83.2202204, 19.4900653 ], [ 83.2193846, 19.4958198 ], [ 83.2245978, 19.4981629 ], [ 83.2283188, 19.5059431 ], [ 83.2331398, 19.5053643 ], [ 83.235727, 19.5071793 ], [ 83.2455404, 19.5046282 ], [ 83.24536, 19.5136397 ], [ 83.2534266, 19.5207782 ], [ 83.2573538, 19.5281669 ], [ 83.2565213, 19.5323498 ], [ 83.2505905, 19.5353907 ], [ 83.2483129, 19.5394608 ], [ 83.2522553, 19.5441533 ], [ 83.25522, 19.5453084 ], [ 83.2559858, 19.5472859 ], [ 83.2637773, 19.5478567 ], [ 83.262501, 19.5543665 ], [ 83.2658893, 19.5588894 ], [ 83.2634711, 19.5624376 ], [ 83.2555184, 19.565057 ], [ 83.2529905, 19.5699793 ], [ 83.2583147, 19.5770115 ], [ 83.2664847, 19.5748995 ], [ 83.2693499, 19.5774149 ], [ 83.267144, 19.582866 ], [ 83.2692689, 19.5869352 ], [ 83.2657537, 19.5904159 ], [ 83.2663373, 19.6011246 ], [ 83.2696642, 19.6022161 ], [ 83.2744892, 19.6003762 ], [ 83.2759671, 19.5980589 ], [ 83.2780541, 19.5983847 ], [ 83.2796235, 19.5954658 ], [ 83.2847398, 19.5923437 ], [ 83.2855297, 19.5895792 ], [ 83.2877967, 19.588828 ], [ 83.286164, 19.5953558 ], [ 83.2877515, 19.5970968 ], [ 83.3002048, 19.5909098 ], [ 83.3014162, 19.5923348 ], [ 83.3033052, 19.5908114 ], [ 83.3062033, 19.5925581 ], [ 83.3193034, 19.5923628 ], [ 83.3348968, 19.5965687 ], [ 83.3579639, 19.6071011 ], [ 83.3639282, 19.6047245 ], [ 83.3647319, 19.5987444 ], [ 83.3661965, 19.5975692 ], [ 83.3705929, 19.5964999 ], [ 83.3729364, 19.5974263 ], [ 83.3746101, 19.6001091 ], [ 83.3750625, 19.6069035 ], [ 83.3725092, 19.6153992 ], [ 83.3693339, 19.6198301 ], [ 83.3716958, 19.6213343 ], [ 83.3739576, 19.6312656 ], [ 83.3732978, 19.6337263 ], [ 83.3769107, 19.6366634 ], [ 83.3782698, 19.6399552 ], [ 83.3772996, 19.6446236 ], [ 83.3780135, 19.6532929 ], [ 83.3838111, 19.6679139 ], [ 83.3935148, 19.6735962 ], [ 83.3948059, 19.67739 ], [ 83.4024325, 19.6828015 ], [ 83.4157344, 19.6848084 ], [ 83.4220057, 19.6944861 ], [ 83.4279595, 19.6963291 ], [ 83.4322568, 19.7122145 ], [ 83.4463854, 19.7196182 ], [ 83.4429246, 19.7261481 ], [ 83.4446525, 19.7325318 ], [ 83.4521477, 19.7340367 ], [ 83.4539299, 19.7370782 ], [ 83.4544508, 19.7736084 ], [ 83.4542534, 19.7756701 ], [ 83.4523814, 19.7758312 ], [ 83.452122, 19.7785169 ], [ 83.4504379, 19.7797455 ], [ 83.4543983, 19.7807703 ], [ 83.453556, 19.7830802 ], [ 83.4509488, 19.7825831 ], [ 83.4505642, 19.7845751 ], [ 83.4530206, 19.7867403 ], [ 83.4518295, 19.7880842 ], [ 83.4565167, 19.7898259 ], [ 83.4558592, 19.7933026 ], [ 83.458877, 19.7928728 ], [ 83.4592335, 19.7965071 ], [ 83.4548225, 19.797236 ], [ 83.4526452, 19.7955457 ], [ 83.4469974, 19.7965035 ], [ 83.4465075, 19.7990976 ], [ 83.4392966, 19.8011107 ], [ 83.438417, 19.8025631 ], [ 83.4367826, 19.801741 ], [ 83.4376128, 19.8133384 ], [ 83.4334661, 19.8161042 ], [ 83.4335652, 19.8201033 ], [ 83.4314555, 19.826011 ], [ 83.4336012, 19.8287316 ], [ 83.4380607, 19.8301878 ], [ 83.4389998, 19.8332499 ], [ 83.434486, 19.839827 ], [ 83.428723, 19.8439829 ], [ 83.4236379, 19.845041 ], [ 83.4219455, 19.8495477 ], [ 83.4238511, 19.858444 ], [ 83.4261165, 19.8639895 ], [ 83.4299407, 19.8681592 ], [ 83.4304895, 19.8709737 ], [ 83.4244295, 19.8757703 ], [ 83.4253623, 19.8821693 ], [ 83.4246367, 19.8834255 ], [ 83.4227829, 19.8833016 ], [ 83.4236516, 19.8845586 ], [ 83.4226564, 19.884396 ], [ 83.421842, 19.8876581 ], [ 83.4200685, 19.8881157 ], [ 83.420171, 19.8920246 ], [ 83.4182855, 19.8920231 ], [ 83.4124078, 19.8975799 ], [ 83.4123856, 19.9005152 ], [ 83.4094896, 19.9006222 ], [ 83.4110829, 19.9015037 ], [ 83.4102476, 19.9024542 ], [ 83.4131717, 19.9067131 ], [ 83.4109988, 19.9069864 ], [ 83.4124701, 19.9083075 ], [ 83.4101925, 19.9088982 ], [ 83.41055, 19.9110742 ], [ 83.4085387, 19.9097108 ], [ 83.4080361, 19.9137272 ], [ 83.4059146, 19.9154898 ], [ 83.4058916, 19.9183935 ], [ 83.4040406, 19.9206943 ], [ 83.4090304, 19.9242073 ], [ 83.4185049, 19.9343824 ], [ 83.4231463, 19.9284674 ], [ 83.4324998, 19.9325523 ], [ 83.4359394, 19.9323742 ], [ 83.4376658, 19.9303728 ], [ 83.4420694, 19.9335813 ], [ 83.4425125, 19.9425199 ], [ 83.4414283, 19.9468559 ], [ 83.445797, 19.9514735 ], [ 83.4437847, 19.953822 ], [ 83.4437144, 19.9570107 ], [ 83.4460724, 19.9662388 ], [ 83.4462337, 19.9732848 ], [ 83.4514548, 19.9736823 ] ] ] } }
]
}
