{
"type": "FeatureCollection",
"name": "2129",
"crs": { "type": "name", "properties": { "name": "urn:ogc:def:crs:OGC:1.3:CRS84" } },
"features": [
{ "type": "Feature", "properties": { "code": "2129", "name": "Koraput", "type": "district" }, "geometry": { "type": "Polygon", "coordinates": [ [ [ 82.577515, 19.1979469 ], [ 82.5797161, 19.194915 ], [ 82.5822242, 19.1946719 ], [ 82.5844198, 19.1965502 ], [ 82.5858747, 19.2009918 ], [ 82.5880576, 19.2025225 ], [ 82.5897319, 19.2010984 ], [ 82.5904585, 19.192586 ], [ 82.5979562, 19.1915631 ], [ 82.605303, 19.1813575 ], [ 82.6073986, 19.1807789 ], [ 82.6131413, 19.183159 ], [ 82.6151366, 19.1825135 ], [ 82.6163084, 19.1768971 ], [ 82.6152099, 19.159266 ], [ 82.6242691, 19.1514213 ], [ 82.6264729, 19.1512347 ], [ 82.6299629, 19.1537515 ], [ 82.6274584, 19.1538144 ], [ 82.6275156, 19.1576988 ], [ 82.6244838, 19.1582814 ], [ 82.6237837, 19.1605824 ], [ 82.6262152, 19.1622774 ], [ 82.633278, 19.162156 ], [ 82.6384566, 19.1546383 ], [ 82.6373813, 19.1494239 ], [ 82.6395676, 19.149212 ], [ 82.6419935, 19.1532333 ], [ 82.642304, 19.1601104 ], [ 82.6399344, 19.1718992 ], [ 82.6369326, 19.1755444 ], [ 82.6430387, 19.1771431 ], [ 82.6462766, 19.1815094 ], [ 82.651455, 19.1849456 ], [ 82.6537931, 19.1886604 ], [ 82.6609501, 19.1873897 ], [ 82.6661193, 19.1841851 ], [ 82.6685619, 19.1840862 ], [ 82.6722441, 19.1899838 ], [ 82.6795165, 19.1972939 ], [ 82.681452, 19.1954603 ], [ 82.6817455, 19.1897117 ], [ 82.6856918, 19.1859984 ], [ 82.6932987, 19.1906443 ], [ 82.6963107, 19.1894962 ], [ 82.7016456, 19.1909376 ], [ 82.7073249, 19.1870316 ], [ 82.70796, 19.184993 ], [ 82.7066184, 19.1807548 ], [ 82.7082598, 19.1790321 ], [ 82.7144503, 19.1781884 ], [ 82.7250613, 19.1740822 ], [ 82.7254631, 19.1724974 ], [ 82.7212376, 19.172108 ], [ 82.7261193, 19.1656612 ], [ 82.7229837, 19.1612594 ], [ 82.7316971, 19.1608432 ], [ 82.734418, 19.15738 ], [ 82.7363207, 19.1570549 ], [ 82.741165, 19.1598322 ], [ 82.739747, 19.1683107 ], [ 82.7496853, 19.1731037 ], [ 82.761189, 19.1645649 ], [ 82.7614258, 19.1707374 ], [ 82.7792601, 19.165285 ], [ 82.7811715, 19.1662151 ], [ 82.7844795, 19.1723577 ], [ 82.7882673, 19.1731519 ], [ 82.7894919, 19.1694587 ], [ 82.7935004, 19.1704495 ], [ 82.7924281, 19.1680026 ], [ 82.7953932, 19.1630681 ], [ 82.7910459, 19.1579793 ], [ 82.7920145, 19.1552371 ], [ 82.7980193, 19.1514337 ], [ 82.8032092, 19.1513965 ], [ 82.8073783, 19.1579955 ], [ 82.8095904, 19.1642659 ], [ 82.8174568, 19.170295 ], [ 82.8154201, 19.155766 ], [ 82.8203242, 19.1517652 ], [ 82.8200228, 19.1489902 ], [ 82.8227892, 19.1477117 ], [ 82.8259773, 19.1514922 ], [ 82.8272036, 19.1566791 ], [ 82.8265467, 19.1634882 ], [ 82.8246266, 19.1661135 ], [ 82.8231113, 19.1722581 ], [ 82.8270591, 19.176772 ], [ 82.835701, 19.1823048 ], [ 82.8333122, 19.1863983 ], [ 82.8330293, 19.1896218 ], [ 82.8390642, 19.1949274 ], [ 82.8426156, 19.2004746 ], [ 82.8493061, 19.1950548 ], [ 82.8540411, 19.1933267 ], [ 82.8559227, 19.2058912 ], [ 82.8626524, 19.2074085 ], [ 82.8686337, 19.2044704 ], [ 82.8717039, 19.2001661 ], [ 82.8699177, 19.194394 ], [ 82.8712858, 19.1926185 ], [ 82.8737474, 19.192101 ], [ 82.8776375, 19.183425 ], [ 82.8834598, 19.1844163 ], [ 82.8840076, 19.1817427 ], [ 82.8869166, 19.1817129 ], [ 82.8929682, 19.1788095 ], [ 82.8948998, 19.1739607 ], [ 82.8979898, 19.1743988 ], [ 82.897063, 19.1677687 ], [ 82.9039352, 19.1601123 ], [ 82.9013415, 19.1553708 ], [ 82.9073224, 19.1577448 ], [ 82.9144637, 19.1573621 ], [ 82.9166867, 19.1609568 ], [ 82.9199686, 19.162386 ], [ 82.9303743, 19.158808 ], [ 82.9386227, 19.1615459 ], [ 82.9423228, 19.1601113 ], [ 82.9485976, 19.1547945 ], [ 82.9550467, 19.1559677 ], [ 82.9586417, 19.1593395 ], [ 82.9644214, 19.1605605 ], [ 82.9729635, 19.1658257 ], [ 82.9760494, 19.1719035 ], [ 82.9789976, 19.1728021 ], [ 82.9820428, 19.1702806 ], [ 82.9793883, 19.1629291 ], [ 82.9813305, 19.1576057 ], [ 82.9813291, 19.1503203 ], [ 82.983021, 19.1479444 ], [ 82.9805497, 19.1383822 ], [ 82.9863002, 19.1365389 ], [ 82.9909885, 19.1310836 ], [ 82.9971362, 19.127801 ], [ 83.0051137, 19.1206234 ], [ 83.0062823, 19.1170561 ], [ 83.0072188, 19.1170954 ], [ 83.0073401, 19.1125773 ], [ 83.0089039, 19.112235 ], [ 83.0065701, 19.1007525 ], [ 83.0093118, 19.0956505 ], [ 83.0189061, 19.0953729 ], [ 83.0238868, 19.0924423 ], [ 83.0286117, 19.0867984 ], [ 83.0273953, 19.0824898 ], [ 83.0284729, 19.0789098 ], [ 83.019338, 19.0738432 ], [ 83.0190256, 19.0657077 ], [ 83.0204818, 19.0656879 ], [ 83.0218404, 19.0612235 ], [ 83.0303722, 19.0573901 ], [ 83.0316911, 19.0553112 ], [ 83.0436473, 19.0546146 ], [ 83.0481412, 19.0557733 ], [ 83.0504641, 19.0527684 ], [ 83.054549, 19.0523978 ], [ 83.0650912, 19.0441549 ], [ 83.0688226, 19.0474825 ], [ 83.0689233, 19.0525354 ], [ 83.0720074, 19.0576359 ], [ 83.0716226, 19.0614612 ], [ 83.0660883, 19.0629324 ], [ 83.0687904, 19.0682406 ], [ 83.0731063, 19.0711413 ], [ 83.0732314, 19.0769978 ], [ 83.0747774, 19.0806026 ], [ 83.0738203, 19.0815619 ], [ 83.0800928, 19.0869149 ], [ 83.0810019, 19.086038 ], [ 83.0858508, 19.0866968 ], [ 83.0873449, 19.0880166 ], [ 83.0921524, 19.0955677 ], [ 83.0952813, 19.1044701 ], [ 83.098422, 19.1067468 ], [ 83.0978859, 19.1090698 ], [ 83.1005739, 19.1111839 ], [ 83.1068287, 19.1138082 ], [ 83.1100451, 19.1057787 ], [ 83.1120411, 19.1054483 ], [ 83.1158234, 19.0998863 ], [ 83.1169598, 19.0969737 ], [ 83.1162598, 19.0934725 ], [ 83.1187505, 19.0924593 ], [ 83.1203687, 19.0897128 ], [ 83.1255694, 19.0933424 ], [ 83.1295174, 19.0933465 ], [ 83.1319484, 19.108832 ], [ 83.1322685, 19.1163795 ], [ 83.1308814, 19.1223209 ], [ 83.1335257, 19.1243633 ], [ 83.133244, 19.1331416 ], [ 83.1357145, 19.136428 ], [ 83.1380249, 19.1373402 ], [ 83.1413577, 19.1351659 ], [ 83.1477595, 19.1356412 ], [ 83.1472644, 19.1296774 ], [ 83.1500639, 19.1249568 ], [ 83.1616124, 19.121854 ], [ 83.1627226, 19.1228119 ], [ 83.1607581, 19.1248537 ], [ 83.1619708, 19.129306 ], [ 83.1637942, 19.1288646 ], [ 83.1636839, 19.1309615 ], [ 83.1664702, 19.1340222 ], [ 83.1661893, 19.1383385 ], [ 83.1752793, 19.1452132 ], [ 83.1774099, 19.143535 ], [ 83.1813562, 19.1465908 ], [ 83.1888115, 19.1483448 ], [ 83.1891501, 19.1505988 ], [ 83.1928872, 19.1500259 ], [ 83.1965398, 19.1470152 ], [ 83.2012566, 19.1482955 ], [ 83.2048282, 19.1542367 ], [ 83.1974518, 19.1603604 ], [ 83.1982518, 19.1689747 ], [ 83.2079016, 19.1666236 ], [ 83.2201397, 19.1616842 ], [ 83.2236409, 19.1651237 ], [ 83.2243751, 19.169669 ], [ 83.2266593, 19.1732928 ], [ 83.2354124, 19.1710864 ], [ 83.2481319, 19.16245 ], [ 83.2571295, 19.1639428 ], [ 83.2555671, 19.1531958 ], [ 83.2501036, 19.1529512 ], [ 83.2483187, 19.1484329 ], [ 83.2410838, 19.145181 ], [ 83.2401182, 19.1331395 ], [ 83.2436263, 19.13078 ], [ 83.2447136, 19.1279126 ], [ 83.2436715, 19.1270988 ], [ 83.2387975, 19.1278721 ], [ 83.2320835, 19.1239525 ], [ 83.2250943, 19.1228811 ], [ 83.221487, 19.1288404 ], [ 83.2220591, 19.1364477 ], [ 83.2207961, 19.1382922 ], [ 83.2146454, 19.1342249 ], [ 83.2101377, 19.1336288 ], [ 83.2074162, 19.1315751 ], [ 83.205371, 19.1325029 ], [ 83.2040067, 19.1274386 ], [ 83.2048747, 19.1233863 ], [ 83.1990156, 19.1197441 ], [ 83.1953748, 19.1192818 ], [ 83.1951951, 19.1150252 ], [ 83.1902703, 19.1130245 ], [ 83.1906532, 19.1110781 ], [ 83.1879833, 19.1060335 ], [ 83.17907, 19.0980011 ], [ 83.1815335, 19.0953074 ], [ 83.1855996, 19.0967224 ], [ 83.18952, 19.096459 ], [ 83.187381, 19.084792 ], [ 83.1851857, 19.0811194 ], [ 83.1900794, 19.0801128 ], [ 83.195313, 19.075345 ], [ 83.1927895, 19.0669524 ], [ 83.1866088, 19.0592489 ], [ 83.1919745, 19.0551744 ], [ 83.1930969, 19.0524107 ], [ 83.1904816, 19.0449269 ], [ 83.1903586, 19.0384521 ], [ 83.1860816, 19.0309697 ], [ 83.1861789, 19.0213445 ], [ 83.1844894, 19.0137998 ], [ 83.1880369, 19.0036776 ], [ 83.194463, 19.0002188 ], [ 83.1965259, 18.9913472 ], [ 83.1858284, 18.9687075 ], [ 83.1850046, 18.9608588 ], [ 83.2008613, 18.9603369 ], [ 83.2106426, 18.9746181 ], [ 83.2198527, 18.9836305 ], [ 83.2322412, 18.9856176 ], [ 83.2342748, 18.9896666 ], [ 83.236842, 18.989577 ], [ 83.2379307, 18.9978556 ], [ 83.2357564, 19.0064036 ], [ 83.2341827, 19.0083735 ], [ 83.2362994, 19.0146885 ], [ 83.2343937, 19.0264705 ], [ 83.2374542, 19.025048 ], [ 83.2432719, 19.0272403 ], [ 83.2604157, 19.0386056 ], [ 83.2649301, 19.0509446 ], [ 83.2682225, 19.0546546 ], [ 83.2671103, 19.0633303 ], [ 83.262214, 19.0650347 ], [ 83.2622682, 19.0694547 ], [ 83.2594068, 19.067548 ], [ 83.268579, 19.0846861 ], [ 83.2690581, 19.0906623 ], [ 83.2711415, 19.0935557 ], [ 83.2723979, 19.1014708 ], [ 83.2773843, 19.1137462 ], [ 83.2794594, 19.1233713 ], [ 83.2830682, 19.126314 ], [ 83.2847772, 19.1255405 ], [ 83.2845521, 19.1167689 ], [ 83.2904222, 19.114903 ], [ 83.2983963, 19.1229547 ], [ 83.2997928, 19.1218986 ], [ 83.2992809, 19.1192405 ], [ 83.3018962, 19.1142675 ], [ 83.3089487, 19.1181847 ], [ 83.3122832, 19.1150721 ], [ 83.3199047, 19.1141361 ], [ 83.3268793, 19.1002522 ], [ 83.3368622, 19.1024468 ], [ 83.3407584, 19.1021761 ], [ 83.3382361, 19.0960982 ], [ 83.3398089, 19.0941113 ], [ 83.338318, 19.0833355 ], [ 83.3424187, 19.0810842 ], [ 83.344779, 19.0733005 ], [ 83.3410198, 19.0656986 ], [ 83.3403489, 19.0608706 ], [ 83.3453775, 19.0523711 ], [ 83.358799, 19.0524483 ], [ 83.3624691, 19.047696 ], [ 83.3590582, 19.0398776 ], [ 83.3543653, 19.0377745 ], [ 83.3470412, 19.0254628 ], [ 83.3479535, 19.017061 ], [ 83.3429215, 19.0181366 ], [ 83.3400282, 19.0088479 ], [ 83.3371127, 19.0064462 ], [ 83.3364868, 19.0027792 ], [ 83.3387848, 18.9970051 ], [ 83.335811, 18.9986394 ], [ 83.3312593, 18.9989877 ], [ 83.3272145, 19.002403 ], [ 83.3223746, 18.9995104 ], [ 83.3166544, 19.0012622 ], [ 83.3106462, 18.9986729 ], [ 83.3103342, 18.9956782 ], [ 83.315904, 18.9871729 ], [ 83.315232, 18.9831981 ], [ 83.3176031, 18.9802874 ], [ 83.318742, 18.9734089 ], [ 83.3221415, 18.9700381 ], [ 83.3283037, 18.9670344 ], [ 83.3314839, 18.9690808 ], [ 83.3348224, 18.9685238 ], [ 83.3325166, 18.9576741 ], [ 83.3337409, 18.9549356 ], [ 83.3390171, 18.9527782 ], [ 83.3378352, 18.9462948 ], [ 83.3271097, 18.9446189 ], [ 83.324861, 18.9374848 ], [ 83.3254085, 18.9331473 ], [ 83.3339183, 18.9287818 ], [ 83.3334223, 18.9262095 ], [ 83.3352219, 18.924927 ], [ 83.3484377, 18.9262864 ], [ 83.3438472, 18.9411249 ], [ 83.3501701, 18.9432668 ], [ 83.3508639, 18.9473989 ], [ 83.3481802, 18.9597794 ], [ 83.3502888, 18.9656322 ], [ 83.3515911, 18.9671059 ], [ 83.354736, 18.9672963 ], [ 83.3615363, 18.96315 ], [ 83.3671254, 18.9630064 ], [ 83.3684013, 18.9605922 ], [ 83.3658436, 18.9569354 ], [ 83.368379, 18.953304 ], [ 83.3712754, 18.9426502 ], [ 83.3830254, 18.9369406 ], [ 83.3874415, 18.9327925 ], [ 83.3820154, 18.9272898 ], [ 83.3773508, 18.9256112 ], [ 83.3706043, 18.9260362 ], [ 83.3691871, 18.9298566 ], [ 83.370147, 18.9417163 ], [ 83.3609752, 18.9408309 ], [ 83.352484, 18.9434631 ], [ 83.3534333, 18.9306035 ], [ 83.3574918, 18.9239182 ], [ 83.3591391, 18.9168752 ], [ 83.3617033, 18.915989 ], [ 83.3598253, 18.9147124 ], [ 83.362393, 18.9147565 ], [ 83.3697171, 18.9078759 ], [ 83.3768426, 18.9098123 ], [ 83.3818113, 18.9138896 ], [ 83.3850344, 18.9133154 ], [ 83.3906091, 18.9096085 ], [ 83.3931775, 18.9073807 ], [ 83.3846487, 18.9038553 ], [ 83.378331, 18.896955 ], [ 83.3835277, 18.890363 ], [ 83.3912728, 18.8871973 ], [ 83.391834, 18.8822859 ], [ 83.3974163, 18.8785292 ], [ 83.4020194, 18.8769751 ], [ 83.4070314, 18.8771496 ], [ 83.4102356, 18.8743173 ], [ 83.4148477, 18.874402 ], [ 83.4048736, 18.8619052 ], [ 83.4043656, 18.8475607 ], [ 83.4058826, 18.8425152 ], [ 83.4041297, 18.8429893 ], [ 83.3783257, 18.8306629 ], [ 83.3751854, 18.8363522 ], [ 83.3717371, 18.8390245 ], [ 83.3704447, 18.8429109 ], [ 83.3681509, 18.84406 ], [ 83.363938, 18.8422756 ], [ 83.358675, 18.8349319 ], [ 83.3493408, 18.8301274 ], [ 83.3477672, 18.8271127 ], [ 83.3379642, 18.8243638 ], [ 83.3282457, 18.8180818 ], [ 83.32814, 18.8121265 ], [ 83.3306163, 18.8063467 ], [ 83.3194035, 18.804766 ], [ 83.309306, 18.809502 ], [ 83.2978662, 18.8016996 ], [ 83.2843379, 18.7978782 ], [ 83.2800522, 18.7926647 ], [ 83.275274, 18.782905 ], [ 83.2813737, 18.7746024 ], [ 83.2713546, 18.7646354 ], [ 83.2640922, 18.7678938 ], [ 83.2625525, 18.7697551 ], [ 83.253387, 18.7675626 ], [ 83.2511487, 18.7685967 ], [ 83.2432458, 18.7682763 ], [ 83.2380843, 18.7727188 ], [ 83.2345983, 18.7740612 ], [ 83.2241051, 18.774742 ], [ 83.222356, 18.7729698 ], [ 83.222594, 18.7715986 ], [ 83.2281304, 18.7610189 ], [ 83.2281663, 18.7569041 ], [ 83.2253664, 18.7509128 ], [ 83.2199417, 18.7475404 ], [ 83.2174125, 18.7444543 ], [ 83.214637, 18.7333681 ], [ 83.2124521, 18.7304855 ], [ 83.211375, 18.7322277 ], [ 83.2126913, 18.7375776 ], [ 83.2073652, 18.7457564 ], [ 83.2080062, 18.749118 ], [ 83.2065479, 18.7514384 ], [ 83.1931871, 18.7531222 ], [ 83.1779074, 18.7708603 ], [ 83.1650517, 18.7689367 ], [ 83.1641532, 18.7668967 ], [ 83.1564798, 18.7682319 ], [ 83.1522788, 18.7726928 ], [ 83.1518143, 18.7760719 ], [ 83.1390297, 18.7853646 ], [ 83.1379983, 18.7848164 ], [ 83.115147, 18.7680946 ], [ 83.1211404, 18.7658362 ], [ 83.1236342, 18.7605235 ], [ 83.1222073, 18.7575001 ], [ 83.1192905, 18.7570364 ], [ 83.11242, 18.7528099 ], [ 83.1076074, 18.7470561 ], [ 83.1016938, 18.7327465 ], [ 83.0954578, 18.7314163 ], [ 83.0942012, 18.7260013 ], [ 83.0917358, 18.7225015 ], [ 83.0815952, 18.7146652 ], [ 83.0727908, 18.70554 ], [ 83.0713687, 18.7016353 ], [ 83.0750137, 18.7012563 ], [ 83.0627849, 18.6836317 ], [ 83.0580236, 18.6653147 ], [ 83.0442273, 18.6584419 ], [ 83.0249975, 18.6544135 ], [ 83.0226426, 18.651223 ], [ 83.0170157, 18.650222 ], [ 83.0131284, 18.6460542 ], [ 83.0196328, 18.6351216 ], [ 83.0157577, 18.6331666 ], [ 83.0089035, 18.6268532 ], [ 83.0057537, 18.6216881 ], [ 82.9995744, 18.6195316 ], [ 83.0004701, 18.6079849 ], [ 83.0152135, 18.6054382 ], [ 83.0150077, 18.6020856 ], [ 83.0126925, 18.5993643 ], [ 83.0135621, 18.5943639 ], [ 83.0188001, 18.5934677 ], [ 83.0237902, 18.5896472 ], [ 83.0275857, 18.5925738 ], [ 83.0444363, 18.5994739 ], [ 83.0467204, 18.5987535 ], [ 83.0527925, 18.6006838 ], [ 83.0530968, 18.5881286 ], [ 83.0504783, 18.5881977 ], [ 83.0479575, 18.5865315 ], [ 83.0426194, 18.5873301 ], [ 83.0400751, 18.5864814 ], [ 83.0376609, 18.5810242 ], [ 83.0309975, 18.5775008 ], [ 83.0299963, 18.573338 ], [ 83.0331465, 18.5697901 ], [ 83.038433, 18.5558745 ], [ 83.0431733, 18.5471476 ], [ 83.0454364, 18.5459217 ], [ 83.0453542, 18.5441837 ], [ 83.0544699, 18.544045 ], [ 83.0584041, 18.5421448 ], [ 83.0621557, 18.5422394 ], [ 83.0712387, 18.549755 ], [ 83.0788469, 18.550394 ], [ 83.0809415, 18.5540249 ], [ 83.0838062, 18.5516583 ], [ 83.0895145, 18.5529862 ], [ 83.0950392, 18.5466424 ], [ 83.0935262, 18.5398391 ], [ 83.0892721, 18.5389061 ], [ 83.0836415, 18.5310551 ], [ 83.08192, 18.5308302 ], [ 83.0770101, 18.5261461 ], [ 83.0750664, 18.5145686 ], [ 83.0640059, 18.5022822 ], [ 83.060476, 18.5020453 ], [ 83.057971, 18.4968422 ], [ 83.0552064, 18.4956572 ], [ 83.0561067, 18.4897757 ], [ 83.0551102, 18.4856085 ], [ 83.0376547, 18.4686152 ], [ 83.0307306, 18.4662731 ], [ 83.0209477, 18.456242 ], [ 83.0246143, 18.4484565 ], [ 83.0272472, 18.4473532 ], [ 83.0330966, 18.4477954 ], [ 83.0357183, 18.4457042 ], [ 83.0366767, 18.4427038 ], [ 83.0409372, 18.4407925 ], [ 83.037759, 18.4345439 ], [ 83.0431257, 18.4259619 ], [ 83.0425304, 18.4242258 ], [ 83.045976, 18.4266684 ], [ 83.0507967, 18.4341324 ], [ 83.0585645, 18.4366816 ], [ 83.0599828, 18.4369598 ], [ 83.063398, 18.4320672 ], [ 83.0673116, 18.4300914 ], [ 83.0655043, 18.4229926 ], [ 83.0574357, 18.419372 ], [ 83.0642538, 18.4094062 ], [ 83.076844, 18.4054027 ], [ 83.0770513, 18.4033543 ], [ 83.0620561, 18.3889511 ], [ 83.0612198, 18.3862591 ], [ 83.0554531, 18.3807117 ], [ 83.0430754, 18.3793725 ], [ 83.0392299, 18.3834518 ], [ 83.032219, 18.3834952 ], [ 83.0295055, 18.3860944 ], [ 83.0257918, 18.3869289 ], [ 83.0219207, 18.3917038 ], [ 83.0159808, 18.3870467 ], [ 83.0117932, 18.3886449 ], [ 83.0103296, 18.386045 ], [ 83.0052766, 18.3827603 ], [ 83.0012359, 18.3831462 ], [ 82.9981738, 18.3859337 ], [ 82.9968255, 18.3855233 ], [ 82.9925816, 18.3789279 ], [ 82.9917017, 18.3785306 ], [ 82.990273, 18.3806008 ], [ 82.9876949, 18.3785544 ], [ 82.982187, 18.3681191 ], [ 82.9831754, 18.366442 ], [ 82.9704715, 18.3600061 ], [ 82.9669917, 18.3589264 ], [ 82.9601082, 18.3664098 ], [ 82.9537335, 18.3615744 ], [ 82.9473855, 18.3603611 ], [ 82.9397271, 18.3608187 ], [ 82.926028, 18.3681399 ], [ 82.9221962, 18.3754241 ], [ 82.917861, 18.3752827 ], [ 82.9130832, 18.3684782 ], [ 82.9108853, 18.3729451 ], [ 82.9019227, 18.3740693 ], [ 82.8941937, 18.3815681 ], [ 82.8934109, 18.38701 ], [ 82.8907188, 18.390497 ], [ 82.893176, 18.3932281 ], [ 82.8977789, 18.4034993 ], [ 82.8949997, 18.4241026 ], [ 82.8911649, 18.4239646 ], [ 82.8815602, 18.4206812 ], [ 82.8763978, 18.4216266 ], [ 82.8712951, 18.4184563 ], [ 82.8591364, 18.4232014 ], [ 82.8564108, 18.4254369 ], [ 82.8538427, 18.4229324 ], [ 82.8524161, 18.4192015 ], [ 82.8486264, 18.423724 ], [ 82.8473402, 18.4309099 ], [ 82.8455818, 18.4337729 ], [ 82.8363785, 18.437092 ], [ 82.8359522, 18.4392869 ], [ 82.8312226, 18.4422914 ], [ 82.8238044, 18.4435013 ], [ 82.8232193, 18.4472562 ], [ 82.8156371, 18.4509022 ], [ 82.8031426, 18.449246 ], [ 82.8021835, 18.4466984 ], [ 82.7976258, 18.4435569 ], [ 82.7953755, 18.4397115 ], [ 82.7821633, 18.4307878 ], [ 82.782893, 18.4226089 ], [ 82.7874339, 18.4191737 ], [ 82.7865571, 18.4181204 ], [ 82.7878365, 18.4169023 ], [ 82.7868829, 18.4107134 ], [ 82.7954929, 18.4090873 ], [ 82.7995384, 18.4067498 ], [ 82.7938323, 18.4013512 ], [ 82.7938858, 18.399205 ], [ 82.7914645, 18.3961425 ], [ 82.7940868, 18.388917 ], [ 82.7938629, 18.3860235 ], [ 82.782649, 18.3818918 ], [ 82.7847771, 18.3804081 ], [ 82.7887575, 18.3718013 ], [ 82.7905564, 18.3631878 ], [ 82.7839375, 18.35534 ], [ 82.7763908, 18.3492352 ], [ 82.774123, 18.3444272 ], [ 82.7740858, 18.3403167 ], [ 82.7714671, 18.3391078 ], [ 82.7711156, 18.3375797 ], [ 82.7684478, 18.3380563 ], [ 82.764824, 18.3361564 ], [ 82.7633003, 18.3389125 ], [ 82.7596886, 18.3396146 ], [ 82.7580981, 18.3376279 ], [ 82.7591922, 18.3340266 ], [ 82.7562995, 18.3333078 ], [ 82.7551754, 18.330192 ], [ 82.7506369, 18.330916 ], [ 82.7478454, 18.3289674 ], [ 82.7428701, 18.3299887 ], [ 82.7383081, 18.3269539 ], [ 82.7409797, 18.3226064 ], [ 82.7360466, 18.323112 ], [ 82.7342726, 18.3202416 ], [ 82.7267046, 18.3226095 ], [ 82.7249073, 18.3245323 ], [ 82.723126, 18.3232879 ], [ 82.714738, 18.3223892 ], [ 82.7085598, 18.3158431 ], [ 82.7093756, 18.3131795 ], [ 82.7016648, 18.3106372 ], [ 82.6945151, 18.3122819 ], [ 82.691949, 18.3076425 ], [ 82.6844181, 18.303589 ], [ 82.6801827, 18.3033463 ], [ 82.6763212, 18.3065606 ], [ 82.6736051, 18.3049672 ], [ 82.6690965, 18.2989034 ], [ 82.6667659, 18.2980292 ], [ 82.6622518, 18.2982989 ], [ 82.6574207, 18.2960685 ], [ 82.654937, 18.296989 ], [ 82.6511901, 18.3018599 ], [ 82.6426499, 18.302033 ], [ 82.6407177, 18.2962262 ], [ 82.6438231, 18.288009 ], [ 82.6522424, 18.2811418 ], [ 82.6485369, 18.2728658 ], [ 82.6427885, 18.2715509 ], [ 82.6422801, 18.2637668 ], [ 82.6471172, 18.2622253 ], [ 82.6496574, 18.2578213 ], [ 82.65095, 18.2509976 ], [ 82.6524867, 18.2499994 ], [ 82.6486333, 18.2449954 ], [ 82.6379831, 18.2366522 ], [ 82.6315899, 18.2395755 ], [ 82.6275515, 18.244584 ], [ 82.6235346, 18.2463212 ], [ 82.6199957, 18.2496581 ], [ 82.617201, 18.2557536 ], [ 82.6138495, 18.2584248 ], [ 82.6072097, 18.2614037 ], [ 82.6042184, 18.2646862 ], [ 82.6012935, 18.2638975 ], [ 82.5969134, 18.2647925 ], [ 82.5967834, 18.2743711 ], [ 82.5926356, 18.2742928 ], [ 82.5877853, 18.2760634 ], [ 82.5880462, 18.280299 ], [ 82.5921516, 18.2803461 ], [ 82.5940641, 18.2847035 ], [ 82.5941889, 18.2869703 ], [ 82.5910221, 18.2897751 ], [ 82.595203, 18.291841 ], [ 82.5956553, 18.2963008 ], [ 82.5946654, 18.2982155 ], [ 82.5986552, 18.3041863 ], [ 82.5964666, 18.3063867 ], [ 82.5960624, 18.3102844 ], [ 82.5932292, 18.310805 ], [ 82.5918015, 18.3088246 ], [ 82.5851669, 18.3084641 ], [ 82.5813067, 18.3151689 ], [ 82.5838932, 18.3197557 ], [ 82.5884739, 18.3178788 ], [ 82.5948847, 18.3288758 ], [ 82.6012526, 18.3253437 ], [ 82.6089417, 18.3271268 ], [ 82.6111976, 18.3337126 ], [ 82.6085362, 18.3400419 ], [ 82.60288, 18.3443543 ], [ 82.6020447, 18.3522763 ], [ 82.6145221, 18.3509106 ], [ 82.6212266, 18.3580819 ], [ 82.6212275, 18.3597083 ], [ 82.6059854, 18.3660583 ], [ 82.605729, 18.3700541 ], [ 82.6032169, 18.3726505 ], [ 82.6061218, 18.3756709 ], [ 82.605291, 18.3820298 ], [ 82.6042719, 18.3823501 ], [ 82.6015188, 18.3793691 ], [ 82.5995163, 18.3797879 ], [ 82.5964415, 18.3829671 ], [ 82.5947956, 18.3892289 ], [ 82.5927256, 18.3890024 ], [ 82.5886327, 18.3916297 ], [ 82.5838746, 18.386727 ], [ 82.5758265, 18.3962269 ], [ 82.5710045, 18.3946676 ], [ 82.562425, 18.3999563 ], [ 82.557113, 18.3965483 ], [ 82.555331, 18.3936263 ], [ 82.552175, 18.3979079 ], [ 82.5408827, 18.3994273 ], [ 82.5353237, 18.4065609 ], [ 82.5470865, 18.4126051 ], [ 82.5471914, 18.4142895 ], [ 82.5432986, 18.4140229 ], [ 82.5414142, 18.4219082 ], [ 82.5456216, 18.4224026 ], [ 82.5457382, 18.4275204 ], [ 82.5520051, 18.4285671 ], [ 82.5505802, 18.4332952 ], [ 82.5581541, 18.439662 ], [ 82.5565177, 18.4429688 ], [ 82.5609542, 18.4451778 ], [ 82.5616326, 18.4469295 ], [ 82.5607456, 18.4493312 ], [ 82.5565889, 18.4498172 ], [ 82.5548226, 18.454485 ], [ 82.5525788, 18.4550365 ], [ 82.5487597, 18.4530528 ], [ 82.5423719, 18.4576272 ], [ 82.5413372, 18.4541569 ], [ 82.5444663, 18.4493833 ], [ 82.5395579, 18.4436042 ], [ 82.5372635, 18.4464284 ], [ 82.5332537, 18.4586589 ], [ 82.5273922, 18.4596639 ], [ 82.5283367, 18.4642058 ], [ 82.5238897, 18.4634872 ], [ 82.51942, 18.4655967 ], [ 82.5194533, 18.4672184 ], [ 82.5236779, 18.4695563 ], [ 82.524767, 18.4716978 ], [ 82.5308436, 18.4730314 ], [ 82.5341902, 18.4777344 ], [ 82.5318947, 18.4804908 ], [ 82.5278527, 18.4806545 ], [ 82.5282953, 18.4830499 ], [ 82.5332662, 18.4882819 ], [ 82.5319914, 18.4924306 ], [ 82.5278891, 18.4938552 ], [ 82.526495, 18.496288 ], [ 82.52966, 18.5013044 ], [ 82.5269778, 18.5058799 ], [ 82.5310663, 18.5087383 ], [ 82.5320348, 18.5111565 ], [ 82.5259717, 18.5163241 ], [ 82.5152041, 18.5181004 ], [ 82.5109659, 18.5175966 ], [ 82.5050999, 18.513451 ], [ 82.4940532, 18.524553 ], [ 82.4868374, 18.527524 ], [ 82.4859436, 18.5287733 ], [ 82.4875919, 18.5326051 ], [ 82.4839458, 18.5354529 ], [ 82.4813379, 18.5406101 ], [ 82.4840043, 18.5433181 ], [ 82.4911618, 18.5417617 ], [ 82.4935252, 18.5428319 ], [ 82.4918998, 18.5476336 ], [ 82.4872812, 18.5497979 ], [ 82.4827531, 18.5487221 ], [ 82.4734732, 18.5425783 ], [ 82.4686285, 18.5348994 ], [ 82.4641211, 18.5328743 ], [ 82.4609846, 18.5254982 ], [ 82.4578622, 18.5242212 ], [ 82.4509796, 18.5173662 ], [ 82.4447481, 18.5140889 ], [ 82.4431029, 18.5087657 ], [ 82.4386066, 18.5068166 ], [ 82.4371464, 18.5009409 ], [ 82.4340391, 18.4985653 ], [ 82.4341441, 18.4969561 ], [ 82.4372593, 18.4963181 ], [ 82.43791, 18.4948494 ], [ 82.4341577, 18.491765 ], [ 82.43044, 18.4855019 ], [ 82.4125756, 18.4878517 ], [ 82.4024269, 18.4917674 ], [ 82.3877358, 18.499719 ], [ 82.3849737, 18.5030919 ], [ 82.3893675, 18.5106182 ], [ 82.3848775, 18.5129146 ], [ 82.3831068, 18.52242 ], [ 82.3886946, 18.5293414 ], [ 82.3925925, 18.5293307 ], [ 82.3978446, 18.5246024 ], [ 82.4030048, 18.5260867 ], [ 82.4016403, 18.5277683 ], [ 82.4017758, 18.5409102 ], [ 82.4060539, 18.5450665 ], [ 82.4087103, 18.5530391 ], [ 82.4146847, 18.5629562 ], [ 82.4068507, 18.5665659 ], [ 82.3985347, 18.5733054 ], [ 82.3989355, 18.5742467 ], [ 82.3978962, 18.5740151 ], [ 82.3969455, 18.5776908 ], [ 82.386219, 18.5834988 ], [ 82.3850886, 18.5913728 ], [ 82.3930189, 18.5952766 ], [ 82.4026, 18.5976768 ], [ 82.4085643, 18.6021549 ], [ 82.3996479, 18.6110041 ], [ 82.4001117, 18.614389 ], [ 82.3983838, 18.6151832 ], [ 82.3977198, 18.6185994 ], [ 82.3959913, 18.6199044 ], [ 82.396995, 18.6215415 ], [ 82.3935902, 18.6224115 ], [ 82.3916844, 18.6258005 ], [ 82.390229, 18.6257391 ], [ 82.3896098, 18.623602 ], [ 82.3861008, 18.6233298 ], [ 82.3862516, 18.6214808 ], [ 82.3837897, 18.6176541 ], [ 82.374928, 18.6164586 ], [ 82.3724091, 18.6188011 ], [ 82.3712195, 18.6238006 ], [ 82.363221, 18.6233074 ], [ 82.3577248, 18.6168635 ], [ 82.3515161, 18.6131674 ], [ 82.3489697, 18.6129371 ], [ 82.3423695, 18.606406 ], [ 82.3293152, 18.5984926 ], [ 82.3281109, 18.5916788 ], [ 82.3189912, 18.5838407 ], [ 82.3126645, 18.5755942 ], [ 82.3035771, 18.5780247 ], [ 82.2958372, 18.5776263 ], [ 82.2950216, 18.5787975 ], [ 82.2913343, 18.5786105 ], [ 82.2883647, 18.58 ], [ 82.2890328, 18.5844411 ], [ 82.2855971, 18.5849886 ], [ 82.2834044, 18.5870233 ], [ 82.2828458, 18.5902394 ], [ 82.2805561, 18.5913483 ], [ 82.2738232, 18.5888096 ], [ 82.2682335, 18.5915537 ], [ 82.2667924, 18.5895303 ], [ 82.2623205, 18.5935182 ], [ 82.2639797, 18.5962134 ], [ 82.2570956, 18.5995396 ], [ 82.2568041, 18.6043625 ], [ 82.2557527, 18.6050878 ], [ 82.2538339, 18.603831 ], [ 82.251986, 18.6096853 ], [ 82.2522758, 18.6136956 ], [ 82.2482572, 18.6149512 ], [ 82.2438196, 18.6120889 ], [ 82.242754, 18.6128233 ], [ 82.2406664, 18.6183583 ], [ 82.2386971, 18.618674 ], [ 82.2407275, 18.6216672 ], [ 82.2374571, 18.6241175 ], [ 82.2336951, 18.6235866 ], [ 82.2325375, 18.6280219 ], [ 82.2291227, 18.6309542 ], [ 82.2312043, 18.6376999 ], [ 82.2345202, 18.6407233 ], [ 82.2349925, 18.6431056 ], [ 82.2294448, 18.6454281 ], [ 82.2311528, 18.6509517 ], [ 82.2300007, 18.6581206 ], [ 82.2282242, 18.6622121 ], [ 82.2235278, 18.6650398 ], [ 82.2223953, 18.6717113 ], [ 82.2155572, 18.6667268 ], [ 82.2122598, 18.6676699 ], [ 82.2084138, 18.6600996 ], [ 82.1981998, 18.6535053 ], [ 82.1963123, 18.6540324 ], [ 82.195866, 18.6559599 ], [ 82.1878086, 18.6506478 ], [ 82.1860969, 18.6485081 ], [ 82.1846211, 18.6414236 ], [ 82.1819807, 18.6386435 ], [ 82.1757828, 18.6374805 ], [ 82.1711169, 18.6385578 ], [ 82.1690257, 18.6425696 ], [ 82.1643553, 18.6457973 ], [ 82.1629898, 18.6610369 ], [ 82.1603778, 18.669403 ], [ 82.1568983, 18.6721895 ], [ 82.1541802, 18.6677196 ], [ 82.1480035, 18.667762 ], [ 82.1459279, 18.6650592 ], [ 82.143913, 18.6671364 ], [ 82.1441354, 18.670614 ], [ 82.1419401, 18.6726922 ], [ 82.1373862, 18.6736687 ], [ 82.1309403, 18.6788901 ], [ 82.1340581, 18.6829019 ], [ 82.1400207, 18.6841083 ], [ 82.140426, 18.6887098 ], [ 82.1435475, 18.6939276 ], [ 82.1405546, 18.7057744 ], [ 82.1382082, 18.7072888 ], [ 82.1325061, 18.7076771 ], [ 82.1331862, 18.7143271 ], [ 82.1300531, 18.7216701 ], [ 82.1247013, 18.7233743 ], [ 82.123034, 18.7251055 ], [ 82.1155653, 18.7265734 ], [ 82.1147588, 18.7279699 ], [ 82.1103558, 18.7261752 ], [ 82.1080726, 18.7294207 ], [ 82.1043385, 18.7299203 ], [ 82.0913426, 18.7384775 ], [ 82.093521, 18.7468147 ], [ 82.0925818, 18.752685 ], [ 82.0900074, 18.7558086 ], [ 82.0887407, 18.7601852 ], [ 82.0915795, 18.7657307 ], [ 82.0978237, 18.7638371 ], [ 82.1057581, 18.7673101 ], [ 82.1110091, 18.7658783 ], [ 82.1120359, 18.7676659 ], [ 82.119084, 18.769752 ], [ 82.1334176, 18.7653642 ], [ 82.1336162, 18.7681147 ], [ 82.1313338, 18.770112 ], [ 82.1332933, 18.7751515 ], [ 82.1334947, 18.7804457 ], [ 82.1356695, 18.7814807 ], [ 82.138419, 18.7783735 ], [ 82.1405731, 18.7784553 ], [ 82.1473782, 18.780971 ], [ 82.1521702, 18.7853015 ], [ 82.1573565, 18.7854772 ], [ 82.1601803, 18.7884508 ], [ 82.1601746, 18.7952282 ], [ 82.1651865, 18.7983145 ], [ 82.1655257, 18.8000293 ], [ 82.1645283, 18.8019242 ], [ 82.157062, 18.8034796 ], [ 82.1565426, 18.804531 ], [ 82.1601961, 18.8080687 ], [ 82.1613749, 18.8125163 ], [ 82.166149, 18.814068 ], [ 82.1602914, 18.8198696 ], [ 82.1689626, 18.8360222 ], [ 82.1682689, 18.8399981 ], [ 82.1657426, 18.8438679 ], [ 82.1674716, 18.8523512 ], [ 82.1630279, 18.8541546 ], [ 82.1620684, 18.8588596 ], [ 82.160197, 18.8613968 ], [ 82.1612441, 18.8632111 ], [ 82.1650857, 18.8648724 ], [ 82.1673672, 18.8736189 ], [ 82.1610409, 18.8771284 ], [ 82.1604126, 18.8789124 ], [ 82.1650558, 18.8832208 ], [ 82.1693231, 18.8818929 ], [ 82.1766595, 18.8870922 ], [ 82.1751627, 18.8916108 ], [ 82.1761464, 18.9026695 ], [ 82.1810898, 18.9069439 ], [ 82.1925106, 18.9075079 ], [ 82.2008472, 18.9135852 ], [ 82.2124857, 18.9185835 ], [ 82.2183014, 18.9225168 ], [ 82.2272821, 18.919042 ], [ 82.230909, 18.9196685 ], [ 82.2343852, 18.9152901 ], [ 82.23696, 18.9142337 ], [ 82.2398168, 18.9147388 ], [ 82.246054, 18.919111 ], [ 82.239109, 18.9622914 ], [ 82.2327612, 19.0179369 ], [ 82.2298762, 19.0274123 ], [ 82.2060153, 19.0597831 ], [ 82.202254, 19.066639 ], [ 82.2047185, 19.0756046 ], [ 82.2137059, 19.083651 ], [ 82.2190716, 19.0953985 ], [ 82.2174852, 19.0981333 ], [ 82.2141377, 19.0998543 ], [ 82.2129406, 19.0979827 ], [ 82.2097118, 19.0996756 ], [ 82.2064799, 19.0964031 ], [ 82.2049123, 19.0971408 ], [ 82.2049889, 19.1011478 ], [ 82.2073496, 19.1022798 ], [ 82.2066963, 19.10462 ], [ 82.2050147, 19.1053944 ], [ 82.2051786, 19.1069973 ], [ 82.2029764, 19.1081096 ], [ 82.2063302, 19.1150724 ], [ 82.2058115, 19.1169418 ], [ 82.2089983, 19.1205217 ], [ 82.215774, 19.1150194 ], [ 82.2200095, 19.1144265 ], [ 82.2269735, 19.1209811 ], [ 82.2327842, 19.1206576 ], [ 82.2354652, 19.1219724 ], [ 82.2347198, 19.1246339 ], [ 82.2289064, 19.1304242 ], [ 82.22568, 19.1357362 ], [ 82.2275886, 19.1418363 ], [ 82.2298148, 19.1439584 ], [ 82.2451849, 19.1453458 ], [ 82.2524473, 19.1426219 ], [ 82.2584896, 19.1420431 ], [ 82.2645232, 19.1515435 ], [ 82.2753857, 19.1564516 ], [ 82.2781103, 19.1552716 ], [ 82.2828825, 19.1477837 ], [ 82.2858368, 19.1480614 ], [ 82.2919156, 19.152767 ], [ 82.2939543, 19.1611919 ], [ 82.295637, 19.1635971 ], [ 82.3022199, 19.1682085 ], [ 82.3103513, 19.1767977 ], [ 82.3235936, 19.1768518 ], [ 82.3309668, 19.1690233 ], [ 82.3402327, 19.1677995 ], [ 82.3459321, 19.1699985 ], [ 82.3489449, 19.1727277 ], [ 82.3510962, 19.1829266 ], [ 82.3527481, 19.1843375 ], [ 82.3560131, 19.1829807 ], [ 82.3600824, 19.1788258 ], [ 82.3667653, 19.1779992 ], [ 82.3719966, 19.1701083 ], [ 82.3782753, 19.1767566 ], [ 82.3831525, 19.1777769 ], [ 82.393185, 19.1670664 ], [ 82.4008752, 19.1651285 ], [ 82.4104478, 19.1687642 ], [ 82.4116985, 19.1855379 ], [ 82.4334915, 19.1709395 ], [ 82.4403436, 19.1710711 ], [ 82.4460182, 19.1773782 ], [ 82.4533837, 19.1758519 ], [ 82.4558971, 19.1816099 ], [ 82.4602592, 19.1845524 ], [ 82.4641101, 19.183975 ], [ 82.468263, 19.1788506 ], [ 82.4728058, 19.17698 ], [ 82.4778953, 19.1804176 ], [ 82.488912, 19.1804822 ], [ 82.5180888, 19.2026228 ], [ 82.5254674, 19.1973483 ], [ 82.5285559, 19.2027707 ], [ 82.5305705, 19.2036349 ], [ 82.5391276, 19.1972839 ], [ 82.5496828, 19.1946788 ], [ 82.551139, 19.1968439 ], [ 82.5461188, 19.203039 ], [ 82.5475792, 19.2056468 ], [ 82.5495548, 19.2058922 ], [ 82.5540155, 19.2023895 ], [ 82.5675727, 19.1979464 ], [ 82.5711525, 19.2008972 ], [ 82.57166, 19.2107635 ], [ 82.5744085, 19.2112548 ], [ 82.5765025, 19.2079482 ], [ 82.577515, 19.1979469 ] ] ] } }
]
}
