{
"type": "FeatureCollection",
"name": "2202",
"crs": { "type": "name", "properties": { "name": "urn:ogc:def:crs:OGC:1.3:CRS84" } },
"features": [
{ "type": "Feature", "properties": { "code": "2202", "name": "Surguja", "type": "district" }, "geometry": { "type": "Polygon", "coordinates": [ [ [ 83.3946322, 23.2698602 ], [ 83.4275776, 23.2542132 ], [ 83.4422141, 23.2586728 ], [ 83.4568605, 23.2537717 ], [ 83.4652769, 23.2572254 ], [ 83.4770794, 23.258306 ], [ 83.4797438, 23.2486444 ], [ 83.4925285, 23.2457704 ], [ 83.5100078, 23.2471521 ], [ 83.5207877, 23.2447089 ], [ 83.5209327, 23.2415799 ], [ 83.5169644, 23.2372004 ], [ 83.5166202, 23.2347395 ], [ 83.5267087, 23.2322107 ], [ 83.5288494, 23.2271424 ], [ 83.5342418, 23.2217053 ], [ 83.5326926, 23.2207484 ], [ 83.5289809, 23.2213339 ], [ 83.5275432, 23.2163173 ], [ 83.5314091, 23.2071606 ], [ 83.5314793, 23.2013375 ], [ 83.5452782, 23.2051072 ], [ 83.5460548, 23.2040565 ], [ 83.545829, 23.1975491 ], [ 83.5442038, 23.1937564 ], [ 83.5450302, 23.1875002 ], [ 83.5543587, 23.175044 ], [ 83.5542572, 23.1720228 ], [ 83.5518819, 23.1682014 ], [ 83.5560126, 23.1539133 ], [ 83.562721, 23.1474787 ], [ 83.5629437, 23.1381905 ], [ 83.5605582, 23.1326925 ], [ 83.5554947, 23.126977 ], [ 83.5563155, 23.1250933 ], [ 83.5355461, 23.120291 ], [ 83.5354443, 23.1113353 ], [ 83.5228628, 23.096811 ], [ 83.5091319, 23.0903284 ], [ 83.508354, 23.0866137 ], [ 83.5113841, 23.0837092 ], [ 83.511265, 23.0808889 ], [ 83.50636, 23.0782714 ], [ 83.5025198, 23.0736783 ], [ 83.4998615, 23.0643214 ], [ 83.5034185, 23.0608092 ], [ 83.5144594, 23.0566266 ], [ 83.5192669, 23.05662 ], [ 83.5247881, 23.0588582 ], [ 83.5410972, 23.0449149 ], [ 83.5502557, 23.0337909 ], [ 83.5500937, 23.0301393 ], [ 83.5458601, 23.0222778 ], [ 83.5434786, 23.0209349 ], [ 83.5418816, 23.0152246 ], [ 83.5309992, 23.002999 ], [ 83.5293381, 22.9970074 ], [ 83.5121461, 22.9846236 ], [ 83.5117174, 22.9748808 ], [ 83.5074141, 22.9674785 ], [ 83.503564, 22.9527725 ], [ 83.5065827, 22.9494667 ], [ 83.511264, 22.9392474 ], [ 83.5147668, 22.9357676 ], [ 83.5185746, 22.9358865 ], [ 83.5217472, 22.9341873 ], [ 83.5247905, 22.9264192 ], [ 83.5329586, 22.9198002 ], [ 83.533476, 22.9145318 ], [ 83.5406372, 22.9126748 ], [ 83.5446201, 22.9096647 ], [ 83.5500706, 22.9049208 ], [ 83.553537, 22.8978336 ], [ 83.5575876, 22.8945224 ], [ 83.5616298, 22.8938764 ], [ 83.5634579, 22.8949858 ], [ 83.5656799, 22.8895618 ], [ 83.5695329, 22.8903675 ], [ 83.5716357, 22.8812311 ], [ 83.5706922, 22.8776055 ], [ 83.5748275, 22.8762121 ], [ 83.5784333, 22.8728268 ], [ 83.5784026, 22.8700481 ], [ 83.59558, 22.8689843 ], [ 83.5953941, 22.8629506 ], [ 83.5915589, 22.8600866 ], [ 83.5959284, 22.8580122 ], [ 83.5951952, 22.8489594 ], [ 83.6085863, 22.8445942 ], [ 83.6235386, 22.8418697 ], [ 83.6206254, 22.8302597 ], [ 83.6237043, 22.8295549 ], [ 83.628758, 22.8258837 ], [ 83.6372736, 22.8248231 ], [ 83.6459452, 22.8263649 ], [ 83.6457314, 22.8170863 ], [ 83.6511212, 22.8109501 ], [ 83.6514285, 22.8064666 ], [ 83.6494892, 22.8027526 ], [ 83.6517512, 22.796745 ], [ 83.6514957, 22.7930476 ], [ 83.6543741, 22.7909472 ], [ 83.652105, 22.7825894 ], [ 83.6528554, 22.7812524 ], [ 83.6575735, 22.7795544 ], [ 83.658467, 22.7765262 ], [ 83.6529006, 22.7725194 ], [ 83.6522488, 22.765383 ], [ 83.6480262, 22.7625589 ], [ 83.6474029, 22.7603389 ], [ 83.6547995, 22.7559255 ], [ 83.6542229, 22.752144 ], [ 83.6566268, 22.74857 ], [ 83.6556431, 22.7468725 ], [ 83.6473189, 22.747339 ], [ 83.6463638, 22.7414379 ], [ 83.6507444, 22.7390487 ], [ 83.6503107, 22.7366694 ], [ 83.6443481, 22.7381421 ], [ 83.6453357, 22.7346202 ], [ 83.6439481, 22.7325163 ], [ 83.6375619, 22.7323499 ], [ 83.6349138, 22.7292482 ], [ 83.6303445, 22.7277833 ], [ 83.6288658, 22.7119225 ], [ 83.6353346, 22.7039814 ], [ 83.6375624, 22.69911 ], [ 83.6435281, 22.699443 ], [ 83.6683193, 22.6856355 ], [ 83.6812799, 22.6807279 ], [ 83.6861221, 22.6718358 ], [ 83.6905527, 22.668249 ], [ 83.6854646, 22.648434 ], [ 83.6869414, 22.643986 ], [ 83.6754265, 22.6281464 ], [ 83.6730025, 22.6228689 ], [ 83.6679834, 22.6233896 ], [ 83.6580145, 22.6297809 ], [ 83.6556573, 22.6375701 ], [ 83.6515338, 22.6441088 ], [ 83.6484853, 22.6524759 ], [ 83.644346, 22.6567342 ], [ 83.6368936, 22.6613134 ], [ 83.6296935, 22.6649349 ], [ 83.6181437, 22.6668809 ], [ 83.6102907, 22.6723798 ], [ 83.6025739, 22.6744424 ], [ 83.5966916, 22.6745318 ], [ 83.5855334, 22.6807017 ], [ 83.5796504, 22.6819418 ], [ 83.5732547, 22.6878773 ], [ 83.5667285, 22.6891918 ], [ 83.5509349, 22.6960072 ], [ 83.5479867, 22.6954165 ], [ 83.5389907, 22.6850633 ], [ 83.527479, 22.676943 ], [ 83.5116949, 22.6713474 ], [ 83.5057645, 22.6709368 ], [ 83.505945, 22.6590531 ], [ 83.4986896, 22.6610071 ], [ 83.4910847, 22.6602029 ], [ 83.4833071, 22.6651142 ], [ 83.4804275, 22.6651112 ], [ 83.4761118, 22.6675956 ], [ 83.4720807, 22.6685738 ], [ 83.4704137, 22.6676626 ], [ 83.4638062, 22.6695575 ], [ 83.4630993, 22.6720271 ], [ 83.460809, 22.6737075 ], [ 83.4560136, 22.6703555 ], [ 83.4483957, 22.674603 ], [ 83.444564, 22.6738677 ], [ 83.4349902, 22.6750634 ], [ 83.432361, 22.6719189 ], [ 83.4351003, 22.6662812 ], [ 83.4308757, 22.6651784 ], [ 83.4290385, 22.6618619 ], [ 83.4231127, 22.6619828 ], [ 83.418625, 22.6587787 ], [ 83.4093872, 22.6580764 ], [ 83.4116573, 22.6508811 ], [ 83.4166129, 22.6451629 ], [ 83.416805, 22.6430207 ], [ 83.4124745, 22.642451 ], [ 83.4133483, 22.6379661 ], [ 83.4100342, 22.6392946 ], [ 83.4058432, 22.6387822 ], [ 83.4042966, 22.6409082 ], [ 83.4055695, 22.646544 ], [ 83.3841576, 22.6536561 ], [ 83.3795546, 22.6678564 ], [ 83.3766026, 22.6854584 ], [ 83.3764488, 22.6918189 ], [ 83.3829665, 22.6910948 ], [ 83.3878742, 22.6878342 ], [ 83.3920324, 22.6958591 ], [ 83.3928734, 22.7045072 ], [ 83.3917971, 22.7137859 ], [ 83.3990511, 22.7266005 ], [ 83.395796, 22.7292764 ], [ 83.3937614, 22.7346731 ], [ 83.378717, 22.7418634 ], [ 83.3724222, 22.7414808 ], [ 83.3698264, 22.7396265 ], [ 83.3698164, 22.7353189 ], [ 83.365227, 22.7333628 ], [ 83.3638101, 22.7296576 ], [ 83.3552317, 22.7307418 ], [ 83.3519712, 22.7293799 ], [ 83.3467589, 22.7347256 ], [ 83.343409, 22.7359048 ], [ 83.34314, 22.7447373 ], [ 83.3400679, 22.7498342 ], [ 83.3330607, 22.7540833 ], [ 83.333425, 22.7582562 ], [ 83.3322922, 22.7598636 ], [ 83.3198072, 22.766096 ], [ 83.3181866, 22.762881 ], [ 83.3191269, 22.7591217 ], [ 83.3156006, 22.7583057 ], [ 83.3084852, 22.7582869 ], [ 83.3049709, 22.7614879 ], [ 83.3021135, 22.7619702 ], [ 83.3004775, 22.7641829 ], [ 83.2977777, 22.7629541 ], [ 83.2953416, 22.7656766 ], [ 83.2864668, 22.7695659 ], [ 83.2779102, 22.7681624 ], [ 83.2741181, 22.7653946 ], [ 83.267866, 22.764533 ], [ 83.259125, 22.7677021 ], [ 83.2545074, 22.7660747 ], [ 83.2536872, 22.7619875 ], [ 83.25074, 22.7618958 ], [ 83.2456078, 22.7593838 ], [ 83.2445701, 22.7609083 ], [ 83.2474146, 22.7618523 ], [ 83.2478584, 22.7655021 ], [ 83.2437218, 22.7656448 ], [ 83.2417997, 22.7695691 ], [ 83.2417388, 22.7735521 ], [ 83.2380232, 22.7719025 ], [ 83.2345164, 22.7684062 ], [ 83.2337562, 22.7713729 ], [ 83.2306773, 22.77468 ], [ 83.2301576, 22.7768532 ], [ 83.2331862, 22.778551 ], [ 83.2319327, 22.7818045 ], [ 83.2332507, 22.7833325 ], [ 83.2267508, 22.7796946 ], [ 83.2181755, 22.7804495 ], [ 83.2180915, 22.7851368 ], [ 83.2216029, 22.7864633 ], [ 83.2184983, 22.7911951 ], [ 83.2151981, 22.7874894 ], [ 83.2046782, 22.7861343 ], [ 83.2048698, 22.7841366 ], [ 83.201273, 22.7849599 ], [ 83.1987007, 22.7805129 ], [ 83.1934258, 22.7808195 ], [ 83.188847, 22.7774026 ], [ 83.1888332, 22.7812689 ], [ 83.1913307, 22.7828471 ], [ 83.190137, 22.7861503 ], [ 83.1879119, 22.7865366 ], [ 83.178555, 22.7794462 ], [ 83.1618379, 22.7728969 ], [ 83.1591753, 22.7732954 ], [ 83.1565431, 22.7669876 ], [ 83.1570865, 22.7630588 ], [ 83.1549849, 22.7586178 ], [ 83.1568017, 22.7466188 ], [ 83.1544535, 22.7435776 ], [ 83.1520156, 22.7352339 ], [ 83.1488283, 22.7342084 ], [ 83.1382873, 22.7354427 ], [ 83.13116, 22.731457 ], [ 83.1150389, 22.725497 ], [ 83.119421, 22.7075824 ], [ 83.1249204, 22.703274 ], [ 83.117767, 22.6894025 ], [ 83.1104765, 22.6892636 ], [ 83.1016592, 22.6824621 ], [ 83.1146481, 22.6714456 ], [ 83.0923545, 22.6742103 ], [ 83.0811561, 22.6685036 ], [ 83.0735935, 22.6696333 ], [ 83.0650797, 22.6690639 ], [ 83.0570763, 22.6636116 ], [ 83.048804, 22.6617779 ], [ 83.039447, 22.6521851 ], [ 83.0248813, 22.6462399 ], [ 83.0204823, 22.6418238 ], [ 83.0137412, 22.6386149 ], [ 83.0130273, 22.6446597 ], [ 83.0097803, 22.6487421 ], [ 83.0042245, 22.650471 ], [ 83.0013351, 22.6551767 ], [ 82.9959762, 22.6585929 ], [ 82.9900127, 22.6654513 ], [ 82.9815612, 22.6643961 ], [ 82.9671274, 22.6657822 ], [ 82.9596318, 22.6683284 ], [ 82.9500069, 22.6745732 ], [ 82.9409785, 22.6783428 ], [ 82.9380265, 22.6815001 ], [ 82.9303687, 22.6952831 ], [ 82.9227992, 22.7018145 ], [ 82.920917, 22.7050298 ], [ 82.9129179, 22.7103372 ], [ 82.9027474, 22.7147822 ], [ 82.8940711, 22.7239357 ], [ 82.8890289, 22.7254127 ], [ 82.8748068, 22.7464583 ], [ 82.8635304, 22.7518605 ], [ 82.8587762, 22.7495052 ], [ 82.831872, 22.7441273 ], [ 82.7794714, 22.76778 ], [ 82.7651576, 22.7800906 ], [ 82.7645245, 22.7828513 ], [ 82.7684817, 22.789024 ], [ 82.7588917, 22.7932695 ], [ 82.75741, 22.7954727 ], [ 82.7638869, 22.8032375 ], [ 82.7643292, 22.810371 ], [ 82.7597996, 22.8162472 ], [ 82.7631448, 22.8201972 ], [ 82.7622365, 22.8242281 ], [ 82.7648479, 22.8324581 ], [ 82.7557976, 22.8435586 ], [ 82.76912, 22.8549711 ], [ 82.7723705, 22.8633429 ], [ 82.767139, 22.8746037 ], [ 82.7687227, 22.8751717 ], [ 82.7776325, 22.8684057 ], [ 82.780265, 22.8702511 ], [ 82.7884343, 22.8703397 ], [ 82.7923583, 22.8777997 ], [ 82.7957411, 22.8886137 ], [ 82.7884279, 22.9098595 ], [ 82.7912719, 22.9147518 ], [ 82.7936142, 22.9235032 ], [ 82.7937142, 22.928436 ], [ 82.7920423, 22.9309558 ], [ 82.7927706, 22.9326734 ], [ 82.7985998, 22.942097 ], [ 82.806375, 22.9417683 ], [ 82.8080948, 22.9438466 ], [ 82.8219979, 22.9406933 ], [ 82.8274451, 22.9569777 ], [ 82.831999, 22.9627776 ], [ 82.8359759, 22.9653014 ], [ 82.8527883, 22.9887907 ], [ 82.8536535, 22.9931082 ], [ 82.8518953, 22.9984274 ], [ 82.852168, 23.0019431 ], [ 82.8337712, 23.0031088 ], [ 82.8305459, 23.0079389 ], [ 82.8309727, 23.0152894 ], [ 82.8509607, 23.0171448 ], [ 82.8604521, 23.0224058 ], [ 82.8732856, 23.0221942 ], [ 82.8747685, 23.0239912 ], [ 82.8806514, 23.0264743 ], [ 82.8835491, 23.0303163 ], [ 82.8847101, 23.02977 ], [ 82.8850221, 23.0272912 ], [ 82.8908516, 23.0300449 ], [ 82.8990314, 23.0256959 ], [ 82.8994173, 23.0283416 ], [ 82.8979054, 23.0302968 ], [ 82.900501, 23.0327074 ], [ 82.8981647, 23.0343241 ], [ 82.8988675, 23.0366131 ], [ 82.9015997, 23.0381613 ], [ 82.9203828, 23.0416786 ], [ 82.9245364, 23.0472533 ], [ 82.9258788, 23.0773173 ], [ 82.919887, 23.0814355 ], [ 82.9056181, 23.0785131 ], [ 82.9048013, 23.0745007 ], [ 82.9026193, 23.0726155 ], [ 82.9028266, 23.070191 ], [ 82.8952485, 23.0714221 ], [ 82.8947172, 23.0683315 ], [ 82.8913065, 23.0680494 ], [ 82.8839517, 23.0702373 ], [ 82.8797357, 23.0686799 ], [ 82.8701377, 23.0705897 ], [ 82.8408892, 23.0630121 ], [ 82.8362853, 23.065937 ], [ 82.8366725, 23.0794821 ], [ 82.8409781, 23.0793376 ], [ 82.8419687, 23.0838595 ], [ 82.8490406, 23.0788547 ], [ 82.8526525, 23.0788565 ], [ 82.8515642, 23.0839252 ], [ 82.8554571, 23.0933619 ], [ 82.8623954, 23.1025855 ], [ 82.8641238, 23.1065055 ], [ 82.8638047, 23.1091993 ], [ 82.8955917, 23.1092721 ], [ 82.9136812, 23.1167227 ], [ 82.9187044, 23.1169797 ], [ 82.9213349, 23.1150601 ], [ 82.922996, 23.1155393 ], [ 82.9237532, 23.1148748 ], [ 82.9222203, 23.1107885 ], [ 82.9301873, 23.1062318 ], [ 82.9335926, 23.0981766 ], [ 82.9383354, 23.096957 ], [ 82.9413281, 23.0885501 ], [ 82.9500386, 23.0957816 ], [ 82.956628, 23.0957794 ], [ 82.9594639, 23.0876698 ], [ 82.9661716, 23.0842482 ], [ 82.9630124, 23.0746696 ], [ 82.9654391, 23.0713078 ], [ 82.9738067, 23.0676266 ], [ 82.9831484, 23.0729471 ], [ 82.9988833, 23.0710596 ], [ 83.0030529, 23.0802163 ], [ 83.0121916, 23.0936097 ], [ 83.0164912, 23.0936985 ], [ 83.0199582, 23.0975385 ], [ 83.0289918, 23.0979731 ], [ 83.0316455, 23.0998981 ], [ 83.0342048, 23.1042971 ], [ 83.0310494, 23.1079252 ], [ 83.0302673, 23.1163721 ], [ 83.0274241, 23.126574 ], [ 83.033502, 23.1259817 ], [ 83.0453194, 23.1276134 ], [ 83.0499379, 23.1266766 ], [ 83.0811604, 23.1271488 ], [ 83.0877843, 23.1291325 ], [ 83.1008037, 23.1289724 ], [ 83.1088965, 23.1377414 ], [ 83.1162439, 23.1376155 ], [ 83.1234107, 23.1348481 ], [ 83.1245628, 23.1282202 ], [ 83.1236695, 23.1225585 ], [ 83.1281454, 23.1086391 ], [ 83.1317183, 23.1087744 ], [ 83.1385124, 23.1065752 ], [ 83.1490895, 23.1081677 ], [ 83.1535366, 23.1108217 ], [ 83.1567231, 23.1278647 ], [ 83.1543472, 23.1347911 ], [ 83.1601763, 23.1351285 ], [ 83.1602274, 23.1436571 ], [ 83.1599655, 23.1505739 ], [ 83.154483, 23.1525435 ], [ 83.1512219, 23.154919 ], [ 83.1491573, 23.1583777 ], [ 83.1593787, 23.1658162 ], [ 83.1356871, 23.1742083 ], [ 83.1329721, 23.177098 ], [ 83.1358751, 23.2035414 ], [ 83.1373021, 23.2113293 ], [ 83.1384012, 23.2115324 ], [ 83.1378348, 23.2142053 ], [ 83.1433988, 23.2159655 ], [ 83.1529189, 23.2138962 ], [ 83.1639294, 23.2149413 ], [ 83.1661805, 23.2159334 ], [ 83.1641017, 23.2200826 ], [ 83.1660131, 23.221229 ], [ 83.1688022, 23.2208937 ], [ 83.1748239, 23.2303311 ], [ 83.1782558, 23.2316301 ], [ 83.1783313, 23.2277725 ], [ 83.1761897, 23.2277139 ], [ 83.1759206, 23.2266386 ], [ 83.1781005, 23.2255753 ], [ 83.1766772, 23.2177161 ], [ 83.1849141, 23.2138421 ], [ 83.1924271, 23.2047732 ], [ 83.1973628, 23.2090737 ], [ 83.2013141, 23.2086925 ], [ 83.203587, 23.2113552 ], [ 83.2087958, 23.2140117 ], [ 83.2151368, 23.222329 ], [ 83.2172965, 23.222856 ], [ 83.2203613, 23.2186734 ], [ 83.2237119, 23.2179806 ], [ 83.2430432, 23.2199762 ], [ 83.24722, 23.2361858 ], [ 83.2640815, 23.2335608 ], [ 83.2776817, 23.2152663 ], [ 83.287276, 23.2143193 ], [ 83.2948514, 23.2077136 ], [ 83.3121084, 23.1971837 ], [ 83.3205037, 23.1863151 ], [ 83.3297217, 23.1794689 ], [ 83.3387364, 23.1802568 ], [ 83.3480693, 23.1780283 ], [ 83.3520745, 23.1732251 ], [ 83.3540767, 23.172819 ], [ 83.3603406, 23.1855652 ], [ 83.3573705, 23.1921575 ], [ 83.36136, 23.1989022 ], [ 83.3593768, 23.200726 ], [ 83.3630709, 23.2056807 ], [ 83.3614596, 23.2087732 ], [ 83.3655973, 23.2089994 ], [ 83.368119, 23.2152979 ], [ 83.366946, 23.2163964 ], [ 83.3546372, 23.2133941 ], [ 83.3528683, 23.217087 ], [ 83.3531414, 23.2201842 ], [ 83.3653681, 23.226294 ], [ 83.3677226, 23.2293958 ], [ 83.372007, 23.2295449 ], [ 83.3699647, 23.2368183 ], [ 83.3707513, 23.2396219 ], [ 83.372256, 23.2404573 ], [ 83.3773909, 23.2395723 ], [ 83.3846564, 23.2463759 ], [ 83.3851794, 23.2481502 ], [ 83.3837186, 23.2500329 ], [ 83.3807138, 23.2503424 ], [ 83.3774191, 23.2525925 ], [ 83.3731381, 23.2524861 ], [ 83.3652912, 23.2570012 ], [ 83.3652647, 23.2623881 ], [ 83.3730912, 23.2658343 ], [ 83.3919298, 23.270154 ], [ 83.3946322, 23.2698602 ] ] ] } }
]
}
