{
"type": "FeatureCollection",
"name": "2208",
"crs": { "type": "name", "properties": { "name": "urn:ogc:def:crs:OGC:1.3:CRS84" } },
"features": [
{ "type": "Feature", "properties": { "code": "2208", "name": "Kawardha", "type": "district" }, "geometry": { "type": "Polygon", "coordinates": [ [ [ 81.3400584, 22.5195077 ], [ 81.3506005, 22.5175916 ], [ 81.3538844, 22.5142312 ], [ 81.3543086, 22.5112568 ], [ 81.360593, 22.5120367 ], [ 81.3613552, 22.5150043 ], [ 81.3706256, 22.5148826 ], [ 81.3724087, 22.5147232 ], [ 81.3758197, 22.5110535 ], [ 81.3820553, 22.5098183 ], [ 81.381948, 22.508235 ], [ 81.3848236, 22.5046645 ], [ 81.3861922, 22.4985505 ], [ 81.3840633, 22.4897594 ], [ 81.3915009, 22.4777076 ], [ 81.3912523, 22.4710928 ], [ 81.3886528, 22.4682078 ], [ 81.3900611, 22.4633086 ], [ 81.3881078, 22.4592134 ], [ 81.3904538, 22.4558222 ], [ 81.3900599, 22.4522642 ], [ 81.3929838, 22.4490445 ], [ 81.3933816, 22.4453194 ], [ 81.3964118, 22.4400813 ], [ 81.4067044, 22.440951 ], [ 81.4152593, 22.4451438 ], [ 81.420389, 22.4461854 ], [ 81.4241109, 22.4491373 ], [ 81.4286996, 22.4572588 ], [ 81.4238201, 22.4648099 ], [ 81.4227391, 22.4714567 ], [ 81.4278386, 22.4798128 ], [ 81.4322063, 22.4792063 ], [ 81.4344809, 22.4811199 ], [ 81.4392137, 22.482125 ], [ 81.4415254, 22.479907 ], [ 81.4429314, 22.4737973 ], [ 81.4410162, 22.4717843 ], [ 81.4473678, 22.4658756 ], [ 81.4552774, 22.4668787 ], [ 81.4589274, 22.4692925 ], [ 81.4586759, 22.4712071 ], [ 81.4573013, 22.4716774 ], [ 81.4558911, 22.4694973 ], [ 81.4541959, 22.4700354 ], [ 81.4528589, 22.4683925 ], [ 81.4490302, 22.4675184 ], [ 81.4466168, 22.4697636 ], [ 81.4501933, 22.4712429 ], [ 81.4508823, 22.4785889 ], [ 81.4498721, 22.4791267 ], [ 81.4464015, 22.4761753 ], [ 81.4425405, 22.4791977 ], [ 81.4472367, 22.4846546 ], [ 81.4510811, 22.4866034 ], [ 81.4439747, 22.49072 ], [ 81.4426062, 22.4943509 ], [ 81.4468915, 22.4934279 ], [ 81.4494243, 22.4957566 ], [ 81.4525731, 22.4958093 ], [ 81.4588376, 22.4894712 ], [ 81.461987, 22.4909009 ], [ 81.4630088, 22.4930676 ], [ 81.4727955, 22.4937393 ], [ 81.4784325, 22.4922611 ], [ 81.4699408, 22.4838285 ], [ 81.475688, 22.45576 ], [ 81.4913223, 22.4478313 ], [ 81.4919634, 22.4413 ], [ 81.4863401, 22.4378743 ], [ 81.4869722, 22.4341825 ], [ 81.4848415, 22.430755 ], [ 81.48818, 22.4227456 ], [ 81.493628, 22.420453 ], [ 81.4965289, 22.4116419 ], [ 81.5004276, 22.4057486 ], [ 81.5002467, 22.4015763 ], [ 81.5016443, 22.3999732 ], [ 81.5122486, 22.3990684 ], [ 81.516398, 22.3946028 ], [ 81.5170121, 22.3915508 ], [ 81.5129386, 22.3849628 ], [ 81.5122293, 22.3811685 ], [ 81.5139428, 22.3800032 ], [ 81.516945, 22.3816449 ], [ 81.5182689, 22.3798435 ], [ 81.5236206, 22.3780228 ], [ 81.5243764, 22.3734989 ], [ 81.52884, 22.3706299 ], [ 81.5295656, 22.3673115 ], [ 81.5328495, 22.3640488 ], [ 81.5329095, 22.3613171 ], [ 81.5343466, 22.3610695 ], [ 81.5337163, 22.3598817 ], [ 81.5348731, 22.357575 ], [ 81.5365578, 22.3572418 ], [ 81.5350732, 22.3558638 ], [ 81.5375686, 22.3555085 ], [ 81.5368466, 22.3533407 ], [ 81.5391325, 22.3540688 ], [ 81.5387842, 22.3521994 ], [ 81.540541, 22.3529227 ], [ 81.5414106, 22.3517582 ], [ 81.5430458, 22.3528382 ], [ 81.5450182, 22.3500352 ], [ 81.544553, 22.3486036 ], [ 81.5468343, 22.3486137 ], [ 81.5502148, 22.3448811 ], [ 81.5532333, 22.3460339 ], [ 81.5553532, 22.3437958 ], [ 81.5554041, 22.3377609 ], [ 81.5429025, 22.3197452 ], [ 81.5410585, 22.3151247 ], [ 81.5268678, 22.3115382 ], [ 81.5243057, 22.3104078 ], [ 81.525833, 22.3094642 ], [ 81.5238747, 22.3079355 ], [ 81.5288311, 22.3050789 ], [ 81.5313729, 22.2932894 ], [ 81.5388661, 22.2851606 ], [ 81.5373846, 22.2829067 ], [ 81.5351607, 22.2843057 ], [ 81.5335125, 22.2835912 ], [ 81.5339563, 22.2780919 ], [ 81.5314649, 22.2743858 ], [ 81.5329398, 22.2741236 ], [ 81.5361065, 22.2763281 ], [ 81.5381921, 22.272995 ], [ 81.545394, 22.2727062 ], [ 81.5479168, 22.269261 ], [ 81.5506116, 22.2686634 ], [ 81.5517456, 22.2669098 ], [ 81.5511854, 22.2605606 ], [ 81.548944, 22.2591906 ], [ 81.5514925, 22.2572348 ], [ 81.5519654, 22.2542729 ], [ 81.549176, 22.2466028 ], [ 81.5523623, 22.2410529 ], [ 81.5483864, 22.2368261 ], [ 81.5490858, 22.2324354 ], [ 81.5481966, 22.231123 ], [ 81.5457405, 22.231424 ], [ 81.5449914, 22.234296 ], [ 81.5431441, 22.2331652 ], [ 81.5387713, 22.2218604 ], [ 81.5365029, 22.2191473 ], [ 81.5366157, 22.214284 ], [ 81.5331384, 22.2127133 ], [ 81.5370409, 22.2088378 ], [ 81.5385968, 22.2032227 ], [ 81.5381511, 22.201868 ], [ 81.5353518, 22.2007888 ], [ 81.5328945, 22.1933374 ], [ 81.5324438, 22.1860504 ], [ 81.5274339, 22.1683784 ], [ 81.5288616, 22.1617568 ], [ 81.5254385, 22.1561489 ], [ 81.517901, 22.1565007 ], [ 81.5156689, 22.1541338 ], [ 81.5136354, 22.1325155 ], [ 81.5152185, 22.1203318 ], [ 81.5138914, 22.1106619 ], [ 81.5163799, 22.1019294 ], [ 81.517383, 22.0862478 ], [ 81.5209874, 22.0841686 ], [ 81.5205573, 22.0826526 ], [ 81.5182998, 22.0817997 ], [ 81.5083464, 22.0561901 ], [ 81.5112911, 22.0534719 ], [ 81.5082513, 22.0503024 ], [ 81.5062283, 22.0444592 ], [ 81.5047191, 22.0326081 ], [ 81.5110604, 22.0318555 ], [ 81.5119105, 22.0193649 ], [ 81.5014866, 22.0048953 ], [ 81.5012479, 22.0071925 ], [ 81.5032103, 22.0100578 ], [ 81.5017185, 22.0106857 ], [ 81.5028163, 22.0129835 ], [ 81.4999721, 22.0137588 ], [ 81.4983139, 22.0119373 ], [ 81.4852445, 22.018876 ], [ 81.4829522, 22.0167236 ], [ 81.4808902, 22.0179577 ], [ 81.4780116, 22.0151961 ], [ 81.4723862, 22.0150437 ], [ 81.469753, 22.0122118 ], [ 81.470758, 22.0089826 ], [ 81.4737693, 22.0079648 ], [ 81.4746049, 22.0049389 ], [ 81.4766426, 22.0037727 ], [ 81.4764917, 22.0004756 ], [ 81.4798087, 21.9994927 ], [ 81.4778021, 21.9975477 ], [ 81.4781235, 21.9960217 ], [ 81.479171, 21.9954468 ], [ 81.4828169, 21.9977407 ], [ 81.4858664, 21.9966131 ], [ 81.4836052, 21.9941978 ], [ 81.4792644, 21.9935023 ], [ 81.4791568, 21.9919942 ], [ 81.4768319, 21.9908306 ], [ 81.4676441, 21.9788384 ], [ 81.4711757, 21.97512 ], [ 81.4737415, 21.9750237 ], [ 81.4733715, 21.9719217 ], [ 81.4769925, 21.9717524 ], [ 81.4790196, 21.9698637 ], [ 81.4770403, 21.9640941 ], [ 81.4740728, 21.9640823 ], [ 81.4714779, 21.9609299 ], [ 81.4663641, 21.9610072 ], [ 81.4654521, 21.9579507 ], [ 81.4592944, 21.9572812 ], [ 81.458116, 21.9549278 ], [ 81.4511246, 21.9505299 ], [ 81.4518006, 21.9473913 ], [ 81.4540897, 21.9468213 ], [ 81.4541418, 21.9447125 ], [ 81.4515079, 21.9428849 ], [ 81.4502413, 21.9369431 ], [ 81.4531017, 21.9368514 ], [ 81.4568407, 21.9330068 ], [ 81.4625703, 21.9317621 ], [ 81.4547048, 21.9301676 ], [ 81.4519588, 21.9267145 ], [ 81.452013, 21.919574 ], [ 81.454836, 21.9138605 ], [ 81.4527215, 21.9143266 ], [ 81.4522609, 21.9126787 ], [ 81.4498505, 21.9116412 ], [ 81.4455686, 21.9124828 ], [ 81.4457607, 21.9102071 ], [ 81.4414827, 21.9096986 ], [ 81.4388736, 21.9077534 ], [ 81.4428837, 21.9048122 ], [ 81.4494204, 21.9036082 ], [ 81.4499134, 21.9025604 ], [ 81.44458, 21.9002484 ], [ 81.4385613, 21.9004404 ], [ 81.4372051, 21.8982456 ], [ 81.4308978, 21.9006643 ], [ 81.4288062, 21.8984697 ], [ 81.426223, 21.8990306 ], [ 81.4236068, 21.9009871 ], [ 81.4225841, 21.9058296 ], [ 81.4199522, 21.9061961 ], [ 81.4216158, 21.9101201 ], [ 81.4200295, 21.9140737 ], [ 81.4159174, 21.9155065 ], [ 81.4123062, 21.9127293 ], [ 81.4108722, 21.9093327 ], [ 81.4112871, 21.9072233 ], [ 81.4093497, 21.9033978 ], [ 81.4081357, 21.8949513 ], [ 81.409702, 21.8924125 ], [ 81.4076534, 21.8881986 ], [ 81.4011375, 21.8896629 ], [ 81.3984312, 21.8851193 ], [ 81.3932982, 21.8843247 ], [ 81.3915411, 21.8818993 ], [ 81.3899958, 21.8762622 ], [ 81.3906615, 21.8713659 ], [ 81.3941178, 21.8660584 ], [ 81.3948173, 21.8615144 ], [ 81.3926303, 21.8596808 ], [ 81.3939691, 21.8571151 ], [ 81.3954007, 21.8571692 ], [ 81.3950855, 21.8552812 ], [ 81.3963191, 21.8557554 ], [ 81.3975711, 21.8543189 ], [ 81.397841, 21.8520695 ], [ 81.4004428, 21.8517169 ], [ 81.4013787, 21.8465269 ], [ 81.3982773, 21.8435101 ], [ 81.4020584, 21.842001 ], [ 81.4007807, 21.8398512 ], [ 81.4013538, 21.8348239 ], [ 81.3993741, 21.8307636 ], [ 81.3954762, 21.8298832 ], [ 81.3857961, 21.832264 ], [ 81.3819815, 21.8346851 ], [ 81.3774602, 21.8351186 ], [ 81.3745684, 21.8349017 ], [ 81.3739485, 21.8319568 ], [ 81.3637791, 21.8316261 ], [ 81.3636488, 21.8327733 ], [ 81.3615065, 21.8327956 ], [ 81.3609703, 21.8357901 ], [ 81.3549158, 21.8358841 ], [ 81.3546452, 21.8375868 ], [ 81.3428941, 21.8408904 ], [ 81.3430537, 21.8430766 ], [ 81.3358528, 21.8450844 ], [ 81.3340053, 21.8485437 ], [ 81.3323561, 21.8491168 ], [ 81.3271919, 21.8385729 ], [ 81.319944, 21.8312484 ], [ 81.3226141, 21.82344 ], [ 81.3208788, 21.8199209 ], [ 81.3227939, 21.8168367 ], [ 81.3265074, 21.8158354 ], [ 81.3287026, 21.8133746 ], [ 81.3314688, 21.8046222 ], [ 81.3309613, 21.802305 ], [ 81.3263684, 21.8031389 ], [ 81.326591, 21.8006143 ], [ 81.3299752, 21.7986914 ], [ 81.3295066, 21.794843 ], [ 81.3316877, 21.7926917 ], [ 81.3317541, 21.7915362 ], [ 81.3302834, 21.7916897 ], [ 81.3294847, 21.7902682 ], [ 81.3291633, 21.7873695 ], [ 81.3346018, 21.7863894 ], [ 81.3350506, 21.7835438 ], [ 81.3340715, 21.7826538 ], [ 81.3353706, 21.7793866 ], [ 81.3374543, 21.7792948 ], [ 81.3361462, 21.776681 ], [ 81.3369456, 21.7735308 ], [ 81.3438198, 21.7739284 ], [ 81.3427082, 21.767928 ], [ 81.3406173, 21.7677525 ], [ 81.3408921, 21.7699957 ], [ 81.3392725, 21.7686096 ], [ 81.3373481, 21.7692904 ], [ 81.3353955, 21.7666296 ], [ 81.3305428, 21.7675901 ], [ 81.3261929, 21.7667981 ], [ 81.319606, 21.7606124 ], [ 81.309867, 21.7627083 ], [ 81.3102499, 21.7577719 ], [ 81.3058198, 21.763478 ], [ 81.3013852, 21.7634782 ], [ 81.3020763, 21.7647049 ], [ 81.3010504, 21.76643 ], [ 81.2944425, 21.7691634 ], [ 81.2894605, 21.7659898 ], [ 81.2873985, 21.7611151 ], [ 81.2798484, 21.7631698 ], [ 81.2776787, 21.7624095 ], [ 81.2760565, 21.7587545 ], [ 81.2699143, 21.7579145 ], [ 81.2695191, 21.7558321 ], [ 81.2625644, 21.7561972 ], [ 81.2617716, 21.7504262 ], [ 81.2567711, 21.7490586 ], [ 81.2547117, 21.7463701 ], [ 81.2531128, 21.7476725 ], [ 81.2462481, 21.7482271 ], [ 81.243851, 21.751619 ], [ 81.2339587, 21.753023 ], [ 81.2261261, 21.7568799 ], [ 81.2229565, 21.7558972 ], [ 81.2254825, 21.7408384 ], [ 81.2233272, 21.7351262 ], [ 81.2244743, 21.7317744 ], [ 81.2234852, 21.7277733 ], [ 81.2259566, 21.725112 ], [ 81.2252485, 21.7219688 ], [ 81.2296936, 21.7221022 ], [ 81.2303971, 21.7198435 ], [ 81.2329683, 21.7208177 ], [ 81.2333815, 21.7183426 ], [ 81.2315232, 21.715051 ], [ 81.2325709, 21.7143505 ], [ 81.2313446, 21.7100063 ], [ 81.2220279, 21.7072377 ], [ 81.2178662, 21.7046879 ], [ 81.2149972, 21.7053394 ], [ 81.2121651, 21.7102228 ], [ 81.207036, 21.7122435 ], [ 81.2036965, 21.7107091 ], [ 81.2034756, 21.7125157 ], [ 81.1971248, 21.7087284 ], [ 81.1966239, 21.703747 ], [ 81.1925474, 21.7049585 ], [ 81.1917671, 21.7085764 ], [ 81.1857105, 21.7114366 ], [ 81.1864339, 21.7093363 ], [ 81.1833881, 21.7052813 ], [ 81.173031, 21.7062089 ], [ 81.1723589, 21.7048857 ], [ 81.170962, 21.7052486 ], [ 81.1713144, 21.7074187 ], [ 81.1626367, 21.7112276 ], [ 81.1584692, 21.7150601 ], [ 81.1578936, 21.7140652 ], [ 81.1541828, 21.7152222 ], [ 81.151853, 21.7112522 ], [ 81.1306471, 21.7164186 ], [ 81.1309428, 21.7152754 ], [ 81.1298382, 21.7150519 ], [ 81.1309588, 21.7121475 ], [ 81.1291952, 21.7099794 ], [ 81.129929, 21.7063077 ], [ 81.1266291, 21.7041619 ], [ 81.1191711, 21.7164449 ], [ 81.1090058, 21.7240118 ], [ 81.105087, 21.732497 ], [ 81.1024534, 21.7344518 ], [ 81.0964816, 21.7300506 ], [ 81.0875566, 21.7333168 ], [ 81.0787479, 21.733236 ], [ 81.0784832, 21.7286201 ], [ 81.0682435, 21.7322323 ], [ 81.0643463, 21.7262322 ], [ 81.0597368, 21.7255429 ], [ 81.0608923, 21.7243151 ], [ 81.0599262, 21.7237907 ], [ 81.0504789, 21.7268557 ], [ 81.0405832, 21.7275532 ], [ 81.0447193, 21.7370092 ], [ 81.0417566, 21.7383935 ], [ 81.0341118, 21.7388438 ], [ 81.0274804, 21.7415031 ], [ 81.0118227, 21.7365888 ], [ 81.0069885, 21.7330118 ], [ 81.0023786, 21.7273934 ], [ 80.9983725, 21.7281825 ], [ 80.9762245, 21.7457135 ], [ 80.9719403, 21.7600142 ], [ 80.9637753, 21.764294 ], [ 80.9529636, 21.7675462 ], [ 80.95493, 21.782887 ], [ 80.9541501, 21.7865913 ], [ 80.9480454, 21.7959522 ], [ 80.9457656, 21.8046995 ], [ 80.9424504, 21.8080516 ], [ 80.9362243, 21.8089626 ], [ 80.9320695, 21.8127524 ], [ 80.9325529, 21.8165147 ], [ 80.9301671, 21.8244449 ], [ 80.9227687, 21.8273824 ], [ 80.9192572, 21.8263629 ], [ 80.9168153, 21.8273253 ], [ 80.9148028, 21.8254474 ], [ 80.9057732, 21.8233903 ], [ 80.9053529, 21.8255443 ], [ 80.8995737, 21.8258974 ], [ 80.8981717, 21.8286251 ], [ 80.8972865, 21.827433 ], [ 80.8942349, 21.8283411 ], [ 80.8931272, 21.8269821 ], [ 80.8864775, 21.8280393 ], [ 80.8818635, 21.8245941 ], [ 80.8773561, 21.8239757 ], [ 80.8762148, 21.8262515 ], [ 80.8736903, 21.8254432 ], [ 80.8717585, 21.828171 ], [ 80.8677757, 21.8292313 ], [ 80.8681029, 21.8310215 ], [ 80.8610123, 21.8307477 ], [ 80.8576207, 21.8318505 ], [ 80.8554176, 21.8343167 ], [ 80.8529394, 21.833576 ], [ 80.8462629, 21.8354777 ], [ 80.8462067, 21.8328059 ], [ 80.8447158, 21.8317443 ], [ 80.8424731, 21.8355318 ], [ 80.83985, 21.8373144 ], [ 80.8384726, 21.8364649 ], [ 80.8386256, 21.8383085 ], [ 80.8406969, 21.8386743 ], [ 80.8389057, 21.8400212 ], [ 80.8412674, 21.8397816 ], [ 80.8393703, 21.8478431 ], [ 80.8409854, 21.8483017 ], [ 80.8418608, 21.8505836 ], [ 80.8465394, 21.8528149 ], [ 80.8509432, 21.8521025 ], [ 80.8525635, 21.8548581 ], [ 80.8513722, 21.8544655 ], [ 80.8515019, 21.8558833 ], [ 80.8502411, 21.8558821 ], [ 80.8492888, 21.8591724 ], [ 80.8464999, 21.8599735 ], [ 80.8486469, 21.8621934 ], [ 80.8469012, 21.8633429 ], [ 80.8456623, 21.8623928 ], [ 80.8454356, 21.8642607 ], [ 80.8432642, 21.865555 ], [ 80.8457581, 21.8697488 ], [ 80.849092, 21.8711333 ], [ 80.8527157, 21.8704809 ], [ 80.8533097, 21.8727643 ], [ 80.8495648, 21.8734393 ], [ 80.8499117, 21.8762465 ], [ 80.846213, 21.8738745 ], [ 80.842952, 21.8760736 ], [ 80.8450365, 21.8776693 ], [ 80.844293, 21.8801246 ], [ 80.8427935, 21.8806444 ], [ 80.8432626, 21.8823916 ], [ 80.8413237, 21.8821503 ], [ 80.8399674, 21.8842839 ], [ 80.8349854, 21.8855938 ], [ 80.8331796, 21.8890595 ], [ 80.8339398, 21.8910498 ], [ 80.8320989, 21.890238 ], [ 80.8331338, 21.8946013 ], [ 80.8348066, 21.8960594 ], [ 80.8331789, 21.8986316 ], [ 80.8343331, 21.90061 ], [ 80.8333902, 21.9021251 ], [ 80.8361353, 21.9069989 ], [ 80.8355598, 21.907824 ], [ 80.8333412, 21.9066675 ], [ 80.8321202, 21.9079674 ], [ 80.8350024, 21.9083375 ], [ 80.8344179, 21.9102662 ], [ 80.8360319, 21.9117076 ], [ 80.8362304, 21.914607 ], [ 80.8381526, 21.9157191 ], [ 80.8378742, 21.9178174 ], [ 80.8398108, 21.919453 ], [ 80.8392491, 21.9230458 ], [ 80.8461003, 21.9262442 ], [ 80.8456208, 21.9304271 ], [ 80.8476516, 21.9307419 ], [ 80.8476965, 21.9325331 ], [ 80.845807, 21.9339702 ], [ 80.8457142, 21.9398477 ], [ 80.8413868, 21.9411744 ], [ 80.8427998, 21.9424604 ], [ 80.8458907, 21.9420778 ], [ 80.8420431, 21.9441451 ], [ 80.8430362, 21.9461193 ], [ 80.8375267, 21.9469831 ], [ 80.8376795, 21.948838 ], [ 80.8364714, 21.9497434 ], [ 80.8340382, 21.9457516 ], [ 80.8312868, 21.9472879 ], [ 80.8331807, 21.9501061 ], [ 80.8289824, 21.9483831 ], [ 80.8274655, 21.9512676 ], [ 80.8291298, 21.9535478 ], [ 80.8281738, 21.9543031 ], [ 80.8260232, 21.9528358 ], [ 80.827501, 21.9561739 ], [ 80.8254944, 21.9584206 ], [ 80.8288071, 21.9587102 ], [ 80.8360568, 21.9545349 ], [ 80.8384918, 21.95797 ], [ 80.840875, 21.9555838 ], [ 80.8474691, 21.9557241 ], [ 80.852673, 21.9573074 ], [ 80.8591404, 21.9707775 ], [ 80.865745, 21.9942591 ], [ 80.8757764, 22.0110439 ], [ 80.8769486, 22.0339059 ], [ 80.8757911, 22.0385343 ], [ 80.8858033, 22.049624 ], [ 80.8819915, 22.0529657 ], [ 80.8826942, 22.0590345 ], [ 80.8861093, 22.0591472 ], [ 80.8890058, 22.0571014 ], [ 80.8929545, 22.063084 ], [ 80.8968107, 22.0643434 ], [ 80.9079341, 22.109573 ], [ 80.9146854, 22.1131883 ], [ 80.9219517, 22.1199505 ], [ 80.9475775, 22.1182659 ], [ 80.9569792, 22.110418 ], [ 80.9607645, 22.1035706 ], [ 80.9610095, 22.1000349 ], [ 80.9665485, 22.0935251 ], [ 80.9676069, 22.0892529 ], [ 80.9718804, 22.0823507 ], [ 80.9690247, 22.0647466 ], [ 80.9700419, 22.0574083 ], [ 80.980537, 22.0547061 ], [ 80.9835355, 22.0485992 ], [ 80.9896651, 22.051381 ], [ 80.9943909, 22.0492418 ], [ 80.9948784, 22.0586066 ], [ 80.9983119, 22.0575971 ], [ 81.0025081, 22.0582422 ], [ 81.0052665, 22.0615451 ], [ 81.0091052, 22.0708993 ], [ 81.0066989, 22.0750022 ], [ 81.0045815, 22.0753619 ], [ 81.0014496, 22.0834965 ], [ 81.0061177, 22.0921922 ], [ 81.0113334, 22.0955689 ], [ 81.0066588, 22.0999456 ], [ 81.0031642, 22.1010629 ], [ 80.9904764, 22.113554 ], [ 80.9843421, 22.1145561 ], [ 80.9809612, 22.1102145 ], [ 80.9783419, 22.1199651 ], [ 80.9826012, 22.1256969 ], [ 80.9889521, 22.1282528 ], [ 80.9948736, 22.1330214 ], [ 80.9973356, 22.1329248 ], [ 80.9990605, 22.1313164 ], [ 81.0136778, 22.1336719 ], [ 81.021913, 22.132729 ], [ 81.0237773, 22.1486742 ], [ 81.0222148, 22.1577312 ], [ 81.0263073, 22.1628407 ], [ 81.0267509, 22.1663901 ], [ 81.0171617, 22.1796097 ], [ 81.0166578, 22.1855291 ], [ 81.0224343, 22.1894748 ], [ 81.025529, 22.1873996 ], [ 81.0306637, 22.1874027 ], [ 81.0290069, 22.192495 ], [ 81.0316398, 22.1996535 ], [ 81.0303719, 22.2031748 ], [ 81.0217584, 22.2121191 ], [ 81.0195238, 22.217342 ], [ 81.0194627, 22.2211845 ], [ 81.0236374, 22.2292788 ], [ 81.0270471, 22.2289151 ], [ 81.0377369, 22.2337973 ], [ 81.0500614, 22.2445505 ], [ 81.0595983, 22.2442909 ], [ 81.0726098, 22.2483748 ], [ 81.0760355, 22.2446462 ], [ 81.077706, 22.2390386 ], [ 81.079549, 22.2393777 ], [ 81.0824093, 22.2438306 ], [ 81.0915269, 22.2490028 ], [ 81.0973103, 22.268984 ], [ 81.1018545, 22.2783044 ], [ 81.107991, 22.2845048 ], [ 81.1158944, 22.2883028 ], [ 81.1187182, 22.2912605 ], [ 81.1189358, 22.3092226 ], [ 81.1135481, 22.3241275 ], [ 81.1212109, 22.3425955 ], [ 81.1131236, 22.3532739 ], [ 81.111812, 22.3631804 ], [ 81.1086651, 22.3738228 ], [ 81.1036631, 22.3833676 ], [ 81.1059785, 22.387689 ], [ 81.1083367, 22.4009552 ], [ 81.1103356, 22.4174362 ], [ 81.108824, 22.4287559 ], [ 81.1111641, 22.4375745 ], [ 81.1205285, 22.4458018 ], [ 81.1270083, 22.4492289 ], [ 81.1410278, 22.4542265 ], [ 81.1496986, 22.4531282 ], [ 81.153872, 22.4540869 ], [ 81.1564272, 22.4563735 ], [ 81.1628154, 22.4745505 ], [ 81.1672424, 22.4779675 ], [ 81.1722064, 22.4877551 ], [ 81.186973, 22.4888428 ], [ 81.193519, 22.4909532 ], [ 81.1976665, 22.4895666 ], [ 81.1999201, 22.4852025 ], [ 81.2003876, 22.4694621 ], [ 81.201446, 22.4682018 ], [ 81.1994617, 22.4630331 ], [ 81.2061153, 22.4608351 ], [ 81.2077402, 22.4565945 ], [ 81.2333036, 22.4524433 ], [ 81.2483148, 22.458808 ], [ 81.2619331, 22.4721696 ], [ 81.2597799, 22.4851314 ], [ 81.2621298, 22.493265 ], [ 81.2690678, 22.4943218 ], [ 81.2732863, 22.4931866 ], [ 81.2812693, 22.5029542 ], [ 81.2917842, 22.4942944 ], [ 81.2999496, 22.4902933 ], [ 81.3072907, 22.4819072 ], [ 81.313728, 22.4829212 ], [ 81.3151787, 22.4877666 ], [ 81.3204853, 22.4859579 ], [ 81.3227969, 22.4891599 ], [ 81.322252, 22.4911826 ], [ 81.3181256, 22.4939174 ], [ 81.3208899, 22.4952278 ], [ 81.3182029, 22.5018579 ], [ 81.3198466, 22.5032319 ], [ 81.3199266, 22.5070519 ], [ 81.3172514, 22.5141267 ], [ 81.3180096, 22.5165172 ], [ 81.3233828, 22.5189259 ], [ 81.3228708, 22.5230207 ], [ 81.3265267, 22.5261441 ], [ 81.3347446, 22.5242353 ], [ 81.3400584, 22.5195077 ] ] ] } }
]
}
