{
"type": "FeatureCollection",
"name": "2211",
"crs": { "type": "name", "properties": { "name": "urn:ogc:def:crs:OGC:1.3:CRS84" } },
"features": [
{ "type": "Feature", "properties": { "code": "2211", "name": "Raipur", "type": "district" }, "geometry": { "type": "Polygon", "coordinates": [ [ [ 81.7875321, 21.6244961 ], [ 81.7868299, 21.6119531 ], [ 81.784343, 21.6083148 ], [ 81.7876591, 21.6007901 ], [ 81.7903882, 21.5978856 ], [ 81.7937271, 21.5965092 ], [ 81.8088538, 21.5998556 ], [ 81.8171292, 21.598414 ], [ 81.828242, 21.5980917 ], [ 81.8308141, 21.5990477 ], [ 81.8446431, 21.5954966 ], [ 81.8431433, 21.5982072 ], [ 81.845241, 21.6034707 ], [ 81.8503233, 21.6035387 ], [ 81.8498599, 21.6053401 ], [ 81.8515165, 21.6075722 ], [ 81.8580725, 21.6093229 ], [ 81.8612669, 21.6069709 ], [ 81.8637885, 21.606783 ], [ 81.8643239, 21.6047227 ], [ 81.8618147, 21.5942075 ], [ 81.8804638, 21.5841096 ], [ 81.8808678, 21.5801486 ], [ 81.8874437, 21.5753846 ], [ 81.8907006, 21.5752544 ], [ 81.8946555, 21.5775705 ], [ 81.8954435, 21.5838158 ], [ 81.9007105, 21.5997536 ], [ 81.9104761, 21.5961219 ], [ 81.9206451, 21.5945077 ], [ 81.9222679, 21.5924706 ], [ 81.9224698, 21.584198 ], [ 81.9274677, 21.5878418 ], [ 81.9299881, 21.5837981 ], [ 81.9315392, 21.576722 ], [ 81.9358546, 21.572023 ], [ 81.9302855, 21.5640252 ], [ 81.9275286, 21.5631066 ], [ 81.927822, 21.5596475 ], [ 81.9251277, 21.5575951 ], [ 81.9242296, 21.5540801 ], [ 81.9250727, 21.5527553 ], [ 81.9240567, 21.5509347 ], [ 81.9256618, 21.5498791 ], [ 81.9259192, 21.5473702 ], [ 81.9284879, 21.5457434 ], [ 81.92799, 21.5387771 ], [ 81.9292949, 21.5361598 ], [ 81.933015, 21.5341276 ], [ 81.9316484, 21.5305887 ], [ 81.9350055, 21.5254005 ], [ 81.9349398, 21.5221548 ], [ 81.9320784, 21.5182744 ], [ 81.9319465, 21.5148813 ], [ 81.9297325, 21.5136263 ], [ 81.9279241, 21.5067311 ], [ 81.9262545, 21.5046807 ], [ 81.9301517, 21.492318 ], [ 81.9331911, 21.4913957 ], [ 81.9343238, 21.4883833 ], [ 81.9393321, 21.4884356 ], [ 81.9423131, 21.486452 ], [ 81.9473407, 21.486635 ], [ 81.9522004, 21.488534 ], [ 81.952224, 21.4783598 ], [ 81.9537408, 21.4729989 ], [ 81.9606839, 21.4740927 ], [ 81.9639637, 21.4725196 ], [ 81.9715376, 21.4719012 ], [ 81.9746355, 21.4727348 ], [ 81.9786518, 21.4760469 ], [ 81.9848701, 21.4753068 ], [ 81.987773, 21.4733948 ], [ 81.9901567, 21.4738672 ], [ 81.9948977, 21.4701474 ], [ 81.9952693, 21.4663584 ], [ 81.993554, 21.4630811 ], [ 81.9942944, 21.4599828 ], [ 82.0085925, 21.4576346 ], [ 82.0198967, 21.4484614 ], [ 82.0232237, 21.4503601 ], [ 82.0229228, 21.4529881 ], [ 82.0262879, 21.4558532 ], [ 82.0339437, 21.455573 ], [ 82.0363471, 21.4536731 ], [ 82.0354051, 21.4515792 ], [ 82.038797, 21.4465168 ], [ 82.0513658, 21.43988 ], [ 82.0543144, 21.4365486 ], [ 82.0694317, 21.4336641 ], [ 82.0788302, 21.4354994 ], [ 82.0846207, 21.430548 ], [ 82.0884602, 21.4292934 ], [ 82.0934438, 21.4225613 ], [ 82.0956095, 21.4214056 ], [ 82.0966904, 21.4182944 ], [ 82.0999264, 21.4182001 ], [ 82.1060082, 21.4146921 ], [ 82.1074071, 21.4117614 ], [ 82.1112987, 21.4128998 ], [ 82.1127649, 21.411667 ], [ 82.118031, 21.4124983 ], [ 82.1209391, 21.4054717 ], [ 82.1174577, 21.4004996 ], [ 82.1159251, 21.3864327 ], [ 82.1174489, 21.3825085 ], [ 82.1245895, 21.3805623 ], [ 82.124117, 21.3725918 ], [ 82.1263781, 21.3665902 ], [ 82.1284897, 21.365696 ], [ 82.1371915, 21.3662104 ], [ 82.1418431, 21.3602806 ], [ 82.1458661, 21.3587895 ], [ 82.1463363, 21.3620232 ], [ 82.1562062, 21.3697077 ], [ 82.1606479, 21.3760199 ], [ 82.1647992, 21.3763938 ], [ 82.1701766, 21.3817798 ], [ 82.1756921, 21.381137 ], [ 82.182417, 21.3784885 ], [ 82.1890769, 21.3820943 ], [ 82.193468, 21.3792114 ], [ 82.1656165, 21.3337457 ], [ 82.1459336, 21.3112151 ], [ 82.1342658, 21.3018366 ], [ 82.1301166, 21.299904 ], [ 82.1217032, 21.2902445 ], [ 82.1176799, 21.2878194 ], [ 82.0907512, 21.2815932 ], [ 82.0634527, 21.266385 ], [ 82.0529347, 21.2584463 ], [ 82.0454961, 21.2501407 ], [ 82.0368822, 21.2434258 ], [ 82.0283923, 21.2322307 ], [ 82.0170268, 21.2098925 ], [ 82.0161668, 21.2005846 ], [ 82.0174337, 21.1932921 ], [ 82.0163134, 21.1843724 ], [ 82.017096, 21.1741397 ], [ 82.0149944, 21.1643523 ], [ 82.0124692, 21.1547361 ], [ 82.0026557, 21.1459141 ], [ 81.9982613, 21.139391 ], [ 81.9960946, 21.1257799 ], [ 81.9921738, 21.113142 ], [ 81.9881833, 21.0833353 ], [ 81.9801, 21.074477 ], [ 81.9706473, 21.0588587 ], [ 81.9535177, 21.0363661 ], [ 81.9233104, 21.0176051 ], [ 81.9151579, 21.0072816 ], [ 81.8891492, 20.9882405 ], [ 81.8860376, 20.9835847 ], [ 81.8774109, 20.9760071 ], [ 81.87267, 20.963913 ], [ 81.8607562, 20.9603673 ], [ 81.8577853, 20.9580142 ], [ 81.8572383, 20.9483181 ], [ 81.8552052, 20.9439012 ], [ 81.8470238, 20.940662 ], [ 81.8354674, 20.9403165 ], [ 81.8334943, 20.9430168 ], [ 81.8285109, 20.9429846 ], [ 81.8289465, 20.9452762 ], [ 81.8263061, 20.9447976 ], [ 81.8241065, 20.9490092 ], [ 81.8221197, 20.9475705 ], [ 81.8205054, 20.9486476 ], [ 81.8187989, 20.9474172 ], [ 81.817813, 20.9484714 ], [ 81.8148745, 20.9461672 ], [ 81.8145213, 20.9485344 ], [ 81.811712, 20.9519172 ], [ 81.8127021, 20.954483 ], [ 81.8151994, 20.9542812 ], [ 81.814876, 20.9583915 ], [ 81.8110319, 20.9631263 ], [ 81.8075636, 20.9631095 ], [ 81.8053512, 20.9662489 ], [ 81.8026026, 20.9667673 ], [ 81.801945, 20.9647473 ], [ 81.7940042, 20.9665594 ], [ 81.7927718, 20.9645443 ], [ 81.7891181, 20.9644826 ], [ 81.7808289, 20.9699272 ], [ 81.7796441, 20.9691939 ], [ 81.7786918, 20.9745561 ], [ 81.7758313, 20.9766221 ], [ 81.7758505, 20.9792356 ], [ 81.7735181, 20.9823534 ], [ 81.7686928, 20.9819518 ], [ 81.7620736, 20.9858543 ], [ 81.7607541, 20.9885054 ], [ 81.7625053, 20.9895368 ], [ 81.7628929, 20.991493 ], [ 81.7575861, 20.994869 ], [ 81.7581054, 20.9973786 ], [ 81.7564731, 21.0011996 ], [ 81.7515269, 21.0019781 ], [ 81.7515009, 21.0087931 ], [ 81.7482597, 21.0114643 ], [ 81.7335075, 21.0135246 ], [ 81.7243602, 21.0112004 ], [ 81.7167476, 21.0108785 ], [ 81.7174435, 21.0134643 ], [ 81.713603, 21.0184522 ], [ 81.7077846, 21.0180461 ], [ 81.7042939, 21.0152288 ], [ 81.7010358, 21.0082754 ], [ 81.7010177, 21.0054755 ], [ 81.6985283, 21.00381 ], [ 81.6895253, 21.0034388 ], [ 81.6852347, 21.0005019 ], [ 81.6858566, 20.9995783 ], [ 81.6840931, 20.9991314 ], [ 81.6827446, 20.9959248 ], [ 81.6745353, 21.0009515 ], [ 81.6704364, 21.0006281 ], [ 81.6697707, 20.9983611 ], [ 81.6605012, 21.001641 ], [ 81.6569146, 20.9994543 ], [ 81.6551852, 21.0002182 ], [ 81.6560098, 21.0030509 ], [ 81.6550771, 21.0044465 ], [ 81.652164, 21.0068467 ], [ 81.648362, 21.0075987 ], [ 81.6476477, 21.0097215 ], [ 81.6384642, 21.0090888 ], [ 81.6345328, 21.0115159 ], [ 81.6321812, 21.0153852 ], [ 81.6289268, 21.015911 ], [ 81.6274901, 21.0190518 ], [ 81.6243878, 21.0159253 ], [ 81.6216414, 21.0210418 ], [ 81.6186971, 21.0214214 ], [ 81.6170364, 21.02028 ], [ 81.6165093, 21.0242511 ], [ 81.6143503, 21.0239876 ], [ 81.6130872, 21.0263443 ], [ 81.6061446, 21.0297924 ], [ 81.603657, 21.0357081 ], [ 81.5866025, 21.0442856 ], [ 81.5857072, 21.0463357 ], [ 81.5868899, 21.0491991 ], [ 81.5976176, 21.0500231 ], [ 81.607017, 21.0557416 ], [ 81.6080655, 21.0587675 ], [ 81.6060681, 21.0650129 ], [ 81.6035371, 21.0677855 ], [ 81.5927071, 21.0667767 ], [ 81.5772847, 21.0739807 ], [ 81.5782583, 21.0843182 ], [ 81.5750181, 21.0899036 ], [ 81.5789181, 21.098169 ], [ 81.5811383, 21.1086557 ], [ 81.5808024, 21.1215217 ], [ 81.5936394, 21.1418059 ], [ 81.5964164, 21.1440237 ], [ 81.6031602, 21.1459936 ], [ 81.6053743, 21.1484642 ], [ 81.6055182, 21.1522215 ], [ 81.6027398, 21.1567507 ], [ 81.6030717, 21.1589364 ], [ 81.6062297, 21.1598942 ], [ 81.6116651, 21.1585896 ], [ 81.62333, 21.1588972 ], [ 81.625429, 21.1613132 ], [ 81.6181591, 21.1686922 ], [ 81.6056093, 21.1927523 ], [ 81.6053194, 21.2002488 ], [ 81.602145, 21.2067378 ], [ 81.5949545, 21.2096676 ], [ 81.587806, 21.216562 ], [ 81.5751522, 21.222276 ], [ 81.5628631, 21.2407105 ], [ 81.5606132, 21.2416987 ], [ 81.5514861, 21.239726 ], [ 81.5472269, 21.2418602 ], [ 81.5428696, 21.2468843 ], [ 81.5414036, 21.2497874 ], [ 81.5461808, 21.2697298 ], [ 81.5343902, 21.2959649 ], [ 81.5340897, 21.2996078 ], [ 81.5356246, 21.3016887 ], [ 81.5407456, 21.3008113 ], [ 81.5500457, 21.3049758 ], [ 81.549957, 21.311536 ], [ 81.5540022, 21.3332629 ], [ 81.5563912, 21.335504 ], [ 81.5588666, 21.335665 ], [ 81.5732931, 21.33439 ], [ 81.5807202, 21.331912 ], [ 81.5916036, 21.3409948 ], [ 81.5958715, 21.3426756 ], [ 81.5968098, 21.3465159 ], [ 81.5928816, 21.3525954 ], [ 81.5920719, 21.3568761 ], [ 81.5948889, 21.3587967 ], [ 81.6087191, 21.3629587 ], [ 81.6110241, 21.3653589 ], [ 81.6124749, 21.3724792 ], [ 81.6085034, 21.3782803 ], [ 81.6078199, 21.3822003 ], [ 81.6101248, 21.3873207 ], [ 81.6141381, 21.389401 ], [ 81.6210549, 21.3866812 ], [ 81.6232751, 21.3870013 ], [ 81.6254099, 21.3882013 ], [ 81.62948, 21.3959087 ], [ 81.6381773, 21.4027244 ], [ 81.6391172, 21.4077645 ], [ 81.6323706, 21.412485 ], [ 81.6306627, 21.4175252 ], [ 81.6324987, 21.4269281 ], [ 81.6284844, 21.4341284 ], [ 81.62857, 21.4376484 ], [ 81.6313036, 21.4418084 ], [ 81.6321174, 21.4456892 ], [ 81.6268212, 21.4516894 ], [ 81.6237457, 21.4590496 ], [ 81.622635, 21.4656897 ], [ 81.6239859, 21.4695778 ], [ 81.6306215, 21.4731734 ], [ 81.6308779, 21.4744535 ], [ 81.627533, 21.4848959 ], [ 81.630656, 21.4962978 ], [ 81.627907, 21.504866 ], [ 81.628026, 21.5080321 ], [ 81.6331401, 21.5142706 ], [ 81.6421434, 21.5190616 ], [ 81.6445759, 21.52177 ], [ 81.6433847, 21.5460579 ], [ 81.6477642, 21.5479203 ], [ 81.6648369, 21.5467339 ], [ 81.6673013, 21.5480363 ], [ 81.6690085, 21.5509625 ], [ 81.6664863, 21.5679366 ], [ 81.6768418, 21.571536 ], [ 81.6807128, 21.5743673 ], [ 81.6885763, 21.5917142 ], [ 81.694799, 21.6015121 ], [ 81.6972684, 21.6009864 ], [ 81.6951813, 21.5987249 ], [ 81.6955543, 21.5913777 ], [ 81.6982055, 21.5922571 ], [ 81.702506, 21.5891438 ], [ 81.7040806, 21.590141 ], [ 81.7048284, 21.5890659 ], [ 81.7066014, 21.590912 ], [ 81.7207232, 21.5892426 ], [ 81.7229527, 21.5872995 ], [ 81.7330564, 21.5848006 ], [ 81.7374429, 21.5819437 ], [ 81.7392359, 21.5843133 ], [ 81.7404037, 21.583337 ], [ 81.7490033, 21.5842881 ], [ 81.7515051, 21.5830075 ], [ 81.7535643, 21.5879379 ], [ 81.7480699, 21.5881543 ], [ 81.747649, 21.5927968 ], [ 81.7438217, 21.5948723 ], [ 81.7418871, 21.6010925 ], [ 81.743131, 21.6055896 ], [ 81.7475018, 21.6058357 ], [ 81.7480465, 21.6132868 ], [ 81.7560392, 21.6133613 ], [ 81.7695446, 21.608472 ], [ 81.7793471, 21.6227137 ], [ 81.7815488, 21.6225843 ], [ 81.785443, 21.6261391 ], [ 81.7875321, 21.6244961 ] ] ] } }
]
}
