{
"type": "FeatureCollection",
"name": "2213",
"crs": { "type": "name", "properties": { "name": "urn:ogc:def:crs:OGC:1.3:CRS84" } },
"features": [
{ "type": "Feature", "properties": { "code": "2213", "name": "Dhamtari", "type": "district" }, "geometry": { "type": "MultiPolygon", "coordinates": [ [ [ [ 81.460093, 20.6120994 ], [ 81.4560192, 20.6103125 ], [ 81.4555579, 20.6085334 ], [ 81.4511117, 20.6073043 ], [ 81.4492707, 20.6043192 ], [ 81.4492194, 20.5896386 ], [ 81.4445448, 20.5882444 ], [ 81.4455644, 20.5915163 ], [ 81.4430207, 20.5948333 ], [ 81.4438569, 20.602032 ], [ 81.4464921, 20.6039328 ], [ 81.4478729, 20.6120774 ], [ 81.4512572, 20.6114464 ], [ 81.4523692, 20.6137584 ], [ 81.4495853, 20.6140695 ], [ 81.4498004, 20.6154337 ], [ 81.4544022, 20.6175576 ], [ 81.4532922, 20.6193033 ], [ 81.4590814, 20.6256969 ], [ 81.4625038, 20.6208086 ], [ 81.4620847, 20.6162276 ], [ 81.460093, 20.6120994 ] ] ], [ [ [ 81.6143503, 21.0239876 ], [ 81.6165093, 21.0242511 ], [ 81.6171506, 21.0202313 ], [ 81.6186971, 21.0214214 ], [ 81.6216414, 21.0210418 ], [ 81.6243878, 21.0159253 ], [ 81.6277716, 21.0188906 ], [ 81.6289268, 21.015911 ], [ 81.6321812, 21.0153852 ], [ 81.6345328, 21.0115159 ], [ 81.6384642, 21.0090888 ], [ 81.6476477, 21.0097215 ], [ 81.648362, 21.0075987 ], [ 81.652164, 21.0068467 ], [ 81.6553319, 21.0041529 ], [ 81.6555404, 20.9998444 ], [ 81.6583448, 20.9998747 ], [ 81.6605012, 21.001641 ], [ 81.6697707, 20.9983611 ], [ 81.6704364, 21.0006281 ], [ 81.6745353, 21.0009515 ], [ 81.6821441, 20.9958429 ], [ 81.6840931, 20.9991314 ], [ 81.6857583, 20.999404 ], [ 81.6852347, 21.0005019 ], [ 81.6895253, 21.0034388 ], [ 81.6985283, 21.00381 ], [ 81.7007166, 21.0052122 ], [ 81.7042939, 21.0152288 ], [ 81.7077846, 21.0180461 ], [ 81.713603, 21.0184522 ], [ 81.7174435, 21.0134643 ], [ 81.7167476, 21.0108785 ], [ 81.7243602, 21.0112004 ], [ 81.7335075, 21.0135246 ], [ 81.7482597, 21.0114643 ], [ 81.7515009, 21.0087931 ], [ 81.7515269, 21.0019781 ], [ 81.7564731, 21.0011996 ], [ 81.7581054, 20.9973786 ], [ 81.7575861, 20.994869 ], [ 81.7628929, 20.991493 ], [ 81.7625053, 20.9895368 ], [ 81.7607541, 20.9885054 ], [ 81.7620736, 20.9858543 ], [ 81.7686928, 20.9819518 ], [ 81.7735181, 20.9823534 ], [ 81.7758505, 20.9792356 ], [ 81.7758313, 20.9766221 ], [ 81.7786918, 20.9745561 ], [ 81.7796441, 20.9691939 ], [ 81.7808289, 20.9699272 ], [ 81.7893206, 20.9644478 ], [ 81.7913267, 20.9653043 ], [ 81.7927718, 20.9645443 ], [ 81.7938178, 20.9665508 ], [ 81.8011841, 20.9646753 ], [ 81.8026253, 20.965222 ], [ 81.8024759, 20.9667436 ], [ 81.8053512, 20.9662489 ], [ 81.8075636, 20.9631095 ], [ 81.8110319, 20.9631263 ], [ 81.8148263, 20.9585656 ], [ 81.8151994, 20.9542812 ], [ 81.8127021, 20.954483 ], [ 81.811712, 20.9519172 ], [ 81.8145213, 20.9485344 ], [ 81.8147039, 20.9462678 ], [ 81.8179778, 20.9485219 ], [ 81.8187989, 20.9474172 ], [ 81.8205054, 20.9486476 ], [ 81.8221197, 20.9475705 ], [ 81.8241065, 20.9490092 ], [ 81.8263061, 20.9447976 ], [ 81.8289465, 20.9452762 ], [ 81.8285109, 20.9429846 ], [ 81.8334943, 20.9430168 ], [ 81.8354674, 20.9403165 ], [ 81.8479612, 20.9407886 ], [ 81.8542583, 20.943052 ], [ 81.8567481, 20.9465703 ], [ 81.8569345, 20.9561851 ], [ 81.859088, 20.9595498 ], [ 81.8712469, 20.9627072 ], [ 81.8732196, 20.9645892 ], [ 81.8733101, 20.9399839 ], [ 81.8764082, 20.9316723 ], [ 81.8771068, 20.9175301 ], [ 81.8801649, 20.9110317 ], [ 81.8897021, 20.9041866 ], [ 81.8924487, 20.8982594 ], [ 81.8908587, 20.8890625 ], [ 81.8880298, 20.8815096 ], [ 81.8911517, 20.8673926 ], [ 81.8996188, 20.8546837 ], [ 81.9023666, 20.8396337 ], [ 81.9056529, 20.8320033 ], [ 81.9128367, 20.8238919 ], [ 81.9209349, 20.8183628 ], [ 81.9243636, 20.8130509 ], [ 81.9245115, 20.8093877 ], [ 81.9224251, 20.8057004 ], [ 81.9110773, 20.7945174 ], [ 81.9092455, 20.7866115 ], [ 81.921561, 20.7713142 ], [ 81.9242241, 20.7634089 ], [ 81.9228357, 20.7514107 ], [ 81.9258804, 20.7471176 ], [ 81.9381827, 20.7382325 ], [ 81.9558416, 20.7349739 ], [ 81.9749364, 20.7280988 ], [ 81.9814762, 20.7239221 ], [ 81.9845784, 20.7196176 ], [ 81.9815833, 20.7073352 ], [ 81.9829854, 20.701763 ], [ 81.9932142, 20.6924573 ], [ 81.9982651, 20.6838625 ], [ 82.0035139, 20.6790485 ], [ 82.0093294, 20.676922 ], [ 82.0124444, 20.6731877 ], [ 82.012121, 20.6695497 ], [ 82.006398, 20.6643877 ], [ 82.0039004, 20.6601349 ], [ 82.0015599, 20.6516869 ], [ 81.9980843, 20.6483132 ], [ 81.9945734, 20.635242 ], [ 82.0013664, 20.618152 ], [ 82.0086154, 20.5935275 ], [ 82.0179139, 20.5760124 ], [ 82.0177503, 20.5590197 ], [ 82.0214398, 20.5438103 ], [ 82.0201384, 20.5316153 ], [ 82.0210141, 20.5273479 ], [ 82.0228102, 20.5245817 ], [ 82.0351145, 20.5187615 ], [ 82.0376423, 20.5112168 ], [ 82.0399803, 20.5081379 ], [ 82.040856, 20.5030914 ], [ 82.0477325, 20.5007415 ], [ 82.0487725, 20.4981281 ], [ 82.0486283, 20.4892037 ], [ 82.0514925, 20.4823757 ], [ 82.0562113, 20.4762496 ], [ 82.0518562, 20.4630717 ], [ 82.0569293, 20.4516159 ], [ 82.0633068, 20.4460409 ], [ 82.0615445, 20.4372848 ], [ 82.0644137, 20.434021 ], [ 82.0716414, 20.4320048 ], [ 82.0745101, 20.4291704 ], [ 82.0758446, 20.4213194 ], [ 82.0825948, 20.4149304 ], [ 82.0852909, 20.4104285 ], [ 82.0840636, 20.4046288 ], [ 82.0851718, 20.3983692 ], [ 82.0813953, 20.3954041 ], [ 82.0803666, 20.3913369 ], [ 82.0819154, 20.3856238 ], [ 82.0852452, 20.3824476 ], [ 82.0854912, 20.3788777 ], [ 82.0807991, 20.3687078 ], [ 82.0808623, 20.3653282 ], [ 82.0855055, 20.3569952 ], [ 82.0885704, 20.3454985 ], [ 82.0882636, 20.3367858 ], [ 82.0852815, 20.331861 ], [ 82.0855095, 20.3299279 ], [ 82.0956523, 20.3225853 ], [ 82.1032895, 20.3057279 ], [ 82.1053821, 20.3034444 ], [ 82.1086109, 20.2907445 ], [ 82.1158853, 20.2875216 ], [ 82.1317453, 20.2886817 ], [ 82.1451477, 20.2872198 ], [ 82.1526198, 20.2820122 ], [ 82.1568441, 20.277239 ], [ 82.1556146, 20.269586 ], [ 82.1604085, 20.2652185 ], [ 82.1665462, 20.2604481 ], [ 82.1737224, 20.260565 ], [ 82.1802238, 20.2570083 ], [ 82.173947, 20.2518114 ], [ 82.1637005, 20.2391252 ], [ 82.1621972, 20.2358263 ], [ 82.1644693, 20.2328472 ], [ 82.1645118, 20.2304783 ], [ 82.1607913, 20.2295035 ], [ 82.1545241, 20.2232178 ], [ 82.1502967, 20.2228797 ], [ 82.1478198, 20.217973 ], [ 82.1446652, 20.205824 ], [ 82.138995, 20.1972117 ], [ 82.1334113, 20.1828586 ], [ 82.1334685, 20.1785566 ], [ 82.1354222, 20.1751195 ], [ 82.1324179, 20.1669177 ], [ 82.1340487, 20.1629159 ], [ 82.1319272, 20.1577243 ], [ 82.1352869, 20.1540907 ], [ 82.1373693, 20.1488627 ], [ 82.129246, 20.141456 ], [ 82.1144619, 20.1347601 ], [ 82.1140088, 20.1167098 ], [ 82.1114893, 20.1127012 ], [ 82.1055301, 20.105499 ], [ 82.0925883, 20.1007209 ], [ 82.0770779, 20.1029057 ], [ 82.0698979, 20.1060877 ], [ 82.0635919, 20.105214 ], [ 82.0448039, 20.0962661 ], [ 82.0355272, 20.0992605 ], [ 82.0357937, 20.0929918 ], [ 82.0312534, 20.0759553 ], [ 82.0277455, 20.0723108 ], [ 82.022487, 20.0620915 ], [ 82.0216129, 20.0539069 ], [ 82.0182059, 20.0490157 ], [ 82.0122743, 20.0539148 ], [ 82.0057488, 20.055611 ], [ 82.0032542, 20.0551306 ], [ 82.003368, 20.0533398 ], [ 81.9953448, 20.0535663 ], [ 81.9873851, 20.0613309 ], [ 81.9841633, 20.0680333 ], [ 81.983861, 20.0732432 ], [ 81.9758905, 20.0817097 ], [ 81.9633323, 20.0904492 ], [ 81.9581538, 20.0978542 ], [ 81.9456429, 20.1051695 ], [ 81.9385198, 20.1015636 ], [ 81.9371264, 20.1023499 ], [ 81.9338427, 20.0982094 ], [ 81.9338706, 20.0960437 ], [ 81.9315804, 20.0956538 ], [ 81.9258275, 20.0912044 ], [ 81.9227618, 20.0871607 ], [ 81.9213829, 20.0799707 ], [ 81.9160627, 20.0719823 ], [ 81.901445, 20.0579069 ], [ 81.8952802, 20.0482378 ], [ 81.8873005, 20.0440155 ], [ 81.8819142, 20.0443387 ], [ 81.8760755, 20.0519628 ], [ 81.8692382, 20.0551161 ], [ 81.8713841, 20.058901 ], [ 81.8679558, 20.088543 ], [ 81.8661438, 20.0911445 ], [ 81.8577244, 20.0960241 ], [ 81.8543601, 20.1025207 ], [ 81.8454295, 20.1128126 ], [ 81.8469988, 20.1343295 ], [ 81.8453205, 20.1587952 ], [ 81.8461876, 20.1642942 ], [ 81.840615, 20.1663166 ], [ 81.829628, 20.1672762 ], [ 81.825698, 20.1694272 ], [ 81.8142121, 20.1672987 ], [ 81.8090107, 20.1781883 ], [ 81.8117212, 20.1885908 ], [ 81.8090808, 20.193768 ], [ 81.8053452, 20.1976259 ], [ 81.8010247, 20.2141484 ], [ 81.7852216, 20.2094024 ], [ 81.7830169, 20.2163116 ], [ 81.7816275, 20.2275501 ], [ 81.7767479, 20.2297538 ], [ 81.7749521, 20.2320155 ], [ 81.779912, 20.247433 ], [ 81.7828755, 20.2494014 ], [ 81.7855341, 20.2561125 ], [ 81.7843555, 20.2611165 ], [ 81.7919153, 20.2575346 ], [ 81.7992271, 20.2559064 ], [ 81.8003073, 20.2646686 ], [ 81.7981373, 20.2660494 ], [ 81.7918491, 20.2756111 ], [ 81.7889252, 20.2878825 ], [ 81.7801465, 20.2819869 ], [ 81.7779144, 20.2780979 ], [ 81.7730918, 20.2784835 ], [ 81.7702494, 20.2804705 ], [ 81.7606044, 20.2829689 ], [ 81.7618453, 20.2858345 ], [ 81.7608076, 20.2902104 ], [ 81.7585057, 20.2933699 ], [ 81.7593143, 20.2980657 ], [ 81.7613321, 20.3064042 ], [ 81.7661737, 20.3096275 ], [ 81.7743298, 20.3091071 ], [ 81.774917, 20.3196371 ], [ 81.7840904, 20.3188292 ], [ 81.7933269, 20.3208708 ], [ 81.7943737, 20.3213538 ], [ 81.7950284, 20.3262757 ], [ 81.7820157, 20.3460616 ], [ 81.7830986, 20.3477453 ], [ 81.781568, 20.3567525 ], [ 81.7747883, 20.3528768 ], [ 81.7633336, 20.3543692 ], [ 81.7625061, 20.3596725 ], [ 81.7669343, 20.373033 ], [ 81.765099, 20.3749269 ], [ 81.7650427, 20.378647 ], [ 81.7689862, 20.3822118 ], [ 81.767416, 20.3833252 ], [ 81.7671505, 20.3860392 ], [ 81.7632788, 20.3885396 ], [ 81.7624294, 20.3906095 ], [ 81.7578191, 20.3902514 ], [ 81.7533474, 20.393363 ], [ 81.7513765, 20.4003529 ], [ 81.7482941, 20.4005122 ], [ 81.7470586, 20.4035818 ], [ 81.7434596, 20.4037041 ], [ 81.7446212, 20.4068844 ], [ 81.740895, 20.4114256 ], [ 81.7405324, 20.4151149 ], [ 81.7362709, 20.4191 ], [ 81.7329017, 20.4316751 ], [ 81.7342818, 20.4411268 ], [ 81.736885, 20.4444413 ], [ 81.7360834, 20.447811 ], [ 81.7374559, 20.4572676 ], [ 81.7405089, 20.4628954 ], [ 81.7397792, 20.4685411 ], [ 81.7365071, 20.4704589 ], [ 81.7335821, 20.4698619 ], [ 81.7314247, 20.4744415 ], [ 81.7346054, 20.4782467 ], [ 81.735103, 20.4819325 ], [ 81.6923251, 20.4813045 ], [ 81.6592762, 20.4977871 ], [ 81.6413225, 20.4950336 ], [ 81.6407822, 20.5044814 ], [ 81.6347543, 20.5087945 ], [ 81.6191721, 20.5142455 ], [ 81.6164505, 20.5171025 ], [ 81.6066024, 20.512265 ], [ 81.6005082, 20.5183285 ], [ 81.5977561, 20.5187362 ], [ 81.5942336, 20.516928 ], [ 81.588389, 20.518851 ], [ 81.5791424, 20.517185 ], [ 81.5719698, 20.5188741 ], [ 81.5604059, 20.517121 ], [ 81.558519, 20.5141193 ], [ 81.5563856, 20.5139144 ], [ 81.5410798, 20.5151892 ], [ 81.5398761, 20.5099412 ], [ 81.5383612, 20.5097655 ], [ 81.5383824, 20.5007325 ], [ 81.5275493, 20.4943228 ], [ 81.5259917, 20.4944752 ], [ 81.5247376, 20.4927434 ], [ 81.521991, 20.4928515 ], [ 81.5165909, 20.4930895 ], [ 81.5098588, 20.4963179 ], [ 81.5048973, 20.5023693 ], [ 81.5044579, 20.5101519 ], [ 81.5026942, 20.5117542 ], [ 81.5030022, 20.5145837 ], [ 81.5015471, 20.5165651 ], [ 81.5028433, 20.5199478 ], [ 81.4954784, 20.5203694 ], [ 81.4880907, 20.5120007 ], [ 81.4806576, 20.5137407 ], [ 81.4578349, 20.5135004 ], [ 81.4372527, 20.5184647 ], [ 81.4243079, 20.5156646 ], [ 81.4156086, 20.5251581 ], [ 81.4108226, 20.5257538 ], [ 81.4120506, 20.5401989 ], [ 81.4101355, 20.5440675 ], [ 81.4103624, 20.5544328 ], [ 81.4236778, 20.5525707 ], [ 81.4259815, 20.5599216 ], [ 81.4281937, 20.562401 ], [ 81.4453635, 20.5674964 ], [ 81.4551075, 20.5669183 ], [ 81.4529929, 20.5756406 ], [ 81.4472728, 20.5852782 ], [ 81.4568861, 20.5881365 ], [ 81.464254, 20.5844585 ], [ 81.470496, 20.588265 ], [ 81.4694436, 20.5907207 ], [ 81.4746713, 20.5909843 ], [ 81.4810185, 20.5887656 ], [ 81.4887663, 20.5822143 ], [ 81.4952979, 20.5878339 ], [ 81.5157106, 20.5894272 ], [ 81.5119007, 20.5959551 ], [ 81.5106017, 20.5954878 ], [ 81.5103563, 20.5927472 ], [ 81.5084081, 20.5921899 ], [ 81.4980084, 20.5934873 ], [ 81.4928157, 20.5971398 ], [ 81.4922438, 20.5914688 ], [ 81.490477, 20.5913334 ], [ 81.4714023, 20.5950229 ], [ 81.4730108, 20.5993749 ], [ 81.4810686, 20.601615 ], [ 81.4907154, 20.6025231 ], [ 81.4914414, 20.5999782 ], [ 81.4916487, 20.601951 ], [ 81.4980802, 20.6047092 ], [ 81.5018849, 20.6080428 ], [ 81.509617, 20.6107901 ], [ 81.5128946, 20.6135035 ], [ 81.5137856, 20.6233589 ], [ 81.5108458, 20.6237068 ], [ 81.5091151, 20.6205883 ], [ 81.5000204, 20.6178416 ], [ 81.4996225, 20.6122161 ], [ 81.4987885, 20.610583 ], [ 81.4973435, 20.6106833 ], [ 81.4914096, 20.6171164 ], [ 81.4918721, 20.6187074 ], [ 81.4894269, 20.6222616 ], [ 81.4916074, 20.624563 ], [ 81.4885533, 20.627046 ], [ 81.4910832, 20.6332485 ], [ 81.5004929, 20.6365037 ], [ 81.500969, 20.6439027 ], [ 81.4984626, 20.6492613 ], [ 81.4970135, 20.6499937 ], [ 81.4969411, 20.6519202 ], [ 81.4923881, 20.6548722 ], [ 81.4944691, 20.6620603 ], [ 81.5027846, 20.6623039 ], [ 81.5027527, 20.6634627 ], [ 81.5055743, 20.6639416 ], [ 81.5104469, 20.6631949 ], [ 81.5111825, 20.6726581 ], [ 81.5132409, 20.6743865 ], [ 81.513017, 20.6782479 ], [ 81.5113379, 20.6856212 ], [ 81.5098834, 20.6857587 ], [ 81.5081829, 20.6897759 ], [ 81.5091322, 20.693395 ], [ 81.5120146, 20.6956661 ], [ 81.5120495, 20.6989957 ], [ 81.5149805, 20.7021611 ], [ 81.5142505, 20.7058714 ], [ 81.5161039, 20.7137548 ], [ 81.5089457, 20.7172798 ], [ 81.5033431, 20.7176684 ], [ 81.5021118, 20.7189357 ], [ 81.4991961, 20.7182781 ], [ 81.4995453, 20.7170175 ], [ 81.4974999, 20.7166871 ], [ 81.4973451, 20.7151784 ], [ 81.4947242, 20.7135999 ], [ 81.4910041, 20.7142289 ], [ 81.4891983, 20.7152861 ], [ 81.4893848, 20.7177272 ], [ 81.4868506, 20.7209756 ], [ 81.4846125, 20.7211928 ], [ 81.4840361, 20.7256419 ], [ 81.4792774, 20.7261449 ], [ 81.4781793, 20.727308 ], [ 81.482881, 20.7396517 ], [ 81.487693, 20.7454606 ], [ 81.4845422, 20.7492377 ], [ 81.485971, 20.7518475 ], [ 81.484749, 20.7530718 ], [ 81.4878882, 20.7586676 ], [ 81.4862447, 20.7608921 ], [ 81.4859022, 20.764524 ], [ 81.4834801, 20.7643811 ], [ 81.4815575, 20.7680935 ], [ 81.4792234, 20.7682992 ], [ 81.4785621, 20.7760636 ], [ 81.4891484, 20.779735 ], [ 81.4888598, 20.7807334 ], [ 81.4909013, 20.7818397 ], [ 81.4942363, 20.782073 ], [ 81.4948926, 20.7899698 ], [ 81.5014612, 20.7922016 ], [ 81.504716, 20.7974236 ], [ 81.5107778, 20.798113 ], [ 81.5135248, 20.8102283 ], [ 81.5147712, 20.8115633 ], [ 81.5132548, 20.81535 ], [ 81.5158679, 20.8197477 ], [ 81.5170333, 20.8277601 ], [ 81.5153792, 20.8295253 ], [ 81.4993733, 20.8302366 ], [ 81.4973074, 20.8332349 ], [ 81.4933012, 20.8334024 ], [ 81.4929558, 20.8386561 ], [ 81.494836, 20.8421631 ], [ 81.4978024, 20.8418523 ], [ 81.498271, 20.8470211 ], [ 81.4960929, 20.8471878 ], [ 81.4951093, 20.8491746 ], [ 81.4901616, 20.8498984 ], [ 81.4890793, 20.8519574 ], [ 81.4842779, 20.851646 ], [ 81.4782953, 20.8560617 ], [ 81.4753247, 20.8562996 ], [ 81.4733458, 20.8603466 ], [ 81.4744976, 20.8637935 ], [ 81.473997, 20.8683334 ], [ 81.4720844, 20.8706668 ], [ 81.4815767, 20.8729151 ], [ 81.4854094, 20.8705598 ], [ 81.4873208, 20.875603 ], [ 81.4943422, 20.8831492 ], [ 81.4958619, 20.8905093 ], [ 81.4983227, 20.8941121 ], [ 81.5176663, 20.8928034 ], [ 81.5236969, 20.8967271 ], [ 81.5286564, 20.9077323 ], [ 81.5293388, 20.9184237 ], [ 81.540945, 20.9302049 ], [ 81.5500334, 20.9338528 ], [ 81.5652303, 20.9325822 ], [ 81.5687451, 20.9380771 ], [ 81.5769598, 20.9395352 ], [ 81.5822153, 20.9388561 ], [ 81.5887895, 20.9405544 ], [ 81.5908062, 20.9436684 ], [ 81.5903665, 20.9515977 ], [ 81.5955528, 20.9550621 ], [ 81.6046547, 20.9558174 ], [ 81.6070669, 20.957636 ], [ 81.6130984, 20.9657809 ], [ 81.6095104, 20.9761545 ], [ 81.6095268, 20.9809489 ], [ 81.6116159, 20.9840421 ], [ 81.6188328, 20.9853601 ], [ 81.6215821, 20.9907937 ], [ 81.6207957, 20.9949951 ], [ 81.6130052, 21.0113042 ], [ 81.6071224, 21.018132 ], [ 81.6110369, 21.0248477 ], [ 81.6108398, 21.0269085 ], [ 81.6136789, 21.0258957 ], [ 81.6143503, 21.0239876 ] ] ] ] } }
]
}
