{
"type": "FeatureCollection",
"name": "2217",
"crs": { "type": "name", "properties": { "name": "urn:ogc:def:crs:OGC:1.3:CRS84" } },
"features": [
{ "type": "Feature", "properties": { "code": "2217", "name": "Kondagaon", "type": "district" }, "geometry": { "type": "Polygon", "coordinates": [ [ [ 81.6094694, 20.1684789 ], [ 81.6121794, 20.1581389 ], [ 81.6201955, 20.1559533 ], [ 81.6238017, 20.1520194 ], [ 81.6322188, 20.147155 ], [ 81.6422089, 20.1421951 ], [ 81.6796459, 20.1298315 ], [ 81.699516, 20.1333774 ], [ 81.7088772, 20.1383277 ], [ 81.7189396, 20.1395421 ], [ 81.7238051, 20.1426197 ], [ 81.7249933, 20.1459658 ], [ 81.7244986, 20.1500626 ], [ 81.7273697, 20.152685 ], [ 81.7297645, 20.1576697 ], [ 81.7377381, 20.158681 ], [ 81.7467384, 20.1635528 ], [ 81.7587365, 20.1626325 ], [ 81.7671346, 20.1568025 ], [ 81.7713955, 20.1576135 ], [ 81.7754447, 20.1567848 ], [ 81.80018, 20.1592472 ], [ 81.8142121, 20.1672987 ], [ 81.8209126, 20.1692904 ], [ 81.825698, 20.1694272 ], [ 81.829628, 20.1672762 ], [ 81.840615, 20.1663166 ], [ 81.8461876, 20.1642942 ], [ 81.8453205, 20.1587952 ], [ 81.8469988, 20.1343295 ], [ 81.8454295, 20.1128126 ], [ 81.8543601, 20.1025207 ], [ 81.8577244, 20.0960241 ], [ 81.8661438, 20.0911445 ], [ 81.8679558, 20.088543 ], [ 81.8713841, 20.058901 ], [ 81.8692382, 20.0551161 ], [ 81.8759661, 20.0520435 ], [ 81.8694282, 20.0412629 ], [ 81.8688217, 20.0319114 ], [ 81.8650275, 20.0267036 ], [ 81.8665361, 20.0110537 ], [ 81.8605735, 20.0035106 ], [ 81.8563067, 19.9829394 ], [ 81.8553575, 19.9722801 ], [ 81.8452752, 19.9595329 ], [ 81.8450129, 19.9518805 ], [ 81.856802, 19.9475387 ], [ 81.8518082, 19.9231479 ], [ 81.8531556, 19.918478 ], [ 81.8696511, 19.9025356 ], [ 81.8996768, 19.8871978 ], [ 81.9410621, 19.8728763 ], [ 81.9577272, 19.8650421 ], [ 81.9576099, 19.8638886 ], [ 81.9681314, 19.8598949 ], [ 81.9653736, 19.8369043 ], [ 81.9825879, 19.8088104 ], [ 81.986558, 19.8042797 ], [ 81.9859495, 19.8010893 ], [ 81.9919062, 19.7995882 ], [ 81.9953686, 19.7968217 ], [ 82.003684, 19.8025725 ], [ 82.0098879, 19.8042171 ], [ 82.0310507, 19.7978064 ], [ 82.0486836, 19.7969567 ], [ 82.0508874, 19.7933489 ], [ 82.0529804, 19.7922883 ], [ 82.0563991, 19.7930168 ], [ 82.0563648, 19.7948506 ], [ 82.0602223, 19.7963742 ], [ 82.0623927, 19.7925403 ], [ 82.0655475, 19.7906579 ], [ 82.0662302, 19.7831536 ], [ 82.0604659, 19.7666341 ], [ 82.0638291, 19.761057 ], [ 82.0636129, 19.7590155 ], [ 82.0559847, 19.7529671 ], [ 82.0556387, 19.7499766 ], [ 82.0520464, 19.7481601 ], [ 82.0504007, 19.7458054 ], [ 82.0497911, 19.7404783 ], [ 82.0509426, 19.736416 ], [ 82.0492408, 19.7287188 ], [ 82.0510222, 19.7190899 ], [ 82.0447506, 19.7088771 ], [ 82.0445022, 19.7046267 ], [ 82.0445877, 19.7005278 ], [ 82.049102, 19.6849313 ], [ 82.0518651, 19.6804676 ], [ 82.0553176, 19.6656786 ], [ 82.0536195, 19.6653937 ], [ 82.0519407, 19.660953 ], [ 82.0525476, 19.6579496 ], [ 82.0542449, 19.6579977 ], [ 82.0555099, 19.6544639 ], [ 82.053513, 19.652801 ], [ 82.0538646, 19.650344 ], [ 82.0521509, 19.6494579 ], [ 82.0519235, 19.6465717 ], [ 82.054714, 19.6428261 ], [ 82.0547342, 19.6405023 ], [ 82.0570062, 19.6395117 ], [ 82.0576395, 19.6355168 ], [ 82.0564608, 19.6331157 ], [ 82.0590179, 19.6281754 ], [ 82.0561039, 19.6258255 ], [ 82.0557118, 19.6231041 ], [ 82.0506144, 19.6167718 ], [ 82.050716, 19.6083525 ], [ 82.0462694, 19.6072846 ], [ 82.0398829, 19.5976361 ], [ 82.0404818, 19.591638 ], [ 82.0433689, 19.5890017 ], [ 82.0429747, 19.5863682 ], [ 82.0446086, 19.5819454 ], [ 82.0487546, 19.5782676 ], [ 82.0498717, 19.5738416 ], [ 82.0482787, 19.571788 ], [ 82.0481444, 19.5687369 ], [ 82.0494931, 19.56841 ], [ 82.0455061, 19.5605286 ], [ 82.0460032, 19.5573062 ], [ 82.0503157, 19.5516439 ], [ 82.0505983, 19.5486516 ], [ 82.049793, 19.5436309 ], [ 82.0474912, 19.5396484 ], [ 82.0477229, 19.5334514 ], [ 82.0464698, 19.5339679 ], [ 82.0432584, 19.5298562 ], [ 82.0398758, 19.5301844 ], [ 82.0372899, 19.5282522 ], [ 82.0365226, 19.5200379 ], [ 82.0345493, 19.5177559 ], [ 82.0343175, 19.5148539 ], [ 82.0318454, 19.5145273 ], [ 82.0315592, 19.5110402 ], [ 82.0224579, 19.4986575 ], [ 82.0173577, 19.4970647 ], [ 82.014412, 19.4930656 ], [ 82.0095051, 19.4946163 ], [ 81.9996489, 19.4903324 ], [ 81.9933102, 19.4920285 ], [ 81.9966248, 19.4977085 ], [ 81.9972863, 19.502211 ], [ 81.9963422, 19.5060984 ], [ 82.0002234, 19.515235 ], [ 81.9986725, 19.5294873 ], [ 81.9925628, 19.5335223 ], [ 81.9814899, 19.537879 ], [ 81.9696112, 19.5403666 ], [ 81.9519167, 19.5411636 ], [ 81.9475309, 19.5404048 ], [ 81.9364384, 19.5324701 ], [ 81.9269484, 19.5284196 ], [ 81.9069887, 19.5281211 ], [ 81.9006393, 19.5300715 ], [ 81.8982896, 19.5499152 ], [ 81.8590457, 19.5523659 ], [ 81.846764, 19.5424444 ], [ 81.8455069, 19.5367693 ], [ 81.8458199, 19.5246392 ], [ 81.8470598, 19.5199243 ], [ 81.8486182, 19.5170005 ], [ 81.8573837, 19.5127107 ], [ 81.8560663, 19.5055889 ], [ 81.8572001, 19.4931733 ], [ 81.855167, 19.4871928 ], [ 81.8572116, 19.4736559 ], [ 81.8504205, 19.4734474 ], [ 81.8501147, 19.4807195 ], [ 81.8474706, 19.485787 ], [ 81.8356078, 19.5008485 ], [ 81.8242921, 19.5105847 ], [ 81.8169456, 19.5007578 ], [ 81.8126811, 19.4921924 ], [ 81.8109343, 19.4768481 ], [ 81.8081038, 19.4690193 ], [ 81.796831, 19.4600173 ], [ 81.7914868, 19.453321 ], [ 81.7925998, 19.4464106 ], [ 81.7918219, 19.4308723 ], [ 81.7976157, 19.4119717 ], [ 81.8012685, 19.4085946 ], [ 81.8106709, 19.4074734 ], [ 81.8004602, 19.395947 ], [ 81.8028013, 19.376295 ], [ 81.7967916, 19.3627463 ], [ 81.7942552, 19.352677 ], [ 81.789847, 19.3553445 ], [ 81.7772921, 19.3568876 ], [ 81.7633746, 19.3530718 ], [ 81.7516933, 19.3570528 ], [ 81.741595, 19.3702849 ], [ 81.7285016, 19.3772579 ], [ 81.7215568, 19.3762409 ], [ 81.7106632, 19.369069 ], [ 81.7032858, 19.3583041 ], [ 81.6904059, 19.365342 ], [ 81.6667003, 19.3657827 ], [ 81.6636617, 19.3529911 ], [ 81.654266, 19.3484989 ], [ 81.6424694, 19.3510389 ], [ 81.6337937, 19.3428595 ], [ 81.6354535, 19.330623 ], [ 81.6295435, 19.3196156 ], [ 81.6311181, 19.3133325 ], [ 81.6278824, 19.2899304 ], [ 81.6403259, 19.2800783 ], [ 81.6490718, 19.2676601 ], [ 81.6567813, 19.2650482 ], [ 81.6637021, 19.2662212 ], [ 81.6756687, 19.2649083 ], [ 81.6738634, 19.2560737 ], [ 81.6740517, 19.2495649 ], [ 81.6570872, 19.2483717 ], [ 81.6402124, 19.2414598 ], [ 81.638101, 19.2376012 ], [ 81.6325178, 19.23336 ], [ 81.6201776, 19.2279353 ], [ 81.614409, 19.2353925 ], [ 81.6117167, 19.245 ], [ 81.615093, 19.2497069 ], [ 81.6142509, 19.2531034 ], [ 81.6092279, 19.2606915 ], [ 81.6083101, 19.2730507 ], [ 81.5927497, 19.2752429 ], [ 81.585985, 19.2781597 ], [ 81.5831158, 19.2817861 ], [ 81.5688925, 19.2830561 ], [ 81.5618238, 19.2706368 ], [ 81.5422479, 19.2576879 ], [ 81.5421727, 19.2460254 ], [ 81.5376523, 19.2325672 ], [ 81.5367446, 19.2226565 ], [ 81.5213502, 19.2260137 ], [ 81.5107081, 19.2259532 ], [ 81.506575, 19.2270708 ], [ 81.5029992, 19.2334012 ], [ 81.4999019, 19.2354317 ], [ 81.4888749, 19.2351748 ], [ 81.486204, 19.2376382 ], [ 81.4855595, 19.2409857 ], [ 81.4809055, 19.2437754 ], [ 81.4778287, 19.2440076 ], [ 81.4750388, 19.2468186 ], [ 81.4790045, 19.253271 ], [ 81.4741521, 19.2589289 ], [ 81.4633409, 19.2670424 ], [ 81.4593888, 19.2678392 ], [ 81.4527982, 19.2716635 ], [ 81.445991, 19.2813777 ], [ 81.4371494, 19.284579 ], [ 81.432445, 19.2849193 ], [ 81.4282104, 19.2966601 ], [ 81.4121607, 19.3022516 ], [ 81.4047924, 19.3075197 ], [ 81.3930655, 19.3115142 ], [ 81.3835364, 19.3205172 ], [ 81.3775128, 19.3197088 ], [ 81.3740538, 19.3139904 ], [ 81.3725409, 19.3124772 ], [ 81.3707988, 19.3127598 ], [ 81.3635605, 19.3159495 ], [ 81.362246, 19.3208439 ], [ 81.3558695, 19.3261271 ], [ 81.3592154, 19.3310833 ], [ 81.3618545, 19.3303986 ], [ 81.3639823, 19.3326142 ], [ 81.3693244, 19.3330686 ], [ 81.3697882, 19.3305482 ], [ 81.373237, 19.330795 ], [ 81.3752253, 19.3294368 ], [ 81.3794259, 19.3309875 ], [ 81.383288, 19.3295309 ], [ 81.3841282, 19.3347199 ], [ 81.38622, 19.3360866 ], [ 81.3960403, 19.3355684 ], [ 81.39868, 19.3340296 ], [ 81.3964106, 19.3431116 ], [ 81.3933629, 19.3489499 ], [ 81.390156, 19.3641821 ], [ 81.3822375, 19.3622969 ], [ 81.3784398, 19.3629931 ], [ 81.373474, 19.3686171 ], [ 81.3672696, 19.3719374 ], [ 81.3653828, 19.3745119 ], [ 81.3682927, 19.3773289 ], [ 81.3700126, 19.3825579 ], [ 81.3776016, 19.3872358 ], [ 81.3756024, 19.3961565 ], [ 81.3766022, 19.4029372 ], [ 81.373038, 19.4056527 ], [ 81.3725297, 19.4094663 ], [ 81.3758538, 19.4103457 ], [ 81.3798549, 19.4142391 ], [ 81.3878049, 19.414681 ], [ 81.3915666, 19.4100605 ], [ 81.389099, 19.4008004 ], [ 81.3898191, 19.3964807 ], [ 81.3875675, 19.3919479 ], [ 81.3881571, 19.3831174 ], [ 81.3962406, 19.3758337 ], [ 81.400725, 19.3746726 ], [ 81.4051777, 19.3667652 ], [ 81.4162868, 19.3637268 ], [ 81.4200315, 19.3658628 ], [ 81.4281058, 19.3659605 ], [ 81.4330398, 19.373541 ], [ 81.4365741, 19.3745769 ], [ 81.4403876, 19.3738512 ], [ 81.4449222, 19.3742859 ], [ 81.4492368, 19.3766321 ], [ 81.4573744, 19.3765399 ], [ 81.4609775, 19.3759638 ], [ 81.4613442, 19.3730911 ], [ 81.4635265, 19.3717912 ], [ 81.4668276, 19.3753738 ], [ 81.469168, 19.3744984 ], [ 81.4715631, 19.3771698 ], [ 81.4717084, 19.3896248 ], [ 81.4671602, 19.3938735 ], [ 81.4718976, 19.4018639 ], [ 81.469925, 19.4025143 ], [ 81.4672566, 19.4101725 ], [ 81.4650611, 19.4233371 ], [ 81.4676732, 19.4305183 ], [ 81.4648265, 19.4359974 ], [ 81.4679091, 19.4513797 ], [ 81.4759862, 19.4722369 ], [ 81.4431389, 19.4744657 ], [ 81.4267571, 19.480347 ], [ 81.4243968, 19.4824787 ], [ 81.4215409, 19.4937128 ], [ 81.4265081, 19.5008477 ], [ 81.4334392, 19.5036258 ], [ 81.4476333, 19.5122101 ], [ 81.4491069, 19.5158996 ], [ 81.4490309, 19.5286779 ], [ 81.4429442, 19.5280099 ], [ 81.4397344, 19.5357344 ], [ 81.4438783, 19.5523071 ], [ 81.4469107, 19.5548249 ], [ 81.4484465, 19.5587584 ], [ 81.4611315, 19.569003 ], [ 81.4566307, 19.5816187 ], [ 81.462492, 19.5938749 ], [ 81.4624937, 19.5986619 ], [ 81.4585606, 19.6053837 ], [ 81.4642295, 19.6159618 ], [ 81.4641386, 19.6189584 ], [ 81.4605839, 19.6249573 ], [ 81.4550975, 19.6276035 ], [ 81.4541019, 19.634242 ], [ 81.4548503, 19.6370172 ], [ 81.4636461, 19.6389976 ], [ 81.4736289, 19.6465259 ], [ 81.4889739, 19.6441644 ], [ 81.4916179, 19.6472333 ], [ 81.4905748, 19.6484121 ], [ 81.5090857, 19.6515145 ], [ 81.5167395, 19.6630776 ], [ 81.4983325, 19.6604549 ], [ 81.4769221, 19.6642012 ], [ 81.4744292, 19.6676649 ], [ 81.4762462, 19.6717009 ], [ 81.4684094, 19.6728687 ], [ 81.466141, 19.6715728 ], [ 81.4600823, 19.6755813 ], [ 81.451456, 19.6761898 ], [ 81.446522, 19.679327 ], [ 81.4469065, 19.6873379 ], [ 81.4491652, 19.693634 ], [ 81.4494882, 19.6993218 ], [ 81.451384, 19.7029675 ], [ 81.4374685, 19.7100157 ], [ 81.4368809, 19.7140408 ], [ 81.4307339, 19.7184833 ], [ 81.4192774, 19.7226497 ], [ 81.4159742, 19.7220601 ], [ 81.410143, 19.7234626 ], [ 81.3987935, 19.7279578 ], [ 81.3829822, 19.7242795 ], [ 81.3735215, 19.7300219 ], [ 81.3707695, 19.7427051 ], [ 81.3821031, 19.7548026 ], [ 81.3806551, 19.7614649 ], [ 81.3769648, 19.7674974 ], [ 81.3789966, 19.7715816 ], [ 81.3730629, 19.7776143 ], [ 81.3744855, 19.7817609 ], [ 81.3779889, 19.7856949 ], [ 81.3719408, 19.7932733 ], [ 81.3701738, 19.7975677 ], [ 81.3746134, 19.8046512 ], [ 81.3787684, 19.8150792 ], [ 81.3903949, 19.8273329 ], [ 81.3960833, 19.8361159 ], [ 81.3799407, 19.847616 ], [ 81.3773086, 19.8536089 ], [ 81.3803351, 19.8564056 ], [ 81.3799878, 19.8596582 ], [ 81.3882467, 19.8649472 ], [ 81.3967201, 19.8676502 ], [ 81.4024347, 19.8676694 ], [ 81.4058181, 19.8806798 ], [ 81.4027123, 19.8830867 ], [ 81.3974529, 19.8908282 ], [ 81.3943111, 19.8931475 ], [ 81.385055, 19.8963799 ], [ 81.3747049, 19.9079747 ], [ 81.3629712, 19.9135233 ], [ 81.3488652, 19.913148 ], [ 81.3490905, 19.9218804 ], [ 81.3440477, 19.9309804 ], [ 81.3264931, 19.9389259 ], [ 81.3315404, 19.9484072 ], [ 81.3294559, 19.9593428 ], [ 81.3306274, 19.9648751 ], [ 81.3121714, 19.9719868 ], [ 81.3091401, 19.9750773 ], [ 81.301905, 19.9759828 ], [ 81.3031317, 19.9782434 ], [ 81.3011312, 19.9885447 ], [ 81.3020058, 20.000798 ], [ 81.291894, 20.0100888 ], [ 81.2944798, 20.0122871 ], [ 81.2916529, 20.0213967 ], [ 81.3109151, 20.0221335 ], [ 81.3116026, 20.0253149 ], [ 81.322433, 20.0301436 ], [ 81.3331901, 20.0368244 ], [ 81.3480284, 20.0388156 ], [ 81.3557475, 20.0357472 ], [ 81.3590531, 20.0476643 ], [ 81.3679367, 20.0466718 ], [ 81.3759689, 20.0485112 ], [ 81.3883453, 20.0485407 ], [ 81.3877649, 20.0559763 ], [ 81.3954245, 20.069931 ], [ 81.3976707, 20.0720759 ], [ 81.4010812, 20.0725084 ], [ 81.4050883, 20.0808776 ], [ 81.4042235, 20.0942136 ], [ 81.4005533, 20.1000896 ], [ 81.4031407, 20.1064617 ], [ 81.4013015, 20.1166636 ], [ 81.4082691, 20.1282489 ], [ 81.4118647, 20.1396995 ], [ 81.4190391, 20.1489684 ], [ 81.41942, 20.1571324 ], [ 81.4330378, 20.1536453 ], [ 81.4461749, 20.1468136 ], [ 81.4509173, 20.1466837 ], [ 81.4552609, 20.1486019 ], [ 81.4602469, 20.1546495 ], [ 81.4835504, 20.1628701 ], [ 81.4938697, 20.1644403 ], [ 81.4970991, 20.1619341 ], [ 81.5005005, 20.1646491 ], [ 81.5109711, 20.1655478 ], [ 81.5171315, 20.167468 ], [ 81.5230611, 20.170098 ], [ 81.5303371, 20.1761883 ], [ 81.5466448, 20.1839772 ], [ 81.5504021, 20.189772 ], [ 81.5541769, 20.1912356 ], [ 81.5728078, 20.1947669 ], [ 81.5847585, 20.1955188 ], [ 81.5892934, 20.187965 ], [ 81.5937831, 20.1841645 ], [ 81.5949777, 20.1798284 ], [ 81.6012357, 20.1737463 ], [ 81.6094694, 20.1684789 ] ], [ [ 81.4767815, 19.728005 ], [ 81.47208, 19.7273429 ], [ 81.4714103, 19.7250739 ], [ 81.4690518, 19.72428 ], [ 81.4645813, 19.7241905 ], [ 81.4608092, 19.7168261 ], [ 81.4583082, 19.7042072 ], [ 81.4570874, 19.7043235 ], [ 81.4547631, 19.7010828 ], [ 81.4724802, 19.6935285 ], [ 81.4770631, 19.6903737 ], [ 81.4852781, 19.6880724 ], [ 81.4849011, 19.6939277 ], [ 81.4878642, 19.6979822 ], [ 81.487448, 19.7023617 ], [ 81.483237, 19.7069618 ], [ 81.4824922, 19.7105376 ], [ 81.4798581, 19.7141646 ], [ 81.4788339, 19.7195751 ], [ 81.4794727, 19.7271006 ], [ 81.4767815, 19.728005 ] ] ] } }
]
}
