{
"type": "FeatureCollection",
"name": "2218",
"crs": { "type": "name", "properties": { "name": "urn:ogc:def:crs:OGC:1.3:CRS84" } },
"features": [
{ "type": "Feature", "properties": { "code": "2218", "name": "Narayanpur", "type": "district" }, "geometry": { "type": "MultiPolygon", "coordinates": [ [ [ [ 81.4794727, 19.7271006 ], [ 81.4798581, 19.7141646 ], [ 81.4824922, 19.7105376 ], [ 81.483237, 19.7069618 ], [ 81.487448, 19.7023617 ], [ 81.4878642, 19.6979822 ], [ 81.4849011, 19.6939277 ], [ 81.4852781, 19.6880724 ], [ 81.4770631, 19.6903737 ], [ 81.4724802, 19.6935285 ], [ 81.4547631, 19.7010828 ], [ 81.4570874, 19.7043235 ], [ 81.4583082, 19.7042072 ], [ 81.4608092, 19.7168261 ], [ 81.4645813, 19.7241905 ], [ 81.4690518, 19.72428 ], [ 81.4714103, 19.7250739 ], [ 81.47208, 19.7273429 ], [ 81.4767815, 19.728005 ], [ 81.4794727, 19.7271006 ] ] ], [ [ [ 80.9197344, 19.8924705 ], [ 80.9232424, 19.8874381 ], [ 80.9376373, 19.8739379 ], [ 80.9437177, 19.8583396 ], [ 80.9452453, 19.8367901 ], [ 80.9495573, 19.8306005 ], [ 80.9521333, 19.8278035 ], [ 80.9577265, 19.8267441 ], [ 80.9603291, 19.8204467 ], [ 80.9666686, 19.8146396 ], [ 80.9699424, 19.8144753 ], [ 80.9724039, 19.8127982 ], [ 80.976548, 19.8153343 ], [ 80.9817067, 19.8148389 ], [ 80.9901126, 19.8169972 ], [ 81.0054622, 19.8151943 ], [ 81.0090719, 19.8128662 ], [ 81.0142544, 19.8063066 ], [ 81.0172383, 19.7903194 ], [ 81.0166971, 19.7862676 ], [ 81.0186289, 19.7798777 ], [ 81.0181351, 19.7763589 ], [ 81.0252278, 19.7645563 ], [ 81.0317943, 19.7616647 ], [ 81.0406012, 19.7620078 ], [ 81.045966, 19.7573264 ], [ 81.0506561, 19.7561495 ], [ 81.0586158, 19.7508094 ], [ 81.0588784, 19.7467888 ], [ 81.0852512, 19.7063004 ], [ 81.1866153, 19.7033808 ], [ 81.2051168, 19.7167609 ], [ 81.1918294, 19.7294629 ], [ 81.1813587, 19.7275876 ], [ 81.1597153, 19.7495955 ], [ 81.1577392, 19.7547388 ], [ 81.1589245, 19.7645399 ], [ 81.1687383, 19.7817509 ], [ 81.1707279, 19.781493 ], [ 81.1735624, 19.7979284 ], [ 81.1776221, 19.8083698 ], [ 81.1797752, 19.8106049 ], [ 81.1835786, 19.8104456 ], [ 81.194587, 19.8073793 ], [ 81.2038284, 19.8025156 ], [ 81.2166819, 19.7980469 ], [ 81.223449, 19.7911643 ], [ 81.2256557, 19.7869897 ], [ 81.2496844, 19.7666334 ], [ 81.27073, 19.7672253 ], [ 81.2888343, 19.7883775 ], [ 81.3089468, 19.779025 ], [ 81.3175666, 19.7777215 ], [ 81.355644, 19.7745127 ], [ 81.3584943, 19.774941 ], [ 81.3598663, 19.7782485 ], [ 81.3627624, 19.7789984 ], [ 81.3733061, 19.7790815 ], [ 81.3733799, 19.7767343 ], [ 81.3789966, 19.7715816 ], [ 81.3769648, 19.7674974 ], [ 81.3806551, 19.7614649 ], [ 81.3821031, 19.7548026 ], [ 81.3707695, 19.7427051 ], [ 81.3738495, 19.7295367 ], [ 81.3829822, 19.7242795 ], [ 81.3987935, 19.7279578 ], [ 81.410143, 19.7234626 ], [ 81.4159742, 19.7220601 ], [ 81.4192774, 19.7226497 ], [ 81.4307339, 19.7184833 ], [ 81.4368809, 19.7140408 ], [ 81.4374685, 19.7100157 ], [ 81.451384, 19.7029675 ], [ 81.4494882, 19.6993218 ], [ 81.4491652, 19.693634 ], [ 81.4469065, 19.6873379 ], [ 81.446522, 19.679327 ], [ 81.451456, 19.6761898 ], [ 81.4600823, 19.6755813 ], [ 81.466141, 19.6715728 ], [ 81.4684094, 19.6728687 ], [ 81.4762462, 19.6717009 ], [ 81.4744292, 19.6676649 ], [ 81.4769221, 19.6642012 ], [ 81.4983325, 19.6604549 ], [ 81.5167395, 19.6630776 ], [ 81.5090857, 19.6515145 ], [ 81.4905748, 19.6484121 ], [ 81.4916179, 19.6472333 ], [ 81.4889739, 19.6441644 ], [ 81.4736289, 19.6465259 ], [ 81.4636461, 19.6389976 ], [ 81.4548503, 19.6370172 ], [ 81.4541019, 19.634242 ], [ 81.4550975, 19.6276035 ], [ 81.4605839, 19.6249573 ], [ 81.4641386, 19.6189584 ], [ 81.4642295, 19.6159618 ], [ 81.4585606, 19.6053837 ], [ 81.4624937, 19.5986619 ], [ 81.462492, 19.5938749 ], [ 81.4566307, 19.5816187 ], [ 81.4611315, 19.569003 ], [ 81.4484465, 19.5587584 ], [ 81.4469107, 19.5548249 ], [ 81.4438783, 19.5523071 ], [ 81.4397344, 19.5357344 ], [ 81.4429442, 19.5280099 ], [ 81.4490309, 19.5286779 ], [ 81.4491069, 19.5158996 ], [ 81.4476333, 19.5122101 ], [ 81.4334392, 19.5036258 ], [ 81.4265081, 19.5008477 ], [ 81.4215409, 19.4937128 ], [ 81.4243968, 19.4824787 ], [ 81.4267571, 19.480347 ], [ 81.4431389, 19.4744657 ], [ 81.4759862, 19.4722369 ], [ 81.4679091, 19.4513797 ], [ 81.4648265, 19.4359974 ], [ 81.4676732, 19.4305183 ], [ 81.4650611, 19.4233371 ], [ 81.4672566, 19.4101725 ], [ 81.469925, 19.4025143 ], [ 81.4718976, 19.4018639 ], [ 81.4671602, 19.3938735 ], [ 81.4718552, 19.3889857 ], [ 81.4715631, 19.3771698 ], [ 81.469168, 19.3744984 ], [ 81.4668276, 19.3753738 ], [ 81.4635265, 19.3717912 ], [ 81.4613442, 19.3730911 ], [ 81.4609775, 19.3759638 ], [ 81.4492368, 19.3766321 ], [ 81.4449222, 19.3742859 ], [ 81.4379156, 19.3747763 ], [ 81.4330398, 19.373541 ], [ 81.4281058, 19.3659605 ], [ 81.4200315, 19.3658628 ], [ 81.4156556, 19.363677 ], [ 81.4051777, 19.3667652 ], [ 81.400725, 19.3746726 ], [ 81.3962406, 19.3758337 ], [ 81.3885515, 19.3820434 ], [ 81.3875675, 19.3919479 ], [ 81.3898191, 19.3964807 ], [ 81.389099, 19.4008004 ], [ 81.3919611, 19.408924 ], [ 81.3878049, 19.414681 ], [ 81.3810254, 19.4146762 ], [ 81.3758538, 19.4103457 ], [ 81.3725297, 19.4094663 ], [ 81.373038, 19.4056527 ], [ 81.3766022, 19.4029372 ], [ 81.3756024, 19.3961565 ], [ 81.3776016, 19.3872358 ], [ 81.3700126, 19.3825579 ], [ 81.3682927, 19.3773289 ], [ 81.3653828, 19.3745119 ], [ 81.3672696, 19.3719374 ], [ 81.373474, 19.3686171 ], [ 81.3784398, 19.3629931 ], [ 81.3822375, 19.3622969 ], [ 81.390156, 19.3641821 ], [ 81.3933629, 19.3489499 ], [ 81.3964106, 19.3431116 ], [ 81.39868, 19.3340296 ], [ 81.3960403, 19.3355684 ], [ 81.38622, 19.3360866 ], [ 81.3841282, 19.3347199 ], [ 81.383288, 19.3295309 ], [ 81.3794259, 19.3309875 ], [ 81.3752253, 19.3294368 ], [ 81.373237, 19.330795 ], [ 81.3697882, 19.3305482 ], [ 81.3693244, 19.3330686 ], [ 81.3639823, 19.3326142 ], [ 81.3618545, 19.3303986 ], [ 81.3592154, 19.3310833 ], [ 81.3559819, 19.3266815 ], [ 81.3581255, 19.3233197 ], [ 81.3539315, 19.3208631 ], [ 81.3485103, 19.3212681 ], [ 81.3428675, 19.3188662 ], [ 81.3374474, 19.3257867 ], [ 81.3293789, 19.3257993 ], [ 81.3267844, 19.3287901 ], [ 81.3217363, 19.3301203 ], [ 81.3187359, 19.3332139 ], [ 81.3166537, 19.3306952 ], [ 81.3095326, 19.3348815 ], [ 81.3051477, 19.3353444 ], [ 81.3027499, 19.3342493 ], [ 81.2974811, 19.3363077 ], [ 81.2857451, 19.3350381 ], [ 81.2820244, 19.3316236 ], [ 81.279255, 19.3317622 ], [ 81.2768295, 19.3297012 ], [ 81.2742983, 19.3294288 ], [ 81.2716327, 19.3234831 ], [ 81.2643802, 19.3254527 ], [ 81.2624641, 19.3233648 ], [ 81.259557, 19.3232184 ], [ 81.2559813, 19.3267574 ], [ 81.2539736, 19.3264715 ], [ 81.2532899, 19.3244022 ], [ 81.2489459, 19.3242999 ], [ 81.2473641, 19.3219156 ], [ 81.2455927, 19.3227911 ], [ 81.243077, 19.3215585 ], [ 81.2410846, 19.3239066 ], [ 81.2377867, 19.3229404 ], [ 81.2366713, 19.3205696 ], [ 81.2313301, 19.3206968 ], [ 81.2313335, 19.3135023 ], [ 81.2233911, 19.2888286 ], [ 81.194505, 19.2883902 ], [ 81.190355, 19.2771243 ], [ 81.1850815, 19.274149 ], [ 81.1762629, 19.2725163 ], [ 81.1744516, 19.2734606 ], [ 81.1704317, 19.2710742 ], [ 81.1676925, 19.2713441 ], [ 81.1652499, 19.2732788 ], [ 81.1612344, 19.2825256 ], [ 81.161057, 19.2953477 ], [ 81.1538933, 19.2987742 ], [ 81.1521077, 19.2969848 ], [ 81.1474042, 19.298769 ], [ 81.1411596, 19.29891 ], [ 81.1414676, 19.2778073 ], [ 81.1456016, 19.2597067 ], [ 81.1423754, 19.2601359 ], [ 81.1415966, 19.2575144 ], [ 81.1380676, 19.2562218 ], [ 81.1292822, 19.2567787 ], [ 81.1279629, 19.2590748 ], [ 81.1190784, 19.2617316 ], [ 81.1157532, 19.2642794 ], [ 81.1128167, 19.2727892 ], [ 81.1095494, 19.275281 ], [ 81.104733, 19.2747784 ], [ 81.097054, 19.2773444 ], [ 81.0896021, 19.2751711 ], [ 81.0845513, 19.2694107 ], [ 81.0806487, 19.2704023 ], [ 81.0798086, 19.2736806 ], [ 81.0766483, 19.2752221 ], [ 81.0733891, 19.2738411 ], [ 81.070409, 19.2701354 ], [ 81.0697365, 19.2664931 ], [ 81.071728, 19.2594112 ], [ 81.0704458, 19.2567509 ], [ 81.0736148, 19.2473073 ], [ 81.0732497, 19.2438834 ], [ 81.075539, 19.2376506 ], [ 81.0789349, 19.2363054 ], [ 81.0764154, 19.2330616 ], [ 81.0719126, 19.2314342 ], [ 81.0664057, 19.2317984 ], [ 81.0624888, 19.2278403 ], [ 81.0557169, 19.2287231 ], [ 81.0502678, 19.2278267 ], [ 81.0431292, 19.2295807 ], [ 81.0355403, 19.2285519 ], [ 81.0351013, 19.231447 ], [ 81.032885, 19.2319021 ], [ 81.0327311, 19.2351137 ], [ 81.0301011, 19.2354826 ], [ 81.0285826, 19.2379888 ], [ 81.0258198, 19.2377073 ], [ 81.0258143, 19.2391256 ], [ 81.0245776, 19.2394141 ], [ 81.016935, 19.232702 ], [ 81.0126204, 19.2348766 ], [ 81.0101291, 19.2341343 ], [ 81.0043026, 19.2355624 ], [ 80.9995637, 19.2324381 ], [ 80.9984977, 19.2335168 ], [ 80.9930391, 19.233843 ], [ 80.9643796, 19.2340322 ], [ 80.9552241, 19.2362707 ], [ 80.950747, 19.2515543 ], [ 80.9567681, 19.2918332 ], [ 80.9523125, 19.3103869 ], [ 80.9409188, 19.3213569 ], [ 80.9272214, 19.3312509 ], [ 80.9066379, 19.341186 ], [ 80.8757393, 19.353359 ], [ 80.8528527, 19.3638999 ], [ 80.8490536, 19.3697379 ], [ 80.8418513, 19.3719149 ], [ 80.8283933, 19.3800784 ], [ 80.8193823, 19.3820287 ], [ 80.8170594, 19.3847801 ], [ 80.8166481, 19.3971513 ], [ 80.8127609, 19.4053294 ], [ 80.8044731, 19.411953 ], [ 80.8042898, 19.4194606 ], [ 80.802832, 19.4215826 ], [ 80.7993234, 19.4227203 ], [ 80.7955968, 19.4305491 ], [ 80.7958498, 19.4322648 ], [ 80.8071841, 19.4335515 ], [ 80.8125271, 19.4327561 ], [ 80.8230612, 19.4398451 ], [ 80.8279536, 19.4401411 ], [ 80.8301267, 19.4431873 ], [ 80.8424112, 19.4468885 ], [ 80.8454442, 19.4468905 ], [ 80.8475941, 19.445392 ], [ 80.850489, 19.4466902 ], [ 80.8534538, 19.4447466 ], [ 80.8564828, 19.4460444 ], [ 80.8645588, 19.4444623 ], [ 80.8753694, 19.4459848 ], [ 80.8887675, 19.4605219 ], [ 80.894879, 19.4696443 ], [ 80.8976843, 19.4804487 ], [ 80.8950151, 19.5007885 ], [ 80.8929402, 19.5022997 ], [ 80.8942777, 19.5036862 ], [ 80.8932103, 19.5072692 ], [ 80.8947126, 19.5096214 ], [ 80.8949649, 19.5196248 ], [ 80.8912036, 19.5205143 ], [ 80.8836868, 19.5261709 ], [ 80.873139, 19.5187007 ], [ 80.8685106, 19.5217724 ], [ 80.864483, 19.5200446 ], [ 80.8562074, 19.5230028 ], [ 80.8534297, 19.5267831 ], [ 80.849898, 19.5289057 ], [ 80.8496749, 19.5344977 ], [ 80.8436967, 19.5384537 ], [ 80.8416622, 19.5457194 ], [ 80.8394006, 19.5492105 ], [ 80.8406501, 19.5542524 ], [ 80.8394597, 19.5594121 ], [ 80.8347775, 19.5667436 ], [ 80.8239595, 19.5667214 ], [ 80.8161538, 19.5711969 ], [ 80.8107861, 19.5688969 ], [ 80.806328, 19.5689563 ], [ 80.8029219, 19.5655724 ], [ 80.7969955, 19.5624843 ], [ 80.7894424, 19.5604177 ], [ 80.7862726, 19.5607677 ], [ 80.7811338, 19.5637469 ], [ 80.7751089, 19.5625119 ], [ 80.7670331, 19.5749137 ], [ 80.7694283, 19.5866697 ], [ 80.7653221, 19.5903853 ], [ 80.7599952, 19.591647 ], [ 80.7575215, 19.5966735 ], [ 80.7458784, 19.6015384 ], [ 80.7408459, 19.6062309 ], [ 80.7330782, 19.6063032 ], [ 80.7303383, 19.6101795 ], [ 80.7146477, 19.6167048 ], [ 80.7056734, 19.6139815 ], [ 80.688468, 19.6131711 ], [ 80.6702714, 19.6093192 ], [ 80.6653321, 19.6118792 ], [ 80.6651082, 19.6160649 ], [ 80.6626174, 19.6224818 ], [ 80.6663712, 19.6379859 ], [ 80.6660992, 19.6442603 ], [ 80.667871, 19.6495862 ], [ 80.667345, 19.6577117 ], [ 80.6742501, 19.6844131 ], [ 80.6728821, 19.6989509 ], [ 80.6709131, 19.7021534 ], [ 80.6750456, 19.7046813 ], [ 80.681729, 19.7062199 ], [ 80.6911532, 19.7029489 ], [ 80.6999737, 19.710924 ], [ 80.7098289, 19.7063654 ], [ 80.7118501, 19.7079319 ], [ 80.7123041, 19.7111311 ], [ 80.7161292, 19.7112645 ], [ 80.7161426, 19.7178006 ], [ 80.7124012, 19.7373394 ], [ 80.705547, 19.7532672 ], [ 80.7066798, 19.7582879 ], [ 80.7032567, 19.7608953 ], [ 80.7042843, 19.7645039 ], [ 80.7025954, 19.7656196 ], [ 80.7055103, 19.7705602 ], [ 80.7050547, 19.7764616 ], [ 80.7106301, 19.7794817 ], [ 80.7134178, 19.7856154 ], [ 80.7183966, 19.7892736 ], [ 80.7212875, 19.7896001 ], [ 80.7224517, 19.7912394 ], [ 80.7238529, 19.7901091 ], [ 80.724511, 19.7912432 ], [ 80.7283445, 19.7913204 ], [ 80.7363372, 19.7964862 ], [ 80.7401677, 19.8002037 ], [ 80.7446409, 19.8077015 ], [ 80.7484202, 19.8051642 ], [ 80.7538234, 19.8071956 ], [ 80.7576151, 19.8102559 ], [ 80.7658705, 19.8112503 ], [ 80.7667976, 19.8094306 ], [ 80.7578262, 19.7955362 ], [ 80.757481, 19.7912858 ], [ 80.7649529, 19.7922616 ], [ 80.7778144, 19.7896494 ], [ 80.7832292, 19.7915854 ], [ 80.7856893, 19.7955387 ], [ 80.7866411, 19.8002185 ], [ 80.7967498, 19.8068491 ], [ 80.7977077, 19.809424 ], [ 80.8106258, 19.8108293 ], [ 80.8118755, 19.8123699 ], [ 80.8099884, 19.8173466 ], [ 80.8118677, 19.8201431 ], [ 80.8092926, 19.8266326 ], [ 80.8028001, 19.8299905 ], [ 80.7891834, 19.8292844 ], [ 80.7813005, 19.8341179 ], [ 80.776975, 19.8437451 ], [ 80.7783045, 19.8476166 ], [ 80.777464, 19.848122 ], [ 80.7753229, 19.8445797 ], [ 80.7714718, 19.843069 ], [ 80.7679382, 19.8379811 ], [ 80.7615647, 19.8331354 ], [ 80.7593688, 19.826919 ], [ 80.7617189, 19.8242738 ], [ 80.7529158, 19.8209211 ], [ 80.7474957, 19.8162122 ], [ 80.7270697, 19.8203977 ], [ 80.7263065, 19.8241358 ], [ 80.7232734, 19.8282161 ], [ 80.7188602, 19.8310008 ], [ 80.7245383, 19.8359253 ], [ 80.7214277, 19.8461031 ], [ 80.7226558, 19.8482885 ], [ 80.7359071, 19.8563598 ], [ 80.7484198, 19.8530424 ], [ 80.7505929, 19.8552341 ], [ 80.751863, 19.861066 ], [ 80.7519709, 19.8697471 ], [ 80.7592137, 19.8756371 ], [ 80.7655196, 19.8908802 ], [ 80.7798669, 19.8923021 ], [ 80.7915731, 19.8951218 ], [ 80.8092495, 19.907306 ], [ 80.819419, 19.9122913 ], [ 80.8290096, 19.9230481 ], [ 80.8428639, 19.9473279 ], [ 80.8646973, 19.9409666 ], [ 80.8883825, 19.9385499 ], [ 80.8995712, 19.9269274 ], [ 80.910267, 19.9181452 ], [ 80.918434, 19.9035638 ], [ 80.9197344, 19.8924705 ] ] ] ] } }
]
}
