{
"type": "FeatureCollection",
"name": "2222",
"crs": { "type": "name", "properties": { "name": "urn:ogc:def:crs:OGC:1.3:CRS84" } },
"features": [
{ "type": "Feature", "properties": { "code": "2222", "name": "Balod", "type": "district" }, "geometry": { "type": "Polygon", "coordinates": [ [ [ 81.1591536, 21.078573 ], [ 81.1579634, 21.0722767 ], [ 81.1586777, 21.0696964 ], [ 81.1775853, 21.069298 ], [ 81.1795724, 21.0710912 ], [ 81.1914044, 21.0715798 ], [ 81.1924932, 21.0588032 ], [ 81.1963224, 21.0576333 ], [ 81.1917617, 21.0393489 ], [ 81.2003744, 21.0369316 ], [ 81.2067286, 21.0367439 ], [ 81.2087007, 21.0281582 ], [ 81.2193981, 21.0284618 ], [ 81.2242633, 21.0468981 ], [ 81.2351022, 21.0467995 ], [ 81.2394546, 21.0453672 ], [ 81.2403873, 21.0420985 ], [ 81.265136, 21.0414607 ], [ 81.2707199, 21.0370128 ], [ 81.2732983, 21.040622 ], [ 81.2723015, 21.0492889 ], [ 81.2809604, 21.0498377 ], [ 81.2837731, 21.0489351 ], [ 81.2855502, 21.0519779 ], [ 81.2897399, 21.0541224 ], [ 81.2902348, 21.0559157 ], [ 81.2939051, 21.0569881 ], [ 81.3011868, 21.0621959 ], [ 81.3019824, 21.0442636 ], [ 81.3043935, 21.0405079 ], [ 81.3078211, 21.0410521 ], [ 81.3290404, 21.0365607 ], [ 81.3398864, 21.0374963 ], [ 81.348248, 21.0415413 ], [ 81.3512638, 21.0404296 ], [ 81.3536778, 21.0371341 ], [ 81.3579353, 21.0367613 ], [ 81.3606761, 21.0392688 ], [ 81.3655793, 21.0380044 ], [ 81.3687009, 21.0392266 ], [ 81.372123, 21.0440452 ], [ 81.3697377, 21.0438245 ], [ 81.3716773, 21.0543929 ], [ 81.3837773, 21.0568152 ], [ 81.3890207, 21.05701 ], [ 81.3902218, 21.0559879 ], [ 81.3891746, 21.0431713 ], [ 81.3914844, 21.0387301 ], [ 81.3892293, 21.0277675 ], [ 81.3909753, 21.0249623 ], [ 81.3922512, 21.0249975 ], [ 81.3924759, 21.0211735 ], [ 81.394222, 21.0212398 ], [ 81.394991, 21.0193542 ], [ 81.3940719, 21.0158622 ], [ 81.4002449, 21.0157027 ], [ 81.4036955, 21.0087227 ], [ 81.4075227, 21.0087913 ], [ 81.4120999, 21.0055612 ], [ 81.4200739, 21.0063522 ], [ 81.4198516, 20.9986428 ], [ 81.4215815, 20.9934425 ], [ 81.4208285, 20.9875347 ], [ 81.4134747, 20.9849976 ], [ 81.4060158, 20.9842625 ], [ 81.4040784, 20.9822108 ], [ 81.406878, 20.9778178 ], [ 81.4086956, 20.9771745 ], [ 81.4101667, 20.9723077 ], [ 81.4207594, 20.9693334 ], [ 81.4206179, 20.9676732 ], [ 81.4254671, 20.9667519 ], [ 81.4254017, 20.9637566 ], [ 81.4279964, 20.9633996 ], [ 81.4215769, 20.9504043 ], [ 81.4169736, 20.950437 ], [ 81.4170959, 20.9486581 ], [ 81.41508, 20.9485609 ], [ 81.414992, 20.9469501 ], [ 81.4048496, 20.9401026 ], [ 81.4060915, 20.9355552 ], [ 81.4099459, 20.9360671 ], [ 81.4099429, 20.9341232 ], [ 81.4051594, 20.9313603 ], [ 81.4063305, 20.9268136 ], [ 81.4052566, 20.9188821 ], [ 81.4066401, 20.9177062 ], [ 81.4067833, 20.9132155 ], [ 81.4081295, 20.9131898 ], [ 81.4091033, 20.8995609 ], [ 81.4142097, 20.8990293 ], [ 81.4130227, 20.8900212 ], [ 81.4114539, 20.8883844 ], [ 81.4084894, 20.8881229 ], [ 81.4038068, 20.885418 ], [ 81.3999487, 20.8854723 ], [ 81.3982183, 20.8839189 ], [ 81.3996133, 20.8769679 ], [ 81.3963245, 20.8800567 ], [ 81.3936078, 20.8793548 ], [ 81.3913696, 20.8807873 ], [ 81.3912183, 20.8769996 ], [ 81.3880308, 20.8685759 ], [ 81.3976549, 20.8587243 ], [ 81.4058088, 20.8583367 ], [ 81.4072771, 20.8542298 ], [ 81.4158664, 20.8525152 ], [ 81.4164851, 20.8493935 ], [ 81.4205031, 20.8499065 ], [ 81.4230613, 20.8526806 ], [ 81.4251606, 20.8517773 ], [ 81.4290602, 20.8558018 ], [ 81.435069, 20.8513322 ], [ 81.4421094, 20.8515823 ], [ 81.4473114, 20.85438 ], [ 81.4514218, 20.8490981 ], [ 81.4539696, 20.8501788 ], [ 81.4584685, 20.855213 ], [ 81.4641238, 20.8535712 ], [ 81.4664466, 20.854196 ], [ 81.4641823, 20.8576572 ], [ 81.4653681, 20.8622746 ], [ 81.4601965, 20.86573 ], [ 81.4599679, 20.8688708 ], [ 81.4720844, 20.8706668 ], [ 81.473997, 20.8683334 ], [ 81.4744976, 20.8637935 ], [ 81.4733458, 20.8603466 ], [ 81.4753247, 20.8562996 ], [ 81.4782953, 20.8560617 ], [ 81.4842779, 20.851646 ], [ 81.4890793, 20.8519574 ], [ 81.4901616, 20.8498984 ], [ 81.4951093, 20.8491746 ], [ 81.4960929, 20.8471878 ], [ 81.498271, 20.8470211 ], [ 81.4978024, 20.8418523 ], [ 81.494836, 20.8421631 ], [ 81.4929558, 20.8386561 ], [ 81.4933012, 20.8334024 ], [ 81.4973074, 20.8332349 ], [ 81.4993733, 20.8302366 ], [ 81.5153792, 20.8295253 ], [ 81.5170333, 20.8277601 ], [ 81.5158679, 20.8197477 ], [ 81.5132548, 20.81535 ], [ 81.5147712, 20.8115633 ], [ 81.5135248, 20.8102283 ], [ 81.5107778, 20.798113 ], [ 81.504716, 20.7974236 ], [ 81.5014612, 20.7922016 ], [ 81.4948926, 20.7899698 ], [ 81.4942363, 20.782073 ], [ 81.4909013, 20.7818397 ], [ 81.4888598, 20.7807334 ], [ 81.4891484, 20.779735 ], [ 81.4785621, 20.7760636 ], [ 81.4792234, 20.7682992 ], [ 81.4815575, 20.7680935 ], [ 81.4834801, 20.7643811 ], [ 81.4859022, 20.764524 ], [ 81.4862447, 20.7608921 ], [ 81.4878882, 20.7586676 ], [ 81.484749, 20.7530718 ], [ 81.485971, 20.7518475 ], [ 81.4845422, 20.7492377 ], [ 81.487693, 20.7454606 ], [ 81.482881, 20.7396517 ], [ 81.4781793, 20.727308 ], [ 81.4792774, 20.7261449 ], [ 81.4840361, 20.7256419 ], [ 81.4846125, 20.7211928 ], [ 81.4868506, 20.7209756 ], [ 81.4893848, 20.7177272 ], [ 81.4891983, 20.7152861 ], [ 81.4910041, 20.7142289 ], [ 81.4947242, 20.7135999 ], [ 81.4973451, 20.7151784 ], [ 81.4974999, 20.7166871 ], [ 81.4995453, 20.7170175 ], [ 81.4991961, 20.7182781 ], [ 81.5021118, 20.7189357 ], [ 81.5033431, 20.7176684 ], [ 81.5089457, 20.7172798 ], [ 81.5161039, 20.7137548 ], [ 81.5142505, 20.7058714 ], [ 81.5149805, 20.7021611 ], [ 81.5120495, 20.6989957 ], [ 81.5120146, 20.6956661 ], [ 81.5091322, 20.693395 ], [ 81.5081829, 20.6897759 ], [ 81.5098834, 20.6857587 ], [ 81.5113379, 20.6856212 ], [ 81.513017, 20.6782479 ], [ 81.5132409, 20.6743865 ], [ 81.5111825, 20.6726581 ], [ 81.5104469, 20.6631949 ], [ 81.5055743, 20.6639416 ], [ 81.5027527, 20.6634627 ], [ 81.5027846, 20.6623039 ], [ 81.4944691, 20.6620603 ], [ 81.4923881, 20.6548722 ], [ 81.4969411, 20.6519202 ], [ 81.4970135, 20.6499937 ], [ 81.4984626, 20.6492613 ], [ 81.500969, 20.6439027 ], [ 81.5004929, 20.6365037 ], [ 81.4910832, 20.6332485 ], [ 81.4885533, 20.627046 ], [ 81.4916074, 20.624563 ], [ 81.4894269, 20.6222616 ], [ 81.4918721, 20.6187074 ], [ 81.4914096, 20.6171164 ], [ 81.4973435, 20.6106833 ], [ 81.4987885, 20.610583 ], [ 81.4996225, 20.6122161 ], [ 81.5000204, 20.6178416 ], [ 81.5091151, 20.6205883 ], [ 81.5108458, 20.6237068 ], [ 81.5137856, 20.6233589 ], [ 81.5128946, 20.6135035 ], [ 81.509617, 20.6107901 ], [ 81.5018849, 20.6080428 ], [ 81.4980802, 20.6047092 ], [ 81.4916487, 20.601951 ], [ 81.4914414, 20.5999782 ], [ 81.4907154, 20.6025231 ], [ 81.4810686, 20.601615 ], [ 81.4730108, 20.5993749 ], [ 81.4714023, 20.5950229 ], [ 81.490477, 20.5913334 ], [ 81.4922438, 20.5914688 ], [ 81.4928157, 20.5971398 ], [ 81.4980084, 20.5934873 ], [ 81.5084081, 20.5921899 ], [ 81.5103563, 20.5927472 ], [ 81.5106017, 20.5954878 ], [ 81.5119007, 20.5959551 ], [ 81.5157106, 20.5894272 ], [ 81.4952979, 20.5878339 ], [ 81.4887663, 20.5822143 ], [ 81.4810185, 20.5887656 ], [ 81.4746713, 20.5909843 ], [ 81.4694436, 20.5907207 ], [ 81.470496, 20.588265 ], [ 81.464254, 20.5844585 ], [ 81.4568861, 20.5881365 ], [ 81.4494391, 20.5865577 ], [ 81.4472728, 20.5852782 ], [ 81.4529929, 20.5756406 ], [ 81.4551075, 20.5669183 ], [ 81.4453635, 20.5674964 ], [ 81.4281937, 20.562401 ], [ 81.4259815, 20.5599216 ], [ 81.4236778, 20.5525707 ], [ 81.4105827, 20.5545927 ], [ 81.393678, 20.5458126 ], [ 81.3865921, 20.5333931 ], [ 81.3756833, 20.5370555 ], [ 81.3682512, 20.5416467 ], [ 81.3649784, 20.5480789 ], [ 81.3573894, 20.5551843 ], [ 81.3495003, 20.5562548 ], [ 81.3391175, 20.5537253 ], [ 81.3357738, 20.558518 ], [ 81.3243213, 20.5627966 ], [ 81.3106684, 20.5491632 ], [ 81.306798, 20.5425793 ], [ 81.3050988, 20.530282 ], [ 81.3025007, 20.5291232 ], [ 81.291124, 20.5164427 ], [ 81.2821362, 20.5168323 ], [ 81.2747063, 20.5147533 ], [ 81.2613643, 20.5069856 ], [ 81.2530532, 20.4987958 ], [ 81.2528294, 20.4979943 ], [ 81.2574881, 20.4973671 ], [ 81.2605665, 20.4892669 ], [ 81.259074, 20.4853773 ], [ 81.2606521, 20.4837074 ], [ 81.2634415, 20.4837904 ], [ 81.2638606, 20.4807648 ], [ 81.2634034, 20.4767721 ], [ 81.2594954, 20.4730526 ], [ 81.2577559, 20.4665118 ], [ 81.2510229, 20.4602655 ], [ 81.2492213, 20.4559296 ], [ 81.251996, 20.4539027 ], [ 81.2543683, 20.4473331 ], [ 81.2438143, 20.4401782 ], [ 81.2372655, 20.4449947 ], [ 81.2349062, 20.4435931 ], [ 81.2360184, 20.4365341 ], [ 81.2336638, 20.4302894 ], [ 81.227115, 20.4313615 ], [ 81.2262128, 20.4328023 ], [ 81.2266304, 20.4246827 ], [ 81.2219014, 20.4186916 ], [ 81.2170929, 20.4171271 ], [ 81.2025427, 20.415969 ], [ 81.1967295, 20.4115341 ], [ 81.1886215, 20.4116457 ], [ 81.1765953, 20.4061984 ], [ 81.1731174, 20.4061362 ], [ 81.1691481, 20.3962283 ], [ 81.1608739, 20.388907 ], [ 81.1580301, 20.384276 ], [ 81.1539608, 20.3824611 ], [ 81.1492038, 20.3769835 ], [ 81.1308653, 20.3898636 ], [ 81.12671, 20.3908415 ], [ 81.1263005, 20.3924132 ], [ 81.11305, 20.3987891 ], [ 81.1086207, 20.3989116 ], [ 81.1044719, 20.4043099 ], [ 81.0955914, 20.4069694 ], [ 81.0909209, 20.4123492 ], [ 81.0771281, 20.4185823 ], [ 81.0526602, 20.4204009 ], [ 81.0337292, 20.4274243 ], [ 81.0239479, 20.4416482 ], [ 81.013696, 20.4470768 ], [ 80.9998276, 20.451195 ], [ 80.9918785, 20.4592906 ], [ 80.9889626, 20.4670928 ], [ 80.9846656, 20.4719539 ], [ 80.9814599, 20.4816276 ], [ 80.9846077, 20.4868767 ], [ 80.9833273, 20.5007415 ], [ 80.9797512, 20.5018273 ], [ 80.9793236, 20.5074143 ], [ 80.9767117, 20.5082695 ], [ 80.9675717, 20.5105238 ], [ 80.9608204, 20.5072077 ], [ 80.9580832, 20.5247865 ], [ 80.9555297, 20.5281253 ], [ 80.9541939, 20.5408123 ], [ 80.9657919, 20.5405536 ], [ 80.9683677, 20.5423949 ], [ 80.9751564, 20.5415375 ], [ 80.9897242, 20.5438995 ], [ 80.9846664, 20.5514811 ], [ 80.9851941, 20.558463 ], [ 80.9888751, 20.5627104 ], [ 80.9885767, 20.5675882 ], [ 80.9944579, 20.5640886 ], [ 81.0065455, 20.5738097 ], [ 81.0066311, 20.5772995 ], [ 81.0035734, 20.5844996 ], [ 81.0040564, 20.592764 ], [ 81.0065813, 20.5982962 ], [ 81.0014471, 20.5993044 ], [ 80.9992165, 20.6024974 ], [ 80.9927571, 20.6054086 ], [ 80.9899943, 20.6098189 ], [ 80.9917513, 20.611552 ], [ 80.9838935, 20.6107488 ], [ 80.9788297, 20.6131094 ], [ 80.9774943, 20.6175271 ], [ 80.9755719, 20.6193257 ], [ 80.9763177, 20.6226176 ], [ 80.9711274, 20.6229548 ], [ 80.9681894, 20.6272739 ], [ 80.9679513, 20.6301328 ], [ 80.9637582, 20.6300583 ], [ 80.96382, 20.6290195 ], [ 80.9583134, 20.6303726 ], [ 80.9583489, 20.6339539 ], [ 80.953209, 20.6398094 ], [ 80.9530332, 20.6431606 ], [ 80.9559043, 20.6468761 ], [ 80.9571181, 20.6556461 ], [ 80.9607961, 20.6602779 ], [ 80.9617772, 20.6641479 ], [ 80.9536108, 20.6652267 ], [ 80.9494042, 20.6687242 ], [ 80.9389941, 20.6641534 ], [ 80.9274981, 20.6675084 ], [ 80.9250576, 20.6589057 ], [ 80.9185817, 20.6482717 ], [ 80.9117639, 20.6484133 ], [ 80.9095607, 20.6657336 ], [ 80.9039163, 20.6612914 ], [ 80.8997565, 20.6601532 ], [ 80.8970213, 20.6596522 ], [ 80.8953663, 20.6630171 ], [ 80.8924723, 20.6576295 ], [ 80.889881, 20.6555026 ], [ 80.882012, 20.6557109 ], [ 80.8751699, 20.66543 ], [ 80.8726794, 20.6670604 ], [ 80.862617, 20.6653031 ], [ 80.8549578, 20.6710561 ], [ 80.8538582, 20.676489 ], [ 80.8604267, 20.6883538 ], [ 80.8590108, 20.689388 ], [ 80.834617, 20.686191 ], [ 80.827587, 20.683895 ], [ 80.8171472, 20.6886474 ], [ 80.814646, 20.6909363 ], [ 80.8148604, 20.6947797 ], [ 80.8134529, 20.698085 ], [ 80.8118495, 20.6988162 ], [ 80.8138882, 20.7015808 ], [ 80.8121003, 20.7075912 ], [ 80.8083611, 20.7078337 ], [ 80.8071845, 20.7092603 ], [ 80.8101012, 20.7131545 ], [ 80.805723, 20.7146657 ], [ 80.8035666, 20.7171804 ], [ 80.8032138, 20.7222112 ], [ 80.8098456, 20.7274391 ], [ 80.8094369, 20.7289248 ], [ 80.8115722, 20.7312469 ], [ 80.8097094, 20.7313952 ], [ 80.8093728, 20.7330165 ], [ 80.8149211, 20.7358682 ], [ 80.8149198, 20.7394495 ], [ 80.8194977, 20.7450286 ], [ 80.8209649, 20.750462 ], [ 80.8170739, 20.7560484 ], [ 80.8180948, 20.7606778 ], [ 80.8221186, 20.7602455 ], [ 80.8242356, 20.76175 ], [ 80.8232743, 20.7646446 ], [ 80.8419324, 20.7694543 ], [ 80.8612826, 20.7801107 ], [ 80.8657339, 20.7846678 ], [ 80.8703776, 20.7865286 ], [ 80.8720919, 20.7961481 ], [ 80.8834842, 20.8036898 ], [ 80.8854628, 20.8018743 ], [ 80.8859957, 20.7985368 ], [ 80.887912, 20.7985456 ], [ 80.8906832, 20.7996067 ], [ 80.8958855, 20.8068139 ], [ 80.9003285, 20.8080869 ], [ 80.9005388, 20.8020849 ], [ 80.905308, 20.8019712 ], [ 80.9070109, 20.7923424 ], [ 80.9001529, 20.7922803 ], [ 80.9006226, 20.7862286 ], [ 80.904152, 20.7851622 ], [ 80.9094379, 20.7787437 ], [ 80.9111196, 20.7829524 ], [ 80.9215594, 20.7824802 ], [ 80.926244, 20.7766991 ], [ 80.9251565, 20.7720567 ], [ 80.9294475, 20.7770223 ], [ 80.9321558, 20.7768905 ], [ 80.9312784, 20.7807973 ], [ 80.9357249, 20.7799422 ], [ 80.9397761, 20.7980821 ], [ 80.9479291, 20.8040221 ], [ 80.946384, 20.8070215 ], [ 80.9482162, 20.8118259 ], [ 80.9576082, 20.8151907 ], [ 80.959555, 20.8179852 ], [ 80.959763, 20.8204374 ], [ 80.956208, 20.8196262 ], [ 80.956652, 20.8233925 ], [ 80.9608699, 20.8242169 ], [ 80.9675622, 20.8179946 ], [ 80.9701801, 20.8105957 ], [ 80.974038, 20.8120839 ], [ 80.9784993, 20.8109567 ], [ 80.9803923, 20.818624 ], [ 80.9752259, 20.8288562 ], [ 80.9691754, 20.8246054 ], [ 80.9657392, 20.8297286 ], [ 80.9654546, 20.8357713 ], [ 80.9618971, 20.839499 ], [ 80.958139, 20.837157 ], [ 80.9544403, 20.8377278 ], [ 80.9512721, 20.8424035 ], [ 80.9494036, 20.8430817 ], [ 80.9539565, 20.8495287 ], [ 80.9563235, 20.8556244 ], [ 80.9606142, 20.8560287 ], [ 80.9644494, 20.8580319 ], [ 80.9690853, 20.8572978 ], [ 80.9823125, 20.8642539 ], [ 80.9881081, 20.8720811 ], [ 80.9900147, 20.8771198 ], [ 80.9946532, 20.878905 ], [ 80.9951757, 20.8833214 ], [ 80.9891286, 20.8871462 ], [ 80.9845446, 20.8878266 ], [ 80.9820137, 20.8900773 ], [ 80.9814396, 20.8936815 ], [ 80.9827399, 20.8975826 ], [ 80.9816164, 20.8989381 ], [ 80.9704627, 20.9003537 ], [ 80.9679481, 20.9062757 ], [ 80.9656421, 20.9077899 ], [ 80.9646354, 20.9201646 ], [ 80.9662749, 20.9209088 ], [ 80.9672861, 20.9239566 ], [ 80.9628802, 20.9268855 ], [ 80.9630443, 20.9363556 ], [ 80.960595, 20.9404529 ], [ 80.9611415, 20.9459307 ], [ 80.9629993, 20.9497143 ], [ 80.9597551, 20.95131 ], [ 80.9561311, 20.9512788 ], [ 80.950186, 20.9471191 ], [ 80.9454936, 20.9463308 ], [ 80.9433535, 20.9446427 ], [ 80.9418113, 20.9467704 ], [ 80.9421311, 20.9524606 ], [ 80.9442225, 20.9526629 ], [ 80.9465933, 20.9639747 ], [ 80.9491905, 20.9658839 ], [ 80.9492639, 20.9684716 ], [ 80.9533995, 20.9695129 ], [ 80.9453181, 20.9718874 ], [ 80.9391033, 20.9770653 ], [ 80.9434027, 20.9785268 ], [ 80.9448977, 20.9776591 ], [ 80.9452165, 20.9808699 ], [ 80.9507663, 20.9823985 ], [ 80.9537332, 20.9823971 ], [ 80.9537903, 20.9811778 ], [ 80.9558542, 20.98306 ], [ 80.9566209, 20.9871782 ], [ 80.9547606, 20.9883307 ], [ 80.9546627, 20.9940482 ], [ 80.9526871, 20.9957561 ], [ 80.9538128, 20.9964466 ], [ 80.9526307, 20.9981542 ], [ 80.9534981, 21.0031842 ], [ 80.9720367, 21.0035899 ], [ 80.9732108, 21.0039346 ], [ 80.9722989, 21.0073748 ], [ 80.9854607, 21.0063643 ], [ 80.9875804, 21.0078033 ], [ 80.9889774, 21.0066053 ], [ 80.9877042, 21.0055569 ], [ 80.990449, 21.002853 ], [ 80.9976705, 21.003913 ], [ 81.0038302, 20.9998578 ], [ 81.0127456, 21.0000253 ], [ 81.0135196, 20.9983401 ], [ 81.0190851, 20.9967521 ], [ 81.018898, 20.9946704 ], [ 81.0202811, 20.9936785 ], [ 81.0245137, 20.9926739 ], [ 81.0263575, 20.9941667 ], [ 81.0349198, 20.995828 ], [ 81.0358336, 20.9970479 ], [ 81.0374634, 20.9956341 ], [ 81.0544888, 20.9949627 ], [ 81.0610652, 20.9927387 ], [ 81.0614261, 20.9941647 ], [ 81.0714734, 20.9945606 ], [ 81.0730115, 20.9982442 ], [ 81.0748754, 20.9992998 ], [ 81.0791215, 20.9993063 ], [ 81.0793968, 20.9978796 ], [ 81.0826221, 20.9984219 ], [ 81.0901232, 20.9962167 ], [ 81.093954, 21.0016838 ], [ 81.1001284, 21.0052163 ], [ 81.1067125, 21.0030359 ], [ 81.1111081, 21.0032982 ], [ 81.1143686, 21.0067849 ], [ 81.11484, 21.0040662 ], [ 81.1167589, 21.0035876 ], [ 81.1187642, 21.0068798 ], [ 81.1204909, 21.0045226 ], [ 81.1221356, 21.0077967 ], [ 81.1206255, 21.0090702 ], [ 81.1207793, 21.0109218 ], [ 81.1226309, 21.0105379 ], [ 81.128234, 21.0157043 ], [ 81.1233571, 21.0159075 ], [ 81.1222268, 21.0171314 ], [ 81.1235832, 21.0179037 ], [ 81.1266902, 21.0167114 ], [ 81.1278493, 21.0183372 ], [ 81.1299126, 21.0168649 ], [ 81.1325725, 21.0202473 ], [ 81.131476, 21.0217512 ], [ 81.1361467, 21.026538 ], [ 81.1350117, 21.0287554 ], [ 81.1378592, 21.0286242 ], [ 81.1368205, 21.031221 ], [ 81.1336506, 21.0315961 ], [ 81.1403809, 21.0396477 ], [ 81.1397467, 21.0473702 ], [ 81.1464195, 21.0505984 ], [ 81.1480558, 21.0547033 ], [ 81.1511737, 21.0569157 ], [ 81.1511644, 21.0589705 ], [ 81.1482587, 21.0605199 ], [ 81.147908, 21.0634057 ], [ 81.1445264, 21.0675428 ], [ 81.1441755, 21.0709118 ], [ 81.1507106, 21.0778611 ], [ 81.1531833, 21.0755169 ], [ 81.1591536, 21.078573 ] ], [ [ 81.4590814, 20.6256969 ], [ 81.4532922, 20.6193033 ], [ 81.4544022, 20.6175576 ], [ 81.4498004, 20.6154337 ], [ 81.4495853, 20.6140695 ], [ 81.4523692, 20.6137584 ], [ 81.4512572, 20.6114464 ], [ 81.4478729, 20.6120774 ], [ 81.4464921, 20.6039328 ], [ 81.4438569, 20.602032 ], [ 81.4430207, 20.5948333 ], [ 81.4455644, 20.5915163 ], [ 81.4445448, 20.5882444 ], [ 81.4492194, 20.5896386 ], [ 81.4492707, 20.6043192 ], [ 81.4511117, 20.6073043 ], [ 81.4555579, 20.6085334 ], [ 81.4560192, 20.6103125 ], [ 81.460093, 20.6120994 ], [ 81.4620847, 20.6162276 ], [ 81.4625038, 20.6208086 ], [ 81.4590814, 20.6256969 ] ] ] } }
]
}
