{
"type": "FeatureCollection",
"name": "2225",
"crs": { "type": "name", "properties": { "name": "urn:ogc:def:crs:OGC:1.3:CRS84" } },
"features": [
{ "type": "Feature", "properties": { "code": "2225", "name": "Gariaband", "type": "district" }, "geometry": { "type": "Polygon", "coordinates": [ [ [ 81.9935859, 21.0777272 ], [ 82.0027751, 21.0761917 ], [ 82.0072369, 21.0743027 ], [ 82.014255, 21.063907 ], [ 82.021769, 21.0583389 ], [ 82.0283328, 21.0559176 ], [ 82.0320563, 21.056019 ], [ 82.0404545, 21.0590627 ], [ 82.051606, 21.0597949 ], [ 82.0580131, 21.0625162 ], [ 82.0611311, 21.0615826 ], [ 82.065195, 21.0531165 ], [ 82.0671224, 21.045056 ], [ 82.0781982, 21.0390666 ], [ 82.0818416, 21.032298 ], [ 82.0929111, 21.0257386 ], [ 82.1082259, 21.0260027 ], [ 82.1190725, 21.0213519 ], [ 82.1273933, 21.016023 ], [ 82.1397447, 21.0187906 ], [ 82.1475649, 21.0163647 ], [ 82.1621188, 21.0161092 ], [ 82.1669983, 21.0079295 ], [ 82.1669536, 21.0030656 ], [ 82.1714197, 20.9976957 ], [ 82.1710377, 20.9947276 ], [ 82.1738641, 20.9843635 ], [ 82.1718443, 20.9745662 ], [ 82.1766909, 20.968439 ], [ 82.1823315, 20.9664955 ], [ 82.1863686, 20.9669123 ], [ 82.1902829, 20.9496767 ], [ 82.1984654, 20.9391613 ], [ 82.202433, 20.9417665 ], [ 82.2067358, 20.9425721 ], [ 82.2094886, 20.9392514 ], [ 82.21243, 20.9381124 ], [ 82.2136744, 20.9388575 ], [ 82.219711, 20.9346703 ], [ 82.2262063, 20.9387518 ], [ 82.2244105, 20.9454883 ], [ 82.2207405, 20.9502423 ], [ 82.2238348, 20.952047 ], [ 82.2282007, 20.9521028 ], [ 82.2366121, 20.9472254 ], [ 82.2427863, 20.9472995 ], [ 82.2458374, 20.9414425 ], [ 82.2494634, 20.9397446 ], [ 82.2602258, 20.9410287 ], [ 82.26559, 20.9453089 ], [ 82.2718702, 20.935488 ], [ 82.2701732, 20.9254161 ], [ 82.2710497, 20.9195096 ], [ 82.2749419, 20.9102471 ], [ 82.2810751, 20.9056622 ], [ 82.2874446, 20.9031276 ], [ 82.2973795, 20.9015201 ], [ 82.3079572, 20.8854855 ], [ 82.3127816, 20.880619 ], [ 82.3182338, 20.8787285 ], [ 82.3258354, 20.8799367 ], [ 82.3367319, 20.8776588 ], [ 82.337396, 20.8757102 ], [ 82.3361571, 20.8703968 ], [ 82.345965, 20.8729062 ], [ 82.3444599, 20.856368 ], [ 82.3395269, 20.8468353 ], [ 82.3415747, 20.8328347 ], [ 82.3414016, 20.8295613 ], [ 82.3393357, 20.8257651 ], [ 82.3410216, 20.8208284 ], [ 82.3411159, 20.8124892 ], [ 82.3431742, 20.8089318 ], [ 82.3420175, 20.8047175 ], [ 82.3461098, 20.7976345 ], [ 82.343862, 20.7922316 ], [ 82.3436353, 20.7709538 ], [ 82.3416886, 20.7680511 ], [ 82.3535531, 20.7359234 ], [ 82.3508137, 20.7334787 ], [ 82.3455587, 20.731591 ], [ 82.3540136, 20.719663 ], [ 82.3507566, 20.7172809 ], [ 82.3504267, 20.7063231 ], [ 82.3523926, 20.7036268 ], [ 82.3549978, 20.6931899 ], [ 82.3614499, 20.681955 ], [ 82.3670498, 20.6801897 ], [ 82.3738177, 20.6674023 ], [ 82.3687516, 20.6595875 ], [ 82.369968, 20.6555578 ], [ 82.3684794, 20.6495618 ], [ 82.3746716, 20.6390693 ], [ 82.3746668, 20.6353292 ], [ 82.3764975, 20.6324102 ], [ 82.3709459, 20.625986 ], [ 82.3645161, 20.6221839 ], [ 82.3640519, 20.6190798 ], [ 82.3654441, 20.6159475 ], [ 82.3629234, 20.6141154 ], [ 82.3622623, 20.6099107 ], [ 82.3586513, 20.6084756 ], [ 82.3558996, 20.6092471 ], [ 82.3525627, 20.6029809 ], [ 82.347133, 20.6025399 ], [ 82.3448521, 20.5984832 ], [ 82.3456989, 20.5965615 ], [ 82.3437442, 20.5957726 ], [ 82.3440836, 20.5928881 ], [ 82.346793, 20.5905994 ], [ 82.3506397, 20.5812687 ], [ 82.3483377, 20.57859 ], [ 82.3483568, 20.5763991 ], [ 82.3433498, 20.5715235 ], [ 82.3390527, 20.569393 ], [ 82.3333712, 20.5685515 ], [ 82.3348766, 20.5646009 ], [ 82.3329, 20.5639883 ], [ 82.3322344, 20.5619065 ], [ 82.3357004, 20.5550996 ], [ 82.3420326, 20.551979 ], [ 82.3449994, 20.5479449 ], [ 82.3486138, 20.5466656 ], [ 82.3576491, 20.5293259 ], [ 82.3680636, 20.5238643 ], [ 82.3782458, 20.5220266 ], [ 82.389699, 20.5176032 ], [ 82.3880021, 20.5107284 ], [ 82.389527, 20.4980051 ], [ 82.388343, 20.4953585 ], [ 82.3911182, 20.4921112 ], [ 82.3906046, 20.4861888 ], [ 82.3931618, 20.4864303 ], [ 82.3937399, 20.4825003 ], [ 82.3920325, 20.4786881 ], [ 82.3960833, 20.4776573 ], [ 82.3978429, 20.4729454 ], [ 82.3976449, 20.4648388 ], [ 82.3947795, 20.4622916 ], [ 82.3960587, 20.4595711 ], [ 82.3979779, 20.4619226 ], [ 82.400127, 20.4610652 ], [ 82.401913, 20.4619271 ], [ 82.4042683, 20.4600516 ], [ 82.4078799, 20.4629494 ], [ 82.4090087, 20.4647923 ], [ 82.4084739, 20.4681528 ], [ 82.4107885, 20.4681294 ], [ 82.4161306, 20.479889 ], [ 82.4157956, 20.4815135 ], [ 82.4176335, 20.4817424 ], [ 82.4231252, 20.4758299 ], [ 82.4270554, 20.4690627 ], [ 82.4257339, 20.4453275 ], [ 82.4339798, 20.4456662 ], [ 82.4378622, 20.4343912 ], [ 82.4296604, 20.4278685 ], [ 82.4320051, 20.4166378 ], [ 82.4166092, 20.4076528 ], [ 82.4211737, 20.3928493 ], [ 82.4176918, 20.3877237 ], [ 82.4180525, 20.3821104 ], [ 82.4111996, 20.3712889 ], [ 82.4088266, 20.3652912 ], [ 82.4091454, 20.3629307 ], [ 82.4050488, 20.3580356 ], [ 82.4062676, 20.3529892 ], [ 82.4003791, 20.3415811 ], [ 82.4015068, 20.3375834 ], [ 82.409157, 20.3325303 ], [ 82.4088697, 20.3277761 ], [ 82.4129517, 20.3279962 ], [ 82.4173664, 20.3242518 ], [ 82.4210379, 20.3241137 ], [ 82.4307667, 20.3140245 ], [ 82.4315261, 20.312776 ], [ 82.4299814, 20.3009855 ], [ 82.4378111, 20.2944077 ], [ 82.4355745, 20.2854821 ], [ 82.4328741, 20.2818092 ], [ 82.425025, 20.2752241 ], [ 82.4159581, 20.2720498 ], [ 82.4123415, 20.2670423 ], [ 82.4113886, 20.2601116 ], [ 82.4160108, 20.2572828 ], [ 82.4177845, 20.2523175 ], [ 82.4223256, 20.2479715 ], [ 82.4212901, 20.2467331 ], [ 82.4112268, 20.2453825 ], [ 82.4106276, 20.2426453 ], [ 82.4106867, 20.240174 ], [ 82.4140711, 20.2338904 ], [ 82.4150743, 20.226813 ], [ 82.422471, 20.2208177 ], [ 82.4204818, 20.2130778 ], [ 82.4206183, 20.2049187 ], [ 82.413467, 20.1993479 ], [ 82.4140801, 20.1898568 ], [ 82.4115837, 20.1814886 ], [ 82.4075434, 20.1812318 ], [ 82.4045327, 20.177868 ], [ 82.4047119, 20.1759829 ], [ 82.3949145, 20.1701162 ], [ 82.3900067, 20.1636954 ], [ 82.3917566, 20.1587306 ], [ 82.3937412, 20.1570436 ], [ 82.3931081, 20.154704 ], [ 82.3941468, 20.152627 ], [ 82.3907494, 20.1497898 ], [ 82.3871984, 20.14905 ], [ 82.3857977, 20.1464365 ], [ 82.3931527, 20.137606 ], [ 82.3942323, 20.1299226 ], [ 82.3976691, 20.1237745 ], [ 82.3987174, 20.1131326 ], [ 82.3981758, 20.1016947 ], [ 82.4014349, 20.0960719 ], [ 82.3997629, 20.0897972 ], [ 82.4014923, 20.0810201 ], [ 82.3958346, 20.0689721 ], [ 82.3983942, 20.062691 ], [ 82.3982919, 20.0581789 ], [ 82.4000423, 20.0561143 ], [ 82.4095408, 20.051788 ], [ 82.4168151, 20.0521545 ], [ 82.4300286, 20.0496088 ], [ 82.4405247, 20.0431814 ], [ 82.4480063, 20.0406631 ], [ 82.4575309, 20.0399704 ], [ 82.4606749, 20.0419003 ], [ 82.4663258, 20.0394279 ], [ 82.4700118, 20.0359146 ], [ 82.4785696, 20.0381742 ], [ 82.4937345, 20.0243688 ], [ 82.5091125, 20.0181629 ], [ 82.533181, 20.0152954 ], [ 82.534453, 20.0178456 ], [ 82.5461195, 20.0169311 ], [ 82.5501086, 20.0177725 ], [ 82.5535548, 20.0153935 ], [ 82.5773441, 20.0067227 ], [ 82.583282, 20.0031782 ], [ 82.5903359, 19.9937331 ], [ 82.5957325, 19.9915706 ], [ 82.6050212, 19.9901362 ], [ 82.621136, 19.9922978 ], [ 82.6332972, 20.0048741 ], [ 82.6415066, 20.0067133 ], [ 82.6429848, 20.0064061 ], [ 82.6427078, 20.0036624 ], [ 82.6519822, 20.0058933 ], [ 82.6701232, 20.0010799 ], [ 82.6745315, 20.0017835 ], [ 82.6926653, 20.0000032 ], [ 82.699582, 19.9975656 ], [ 82.707267, 19.99905 ], [ 82.7154469, 19.9959267 ], [ 82.7157512, 19.9922652 ], [ 82.7181398, 19.9891389 ], [ 82.7175164, 19.9655538 ], [ 82.7146149, 19.9587706 ], [ 82.7155242, 19.9536263 ], [ 82.7204916, 19.9482935 ], [ 82.7130724, 19.9384553 ], [ 82.7111842, 19.9254515 ], [ 82.712762, 19.9185211 ], [ 82.7073681, 19.9129856 ], [ 82.7090891, 19.9056021 ], [ 82.7074082, 19.9020409 ], [ 82.7135496, 19.8834448 ], [ 82.7140524, 19.8778074 ], [ 82.72412, 19.8751256 ], [ 82.7217344, 19.8729184 ], [ 82.7195936, 19.8674331 ], [ 82.7197898, 19.8568482 ], [ 82.7181649, 19.8535937 ], [ 82.7138439, 19.8526371 ], [ 82.711402, 19.8506279 ], [ 82.7129292, 19.8448091 ], [ 82.7109975, 19.8418238 ], [ 82.7113979, 19.8399954 ], [ 82.7085515, 19.8380712 ], [ 82.7055524, 19.8330231 ], [ 82.6967058, 19.830614 ], [ 82.6780156, 19.8321188 ], [ 82.6659164, 19.8303892 ], [ 82.6609979, 19.8320206 ], [ 82.6521592, 19.8321659 ], [ 82.6475995, 19.8195424 ], [ 82.6417538, 19.8145372 ], [ 82.6366256, 19.8129266 ], [ 82.6335773, 19.8065267 ], [ 82.6328164, 19.8011856 ], [ 82.6271275, 19.793658 ], [ 82.6238238, 19.7921161 ], [ 82.6126225, 19.7910565 ], [ 82.6037837, 19.7881231 ], [ 82.6021531, 19.7811183 ], [ 82.5952935, 19.7784694 ], [ 82.5948897, 19.7752928 ], [ 82.583477, 19.778796 ], [ 82.5835862, 19.7816409 ], [ 82.5817692, 19.7832063 ], [ 82.5844868, 19.7882549 ], [ 82.5827018, 19.7949967 ], [ 82.5846883, 19.802351 ], [ 82.5759931, 19.8082189 ], [ 82.5785844, 19.8110779 ], [ 82.5761959, 19.8147398 ], [ 82.5785287, 19.8180077 ], [ 82.5791371, 19.8235448 ], [ 82.5777716, 19.8249752 ], [ 82.5793996, 19.8303181 ], [ 82.5760398, 19.8289204 ], [ 82.575788, 19.8333945 ], [ 82.5797352, 19.8401127 ], [ 82.5839036, 19.8435766 ], [ 82.5886324, 19.8433809 ], [ 82.587716, 19.8486786 ], [ 82.5906161, 19.8489191 ], [ 82.5904127, 19.8524533 ], [ 82.5938253, 19.8528519 ], [ 82.5968707, 19.8552007 ], [ 82.5962769, 19.8588287 ], [ 82.6002006, 19.8601893 ], [ 82.6025591, 19.8630455 ], [ 82.6034296, 19.86699 ], [ 82.5971271, 19.8726929 ], [ 82.5828948, 19.8694186 ], [ 82.5730202, 19.877551 ], [ 82.5610373, 19.8743274 ], [ 82.558906, 19.8785469 ], [ 82.5559566, 19.8806642 ], [ 82.5533631, 19.880086 ], [ 82.5502124, 19.87575 ], [ 82.548388, 19.8757027 ], [ 82.5421414, 19.8834766 ], [ 82.5349115, 19.8868908 ], [ 82.5314189, 19.8782389 ], [ 82.5233001, 19.8830831 ], [ 82.5213067, 19.8888596 ], [ 82.5191208, 19.8909742 ], [ 82.5163267, 19.8909213 ], [ 82.5118019, 19.888132 ], [ 82.5054719, 19.889857 ], [ 82.5028747, 19.8944729 ], [ 82.5049014, 19.8997229 ], [ 82.4973386, 19.9041304 ], [ 82.4916128, 19.9034465 ], [ 82.4841749, 19.9079082 ], [ 82.4778869, 19.9064505 ], [ 82.4728984, 19.9070342 ], [ 82.4722787, 19.9015793 ], [ 82.4642158, 19.9008473 ], [ 82.4521738, 19.9087056 ], [ 82.445991, 19.9101918 ], [ 82.4371096, 19.9049419 ], [ 82.4333543, 19.905561 ], [ 82.4300563, 19.9040086 ], [ 82.4262046, 19.9054559 ], [ 82.4180214, 19.9040727 ], [ 82.418575, 19.8998483 ], [ 82.4119601, 19.8985147 ], [ 82.409839, 19.8961361 ], [ 82.4052369, 19.8942628 ], [ 82.4017761, 19.8899418 ], [ 82.3948706, 19.8880151 ], [ 82.3924829, 19.8820473 ], [ 82.382952, 19.8738572 ], [ 82.3836488, 19.8698793 ], [ 82.3804855, 19.8673886 ], [ 82.3752, 19.85964 ], [ 82.364368, 19.8618753 ], [ 82.3634693, 19.8630494 ], [ 82.3608476, 19.8627968 ], [ 82.3613926, 19.8588438 ], [ 82.3604887, 19.8575054 ], [ 82.3646283, 19.854695 ], [ 82.3644561, 19.8510141 ], [ 82.361419, 19.8507493 ], [ 82.359851, 19.8469885 ], [ 82.34889, 19.8365706 ], [ 82.3439528, 19.835089 ], [ 82.3307022, 19.8448534 ], [ 82.3263414, 19.8616125 ], [ 82.3031198, 19.8893856 ], [ 82.3034914, 19.8933892 ], [ 82.3015885, 19.9027115 ], [ 82.2758138, 19.9485887 ], [ 82.2748747, 19.9630409 ], [ 82.2691695, 19.9752612 ], [ 82.2562464, 19.9834472 ], [ 82.2500054, 19.9890621 ], [ 82.2462041, 19.9953459 ], [ 82.2423471, 19.9975026 ], [ 82.2371235, 20.0033276 ], [ 82.2292925, 19.9998172 ], [ 82.2220347, 19.9991978 ], [ 82.216713, 19.997059 ], [ 82.2101045, 19.9862503 ], [ 82.1907881, 19.9868951 ], [ 82.1842537, 19.9841897 ], [ 82.1851918, 19.9872995 ], [ 82.1834726, 19.9895932 ], [ 82.1803292, 19.9911366 ], [ 82.1769073, 19.9973082 ], [ 82.1747849, 19.996748 ], [ 82.1736918, 19.9999637 ], [ 82.1712519, 20.0007755 ], [ 82.1704179, 20.0024398 ], [ 82.1712349, 20.0055109 ], [ 82.1605828, 20.0091199 ], [ 82.1534676, 20.0075607 ], [ 82.1398077, 20.0187273 ], [ 82.1363265, 20.0189286 ], [ 82.1284919, 20.0142001 ], [ 82.126786, 20.0147963 ], [ 82.1165168, 20.0211577 ], [ 82.1102127, 20.0272918 ], [ 82.1069493, 20.0272544 ], [ 82.1054698, 20.0306033 ], [ 82.1031973, 20.031066 ], [ 82.1038316, 20.0356871 ], [ 82.1021309, 20.0362938 ], [ 82.1022786, 20.0400403 ], [ 82.0995184, 20.0407671 ], [ 82.0987491, 20.0397192 ], [ 82.0894584, 20.0390626 ], [ 82.0869774, 20.0420972 ], [ 82.0863959, 20.0452384 ], [ 82.0845939, 20.0460464 ], [ 82.0854337, 20.0507153 ], [ 82.0704694, 20.0569479 ], [ 82.0635398, 20.0545316 ], [ 82.0629647, 20.052045 ], [ 82.0606492, 20.0511263 ], [ 82.0621868, 20.0492242 ], [ 82.0590114, 20.0477506 ], [ 82.0590891, 20.044982 ], [ 82.0563973, 20.0417449 ], [ 82.0478233, 20.0367167 ], [ 82.0481539, 20.0348176 ], [ 82.0429734, 20.0349057 ], [ 82.0412119, 20.0309641 ], [ 82.038044, 20.0301157 ], [ 82.0373366, 20.0279453 ], [ 82.038852, 20.0271399 ], [ 82.0379748, 20.0260715 ], [ 82.0400003, 20.0225966 ], [ 82.0383851, 20.0224535 ], [ 82.0325614, 20.0157209 ], [ 82.0215466, 20.0237092 ], [ 82.0227201, 20.0321453 ], [ 82.0176803, 20.0489771 ], [ 82.0197035, 20.0502022 ], [ 82.0216129, 20.0539069 ], [ 82.022487, 20.0620915 ], [ 82.0277455, 20.0723108 ], [ 82.0312534, 20.0759553 ], [ 82.0357937, 20.0929918 ], [ 82.0354775, 20.0992222 ], [ 82.0448039, 20.0962661 ], [ 82.0635919, 20.105214 ], [ 82.0698979, 20.1060877 ], [ 82.0770779, 20.1029057 ], [ 82.0925883, 20.1007209 ], [ 82.1061061, 20.106023 ], [ 82.1138798, 20.1161858 ], [ 82.1144619, 20.1347601 ], [ 82.129246, 20.141456 ], [ 82.1373693, 20.1488627 ], [ 82.1352869, 20.1540907 ], [ 82.1319272, 20.1577243 ], [ 82.1340487, 20.1629159 ], [ 82.1324179, 20.1669177 ], [ 82.1354222, 20.1751195 ], [ 82.1334685, 20.1785566 ], [ 82.1334113, 20.1828586 ], [ 82.138995, 20.1972117 ], [ 82.1446652, 20.205824 ], [ 82.1483463, 20.2190726 ], [ 82.1502967, 20.2228797 ], [ 82.1545241, 20.2232178 ], [ 82.1607913, 20.2295035 ], [ 82.1645118, 20.2304783 ], [ 82.1644693, 20.2328472 ], [ 82.1621972, 20.2358263 ], [ 82.1637005, 20.2391252 ], [ 82.173947, 20.2518114 ], [ 82.1802238, 20.2570083 ], [ 82.1737224, 20.260565 ], [ 82.1665462, 20.2604481 ], [ 82.1604085, 20.2652185 ], [ 82.1556146, 20.269586 ], [ 82.1568441, 20.277239 ], [ 82.1526198, 20.2820122 ], [ 82.1451477, 20.2872198 ], [ 82.1317453, 20.2886817 ], [ 82.1158853, 20.2875216 ], [ 82.1086109, 20.2907445 ], [ 82.1053821, 20.3034444 ], [ 82.1032895, 20.3057279 ], [ 82.0956523, 20.3225853 ], [ 82.0855095, 20.3299279 ], [ 82.0852815, 20.331861 ], [ 82.0882636, 20.3367858 ], [ 82.0885704, 20.3454985 ], [ 82.0855055, 20.3569952 ], [ 82.0808623, 20.3653282 ], [ 82.0807991, 20.3687078 ], [ 82.0854912, 20.3788777 ], [ 82.0852452, 20.3824476 ], [ 82.0819154, 20.3856238 ], [ 82.0803666, 20.3913369 ], [ 82.0813953, 20.3954041 ], [ 82.0851718, 20.3983692 ], [ 82.0840636, 20.4046288 ], [ 82.0852909, 20.4104285 ], [ 82.0825948, 20.4149304 ], [ 82.0758446, 20.4213194 ], [ 82.0745101, 20.4291704 ], [ 82.0716414, 20.4320048 ], [ 82.0644137, 20.434021 ], [ 82.0615445, 20.4372848 ], [ 82.0633068, 20.4460409 ], [ 82.0569293, 20.4516159 ], [ 82.0518562, 20.4630717 ], [ 82.0562113, 20.4762496 ], [ 82.0514925, 20.4823757 ], [ 82.0486283, 20.4892037 ], [ 82.0487725, 20.4981281 ], [ 82.0477325, 20.5007415 ], [ 82.040856, 20.5030914 ], [ 82.0399803, 20.5081379 ], [ 82.0376423, 20.5112168 ], [ 82.0351145, 20.5187615 ], [ 82.0228102, 20.5245817 ], [ 82.0210141, 20.5273479 ], [ 82.0201384, 20.5316153 ], [ 82.0214398, 20.5438103 ], [ 82.0177503, 20.5590197 ], [ 82.0179139, 20.5760124 ], [ 82.0086154, 20.5935275 ], [ 82.0013664, 20.618152 ], [ 81.9945734, 20.635242 ], [ 81.9980843, 20.6483132 ], [ 82.0015599, 20.6516869 ], [ 82.0039004, 20.6601349 ], [ 82.006398, 20.6643877 ], [ 82.012121, 20.6695497 ], [ 82.0124444, 20.6731877 ], [ 82.0093294, 20.676922 ], [ 82.0035139, 20.6790485 ], [ 81.9982651, 20.6838625 ], [ 81.9932142, 20.6924573 ], [ 81.9829854, 20.701763 ], [ 81.9815833, 20.7073352 ], [ 81.9845784, 20.7196176 ], [ 81.9814762, 20.7239221 ], [ 81.9749364, 20.7280988 ], [ 81.9558416, 20.7349739 ], [ 81.9381827, 20.7382325 ], [ 81.9258804, 20.7471176 ], [ 81.9228357, 20.7514107 ], [ 81.9242241, 20.7634089 ], [ 81.921561, 20.7713142 ], [ 81.9092455, 20.7866115 ], [ 81.9110773, 20.7945174 ], [ 81.9224251, 20.8057004 ], [ 81.9245115, 20.8093877 ], [ 81.9243636, 20.8130509 ], [ 81.9199123, 20.8193767 ], [ 81.9142212, 20.8226872 ], [ 81.9084383, 20.8283909 ], [ 81.9040507, 20.8349319 ], [ 81.8996188, 20.8546837 ], [ 81.8911517, 20.8673926 ], [ 81.8883125, 20.8773389 ], [ 81.8880298, 20.8815096 ], [ 81.8908587, 20.8890625 ], [ 81.8924487, 20.8982594 ], [ 81.8897021, 20.9041866 ], [ 81.8801649, 20.9110317 ], [ 81.876475, 20.9199006 ], [ 81.8764082, 20.9316723 ], [ 81.8733101, 20.9399839 ], [ 81.8732196, 20.9645892 ], [ 81.8778917, 20.976716 ], [ 81.8860376, 20.9835847 ], [ 81.8896783, 20.9887102 ], [ 81.9151579, 21.0072816 ], [ 81.9233104, 21.0176051 ], [ 81.9535177, 21.0363661 ], [ 81.9706473, 21.0588587 ], [ 81.9801, 21.074477 ], [ 81.9881833, 21.0833353 ], [ 81.9935859, 21.0777272 ] ] ] } }
]
}
