{
"type": "FeatureCollection",
"name": "2227",
"crs": { "type": "name", "properties": { "name": "urn:ogc:def:crs:OGC:1.3:CRS84" } },
"features": [
{ "type": "Feature", "properties": { "code": "2227", "name": "Surajpur", "type": "district" }, "geometry": { "type": "Polygon", "coordinates": [ [ [ 82.6945263, 23.9097066 ], [ 82.69271, 23.9053887 ], [ 82.6932471, 23.9038492 ], [ 82.7000408, 23.8969809 ], [ 82.7014846, 23.8934609 ], [ 82.7048535, 23.891001 ], [ 82.7184997, 23.8921838 ], [ 82.7345526, 23.8918237 ], [ 82.7378556, 23.8897638 ], [ 82.7431104, 23.8811714 ], [ 82.7713647, 23.8770318 ], [ 82.7733533, 23.8669819 ], [ 82.7782558, 23.8566026 ], [ 82.7826356, 23.8413486 ], [ 82.7828194, 23.8320378 ], [ 82.7808323, 23.8242103 ], [ 82.7818456, 23.8177719 ], [ 82.784925, 23.8150742 ], [ 82.7981092, 23.8143423 ], [ 82.8006789, 23.8110931 ], [ 82.8012406, 23.8179145 ], [ 82.8172049, 23.8158641 ], [ 82.8161752, 23.8114898 ], [ 82.8171151, 23.8098143 ], [ 82.8234708, 23.8096512 ], [ 82.8289898, 23.8009794 ], [ 82.833795, 23.7982328 ], [ 82.8296292, 23.7911918 ], [ 82.8363033, 23.7898347 ], [ 82.8349266, 23.7842122 ], [ 82.8363924, 23.7801529 ], [ 82.8437598, 23.7799393 ], [ 82.8456889, 23.7787184 ], [ 82.8449106, 23.7744853 ], [ 82.8416934, 23.7710823 ], [ 82.8449671, 23.7671587 ], [ 82.8519517, 23.7682596 ], [ 82.861003, 23.7820525 ], [ 82.8598444, 23.7949316 ], [ 82.8629537, 23.7981692 ], [ 82.87404, 23.7971779 ], [ 82.8852037, 23.7989192 ], [ 82.8881965, 23.7957745 ], [ 82.8912147, 23.7956408 ], [ 82.9013786, 23.7967084 ], [ 82.9071605, 23.7981198 ], [ 82.9119745, 23.8010245 ], [ 82.9158878, 23.8013495 ], [ 82.920199, 23.7989627 ], [ 82.9184869, 23.7937253 ], [ 82.9132888, 23.79006 ], [ 82.9088709, 23.7910352 ], [ 82.9073845, 23.7902491 ], [ 82.9024829, 23.784903 ], [ 82.9026885, 23.7810427 ], [ 82.907407, 23.7767432 ], [ 82.9087344, 23.7737987 ], [ 82.9172225, 23.7764796 ], [ 82.919854, 23.772911 ], [ 82.9317041, 23.7674297 ], [ 82.9474526, 23.7668507 ], [ 82.9584673, 23.7687125 ], [ 82.9642397, 23.7675407 ], [ 82.9677128, 23.7705463 ], [ 82.9941394, 23.7676809 ], [ 82.9945147, 23.7712844 ], [ 82.9981153, 23.7738924 ], [ 83.0008918, 23.7789562 ], [ 82.9984248, 23.7890974 ], [ 82.9990314, 23.7917147 ], [ 83.0024208, 23.7936774 ], [ 83.0073819, 23.7940035 ], [ 83.01001, 23.8031953 ], [ 83.0131468, 23.8033454 ], [ 83.0267706, 23.7991595 ], [ 83.0301582, 23.7907819 ], [ 83.0294371, 23.7873907 ], [ 83.0306996, 23.7836074 ], [ 83.0355711, 23.778888 ], [ 83.0519637, 23.7801325 ], [ 83.0644388, 23.7850534 ], [ 83.0735546, 23.7824179 ], [ 83.0737577, 23.7812846 ], [ 83.0660939, 23.7732158 ], [ 83.0644706, 23.7697899 ], [ 83.065904, 23.760727 ], [ 83.0685207, 23.7547282 ], [ 83.074689, 23.7518204 ], [ 83.0816315, 23.7505192 ], [ 83.0929544, 23.7291436 ], [ 83.1032134, 23.7288951 ], [ 83.1074966, 23.7230488 ], [ 83.1132515, 23.7216635 ], [ 83.1324277, 23.7095477 ], [ 83.1510353, 23.7096867 ], [ 83.1582083, 23.7029888 ], [ 83.1636074, 23.7025068 ], [ 83.1743053, 23.7091722 ], [ 83.1830855, 23.7100985 ], [ 83.1962599, 23.7224225 ], [ 83.2061687, 23.7228119 ], [ 83.2127036, 23.7103206 ], [ 83.2104803, 23.7079097 ], [ 83.2102453, 23.6993146 ], [ 83.2055917, 23.6940267 ], [ 83.2063288, 23.6917137 ], [ 83.2042042, 23.6869262 ], [ 83.1991871, 23.6866765 ], [ 83.1977292, 23.6853551 ], [ 83.1993841, 23.6836865 ], [ 83.2023644, 23.6833189 ], [ 83.2015471, 23.6609205 ], [ 83.2080686, 23.6580304 ], [ 83.2097688, 23.6540654 ], [ 83.2023008, 23.6193908 ], [ 83.2019673, 23.6120066 ], [ 83.2092115, 23.6122361 ], [ 83.2119118, 23.6092425 ], [ 83.2099707, 23.6052981 ], [ 83.2002225, 23.5952459 ], [ 83.2058087, 23.5922437 ], [ 83.2087353, 23.5922601 ], [ 83.2106043, 23.5864279 ], [ 83.2096326, 23.58292 ], [ 83.1991915, 23.5723028 ], [ 83.2009838, 23.556718 ], [ 83.2092321, 23.5559205 ], [ 83.2156821, 23.5616281 ], [ 83.2288218, 23.5618229 ], [ 83.22681, 23.5711734 ], [ 83.2232843, 23.5750174 ], [ 83.2272219, 23.5781526 ], [ 83.2398118, 23.5779471 ], [ 83.2515046, 23.5752584 ], [ 83.2545477, 23.5807142 ], [ 83.2727757, 23.5807834 ], [ 83.2791184, 23.577358 ], [ 83.2785158, 23.5676315 ], [ 83.2735581, 23.5562425 ], [ 83.2691737, 23.5510111 ], [ 83.2518585, 23.5471071 ], [ 83.2496605, 23.5461154 ], [ 83.2480714, 23.5433163 ], [ 83.2371451, 23.5416767 ], [ 83.2387038, 23.5320323 ], [ 83.2388183, 23.5154584 ], [ 83.2631217, 23.5166577 ], [ 83.2663506, 23.515296 ], [ 83.277373, 23.5167623 ], [ 83.2816732, 23.5157787 ], [ 83.295563, 23.5181642 ], [ 83.2979764, 23.5173027 ], [ 83.3034686, 23.5114903 ], [ 83.3060908, 23.5148309 ], [ 83.3096496, 23.5153056 ], [ 83.3091944, 23.5208434 ], [ 83.3207461, 23.5187805 ], [ 83.3258897, 23.522061 ], [ 83.3330956, 23.5237139 ], [ 83.3328706, 23.516951 ], [ 83.341575, 23.5168948 ], [ 83.3423842, 23.5151783 ], [ 83.3384753, 23.505892 ], [ 83.3324078, 23.4993169 ], [ 83.3224266, 23.4979516 ], [ 83.3117483, 23.5003347 ], [ 83.304966, 23.5038109 ], [ 83.3055232, 23.4998497 ], [ 83.3024034, 23.4953932 ], [ 83.3043788, 23.4916401 ], [ 83.3024904, 23.4871341 ], [ 83.3049155, 23.4860756 ], [ 83.2997361, 23.4823777 ], [ 83.3013528, 23.4795671 ], [ 83.2993105, 23.4798313 ], [ 83.2960116, 23.4742759 ], [ 83.2959371, 23.4711732 ], [ 83.297866, 23.46735 ], [ 83.2974863, 23.4637888 ], [ 83.2933418, 23.4652499 ], [ 83.2866963, 23.4649514 ], [ 83.2848917, 23.4642824 ], [ 83.2824099, 23.4601145 ], [ 83.2911697, 23.4603148 ], [ 83.2987899, 23.4572337 ], [ 83.3027983, 23.4570945 ], [ 83.3048773, 23.4581025 ], [ 83.3067076, 23.4620874 ], [ 83.3100107, 23.4633763 ], [ 83.3334723, 23.4613576 ], [ 83.3361405, 23.4660119 ], [ 83.3414084, 23.468058 ], [ 83.3444051, 23.4636708 ], [ 83.3400943, 23.4557386 ], [ 83.3415838, 23.452601 ], [ 83.3399054, 23.4456942 ], [ 83.3409369, 23.4421334 ], [ 83.3431133, 23.439278 ], [ 83.3473703, 23.4413411 ], [ 83.3558442, 23.4409898 ], [ 83.3531529, 23.4278188 ], [ 83.3584584, 23.4244346 ], [ 83.3508067, 23.4247319 ], [ 83.3452172, 23.427357 ], [ 83.3427739, 23.4301771 ], [ 83.3372559, 23.4322406 ], [ 83.3370092, 23.4360667 ], [ 83.3195132, 23.4439266 ], [ 83.3189965, 23.440641 ], [ 83.3104648, 23.4390666 ], [ 83.3074871, 23.4400878 ], [ 83.3069395, 23.4469003 ], [ 83.3021783, 23.4469763 ], [ 83.2986447, 23.4391853 ], [ 83.299117, 23.4366905 ], [ 83.297466, 23.4368886 ], [ 83.2973299, 23.4385278 ], [ 83.2949241, 23.440501 ], [ 83.2880011, 23.4392811 ], [ 83.2878829, 23.4347455 ], [ 83.2855343, 23.4283043 ], [ 83.2967645, 23.4297055 ], [ 83.3039377, 23.4331003 ], [ 83.3099681, 23.431634 ], [ 83.3117667, 23.428781 ], [ 83.3044623, 23.4294528 ], [ 83.3066664, 23.4205364 ], [ 83.3049555, 23.4074716 ], [ 83.3063732, 23.4016137 ], [ 83.3124511, 23.3991392 ], [ 83.3150406, 23.3949586 ], [ 83.3233729, 23.3976398 ], [ 83.3315808, 23.397552 ], [ 83.3310298, 23.3923689 ], [ 83.3350664, 23.3878147 ], [ 83.3327989, 23.3817733 ], [ 83.3267613, 23.3741643 ], [ 83.3226972, 23.3741675 ], [ 83.3195128, 23.375891 ], [ 83.3135718, 23.3838348 ], [ 83.3067902, 23.3892632 ], [ 83.3043205, 23.3886526 ], [ 83.3042699, 23.3825983 ], [ 83.3013282, 23.376957 ], [ 83.2969739, 23.3781913 ], [ 83.2776534, 23.3894225 ], [ 83.2691293, 23.3916391 ], [ 83.2648597, 23.3891413 ], [ 83.2600131, 23.3911258 ], [ 83.2544921, 23.3953438 ], [ 83.2480922, 23.3975565 ], [ 83.240703, 23.4051785 ], [ 83.2319062, 23.4034104 ], [ 83.2299328, 23.3946803 ], [ 83.2164435, 23.389226 ], [ 83.2074953, 23.3777004 ], [ 83.2068863, 23.3656418 ], [ 83.2089315, 23.3595142 ], [ 83.2052225, 23.3558231 ], [ 83.2046796, 23.3473988 ], [ 83.2031185, 23.3452415 ], [ 83.2027727, 23.3392958 ], [ 83.2043849, 23.3369518 ], [ 83.2051645, 23.3249996 ], [ 83.2032791, 23.3218718 ], [ 83.2060341, 23.3213377 ], [ 83.2085234, 23.31736 ], [ 83.2118978, 23.3042563 ], [ 83.2145136, 23.3000075 ], [ 83.2093288, 23.2701465 ], [ 83.2098542, 23.2676719 ], [ 83.2067724, 23.2672087 ], [ 83.2062681, 23.2650614 ], [ 83.2022673, 23.2689317 ], [ 83.1979963, 23.2699372 ], [ 83.2038563, 23.2619253 ], [ 83.206934, 23.2606866 ], [ 83.2076781, 23.2550021 ], [ 83.2058146, 23.2521001 ], [ 83.2081234, 23.2494212 ], [ 83.2084639, 23.2456924 ], [ 83.2104869, 23.2462151 ], [ 83.2146232, 23.2430027 ], [ 83.2205685, 23.2419562 ], [ 83.233822, 23.2339608 ], [ 83.24722, 23.2361858 ], [ 83.2466781, 23.2312199 ], [ 83.2435117, 23.2249467 ], [ 83.2430432, 23.2199762 ], [ 83.2237119, 23.2179806 ], [ 83.2203613, 23.2186734 ], [ 83.2172965, 23.222856 ], [ 83.2151368, 23.222329 ], [ 83.2087958, 23.2140117 ], [ 83.203587, 23.2113552 ], [ 83.2013141, 23.2086925 ], [ 83.1973628, 23.2090737 ], [ 83.1924271, 23.2047732 ], [ 83.1849141, 23.2138421 ], [ 83.1766772, 23.2177161 ], [ 83.1781005, 23.2255753 ], [ 83.1759206, 23.2266386 ], [ 83.1761897, 23.2277139 ], [ 83.1783313, 23.2277725 ], [ 83.1782558, 23.2316301 ], [ 83.1748239, 23.2303311 ], [ 83.1688022, 23.2208937 ], [ 83.1660131, 23.221229 ], [ 83.1641017, 23.2200826 ], [ 83.1661805, 23.2159334 ], [ 83.1639294, 23.2149413 ], [ 83.1529189, 23.2138962 ], [ 83.1433988, 23.2159655 ], [ 83.1378348, 23.2142053 ], [ 83.1384012, 23.2115324 ], [ 83.1373021, 23.2113293 ], [ 83.1358751, 23.2035414 ], [ 83.1329721, 23.177098 ], [ 83.1356871, 23.1742083 ], [ 83.1593787, 23.1658162 ], [ 83.1491573, 23.1583777 ], [ 83.1512219, 23.154919 ], [ 83.154483, 23.1525435 ], [ 83.159414, 23.1512693 ], [ 83.1600923, 23.1499238 ], [ 83.1601763, 23.1351285 ], [ 83.1543472, 23.1347911 ], [ 83.1567231, 23.1278647 ], [ 83.1535366, 23.1108217 ], [ 83.1517694, 23.1089349 ], [ 83.1400059, 23.1065931 ], [ 83.1281454, 23.1086391 ], [ 83.1236695, 23.1225585 ], [ 83.1245628, 23.1282202 ], [ 83.1234107, 23.1348481 ], [ 83.1162439, 23.1376155 ], [ 83.1088965, 23.1377414 ], [ 83.1008037, 23.1289724 ], [ 83.0877843, 23.1291325 ], [ 83.0811604, 23.1271488 ], [ 83.0499379, 23.1266766 ], [ 83.0453194, 23.1276134 ], [ 83.033502, 23.1259817 ], [ 83.0274241, 23.126574 ], [ 83.0302673, 23.1163721 ], [ 83.0310494, 23.1079252 ], [ 83.0342048, 23.1042971 ], [ 83.0316455, 23.0998981 ], [ 83.0289918, 23.0979731 ], [ 83.0199582, 23.0975385 ], [ 83.0164912, 23.0936985 ], [ 83.0121916, 23.0936097 ], [ 83.0030529, 23.0802163 ], [ 82.9988833, 23.0710596 ], [ 82.9831484, 23.0729471 ], [ 82.9738067, 23.0676266 ], [ 82.9654391, 23.0713078 ], [ 82.9630124, 23.0746696 ], [ 82.9661716, 23.0842482 ], [ 82.9594639, 23.0876698 ], [ 82.956628, 23.0957794 ], [ 82.9500386, 23.0957816 ], [ 82.9413281, 23.0885501 ], [ 82.9383354, 23.096957 ], [ 82.9335926, 23.0981766 ], [ 82.9301873, 23.1062318 ], [ 82.9222203, 23.1107885 ], [ 82.9237532, 23.1148748 ], [ 82.922996, 23.1155393 ], [ 82.9213349, 23.1150601 ], [ 82.9187044, 23.1169797 ], [ 82.9136812, 23.1167227 ], [ 82.8955917, 23.1092721 ], [ 82.8638047, 23.1091993 ], [ 82.8641238, 23.1065055 ], [ 82.8623954, 23.1025855 ], [ 82.8554571, 23.0933619 ], [ 82.8515642, 23.0839252 ], [ 82.8526525, 23.0788565 ], [ 82.8490406, 23.0788547 ], [ 82.8419687, 23.0838595 ], [ 82.8409781, 23.0793376 ], [ 82.8366725, 23.0794821 ], [ 82.8362853, 23.065937 ], [ 82.8408892, 23.0630121 ], [ 82.8701377, 23.0705897 ], [ 82.8797357, 23.0686799 ], [ 82.8839517, 23.0702373 ], [ 82.8913065, 23.0680494 ], [ 82.8947172, 23.0683315 ], [ 82.8952485, 23.0714221 ], [ 82.9028266, 23.070191 ], [ 82.9026193, 23.0726155 ], [ 82.9048013, 23.0745007 ], [ 82.9056181, 23.0785131 ], [ 82.919887, 23.0814355 ], [ 82.9258788, 23.0773173 ], [ 82.9245364, 23.0472533 ], [ 82.9203828, 23.0416786 ], [ 82.9015997, 23.0381613 ], [ 82.8988675, 23.0366131 ], [ 82.8981647, 23.0343241 ], [ 82.900501, 23.0327074 ], [ 82.8979054, 23.0302968 ], [ 82.8994173, 23.0283416 ], [ 82.8990314, 23.0256959 ], [ 82.8908516, 23.0300449 ], [ 82.8850221, 23.0272912 ], [ 82.8847101, 23.02977 ], [ 82.8835491, 23.0303163 ], [ 82.8806514, 23.0264743 ], [ 82.8747685, 23.0239912 ], [ 82.8732856, 23.0221942 ], [ 82.8604521, 23.0224058 ], [ 82.8509607, 23.0171448 ], [ 82.8309727, 23.0152894 ], [ 82.8305459, 23.0079389 ], [ 82.8337712, 23.0031088 ], [ 82.852168, 23.0019431 ], [ 82.8518953, 22.9984274 ], [ 82.8536535, 22.9931082 ], [ 82.8524268, 22.9875538 ], [ 82.8359759, 22.9653014 ], [ 82.831999, 22.9627776 ], [ 82.8274451, 22.9569777 ], [ 82.8219979, 22.9406933 ], [ 82.8080948, 22.9438466 ], [ 82.806375, 22.9417683 ], [ 82.7985998, 22.942097 ], [ 82.7927706, 22.9326734 ], [ 82.7920423, 22.9309558 ], [ 82.7937142, 22.928436 ], [ 82.7936142, 22.9235032 ], [ 82.7912719, 22.9147518 ], [ 82.7884279, 22.9098595 ], [ 82.7953999, 22.8916646 ], [ 82.7953579, 22.8860517 ], [ 82.7884343, 22.8703397 ], [ 82.780265, 22.8702511 ], [ 82.7776325, 22.8684057 ], [ 82.7687227, 22.8751717 ], [ 82.767139, 22.8746037 ], [ 82.7723705, 22.8633429 ], [ 82.76912, 22.8549711 ], [ 82.7557976, 22.8435586 ], [ 82.7648479, 22.8324581 ], [ 82.7622365, 22.8242281 ], [ 82.7631448, 22.8201972 ], [ 82.7597996, 22.8162472 ], [ 82.7643292, 22.810371 ], [ 82.7638869, 22.8032375 ], [ 82.75741, 22.7954727 ], [ 82.7484693, 22.8055013 ], [ 82.7359162, 22.8131203 ], [ 82.728174, 22.8235497 ], [ 82.7127225, 22.8337872 ], [ 82.6946807, 22.833208 ], [ 82.6846254, 22.8256592 ], [ 82.6805532, 22.8243094 ], [ 82.6734572, 22.8166429 ], [ 82.6668569, 22.8154128 ], [ 82.6623993, 22.8130691 ], [ 82.6596711, 22.8098867 ], [ 82.6504399, 22.8089722 ], [ 82.6476786, 22.8103859 ], [ 82.6389317, 22.8113566 ], [ 82.6345202, 22.818496 ], [ 82.6166674, 22.8235133 ], [ 82.6105245, 22.8273635 ], [ 82.6054112, 22.8269567 ], [ 82.5983961, 22.8325721 ], [ 82.5802939, 22.8309242 ], [ 82.578255, 22.8317186 ], [ 82.5710496, 22.8296446 ], [ 82.5626801, 22.8420123 ], [ 82.5563773, 22.8482385 ], [ 82.5563594, 22.8626406 ], [ 82.5586527, 22.8660603 ], [ 82.5634569, 22.8649487 ], [ 82.5679923, 22.8671331 ], [ 82.5711292, 22.8773659 ], [ 82.5763968, 22.8866995 ], [ 82.5771245, 22.8906418 ], [ 82.5739321, 22.8970609 ], [ 82.5748152, 22.8980109 ], [ 82.5793486, 22.8977828 ], [ 82.5893745, 22.8942372 ], [ 82.592179, 22.8954847 ], [ 82.5930441, 22.898146 ], [ 82.5893749, 22.9076711 ], [ 82.5799402, 22.9090627 ], [ 82.5730104, 22.9147208 ], [ 82.5725783, 22.91653 ], [ 82.5748357, 22.9219483 ], [ 82.5725921, 22.927849 ], [ 82.5759801, 22.936606 ], [ 82.5719967, 22.9418395 ], [ 82.5727752, 22.948693 ], [ 82.5594527, 22.9556917 ], [ 82.5585366, 22.9583834 ], [ 82.5642388, 22.9625237 ], [ 82.5687588, 22.9631236 ], [ 82.5731723, 22.9611309 ], [ 82.577916, 22.9701223 ], [ 82.5856665, 22.9778788 ], [ 82.5868178, 22.9818241 ], [ 82.5819288, 22.9907388 ], [ 82.5815886, 22.9963816 ], [ 82.5837271, 22.9980078 ], [ 82.5896935, 22.9972646 ], [ 82.5965478, 22.9991472 ], [ 82.5980096, 23.0006018 ], [ 82.6007091, 23.010474 ], [ 82.6057219, 23.0195588 ], [ 82.6054381, 23.0251889 ], [ 82.6007115, 23.0248632 ], [ 82.5972926, 23.0220769 ], [ 82.5948877, 23.0227402 ], [ 82.595197, 23.0360819 ], [ 82.5900738, 23.0397696 ], [ 82.5879751, 23.043345 ], [ 82.5872226, 23.0479229 ], [ 82.5848362, 23.0502159 ], [ 82.5776639, 23.0513021 ], [ 82.5799986, 23.0584002 ], [ 82.5858338, 23.0593453 ], [ 82.5864575, 23.0621674 ], [ 82.572919, 23.071085 ], [ 82.5689843, 23.0753232 ], [ 82.5698468, 23.0785787 ], [ 82.5743047, 23.0845579 ], [ 82.5837137, 23.0837931 ], [ 82.5839998, 23.0899019 ], [ 82.5866815, 23.0986885 ], [ 82.583185, 23.1053923 ], [ 82.5834329, 23.1085709 ], [ 82.58105, 23.1117352 ], [ 82.5804334, 23.1167149 ], [ 82.5781188, 23.1190801 ], [ 82.5767978, 23.1277167 ], [ 82.5820981, 23.1313663 ], [ 82.5949709, 23.1334189 ], [ 82.6094346, 23.1447398 ], [ 82.6126715, 23.1440357 ], [ 82.6139362, 23.1420583 ], [ 82.6170606, 23.1446094 ], [ 82.6213716, 23.1423069 ], [ 82.6277576, 23.1426907 ], [ 82.6365258, 23.1409159 ], [ 82.6377711, 23.1452681 ], [ 82.6403051, 23.1462161 ], [ 82.6413064, 23.1497285 ], [ 82.6433571, 23.1499405 ], [ 82.6433726, 23.1556067 ], [ 82.6490562, 23.1569513 ], [ 82.6604087, 23.1944676 ], [ 82.6625246, 23.1983092 ], [ 82.6641485, 23.2065484 ], [ 82.673491, 23.2153949 ], [ 82.6812978, 23.2176181 ], [ 82.6884241, 23.2262162 ], [ 82.6911594, 23.2352627 ], [ 82.6966215, 23.2445021 ], [ 82.7087233, 23.2436654 ], [ 82.7146905, 23.2460865 ], [ 82.7235973, 23.2456884 ], [ 82.7271745, 23.2466568 ], [ 82.7292094, 23.2496442 ], [ 82.7335499, 23.2502396 ], [ 82.7358329, 23.2482282 ], [ 82.7362281, 23.2504754 ], [ 82.7387156, 23.2522355 ], [ 82.7412946, 23.2526738 ], [ 82.7446444, 23.2512852 ], [ 82.755327, 23.2567385 ], [ 82.7628594, 23.2572356 ], [ 82.7642757, 23.2546104 ], [ 82.7721516, 23.2584257 ], [ 82.7707263, 23.2611766 ], [ 82.767188, 23.2599235 ], [ 82.7620288, 23.2635018 ], [ 82.7583022, 23.2632362 ], [ 82.7558467, 23.2679914 ], [ 82.7520878, 23.2660847 ], [ 82.7443774, 23.2684673 ], [ 82.7452907, 23.2706136 ], [ 82.7435883, 23.273686 ], [ 82.7460017, 23.2766737 ], [ 82.7446345, 23.2848584 ], [ 82.7465762, 23.2955405 ], [ 82.7490907, 23.2979328 ], [ 82.755931, 23.2996187 ], [ 82.7568424, 23.302636 ], [ 82.7550079, 23.3181256 ], [ 82.7519462, 23.3206086 ], [ 82.7565776, 23.3343512 ], [ 82.7535391, 23.3384361 ], [ 82.7538981, 23.3409835 ], [ 82.7502416, 23.3465703 ], [ 82.7505103, 23.3509609 ], [ 82.7483461, 23.3548173 ], [ 82.7411052, 23.3598053 ], [ 82.7331653, 23.3617027 ], [ 82.7272507, 23.3649393 ], [ 82.7228395, 23.3647751 ], [ 82.7182108, 23.36113 ], [ 82.7149341, 23.3607482 ], [ 82.6967331, 23.3696833 ], [ 82.6757435, 23.3702333 ], [ 82.671109, 23.3749662 ], [ 82.6674364, 23.3756987 ], [ 82.6644403, 23.381993 ], [ 82.6552845, 23.3819816 ], [ 82.6501252, 23.3849577 ], [ 82.6493097, 23.3918067 ], [ 82.6510784, 23.4068089 ], [ 82.6564966, 23.4190337 ], [ 82.6540035, 23.4280998 ], [ 82.6530516, 23.438091 ], [ 82.6546234, 23.4429305 ], [ 82.6524679, 23.4541409 ], [ 82.6538341, 23.4584251 ], [ 82.6532475, 23.4615494 ], [ 82.6503659, 23.4656989 ], [ 82.6520844, 23.4693329 ], [ 82.6468094, 23.4741329 ], [ 82.6499715, 23.4761369 ], [ 82.6502166, 23.4782453 ], [ 82.6473781, 23.479564 ], [ 82.6463311, 23.4821511 ], [ 82.6433897, 23.4842824 ], [ 82.6429446, 23.4866978 ], [ 82.644335, 23.4885802 ], [ 82.6417717, 23.500558 ], [ 82.6318804, 23.5048344 ], [ 82.6286982, 23.5096469 ], [ 82.6215393, 23.5136413 ], [ 82.6139515, 23.5127823 ], [ 82.6086421, 23.5184789 ], [ 82.6051252, 23.520245 ], [ 82.6036571, 23.5251592 ], [ 82.5923034, 23.5306186 ], [ 82.5820421, 23.5417606 ], [ 82.5801561, 23.5465509 ], [ 82.5852306, 23.5527827 ], [ 82.5826429, 23.5591161 ], [ 82.5825975, 23.5633734 ], [ 82.5784224, 23.5702435 ], [ 82.5798129, 23.5715486 ], [ 82.5782594, 23.5741486 ], [ 82.5834846, 23.5770349 ], [ 82.5781096, 23.5804423 ], [ 82.5760754, 23.5860982 ], [ 82.5779207, 23.5901393 ], [ 82.5771115, 23.5926041 ], [ 82.5785135, 23.6039226 ], [ 82.5765672, 23.6076827 ], [ 82.5796029, 23.6129025 ], [ 82.5751621, 23.6180162 ], [ 82.5744044, 23.6264131 ], [ 82.5781562, 23.6308025 ], [ 82.5806425, 23.6396157 ], [ 82.5910646, 23.6439207 ], [ 82.5935632, 23.6468106 ], [ 82.5923129, 23.6494378 ], [ 82.6031907, 23.6616922 ], [ 82.6010531, 23.6655113 ], [ 82.6014189, 23.6753667 ], [ 82.5982071, 23.6812622 ], [ 82.5957585, 23.6926159 ], [ 82.5871188, 23.6988577 ], [ 82.5851017, 23.7058141 ], [ 82.5807375, 23.7077677 ], [ 82.5795443, 23.7127199 ], [ 82.5779358, 23.7136539 ], [ 82.5774393, 23.7172473 ], [ 82.5754377, 23.7199238 ], [ 82.5713336, 23.7197238 ], [ 82.5659324, 23.7255818 ], [ 82.5650929, 23.7277213 ], [ 82.5661445, 23.7338209 ], [ 82.5618928, 23.7337064 ], [ 82.56024, 23.7354246 ], [ 82.5533923, 23.7373009 ], [ 82.551939, 23.7404241 ], [ 82.5524429, 23.7426094 ], [ 82.5508485, 23.7435387 ], [ 82.551758, 23.7485367 ], [ 82.5488089, 23.7538868 ], [ 82.5458494, 23.7545793 ], [ 82.5457233, 23.756702 ], [ 82.5405237, 23.7578716 ], [ 82.5376408, 23.7616678 ], [ 82.5344991, 23.759795 ], [ 82.5317916, 23.7601308 ], [ 82.5298197, 23.758189 ], [ 82.5251182, 23.7574972 ], [ 82.5217033, 23.7585826 ], [ 82.5148371, 23.7561839 ], [ 82.5087786, 23.7608762 ], [ 82.5029418, 23.7599618 ], [ 82.4992327, 23.7634366 ], [ 82.4976506, 23.7678073 ], [ 82.4989269, 23.7755828 ], [ 82.497993, 23.7856228 ], [ 82.5063391, 23.7847849 ], [ 82.5109692, 23.7860163 ], [ 82.5153073, 23.7844619 ], [ 82.5244621, 23.7837413 ], [ 82.5310076, 23.7890274 ], [ 82.5354856, 23.7907997 ], [ 82.5381277, 23.7942503 ], [ 82.5418091, 23.7914894 ], [ 82.5428045, 23.792298 ], [ 82.5514745, 23.790641 ], [ 82.548442, 23.8085486 ], [ 82.5387951, 23.8163671 ], [ 82.5394902, 23.8189859 ], [ 82.5383411, 23.8201952 ], [ 82.5335517, 23.8202331 ], [ 82.5330744, 23.8221469 ], [ 82.5474916, 23.8225521 ], [ 82.5467387, 23.8261949 ], [ 82.5542519, 23.8261985 ], [ 82.5632193, 23.822848 ], [ 82.5647611, 23.8207449 ], [ 82.5693741, 23.8202997 ], [ 82.5731953, 23.8240616 ], [ 82.577764, 23.8242255 ], [ 82.5792172, 23.8224066 ], [ 82.581808, 23.8230123 ], [ 82.5836097, 23.8207059 ], [ 82.5886197, 23.8214385 ], [ 82.5999544, 23.826533 ], [ 82.6022407, 23.8302985 ], [ 82.6075601, 23.8332922 ], [ 82.6295368, 23.8387917 ], [ 82.6354016, 23.8378208 ], [ 82.6391664, 23.8416533 ], [ 82.6367372, 23.8444796 ], [ 82.6381364, 23.8479827 ], [ 82.6424407, 23.8469394 ], [ 82.6471431, 23.848722 ], [ 82.6462305, 23.8506679 ], [ 82.6471783, 23.8536879 ], [ 82.6450974, 23.8551102 ], [ 82.6472131, 23.8559722 ], [ 82.6468258, 23.8591414 ], [ 82.6495798, 23.8602516 ], [ 82.6528683, 23.8587928 ], [ 82.6529172, 23.8577545 ], [ 82.6505756, 23.8568475 ], [ 82.6515717, 23.8554839 ], [ 82.6599651, 23.854778 ], [ 82.661561, 23.856931 ], [ 82.6602225, 23.8628362 ], [ 82.6614254, 23.863626 ], [ 82.6644784, 23.8625508 ], [ 82.6643808, 23.8646004 ], [ 82.6684478, 23.8717908 ], [ 82.665449, 23.8739044 ], [ 82.6637415, 23.8771778 ], [ 82.6512346, 23.8867557 ], [ 82.6512205, 23.8900828 ], [ 82.6576015, 23.9025414 ], [ 82.6620272, 23.9078268 ], [ 82.668391, 23.9072292 ], [ 82.6711453, 23.9057928 ], [ 82.6746615, 23.9067443 ], [ 82.6763762, 23.9092537 ], [ 82.6805836, 23.907153 ], [ 82.6834032, 23.9092873 ], [ 82.6888836, 23.9097998 ], [ 82.6931238, 23.9189396 ], [ 82.6947521, 23.9144831 ], [ 82.6945263, 23.9097066 ] ] ] } }
]
}
