{
"type": "FeatureCollection",
"name": "2302",
"crs": { "type": "name", "properties": { "name": "urn:ogc:def:crs:OGC:1.3:CRS84" } },
"features": [
{ "type": "Feature", "properties": { "code": "2302", "name": "Morena", "type": "district" }, "geometry": { "type": "Polygon", "coordinates": [ [ [ 78.3733557, 26.8620816 ], [ 78.3825645, 26.840646 ], [ 78.3928953, 26.8236034 ], [ 78.3990484, 26.81848 ], [ 78.4055475, 26.8184094 ], [ 78.4276478, 26.8253736 ], [ 78.4342927, 26.8257052 ], [ 78.4449843, 26.8132465 ], [ 78.453169, 26.7977067 ], [ 78.4607386, 26.7887577 ], [ 78.4662444, 26.7872102 ], [ 78.4796268, 26.7870349 ], [ 78.4977937, 26.7815941 ], [ 78.5232304, 26.7803146 ], [ 78.5452269, 26.7642089 ], [ 78.5426959, 26.759968 ], [ 78.5401534, 26.7592825 ], [ 78.5396046, 26.7572918 ], [ 78.5406787, 26.7528714 ], [ 78.5428668, 26.7523109 ], [ 78.5431815, 26.7504633 ], [ 78.5424276, 26.7499498 ], [ 78.5418893, 26.7516197 ], [ 78.5388813, 26.7508691 ], [ 78.5367711, 26.7412774 ], [ 78.5342812, 26.7399902 ], [ 78.5388397, 26.7371119 ], [ 78.5376996, 26.7349417 ], [ 78.5398514, 26.7346642 ], [ 78.5390873, 26.732795 ], [ 78.5373194, 26.7322218 ], [ 78.5347592, 26.7345399 ], [ 78.5255744, 26.7385414 ], [ 78.5182179, 26.7257845 ], [ 78.5133836, 26.7214771 ], [ 78.520649, 26.713906 ], [ 78.5220179, 26.710674 ], [ 78.524857, 26.7100864 ], [ 78.5248411, 26.7068612 ], [ 78.5225053, 26.7037101 ], [ 78.5247015, 26.6991234 ], [ 78.5227016, 26.6983367 ], [ 78.5208452, 26.6939614 ], [ 78.5218366, 26.6918783 ], [ 78.5256296, 26.6900902 ], [ 78.5307966, 26.6896011 ], [ 78.5235971, 26.6866156 ], [ 78.5223678, 26.6848186 ], [ 78.5228815, 26.6820014 ], [ 78.5276788, 26.6783606 ], [ 78.5268883, 26.6755887 ], [ 78.5219977, 26.6753315 ], [ 78.5189485, 26.6793343 ], [ 78.5150611, 26.6809869 ], [ 78.5134014, 26.6849259 ], [ 78.5114193, 26.6862893 ], [ 78.5083059, 26.6848007 ], [ 78.5064397, 26.6776895 ], [ 78.4944652, 26.6698297 ], [ 78.4904968, 26.6694855 ], [ 78.4881172, 26.6708052 ], [ 78.4870085, 26.6722231 ], [ 78.4872542, 26.6769612 ], [ 78.4851713, 26.6787002 ], [ 78.4828792, 26.6772173 ], [ 78.48404, 26.6724556 ], [ 78.4825469, 26.6710848 ], [ 78.4806688, 26.6716684 ], [ 78.4790094, 26.6751985 ], [ 78.4747782, 26.6790239 ], [ 78.4712424, 26.6799289 ], [ 78.4695539, 26.6791313 ], [ 78.4692128, 26.6736441 ], [ 78.468016, 26.6720608 ], [ 78.4631703, 26.6741128 ], [ 78.4596384, 26.6733523 ], [ 78.4585675, 26.6720036 ], [ 78.4592148, 26.6710645 ], [ 78.4636693, 26.6697892 ], [ 78.4611328, 26.6632609 ], [ 78.463474, 26.6576771 ], [ 78.467474, 26.6541276 ], [ 78.4678115, 26.6491678 ], [ 78.4656868, 26.6486141 ], [ 78.461952, 26.6508323 ], [ 78.4567309, 26.6465843 ], [ 78.4500328, 26.6484789 ], [ 78.4467615, 26.6454616 ], [ 78.4408658, 26.6454148 ], [ 78.4410693, 26.6411908 ], [ 78.4350216, 26.6382782 ], [ 78.4330444, 26.6310632 ], [ 78.4407381, 26.6243763 ], [ 78.4363832, 26.6212826 ], [ 78.4357978, 26.6249201 ], [ 78.4332474, 26.6254582 ], [ 78.4262038, 26.6163858 ], [ 78.4286572, 26.61291 ], [ 78.4332961, 26.6128314 ], [ 78.4340638, 26.6117977 ], [ 78.4278418, 26.6083524 ], [ 78.4226565, 26.6099789 ], [ 78.4232073, 26.6064632 ], [ 78.4218801, 26.6021494 ], [ 78.4154501, 26.6038572 ], [ 78.4139181, 26.6015516 ], [ 78.4147904, 26.5979548 ], [ 78.4219674, 26.5945679 ], [ 78.4182962, 26.5901285 ], [ 78.4150985, 26.5889787 ], [ 78.4102297, 26.5896976 ], [ 78.4078827, 26.59672 ], [ 78.4020661, 26.6025518 ], [ 78.3935021, 26.6031127 ], [ 78.3889787, 26.6018994 ], [ 78.3798977, 26.6041293 ], [ 78.3788535, 26.6026898 ], [ 78.3802538, 26.5982717 ], [ 78.3884963, 26.5973596 ], [ 78.3913571, 26.5940604 ], [ 78.3895842, 26.5867453 ], [ 78.3783608, 26.5828786 ], [ 78.3759666, 26.5838129 ], [ 78.3746416, 26.5880503 ], [ 78.3699836, 26.5878923 ], [ 78.3667714, 26.5841104 ], [ 78.3664355, 26.5781671 ], [ 78.3679616, 26.5735145 ], [ 78.3669379, 26.5706398 ], [ 78.3631791, 26.5693082 ], [ 78.3543511, 26.5709048 ], [ 78.351692, 26.5664684 ], [ 78.3511763, 26.5603805 ], [ 78.3423743, 26.5607804 ], [ 78.3383903, 26.5591549 ], [ 78.338125, 26.557115 ], [ 78.340465, 26.5519935 ], [ 78.3442839, 26.5501711 ], [ 78.3452079, 26.5476848 ], [ 78.3444208, 26.5448912 ], [ 78.3402014, 26.5438343 ], [ 78.3373915, 26.5443886 ], [ 78.3261942, 26.5518495 ], [ 78.3155577, 26.5493183 ], [ 78.3108856, 26.5504581 ], [ 78.3081387, 26.5541077 ], [ 78.310448, 26.5612931 ], [ 78.3053656, 26.5679065 ], [ 78.3024795, 26.5685008 ], [ 78.303597, 26.5713354 ], [ 78.3038558, 26.5828567 ], [ 78.3058505, 26.5878714 ], [ 78.296824, 26.5903849 ], [ 78.2942624, 26.5781854 ], [ 78.2895951, 26.570908 ], [ 78.2861584, 26.5759468 ], [ 78.2806523, 26.5764712 ], [ 78.2794438, 26.5751347 ], [ 78.280917, 26.5656903 ], [ 78.2778209, 26.5654129 ], [ 78.2732676, 26.5672014 ], [ 78.2709704, 26.5657963 ], [ 78.2710636, 26.5625968 ], [ 78.2776906, 26.559122 ], [ 78.2779035, 26.5566221 ], [ 78.2736551, 26.5487217 ], [ 78.270226, 26.5453888 ], [ 78.2705447, 26.5368959 ], [ 78.2672819, 26.5332697 ], [ 78.2599608, 26.5345637 ], [ 78.2589901, 26.5369728 ], [ 78.2603775, 26.539298 ], [ 78.2585899, 26.5407948 ], [ 78.2503435, 26.5387797 ], [ 78.2485067, 26.5394475 ], [ 78.2448185, 26.5447089 ], [ 78.2389376, 26.5456221 ], [ 78.2376943, 26.5444257 ], [ 78.2374719, 26.5392499 ], [ 78.2316742, 26.5376449 ], [ 78.2292487, 26.532863 ], [ 78.2327266, 26.5289484 ], [ 78.2378157, 26.5322452 ], [ 78.2409747, 26.5315663 ], [ 78.2425454, 26.5279071 ], [ 78.2400655, 26.5255451 ], [ 78.2361515, 26.5244049 ], [ 78.2275539, 26.5262663 ], [ 78.2230608, 26.5307975 ], [ 78.2209783, 26.531359 ], [ 78.216733, 26.5313846 ], [ 78.2139933, 26.5295181 ], [ 78.2104683, 26.5192605 ], [ 78.2212968, 26.5164707 ], [ 78.2209135, 26.5135347 ], [ 78.2187865, 26.5119339 ], [ 78.2206902, 26.5079892 ], [ 78.2231357, 26.5064034 ], [ 78.2241874, 26.5011987 ], [ 78.2307389, 26.4961834 ], [ 78.229925, 26.4946383 ], [ 78.234187, 26.4908217 ], [ 78.2303867, 26.4812551 ], [ 78.2393196, 26.4751738 ], [ 78.2414439, 26.4635086 ], [ 78.2470945, 26.4633617 ], [ 78.2481279, 26.4590556 ], [ 78.2528014, 26.4582531 ], [ 78.2591884, 26.4589218 ], [ 78.2607279, 26.4637179 ], [ 78.2653707, 26.4639517 ], [ 78.2609991, 26.4530881 ], [ 78.2582447, 26.4525737 ], [ 78.2571441, 26.4500591 ], [ 78.2586735, 26.4498641 ], [ 78.258464, 26.4486951 ], [ 78.2549917, 26.4419815 ], [ 78.2691435, 26.4365817 ], [ 78.2759471, 26.4440463 ], [ 78.2913339, 26.4387941 ], [ 78.2869426, 26.4319974 ], [ 78.2873365, 26.4247566 ], [ 78.2862333, 26.4221362 ], [ 78.2944803, 26.415753 ], [ 78.2930521, 26.404664 ], [ 78.2818036, 26.3830855 ], [ 78.2767783, 26.3798058 ], [ 78.2742444, 26.381027 ], [ 78.2721747, 26.3730692 ], [ 78.2590973, 26.3588932 ], [ 78.2646429, 26.353464 ], [ 78.2689939, 26.3530566 ], [ 78.2675022, 26.3437159 ], [ 78.262832, 26.3379674 ], [ 78.2645416, 26.3361455 ], [ 78.2568909, 26.3288871 ], [ 78.2553638, 26.3236282 ], [ 78.2557342, 26.3213991 ], [ 78.2584422, 26.3200474 ], [ 78.260772, 26.3164254 ], [ 78.2648118, 26.3151695 ], [ 78.2642893, 26.3142755 ], [ 78.2595424, 26.3139491 ], [ 78.255433, 26.3122444 ], [ 78.2540083, 26.3098964 ], [ 78.2453981, 26.3077781 ], [ 78.2372533, 26.3073199 ], [ 78.2324816, 26.3102931 ], [ 78.231546, 26.3083712 ], [ 78.2345767, 26.3070896 ], [ 78.2323825, 26.3059855 ], [ 78.2319603, 26.3043544 ], [ 78.2295425, 26.304997 ], [ 78.2306706, 26.3038906 ], [ 78.2299088, 26.3031104 ], [ 78.2281676, 26.3045671 ], [ 78.2236204, 26.3036677 ], [ 78.2138095, 26.3044504 ], [ 78.2113252, 26.3034319 ], [ 78.2042359, 26.3045778 ], [ 78.2023353, 26.3077018 ], [ 78.202759, 26.312192 ], [ 78.2005965, 26.3133937 ], [ 78.2011604, 26.3179018 ], [ 78.1986347, 26.3191172 ], [ 78.1945454, 26.3183046 ], [ 78.1810382, 26.320804 ], [ 78.1807486, 26.3223679 ], [ 78.1690726, 26.329006 ], [ 78.1659968, 26.3267888 ], [ 78.1632574, 26.3268347 ], [ 78.1606747, 26.331759 ], [ 78.1609685, 26.3342163 ], [ 78.1501493, 26.3415138 ], [ 78.1476296, 26.3396459 ], [ 78.1193583, 26.3388128 ], [ 78.1104122, 26.3239329 ], [ 78.0972538, 26.3236174 ], [ 78.0813256, 26.3311185 ], [ 78.073868, 26.3317931 ], [ 78.0752142, 26.3281967 ], [ 78.0736506, 26.3251296 ], [ 78.0678517, 26.3241932 ], [ 78.0652643, 26.3208571 ], [ 78.0683917, 26.315506 ], [ 78.0676619, 26.3129671 ], [ 78.064963, 26.3125463 ], [ 78.0615084, 26.3161327 ], [ 78.0581926, 26.3173903 ], [ 78.0552092, 26.311328 ], [ 78.0524484, 26.3099953 ], [ 78.0474938, 26.3135016 ], [ 78.0384202, 26.313334 ], [ 78.0321467, 26.3122402 ], [ 78.0283493, 26.3082617 ], [ 78.0079526, 26.3201947 ], [ 78.0052338, 26.3263949 ], [ 78.0019173, 26.3210697 ], [ 78.002724, 26.3134006 ], [ 78.0007459, 26.2923279 ], [ 78.0016027, 26.286983 ], [ 78.0116697, 26.2723127 ], [ 78.0060243, 26.2735583 ], [ 77.9968092, 26.2722878 ], [ 77.991811, 26.2699002 ], [ 77.9885527, 26.2651641 ], [ 77.9921552, 26.2587663 ], [ 77.9970361, 26.2548404 ], [ 77.9954792, 26.2423728 ], [ 77.988671, 26.2427575 ], [ 77.9879351, 26.2477088 ], [ 77.9856841, 26.2502694 ], [ 77.9746878, 26.2537114 ], [ 77.9622648, 26.2595278 ], [ 77.9517193, 26.2414643 ], [ 77.9480004, 26.2523014 ], [ 77.9123252, 26.2518866 ], [ 77.9068742, 26.249167 ], [ 77.9062277, 26.2456584 ], [ 77.903825, 26.2437656 ], [ 77.9046324, 26.2407666 ], [ 77.9032609, 26.2394558 ], [ 77.9017801, 26.2311002 ], [ 77.8928521, 26.2253092 ], [ 77.8911411, 26.2274192 ], [ 77.8837532, 26.2309311 ], [ 77.8756117, 26.2307147 ], [ 77.8729854, 26.2245834 ], [ 77.8736178, 26.2180512 ], [ 77.863774, 26.2123463 ], [ 77.8566921, 26.2114475 ], [ 77.8477511, 26.2129874 ], [ 77.8493783, 26.2195428 ], [ 77.8444318, 26.221654 ], [ 77.8428523, 26.22456 ], [ 77.8386288, 26.2257753 ], [ 77.8358008, 26.2282432 ], [ 77.835567, 26.2317497 ], [ 77.8403822, 26.2445048 ], [ 77.8453132, 26.2487277 ], [ 77.8204101, 26.2528743 ], [ 77.8173758, 26.2554997 ], [ 77.8158794, 26.2551696 ], [ 77.8122553, 26.2468195 ], [ 77.8067646, 26.2434119 ], [ 77.7954837, 26.2258935 ], [ 77.7925931, 26.2235857 ], [ 77.7815184, 26.2192848 ], [ 77.7807827, 26.2164208 ], [ 77.7824467, 26.2126919 ], [ 77.7811184, 26.2095319 ], [ 77.7713803, 26.2005737 ], [ 77.7720913, 26.1970156 ], [ 77.7706739, 26.1819072 ], [ 77.763316, 26.1794917 ], [ 77.761445, 26.1719963 ], [ 77.7445056, 26.1628798 ], [ 77.7434034, 26.1608904 ], [ 77.743385, 26.157623 ], [ 77.7476919, 26.1444954 ], [ 77.7419801, 26.1379743 ], [ 77.7409194, 26.1221342 ], [ 77.7452786, 26.1169902 ], [ 77.7522533, 26.1134273 ], [ 77.7565495, 26.113846 ], [ 77.7610903, 26.1171984 ], [ 77.7656946, 26.1171117 ], [ 77.7725405, 26.1147812 ], [ 77.7721327, 26.109478 ], [ 77.7604319, 26.0822011 ], [ 77.7660182, 26.0806055 ], [ 77.7667775, 26.0728299 ], [ 77.769563, 26.0648438 ], [ 77.7758636, 26.0535451 ], [ 77.7756824, 26.0491853 ], [ 77.7738311, 26.0465303 ], [ 77.7678701, 26.0444183 ], [ 77.7614698, 26.0370436 ], [ 77.7592896, 26.0391202 ], [ 77.7487485, 26.0401649 ], [ 77.7331301, 26.0460899 ], [ 77.728574, 26.0464453 ], [ 77.7212717, 26.0368194 ], [ 77.7082279, 26.0087557 ], [ 77.7058185, 26.0057965 ], [ 77.6876363, 25.9918013 ], [ 77.6809379, 25.9880536 ], [ 77.6776254, 25.9844488 ], [ 77.6685767, 25.9696306 ], [ 77.6673368, 25.9653299 ], [ 77.67203, 25.9529894 ], [ 77.6703339, 25.9432549 ], [ 77.6721548, 25.9406006 ], [ 77.6718642, 25.937807 ], [ 77.6778418, 25.932705 ], [ 77.6731286, 25.9295249 ], [ 77.6744006, 25.9278636 ], [ 77.6757138, 25.9175008 ], [ 77.680937, 25.9129314 ], [ 77.6613289, 25.9117869 ], [ 77.6556225, 25.9101252 ], [ 77.6530248, 25.9116173 ], [ 77.6272995, 25.9170193 ], [ 77.6154014, 25.9182542 ], [ 77.6121227, 25.9160787 ], [ 77.6084693, 25.9183168 ], [ 77.6072667, 25.9167506 ], [ 77.5986629, 25.9162845 ], [ 77.5953599, 25.9131652 ], [ 77.5895564, 25.9116069 ], [ 77.5893823, 25.909797 ], [ 77.5853048, 25.9107212 ], [ 77.5809437, 25.9094021 ], [ 77.5783383, 25.9105522 ], [ 77.5768819, 25.9085659 ], [ 77.5771008, 25.9102584 ], [ 77.5743065, 25.909752 ], [ 77.5715936, 25.9053822 ], [ 77.5696867, 25.9067851 ], [ 77.5671026, 25.9049472 ], [ 77.5664599, 25.9028754 ], [ 77.5619353, 25.9003281 ], [ 77.5594394, 25.9020014 ], [ 77.5586869, 25.9002364 ], [ 77.5566004, 25.9013186 ], [ 77.5554735, 25.8999957 ], [ 77.5535005, 25.9032217 ], [ 77.5526381, 25.9017409 ], [ 77.5502578, 25.9019519 ], [ 77.5498047, 25.9003133 ], [ 77.5442427, 25.9050312 ], [ 77.5431122, 25.9088849 ], [ 77.5429298, 25.9129105 ], [ 77.5468807, 25.9153499 ], [ 77.5453455, 25.9200879 ], [ 77.5473345, 25.9235235 ], [ 77.5413077, 25.9275144 ], [ 77.5373146, 25.9345571 ], [ 77.5382112, 25.9439677 ], [ 77.5473178, 25.941459 ], [ 77.5518433, 25.9365194 ], [ 77.5567704, 25.9357861 ], [ 77.562747, 25.9323181 ], [ 77.5629814, 25.9290545 ], [ 77.5647608, 25.9276614 ], [ 77.5636728, 25.9274397 ], [ 77.565066, 25.9269353 ], [ 77.5650642, 25.9297556 ], [ 77.5669252, 25.9331697 ], [ 77.5707575, 25.9335534 ], [ 77.5750628, 25.9388896 ], [ 77.5829388, 25.9407831 ], [ 77.5788934, 25.9464821 ], [ 77.6004666, 25.9552925 ], [ 77.6020034, 25.9602436 ], [ 77.6036507, 25.9606907 ], [ 77.6081046, 25.9566429 ], [ 77.6166515, 25.9564316 ], [ 77.6396714, 25.9581911 ], [ 77.6488531, 25.961692 ], [ 77.6471728, 25.9733544 ], [ 77.6451062, 25.9758234 ], [ 77.6462755, 25.980702 ], [ 77.6440003, 25.9910962 ], [ 77.6473023, 25.9967462 ], [ 77.6532767, 26.0030906 ], [ 77.6513293, 26.0048511 ], [ 77.653623, 26.0101129 ], [ 77.6503515, 26.0099421 ], [ 77.6485182, 26.0084666 ], [ 77.6478393, 26.0102314 ], [ 77.645252, 26.010322 ], [ 77.6442336, 26.0128721 ], [ 77.6254236, 26.0135595 ], [ 77.6162327, 26.0211187 ], [ 77.6163123, 26.0267015 ], [ 77.6149183, 26.0290212 ], [ 77.6159722, 26.0318149 ], [ 77.6190174, 26.0333677 ], [ 77.6213722, 26.0366351 ], [ 77.6204779, 26.0374294 ], [ 77.6261331, 26.0388963 ], [ 77.635416, 26.0452142 ], [ 77.6382941, 26.0488336 ], [ 77.6366367, 26.0613531 ], [ 77.6320852, 26.0700389 ], [ 77.6349235, 26.070181 ], [ 77.6378566, 26.0669673 ], [ 77.6433431, 26.0659829 ], [ 77.6485853, 26.0680898 ], [ 77.6528926, 26.0672134 ], [ 77.6585746, 26.0685977 ], [ 77.6683286, 26.0680535 ], [ 77.6698081, 26.0690323 ], [ 77.6666813, 26.086657 ], [ 77.6678076, 26.0915399 ], [ 77.6641654, 26.0956252 ], [ 77.6406834, 26.0929265 ], [ 77.6389435, 26.0881067 ], [ 77.63411, 26.0820234 ], [ 77.616529, 26.0717652 ], [ 77.6086784, 26.0717374 ], [ 77.6039814, 26.0692682 ], [ 77.5997699, 26.0645062 ], [ 77.6053766, 26.0630403 ], [ 77.6104238, 26.0596696 ], [ 77.6107353, 26.0455525 ], [ 77.6139229, 26.0437837 ], [ 77.6118553, 26.0374222 ], [ 77.6133591, 26.0361429 ], [ 77.6073244, 26.0351674 ], [ 77.5998326, 26.0270246 ], [ 77.5980144, 26.0269656 ], [ 77.5961126, 26.0210079 ], [ 77.5916886, 26.0151128 ], [ 77.5884827, 26.0127562 ], [ 77.5812106, 26.0122577 ], [ 77.5753608, 26.0147065 ], [ 77.5702785, 26.0204138 ], [ 77.5526139, 26.0240211 ], [ 77.551128, 26.02764 ], [ 77.5489639, 26.029399 ], [ 77.5486073, 26.032373 ], [ 77.5431134, 26.0379978 ], [ 77.5348883, 26.0406467 ], [ 77.5326084, 26.0428296 ], [ 77.5199165, 26.0453123 ], [ 77.5162744, 26.0505628 ], [ 77.5097864, 26.0535636 ], [ 77.5099555, 26.0645893 ], [ 77.5052733, 26.0647254 ], [ 77.49877, 26.0680144 ], [ 77.4937565, 26.0740663 ], [ 77.4848031, 26.0812944 ], [ 77.4838675, 26.0855464 ], [ 77.4806713, 26.0882431 ], [ 77.4771541, 26.0897079 ], [ 77.4705219, 26.0897396 ], [ 77.467504, 26.0971701 ], [ 77.4677768, 26.1008707 ], [ 77.4657043, 26.1032098 ], [ 77.4567725, 26.1041269 ], [ 77.4533508, 26.10764 ], [ 77.4531476, 26.1102261 ], [ 77.4503828, 26.1095642 ], [ 77.4439105, 26.1114855 ], [ 77.444376, 26.1125954 ], [ 77.4409332, 26.1151515 ], [ 77.4430998, 26.1186075 ], [ 77.4426255, 26.1196909 ], [ 77.4311446, 26.1246557 ], [ 77.4300091, 26.1230947 ], [ 77.4262996, 26.1234661 ], [ 77.4263922, 26.1290894 ], [ 77.4237441, 26.1332874 ], [ 77.4262765, 26.1389821 ], [ 77.4129481, 26.1443974 ], [ 77.406279, 26.1490159 ], [ 77.4032596, 26.1529294 ], [ 77.3981094, 26.1553268 ], [ 77.3927535, 26.1542986 ], [ 77.388363, 26.1560953 ], [ 77.3848774, 26.1555314 ], [ 77.3832171, 26.1542453 ], [ 77.3843769, 26.1497728 ], [ 77.3827567, 26.1484235 ], [ 77.3775962, 26.1489788 ], [ 77.3715006, 26.1475843 ], [ 77.3618497, 26.1483826 ], [ 77.3457549, 26.141403 ], [ 77.3436697, 26.1416147 ], [ 77.3421091, 26.1435956 ], [ 77.3387441, 26.1433557 ], [ 77.3371384, 26.1452868 ], [ 77.3318977, 26.1462466 ], [ 77.3254351, 26.1391319 ], [ 77.3197984, 26.1425193 ], [ 77.3138781, 26.1428193 ], [ 77.3113245, 26.1399299 ], [ 77.3117975, 26.1343609 ], [ 77.3064789, 26.1322599 ], [ 77.3019185, 26.1331287 ], [ 77.2993655, 26.1301217 ], [ 77.2930201, 26.1312194 ], [ 77.2862982, 26.1276366 ], [ 77.277016, 26.1252116 ], [ 77.2591238, 26.103847 ], [ 77.2588854, 26.0971855 ], [ 77.2543275, 26.091757 ], [ 77.2535479, 26.0868687 ], [ 77.2511862, 26.0847094 ], [ 77.2488134, 26.0858366 ], [ 77.2424248, 26.083005 ], [ 77.238849, 26.0790387 ], [ 77.233793, 26.0785686 ], [ 77.2318779, 26.0888424 ], [ 77.2263785, 26.0960246 ], [ 77.2207682, 26.0961939 ], [ 77.2135919, 26.0986726 ], [ 77.208169, 26.1035109 ], [ 77.2037559, 26.1176769 ], [ 77.1989959, 26.1234695 ], [ 77.2019776, 26.1285012 ], [ 77.2003006, 26.1314192 ], [ 77.2013678, 26.1354805 ], [ 77.2008838, 26.1404167 ], [ 77.1890731, 26.1553958 ], [ 77.1841683, 26.1590764 ], [ 77.1837712, 26.1621383 ], [ 77.177366, 26.1624211 ], [ 77.175798, 26.1655236 ], [ 77.1760305, 26.1685571 ], [ 77.1742063, 26.169758 ], [ 77.1806091, 26.1744451 ], [ 77.17506, 26.1753726 ], [ 77.1684821, 26.174554 ], [ 77.1687639, 26.1721934 ], [ 77.1677687, 26.1714876 ], [ 77.1657309, 26.1725908 ], [ 77.1581695, 26.169284 ], [ 77.157667, 26.1673326 ], [ 77.1542093, 26.1646509 ], [ 77.1505536, 26.1643159 ], [ 77.1458122, 26.1649971 ], [ 77.1417202, 26.1681685 ], [ 77.1405323, 26.1724352 ], [ 77.1357423, 26.1742848 ], [ 77.1398439, 26.1797486 ], [ 77.1435826, 26.1885832 ], [ 77.1471692, 26.1922772 ], [ 77.1269402, 26.2102169 ], [ 77.1145841, 26.2178636 ], [ 77.1224285, 26.2255949 ], [ 77.1347183, 26.2329477 ], [ 77.1394594, 26.2342146 ], [ 77.1539141, 26.2317949 ], [ 77.1689753, 26.2327509 ], [ 77.1704681, 26.2341452 ], [ 77.1710516, 26.2374679 ], [ 77.1735528, 26.2388012 ], [ 77.180046, 26.2379069 ], [ 77.1986573, 26.2299925 ], [ 77.2038889, 26.2298668 ], [ 77.2107755, 26.2327099 ], [ 77.2133032, 26.2342011 ], [ 77.2167965, 26.2400386 ], [ 77.2308912, 26.2459824 ], [ 77.2517702, 26.2597819 ], [ 77.2710547, 26.2675805 ], [ 77.27898, 26.2759644 ], [ 77.2984275, 26.2910161 ], [ 77.3165997, 26.3114743 ], [ 77.3176213, 26.317456 ], [ 77.3146444, 26.3187223 ], [ 77.3213914, 26.3340009 ], [ 77.3305885, 26.3438694 ], [ 77.3352548, 26.3413387 ], [ 77.3421233, 26.3518126 ], [ 77.3548298, 26.3545013 ], [ 77.3668503, 26.3634541 ], [ 77.3745194, 26.365721 ], [ 77.3904034, 26.3565188 ], [ 77.3970475, 26.3607757 ], [ 77.4116136, 26.3632068 ], [ 77.4187794, 26.3635958 ], [ 77.4409453, 26.3608055 ], [ 77.4456739, 26.362489 ], [ 77.4485601, 26.3675294 ], [ 77.4462239, 26.3752807 ], [ 77.4397534, 26.3846547 ], [ 77.4348135, 26.3953877 ], [ 77.4354052, 26.4011352 ], [ 77.4373492, 26.4032769 ], [ 77.4487413, 26.4046074 ], [ 77.459677, 26.4037835 ], [ 77.4865141, 26.4108229 ], [ 77.5214609, 26.4072103 ], [ 77.5383808, 26.4112965 ], [ 77.5463336, 26.4161228 ], [ 77.5551671, 26.4313147 ], [ 77.5586654, 26.435182 ], [ 77.5623957, 26.4368387 ], [ 77.5714733, 26.4364455 ], [ 77.5890283, 26.4464831 ], [ 77.6060344, 26.4498239 ], [ 77.6134829, 26.4527242 ], [ 77.622968, 26.4614249 ], [ 77.6274686, 26.4724185 ], [ 77.6333214, 26.4786902 ], [ 77.6505832, 26.4878993 ], [ 77.6598375, 26.4911154 ], [ 77.6737165, 26.5028343 ], [ 77.6802381, 26.5042593 ], [ 77.6912876, 26.4996434 ], [ 77.71331, 26.4982699 ], [ 77.7224479, 26.4999588 ], [ 77.7270113, 26.5023168 ], [ 77.7337449, 26.5078047 ], [ 77.738109, 26.5142085 ], [ 77.7402892, 26.5272453 ], [ 77.7459096, 26.5387542 ], [ 77.7514645, 26.5396981 ], [ 77.7542145, 26.5387066 ], [ 77.7574819, 26.5398435 ], [ 77.7678146, 26.5475831 ], [ 77.7837129, 26.5520418 ], [ 77.8107372, 26.5471892 ], [ 77.8220113, 26.5495782 ], [ 77.8255063, 26.5521841 ], [ 77.8325063, 26.5614691 ], [ 77.8356794, 26.5760313 ], [ 77.8337787, 26.5823804 ], [ 77.8270407, 26.591785 ], [ 77.8273261, 26.596047 ], [ 77.8320635, 26.5989121 ], [ 77.8357799, 26.6061507 ], [ 77.8506625, 26.6125387 ], [ 77.8588141, 26.6135976 ], [ 77.8857707, 26.612444 ], [ 77.8942791, 26.6147115 ], [ 77.8967021, 26.6170575 ], [ 77.8981055, 26.6231459 ], [ 77.898691, 26.6375874 ], [ 77.8975154, 26.6528542 ], [ 77.9011056, 26.6574409 ], [ 77.9136723, 26.6610089 ], [ 77.9352162, 26.6602404 ], [ 77.9430259, 26.6581932 ], [ 77.9531763, 26.6589388 ], [ 77.9597855, 26.6629151 ], [ 77.9801188, 26.6712092 ], [ 77.9847617, 26.674815 ], [ 77.9960364, 26.6925665 ], [ 78.0004319, 26.6948568 ], [ 78.0075864, 26.6930625 ], [ 78.0179613, 26.6924961 ], [ 78.0316356, 26.6863097 ], [ 78.0343688, 26.68703 ], [ 78.0407422, 26.685052 ], [ 78.0560143, 26.6836329 ], [ 78.0740886, 26.6706002 ], [ 78.0787875, 26.6704353 ], [ 78.0926737, 26.6762554 ], [ 78.0952083, 26.679271 ], [ 78.0961609, 26.6848752 ], [ 78.0923251, 26.7186382 ], [ 78.0959301, 26.7278017 ], [ 78.1013661, 26.7370929 ], [ 78.1080826, 26.7375143 ], [ 78.1116411, 26.7406408 ], [ 78.1184006, 26.7421588 ], [ 78.123527, 26.7468822 ], [ 78.1237098, 26.7500023 ], [ 78.1216876, 26.7532776 ], [ 78.116895, 26.7566221 ], [ 78.1060869, 26.7601684 ], [ 78.1023073, 26.7663299 ], [ 78.1012156, 26.774089 ], [ 78.1021635, 26.7814883 ], [ 78.1059613, 26.7888829 ], [ 78.1110031, 26.7936277 ], [ 78.1173236, 26.7963324 ], [ 78.1262873, 26.7962892 ], [ 78.1328357, 26.7951499 ], [ 78.1432554, 26.7911653 ], [ 78.1561873, 26.7839734 ], [ 78.1834729, 26.7836528 ], [ 78.1876067, 26.7896763 ], [ 78.1866392, 26.7960854 ], [ 78.180473, 26.8041415 ], [ 78.1683827, 26.812832 ], [ 78.1672677, 26.8154126 ], [ 78.1687225, 26.8203949 ], [ 78.1735287, 26.8244654 ], [ 78.1798377, 26.8255342 ], [ 78.2021091, 26.8213797 ], [ 78.2184654, 26.8292 ], [ 78.2252485, 26.830647 ], [ 78.2420681, 26.8250283 ], [ 78.2582355, 26.8147831 ], [ 78.2679077, 26.8135793 ], [ 78.2724573, 26.8159251 ], [ 78.2746661, 26.8232412 ], [ 78.2731224, 26.8429352 ], [ 78.2794606, 26.8522213 ], [ 78.2872614, 26.8567649 ], [ 78.3042402, 26.8624532 ], [ 78.3226308, 26.8633737 ], [ 78.331491, 26.8624945 ], [ 78.3423197, 26.8664341 ], [ 78.3583175, 26.8695616 ], [ 78.3686006, 26.8670936 ], [ 78.3733557, 26.8620816 ] ] ] } }
]
}
