{
"type": "FeatureCollection",
"name": "2305",
"crs": { "type": "name", "properties": { "name": "urn:ogc:def:crs:OGC:1.3:CRS84" } },
"features": [
{ "type": "Feature", "properties": { "code": "2305", "name": "Datia", "type": "district" }, "geometry": { "type": "MultiPolygon", "coordinates": [ [ [ [ 78.2944174, 25.1036834 ], [ 78.3043537, 25.0999512 ], [ 78.3045703, 25.0938713 ], [ 78.3071152, 25.0901893 ], [ 78.309723, 25.0888814 ], [ 78.3201465, 25.0893641 ], [ 78.3245462, 25.0934641 ], [ 78.3282038, 25.094693 ], [ 78.330975, 25.0937821 ], [ 78.3338375, 25.086245 ], [ 78.3374994, 25.0853339 ], [ 78.3352125, 25.0789659 ], [ 78.335444, 25.0689984 ], [ 78.3290622, 25.0656971 ], [ 78.3236832, 25.0588299 ], [ 78.3215711, 25.061384 ], [ 78.319163, 25.0609904 ], [ 78.3137142, 25.0564339 ], [ 78.3046779, 25.0526204 ], [ 78.2956378, 25.0558973 ], [ 78.2926072, 25.0602379 ], [ 78.2899651, 25.061577 ], [ 78.2886999, 25.0638015 ], [ 78.2906803, 25.0665605 ], [ 78.2894855, 25.0743371 ], [ 78.2837669, 25.0803008 ], [ 78.2784562, 25.0835744 ], [ 78.2740933, 25.085219 ], [ 78.2720131, 25.0834934 ], [ 78.2700412, 25.088412 ], [ 78.2726479, 25.0889915 ], [ 78.2751985, 25.0913901 ], [ 78.2754829, 25.0953397 ], [ 78.2806444, 25.0999787 ], [ 78.2912513, 25.1015242 ], [ 78.2944174, 25.1036834 ] ] ], [ [ [ 78.3395482, 25.2227764 ], [ 78.3418659, 25.221152 ], [ 78.347805, 25.2223674 ], [ 78.3601515, 25.2128724 ], [ 78.3766586, 25.2090319 ], [ 78.378911, 25.2075649 ], [ 78.3813319, 25.2033084 ], [ 78.3918152, 25.2059436 ], [ 78.3920332, 25.2033933 ], [ 78.3933567, 25.2030007 ], [ 78.3911885, 25.2000177 ], [ 78.3946608, 25.1973543 ], [ 78.3957604, 25.1875821 ], [ 78.3992771, 25.1859025 ], [ 78.4166378, 25.1835289 ], [ 78.4163577, 25.1764426 ], [ 78.424173, 25.1722154 ], [ 78.4234031, 25.1693133 ], [ 78.433723, 25.1664796 ], [ 78.4433689, 25.1654779 ], [ 78.4460835, 25.1682299 ], [ 78.4515546, 25.1689268 ], [ 78.4582472, 25.1646081 ], [ 78.4575913, 25.1627715 ], [ 78.4518663, 25.1599806 ], [ 78.4478548, 25.1527111 ], [ 78.4320562, 25.155169 ], [ 78.4273813, 25.1541036 ], [ 78.4269197, 25.1464821 ], [ 78.4420308, 25.1309355 ], [ 78.4479492, 25.1281116 ], [ 78.4468199, 25.121775 ], [ 78.4344394, 25.120142 ], [ 78.4154389, 25.1284266 ], [ 78.4068219, 25.1289342 ], [ 78.3997307, 25.1241149 ], [ 78.3860647, 25.1037779 ], [ 78.3817915, 25.1009436 ], [ 78.3738856, 25.0986678 ], [ 78.3727553, 25.1085709 ], [ 78.3680606, 25.1108231 ], [ 78.3678272, 25.117535 ], [ 78.3647037, 25.1194215 ], [ 78.3661017, 25.1208885 ], [ 78.3658466, 25.1262851 ], [ 78.3676233, 25.1297806 ], [ 78.3708311, 25.133333 ], [ 78.3797712, 25.13828 ], [ 78.3786062, 25.1460842 ], [ 78.3787506, 25.1617376 ], [ 78.3744309, 25.1661972 ], [ 78.3692282, 25.1657413 ], [ 78.36465, 25.1703901 ], [ 78.3541297, 25.1737833 ], [ 78.346735, 25.1706316 ], [ 78.3421285, 25.1661666 ], [ 78.3340601, 25.1479745 ], [ 78.3414999, 25.1431196 ], [ 78.3493005, 25.1405258 ], [ 78.3467383, 25.134337 ], [ 78.347205, 25.1313942 ], [ 78.3433231, 25.1298407 ], [ 78.3371717, 25.1241611 ], [ 78.3328159, 25.1172719 ], [ 78.3271016, 25.1123729 ], [ 78.3096258, 25.1228968 ], [ 78.3060243, 25.1266866 ], [ 78.2975511, 25.1261544 ], [ 78.289452, 25.1300091 ], [ 78.288444, 25.1322113 ], [ 78.2900431, 25.1356246 ], [ 78.2919822, 25.1352555 ], [ 78.2924773, 25.1362262 ], [ 78.289791, 25.1418036 ], [ 78.2940027, 25.1465047 ], [ 78.2923093, 25.1502682 ], [ 78.2974522, 25.1574884 ], [ 78.3014295, 25.1660483 ], [ 78.301383, 25.1690318 ], [ 78.2986782, 25.1718515 ], [ 78.3042055, 25.1769638 ], [ 78.3083908, 25.1789291 ], [ 78.3103867, 25.1849558 ], [ 78.3101666, 25.1884267 ], [ 78.3065738, 25.1919626 ], [ 78.3029565, 25.2005248 ], [ 78.303641, 25.2013237 ], [ 78.3004695, 25.2018697 ], [ 78.3049202, 25.2024256 ], [ 78.3079277, 25.2097346 ], [ 78.3113396, 25.2127467 ], [ 78.3144057, 25.2130414 ], [ 78.3216855, 25.210363 ], [ 78.3236678, 25.2158478 ], [ 78.3268927, 25.2162551 ], [ 78.3282068, 25.2184131 ], [ 78.3341648, 25.2220257 ], [ 78.3395482, 25.2227764 ] ] ], [ [ [ 78.3428163, 25.417679 ], [ 78.3353943, 25.4108446 ], [ 78.3199739, 25.4101537 ], [ 78.3112003, 25.4144289 ], [ 78.3072572, 25.4180832 ], [ 78.3111606, 25.4237449 ], [ 78.3176901, 25.4264737 ], [ 78.3199288, 25.4327484 ], [ 78.3259615, 25.436781 ], [ 78.3268251, 25.4400536 ], [ 78.3337107, 25.4371896 ], [ 78.3381013, 25.4325193 ], [ 78.3395686, 25.4259289 ], [ 78.343094, 25.4200171 ], [ 78.3428163, 25.417679 ] ] ], [ [ [ 78.3675999, 25.4579572 ], [ 78.3731133, 25.4617802 ], [ 78.3830863, 25.4582324 ], [ 78.3972204, 25.4562757 ], [ 78.3949599, 25.4442068 ], [ 78.3853109, 25.440588 ], [ 78.3809465, 25.4403491 ], [ 78.3776607, 25.4368106 ], [ 78.376428, 25.4386476 ], [ 78.369459, 25.4383271 ], [ 78.362186, 25.4459815 ], [ 78.3617631, 25.449687 ], [ 78.3578662, 25.4534655 ], [ 78.3597297, 25.4598117 ], [ 78.3620909, 25.4629487 ], [ 78.3675999, 25.4579572 ] ] ], [ [ [ 78.419232, 25.5299933 ], [ 78.4203072, 25.5240272 ], [ 78.4190565, 25.5181376 ], [ 78.4288474, 25.5115446 ], [ 78.4285284, 25.5099334 ], [ 78.4224755, 25.5100259 ], [ 78.4205897, 25.5081263 ], [ 78.4188145, 25.509016 ], [ 78.4191169, 25.5064071 ], [ 78.41681, 25.5017003 ], [ 78.4192999, 25.5003942 ], [ 78.4286876, 25.4878526 ], [ 78.4274132, 25.4848471 ], [ 78.4313066, 25.4736296 ], [ 78.42781, 25.4711982 ], [ 78.4199211, 25.4758723 ], [ 78.4164854, 25.4764781 ], [ 78.4157529, 25.4716308 ], [ 78.4141115, 25.4697943 ], [ 78.4038585, 25.4671022 ], [ 78.4003128, 25.4635507 ], [ 78.394374, 25.4709413 ], [ 78.3898405, 25.4797883 ], [ 78.3910553, 25.4907604 ], [ 78.3953473, 25.4925698 ], [ 78.3983107, 25.4900824 ], [ 78.3967401, 25.4945601 ], [ 78.3887422, 25.5044782 ], [ 78.3904586, 25.5065128 ], [ 78.3863169, 25.5134337 ], [ 78.3867987, 25.5155788 ], [ 78.3923152, 25.5207584 ], [ 78.3942346, 25.5244184 ], [ 78.3995824, 25.5280293 ], [ 78.4082213, 25.5277392 ], [ 78.419232, 25.5299933 ] ] ], [ [ [ 78.7967517, 26.290629 ], [ 78.8014992, 26.2884021 ], [ 78.8112511, 26.2897291 ], [ 78.8174922, 26.2836978 ], [ 78.8197294, 26.2847908 ], [ 78.8236647, 26.2842823 ], [ 78.8267206, 26.2790302 ], [ 78.8286326, 26.2668638 ], [ 78.8274634, 26.2619623 ], [ 78.8219088, 26.2590992 ], [ 78.8115092, 26.2567752 ], [ 78.8042114, 26.249409 ], [ 78.8009009, 26.2386606 ], [ 78.801194, 26.2325941 ], [ 78.79716, 26.2302439 ], [ 78.7913533, 26.2310885 ], [ 78.7896352, 26.2280036 ], [ 78.7900444, 26.2234135 ], [ 78.808611, 26.2138876 ], [ 78.8133636, 26.2094172 ], [ 78.8143791, 26.2026155 ], [ 78.8201422, 26.2030059 ], [ 78.8242168, 26.2057998 ], [ 78.8354447, 26.2019851 ], [ 78.8372094, 26.1972308 ], [ 78.8337624, 26.1926018 ], [ 78.8289312, 26.1931376 ], [ 78.8263956, 26.1875744 ], [ 78.8241762, 26.1876407 ], [ 78.8188321, 26.1842923 ], [ 78.8079293, 26.1828382 ], [ 78.8059061, 26.1794463 ], [ 78.804009, 26.1789521 ], [ 78.7988001, 26.1664766 ], [ 78.8031719, 26.1636135 ], [ 78.8066583, 26.1634053 ], [ 78.807745, 26.1653404 ], [ 78.8118618, 26.1638321 ], [ 78.8124156, 26.1620004 ], [ 78.8151739, 26.1621967 ], [ 78.8139951, 26.1606151 ], [ 78.8166049, 26.1602979 ], [ 78.817178, 26.1550023 ], [ 78.8192331, 26.1509785 ], [ 78.8225113, 26.1489256 ], [ 78.8227963, 26.1425824 ], [ 78.8268249, 26.13757 ], [ 78.8202653, 26.1286535 ], [ 78.8222408, 26.1281256 ], [ 78.8249698, 26.1226385 ], [ 78.8448322, 26.113552 ], [ 78.8453989, 26.111914 ], [ 78.8398786, 26.0963515 ], [ 78.835786, 26.0914955 ], [ 78.8331362, 26.0927825 ], [ 78.8334594, 26.0978623 ], [ 78.8281696, 26.1008856 ], [ 78.8251061, 26.1006781 ], [ 78.821785, 26.0928411 ], [ 78.8065281, 26.0948456 ], [ 78.8001159, 26.0860589 ], [ 78.8023159, 26.0835203 ], [ 78.8017746, 26.0807853 ], [ 78.8115028, 26.0761545 ], [ 78.8101213, 26.0731363 ], [ 78.8112008, 26.0723973 ], [ 78.8120779, 26.0736494 ], [ 78.8221887, 26.070617 ], [ 78.829768, 26.0720625 ], [ 78.8300651, 26.068758 ], [ 78.8268762, 26.0625965 ], [ 78.8255899, 26.0632019 ], [ 78.8230298, 26.0601106 ], [ 78.8186947, 26.0593764 ], [ 78.8148288, 26.0560534 ], [ 78.8019791, 26.0615504 ], [ 78.7970403, 26.0554652 ], [ 78.7917511, 26.0559134 ], [ 78.7903465, 26.0537805 ], [ 78.7955509, 26.0532072 ], [ 78.7987987, 26.0510688 ], [ 78.8033766, 26.0513807 ], [ 78.8051279, 26.0497934 ], [ 78.8116205, 26.0490496 ], [ 78.811301, 26.0481587 ], [ 78.8174946, 26.0427668 ], [ 78.8124373, 26.0403233 ], [ 78.8098422, 26.0430298 ], [ 78.8055432, 26.04159 ], [ 78.8051869, 26.0431543 ], [ 78.8026526, 26.0424351 ], [ 78.802534, 26.0447223 ], [ 78.8001528, 26.0427204 ], [ 78.8013933, 26.0419457 ], [ 78.8008877, 26.0401423 ], [ 78.7978318, 26.038131 ], [ 78.7934673, 26.0390568 ], [ 78.7864484, 26.0439965 ], [ 78.7837961, 26.0394568 ], [ 78.7876569, 26.0357549 ], [ 78.7881979, 26.0309569 ], [ 78.7830064, 26.0244028 ], [ 78.774102, 26.0209332 ], [ 78.7728432, 26.0180222 ], [ 78.7824397, 26.0123766 ], [ 78.7854163, 26.0132808 ], [ 78.7869295, 26.0121486 ], [ 78.7851335, 26.0097637 ], [ 78.7860333, 26.0076161 ], [ 78.7813567, 26.0066443 ], [ 78.7778721, 26.0026255 ], [ 78.7786993, 25.99785 ], [ 78.7818133, 25.9979698 ], [ 78.7817835, 25.9963473 ], [ 78.783639, 25.9963414 ], [ 78.7811576, 25.9947611 ], [ 78.786754, 25.9868432 ], [ 78.7845077, 25.9813734 ], [ 78.7807638, 25.9775945 ], [ 78.778434, 25.9688853 ], [ 78.7797253, 25.9647579 ], [ 78.7831584, 25.9621672 ], [ 78.7915204, 25.9614142 ], [ 78.7919617, 25.9625901 ], [ 78.7939834, 25.9624967 ], [ 78.801409, 25.9599662 ], [ 78.7972467, 25.957096 ], [ 78.7965588, 25.9540846 ], [ 78.7995611, 25.949936 ], [ 78.8018587, 25.9493539 ], [ 78.8010601, 25.9463885 ], [ 78.8037509, 25.9453603 ], [ 78.8031708, 25.9445106 ], [ 78.8041859, 25.9440003 ], [ 78.8173016, 25.9410602 ], [ 78.8192799, 25.945615 ], [ 78.8209002, 25.9464998 ], [ 78.821604, 25.951342 ], [ 78.8311651, 25.9518667 ], [ 78.8413866, 25.9504774 ], [ 78.8376244, 25.9388886 ], [ 78.8464188, 25.9367999 ], [ 78.8462764, 25.9342086 ], [ 78.84844, 25.9317161 ], [ 78.8515554, 25.930662 ], [ 78.8537131, 25.9271196 ], [ 78.8551811, 25.9231495 ], [ 78.8529823, 25.9195342 ], [ 78.8550675, 25.9173273 ], [ 78.859161, 25.9164303 ], [ 78.8608968, 25.9111396 ], [ 78.8650758, 25.9069662 ], [ 78.8704214, 25.9063418 ], [ 78.8761252, 25.9073538 ], [ 78.8759768, 25.9105538 ], [ 78.8786746, 25.9123319 ], [ 78.8809321, 25.9093215 ], [ 78.8865597, 25.9068752 ], [ 78.8911544, 25.8971533 ], [ 78.8948116, 25.8951671 ], [ 78.8869816, 25.8847108 ], [ 78.886722, 25.8829146 ], [ 78.8916809, 25.8802423 ], [ 78.8873791, 25.8684948 ], [ 78.8762146, 25.875879 ], [ 78.864112, 25.871406 ], [ 78.8619525, 25.8655567 ], [ 78.8556528, 25.8608578 ], [ 78.8506015, 25.8521826 ], [ 78.8517698, 25.8460222 ], [ 78.8514072, 25.8384625 ], [ 78.8621416, 25.8425934 ], [ 78.8642996, 25.8359366 ], [ 78.8725785, 25.835093 ], [ 78.8720195, 25.8287739 ], [ 78.8732319, 25.8268879 ], [ 78.8730824, 25.8223791 ], [ 78.8742442, 25.822149 ], [ 78.8706141, 25.8167917 ], [ 78.8699668, 25.8090383 ], [ 78.8728082, 25.8083204 ], [ 78.8724444, 25.801379 ], [ 78.8703644, 25.801308 ], [ 78.8670802, 25.7932143 ], [ 78.8643881, 25.7930788 ], [ 78.8636608, 25.7908539 ], [ 78.8577904, 25.7917699 ], [ 78.8555336, 25.795163 ], [ 78.8459501, 25.8007759 ], [ 78.8475302, 25.8025364 ], [ 78.8446431, 25.8036009 ], [ 78.847525, 25.8033397 ], [ 78.8448224, 25.8043276 ], [ 78.8460038, 25.8054065 ], [ 78.8447331, 25.8060455 ], [ 78.8461837, 25.8071876 ], [ 78.8452407, 25.8096427 ], [ 78.8479561, 25.8151736 ], [ 78.8451976, 25.820196 ], [ 78.8455512, 25.8215549 ], [ 78.8184353, 25.8290073 ], [ 78.814873, 25.8223624 ], [ 78.810378, 25.8169039 ], [ 78.8077651, 25.816853 ], [ 78.8062664, 25.8130929 ], [ 78.8093839, 25.81114 ], [ 78.8092001, 25.8098898 ], [ 78.811429, 25.8095974 ], [ 78.81145, 25.8076928 ], [ 78.8143123, 25.8070396 ], [ 78.8204561, 25.8157436 ], [ 78.8283102, 25.8143382 ], [ 78.8333032, 25.8096188 ], [ 78.8286166, 25.7957076 ], [ 78.8141561, 25.8004682 ], [ 78.8133989, 25.7992223 ], [ 78.8082876, 25.8009712 ], [ 78.8029183, 25.792082 ], [ 78.7980165, 25.7884054 ], [ 78.7913785, 25.7758055 ], [ 78.7859699, 25.7692446 ], [ 78.7862823, 25.7647179 ], [ 78.7828829, 25.758483 ], [ 78.7788264, 25.7578711 ], [ 78.776283, 25.759783 ], [ 78.7729596, 25.7586073 ], [ 78.7720787, 25.7572166 ], [ 78.7735605, 25.7552679 ], [ 78.770813, 25.7486307 ], [ 78.7587294, 25.7545166 ], [ 78.7528558, 25.7500024 ], [ 78.7557032, 25.7304713 ], [ 78.7633317, 25.7199297 ], [ 78.7747837, 25.7170044 ], [ 78.7836335, 25.7087193 ], [ 78.7928472, 25.7057144 ], [ 78.7999117, 25.7050682 ], [ 78.7999827, 25.702938 ], [ 78.7951128, 25.6997806 ], [ 78.7955682, 25.6967208 ], [ 78.8045323, 25.6922797 ], [ 78.8067962, 25.6879931 ], [ 78.807162, 25.6841164 ], [ 78.8125032, 25.6810452 ], [ 78.8167042, 25.6763215 ], [ 78.8187844, 25.6692047 ], [ 78.8157, 25.6623296 ], [ 78.8197436, 25.651946 ], [ 78.8198746, 25.6485701 ], [ 78.8161263, 25.6358139 ], [ 78.8116871, 25.6320794 ], [ 78.8127265, 25.624511 ], [ 78.8117627, 25.6207825 ], [ 78.809608, 25.6191748 ], [ 78.7979856, 25.6164251 ], [ 78.7967229, 25.6138202 ], [ 78.7939411, 25.6124196 ], [ 78.7823573, 25.6127106 ], [ 78.7788095, 25.6109074 ], [ 78.7739651, 25.6120506 ], [ 78.7662112, 25.6102036 ], [ 78.7610175, 25.6068508 ], [ 78.7560898, 25.6066888 ], [ 78.7545635, 25.6047694 ], [ 78.7503244, 25.6030372 ], [ 78.7492729, 25.5987749 ], [ 78.7442513, 25.598499 ], [ 78.7421494, 25.5969932 ], [ 78.7353143, 25.6010064 ], [ 78.731775, 25.6062536 ], [ 78.7245739, 25.602156 ], [ 78.7226929, 25.6027034 ], [ 78.7206544, 25.6055437 ], [ 78.7173291, 25.6053292 ], [ 78.7159789, 25.6036014 ], [ 78.7163441, 25.5995256 ], [ 78.7041982, 25.5979124 ], [ 78.7001847, 25.5950711 ], [ 78.6994156, 25.5909056 ], [ 78.6950789, 25.5878342 ], [ 78.6873105, 25.5888939 ], [ 78.678863, 25.5853046 ], [ 78.6760945, 25.5816431 ], [ 78.6748933, 25.5773287 ], [ 78.6675024, 25.5747042 ], [ 78.6586749, 25.5598867 ], [ 78.6460101, 25.5608427 ], [ 78.624193, 25.5673784 ], [ 78.6307968, 25.5789325 ], [ 78.6193754, 25.5835633 ], [ 78.6159614, 25.5835271 ], [ 78.6107813, 25.5779707 ], [ 78.6116929, 25.5698692 ], [ 78.6015466, 25.5691232 ], [ 78.5980232, 25.5706933 ], [ 78.592432, 25.5631909 ], [ 78.5911346, 25.5583432 ], [ 78.5877417, 25.5566002 ], [ 78.5822669, 25.5613784 ], [ 78.5692138, 25.5646192 ], [ 78.5667517, 25.5625647 ], [ 78.5631591, 25.5627437 ], [ 78.5610014, 25.5592675 ], [ 78.5586969, 25.5605753 ], [ 78.5556525, 25.5592831 ], [ 78.5496206, 25.5614511 ], [ 78.5446596, 25.5615794 ], [ 78.5424842, 25.5629547 ], [ 78.542189, 25.5653467 ], [ 78.5367386, 25.5677807 ], [ 78.532695, 25.5716643 ], [ 78.5283747, 25.5666606 ], [ 78.527458, 25.5680096 ], [ 78.5236571, 25.5669915 ], [ 78.5191211, 25.5702876 ], [ 78.5134193, 25.5692949 ], [ 78.5088336, 25.5726182 ], [ 78.5066048, 25.5715237 ], [ 78.5065569, 25.5729957 ], [ 78.502058, 25.5749321 ], [ 78.4998593, 25.5741584 ], [ 78.4976572, 25.5777871 ], [ 78.4940292, 25.5776276 ], [ 78.4933385, 25.5786978 ], [ 78.4928849, 25.5773627 ], [ 78.491137, 25.5775749 ], [ 78.4909525, 25.5763708 ], [ 78.4871636, 25.5744104 ], [ 78.4871027, 25.5731512 ], [ 78.4863479, 25.5743561 ], [ 78.4826631, 25.5722248 ], [ 78.4833235, 25.5707982 ], [ 78.4822717, 25.5712626 ], [ 78.478643, 25.5674075 ], [ 78.4783271, 25.5646816 ], [ 78.4753715, 25.5646566 ], [ 78.4741608, 25.5629062 ], [ 78.4668536, 25.5593228 ], [ 78.465672, 25.5563673 ], [ 78.4665704, 25.5533698 ], [ 78.4698294, 25.5534761 ], [ 78.4662688, 25.5511768 ], [ 78.4646937, 25.5455086 ], [ 78.4562973, 25.5480591 ], [ 78.4509563, 25.5517584 ], [ 78.4476157, 25.5565669 ], [ 78.4465626, 25.5594335 ], [ 78.4476182, 25.5607193 ], [ 78.4464743, 25.56146 ], [ 78.4493412, 25.562772 ], [ 78.4482068, 25.566102 ], [ 78.4507022, 25.5686603 ], [ 78.4493466, 25.573015 ], [ 78.4516589, 25.5731047 ], [ 78.4529188, 25.5749244 ], [ 78.4553276, 25.5738544 ], [ 78.4567296, 25.5753583 ], [ 78.4583561, 25.5751392 ], [ 78.4592477, 25.5712076 ], [ 78.4650585, 25.5646501 ], [ 78.4678041, 25.5697167 ], [ 78.4669848, 25.5823116 ], [ 78.4685962, 25.5844124 ], [ 78.4606311, 25.5860981 ], [ 78.4549875, 25.5921515 ], [ 78.4505114, 25.5941857 ], [ 78.4473589, 25.5938983 ], [ 78.4412423, 25.5971778 ], [ 78.4385122, 25.5894079 ], [ 78.4245667, 25.5823095 ], [ 78.4187514, 25.5728671 ], [ 78.4131866, 25.5666178 ], [ 78.4119537, 25.5630208 ], [ 78.4070287, 25.565963 ], [ 78.4026281, 25.5665444 ], [ 78.3897313, 25.5765617 ], [ 78.3986886, 25.5815984 ], [ 78.4027853, 25.5880289 ], [ 78.4079215, 25.5903029 ], [ 78.4108635, 25.5957398 ], [ 78.409893, 25.6004823 ], [ 78.3993473, 25.6027078 ], [ 78.3939823, 25.6066407 ], [ 78.390085, 25.6041793 ], [ 78.3883787, 25.6087201 ], [ 78.384577, 25.6127566 ], [ 78.3855323, 25.6149361 ], [ 78.3819749, 25.6225305 ], [ 78.3808281, 25.639771 ], [ 78.3769526, 25.6485953 ], [ 78.3778508, 25.6560142 ], [ 78.3762735, 25.6586953 ], [ 78.3724073, 25.6620591 ], [ 78.3679406, 25.6629473 ], [ 78.3662367, 25.6647115 ], [ 78.3607448, 25.6648086 ], [ 78.3602676, 25.6664566 ], [ 78.3567587, 25.6687655 ], [ 78.353781, 25.6687567 ], [ 78.3540609, 25.6704115 ], [ 78.3521778, 25.66968 ], [ 78.3519599, 25.6642767 ], [ 78.350433, 25.6616917 ], [ 78.3470325, 25.6611165 ], [ 78.3431825, 25.6584067 ], [ 78.339293, 25.6616711 ], [ 78.3371805, 25.6656001 ], [ 78.3352525, 25.6640981 ], [ 78.3282239, 25.6683882 ], [ 78.3238549, 25.6683239 ], [ 78.3225473, 25.6724078 ], [ 78.3205747, 25.672507 ], [ 78.3155605, 25.6770501 ], [ 78.3091883, 25.6847464 ], [ 78.309161, 25.6868122 ], [ 78.3119995, 25.687704 ], [ 78.3122436, 25.6935239 ], [ 78.3086442, 25.7079015 ], [ 78.3061251, 25.7086806 ], [ 78.3054035, 25.7067656 ], [ 78.3018446, 25.7078661 ], [ 78.3006012, 25.7038854 ], [ 78.2974216, 25.7006694 ], [ 78.2946153, 25.7009961 ], [ 78.2923931, 25.6994738 ], [ 78.2846266, 25.700783 ], [ 78.2665192, 25.7123124 ], [ 78.2644863, 25.7210145 ], [ 78.2560916, 25.7205935 ], [ 78.248684, 25.7219739 ], [ 78.2460219, 25.7190032 ], [ 78.245589, 25.7119866 ], [ 78.2472002, 25.7068027 ], [ 78.2466202, 25.7047948 ], [ 78.2486841, 25.7023722 ], [ 78.2513673, 25.6926563 ], [ 78.2498645, 25.6882217 ], [ 78.2461643, 25.6924015 ], [ 78.2415286, 25.689228 ], [ 78.2333178, 25.6926103 ], [ 78.2275337, 25.6916351 ], [ 78.2166117, 25.6940976 ], [ 78.2143766, 25.7028234 ], [ 78.2246776, 25.7133101 ], [ 78.2250884, 25.7159727 ], [ 78.2229794, 25.7202302 ], [ 78.2284072, 25.728179 ], [ 78.2329816, 25.7283246 ], [ 78.2351768, 25.7314913 ], [ 78.2482611, 25.7354434 ], [ 78.2527595, 25.7403209 ], [ 78.2665452, 25.7495501 ], [ 78.26797, 25.7524651 ], [ 78.2726605, 25.7515839 ], [ 78.272677, 25.7526422 ], [ 78.2747127, 25.7528851 ], [ 78.2744052, 25.751048 ], [ 78.2765329, 25.7494674 ], [ 78.2896242, 25.7527975 ], [ 78.2945115, 25.7592543 ], [ 78.2944498, 25.7620887 ], [ 78.2852343, 25.7683477 ], [ 78.286768, 25.7704361 ], [ 78.2928127, 25.7727256 ], [ 78.2960975, 25.7766382 ], [ 78.2960515, 25.78594 ], [ 78.3040312, 25.7884784 ], [ 78.3103182, 25.7922047 ], [ 78.3187811, 25.7919916 ], [ 78.3236521, 25.7972062 ], [ 78.3268477, 25.7976586 ], [ 78.3258262, 25.802237 ], [ 78.3184817, 25.8083498 ], [ 78.315874, 25.8133992 ], [ 78.3075229, 25.8116489 ], [ 78.3132147, 25.8163566 ], [ 78.3150073, 25.8216063 ], [ 78.3182502, 25.8233925 ], [ 78.3187202, 25.8261119 ], [ 78.3204381, 25.8262164 ], [ 78.3221973, 25.8289973 ], [ 78.3277388, 25.8329347 ], [ 78.335393, 25.8359835 ], [ 78.3391859, 25.8357384 ], [ 78.3427428, 25.8321489 ], [ 78.3479336, 25.8353567 ], [ 78.363332, 25.8323528 ], [ 78.3664811, 25.8358779 ], [ 78.3789666, 25.8350115 ], [ 78.3880087, 25.8365544 ], [ 78.3926304, 25.84329 ], [ 78.3920772, 25.8463252 ], [ 78.386342, 25.851929 ], [ 78.3877989, 25.8553951 ], [ 78.3985287, 25.8576819 ], [ 78.4029212, 25.8599016 ], [ 78.4132995, 25.8682081 ], [ 78.4197984, 25.8777991 ], [ 78.4316913, 25.8809835 ], [ 78.4377123, 25.8840546 ], [ 78.4452499, 25.890426 ], [ 78.4540084, 25.9006124 ], [ 78.4592725, 25.9036581 ], [ 78.4679548, 25.9061643 ], [ 78.4728861, 25.9103245 ], [ 78.4748543, 25.918526 ], [ 78.4719389, 25.9267216 ], [ 78.4723173, 25.9315934 ], [ 78.4748104, 25.9345771 ], [ 78.4829475, 25.9388957 ], [ 78.484233, 25.9413898 ], [ 78.4823326, 25.9621045 ], [ 78.4869258, 25.9648337 ], [ 78.5068471, 25.9645332 ], [ 78.511477, 25.9655275 ], [ 78.5135966, 25.9678693 ], [ 78.5169758, 25.9689437 ], [ 78.5426757, 25.9737151 ], [ 78.5455327, 25.9796673 ], [ 78.5458762, 25.9850495 ], [ 78.554996, 25.9908467 ], [ 78.5565823, 25.9939301 ], [ 78.5698723, 25.996639 ], [ 78.5749433, 26.001074 ], [ 78.5808716, 26.002716 ], [ 78.5850041, 26.0055967 ], [ 78.5900412, 26.0131856 ], [ 78.5939343, 26.0232536 ], [ 78.6014355, 26.0365387 ], [ 78.6022293, 26.0446544 ], [ 78.6035542, 26.0466022 ], [ 78.6066201, 26.0484188 ], [ 78.6115783, 26.048127 ], [ 78.6171845, 26.0509865 ], [ 78.6223809, 26.0510934 ], [ 78.6267431, 26.0487441 ], [ 78.6301009, 26.0526696 ], [ 78.6441275, 26.0604829 ], [ 78.6461349, 26.0645097 ], [ 78.6456534, 26.0659953 ], [ 78.639673, 26.0700969 ], [ 78.6312697, 26.0722818 ], [ 78.632019, 26.075803 ], [ 78.6393104, 26.0818767 ], [ 78.6282711, 26.0871213 ], [ 78.6249264, 26.0903581 ], [ 78.6230788, 26.0899143 ], [ 78.6159562, 26.0949553 ], [ 78.6065311, 26.0985935 ], [ 78.6057239, 26.1013545 ], [ 78.6120728, 26.1111949 ], [ 78.6106545, 26.1133092 ], [ 78.6087894, 26.1294372 ], [ 78.6157908, 26.1338939 ], [ 78.6265037, 26.1258399 ], [ 78.634877, 26.1218049 ], [ 78.6462969, 26.1200975 ], [ 78.6490728, 26.1218978 ], [ 78.6522628, 26.1266173 ], [ 78.6395921, 26.1281356 ], [ 78.6379577, 26.1307289 ], [ 78.6330987, 26.151935 ], [ 78.6285095, 26.1538742 ], [ 78.627254, 26.1574483 ], [ 78.6346493, 26.1643073 ], [ 78.6405422, 26.1674293 ], [ 78.648091, 26.1693997 ], [ 78.6509752, 26.1686771 ], [ 78.6561119, 26.1699472 ], [ 78.6591904, 26.1678092 ], [ 78.6625003, 26.1695632 ], [ 78.6658285, 26.1694892 ], [ 78.6694152, 26.1676772 ], [ 78.676309, 26.1705657 ], [ 78.6788, 26.1696582 ], [ 78.6827411, 26.1646024 ], [ 78.6946926, 26.1631022 ], [ 78.6971087, 26.1652589 ], [ 78.7029053, 26.1757598 ], [ 78.7013154, 26.1817385 ], [ 78.6966064, 26.1857155 ], [ 78.6950358, 26.1896699 ], [ 78.6919727, 26.1928805 ], [ 78.6921278, 26.1958431 ], [ 78.6941217, 26.1989033 ], [ 78.6937103, 26.2043559 ], [ 78.696696, 26.2068725 ], [ 78.696316, 26.2088725 ], [ 78.6983808, 26.2112195 ], [ 78.6959756, 26.2126845 ], [ 78.6959034, 26.2176851 ], [ 78.7037569, 26.2169734 ], [ 78.7086472, 26.220483 ], [ 78.7153989, 26.2211789 ], [ 78.7182591, 26.2259517 ], [ 78.7226139, 26.2238027 ], [ 78.7275698, 26.2254363 ], [ 78.7295281, 26.2278282 ], [ 78.7407464, 26.2234916 ], [ 78.7424911, 26.227987 ], [ 78.7407117, 26.2286726 ], [ 78.7442407, 26.2307311 ], [ 78.7453337, 26.2331384 ], [ 78.7497435, 26.2333999 ], [ 78.7508506, 26.2357728 ], [ 78.7535411, 26.2354101 ], [ 78.755814, 26.2436728 ], [ 78.7443244, 26.2497875 ], [ 78.7487087, 26.2576027 ], [ 78.7554029, 26.2657883 ], [ 78.7683131, 26.2646114 ], [ 78.7754842, 26.2724196 ], [ 78.7800649, 26.2719578 ], [ 78.7898684, 26.2896051 ], [ 78.7967517, 26.290629 ] ], [ [ 78.8188595, 26.132543 ], [ 78.8163529, 26.1378609 ], [ 78.8189406, 26.1405927 ], [ 78.8163562, 26.143184 ], [ 78.8137664, 26.1425953 ], [ 78.8104025, 26.144255 ], [ 78.8068988, 26.1411235 ], [ 78.8188595, 26.132543 ] ], [ [ 78.7892936, 26.0911049 ], [ 78.7851097, 26.0848709 ], [ 78.784651, 26.0820811 ], [ 78.791391, 26.0807634 ], [ 78.7928664, 26.0816002 ], [ 78.7945914, 26.0864067 ], [ 78.7929671, 26.0880087 ], [ 78.7929977, 26.0904399 ], [ 78.7892936, 26.0911049 ] ] ] ] } }
]
}
