{
"type": "FeatureCollection",
"name": "2306",
"crs": { "type": "name", "properties": { "name": "urn:ogc:def:crs:OGC:1.3:CRS84" } },
"features": [
{ "type": "Feature", "properties": { "code": "2306", "name": "Shivpuri", "type": "district" }, "geometry": { "type": "Polygon", "coordinates": [ [ [ 77.685942, 25.912072 ], [ 77.6987632, 25.897443 ], [ 77.6987048, 25.8837545 ], [ 77.7033114, 25.8785483 ], [ 77.71453, 25.8760956 ], [ 77.718514, 25.8797352 ], [ 77.7306851, 25.8771363 ], [ 77.7371869, 25.8783996 ], [ 77.7422702, 25.882814 ], [ 77.7470511, 25.884006 ], [ 77.7500538, 25.8833175 ], [ 77.7501615, 25.881309 ], [ 77.7477169, 25.8813246 ], [ 77.7472514, 25.8799575 ], [ 77.7485173, 25.8787017 ], [ 77.7473915, 25.8754937 ], [ 77.7481286, 25.8742655 ], [ 77.7453713, 25.8660222 ], [ 77.7473808, 25.8610892 ], [ 77.7600808, 25.86152 ], [ 77.7604818, 25.8542224 ], [ 77.7640107, 25.8464217 ], [ 77.7683935, 25.8479098 ], [ 77.7743661, 25.8570127 ], [ 77.783116, 25.8562513 ], [ 77.7854618, 25.8542804 ], [ 77.7907083, 25.8413982 ], [ 77.7953397, 25.8368108 ], [ 77.79632, 25.8250678 ], [ 77.8001724, 25.8208635 ], [ 77.8085548, 25.8212782 ], [ 77.8118578, 25.8174795 ], [ 77.825872, 25.8124119 ], [ 77.8357101, 25.8116973 ], [ 77.841713, 25.8138019 ], [ 77.846809, 25.8139248 ], [ 77.8552362, 25.812148 ], [ 77.866336, 25.8076809 ], [ 77.8692131, 25.8040794 ], [ 77.870066, 25.7954365 ], [ 77.8767964, 25.7884906 ], [ 77.8708241, 25.7837786 ], [ 77.8674492, 25.7832143 ], [ 77.866906, 25.7817385 ], [ 77.8721502, 25.7809082 ], [ 77.8730325, 25.7766297 ], [ 77.8766167, 25.7797122 ], [ 77.8739896, 25.7720803 ], [ 77.8754651, 25.7695934 ], [ 77.8729181, 25.7658293 ], [ 77.8746526, 25.7625616 ], [ 77.8702017, 25.7627105 ], [ 77.8700272, 25.7658698 ], [ 77.8674605, 25.7613655 ], [ 77.865123, 25.7609275 ], [ 77.8641761, 25.75905 ], [ 77.8657112, 25.7592351 ], [ 77.8660652, 25.757159 ], [ 77.8682183, 25.7580707 ], [ 77.8691205, 25.7535214 ], [ 77.8709445, 25.7584861 ], [ 77.872056, 25.7563242 ], [ 77.8765016, 25.7561347 ], [ 77.8741941, 25.7516349 ], [ 77.8750562, 25.7477107 ], [ 77.8736459, 25.7457654 ], [ 77.8734865, 25.742394 ], [ 77.8702522, 25.7451245 ], [ 77.8686078, 25.7436712 ], [ 77.8743436, 25.7383952 ], [ 77.8809164, 25.7373389 ], [ 77.8831985, 25.7353213 ], [ 77.8945162, 25.7422707 ], [ 77.9105031, 25.7436487 ], [ 77.9136754, 25.7520358 ], [ 77.9160135, 25.7541564 ], [ 77.9217549, 25.7540689 ], [ 77.9310283, 25.7510462 ], [ 77.936007, 25.7510261 ], [ 77.9443501, 25.7473114 ], [ 77.9525893, 25.749573 ], [ 77.9604331, 25.7488419 ], [ 77.9637182, 25.7500405 ], [ 77.9650237, 25.7530555 ], [ 77.9682326, 25.7521643 ], [ 77.9710892, 25.7532998 ], [ 77.9704986, 25.756455 ], [ 77.9788822, 25.7627769 ], [ 78.0009903, 25.7657037 ], [ 78.0021801, 25.7574566 ], [ 78.001855, 25.7558015 ], [ 78.0005694, 25.7560741 ], [ 77.9973067, 25.7390774 ], [ 78.0122369, 25.7319099 ], [ 78.0110855, 25.7269489 ], [ 78.0195577, 25.7251182 ], [ 78.0188312, 25.7240526 ], [ 78.0230628, 25.7165274 ], [ 78.0264778, 25.7198921 ], [ 78.0304318, 25.7161848 ], [ 78.0380206, 25.715043 ], [ 78.0537333, 25.7086245 ], [ 78.0562273, 25.712092 ], [ 78.0623661, 25.7105557 ], [ 78.0743791, 25.7189416 ], [ 78.0789282, 25.7185639 ], [ 78.0831676, 25.7203209 ], [ 78.08967, 25.7191401 ], [ 78.0928446, 25.7161395 ], [ 78.0966458, 25.7171106 ], [ 78.0981507, 25.7160819 ], [ 78.0988829, 25.7171516 ], [ 78.1018224, 25.7168497 ], [ 78.1016976, 25.7181044 ], [ 78.1053494, 25.720497 ], [ 78.1114628, 25.7196266 ], [ 78.1151896, 25.7211705 ], [ 78.1166694, 25.719609 ], [ 78.1154139, 25.7189183 ], [ 78.1161713, 25.7185031 ], [ 78.1205557, 25.7205704 ], [ 78.1255182, 25.7200018 ], [ 78.1276856, 25.7212475 ], [ 78.126445, 25.7222946 ], [ 78.1336301, 25.7261532 ], [ 78.1368735, 25.7236751 ], [ 78.1419162, 25.7255251 ], [ 78.1422247, 25.722808 ], [ 78.1434109, 25.7252135 ], [ 78.1483091, 25.7266435 ], [ 78.1496931, 25.7207082 ], [ 78.1572509, 25.7190638 ], [ 78.1603502, 25.719844 ], [ 78.1649573, 25.7295645 ], [ 78.1761681, 25.7400273 ], [ 78.1943964, 25.7392795 ], [ 78.2088909, 25.7367714 ], [ 78.215345, 25.7380854 ], [ 78.2342771, 25.7609553 ], [ 78.2399086, 25.7576766 ], [ 78.2446013, 25.7604755 ], [ 78.2625914, 25.782892 ], [ 78.2789056, 25.7820822 ], [ 78.2960515, 25.78594 ], [ 78.2960975, 25.7766382 ], [ 78.2928127, 25.7727256 ], [ 78.286768, 25.7704361 ], [ 78.2852343, 25.7683477 ], [ 78.2944498, 25.7620887 ], [ 78.2945115, 25.7592543 ], [ 78.2896242, 25.7527975 ], [ 78.2765329, 25.7494674 ], [ 78.2744052, 25.751048 ], [ 78.2747127, 25.7528851 ], [ 78.272677, 25.7526422 ], [ 78.2726605, 25.7515839 ], [ 78.26797, 25.7524651 ], [ 78.2665452, 25.7495501 ], [ 78.2527595, 25.7403209 ], [ 78.2482611, 25.7354434 ], [ 78.2351768, 25.7314913 ], [ 78.2329816, 25.7283246 ], [ 78.2284072, 25.728179 ], [ 78.2229794, 25.7202302 ], [ 78.2250884, 25.7159727 ], [ 78.2246776, 25.7133101 ], [ 78.2143766, 25.7028234 ], [ 78.2166117, 25.6940976 ], [ 78.2275337, 25.6916351 ], [ 78.2333178, 25.6926103 ], [ 78.2415286, 25.689228 ], [ 78.2461643, 25.6924015 ], [ 78.2498645, 25.6882217 ], [ 78.2513673, 25.6926563 ], [ 78.2486841, 25.7023722 ], [ 78.2466202, 25.7047948 ], [ 78.2472002, 25.7068027 ], [ 78.245589, 25.7119866 ], [ 78.2460219, 25.7190032 ], [ 78.248684, 25.7219739 ], [ 78.2560916, 25.7205935 ], [ 78.2644863, 25.7210145 ], [ 78.2665192, 25.7123124 ], [ 78.2846266, 25.700783 ], [ 78.2923931, 25.6994738 ], [ 78.2946153, 25.7009961 ], [ 78.2974216, 25.7006694 ], [ 78.3006012, 25.7038854 ], [ 78.3018446, 25.7078661 ], [ 78.3054035, 25.7067656 ], [ 78.3061251, 25.7086806 ], [ 78.3086442, 25.7079015 ], [ 78.3122436, 25.6935239 ], [ 78.3119995, 25.687704 ], [ 78.309161, 25.6868122 ], [ 78.3091883, 25.6847464 ], [ 78.3155605, 25.6770501 ], [ 78.3205747, 25.672507 ], [ 78.3225473, 25.6724078 ], [ 78.3238549, 25.6683239 ], [ 78.3282239, 25.6683882 ], [ 78.3352525, 25.6640981 ], [ 78.3371805, 25.6656001 ], [ 78.339293, 25.6616711 ], [ 78.3431825, 25.6584067 ], [ 78.3470325, 25.6611165 ], [ 78.350433, 25.6616917 ], [ 78.3519599, 25.6642767 ], [ 78.3521778, 25.66968 ], [ 78.3540609, 25.6704115 ], [ 78.353781, 25.6687567 ], [ 78.3567587, 25.6687655 ], [ 78.3602676, 25.6664566 ], [ 78.3607448, 25.6648086 ], [ 78.3662367, 25.6647115 ], [ 78.3679406, 25.6629473 ], [ 78.3724073, 25.6620591 ], [ 78.3762735, 25.6586953 ], [ 78.3778508, 25.6560142 ], [ 78.3769526, 25.6485953 ], [ 78.3808281, 25.639771 ], [ 78.3819749, 25.6225305 ], [ 78.3855323, 25.6149361 ], [ 78.384577, 25.6127566 ], [ 78.3883787, 25.6087201 ], [ 78.390085, 25.6041793 ], [ 78.3939823, 25.6066407 ], [ 78.3993473, 25.6027078 ], [ 78.409893, 25.6004823 ], [ 78.4108738, 25.5949133 ], [ 78.4079215, 25.5903029 ], [ 78.4027853, 25.5880289 ], [ 78.3995696, 25.5825029 ], [ 78.3958585, 25.5792811 ], [ 78.3897313, 25.5765617 ], [ 78.4020425, 25.5669449 ], [ 78.4125138, 25.5632385 ], [ 78.4131866, 25.5666178 ], [ 78.4187514, 25.5728671 ], [ 78.4245667, 25.5823095 ], [ 78.4297752, 25.5857748 ], [ 78.4330743, 25.5861504 ], [ 78.434634, 25.5881412 ], [ 78.4375163, 25.5884301 ], [ 78.4412423, 25.5971778 ], [ 78.4473589, 25.5938983 ], [ 78.4489689, 25.5945578 ], [ 78.4549875, 25.5921515 ], [ 78.4606311, 25.5860981 ], [ 78.4685962, 25.5844124 ], [ 78.4669848, 25.5823116 ], [ 78.4678041, 25.5697167 ], [ 78.4650585, 25.5646501 ], [ 78.4592477, 25.5712076 ], [ 78.4583561, 25.5751392 ], [ 78.4567296, 25.5753583 ], [ 78.4553276, 25.5738544 ], [ 78.4529188, 25.5749244 ], [ 78.4516589, 25.5731047 ], [ 78.4494461, 25.5732195 ], [ 78.4507022, 25.5686603 ], [ 78.4482068, 25.566102 ], [ 78.4487645, 25.5635913 ], [ 78.4435992, 25.5632036 ], [ 78.4299643, 25.5524177 ], [ 78.4282778, 25.5504326 ], [ 78.4281617, 25.546533 ], [ 78.426349, 25.542792 ], [ 78.4210744, 25.5399233 ], [ 78.419232, 25.5299933 ], [ 78.4082213, 25.5277392 ], [ 78.3995824, 25.5280293 ], [ 78.3942346, 25.5244184 ], [ 78.3923152, 25.5207584 ], [ 78.3873416, 25.5168834 ], [ 78.3863169, 25.5134337 ], [ 78.3904586, 25.5065128 ], [ 78.3887422, 25.5044782 ], [ 78.3967401, 25.4945601 ], [ 78.3983107, 25.4900824 ], [ 78.3953473, 25.4925698 ], [ 78.3910553, 25.4907604 ], [ 78.3898405, 25.4797883 ], [ 78.394374, 25.4709413 ], [ 78.4003128, 25.4635507 ], [ 78.3972204, 25.4562757 ], [ 78.3830863, 25.4582324 ], [ 78.3731133, 25.4617802 ], [ 78.3677639, 25.4579211 ], [ 78.3620909, 25.4629487 ], [ 78.3597297, 25.4598117 ], [ 78.3578662, 25.4536776 ], [ 78.3595357, 25.4519797 ], [ 78.3543656, 25.451794 ], [ 78.3490184, 25.4428068 ], [ 78.3499135, 25.440961 ], [ 78.3469771, 25.4352779 ], [ 78.3427928, 25.4316212 ], [ 78.3389011, 25.43102 ], [ 78.3337107, 25.4371896 ], [ 78.3264821, 25.4400128 ], [ 78.3259615, 25.436781 ], [ 78.3199288, 25.4327484 ], [ 78.3176901, 25.4264737 ], [ 78.3111606, 25.4237449 ], [ 78.3072572, 25.4180832 ], [ 78.3112003, 25.4144289 ], [ 78.3199739, 25.4101537 ], [ 78.3353943, 25.4108446 ], [ 78.3411231, 25.4163665 ], [ 78.3388287, 25.4067103 ], [ 78.340912, 25.4028291 ], [ 78.3405303, 25.3995207 ], [ 78.3313753, 25.3907485 ], [ 78.3260143, 25.3898216 ], [ 78.3223733, 25.3874056 ], [ 78.3168507, 25.3786754 ], [ 78.3120129, 25.3792005 ], [ 78.3079428, 25.3811982 ], [ 78.305312, 25.3767511 ], [ 78.3061107, 25.3751835 ], [ 78.3005327, 25.3603737 ], [ 78.3049835, 25.3605023 ], [ 78.3122972, 25.357653 ], [ 78.3160526, 25.3575507 ], [ 78.3190939, 25.3549566 ], [ 78.3280523, 25.3523115 ], [ 78.3372999, 25.3363937 ], [ 78.3375451, 25.3302463 ], [ 78.3435399, 25.3285776 ], [ 78.3387041, 25.324063 ], [ 78.3336988, 25.3226038 ], [ 78.3305467, 25.3190011 ], [ 78.3293497, 25.319601 ], [ 78.3248918, 25.3159526 ], [ 78.3227365, 25.3163265 ], [ 78.3202156, 25.3126741 ], [ 78.3112615, 25.3051916 ], [ 78.3117339, 25.3033016 ], [ 78.3151015, 25.3013747 ], [ 78.3165958, 25.3018357 ], [ 78.3197004, 25.2988308 ], [ 78.3300882, 25.2963474 ], [ 78.3339721, 25.2924081 ], [ 78.3545804, 25.2922534 ], [ 78.3547996, 25.290458 ], [ 78.3498769, 25.2793674 ], [ 78.3501106, 25.2773273 ], [ 78.3570908, 25.2731397 ], [ 78.3607096, 25.2725217 ], [ 78.3663739, 25.2667267 ], [ 78.3687667, 25.2613827 ], [ 78.3725142, 25.2599069 ], [ 78.3598, 25.2421932 ], [ 78.3673883, 25.2368542 ], [ 78.3729612, 25.2371929 ], [ 78.3748817, 25.2392376 ], [ 78.3785243, 25.2386868 ], [ 78.3771395, 25.2278406 ], [ 78.3820566, 25.2225912 ], [ 78.3967231, 25.2169116 ], [ 78.3979626, 25.2182144 ], [ 78.4025036, 25.2175966 ], [ 78.4051166, 25.2148873 ], [ 78.4109519, 25.2126659 ], [ 78.3993015, 25.2086242 ], [ 78.3978764, 25.2050282 ], [ 78.39552, 25.203276 ], [ 78.3923358, 25.2030999 ], [ 78.3913191, 25.2061558 ], [ 78.3878113, 25.2042785 ], [ 78.3813319, 25.2033084 ], [ 78.378911, 25.2075649 ], [ 78.3766586, 25.2090319 ], [ 78.3601515, 25.2128724 ], [ 78.347805, 25.2223674 ], [ 78.3418659, 25.221152 ], [ 78.3387888, 25.223372 ], [ 78.3305135, 25.2200793 ], [ 78.3268927, 25.2162551 ], [ 78.3236678, 25.2158478 ], [ 78.3216855, 25.210363 ], [ 78.3144057, 25.2130414 ], [ 78.3113396, 25.2127467 ], [ 78.3079277, 25.2097346 ], [ 78.3049202, 25.2024256 ], [ 78.3004695, 25.2018697 ], [ 78.303641, 25.2013237 ], [ 78.3029565, 25.2005248 ], [ 78.3065738, 25.1919626 ], [ 78.3101666, 25.1884267 ], [ 78.3103867, 25.1849558 ], [ 78.3083908, 25.1789291 ], [ 78.3042055, 25.1769638 ], [ 78.2986782, 25.1718515 ], [ 78.301383, 25.1690318 ], [ 78.3014295, 25.1660483 ], [ 78.2974522, 25.1574884 ], [ 78.2923093, 25.1502682 ], [ 78.293874, 25.1461436 ], [ 78.289791, 25.1418036 ], [ 78.2924231, 25.1357342 ], [ 78.2902165, 25.1358232 ], [ 78.2884148, 25.1313897 ], [ 78.2925027, 25.1279075 ], [ 78.2986867, 25.1259879 ], [ 78.3060243, 25.1266866 ], [ 78.3096258, 25.1228968 ], [ 78.3271016, 25.1123729 ], [ 78.3328159, 25.1172719 ], [ 78.3371717, 25.1241611 ], [ 78.3433231, 25.1298407 ], [ 78.347205, 25.1313942 ], [ 78.3467383, 25.134337 ], [ 78.3495487, 25.139095 ], [ 78.3493005, 25.1405258 ], [ 78.3414999, 25.1431196 ], [ 78.33409, 25.1475502 ], [ 78.3388021, 25.1605869 ], [ 78.3427433, 25.1669386 ], [ 78.3508959, 25.1728982 ], [ 78.355196, 25.173648 ], [ 78.36465, 25.1703901 ], [ 78.3692282, 25.1657413 ], [ 78.3744309, 25.1661972 ], [ 78.3787506, 25.1617376 ], [ 78.3786062, 25.1460842 ], [ 78.3797712, 25.13828 ], [ 78.3708311, 25.133333 ], [ 78.3676233, 25.1297806 ], [ 78.3658466, 25.1262851 ], [ 78.3661017, 25.1208885 ], [ 78.3647037, 25.1194215 ], [ 78.3678272, 25.117535 ], [ 78.3680606, 25.1108231 ], [ 78.3727553, 25.1085709 ], [ 78.3738889, 25.0986684 ], [ 78.3608379, 25.0957295 ], [ 78.3395121, 25.0872451 ], [ 78.3374957, 25.0853341 ], [ 78.3338375, 25.086245 ], [ 78.330975, 25.0937821 ], [ 78.3282038, 25.094693 ], [ 78.3245462, 25.0934641 ], [ 78.3201465, 25.0893641 ], [ 78.309723, 25.0888814 ], [ 78.3071152, 25.0901893 ], [ 78.3045703, 25.0938713 ], [ 78.3038726, 25.1004745 ], [ 78.2944174, 25.1036834 ], [ 78.2912513, 25.1015242 ], [ 78.2806444, 25.0999787 ], [ 78.2754829, 25.0953397 ], [ 78.2751985, 25.0913901 ], [ 78.2726479, 25.0889915 ], [ 78.2700412, 25.088412 ], [ 78.2720131, 25.0834934 ], [ 78.2740933, 25.085219 ], [ 78.2784562, 25.0835744 ], [ 78.2837669, 25.0803008 ], [ 78.2894855, 25.0743371 ], [ 78.2906803, 25.0665605 ], [ 78.2886999, 25.0638015 ], [ 78.2899651, 25.061577 ], [ 78.2926072, 25.0602379 ], [ 78.2956378, 25.0558973 ], [ 78.302007, 25.0528267 ], [ 78.3056243, 25.0528329 ], [ 78.3087596, 25.0551499 ], [ 78.3137142, 25.0564339 ], [ 78.3201093, 25.0612706 ], [ 78.3220222, 25.0611585 ], [ 78.3236832, 25.0588299 ], [ 78.3290622, 25.0656971 ], [ 78.3354487, 25.0690032 ], [ 78.3401845, 25.04028 ], [ 78.3471838, 25.0245015 ], [ 78.3453637, 25.0120793 ], [ 78.3327433, 24.9943664 ], [ 78.3201794, 24.9918481 ], [ 78.3129361, 24.9869659 ], [ 78.3070281, 24.9774709 ], [ 78.2945929, 24.9630568 ], [ 78.2866592, 24.9581368 ], [ 78.2791497, 24.9560739 ], [ 78.2709318, 24.9487651 ], [ 78.2659531, 24.9410159 ], [ 78.2562292, 24.9368017 ], [ 78.2494038, 24.929874 ], [ 78.2238058, 24.9153104 ], [ 78.2189854, 24.9093824 ], [ 78.2105911, 24.8948078 ], [ 78.1949551, 24.8894311 ], [ 78.1721078, 24.8772843 ], [ 78.169057, 24.8693365 ], [ 78.1689705, 24.8626199 ], [ 78.1703927, 24.8552348 ], [ 78.1745165, 24.8454993 ], [ 78.1676028, 24.8401706 ], [ 78.1582679, 24.8409227 ], [ 78.1504173, 24.8399411 ], [ 78.1393457, 24.8411645 ], [ 78.1233798, 24.838838 ], [ 78.1204773, 24.8358679 ], [ 78.1100124, 24.8362704 ], [ 78.1042119, 24.8392575 ], [ 78.0949018, 24.8469732 ], [ 78.0901242, 24.847913 ], [ 78.0820519, 24.8472951 ], [ 78.0787622, 24.8458731 ], [ 78.0771573, 24.8492689 ], [ 78.0691555, 24.8502542 ], [ 78.0642019, 24.8534353 ], [ 78.0479693, 24.8588663 ], [ 78.0447639, 24.857235 ], [ 78.046627, 24.8505127 ], [ 78.0416332, 24.842233 ], [ 78.0380469, 24.8407722 ], [ 78.0371765, 24.8381853 ], [ 78.0280225, 24.8365382 ], [ 78.0172376, 24.8351 ], [ 78.0095176, 24.8382087 ], [ 78.007485, 24.8399375 ], [ 78.0014887, 24.8518616 ], [ 78.0000275, 24.8529336 ], [ 77.9940002, 24.8528435 ], [ 77.9915095, 24.8556486 ], [ 77.9861762, 24.855463 ], [ 77.9846691, 24.8518034 ], [ 77.9816568, 24.8524601 ], [ 77.9770969, 24.8480849 ], [ 77.9694563, 24.872273 ], [ 77.9720996, 24.8845737 ], [ 77.9792676, 24.8821088 ], [ 77.9893606, 24.8857622 ], [ 77.9906291, 24.8928975 ], [ 77.9872283, 24.8972154 ], [ 77.9817725, 24.9005371 ], [ 77.9835934, 24.9112426 ], [ 77.9888047, 24.9215889 ], [ 77.9954032, 24.9270093 ], [ 78.0022311, 24.9366225 ], [ 78.0145672, 24.9445494 ], [ 78.0178517, 24.9508323 ], [ 78.0177983, 24.9559337 ], [ 78.0158326, 24.9572928 ], [ 78.0008175, 24.9597909 ], [ 77.9895772, 24.9592335 ], [ 77.9814299, 24.9622593 ], [ 77.9708038, 24.961919 ], [ 77.9610954, 24.9640871 ], [ 77.9601549, 24.9645389 ], [ 77.9605642, 24.9833702 ], [ 77.95031, 24.9867251 ], [ 77.9388716, 24.9805375 ], [ 77.9254978, 24.9859683 ], [ 77.9245061, 24.9827277 ], [ 77.9183357, 24.9832623 ], [ 77.9117485, 24.9813593 ], [ 77.9049089, 25.0004137 ], [ 77.9009077, 25.0026509 ], [ 77.8940378, 25.002643 ], [ 77.8879311, 25.0072747 ], [ 77.8824973, 25.0059797 ], [ 77.8794114, 25.0066794 ], [ 77.8791736, 25.0031361 ], [ 77.8739807, 25.0004261 ], [ 77.8561026, 24.9987906 ], [ 77.8529532, 24.9944795 ], [ 77.8479456, 24.9965866 ], [ 77.8480242, 24.999489 ], [ 77.8518073, 25.0049761 ], [ 77.8511728, 25.0069124 ], [ 77.8487357, 25.007729 ], [ 77.842194, 25.0015754 ], [ 77.836657, 24.9998002 ], [ 77.8313569, 25.0009362 ], [ 77.8280015, 24.9936749 ], [ 77.826803, 24.9808328 ], [ 77.8229867, 24.976435 ], [ 77.81984, 24.9700198 ], [ 77.8130067, 24.9695839 ], [ 77.8146806, 24.9588281 ], [ 77.8090814, 24.9573949 ], [ 77.8021719, 24.9532074 ], [ 77.802287, 24.9510137 ], [ 77.8052183, 24.9506405 ], [ 77.8058007, 24.9449488 ], [ 77.8034016, 24.9415352 ], [ 77.8012771, 24.9341 ], [ 77.7945547, 24.9338889 ], [ 77.790662, 24.9363694 ], [ 77.7884247, 24.9359077 ], [ 77.7873987, 24.930829 ], [ 77.7851471, 24.9296586 ], [ 77.7798983, 24.9188357 ], [ 77.7742421, 24.9110412 ], [ 77.7744818, 24.9022168 ], [ 77.7649793, 24.8968974 ], [ 77.7553028, 24.8985375 ], [ 77.752326, 24.8909609 ], [ 77.7514598, 24.8711895 ], [ 77.7459756, 24.8632497 ], [ 77.7390089, 24.8572111 ], [ 77.7268832, 24.8573463 ], [ 77.726152, 24.8584572 ], [ 77.7282855, 24.8599498 ], [ 77.7269876, 24.8638823 ], [ 77.7233043, 24.8672792 ], [ 77.721157, 24.8671723 ], [ 77.7155335, 24.8632127 ], [ 77.7143768, 24.8578554 ], [ 77.7125011, 24.8568996 ], [ 77.7112225, 24.8536955 ], [ 77.709193, 24.8519858 ], [ 77.7073092, 24.8535758 ], [ 77.7068578, 24.8517253 ], [ 77.6974117, 24.8564879 ], [ 77.6952367, 24.8596667 ], [ 77.6922424, 24.8575782 ], [ 77.6904715, 24.8578362 ], [ 77.6910072, 24.8606888 ], [ 77.6894149, 24.8619805 ], [ 77.6886856, 24.8582027 ], [ 77.6866326, 24.8585421 ], [ 77.682574, 24.865161 ], [ 77.6784329, 24.8653838 ], [ 77.6760671, 24.8632902 ], [ 77.6706524, 24.8707353 ], [ 77.6692697, 24.8783686 ], [ 77.662813, 24.8803024 ], [ 77.6606417, 24.88358 ], [ 77.6549217, 24.8850618 ], [ 77.6537297, 24.8871791 ], [ 77.6544581, 24.8911737 ], [ 77.6485194, 24.8899109 ], [ 77.6471497, 24.8952599 ], [ 77.6433691, 24.8973414 ], [ 77.6420927, 24.9000318 ], [ 77.6377771, 24.8995854 ], [ 77.635318, 24.9053046 ], [ 77.6327444, 24.9055485 ], [ 77.6291957, 24.903188 ], [ 77.6263204, 24.908081 ], [ 77.6191042, 24.9097782 ], [ 77.6204404, 24.9142468 ], [ 77.617822, 24.9174967 ], [ 77.6174951, 24.9210671 ], [ 77.6151439, 24.9199521 ], [ 77.6134609, 24.9212023 ], [ 77.6129951, 24.9269754 ], [ 77.6100794, 24.9278058 ], [ 77.6077723, 24.9305905 ], [ 77.6043767, 24.9289155 ], [ 77.6037683, 24.9257648 ], [ 77.59467, 24.9267833 ], [ 77.5933319, 24.9333597 ], [ 77.5956072, 24.9412548 ], [ 77.5964663, 24.9512351 ], [ 77.6010804, 24.9523914 ], [ 77.5981042, 24.9556498 ], [ 77.5972565, 24.9599739 ], [ 77.5887286, 24.9657046 ], [ 77.5804364, 24.9608365 ], [ 77.5754229, 24.9549805 ], [ 77.5748591, 24.9534863 ], [ 77.576197, 24.9506476 ], [ 77.5748854, 24.949627 ], [ 77.5745005, 24.9463544 ], [ 77.5697335, 24.9447368 ], [ 77.5678138, 24.942416 ], [ 77.5681559, 24.9411386 ], [ 77.5643592, 24.9401847 ], [ 77.5597587, 24.933367 ], [ 77.5555009, 24.9343852 ], [ 77.5489146, 24.9219374 ], [ 77.5496132, 24.9208951 ], [ 77.5454189, 24.9158916 ], [ 77.5419346, 24.9153841 ], [ 77.5414309, 24.9138627 ], [ 77.544693, 24.913377 ], [ 77.5435994, 24.9052289 ], [ 77.5495555, 24.9016435 ], [ 77.549236, 24.8979104 ], [ 77.5558636, 24.8961893 ], [ 77.5611042, 24.8965166 ], [ 77.5679993, 24.8937028 ], [ 77.5756423, 24.8882482 ], [ 77.5790615, 24.8889399 ], [ 77.5802384, 24.8911836 ], [ 77.5837816, 24.8914419 ], [ 77.5838711, 24.8899208 ], [ 77.5856725, 24.8896731 ], [ 77.5874288, 24.8911721 ], [ 77.5887852, 24.8895384 ], [ 77.5871774, 24.8878137 ], [ 77.5806405, 24.8875953 ], [ 77.5789152, 24.8828687 ], [ 77.5645062, 24.8716693 ], [ 77.5636744, 24.8727072 ], [ 77.5626062, 24.8718085 ], [ 77.5625016, 24.8730181 ], [ 77.561592, 24.8716455 ], [ 77.5598354, 24.8717937 ], [ 77.5598242, 24.8742222 ], [ 77.5577098, 24.8772275 ], [ 77.5517226, 24.8772517 ], [ 77.5507271, 24.8788131 ], [ 77.5483127, 24.8783244 ], [ 77.5418046, 24.8803205 ], [ 77.5335863, 24.8793769 ], [ 77.5291402, 24.8763859 ], [ 77.5287064, 24.8742642 ], [ 77.5260313, 24.8720597 ], [ 77.521384, 24.8735371 ], [ 77.5121673, 24.8721175 ], [ 77.5045359, 24.8790946 ], [ 77.4924103, 24.8793703 ], [ 77.4901449, 24.8803968 ], [ 77.4865731, 24.8758766 ], [ 77.478573, 24.87674 ], [ 77.4797569, 24.8783913 ], [ 77.4781191, 24.8784962 ], [ 77.4778048, 24.8812545 ], [ 77.4762767, 24.8823749 ], [ 77.4768737, 24.8862519 ], [ 77.4717008, 24.8902682 ], [ 77.4701613, 24.8960108 ], [ 77.4681337, 24.8979169 ], [ 77.4691493, 24.8993878 ], [ 77.4676921, 24.9030178 ], [ 77.4686008, 24.9069985 ], [ 77.4666729, 24.9100645 ], [ 77.4595529, 24.9133729 ], [ 77.4578923, 24.9169894 ], [ 77.4615477, 24.9206299 ], [ 77.4615309, 24.9248504 ], [ 77.4643665, 24.9306851 ], [ 77.4622282, 24.930885 ], [ 77.4611253, 24.9324294 ], [ 77.4594412, 24.931022 ], [ 77.4555209, 24.9312815 ], [ 77.4519302, 24.9284533 ], [ 77.4495555, 24.9307069 ], [ 77.448236, 24.9344766 ], [ 77.4247709, 24.945825 ], [ 77.4184651, 24.9501513 ], [ 77.4052857, 24.9503983 ], [ 77.3997776, 24.9380585 ], [ 77.3956134, 24.9332611 ], [ 77.376614, 24.9250518 ], [ 77.3702631, 24.9260268 ], [ 77.367649, 24.9352936 ], [ 77.3678665, 24.9410171 ], [ 77.3637622, 24.9435988 ], [ 77.3595194, 24.9439505 ], [ 77.3577912, 24.9461305 ], [ 77.3607903, 24.9565171 ], [ 77.3628053, 24.9580835 ], [ 77.3619238, 24.9604712 ], [ 77.3597301, 24.9619516 ], [ 77.3548484, 24.9590577 ], [ 77.3473801, 24.9666487 ], [ 77.3469586, 24.9696684 ], [ 77.3507703, 24.9756137 ], [ 77.347694, 24.9806326 ], [ 77.3411508, 24.9855331 ], [ 77.3367064, 24.9923254 ], [ 77.3376312, 24.9968394 ], [ 77.3352878, 24.9990099 ], [ 77.3348427, 25.0012671 ], [ 77.3431452, 25.0105957 ], [ 77.3400905, 25.0171564 ], [ 77.3397064, 25.0266504 ], [ 77.337839, 25.0292378 ], [ 77.3322538, 25.0321282 ], [ 77.3311314, 25.0366515 ], [ 77.3289946, 25.038583 ], [ 77.3221882, 25.0382695 ], [ 77.3195796, 25.0407582 ], [ 77.3201695, 25.0475847 ], [ 77.3223565, 25.0506632 ], [ 77.3203146, 25.0556274 ], [ 77.3219693, 25.061942 ], [ 77.3212695, 25.0658221 ], [ 77.3174876, 25.0704004 ], [ 77.3098617, 25.0716263 ], [ 77.3117334, 25.0767381 ], [ 77.3110344, 25.081774 ], [ 77.3148354, 25.0846708 ], [ 77.3219088, 25.0855441 ], [ 77.338344, 25.0921683 ], [ 77.3378103, 25.094853 ], [ 77.3408343, 25.0956763 ], [ 77.3504309, 25.0957591 ], [ 77.3572916, 25.093511 ], [ 77.3756703, 25.1046446 ], [ 77.3755763, 25.1102918 ], [ 77.394376, 25.1199223 ], [ 77.4024307, 25.1125532 ], [ 77.4021885, 25.1092942 ], [ 77.4066169, 25.1116864 ], [ 77.4053669, 25.117208 ], [ 77.40128, 25.1216428 ], [ 77.390582, 25.1233863 ], [ 77.3961572, 25.1372773 ], [ 77.393992, 25.1548721 ], [ 77.3946872, 25.1564449 ], [ 77.3930011, 25.1592295 ], [ 77.3946792, 25.1621313 ], [ 77.4000324, 25.1655646 ], [ 77.3995555, 25.174887 ], [ 77.4010814, 25.1793661 ], [ 77.3993597, 25.1800845 ], [ 77.4001433, 25.1838806 ], [ 77.4094537, 25.1829395 ], [ 77.4162908, 25.1861088 ], [ 77.4215797, 25.1857064 ], [ 77.4219687, 25.1833082 ], [ 77.4266189, 25.1877222 ], [ 77.418498, 25.1984153 ], [ 77.4146809, 25.2201349 ], [ 77.4116965, 25.2240105 ], [ 77.3997709, 25.2260866 ], [ 77.3944237, 25.2299371 ], [ 77.3931293, 25.2337625 ], [ 77.3876503, 25.2390229 ], [ 77.3866157, 25.2427041 ], [ 77.3824166, 25.2456873 ], [ 77.3703748, 25.2460075 ], [ 77.3684355, 25.2539813 ], [ 77.3690497, 25.2554562 ], [ 77.3662538, 25.2576582 ], [ 77.3661138, 25.2599079 ], [ 77.3621236, 25.2627202 ], [ 77.3581551, 25.2617818 ], [ 77.3556895, 25.262602 ], [ 77.3541747, 25.2736017 ], [ 77.3569438, 25.2738372 ], [ 77.3575473, 25.2757862 ], [ 77.3626576, 25.2790124 ], [ 77.367612, 25.2759905 ], [ 77.3739514, 25.2745212 ], [ 77.3758653, 25.2851228 ], [ 77.3810026, 25.2927344 ], [ 77.3796172, 25.2975404 ], [ 77.3814827, 25.3046 ], [ 77.37897, 25.3132015 ], [ 77.3747552, 25.320093 ], [ 77.3717122, 25.3208911 ], [ 77.3688094, 25.3283796 ], [ 77.3580011, 25.3261567 ], [ 77.3570837, 25.3228905 ], [ 77.3528153, 25.3204134 ], [ 77.348836, 25.3200437 ], [ 77.3421215, 25.3217707 ], [ 77.3503605, 25.3298214 ], [ 77.3518164, 25.3355206 ], [ 77.3616016, 25.3566106 ], [ 77.3613155, 25.3587589 ], [ 77.366685, 25.3603108 ], [ 77.3641312, 25.363583 ], [ 77.3610468, 25.3646073 ], [ 77.3591377, 25.3693765 ], [ 77.3516631, 25.3696857 ], [ 77.3500641, 25.3807453 ], [ 77.3514284, 25.3862879 ], [ 77.3576568, 25.398743 ], [ 77.3653105, 25.4006463 ], [ 77.3701263, 25.404531 ], [ 77.370969, 25.4084932 ], [ 77.3669345, 25.4130801 ], [ 77.3609428, 25.4189936 ], [ 77.3539043, 25.4188899 ], [ 77.3499618, 25.4157173 ], [ 77.3442041, 25.4186208 ], [ 77.343519, 25.4207122 ], [ 77.3346438, 25.4238095 ], [ 77.3348984, 25.4254165 ], [ 77.3312404, 25.4274603 ], [ 77.3199442, 25.4277114 ], [ 77.3154588, 25.4314693 ], [ 77.3068777, 25.4302595 ], [ 77.2914083, 25.4227303 ], [ 77.2783779, 25.4095067 ], [ 77.2756425, 25.4035513 ], [ 77.2669434, 25.395648 ], [ 77.250941, 25.3879418 ], [ 77.2496659, 25.3821394 ], [ 77.2478661, 25.3801857 ], [ 77.243955, 25.3790359 ], [ 77.2361655, 25.3803912 ], [ 77.2339435, 25.3787009 ], [ 77.2315679, 25.3727029 ], [ 77.2279371, 25.3686736 ], [ 77.2298706, 25.3608862 ], [ 77.2281527, 25.3465694 ], [ 77.2256243, 25.3423683 ], [ 77.2243152, 25.3355341 ], [ 77.2256557, 25.3346969 ], [ 77.22923, 25.337608 ], [ 77.2339469, 25.3337726 ], [ 77.225779, 25.3303083 ], [ 77.226948, 25.3252629 ], [ 77.2233687, 25.3187909 ], [ 77.2194297, 25.3189902 ], [ 77.217497, 25.3178369 ], [ 77.2152337, 25.3203441 ], [ 77.2163209, 25.3230538 ], [ 77.218836, 25.3231919 ], [ 77.2198829, 25.3247783 ], [ 77.219466, 25.3277859 ], [ 77.2172185, 25.3295302 ], [ 77.205548, 25.3264785 ], [ 77.2082774, 25.3143422 ], [ 77.2113892, 25.3093445 ], [ 77.2091871, 25.3086509 ], [ 77.2094176, 25.3063051 ], [ 77.1856043, 25.3090026 ], [ 77.1796733, 25.3119067 ], [ 77.1653577, 25.3082318 ], [ 77.1537373, 25.312613 ], [ 77.1441199, 25.3205297 ], [ 77.1386446, 25.3220491 ], [ 77.1350301, 25.3206663 ], [ 77.1250826, 25.3302656 ], [ 77.1209324, 25.3306323 ], [ 77.1176838, 25.3294514 ], [ 77.1124934, 25.3319767 ], [ 77.1090285, 25.3306317 ], [ 77.0921472, 25.3354627 ], [ 77.0830254, 25.3359834 ], [ 77.0814076, 25.3547245 ], [ 77.0712284, 25.3492084 ], [ 77.0611765, 25.3483793 ], [ 77.045883, 25.3412737 ], [ 77.0356792, 25.3470421 ], [ 77.027175, 25.3501803 ], [ 77.0119516, 25.3511658 ], [ 77.0169606, 25.3573319 ], [ 77.0163463, 25.3836645 ], [ 77.0283738, 25.3852797 ], [ 77.0365081, 25.3880974 ], [ 77.0671728, 25.3841015 ], [ 77.0794545, 25.3848656 ], [ 77.0847726, 25.3879472 ], [ 77.0873259, 25.3838424 ], [ 77.0862988, 25.3826518 ], [ 77.0891306, 25.3817466 ], [ 77.0897499, 25.3802675 ], [ 77.0980771, 25.3797846 ], [ 77.1136883, 25.3910973 ], [ 77.1131167, 25.3956654 ], [ 77.1086536, 25.4065498 ], [ 77.1099771, 25.4101947 ], [ 77.115823, 25.4107294 ], [ 77.1219412, 25.4147828 ], [ 77.1365708, 25.4154794 ], [ 77.1404647, 25.419491 ], [ 77.1425633, 25.4199556 ], [ 77.1473026, 25.4175937 ], [ 77.1529821, 25.42036 ], [ 77.1538185, 25.4286269 ], [ 77.1477478, 25.432881 ], [ 77.144453, 25.4440005 ], [ 77.1392107, 25.4478436 ], [ 77.1387498, 25.4527331 ], [ 77.1507161, 25.465996 ], [ 77.1620901, 25.4657785 ], [ 77.1707088, 25.4629545 ], [ 77.1856418, 25.4661008 ], [ 77.1825229, 25.4746687 ], [ 77.1770227, 25.4795731 ], [ 77.1747513, 25.4868785 ], [ 77.1769816, 25.4978425 ], [ 77.1746856, 25.5050966 ], [ 77.1785465, 25.5118377 ], [ 77.2101922, 25.5171567 ], [ 77.2168978, 25.5150468 ], [ 77.2258384, 25.5144102 ], [ 77.2356631, 25.519439 ], [ 77.2393295, 25.5185364 ], [ 77.2488049, 25.5203354 ], [ 77.2674868, 25.5261177 ], [ 77.2767883, 25.5266883 ], [ 77.2806462, 25.5295253 ], [ 77.2879478, 25.5310553 ], [ 77.2911474, 25.5297257 ], [ 77.2954399, 25.5303645 ], [ 77.2995515, 25.5341489 ], [ 77.3026817, 25.5408485 ], [ 77.3061571, 25.5445557 ], [ 77.3049448, 25.5502466 ], [ 77.3070267, 25.5552575 ], [ 77.300388, 25.5573484 ], [ 77.2948805, 25.5563301 ], [ 77.2898277, 25.5529602 ], [ 77.2706453, 25.5608599 ], [ 77.2712177, 25.5665337 ], [ 77.2728475, 25.5693422 ], [ 77.2700098, 25.5766249 ], [ 77.2734177, 25.5835373 ], [ 77.2572787, 25.5829837 ], [ 77.2593143, 25.5880132 ], [ 77.2595477, 25.5938809 ], [ 77.2627104, 25.602215 ], [ 77.2653027, 25.6033002 ], [ 77.265001, 25.6066264 ], [ 77.2688122, 25.6142298 ], [ 77.2752402, 25.618549 ], [ 77.2838197, 25.6291882 ], [ 77.2779195, 25.6359454 ], [ 77.2698107, 25.63951 ], [ 77.2584864, 25.6414016 ], [ 77.2600466, 25.6448917 ], [ 77.2533234, 25.6558808 ], [ 77.2568444, 25.6606092 ], [ 77.2640316, 25.6647942 ], [ 77.2714949, 25.6727973 ], [ 77.2759163, 25.6742853 ], [ 77.2799283, 25.6709932 ], [ 77.28408, 25.6733834 ], [ 77.2863512, 25.6732223 ], [ 77.2931702, 25.6649532 ], [ 77.2983556, 25.6631732 ], [ 77.3036943, 25.663045 ], [ 77.3086557, 25.6607185 ], [ 77.3180975, 25.6610474 ], [ 77.3260129, 25.6678248 ], [ 77.3243661, 25.6760115 ], [ 77.319584, 25.6776346 ], [ 77.3154274, 25.6831077 ], [ 77.3089715, 25.6842965 ], [ 77.3079543, 25.6863044 ], [ 77.3086708, 25.6878212 ], [ 77.3044454, 25.6901481 ], [ 77.3041491, 25.6941558 ], [ 77.3007497, 25.6977243 ], [ 77.2924887, 25.7002789 ], [ 77.2874026, 25.699951 ], [ 77.2841121, 25.7035281 ], [ 77.2787597, 25.7060702 ], [ 77.2793563, 25.7076458 ], [ 77.2781552, 25.7143653 ], [ 77.2766295, 25.7157725 ], [ 77.2766862, 25.719514 ], [ 77.2855511, 25.7246063 ], [ 77.2878354, 25.7283311 ], [ 77.2946051, 25.7312055 ], [ 77.3000828, 25.7367643 ], [ 77.3053028, 25.7322941 ], [ 77.3141892, 25.728525 ], [ 77.3156741, 25.7283225 ], [ 77.318478, 25.7312528 ], [ 77.32151, 25.7372611 ], [ 77.320926, 25.7503544 ], [ 77.3187872, 25.7521996 ], [ 77.3213928, 25.7655104 ], [ 77.3251133, 25.7722049 ], [ 77.3353268, 25.7717973 ], [ 77.3259068, 25.7821073 ], [ 77.3255862, 25.7858262 ], [ 77.3294678, 25.7907921 ], [ 77.3394405, 25.784219 ], [ 77.3724916, 25.7864121 ], [ 77.3774419, 25.7839072 ], [ 77.3807121, 25.7850851 ], [ 77.3829703, 25.7832435 ], [ 77.3890072, 25.7835138 ], [ 77.3918383, 25.7812569 ], [ 77.399221, 25.7808948 ], [ 77.4045606, 25.7832994 ], [ 77.4071672, 25.7811369 ], [ 77.4088776, 25.7832307 ], [ 77.4110955, 25.781804 ], [ 77.4180252, 25.7833682 ], [ 77.4207613, 25.7815845 ], [ 77.429988, 25.7804485 ], [ 77.4361722, 25.7763118 ], [ 77.443329, 25.7740745 ], [ 77.4415499, 25.7837654 ], [ 77.4353235, 25.7934808 ], [ 77.4087461, 25.8116193 ], [ 77.4096824, 25.8246444 ], [ 77.4081617, 25.8253579 ], [ 77.4098938, 25.8310126 ], [ 77.4083892, 25.835991 ], [ 77.4100767, 25.8422912 ], [ 77.4091407, 25.8480504 ], [ 77.4125544, 25.8544177 ], [ 77.4111485, 25.8567198 ], [ 77.4106763, 25.8621088 ], [ 77.4174531, 25.8694815 ], [ 77.4136232, 25.8738695 ], [ 77.407467, 25.8736815 ], [ 77.4052425, 25.8756859 ], [ 77.4053429, 25.877938 ], [ 77.4076135, 25.8803521 ], [ 77.4151685, 25.8846467 ], [ 77.4177278, 25.8837974 ], [ 77.4230418, 25.8848971 ], [ 77.4246346, 25.8877669 ], [ 77.423419, 25.8922084 ], [ 77.429342, 25.8929374 ], [ 77.4336563, 25.8896184 ], [ 77.4379569, 25.8887862 ], [ 77.4435661, 25.8904535 ], [ 77.4482881, 25.8855498 ], [ 77.4503305, 25.8804623 ], [ 77.455745, 25.8751202 ], [ 77.4603741, 25.8743052 ], [ 77.461668, 25.8698499 ], [ 77.4677856, 25.8653012 ], [ 77.4737357, 25.8639253 ], [ 77.4732464, 25.8574671 ], [ 77.4761249, 25.8578216 ], [ 77.4820523, 25.8539812 ], [ 77.4920119, 25.8574983 ], [ 77.4949249, 25.8524321 ], [ 77.4978864, 25.8512245 ], [ 77.5042525, 25.8547712 ], [ 77.5070163, 25.8543583 ], [ 77.5080542, 25.8539259 ], [ 77.5078003, 25.8484466 ], [ 77.5129211, 25.8501431 ], [ 77.5159759, 25.8476811 ], [ 77.520878, 25.8487002 ], [ 77.5218585, 25.8510343 ], [ 77.5246968, 25.8388685 ], [ 77.5345955, 25.833951 ], [ 77.5422292, 25.8364784 ], [ 77.548314, 25.8359988 ], [ 77.5440284, 25.8235218 ], [ 77.5477592, 25.8223594 ], [ 77.5511698, 25.8228531 ], [ 77.5511088, 25.8167061 ], [ 77.5545273, 25.8119688 ], [ 77.5583523, 25.8109506 ], [ 77.5604251, 25.8136865 ], [ 77.5777715, 25.8163424 ], [ 77.5789915, 25.8206169 ], [ 77.581399, 25.8235603 ], [ 77.5807681, 25.8308084 ], [ 77.5832439, 25.8382831 ], [ 77.5773709, 25.845665 ], [ 77.5807752, 25.8518718 ], [ 77.5787172, 25.8599002 ], [ 77.5801974, 25.8631322 ], [ 77.590612, 25.8675399 ], [ 77.5998474, 25.8599776 ], [ 77.6096946, 25.8574424 ], [ 77.6157451, 25.8589729 ], [ 77.6223593, 25.8648675 ], [ 77.6370955, 25.8657831 ], [ 77.6393456, 25.8680982 ], [ 77.6391519, 25.8754459 ], [ 77.6453801, 25.887342 ], [ 77.641729, 25.8952586 ], [ 77.6420837, 25.8981065 ], [ 77.6444643, 25.9007554 ], [ 77.6523298, 25.9061745 ], [ 77.6556225, 25.9101252 ], [ 77.6596671, 25.9115256 ], [ 77.6774737, 25.913154 ], [ 77.685942, 25.912072 ] ] ] } }
]
}
