{
"type": "FeatureCollection",
"name": "2309",
"crs": { "type": "name", "properties": { "name": "urn:ogc:def:crs:OGC:1.3:CRS84" } },
"features": [
{ "type": "Feature", "properties": { "code": "2309", "name": "Chhatarpur", "type": "district" }, "geometry": { "type": "Polygon", "coordinates": [ [ [ 80.2850622, 25.4154629 ], [ 80.2856077, 25.4171106 ], [ 80.2884455, 25.4170311 ], [ 80.3149384, 25.3901078 ], [ 80.3165544, 25.377615 ], [ 80.3201007, 25.3689774 ], [ 80.3197101, 25.3649873 ], [ 80.3112722, 25.3605651 ], [ 80.3096456, 25.3554866 ], [ 80.3115434, 25.3455757 ], [ 80.3217352, 25.3350226 ], [ 80.3226702, 25.3320891 ], [ 80.3188457, 25.3222256 ], [ 80.3206003, 25.3186695 ], [ 80.3213629, 25.3123237 ], [ 80.318506, 25.3050648 ], [ 80.313999, 25.3021247 ], [ 80.3111709, 25.2982283 ], [ 80.3101311, 25.2930326 ], [ 80.3107999, 25.286407 ], [ 80.313204, 25.2840068 ], [ 80.3186307, 25.2827001 ], [ 80.3202005, 25.2802679 ], [ 80.3255132, 25.2782296 ], [ 80.3482144, 25.2784477 ], [ 80.3514265, 25.2771574 ], [ 80.3549671, 25.2709246 ], [ 80.35681, 25.2617983 ], [ 80.3658743, 25.2510749 ], [ 80.3693929, 25.2495255 ], [ 80.3696263, 25.2476297 ], [ 80.3835765, 25.237289 ], [ 80.3886682, 25.2375053 ], [ 80.3962574, 25.2464278 ], [ 80.4001284, 25.2463414 ], [ 80.4038896, 25.2435333 ], [ 80.4107476, 25.224078 ], [ 80.407734, 25.2180215 ], [ 80.412089, 25.2132405 ], [ 80.4126384, 25.2089073 ], [ 80.4145822, 25.205648 ], [ 80.4214706, 25.1983203 ], [ 80.4264877, 25.189851 ], [ 80.431349, 25.1789082 ], [ 80.4310889, 25.1739387 ], [ 80.4267612, 25.1679778 ], [ 80.4193446, 25.1629474 ], [ 80.4098769, 25.1629635 ], [ 80.3965006, 25.1604067 ], [ 80.3852324, 25.1557453 ], [ 80.3765537, 25.1458291 ], [ 80.3748775, 25.1455267 ], [ 80.3734791, 25.1473953 ], [ 80.3578196, 25.1424969 ], [ 80.3538091, 25.1361051 ], [ 80.356408, 25.1321605 ], [ 80.3523226, 25.1309457 ], [ 80.3553375, 25.1284907 ], [ 80.3548978, 25.1263218 ], [ 80.3409675, 25.1122029 ], [ 80.3225974, 25.0966962 ], [ 80.3223967, 25.0951987 ], [ 80.3265346, 25.0922046 ], [ 80.3217755, 25.0852595 ], [ 80.3182501, 25.0750831 ], [ 80.3134927, 25.0719673 ], [ 80.2940402, 25.0638776 ], [ 80.2858128, 25.056029 ], [ 80.2848976, 25.0539611 ], [ 80.2854953, 25.0497366 ], [ 80.2880889, 25.0466057 ], [ 80.2877136, 25.037921 ], [ 80.2709981, 25.0234833 ], [ 80.2622804, 25.0250799 ], [ 80.2528752, 25.0180025 ], [ 80.2484333, 25.0176409 ], [ 80.2397095, 25.0120193 ], [ 80.2355302, 25.0079961 ], [ 80.2359186, 25.0061738 ], [ 80.2340642, 25.0044945 ], [ 80.2308708, 25.0042892 ], [ 80.2193993, 24.9913943 ], [ 80.2099308, 24.9856766 ], [ 80.2044382, 24.9773337 ], [ 80.2001623, 24.973612 ], [ 80.1902411, 24.9690668 ], [ 80.1759838, 24.9659624 ], [ 80.1652374, 24.9620703 ], [ 80.1570711, 24.9569176 ], [ 80.153683, 24.9507976 ], [ 80.151919, 24.9444289 ], [ 80.1526257, 24.9386827 ], [ 80.1503723, 24.9349547 ], [ 80.1425406, 24.9329562 ], [ 80.1311499, 24.9324064 ], [ 80.1231701, 24.9336388 ], [ 80.1113876, 24.9390323 ], [ 80.0811297, 24.9396631 ], [ 80.0674913, 24.9386519 ], [ 80.0555943, 24.9403215 ], [ 80.0513035, 24.9378865 ], [ 80.043252, 24.9258395 ], [ 80.0366992, 24.9243282 ], [ 80.0330792, 24.9218396 ], [ 80.0327483, 24.9187602 ], [ 80.0352316, 24.9139003 ], [ 80.0331307, 24.9102112 ], [ 80.0334796, 24.906975 ], [ 80.0428981, 24.8994017 ], [ 80.0489965, 24.8892578 ], [ 80.0606699, 24.8606409 ], [ 80.0673118, 24.8554707 ], [ 80.08366, 24.8474504 ], [ 80.0879551, 24.8433167 ], [ 80.0902764, 24.8385868 ], [ 80.0913814, 24.8317846 ], [ 80.0904135, 24.8257809 ], [ 80.087409, 24.8166396 ], [ 80.0780782, 24.7989245 ], [ 80.0725084, 24.7911858 ], [ 80.0548906, 24.7733397 ], [ 80.0266763, 24.7533001 ], [ 80.014981, 24.7474345 ], [ 80.0057606, 24.7337367 ], [ 79.9924935, 24.724324 ], [ 79.9859131, 24.7103765 ], [ 79.9875608, 24.7073238 ], [ 79.9877599, 24.7034823 ], [ 79.98687, 24.6973259 ], [ 79.9852182, 24.6957743 ], [ 79.985161, 24.6924205 ], [ 79.9828837, 24.687195 ], [ 79.9806036, 24.6841858 ], [ 79.9710136, 24.6770467 ], [ 79.9649471, 24.663373 ], [ 79.9535895, 24.6531013 ], [ 79.9367465, 24.6615594 ], [ 79.9316337, 24.6711398 ], [ 79.9281625, 24.6748245 ], [ 79.9284526, 24.6830488 ], [ 79.9259395, 24.6869002 ], [ 79.9005325, 24.6977312 ], [ 79.8968413, 24.6962016 ], [ 79.893289, 24.6969333 ], [ 79.8823936, 24.6880057 ], [ 79.8733377, 24.6668579 ], [ 79.8713425, 24.6474252 ], [ 79.8698116, 24.6439403 ], [ 79.861199, 24.6359952 ], [ 79.8581439, 24.6225476 ], [ 79.8532707, 24.6185837 ], [ 79.8425365, 24.615747 ], [ 79.8430485, 24.6019342 ], [ 79.841436, 24.5945579 ], [ 79.8427051, 24.5934613 ], [ 79.8482739, 24.5936429 ], [ 79.8550082, 24.5909671 ], [ 79.8564451, 24.5883491 ], [ 79.8557254, 24.5812621 ], [ 79.8589341, 24.5809013 ], [ 79.8646354, 24.583407 ], [ 79.8664967, 24.5808613 ], [ 79.8691327, 24.5815611 ], [ 79.8748045, 24.5893478 ], [ 79.8787936, 24.5916725 ], [ 79.8848758, 24.5927285 ], [ 79.8882919, 24.5914508 ], [ 79.8844353, 24.5787847 ], [ 79.884899, 24.5752682 ], [ 79.8978068, 24.5740932 ], [ 79.9041257, 24.5768049 ], [ 79.9036464, 24.5747918 ], [ 79.898932, 24.5728154 ], [ 79.8842865, 24.5691562 ], [ 79.8754462, 24.5759773 ], [ 79.8759201, 24.5728265 ], [ 79.8696567, 24.5614736 ], [ 79.8691635, 24.552125 ], [ 79.8716165, 24.5445414 ], [ 79.8794627, 24.5339424 ], [ 79.8822398, 24.5181204 ], [ 79.8796692, 24.5161163 ], [ 79.8689035, 24.5147575 ], [ 79.8651641, 24.5100944 ], [ 79.8636844, 24.505842 ], [ 79.8696684, 24.4901161 ], [ 79.8819997, 24.4757476 ], [ 79.8813263, 24.4731006 ], [ 79.8750008, 24.4693378 ], [ 79.8666316, 24.4616636 ], [ 79.8641761, 24.4563639 ], [ 79.8682744, 24.4506177 ], [ 79.8680636, 24.4256997 ], [ 79.8725751, 24.4126766 ], [ 79.8768195, 24.4069932 ], [ 79.8754984, 24.405314 ], [ 79.8775934, 24.4021224 ], [ 79.8760455, 24.4001859 ], [ 79.8762426, 24.3943943 ], [ 79.8818023, 24.3890178 ], [ 79.8794411, 24.3834474 ], [ 79.88363, 24.376667 ], [ 79.8864982, 24.3746354 ], [ 79.8857884, 24.3735972 ], [ 79.8832996, 24.374279 ], [ 79.8763754, 24.371828 ], [ 79.8752763, 24.3711645 ], [ 79.8758677, 24.3698237 ], [ 79.8739605, 24.3718822 ], [ 79.8730143, 24.3698372 ], [ 79.8708212, 24.3708484 ], [ 79.8632921, 24.357951 ], [ 79.8616956, 24.3580187 ], [ 79.8608138, 24.3558292 ], [ 79.8597001, 24.3558607 ], [ 79.8572225, 24.3487732 ], [ 79.8478357, 24.3492955 ], [ 79.839867, 24.3540022 ], [ 79.8397941, 24.3680638 ], [ 79.8419718, 24.3701904 ], [ 79.8369728, 24.3761886 ], [ 79.8297769, 24.3777486 ], [ 79.8284105, 24.3810209 ], [ 79.8233374, 24.3849375 ], [ 79.8110906, 24.3875647 ], [ 79.805411, 24.3859958 ], [ 79.7950879, 24.3738567 ], [ 79.778888, 24.3810654 ], [ 79.773101, 24.3821135 ], [ 79.7705783, 24.3871721 ], [ 79.7673992, 24.3902509 ], [ 79.763446, 24.3988677 ], [ 79.7588866, 24.4041459 ], [ 79.7582815, 24.4081404 ], [ 79.7548769, 24.4114466 ], [ 79.7482004, 24.4141881 ], [ 79.7367871, 24.4091665 ], [ 79.730131, 24.4019757 ], [ 79.726687, 24.4040591 ], [ 79.7231361, 24.4019037 ], [ 79.7173435, 24.3944365 ], [ 79.717795, 24.3917773 ], [ 79.7076857, 24.3843529 ], [ 79.7105472, 24.3811373 ], [ 79.7042801, 24.3766672 ], [ 79.699684, 24.3803938 ], [ 79.6977987, 24.3842723 ], [ 79.6914173, 24.38674 ], [ 79.6912713, 24.3902837 ], [ 79.6865126, 24.3957839 ], [ 79.6806618, 24.3958268 ], [ 79.6825483, 24.393086 ], [ 79.6832314, 24.3887612 ], [ 79.6812003, 24.3753385 ], [ 79.6767037, 24.3719439 ], [ 79.6730477, 24.3738997 ], [ 79.6708855, 24.3778141 ], [ 79.6656481, 24.3823028 ], [ 79.6615524, 24.3824663 ], [ 79.6588901, 24.3793748 ], [ 79.6609488, 24.3743274 ], [ 79.6599257, 24.3637149 ], [ 79.6560491, 24.3707262 ], [ 79.648135, 24.3740727 ], [ 79.6439565, 24.3781089 ], [ 79.6371063, 24.3820234 ], [ 79.634159, 24.3826646 ], [ 79.630344, 24.3773697 ], [ 79.6247848, 24.372639 ], [ 79.6167315, 24.3786832 ], [ 79.6181951, 24.3823082 ], [ 79.6154545, 24.3868448 ], [ 79.6192202, 24.3857028 ], [ 79.6209945, 24.3864433 ], [ 79.6228181, 24.3924426 ], [ 79.6289599, 24.398812 ], [ 79.6282305, 24.4038092 ], [ 79.6240848, 24.4106617 ], [ 79.6216793, 24.4182121 ], [ 79.6066719, 24.4181746 ], [ 79.5989096, 24.4232236 ], [ 79.5955737, 24.4282839 ], [ 79.5870671, 24.43502 ], [ 79.5815221, 24.4383844 ], [ 79.5752446, 24.4400569 ], [ 79.5685844, 24.4457832 ], [ 79.5674945, 24.4407112 ], [ 79.5638164, 24.4373215 ], [ 79.5630922, 24.4332642 ], [ 79.5642104, 24.429888 ], [ 79.5668019, 24.4271919 ], [ 79.5513218, 24.4230923 ], [ 79.5454314, 24.4196957 ], [ 79.5454373, 24.4180061 ], [ 79.5539414, 24.412286 ], [ 79.5539531, 24.4089067 ], [ 79.5639613, 24.394404 ], [ 79.5639727, 24.3910247 ], [ 79.5669232, 24.391033 ], [ 79.5595724, 24.3835775 ], [ 79.5519796, 24.3817183 ], [ 79.5362167, 24.3915198 ], [ 79.5262918, 24.3932838 ], [ 79.5239367, 24.3912173 ], [ 79.5087737, 24.397287 ], [ 79.5034819, 24.3910172 ], [ 79.498316, 24.390593 ], [ 79.4929253, 24.3917975 ], [ 79.4833031, 24.3908342 ], [ 79.4801254, 24.3866563 ], [ 79.4754072, 24.3849216 ], [ 79.4750316, 24.3836804 ], [ 79.4729569, 24.3840113 ], [ 79.4715828, 24.3867672 ], [ 79.4716996, 24.3912136 ], [ 79.4598785, 24.4022158 ], [ 79.4576933, 24.4074986 ], [ 79.4535714, 24.4064941 ], [ 79.4461135, 24.4073555 ], [ 79.4418103, 24.4101666 ], [ 79.4417966, 24.4120446 ], [ 79.4384184, 24.4094098 ], [ 79.4405806, 24.4056621 ], [ 79.432598, 24.4021128 ], [ 79.4331869, 24.3962351 ], [ 79.4282448, 24.3889963 ], [ 79.4226597, 24.3876213 ], [ 79.4120239, 24.3896016 ], [ 79.405113, 24.387504 ], [ 79.3974144, 24.3884398 ], [ 79.3948555, 24.3833211 ], [ 79.3943024, 24.3763333 ], [ 79.3955685, 24.3728798 ], [ 79.3923893, 24.3697835 ], [ 79.392113, 24.3672195 ], [ 79.4020478, 24.3620163 ], [ 79.4063335, 24.3558807 ], [ 79.4100773, 24.3541514 ], [ 79.4106831, 24.3521381 ], [ 79.4136183, 24.3503407 ], [ 79.4092218, 24.3442304 ], [ 79.4098858, 24.3401629 ], [ 79.4055838, 24.3374554 ], [ 79.4011676, 24.3290508 ], [ 79.3960781, 24.3268939 ], [ 79.3986037, 24.317847 ], [ 79.4015097, 24.316411 ], [ 79.4048091, 24.3115486 ], [ 79.4020504, 24.3104522 ], [ 79.4013553, 24.3079289 ], [ 79.4032019, 24.3058024 ], [ 79.4015859, 24.3037757 ], [ 79.4018018, 24.2998122 ], [ 79.3972001, 24.292184 ], [ 79.398612, 24.2840853 ], [ 79.3949328, 24.2813999 ], [ 79.388124, 24.2789788 ], [ 79.3974764, 24.2680284 ], [ 79.3949441, 24.2600025 ], [ 79.3912756, 24.2582966 ], [ 79.392939, 24.2528251 ], [ 79.3851584, 24.2378881 ], [ 79.3887068, 24.2274058 ], [ 79.3864658, 24.2148383 ], [ 79.3856486, 24.2130552 ], [ 79.3773203, 24.211453 ], [ 79.3752481, 24.2094217 ], [ 79.38233, 24.1952693 ], [ 79.3768081, 24.1949534 ], [ 79.3734468, 24.1967366 ], [ 79.3682399, 24.1962309 ], [ 79.3654006, 24.190457 ], [ 79.3526647, 24.1891059 ], [ 79.3501699, 24.1878641 ], [ 79.3456572, 24.1881974 ], [ 79.3435906, 24.1869556 ], [ 79.3320704, 24.1864382 ], [ 79.3208176, 24.1823537 ], [ 79.3135143, 24.1836872 ], [ 79.3098766, 24.1859519 ], [ 79.3050708, 24.1820991 ], [ 79.3005199, 24.180517 ], [ 79.3021299, 24.179019 ], [ 79.303176, 24.173661 ], [ 79.3022762, 24.1639188 ], [ 79.3088055, 24.1635335 ], [ 79.3192704, 24.1526041 ], [ 79.3269595, 24.1542589 ], [ 79.330261, 24.1533525 ], [ 79.3311927, 24.1479582 ], [ 79.3264271, 24.1439526 ], [ 79.3227628, 24.1421773 ], [ 79.3159243, 24.1435336 ], [ 79.3158675, 24.138455 ], [ 79.3140776, 24.1370955 ], [ 79.3082136, 24.137698 ], [ 79.3071981, 24.1418823 ], [ 79.3009882, 24.1447144 ], [ 79.2883052, 24.1454572 ], [ 79.2860093, 24.1432799 ], [ 79.2797463, 24.1441158 ], [ 79.2653552, 24.1402555 ], [ 79.2631853, 24.1408499 ], [ 79.2568433, 24.1474045 ], [ 79.2536209, 24.1473386 ], [ 79.2519272, 24.1436536 ], [ 79.2438261, 24.144782 ], [ 79.2421515, 24.1455249 ], [ 79.2424723, 24.1467751 ], [ 79.2345855, 24.1419123 ], [ 79.2317237, 24.141709 ], [ 79.227736, 24.1439463 ], [ 79.2237289, 24.140649 ], [ 79.2259353, 24.1375192 ], [ 79.2223548, 24.1319645 ], [ 79.2176179, 24.132175 ], [ 79.2134967, 24.1292644 ], [ 79.2081288, 24.1315756 ], [ 79.203819, 24.1303906 ], [ 79.1993994, 24.1262172 ], [ 79.193865, 24.1248249 ], [ 79.1905631, 24.1220094 ], [ 79.1877748, 24.1231391 ], [ 79.1838231, 24.1187212 ], [ 79.1768332, 24.1169722 ], [ 79.1773274, 24.1226601 ], [ 79.1759657, 24.1246062 ], [ 79.1735851, 24.1250042 ], [ 79.1577904, 24.1220381 ], [ 79.1574114, 24.1210766 ], [ 79.1606765, 24.1180604 ], [ 79.1590078, 24.1132756 ], [ 79.1557365, 24.1103962 ], [ 79.1513105, 24.1123472 ], [ 79.1483989, 24.1122303 ], [ 79.1469623, 24.1094993 ], [ 79.1466954, 24.1015361 ], [ 79.1412655, 24.0967381 ], [ 79.1363036, 24.0974022 ], [ 79.1234045, 24.1027656 ], [ 79.1228733, 24.1100743 ], [ 79.1240241, 24.1152567 ], [ 79.1132621, 24.1225379 ], [ 79.1058646, 24.1216343 ], [ 79.1013737, 24.1229429 ], [ 79.0953226, 24.1281784 ], [ 79.0875953, 24.1273055 ], [ 79.0859529, 24.125874 ], [ 79.0775557, 24.1281966 ], [ 79.0750215, 24.130787 ], [ 79.0723011, 24.1314678 ], [ 79.0721511, 24.1374266 ], [ 79.0796741, 24.1469451 ], [ 79.0697392, 24.1523364 ], [ 79.0673003, 24.1602716 ], [ 79.0682673, 24.1656169 ], [ 79.0647784, 24.1664869 ], [ 79.0619763, 24.1688803 ], [ 79.0583121, 24.1683395 ], [ 79.054015, 24.1713847 ], [ 79.0544342, 24.1786935 ], [ 79.0566897, 24.1849989 ], [ 79.0558954, 24.1882148 ], [ 79.053932, 24.188065 ], [ 79.0514505, 24.1903615 ], [ 79.0513184, 24.1974985 ], [ 79.0519937, 24.2044012 ], [ 79.0552131, 24.212429 ], [ 79.0504667, 24.2152256 ], [ 79.0461066, 24.2215389 ], [ 79.0482561, 24.2243162 ], [ 79.0512682, 24.2250941 ], [ 79.0530461, 24.2235647 ], [ 79.0571456, 24.2254805 ], [ 79.0658884, 24.224622 ], [ 79.066688, 24.2308429 ], [ 79.065568, 24.2364221 ], [ 79.0707342, 24.2435656 ], [ 79.0701369, 24.2471135 ], [ 79.0648019, 24.2534631 ], [ 79.0673046, 24.2611202 ], [ 79.0751129, 24.2641114 ], [ 79.0827948, 24.2629851 ], [ 79.0847012, 24.260259 ], [ 79.0820186, 24.2573737 ], [ 79.0804051, 24.2531614 ], [ 79.0812879, 24.2488008 ], [ 79.087635, 24.2462159 ], [ 79.0927119, 24.2423844 ], [ 79.0954789, 24.2419697 ], [ 79.1026513, 24.2457222 ], [ 79.1014247, 24.2499654 ], [ 79.1044994, 24.2504361 ], [ 79.1106449, 24.2637034 ], [ 79.1132496, 24.2659292 ], [ 79.1147321, 24.2622321 ], [ 79.1182231, 24.2619208 ], [ 79.1206112, 24.2631081 ], [ 79.1221378, 24.2616456 ], [ 79.1285487, 24.2603725 ], [ 79.132453, 24.2541201 ], [ 79.135407, 24.2517681 ], [ 79.1378736, 24.2512532 ], [ 79.1413566, 24.2548311 ], [ 79.1429699, 24.2531667 ], [ 79.144861, 24.2561819 ], [ 79.1421094, 24.2615362 ], [ 79.1491667, 24.2681531 ], [ 79.1578398, 24.2740199 ], [ 79.1606166, 24.272024 ], [ 79.1647983, 24.2749527 ], [ 79.1726828, 24.2758803 ], [ 79.1752738, 24.2777799 ], [ 79.1716471, 24.2852566 ], [ 79.1700597, 24.2945519 ], [ 79.1711434, 24.3084282 ], [ 79.1755775, 24.3105394 ], [ 79.1840304, 24.3107395 ], [ 79.1873977, 24.3169091 ], [ 79.1873274, 24.3240821 ], [ 79.1854817, 24.3276942 ], [ 79.1834476, 24.3288235 ], [ 79.1813926, 24.327452 ], [ 79.1795158, 24.3279086 ], [ 79.1783753, 24.3336195 ], [ 79.1745634, 24.337327 ], [ 79.1700804, 24.3385111 ], [ 79.1668984, 24.3410129 ], [ 79.1645398, 24.3457443 ], [ 79.1655703, 24.347956 ], [ 79.1647685, 24.3522763 ], [ 79.1625777, 24.3584207 ], [ 79.1601488, 24.3602179 ], [ 79.1598881, 24.3618837 ], [ 79.1547039, 24.3616817 ], [ 79.1504569, 24.3652215 ], [ 79.1404876, 24.364609 ], [ 79.1400299, 24.3699313 ], [ 79.1417402, 24.3714794 ], [ 79.1462448, 24.3727608 ], [ 79.1487981, 24.3751034 ], [ 79.1553528, 24.3751969 ], [ 79.1516968, 24.3793777 ], [ 79.1511568, 24.3890968 ], [ 79.153449, 24.3905905 ], [ 79.1571424, 24.3968509 ], [ 79.152816, 24.4028285 ], [ 79.1524271, 24.4054242 ], [ 79.1681774, 24.4066664 ], [ 79.1665942, 24.4044097 ], [ 79.1672685, 24.4011955 ], [ 79.1663215, 24.3995165 ], [ 79.1620175, 24.3973464 ], [ 79.1673348, 24.3931152 ], [ 79.1676921, 24.3860144 ], [ 79.1663406, 24.3829992 ], [ 79.1614156, 24.3782742 ], [ 79.1610599, 24.3752814 ], [ 79.1584178, 24.3734944 ], [ 79.1620785, 24.3700266 ], [ 79.1707512, 24.3676363 ], [ 79.1822635, 24.3576696 ], [ 79.1864569, 24.3574287 ], [ 79.1906936, 24.3552917 ], [ 79.1955237, 24.3572261 ], [ 79.1968481, 24.3552663 ], [ 79.1988292, 24.3555137 ], [ 79.1990216, 24.3476137 ], [ 79.2012787, 24.3401281 ], [ 79.1993403, 24.336459 ], [ 79.200063, 24.3339443 ], [ 79.204537, 24.3346146 ], [ 79.2062544, 24.3314763 ], [ 79.210978, 24.3300066 ], [ 79.2166491, 24.3307391 ], [ 79.2245893, 24.3349864 ], [ 79.2278049, 24.3330658 ], [ 79.2329303, 24.3349446 ], [ 79.232472, 24.340714 ], [ 79.2350766, 24.3442738 ], [ 79.2348681, 24.3481877 ], [ 79.2373518, 24.3540814 ], [ 79.2328109, 24.3567706 ], [ 79.2324112, 24.3619397 ], [ 79.2376942, 24.3622744 ], [ 79.2399782, 24.3595686 ], [ 79.2460973, 24.3582232 ], [ 79.2451434, 24.3603862 ], [ 79.2457911, 24.3627511 ], [ 79.2485692, 24.3635985 ], [ 79.2531717, 24.3681918 ], [ 79.2576192, 24.3697801 ], [ 79.2601723, 24.369254 ], [ 79.265845, 24.3631188 ], [ 79.2767484, 24.3558982 ], [ 79.2948678, 24.374973 ], [ 79.2724723, 24.3824079 ], [ 79.2698055, 24.3889065 ], [ 79.2655545, 24.3915623 ], [ 79.2635665, 24.3990317 ], [ 79.2611503, 24.4000006 ], [ 79.2579294, 24.4075548 ], [ 79.2549337, 24.4112495 ], [ 79.2521923, 24.4120808 ], [ 79.2489921, 24.3904607 ], [ 79.2459722, 24.3923864 ], [ 79.2437575, 24.3959181 ], [ 79.243273, 24.3996428 ], [ 79.2452619, 24.4021601 ], [ 79.2467375, 24.4091196 ], [ 79.2433808, 24.4148191 ], [ 79.2342593, 24.4191326 ], [ 79.2228649, 24.4178042 ], [ 79.2187099, 24.4192242 ], [ 79.2099215, 24.4146567 ], [ 79.206777, 24.4158546 ], [ 79.2021236, 24.4246371 ], [ 79.1964364, 24.4287071 ], [ 79.191333, 24.428073 ], [ 79.1807151, 24.4328668 ], [ 79.1694029, 24.4292818 ], [ 79.1680709, 24.430405 ], [ 79.1616762, 24.4265393 ], [ 79.1582399, 24.4273572 ], [ 79.1472827, 24.416882 ], [ 79.1383543, 24.4151136 ], [ 79.1324233, 24.4099227 ], [ 79.1298746, 24.4097377 ], [ 79.1263352, 24.4138321 ], [ 79.124097, 24.4137058 ], [ 79.1196255, 24.4161569 ], [ 79.1018095, 24.4123724 ], [ 79.0995177, 24.4088013 ], [ 79.0994939, 24.4045445 ], [ 79.1008402, 24.4017956 ], [ 79.0872203, 24.4019734 ], [ 79.0734802, 24.4065242 ], [ 79.0707356, 24.4037064 ], [ 79.072488, 24.397816 ], [ 79.0699404, 24.3959734 ], [ 79.0629252, 24.3774807 ], [ 79.0616676, 24.379322 ], [ 79.058667, 24.3776505 ], [ 79.0550585, 24.3702953 ], [ 79.0532998, 24.3691299 ], [ 79.0415021, 24.3687357 ], [ 79.0325164, 24.371123 ], [ 79.0319703, 24.3766751 ], [ 79.028145, 24.3777426 ], [ 79.0259599, 24.3799259 ], [ 79.022766, 24.3803211 ], [ 79.0219361, 24.3826589 ], [ 79.0198854, 24.3831495 ], [ 79.0198299, 24.3786579 ], [ 79.0185007, 24.3768965 ], [ 79.016436, 24.3765294 ], [ 79.0152315, 24.3731383 ], [ 79.0113016, 24.3698176 ], [ 79.0086746, 24.369434 ], [ 79.0048399, 24.3708644 ], [ 79.0052246, 24.3757354 ], [ 79.0040746, 24.3774589 ], [ 79.0045677, 24.3825468 ], [ 79.007279, 24.3871534 ], [ 79.0077489, 24.3907921 ], [ 79.0041483, 24.3933172 ], [ 79.0007871, 24.3930256 ], [ 78.9981599, 24.3963584 ], [ 78.9993179, 24.3983601 ], [ 78.9953845, 24.4007305 ], [ 78.9959576, 24.4025032 ], [ 78.9942107, 24.4073185 ], [ 78.9969613, 24.4110466 ], [ 78.9927302, 24.4130226 ], [ 78.991225, 24.4175934 ], [ 78.9936477, 24.4227502 ], [ 78.9912354, 24.426449 ], [ 78.9904017, 24.4314423 ], [ 78.9882391, 24.4334662 ], [ 78.9857612, 24.4416837 ], [ 78.9863153, 24.4535975 ], [ 78.9920776, 24.4632108 ], [ 78.9949669, 24.4738049 ], [ 78.9985992, 24.4808442 ], [ 79.0060852, 24.4887155 ], [ 79.0095275, 24.4950153 ], [ 79.0067523, 24.5004202 ], [ 79.0072287, 24.5055848 ], [ 79.0142479, 24.5125192 ], [ 79.0147662, 24.5291899 ], [ 79.0231903, 24.546277 ], [ 79.028929, 24.5472649 ], [ 79.0419915, 24.5557409 ], [ 79.0457462, 24.5654166 ], [ 79.0549228, 24.572481 ], [ 79.0581833, 24.5767618 ], [ 79.0620585, 24.5861707 ], [ 79.0707187, 24.5943173 ], [ 79.0706329, 24.5985785 ], [ 79.0595368, 24.6130732 ], [ 79.0594668, 24.6148517 ], [ 79.0636111, 24.6218546 ], [ 79.0717965, 24.6260106 ], [ 79.0793714, 24.6267263 ], [ 79.0876066, 24.6325606 ], [ 79.0910237, 24.6332837 ], [ 79.1029808, 24.6266593 ], [ 79.1176817, 24.6279246 ], [ 79.1424268, 24.6254275 ], [ 79.1496061, 24.6221312 ], [ 79.1567698, 24.616713 ], [ 79.1765477, 24.6100312 ], [ 79.195386, 24.6129034 ], [ 79.2004142, 24.6158216 ], [ 79.2070844, 24.622228 ], [ 79.2065794, 24.6427985 ], [ 79.2133068, 24.6578037 ], [ 79.2182796, 24.6629106 ], [ 79.2253157, 24.6654834 ], [ 79.2309308, 24.6639268 ], [ 79.2425589, 24.6576112 ], [ 79.246752, 24.6583535 ], [ 79.2580089, 24.6636771 ], [ 79.2728124, 24.664392 ], [ 79.2902833, 24.6726499 ], [ 79.2999998, 24.6817416 ], [ 79.3039533, 24.6884287 ], [ 79.3045867, 24.6955069 ], [ 79.3031068, 24.7000338 ], [ 79.3026262, 24.7109122 ], [ 79.3138938, 24.7292031 ], [ 79.319841, 24.7366128 ], [ 79.3167239, 24.7440235 ], [ 79.3201568, 24.7514461 ], [ 79.3170295, 24.7692479 ], [ 79.3127488, 24.7778859 ], [ 79.3059648, 24.7864844 ], [ 79.3047124, 24.7978859 ], [ 79.3176656, 24.8359752 ], [ 79.3187432, 24.8486776 ], [ 79.3216248, 24.85447 ], [ 79.3355657, 24.871144 ], [ 79.3387198, 24.8802763 ], [ 79.3430432, 24.8857571 ], [ 79.3421659, 24.8907357 ], [ 79.3457962, 24.8996152 ], [ 79.3457939, 24.9093063 ], [ 79.3393252, 24.9264801 ], [ 79.3416045, 24.9366186 ], [ 79.3363235, 24.9493192 ], [ 79.3358667, 24.9531243 ], [ 79.3400366, 24.9670549 ], [ 79.3409947, 24.9769133 ], [ 79.3395672, 24.9812417 ], [ 79.3322747, 24.9894188 ], [ 79.3314946, 25.0034147 ], [ 79.3343497, 25.020331 ], [ 79.3333063, 25.0263376 ], [ 79.328732, 25.0347235 ], [ 79.3295491, 25.0421901 ], [ 79.3313932, 25.0451443 ], [ 79.3321668, 25.0555854 ], [ 79.334454, 25.0609322 ], [ 79.3398363, 25.0679976 ], [ 79.3387988, 25.0693687 ], [ 79.3411599, 25.0753338 ], [ 79.3412445, 25.0828266 ], [ 79.3370596, 25.095438 ], [ 79.338203, 25.1043042 ], [ 79.3333945, 25.1189098 ], [ 79.3333427, 25.1206068 ], [ 79.3349134, 25.1212541 ], [ 79.3303398, 25.1374395 ], [ 79.3252934, 25.1469891 ], [ 79.3136263, 25.1618774 ], [ 79.3104469, 25.172131 ], [ 79.3043675, 25.1782307 ], [ 79.3086874, 25.178991 ], [ 79.3100549, 25.1818848 ], [ 79.3085083, 25.1982867 ], [ 79.3014322, 25.2014339 ], [ 79.2989131, 25.191462 ], [ 79.2922559, 25.1841734 ], [ 79.2846166, 25.1911877 ], [ 79.2834438, 25.1941028 ], [ 79.2818203, 25.2089065 ], [ 79.2854339, 25.2202786 ], [ 79.2859594, 25.2276361 ], [ 79.2835549, 25.2379753 ], [ 79.2792521, 25.2447295 ], [ 79.2849883, 25.2459337 ], [ 79.2939003, 25.2403284 ], [ 79.2991908, 25.2399295 ], [ 79.3043447, 25.2349168 ], [ 79.3052247, 25.2324579 ], [ 79.3081577, 25.2319401 ], [ 79.3068713, 25.2249164 ], [ 79.3089858, 25.2236806 ], [ 79.3247323, 25.2185051 ], [ 79.328527, 25.2213228 ], [ 79.3277907, 25.2134193 ], [ 79.3293842, 25.2114563 ], [ 79.3282089, 25.2098627 ], [ 79.3383635, 25.1979586 ], [ 79.3492509, 25.2065412 ], [ 79.3518943, 25.2121566 ], [ 79.3477214, 25.2130812 ], [ 79.344292, 25.2173414 ], [ 79.3360685, 25.222995 ], [ 79.3327571, 25.2282796 ], [ 79.3345134, 25.229589 ], [ 79.3361761, 25.2282083 ], [ 79.3373619, 25.2287683 ], [ 79.3390794, 25.2266112 ], [ 79.3435758, 25.2270567 ], [ 79.3453396, 25.2347281 ], [ 79.3446835, 25.2500012 ], [ 79.3457371, 25.2535334 ], [ 79.3488979, 25.257515 ], [ 79.3508622, 25.2639201 ], [ 79.3433509, 25.2689559 ], [ 79.3381789, 25.2680249 ], [ 79.3352149, 25.2698025 ], [ 79.3295855, 25.2576097 ], [ 79.3270052, 25.2557854 ], [ 79.3220365, 25.2568218 ], [ 79.3201271, 25.2554037 ], [ 79.3165177, 25.2559577 ], [ 79.3103909, 25.259891 ], [ 79.309908, 25.2626215 ], [ 79.303357, 25.2696326 ], [ 79.3029125, 25.2742903 ], [ 79.3005038, 25.2761217 ], [ 79.2983418, 25.2803408 ], [ 79.2953231, 25.2808583 ], [ 79.2954162, 25.2827405 ], [ 79.2937874, 25.2835836 ], [ 79.2900811, 25.2804131 ], [ 79.2901178, 25.2777726 ], [ 79.2878322, 25.2737 ], [ 79.2891968, 25.2727198 ], [ 79.2826787, 25.2621619 ], [ 79.2753214, 25.2632748 ], [ 79.2735416, 25.2606105 ], [ 79.2695188, 25.2633249 ], [ 79.2644659, 25.2689452 ], [ 79.2628187, 25.2733944 ], [ 79.2675297, 25.2846231 ], [ 79.2698972, 25.3083301 ], [ 79.2783291, 25.3201523 ], [ 79.2788976, 25.3239899 ], [ 79.2833474, 25.3230216 ], [ 79.288059, 25.324717 ], [ 79.2949679, 25.3230283 ], [ 79.2991557, 25.3287763 ], [ 79.2983088, 25.3328742 ], [ 79.2998861, 25.3376345 ], [ 79.3084198, 25.334012 ], [ 79.3215467, 25.3340948 ], [ 79.326542, 25.3352468 ], [ 79.330059, 25.3335778 ], [ 79.3309734, 25.3318449 ], [ 79.339051, 25.3292221 ], [ 79.3420902, 25.3290056 ], [ 79.3444372, 25.3323176 ], [ 79.3522311, 25.3298822 ], [ 79.349767, 25.3277103 ], [ 79.3469657, 25.3219891 ], [ 79.3446729, 25.3230107 ], [ 79.3413269, 25.3189253 ], [ 79.3396506, 25.3112834 ], [ 79.3419003, 25.3102007 ], [ 79.3413598, 25.3076233 ], [ 79.346579, 25.3050787 ], [ 79.3409598, 25.2995484 ], [ 79.3361473, 25.2880963 ], [ 79.3406407, 25.2865448 ], [ 79.342915, 25.2870098 ], [ 79.3519307, 25.2833377 ], [ 79.3583098, 25.2842368 ], [ 79.356622, 25.2784835 ], [ 79.358559, 25.2767939 ], [ 79.355125, 25.2690662 ], [ 79.3552795, 25.2659022 ], [ 79.3628991, 25.2616964 ], [ 79.3698183, 25.2599861 ], [ 79.3702102, 25.2655288 ], [ 79.3738933, 25.2725024 ], [ 79.3724984, 25.2729898 ], [ 79.3730699, 25.275034 ], [ 79.3703864, 25.276415 ], [ 79.3699531, 25.2797994 ], [ 79.3673351, 25.2812053 ], [ 79.3685921, 25.2924564 ], [ 79.3875406, 25.2858169 ], [ 79.3866465, 25.2815155 ], [ 79.3890292, 25.279579 ], [ 79.3920524, 25.2795697 ], [ 79.3945699, 25.2827513 ], [ 79.4076139, 25.2739159 ], [ 79.4074889, 25.270594 ], [ 79.4087917, 25.2688664 ], [ 79.408504, 25.2616343 ], [ 79.4067807, 25.2580553 ], [ 79.4088129, 25.2560911 ], [ 79.425896, 25.2535411 ], [ 79.4374528, 25.254877 ], [ 79.4404969, 25.2580712 ], [ 79.4441919, 25.258846 ], [ 79.4498956, 25.2629866 ], [ 79.4553844, 25.2690455 ], [ 79.4574341, 25.2685208 ], [ 79.4622706, 25.2710591 ], [ 79.4629168, 25.2722052 ], [ 79.4602425, 25.2740663 ], [ 79.4585785, 25.2797769 ], [ 79.4611586, 25.2825215 ], [ 79.4665065, 25.2797452 ], [ 79.467219, 25.283297 ], [ 79.4793032, 25.2784322 ], [ 79.4784399, 25.2731204 ], [ 79.4815354, 25.2708162 ], [ 79.4819156, 25.2685411 ], [ 79.494459, 25.2669057 ], [ 79.4925023, 25.2622591 ], [ 79.4763517, 25.2650766 ], [ 79.4763802, 25.2616934 ], [ 79.4749769, 25.2612132 ], [ 79.4624623, 25.2646665 ], [ 79.4621359, 25.2562727 ], [ 79.4594342, 25.253873 ], [ 79.4560898, 25.2475046 ], [ 79.4535065, 25.2482245 ], [ 79.4505737, 25.2437929 ], [ 79.4465292, 25.2442011 ], [ 79.4326569, 25.2206371 ], [ 79.4337222, 25.2176261 ], [ 79.4356817, 25.2168354 ], [ 79.4488341, 25.2150736 ], [ 79.4442335, 25.2042838 ], [ 79.4403707, 25.1988195 ], [ 79.4373683, 25.1968168 ], [ 79.4309548, 25.1987151 ], [ 79.4256366, 25.1984687 ], [ 79.4217181, 25.2003297 ], [ 79.4152288, 25.1993883 ], [ 79.4120788, 25.2003189 ], [ 79.4123014, 25.1983058 ], [ 79.4083564, 25.1946913 ], [ 79.4115053, 25.1905921 ], [ 79.412501, 25.1861144 ], [ 79.4116319, 25.1826977 ], [ 79.4030739, 25.1763805 ], [ 79.3934255, 25.1731566 ], [ 79.3900428, 25.1700458 ], [ 79.39225, 25.1690475 ], [ 79.3896011, 25.1654549 ], [ 79.3878045, 25.1548119 ], [ 79.3839454, 25.1427066 ], [ 79.3906989, 25.1412751 ], [ 79.3875738, 25.1303072 ], [ 79.3960073, 25.1283608 ], [ 79.3931264, 25.1172693 ], [ 79.4057395, 25.1063594 ], [ 79.4113869, 25.1101226 ], [ 79.414386, 25.1094176 ], [ 79.419582, 25.1114203 ], [ 79.4220824, 25.1160505 ], [ 79.426134, 25.1190553 ], [ 79.4255351, 25.1213349 ], [ 79.4268855, 25.1258345 ], [ 79.4255238, 25.1301501 ], [ 79.415772, 25.133096 ], [ 79.4212965, 25.1354325 ], [ 79.4270235, 25.1354261 ], [ 79.4305428, 25.1328204 ], [ 79.4352675, 25.1317082 ], [ 79.4391973, 25.1278022 ], [ 79.4389385, 25.1165587 ], [ 79.437549, 25.113824 ], [ 79.4369648, 25.1054694 ], [ 79.4389206, 25.1012212 ], [ 79.4412616, 25.1035899 ], [ 79.4461798, 25.1047882 ], [ 79.452106, 25.1086489 ], [ 79.4595993, 25.1198027 ], [ 79.4647679, 25.1233519 ], [ 79.4697121, 25.1247615 ], [ 79.4715045, 25.1281231 ], [ 79.4772405, 25.1274512 ], [ 79.4701402, 25.1079659 ], [ 79.4682311, 25.0941688 ], [ 79.4650246, 25.0880456 ], [ 79.4681563, 25.0870191 ], [ 79.4723996, 25.0877837 ], [ 79.475283, 25.0861749 ], [ 79.4773115, 25.0817862 ], [ 79.4808103, 25.0815264 ], [ 79.4828408, 25.0796472 ], [ 79.4915042, 25.0796542 ], [ 79.4952895, 25.0835511 ], [ 79.5, 25.0834387 ], [ 79.5030415, 25.0888829 ], [ 79.5036021, 25.0935053 ], [ 79.5058356, 25.0954525 ], [ 79.5104144, 25.0968283 ], [ 79.5187286, 25.095038 ], [ 79.520615, 25.0976212 ], [ 79.5248946, 25.0969731 ], [ 79.5261139, 25.0998917 ], [ 79.5245735, 25.1026171 ], [ 79.5242456, 25.1071611 ], [ 79.5187583, 25.1180984 ], [ 79.5190529, 25.1215697 ], [ 79.5211172, 25.1251911 ], [ 79.5179475, 25.1270349 ], [ 79.5207835, 25.1269873 ], [ 79.5239134, 25.1313497 ], [ 79.5275084, 25.1310948 ], [ 79.5328913, 25.1333054 ], [ 79.5333096, 25.1376343 ], [ 79.5323759, 25.1388194 ], [ 79.5348599, 25.1400185 ], [ 79.53466, 25.1421488 ], [ 79.5389058, 25.1404993 ], [ 79.5418446, 25.1428436 ], [ 79.5464775, 25.1483573 ], [ 79.5516373, 25.1607093 ], [ 79.5569026, 25.1636457 ], [ 79.5602646, 25.167816 ], [ 79.5604059, 25.1697858 ], [ 79.5650627, 25.1706273 ], [ 79.5685233, 25.16909 ], [ 79.5693587, 25.171802 ], [ 79.5762827, 25.168221 ], [ 79.5752913, 25.1670652 ], [ 79.5772509, 25.1656531 ], [ 79.5764137, 25.1632651 ], [ 79.5773612, 25.1625974 ], [ 79.5758092, 25.1618928 ], [ 79.5780389, 25.1602274 ], [ 79.5796807, 25.1534579 ], [ 79.5824934, 25.1508815 ], [ 79.5891428, 25.1487047 ], [ 79.5936864, 25.148975 ], [ 79.5956862, 25.1433677 ], [ 79.5998054, 25.1438321 ], [ 79.6052997, 25.1522539 ], [ 79.6069858, 25.1527686 ], [ 79.6063564, 25.149758 ], [ 79.607621, 25.1492752 ], [ 79.6058108, 25.1440665 ], [ 79.6033177, 25.1429329 ], [ 79.6023268, 25.1386041 ], [ 79.6000612, 25.1361393 ], [ 79.5994133, 25.1281365 ], [ 79.6011388, 25.1274868 ], [ 79.6083429, 25.1280429 ], [ 79.6145203, 25.1324217 ], [ 79.6203809, 25.1344667 ], [ 79.6220519, 25.1359291 ], [ 79.6215377, 25.1404648 ], [ 79.6227063, 25.1406098 ], [ 79.6287953, 25.1342184 ], [ 79.6364244, 25.1313817 ], [ 79.6374981, 25.1290622 ], [ 79.6415075, 25.1269234 ], [ 79.6492228, 25.1297073 ], [ 79.6604765, 25.1247129 ], [ 79.6700149, 25.122837 ], [ 79.6732217, 25.1203581 ], [ 79.6763666, 25.124302 ], [ 79.6783382, 25.1317759 ], [ 79.6833575, 25.1351547 ], [ 79.6880568, 25.1326748 ], [ 79.6928866, 25.1332368 ], [ 79.7117449, 25.128772 ], [ 79.7131626, 25.1297775 ], [ 79.7172533, 25.1287686 ], [ 79.7356404, 25.1312927 ], [ 79.7398537, 25.1353472 ], [ 79.7484993, 25.1393513 ], [ 79.7619935, 25.1342724 ], [ 79.7636485, 25.1300489 ], [ 79.7673382, 25.1291218 ], [ 79.7726219, 25.1251038 ], [ 79.8048755, 25.1130935 ], [ 79.8083326, 25.1100304 ], [ 79.8239689, 25.108249 ], [ 79.8265673, 25.1062639 ], [ 79.8287015, 25.0993225 ], [ 79.8450409, 25.0940321 ], [ 79.8498639, 25.0939472 ], [ 79.8616903, 25.0967382 ], [ 79.8577106, 25.1008194 ], [ 79.8524942, 25.1028758 ], [ 79.8532522, 25.1058278 ], [ 79.8498313, 25.1075922 ], [ 79.850386, 25.1102282 ], [ 79.8480064, 25.1105347 ], [ 79.8468303, 25.115978 ], [ 79.8490113, 25.1173009 ], [ 79.8521139, 25.1225914 ], [ 79.852728, 25.1262431 ], [ 79.8516169, 25.1285494 ], [ 79.8661435, 25.1410584 ], [ 79.8688162, 25.1405349 ], [ 79.8762343, 25.1434057 ], [ 79.8796408, 25.1414648 ], [ 79.8815301, 25.142047 ], [ 79.8734028, 25.1490027 ], [ 79.8690284, 25.1479106 ], [ 79.8665445, 25.1500948 ], [ 79.8656015, 25.1610494 ], [ 79.868051, 25.169639 ], [ 79.8700943, 25.172275 ], [ 79.8630855, 25.1771856 ], [ 79.8653671, 25.1799543 ], [ 79.865044, 25.1880364 ], [ 79.858912, 25.1935425 ], [ 79.8560198, 25.1940523 ], [ 79.8568081, 25.1973744 ], [ 79.8617335, 25.2047637 ], [ 79.863499, 25.2124912 ], [ 79.8658606, 25.2117782 ], [ 79.8670514, 25.2135522 ], [ 79.8657662, 25.2152989 ], [ 79.8685893, 25.2164906 ], [ 79.8628235, 25.2195189 ], [ 79.8615134, 25.2214642 ], [ 79.8541197, 25.2239594 ], [ 79.8516134, 25.2265047 ], [ 79.8513785, 25.235559 ], [ 79.8573188, 25.2347202 ], [ 79.864524, 25.2363457 ], [ 79.8680967, 25.2407919 ], [ 79.8723944, 25.24276 ], [ 79.8778835, 25.2510244 ], [ 79.8915103, 25.2422043 ], [ 79.8963099, 25.2425463 ], [ 79.8983394, 25.2410158 ], [ 79.901967, 25.2408211 ], [ 79.905139, 25.2491123 ], [ 79.9074882, 25.2508899 ], [ 79.9165239, 25.2446227 ], [ 79.9183337, 25.2378707 ], [ 79.9183412, 25.2334284 ], [ 79.9169658, 25.2309418 ], [ 79.9175548, 25.2268252 ], [ 79.9220227, 25.2318385 ], [ 79.9230291, 25.2417816 ], [ 79.9276229, 25.2496112 ], [ 79.9365355, 25.247536 ], [ 79.9365734, 25.2537142 ], [ 79.9387992, 25.2580012 ], [ 79.9483304, 25.2686624 ], [ 79.9532468, 25.2645344 ], [ 79.9604935, 25.2642325 ], [ 79.9684818, 25.2665476 ], [ 79.9807778, 25.2618451 ], [ 79.9870672, 25.2673391 ], [ 80.0052365, 25.2658051 ], [ 80.0042987, 25.2693542 ], [ 80.0072826, 25.272145 ], [ 80.0015924, 25.2738363 ], [ 80.000639, 25.2765531 ], [ 79.9985054, 25.2775366 ], [ 79.9993027, 25.2792841 ], [ 79.9976635, 25.2803569 ], [ 79.9989434, 25.2859729 ], [ 80.0019196, 25.2890158 ], [ 80.0044824, 25.2879572 ], [ 80.0077851, 25.2917783 ], [ 80.0109319, 25.2928144 ], [ 80.0119818, 25.2956272 ], [ 80.0185037, 25.2978618 ], [ 80.0190537, 25.2990899 ], [ 80.0222127, 25.2976162 ], [ 80.021737, 25.3024319 ], [ 80.0226547, 25.3034932 ], [ 80.0209499, 25.3054373 ], [ 80.0242613, 25.3119573 ], [ 80.0196301, 25.315786 ], [ 80.018214, 25.3224425 ], [ 80.0205405, 25.3253554 ], [ 80.0231023, 25.3262283 ], [ 80.0243112, 25.3297046 ], [ 80.0264461, 25.3305275 ], [ 80.0258417, 25.3346661 ], [ 80.027431, 25.3345994 ], [ 80.0274244, 25.3366531 ], [ 80.0338271, 25.342254 ], [ 80.0377573, 25.3402659 ], [ 80.0382652, 25.3384969 ], [ 80.0389497, 25.339707 ], [ 80.042954, 25.3380166 ], [ 80.0614586, 25.3403097 ], [ 80.0646978, 25.3383252 ], [ 80.0670415, 25.3394274 ], [ 80.0714773, 25.3384226 ], [ 80.0726699, 25.336947 ], [ 80.082074, 25.3446276 ], [ 80.0887808, 25.3558547 ], [ 80.1009619, 25.3508742 ], [ 80.1031373, 25.3515426 ], [ 80.1052887, 25.3485459 ], [ 80.1067887, 25.3488079 ], [ 80.1173691, 25.3415194 ], [ 80.1188341, 25.3432889 ], [ 80.1265824, 25.3402604 ], [ 80.1296816, 25.337665 ], [ 80.1310969, 25.3342301 ], [ 80.141777, 25.3506588 ], [ 80.1493881, 25.3576085 ], [ 80.1580815, 25.3590467 ], [ 80.1630353, 25.3629904 ], [ 80.1671639, 25.3640815 ], [ 80.1673409, 25.3732981 ], [ 80.1689619, 25.3768588 ], [ 80.1821027, 25.3768002 ], [ 80.1890049, 25.3792437 ], [ 80.1949315, 25.3781577 ], [ 80.1964066, 25.3809048 ], [ 80.1966551, 25.3859518 ], [ 80.1958727, 25.3991 ], [ 80.1971061, 25.4008282 ], [ 80.1959987, 25.4020473 ], [ 80.1995298, 25.4069609 ], [ 80.1991982, 25.4091997 ], [ 80.2023719, 25.4140365 ], [ 80.2075577, 25.4113549 ], [ 80.2054732, 25.4068177 ], [ 80.2061773, 25.4044659 ], [ 80.2203599, 25.3981339 ], [ 80.2208209, 25.3967435 ], [ 80.2317329, 25.4023643 ], [ 80.2361605, 25.4078224 ], [ 80.2429149, 25.40357 ], [ 80.2534192, 25.4008344 ], [ 80.2555376, 25.4043795 ], [ 80.2555075, 25.4095607 ], [ 80.2612711, 25.4160738 ], [ 80.2620911, 25.4214636 ], [ 80.2638382, 25.4240195 ], [ 80.2679253, 25.4220953 ], [ 80.2799242, 25.4207631 ], [ 80.2850622, 25.4154629 ] ], [ [ 79.4023726, 25.0786885 ], [ 79.3982108, 25.0830956 ], [ 79.394325, 25.0831741 ], [ 79.3871906, 25.0856966 ], [ 79.389361, 25.0917691 ], [ 79.3868583, 25.1021036 ], [ 79.3803692, 25.1076006 ], [ 79.3804051, 25.1114193 ], [ 79.3826099, 25.1127255 ], [ 79.3808952, 25.122433 ], [ 79.3777045, 25.1251793 ], [ 79.3713155, 25.1234542 ], [ 79.3638166, 25.1256457 ], [ 79.3741963, 25.1426037 ], [ 79.364837, 25.1445679 ], [ 79.3581988, 25.1432888 ], [ 79.3541381, 25.1302133 ], [ 79.3505184, 25.1263595 ], [ 79.3530372, 25.1262447 ], [ 79.3550622, 25.1244638 ], [ 79.3525701, 25.1229764 ], [ 79.3521524, 25.1198706 ], [ 79.3502348, 25.1189614 ], [ 79.3505843, 25.1169847 ], [ 79.35521, 25.1125659 ], [ 79.3563887, 25.109394 ], [ 79.3618741, 25.1062663 ], [ 79.3739382, 25.1040657 ], [ 79.3796912, 25.1012223 ], [ 79.3794555, 25.0989743 ], [ 79.3725131, 25.0919859 ], [ 79.3795677, 25.0856093 ], [ 79.3778949, 25.0830803 ], [ 79.3766732, 25.0756316 ], [ 79.3774862, 25.0754202 ], [ 79.3746642, 25.0677264 ], [ 79.3798337, 25.0669454 ], [ 79.3798061, 25.0647923 ], [ 79.3710217, 25.0629343 ], [ 79.3698208, 25.0598008 ], [ 79.3668536, 25.0588638 ], [ 79.3637805, 25.0596148 ], [ 79.3600153, 25.0632539 ], [ 79.3574028, 25.0682706 ], [ 79.3511332, 25.0688829 ], [ 79.3491983, 25.0624986 ], [ 79.3580623, 25.0593522 ], [ 79.35843, 25.058513 ], [ 79.3560375, 25.0576711 ], [ 79.3562224, 25.0564256 ], [ 79.3597687, 25.0534454 ], [ 79.3561071, 25.0404694 ], [ 79.3598046, 25.0392768 ], [ 79.3641776, 25.040978 ], [ 79.3674768, 25.0460725 ], [ 79.3620242, 25.0482026 ], [ 79.3677282, 25.0519451 ], [ 79.3678049, 25.054369 ], [ 79.3750674, 25.0511796 ], [ 79.3740234, 25.0448189 ], [ 79.3772635, 25.0452007 ], [ 79.3784298, 25.043184 ], [ 79.3814139, 25.0418233 ], [ 79.384287, 25.0423627 ], [ 79.384142, 25.0385439 ], [ 79.3941971, 25.0357394 ], [ 79.395273, 25.0347697 ], [ 79.3949582, 25.0321199 ], [ 79.4018075, 25.0351262 ], [ 79.4040926, 25.0337645 ], [ 79.4070592, 25.0350709 ], [ 79.4096017, 25.0338628 ], [ 79.4135589, 25.0356209 ], [ 79.4139387, 25.0381669 ], [ 79.4169463, 25.0377714 ], [ 79.4163842, 25.0410661 ], [ 79.4202392, 25.0406033 ], [ 79.422042, 25.0415747 ], [ 79.4238583, 25.0450016 ], [ 79.4246561, 25.0530003 ], [ 79.4224549, 25.0548498 ], [ 79.4259113, 25.0585889 ], [ 79.4193832, 25.0617316 ], [ 79.4184819, 25.0607742 ], [ 79.4125927, 25.0638402 ], [ 79.4073888, 25.0647804 ], [ 79.4049375, 25.0688728 ], [ 79.4056642, 25.0777472 ], [ 79.4023726, 25.0786885 ] ], [ [ 79.3653783, 25.1711132 ], [ 79.3725559, 25.1800159 ], [ 79.3673081, 25.1844618 ], [ 79.3595206, 25.188553 ], [ 79.3544659, 25.1758918 ], [ 79.3614649, 25.171096 ], [ 79.3653783, 25.1711132 ] ] ] } }
]
}
