{
"type": "FeatureCollection",
"name": "2312",
"crs": { "type": "name", "properties": { "name": "urn:ogc:def:crs:OGC:1.3:CRS84" } },
"features": [
{ "type": "Feature", "properties": { "code": "2312", "name": "Damoh", "type": "district" }, "geometry": { "type": "Polygon", "coordinates": [ [ [ 79.6066719, 24.4181746 ], [ 79.6216793, 24.4182121 ], [ 79.6240848, 24.4106617 ], [ 79.6282305, 24.4038092 ], [ 79.6289599, 24.398812 ], [ 79.6228181, 24.3924426 ], [ 79.6209945, 24.3864433 ], [ 79.6192202, 24.3857028 ], [ 79.6154545, 24.3868448 ], [ 79.6181951, 24.3823082 ], [ 79.6167315, 24.3786832 ], [ 79.6247848, 24.372639 ], [ 79.630344, 24.3773697 ], [ 79.634159, 24.3826646 ], [ 79.6371063, 24.3820234 ], [ 79.6439565, 24.3781089 ], [ 79.648135, 24.3740727 ], [ 79.6560491, 24.3707262 ], [ 79.6599257, 24.3637149 ], [ 79.6609488, 24.3743274 ], [ 79.6588901, 24.3793748 ], [ 79.6615524, 24.3824663 ], [ 79.6656481, 24.3823028 ], [ 79.6708855, 24.3778141 ], [ 79.6730477, 24.3738997 ], [ 79.6767037, 24.3719439 ], [ 79.6812003, 24.3753385 ], [ 79.6832314, 24.3887612 ], [ 79.6825483, 24.393086 ], [ 79.6806618, 24.3958268 ], [ 79.6865126, 24.3957839 ], [ 79.6912713, 24.3902837 ], [ 79.6914173, 24.38674 ], [ 79.6977987, 24.3842723 ], [ 79.699684, 24.3803938 ], [ 79.7042801, 24.3766672 ], [ 79.7105472, 24.3811373 ], [ 79.7076857, 24.3843529 ], [ 79.717795, 24.3917773 ], [ 79.7173435, 24.3944365 ], [ 79.7250892, 24.4032567 ], [ 79.7267856, 24.4040365 ], [ 79.730131, 24.4019757 ], [ 79.7367871, 24.4091665 ], [ 79.7482004, 24.4141881 ], [ 79.7547191, 24.4115278 ], [ 79.7584098, 24.4079555 ], [ 79.7588866, 24.4041459 ], [ 79.763446, 24.3988677 ], [ 79.772502, 24.3824178 ], [ 79.778888, 24.3810654 ], [ 79.7950879, 24.3738567 ], [ 79.7936408, 24.370845 ], [ 79.8048047, 24.3591453 ], [ 79.8054215, 24.3576288 ], [ 79.8043157, 24.3564111 ], [ 79.821065, 24.3502048 ], [ 79.819062, 24.3447013 ], [ 79.8199788, 24.3438891 ], [ 79.8185219, 24.340363 ], [ 79.8192318, 24.3393882 ], [ 79.8163794, 24.3388861 ], [ 79.8138432, 24.3361766 ], [ 79.8075987, 24.3216698 ], [ 79.8022832, 24.321699 ], [ 79.7995812, 24.3173325 ], [ 79.821757, 24.321233 ], [ 79.8322408, 24.3193539 ], [ 79.841774, 24.3148556 ], [ 79.8577514, 24.2982549 ], [ 79.8572346, 24.2958488 ], [ 79.8546787, 24.2934967 ], [ 79.8423424, 24.2878698 ], [ 79.8402801, 24.2834094 ], [ 79.8319424, 24.2832898 ], [ 79.8238863, 24.2810935 ], [ 79.8157383, 24.2865166 ], [ 79.8115279, 24.2857069 ], [ 79.8084707, 24.2834666 ], [ 79.8083925, 24.2728536 ], [ 79.8045544, 24.2673761 ], [ 79.8061814, 24.2636436 ], [ 79.8132985, 24.2597283 ], [ 79.8282637, 24.2555805 ], [ 79.8412496, 24.2481669 ], [ 79.8436824, 24.2452692 ], [ 79.844422, 24.2411389 ], [ 79.8434874, 24.2374912 ], [ 79.8372211, 24.2348761 ], [ 79.8351887, 24.2324694 ], [ 79.8358396, 24.2288176 ], [ 79.8413246, 24.2243588 ], [ 79.8410357, 24.2188694 ], [ 79.8345335, 24.2024901 ], [ 79.8285741, 24.2003487 ], [ 79.8161361, 24.2025835 ], [ 79.8106156, 24.1994349 ], [ 79.8096184, 24.1956335 ], [ 79.810644, 24.1818383 ], [ 79.8082214, 24.1751741 ], [ 79.8119122, 24.1643008 ], [ 79.8118013, 24.1599129 ], [ 79.8097262, 24.1574157 ], [ 79.7978322, 24.1532795 ], [ 79.7924329, 24.1491507 ], [ 79.791197, 24.1431324 ], [ 79.7949103, 24.1367151 ], [ 79.7949568, 24.1331172 ], [ 79.7921436, 24.1321768 ], [ 79.7855016, 24.1340826 ], [ 79.7814843, 24.131954 ], [ 79.781218, 24.1260942 ], [ 79.7858618, 24.1183234 ], [ 79.7837551, 24.1136544 ], [ 79.7783026, 24.1111004 ], [ 79.7681967, 24.1099516 ], [ 79.7637295, 24.1060029 ], [ 79.7589513, 24.0925558 ], [ 79.7632707, 24.0791288 ], [ 79.7621939, 24.073422 ], [ 79.7592507, 24.0712348 ], [ 79.7507262, 24.0701673 ], [ 79.7431458, 24.0741423 ], [ 79.7395413, 24.073635 ], [ 79.7363662, 24.0692313 ], [ 79.7347796, 24.0594364 ], [ 79.7399088, 24.0502008 ], [ 79.7388878, 24.0464095 ], [ 79.7432303, 24.0430069 ], [ 79.7469218, 24.0429634 ], [ 79.74851, 24.0518931 ], [ 79.7511606, 24.0540037 ], [ 79.7521878, 24.0531675 ], [ 79.7520824, 24.0450776 ], [ 79.7505023, 24.0422279 ], [ 79.7542795, 24.0347144 ], [ 79.760523, 24.0334191 ], [ 79.7646455, 24.0351105 ], [ 79.766114, 24.0365651 ], [ 79.7643259, 24.041024 ], [ 79.7660799, 24.0420952 ], [ 79.7769875, 24.0355747 ], [ 79.7816916, 24.0354062 ], [ 79.7848303, 24.0313857 ], [ 79.7873131, 24.030543 ], [ 79.7914914, 24.0297959 ], [ 79.7946896, 24.0322806 ], [ 79.7970606, 24.0292391 ], [ 79.811394, 24.0270968 ], [ 79.8198755, 24.0310185 ], [ 79.8288576, 24.0251392 ], [ 79.8422904, 24.0239057 ], [ 79.8440306, 24.0225788 ], [ 79.8448136, 24.0157668 ], [ 79.8438514, 24.011636 ], [ 79.8449287, 24.0068735 ], [ 79.8343842, 24.0020904 ], [ 79.8484441, 23.9981739 ], [ 79.8552602, 23.9947079 ], [ 79.8578604, 23.9886092 ], [ 79.8546624, 23.9837875 ], [ 79.8537934, 23.9791601 ], [ 79.8491509, 23.9768932 ], [ 79.8490679, 23.9746721 ], [ 79.8512253, 23.9710293 ], [ 79.8454598, 23.9611689 ], [ 79.8430776, 23.9597284 ], [ 79.8423025, 23.9553176 ], [ 79.838516, 23.9525134 ], [ 79.8369067, 23.9459174 ], [ 79.8321729, 23.9419796 ], [ 79.8345607, 23.9395514 ], [ 79.8378101, 23.9297876 ], [ 79.8435527, 23.924516 ], [ 79.8482474, 23.9257855 ], [ 79.85591, 23.9176606 ], [ 79.8630114, 23.9135622 ], [ 79.8630853, 23.9106368 ], [ 79.8669945, 23.9040685 ], [ 79.8712666, 23.9006964 ], [ 79.8704025, 23.8981322 ], [ 79.8667054, 23.8954685 ], [ 79.8687087, 23.894006 ], [ 79.8686549, 23.8896765 ], [ 79.8648748, 23.8834419 ], [ 79.8639326, 23.8774557 ], [ 79.8609188, 23.8736949 ], [ 79.863187, 23.8705982 ], [ 79.8618621, 23.8649054 ], [ 79.8585094, 23.864255 ], [ 79.8563451, 23.8618621 ], [ 79.8575827, 23.8561695 ], [ 79.8545645, 23.8532573 ], [ 79.8569267, 23.843741 ], [ 79.8641968, 23.8266816 ], [ 79.8685304, 23.8212599 ], [ 79.8687758, 23.8192735 ], [ 79.8668181, 23.8146777 ], [ 79.8597234, 23.8077248 ], [ 79.8535949, 23.8082884 ], [ 79.8582372, 23.803612 ], [ 79.8566331, 23.8008173 ], [ 79.8571539, 23.7963932 ], [ 79.8561434, 23.7945286 ], [ 79.8486524, 23.7907444 ], [ 79.8415487, 23.7893887 ], [ 79.8449693, 23.7845995 ], [ 79.8346047, 23.7800013 ], [ 79.8320006, 23.7774635 ], [ 79.8320848, 23.7751295 ], [ 79.8270795, 23.7661578 ], [ 79.8288701, 23.7654449 ], [ 79.8320513, 23.7574461 ], [ 79.8222212, 23.7469719 ], [ 79.8191631, 23.7417927 ], [ 79.8152013, 23.7400125 ], [ 79.8208483, 23.7344797 ], [ 79.8192845, 23.7329172 ], [ 79.8215459, 23.7312837 ], [ 79.8198987, 23.7301049 ], [ 79.8221009, 23.7291214 ], [ 79.8202819, 23.7282359 ], [ 79.8229132, 23.7210136 ], [ 79.8266602, 23.7188523 ], [ 79.8312045, 23.7223976 ], [ 79.8362254, 23.7233244 ], [ 79.8351672, 23.7200556 ], [ 79.8366684, 23.7174375 ], [ 79.8324863, 23.716231 ], [ 79.8270465, 23.7082568 ], [ 79.8276395, 23.6952957 ], [ 79.8395135, 23.6944681 ], [ 79.8478277, 23.696682 ], [ 79.8567307, 23.696927 ], [ 79.8622899, 23.6997898 ], [ 79.8667169, 23.7004718 ], [ 79.867041, 23.6910138 ], [ 79.8734975, 23.6909868 ], [ 79.8779487, 23.6874564 ], [ 79.8804536, 23.6875557 ], [ 79.8819929, 23.6859574 ], [ 79.8835518, 23.6866616 ], [ 79.8858114, 23.6838083 ], [ 79.8892624, 23.6826613 ], [ 79.9057576, 23.6823112 ], [ 79.9088166, 23.6829019 ], [ 79.9085087, 23.6864188 ], [ 79.912656, 23.6866707 ], [ 79.9199879, 23.6815899 ], [ 79.922351, 23.6825282 ], [ 79.9309332, 23.6795818 ], [ 79.9360028, 23.6820267 ], [ 79.9403825, 23.6764901 ], [ 79.940341, 23.6719349 ], [ 79.9504605, 23.6678942 ], [ 79.955518, 23.658673 ], [ 79.9551982, 23.656619 ], [ 79.9479419, 23.6516475 ], [ 79.943464, 23.6453246 ], [ 79.9441452, 23.6360649 ], [ 79.9464864, 23.6338833 ], [ 79.9476291, 23.6267949 ], [ 79.9514876, 23.6222333 ], [ 79.9493911, 23.623417 ], [ 79.9403366, 23.6239946 ], [ 79.9309525, 23.6102241 ], [ 79.927443, 23.6089144 ], [ 79.9292504, 23.605507 ], [ 79.927009, 23.5993499 ], [ 79.929687, 23.5951865 ], [ 79.9265759, 23.5942936 ], [ 79.9174225, 23.5866442 ], [ 79.9121618, 23.5870022 ], [ 79.9111864, 23.5850837 ], [ 79.9100357, 23.5863525 ], [ 79.9090703, 23.5850391 ], [ 79.906161, 23.5863805 ], [ 79.9034129, 23.5858303 ], [ 79.9024034, 23.5840291 ], [ 79.9034756, 23.5812975 ], [ 79.9008643, 23.579113 ], [ 79.9010104, 23.5747924 ], [ 79.8986887, 23.5749508 ], [ 79.8954361, 23.5725585 ], [ 79.8925611, 23.5729201 ], [ 79.8929477, 23.5705995 ], [ 79.8916447, 23.5694078 ], [ 79.8936869, 23.56785 ], [ 79.8920069, 23.5677283 ], [ 79.892134, 23.5658096 ], [ 79.8881619, 23.5642659 ], [ 79.8873094, 23.5619952 ], [ 79.885992, 23.5622391 ], [ 79.8848898, 23.5589751 ], [ 79.883357, 23.5596613 ], [ 79.8799825, 23.557025 ], [ 79.8791157, 23.5583568 ], [ 79.8782047, 23.5564426 ], [ 79.8766425, 23.5562396 ], [ 79.8782439, 23.554393 ], [ 79.8754671, 23.5528265 ], [ 79.8763192, 23.5514811 ], [ 79.8744583, 23.5499506 ], [ 79.873239, 23.5404247 ], [ 79.8473183, 23.5041651 ], [ 79.8431862, 23.5053608 ], [ 79.8361792, 23.5111696 ], [ 79.8153084, 23.51268 ], [ 79.820156, 23.5105102 ], [ 79.8196232, 23.5085325 ], [ 79.8154306, 23.5020074 ], [ 79.812753, 23.5018348 ], [ 79.8099787, 23.4988374 ], [ 79.8157175, 23.4952776 ], [ 79.8146672, 23.4905457 ], [ 79.8078384, 23.4815994 ], [ 79.8020213, 23.4681475 ], [ 79.80214, 23.4658406 ], [ 79.7964987, 23.4632059 ], [ 79.7927637, 23.4649511 ], [ 79.7873788, 23.4598511 ], [ 79.7935671, 23.4555113 ], [ 79.785556, 23.4486717 ], [ 79.7859587, 23.446532 ], [ 79.7888703, 23.4463214 ], [ 79.7833382, 23.4432257 ], [ 79.7821604, 23.4411076 ], [ 79.7751255, 23.4392658 ], [ 79.7714091, 23.4426088 ], [ 79.7715435, 23.4459813 ], [ 79.7676539, 23.4453331 ], [ 79.7665733, 23.4382668 ], [ 79.7584321, 23.4319676 ], [ 79.7555493, 23.4330444 ], [ 79.7471774, 23.4301371 ], [ 79.745574, 23.4315377 ], [ 79.7413257, 23.4298209 ], [ 79.7408448, 23.4340695 ], [ 79.7377743, 23.4365865 ], [ 79.7370569, 23.4329437 ], [ 79.7348242, 23.4311438 ], [ 79.7354708, 23.426254 ], [ 79.7292001, 23.4282537 ], [ 79.7243544, 23.4253902 ], [ 79.7265896, 23.4244001 ], [ 79.724866, 23.422401 ], [ 79.7229532, 23.4227364 ], [ 79.7247899, 23.4188031 ], [ 79.7298646, 23.4206507 ], [ 79.7331173, 23.4196778 ], [ 79.730597, 23.4128261 ], [ 79.7329001, 23.4116012 ], [ 79.733177, 23.4092803 ], [ 79.7249956, 23.3996514 ], [ 79.719741, 23.3984086 ], [ 79.7224623, 23.3938064 ], [ 79.7172713, 23.3921978 ], [ 79.7196413, 23.3889368 ], [ 79.7194289, 23.3858128 ], [ 79.7161055, 23.3824648 ], [ 79.7156183, 23.3778826 ], [ 79.712479, 23.3716767 ], [ 79.7044758, 23.3759473 ], [ 79.7034779, 23.375108 ], [ 79.7063345, 23.3680139 ], [ 79.7028536, 23.3615326 ], [ 79.6875466, 23.3497877 ], [ 79.674836, 23.3433677 ], [ 79.6745013, 23.338221 ], [ 79.668433, 23.335148 ], [ 79.6648984, 23.3364991 ], [ 79.662639, 23.334179 ], [ 79.6558814, 23.3314716 ], [ 79.633347, 23.3180748 ], [ 79.6149717, 23.3091762 ], [ 79.5950549, 23.2963155 ], [ 79.5946398, 23.2949972 ], [ 79.5930952, 23.295051 ], [ 79.5694447, 23.2809087 ], [ 79.5658348, 23.2765459 ], [ 79.5614857, 23.2758671 ], [ 79.5553794, 23.2706275 ], [ 79.5453343, 23.2669068 ], [ 79.532033, 23.2597393 ], [ 79.5308745, 23.2602486 ], [ 79.5326463, 23.2633876 ], [ 79.5314375, 23.2657796 ], [ 79.5157835, 23.2683385 ], [ 79.5112243, 23.2681954 ], [ 79.4985674, 23.2615778 ], [ 79.4919684, 23.2641184 ], [ 79.488279, 23.2640218 ], [ 79.492983, 23.2618512 ], [ 79.488923, 23.2569648 ], [ 79.4888316, 23.2530684 ], [ 79.4869471, 23.2493112 ], [ 79.4786318, 23.2438584 ], [ 79.4752952, 23.2378966 ], [ 79.4571625, 23.2265479 ], [ 79.4516674, 23.2193992 ], [ 79.4286715, 23.2013359 ], [ 79.42784, 23.1982209 ], [ 79.4236089, 23.1943395 ], [ 79.3914158, 23.1764674 ], [ 79.3663013, 23.1653119 ], [ 79.3652172, 23.1651087 ], [ 79.3638593, 23.1703413 ], [ 79.3553429, 23.1712796 ], [ 79.3563743, 23.1643946 ], [ 79.3547441, 23.158954 ], [ 79.3519517, 23.1556622 ], [ 79.3372124, 23.1507699 ], [ 79.3320469, 23.1504841 ], [ 79.3320896, 23.1544978 ], [ 79.3348663, 23.1593972 ], [ 79.3228161, 23.1707802 ], [ 79.3175534, 23.1791941 ], [ 79.3189139, 23.1839532 ], [ 79.3215352, 23.187259 ], [ 79.3211777, 23.1896879 ], [ 79.3164365, 23.1983773 ], [ 79.312879, 23.2131665 ], [ 79.3089283, 23.2209802 ], [ 79.3061032, 23.2239813 ], [ 79.3069739, 23.2314583 ], [ 79.3059621, 23.2324646 ], [ 79.2962631, 23.226487 ], [ 79.2924607, 23.2213787 ], [ 79.268054, 23.2165061 ], [ 79.2702912, 23.2355286 ], [ 79.2623099, 23.2452977 ], [ 79.247135, 23.2484243 ], [ 79.2441374, 23.2507518 ], [ 79.2320941, 23.2522278 ], [ 79.2304256, 23.2492538 ], [ 79.2323922, 23.2401912 ], [ 79.2293262, 23.2368117 ], [ 79.2277788, 23.2257875 ], [ 79.220887, 23.2274488 ], [ 79.2191691, 23.2300278 ], [ 79.2160025, 23.2287249 ], [ 79.2136484, 23.2295028 ], [ 79.2110455, 23.2311296 ], [ 79.2071177, 23.2390687 ], [ 79.1973283, 23.2418864 ], [ 79.1949525, 23.239341 ], [ 79.1954082, 23.2327221 ], [ 79.1917835, 23.2234367 ], [ 79.1864637, 23.2237188 ], [ 79.1838168, 23.2254355 ], [ 79.1807722, 23.2226284 ], [ 79.1785933, 23.2224666 ], [ 79.1744618, 23.2257503 ], [ 79.1764077, 23.2299304 ], [ 79.1750029, 23.2356421 ], [ 79.1760511, 23.2426397 ], [ 79.1737037, 23.2500177 ], [ 79.1720674, 23.2516432 ], [ 79.1725087, 23.2556748 ], [ 79.1773032, 23.2586169 ], [ 79.1819551, 23.2586559 ], [ 79.1849399, 23.2569301 ], [ 79.1996805, 23.2542284 ], [ 79.207001, 23.2559674 ], [ 79.2127212, 23.2609487 ], [ 79.2182938, 23.2707741 ], [ 79.2182772, 23.2749684 ], [ 79.2271201, 23.2843491 ], [ 79.2284789, 23.2907954 ], [ 79.2320423, 23.2912174 ], [ 79.2313441, 23.2983422 ], [ 79.2268777, 23.2997628 ], [ 79.2239239, 23.3042073 ], [ 79.2174933, 23.3071593 ], [ 79.215336, 23.3120366 ], [ 79.2102356, 23.3166716 ], [ 79.2100171, 23.3191413 ], [ 79.2126424, 23.3192392 ], [ 79.2215986, 23.3263763 ], [ 79.2249729, 23.3276654 ], [ 79.2387799, 23.340434 ], [ 79.2361073, 23.3421863 ], [ 79.2288084, 23.3435774 ], [ 79.2246648, 23.3470971 ], [ 79.2171075, 23.3501673 ], [ 79.2170964, 23.3552238 ], [ 79.2196654, 23.3578498 ], [ 79.2187264, 23.3645954 ], [ 79.2169385, 23.3672602 ], [ 79.2113108, 23.3615432 ], [ 79.2094327, 23.3610386 ], [ 79.2038053, 23.3629197 ], [ 79.200323, 23.3620907 ], [ 79.1917328, 23.3657245 ], [ 79.1912243, 23.3755668 ], [ 79.1868463, 23.3841783 ], [ 79.1881745, 23.3901282 ], [ 79.184718, 23.3935337 ], [ 79.1873122, 23.3973475 ], [ 79.1852706, 23.4039986 ], [ 79.1910204, 23.4079692 ], [ 79.199835, 23.4070623 ], [ 79.2018162, 23.4155625 ], [ 79.1943275, 23.4177873 ], [ 79.1879307, 23.4223769 ], [ 79.1848187, 23.4212585 ], [ 79.1807551, 23.4258922 ], [ 79.1848047, 23.4337282 ], [ 79.1889995, 23.4370448 ], [ 79.1954048, 23.4378501 ], [ 79.1986111, 23.440571 ], [ 79.2070517, 23.4405352 ], [ 79.2125443, 23.4372545 ], [ 79.2203335, 23.4367443 ], [ 79.2234254, 23.4427604 ], [ 79.2239022, 23.4456451 ], [ 79.2220108, 23.4487298 ], [ 79.2259146, 23.4600817 ], [ 79.2313436, 23.4624303 ], [ 79.2342682, 23.4600987 ], [ 79.2389259, 23.4587138 ], [ 79.2467049, 23.4671459 ], [ 79.2514542, 23.4671964 ], [ 79.2568071, 23.4628844 ], [ 79.258383, 23.4628811 ], [ 79.2612487, 23.4652895 ], [ 79.2626297, 23.4701077 ], [ 79.2605055, 23.4759888 ], [ 79.2667653, 23.4819977 ], [ 79.2676281, 23.4804002 ], [ 79.2747712, 23.4777548 ], [ 79.2830382, 23.4772858 ], [ 79.2876133, 23.4790717 ], [ 79.2851646, 23.4811653 ], [ 79.2848793, 23.4834448 ], [ 79.2888081, 23.4860657 ], [ 79.2879212, 23.487239 ], [ 79.291083, 23.4954258 ], [ 79.2927595, 23.5074794 ], [ 79.2995591, 23.5164218 ], [ 79.3110588, 23.5178987 ], [ 79.3171723, 23.521251 ], [ 79.3266122, 23.5200443 ], [ 79.3314335, 23.5241088 ], [ 79.3334301, 23.5274096 ], [ 79.3277988, 23.5292003 ], [ 79.3227674, 23.5364763 ], [ 79.3218052, 23.5426611 ], [ 79.3234293, 23.5469099 ], [ 79.324786, 23.5463009 ], [ 79.3248832, 23.5482106 ], [ 79.3261709, 23.5489198 ], [ 79.3252591, 23.5512942 ], [ 79.3133829, 23.5528069 ], [ 79.3113476, 23.5590093 ], [ 79.3058221, 23.5614222 ], [ 79.2990876, 23.5620828 ], [ 79.3007404, 23.5665847 ], [ 79.2984476, 23.5678973 ], [ 79.2990195, 23.5697982 ], [ 79.2964457, 23.5743659 ], [ 79.2970003, 23.5805376 ], [ 79.3046932, 23.5847939 ], [ 79.3058627, 23.5872052 ], [ 79.3070291, 23.5858919 ], [ 79.3071262, 23.5878334 ], [ 79.308796, 23.5888859 ], [ 79.3141948, 23.5872763 ], [ 79.3186913, 23.5879101 ], [ 79.3175686, 23.5899594 ], [ 79.3109891, 23.5916995 ], [ 79.3108211, 23.5944895 ], [ 79.3092153, 23.5924933 ], [ 79.3066384, 23.5930024 ], [ 79.3047599, 23.5974123 ], [ 79.3007164, 23.600819 ], [ 79.3014097, 23.6050901 ], [ 79.2997066, 23.6105926 ], [ 79.3025665, 23.6130048 ], [ 79.3009767, 23.6173065 ], [ 79.3009112, 23.6205886 ], [ 79.3021507, 23.6206975 ], [ 79.2998748, 23.625053 ], [ 79.2998779, 23.6281545 ], [ 79.3014252, 23.6300921 ], [ 79.3003755, 23.632096 ], [ 79.3030312, 23.6414921 ], [ 79.3057744, 23.6436152 ], [ 79.3283462, 23.6300166 ], [ 79.3321979, 23.6294804 ], [ 79.3364458, 23.6307276 ], [ 79.3399287, 23.6348231 ], [ 79.3413477, 23.6432206 ], [ 79.3460758, 23.6472124 ], [ 79.3521513, 23.6553126 ], [ 79.3512675, 23.6644861 ], [ 79.3499538, 23.6661787 ], [ 79.3477485, 23.6642958 ], [ 79.3404999, 23.6624706 ], [ 79.3344359, 23.6658506 ], [ 79.3304588, 23.6720209 ], [ 79.3254386, 23.6747462 ], [ 79.3147666, 23.6770853 ], [ 79.3023901, 23.6758658 ], [ 79.3013702, 23.6766734 ], [ 79.2986193, 23.686681 ], [ 79.2953674, 23.6896182 ], [ 79.2888714, 23.6903009 ], [ 79.2833678, 23.694975 ], [ 79.2826004, 23.6988479 ], [ 79.2868435, 23.7026291 ], [ 79.2920201, 23.7036704 ], [ 79.2946516, 23.7056311 ], [ 79.3006578, 23.7056748 ], [ 79.2988062, 23.7110956 ], [ 79.2904574, 23.7170641 ], [ 79.2896463, 23.7201561 ], [ 79.2878072, 23.7203177 ], [ 79.2879861, 23.7243674 ], [ 79.2914676, 23.7244053 ], [ 79.2925302, 23.726758 ], [ 79.2910613, 23.730888 ], [ 79.2844881, 23.7340219 ], [ 79.2840699, 23.7359358 ], [ 79.2905203, 23.7410499 ], [ 79.292983, 23.7477057 ], [ 79.2888873, 23.7484123 ], [ 79.286109, 23.7446726 ], [ 79.2812648, 23.7428278 ], [ 79.2790133, 23.7435126 ], [ 79.2776134, 23.7398099 ], [ 79.2756837, 23.7429643 ], [ 79.2723483, 23.7435897 ], [ 79.2682647, 23.7475191 ], [ 79.2695574, 23.7501068 ], [ 79.2736067, 23.7504897 ], [ 79.272709, 23.7527564 ], [ 79.2638959, 23.7578066 ], [ 79.2609236, 23.7578045 ], [ 79.25944, 23.7605211 ], [ 79.2547017, 23.7607117 ], [ 79.2516831, 23.7629123 ], [ 79.2518379, 23.76512 ], [ 79.2481073, 23.7677181 ], [ 79.2332695, 23.7741218 ], [ 79.219605, 23.783634 ], [ 79.2178606, 23.7865965 ], [ 79.2205647, 23.7878815 ], [ 79.2246429, 23.7961449 ], [ 79.2288652, 23.7997537 ], [ 79.2299434, 23.8043036 ], [ 79.2291952, 23.8074913 ], [ 79.2335976, 23.8086485 ], [ 79.233609, 23.8107026 ], [ 79.2371341, 23.8129528 ], [ 79.2377897, 23.8163653 ], [ 79.2367806, 23.8184155 ], [ 79.238764, 23.8195067 ], [ 79.2411876, 23.8189495 ], [ 79.2506647, 23.8255152 ], [ 79.2474804, 23.8260459 ], [ 79.2415334, 23.8323934 ], [ 79.2410801, 23.8303983 ], [ 79.2390963, 23.8290907 ], [ 79.2361568, 23.8291469 ], [ 79.2333228, 23.8322007 ], [ 79.2240166, 23.8369246 ], [ 79.2237391, 23.8397284 ], [ 79.2202234, 23.8442721 ], [ 79.2175863, 23.8422738 ], [ 79.207701, 23.8413766 ], [ 79.2030847, 23.836702 ], [ 79.1973618, 23.8358877 ], [ 79.1920648, 23.8329873 ], [ 79.1856065, 23.8333015 ], [ 79.1821523, 23.8350409 ], [ 79.1771314, 23.8345642 ], [ 79.1765191, 23.8373724 ], [ 79.1780801, 23.838049 ], [ 79.1810861, 23.8437949 ], [ 79.1792471, 23.8472898 ], [ 79.1747965, 23.8501579 ], [ 79.1701715, 23.8462995 ], [ 79.1582502, 23.8483657 ], [ 79.1523304, 23.8465521 ], [ 79.1496556, 23.8474013 ], [ 79.1464166, 23.8500563 ], [ 79.1457448, 23.8535867 ], [ 79.1372437, 23.8567523 ], [ 79.1363262, 23.8613932 ], [ 79.1328215, 23.8629103 ], [ 79.1320608, 23.8656325 ], [ 79.121163, 23.8715963 ], [ 79.1164103, 23.880616 ], [ 79.1086975, 23.8815093 ], [ 79.1117458, 23.886173 ], [ 79.110577, 23.8900462 ], [ 79.1119072, 23.8933013 ], [ 79.1097265, 23.8990344 ], [ 79.1014268, 23.9078591 ], [ 79.0993839, 23.9086082 ], [ 79.0991429, 23.9109105 ], [ 79.0937588, 23.9193786 ], [ 79.0879244, 23.9205692 ], [ 79.0824251, 23.9174483 ], [ 79.0796251, 23.9197363 ], [ 79.0793609, 23.9171088 ], [ 79.0811203, 23.9129922 ], [ 79.080591, 23.9098997 ], [ 79.0832877, 23.9073407 ], [ 79.0799594, 23.9045679 ], [ 79.0783683, 23.9050144 ], [ 79.0736403, 23.9030491 ], [ 79.0718367, 23.9066149 ], [ 79.0633597, 23.9101962 ], [ 79.0597726, 23.9150026 ], [ 79.0553862, 23.9172128 ], [ 79.0548543, 23.9198535 ], [ 79.0600676, 23.9241625 ], [ 79.0652877, 23.924923 ], [ 79.0670888, 23.9278491 ], [ 79.0703304, 23.9274395 ], [ 79.0782161, 23.932435 ], [ 79.0774149, 23.9343353 ], [ 79.0800467, 23.9362457 ], [ 79.0821819, 23.940237 ], [ 79.0812285, 23.9421645 ], [ 79.0931335, 23.946623 ], [ 79.0922438, 23.9490877 ], [ 79.0950631, 23.9502575 ], [ 79.0953616, 23.9548397 ], [ 79.1020906, 23.9599285 ], [ 79.1008377, 23.9613143 ], [ 79.1014809, 23.9630525 ], [ 79.1092228, 23.9655363 ], [ 79.1083921, 23.9692516 ], [ 79.1109367, 23.9713285 ], [ 79.1142285, 23.9704032 ], [ 79.1175491, 23.9773646 ], [ 79.1210325, 23.9771029 ], [ 79.1237445, 23.9753108 ], [ 79.1262207, 23.9757261 ], [ 79.1293601, 23.9738932 ], [ 79.1307801, 23.9772202 ], [ 79.1364746, 23.9787909 ], [ 79.1336745, 23.9854408 ], [ 79.1389518, 23.9882844 ], [ 79.1448087, 23.988031 ], [ 79.1461607, 23.9927393 ], [ 79.1498467, 23.9961741 ], [ 79.1540134, 23.9955278 ], [ 79.1574882, 23.9980959 ], [ 79.167037, 24.0016835 ], [ 79.1708844, 24.0009104 ], [ 79.1811408, 24.002979 ], [ 79.1869865, 24.0088816 ], [ 79.1867131, 24.0124886 ], [ 79.1792693, 24.0163964 ], [ 79.1790837, 24.0188658 ], [ 79.1839068, 24.0228367 ], [ 79.1836835, 24.0290033 ], [ 79.1820283, 24.0314598 ], [ 79.1829979, 24.0345337 ], [ 79.1806598, 24.0380784 ], [ 79.1764978, 24.0538078 ], [ 79.171657, 24.0577866 ], [ 79.1678511, 24.0554898 ], [ 79.1657176, 24.0557929 ], [ 79.1555252, 24.0707468 ], [ 79.1547253, 24.0766834 ], [ 79.1564664, 24.0787867 ], [ 79.1484043, 24.0878033 ], [ 79.150923, 24.0931298 ], [ 79.1466954, 24.1015361 ], [ 79.1471149, 24.1102036 ], [ 79.1495203, 24.1125596 ], [ 79.1557365, 24.1103962 ], [ 79.1590078, 24.1132756 ], [ 79.1606765, 24.1180604 ], [ 79.1574114, 24.1210766 ], [ 79.1577904, 24.1220381 ], [ 79.1735851, 24.1250042 ], [ 79.1759657, 24.1246062 ], [ 79.1773274, 24.1226601 ], [ 79.1768332, 24.1169722 ], [ 79.1838231, 24.1187212 ], [ 79.1877748, 24.1231391 ], [ 79.1905631, 24.1220094 ], [ 79.193865, 24.1248249 ], [ 79.1993994, 24.1262172 ], [ 79.203819, 24.1303906 ], [ 79.2081288, 24.1315756 ], [ 79.2134967, 24.1292644 ], [ 79.2176179, 24.132175 ], [ 79.2223548, 24.1319645 ], [ 79.2259105, 24.1373702 ], [ 79.2236648, 24.1403512 ], [ 79.2259446, 24.1431123 ], [ 79.228223, 24.1440046 ], [ 79.2317237, 24.141709 ], [ 79.235622, 24.1421191 ], [ 79.2421427, 24.1467663 ], [ 79.2438261, 24.144782 ], [ 79.2519272, 24.1436536 ], [ 79.2536209, 24.1473386 ], [ 79.2572023, 24.1473369 ], [ 79.2645779, 24.140264 ], [ 79.2797463, 24.1441158 ], [ 79.2860093, 24.1432799 ], [ 79.2883052, 24.1454572 ], [ 79.3016032, 24.1446561 ], [ 79.3071981, 24.1418823 ], [ 79.3082136, 24.137698 ], [ 79.3148302, 24.1372718 ], [ 79.3158675, 24.138455 ], [ 79.3154521, 24.1432581 ], [ 79.3232006, 24.1422993 ], [ 79.3310845, 24.1477731 ], [ 79.3304087, 24.1530682 ], [ 79.3269595, 24.1542589 ], [ 79.3192704, 24.1526041 ], [ 79.3088055, 24.1635335 ], [ 79.3022762, 24.1639188 ], [ 79.303176, 24.173661 ], [ 79.3021299, 24.179019 ], [ 79.3005199, 24.180517 ], [ 79.3050708, 24.1820991 ], [ 79.3098766, 24.1859519 ], [ 79.3135143, 24.1836872 ], [ 79.3208176, 24.1823537 ], [ 79.3320704, 24.1864382 ], [ 79.3435906, 24.1869556 ], [ 79.3456572, 24.1881974 ], [ 79.3501699, 24.1878641 ], [ 79.3526647, 24.1891059 ], [ 79.3654006, 24.190457 ], [ 79.3682399, 24.1962309 ], [ 79.3734468, 24.1967366 ], [ 79.3768081, 24.1949534 ], [ 79.38233, 24.1952693 ], [ 79.3752481, 24.2094217 ], [ 79.3773203, 24.211453 ], [ 79.3856486, 24.2130552 ], [ 79.3864658, 24.2148383 ], [ 79.3887068, 24.2274058 ], [ 79.3851584, 24.2378881 ], [ 79.392939, 24.2528251 ], [ 79.3912756, 24.2582966 ], [ 79.3949441, 24.2600025 ], [ 79.3974764, 24.2680284 ], [ 79.388124, 24.2789788 ], [ 79.3949328, 24.2813999 ], [ 79.398612, 24.2840853 ], [ 79.3972001, 24.292184 ], [ 79.4018018, 24.2998122 ], [ 79.4015859, 24.3037757 ], [ 79.4032019, 24.3058024 ], [ 79.4013553, 24.3079289 ], [ 79.4020504, 24.3104522 ], [ 79.4048091, 24.3115486 ], [ 79.4015097, 24.316411 ], [ 79.3986037, 24.317847 ], [ 79.3960781, 24.3268939 ], [ 79.4011676, 24.3290508 ], [ 79.4055838, 24.3374554 ], [ 79.4098858, 24.3401629 ], [ 79.4092218, 24.3442304 ], [ 79.4136183, 24.3503407 ], [ 79.4106831, 24.3521381 ], [ 79.4100773, 24.3541514 ], [ 79.4063335, 24.3558807 ], [ 79.4020478, 24.3620163 ], [ 79.3917878, 24.3679101 ], [ 79.3955685, 24.3728798 ], [ 79.3943024, 24.3763333 ], [ 79.3944708, 24.3814524 ], [ 79.3974144, 24.3884398 ], [ 79.405113, 24.387504 ], [ 79.4120239, 24.3896016 ], [ 79.4226597, 24.3876213 ], [ 79.4282448, 24.3889963 ], [ 79.4331869, 24.3962351 ], [ 79.432598, 24.4021128 ], [ 79.4405806, 24.4056621 ], [ 79.4384184, 24.4094098 ], [ 79.4417966, 24.4120446 ], [ 79.4418103, 24.4101666 ], [ 79.4461135, 24.4073555 ], [ 79.4535714, 24.4064941 ], [ 79.4576933, 24.4074986 ], [ 79.4598785, 24.4022158 ], [ 79.4716996, 24.3912136 ], [ 79.4715828, 24.3867672 ], [ 79.4729569, 24.3840113 ], [ 79.4750316, 24.3836804 ], [ 79.4754072, 24.3849216 ], [ 79.4801254, 24.3866563 ], [ 79.4833031, 24.3908342 ], [ 79.4929253, 24.3917975 ], [ 79.498316, 24.390593 ], [ 79.5034819, 24.3910172 ], [ 79.5087737, 24.397287 ], [ 79.5239367, 24.3912173 ], [ 79.5262918, 24.3932838 ], [ 79.5362167, 24.3915198 ], [ 79.5519796, 24.3817183 ], [ 79.5595724, 24.3835775 ], [ 79.5669232, 24.391033 ], [ 79.5639727, 24.3910247 ], [ 79.5639613, 24.394404 ], [ 79.5539531, 24.4089067 ], [ 79.5539414, 24.412286 ], [ 79.5454373, 24.4180061 ], [ 79.5454314, 24.4196957 ], [ 79.5513218, 24.4230923 ], [ 79.5668019, 24.4271919 ], [ 79.5642104, 24.429888 ], [ 79.5630922, 24.4332642 ], [ 79.5638164, 24.4373215 ], [ 79.5674945, 24.4407112 ], [ 79.5685844, 24.4457832 ], [ 79.5752446, 24.4400569 ], [ 79.5815221, 24.4383844 ], [ 79.5870671, 24.43502 ], [ 79.5955737, 24.4282839 ], [ 79.5989096, 24.4232236 ], [ 79.6066719, 24.4181746 ] ] ] } }
]
}
