{
"type": "FeatureCollection",
"name": "2317",
"crs": { "type": "name", "properties": { "name": "urn:ogc:def:crs:OGC:1.3:CRS84" } },
"features": [
{ "type": "Feature", "properties": { "code": "2317", "name": "Sidhi", "type": "district" }, "geometry": { "type": "Polygon", "coordinates": [ [ [ 82.1717811, 24.616246 ], [ 82.1911053, 24.6150778 ], [ 82.1946103, 24.6126328 ], [ 82.201829, 24.6124118 ], [ 82.2020706, 24.6137179 ], [ 82.2113633, 24.614104 ], [ 82.2163538, 24.611814 ], [ 82.2322491, 24.6102925 ], [ 82.2329244, 24.6057224 ], [ 82.241527, 24.605391 ], [ 82.2495511, 24.6027328 ], [ 82.2521419, 24.610835 ], [ 82.2579742, 24.6032916 ], [ 82.2686632, 24.5935648 ], [ 82.2761697, 24.5901381 ], [ 82.2806929, 24.5900239 ], [ 82.2847894, 24.5937317 ], [ 82.2884555, 24.5906516 ], [ 82.3008722, 24.593526 ], [ 82.304998, 24.5914112 ], [ 82.306692, 24.594891 ], [ 82.3126337, 24.5868233 ], [ 82.3170905, 24.5870941 ], [ 82.3187387, 24.5904783 ], [ 82.3205066, 24.590607 ], [ 82.3228826, 24.5849179 ], [ 82.3260686, 24.5813209 ], [ 82.3388978, 24.5824701 ], [ 82.3433498, 24.5775801 ], [ 82.3456768, 24.5680905 ], [ 82.3492563, 24.566828 ], [ 82.3547328, 24.5678859 ], [ 82.3577661, 24.5671483 ], [ 82.361476, 24.5625797 ], [ 82.367572, 24.5585645 ], [ 82.3797544, 24.5592619 ], [ 82.3746263, 24.5530919 ], [ 82.3742331, 24.5492603 ], [ 82.3710862, 24.5440564 ], [ 82.3684757, 24.5416979 ], [ 82.3606931, 24.53873 ], [ 82.3591134, 24.5346703 ], [ 82.3439758, 24.5188984 ], [ 82.3383506, 24.5095616 ], [ 82.3294995, 24.5075809 ], [ 82.3250444, 24.5042213 ], [ 82.3225054, 24.4998446 ], [ 82.3142832, 24.4967584 ], [ 82.3025835, 24.5024305 ], [ 82.2895783, 24.5018494 ], [ 82.2859656, 24.4990421 ], [ 82.2838241, 24.4930552 ], [ 82.2778948, 24.4864925 ], [ 82.278002, 24.4816309 ], [ 82.2768783, 24.4804204 ], [ 82.2700876, 24.4789217 ], [ 82.2629261, 24.4806825 ], [ 82.2591285, 24.4781057 ], [ 82.255924, 24.4659694 ], [ 82.2481962, 24.4632456 ], [ 82.2416268, 24.4679726 ], [ 82.239432, 24.4678117 ], [ 82.2382068, 24.4655601 ], [ 82.2373649, 24.4561715 ], [ 82.2376874, 24.4472649 ], [ 82.236392, 24.4433521 ], [ 82.2333415, 24.4396889 ], [ 82.2178296, 24.4374442 ], [ 82.2180572, 24.4416446 ], [ 82.2084766, 24.4419347 ], [ 82.2021341, 24.439848 ], [ 82.1989757, 24.4352678 ], [ 82.192279, 24.4338761 ], [ 82.1889269, 24.4353672 ], [ 82.1839906, 24.4337441 ], [ 82.1735429, 24.4348087 ], [ 82.1709045, 24.4333831 ], [ 82.1720227, 24.4303989 ], [ 82.1807091, 24.4279267 ], [ 82.1811917, 24.4265226 ], [ 82.1892562, 24.4235717 ], [ 82.188116, 24.4209179 ], [ 82.1897654, 24.4166693 ], [ 82.197882, 24.4113525 ], [ 82.2013038, 24.4041643 ], [ 82.2055848, 24.3999187 ], [ 82.2025179, 24.390567 ], [ 82.1954071, 24.3846841 ], [ 82.1814526, 24.381828 ], [ 82.1680232, 24.382827 ], [ 82.1563932, 24.3891181 ], [ 82.1505473, 24.3880629 ], [ 82.150049, 24.3855396 ], [ 82.1569129, 24.3783653 ], [ 82.1655913, 24.3610378 ], [ 82.1657382, 24.358072 ], [ 82.1635645, 24.3563753 ], [ 82.1602581, 24.3564438 ], [ 82.1529513, 24.3605442 ], [ 82.1387785, 24.3564157 ], [ 82.1312198, 24.3613051 ], [ 82.1164415, 24.3584295 ], [ 82.1112878, 24.3516218 ], [ 82.1068993, 24.337993 ], [ 82.1083679, 24.3342554 ], [ 82.1164336, 24.3268031 ], [ 82.1170596, 24.3212417 ], [ 82.113173, 24.3183614 ], [ 82.0994493, 24.3152088 ], [ 82.0911259, 24.3092666 ], [ 82.0667124, 24.3009893 ], [ 82.0598971, 24.3074689 ], [ 82.0554928, 24.3088664 ], [ 82.0381066, 24.306 ], [ 82.034197, 24.3041649 ], [ 82.0323218, 24.302015 ], [ 82.032368, 24.2993923 ], [ 82.0422851, 24.2883156 ], [ 82.0412852, 24.2811014 ], [ 82.0321733, 24.2690341 ], [ 82.0203908, 24.2613975 ], [ 82.0135442, 24.2503037 ], [ 82.0008799, 24.2352675 ], [ 81.9854636, 24.2314913 ], [ 81.9788131, 24.2316856 ], [ 81.973831, 24.237869 ], [ 81.9664875, 24.2400585 ], [ 81.9615349, 24.2546875 ], [ 81.9590983, 24.2557271 ], [ 81.9552574, 24.2550565 ], [ 81.9527572, 24.2486613 ], [ 81.9566542, 24.2373961 ], [ 81.9557505, 24.232905 ], [ 81.9501714, 24.2306327 ], [ 81.9483061, 24.2312746 ], [ 81.9435934, 24.2373304 ], [ 81.9394184, 24.2368718 ], [ 81.9381471, 24.2345836 ], [ 81.9358251, 24.2174891 ], [ 81.9306502, 24.2137759 ], [ 81.9191624, 24.2150888 ], [ 81.9117976, 24.1940092 ], [ 81.9090065, 24.1913329 ], [ 81.8993011, 24.1880439 ], [ 81.896584, 24.1851642 ], [ 81.895422, 24.1804199 ], [ 81.8980568, 24.1656984 ], [ 81.8929884, 24.1623495 ], [ 81.891663, 24.1480258 ], [ 81.8868017, 24.1398193 ], [ 81.8787484, 24.1314051 ], [ 81.8778826, 24.1276357 ], [ 81.8788712, 24.1240152 ], [ 81.882437, 24.1206157 ], [ 81.9038465, 24.1163109 ], [ 81.9070528, 24.1140758 ], [ 81.908527, 24.1094437 ], [ 81.9090651, 24.0985911 ], [ 81.906707, 24.0884209 ], [ 81.9087512, 24.0831026 ], [ 81.9283177, 24.0743392 ], [ 81.9397133, 24.071256 ], [ 81.9530518, 24.0625325 ], [ 81.9540735, 24.0609474 ], [ 81.954304, 24.0521036 ], [ 81.9633326, 24.0420317 ], [ 81.9630988, 24.0380185 ], [ 81.9574218, 24.0233275 ], [ 81.9597885, 24.0199539 ], [ 81.9689841, 24.0132448 ], [ 81.9761335, 24.0119129 ], [ 81.9804537, 24.0124246 ], [ 81.9932924, 24.0200897 ], [ 81.9954737, 24.0191941 ], [ 82.0009975, 24.0124226 ], [ 82.0041386, 24.0115448 ], [ 82.0066728, 24.0133841 ], [ 82.0139914, 24.0237636 ], [ 82.0166696, 24.0302119 ], [ 82.0186696, 24.0306919 ], [ 82.0240686, 24.0278877 ], [ 82.040537, 24.008102 ], [ 82.0500442, 24.0027348 ], [ 82.0698276, 24.0042825 ], [ 82.0765062, 24.0037159 ], [ 82.0779208, 24.0054499 ], [ 82.0806295, 24.017143 ], [ 82.085534, 24.0181736 ], [ 82.0885969, 24.0138811 ], [ 82.0892436, 24.0036336 ], [ 82.0907731, 24.0005001 ], [ 82.0893913, 23.9999438 ], [ 82.0896906, 23.9919759 ], [ 82.0922723, 23.9887263 ], [ 82.0950472, 23.9877179 ], [ 82.0996152, 23.9887978 ], [ 82.1077708, 23.9950429 ], [ 82.1135911, 23.9963536 ], [ 82.1219626, 23.9961841 ], [ 82.128214, 23.9938089 ], [ 82.1356031, 23.988298 ], [ 82.14655, 23.9771931 ], [ 82.1534321, 23.9738103 ], [ 82.1587682, 23.9740967 ], [ 82.1653776, 23.9800354 ], [ 82.1665029, 23.9838615 ], [ 82.1654126, 23.9933305 ], [ 82.1687199, 24.0006833 ], [ 82.1711605, 24.0005676 ], [ 82.173475, 23.9984943 ], [ 82.179809, 23.9861476 ], [ 82.188132, 23.9819753 ], [ 82.1983379, 23.9802137 ], [ 82.2018456, 23.9824885 ], [ 82.2048676, 23.9871179 ], [ 82.2147417, 23.9874997 ], [ 82.2160248, 23.9852285 ], [ 82.215896, 23.979402 ], [ 82.2138697, 23.9746818 ], [ 82.2140387, 23.962973 ], [ 82.2121687, 23.959334 ], [ 82.202247, 23.9522483 ], [ 82.2012902, 23.9497067 ], [ 82.2032608, 23.9465544 ], [ 82.2111784, 23.9435741 ], [ 82.2105459, 23.9306442 ], [ 82.2127974, 23.9258354 ], [ 82.2175076, 23.9232303 ], [ 82.2214313, 23.9240496 ], [ 82.2262191, 23.9231227 ], [ 82.2338854, 23.9179147 ], [ 82.2340177, 23.9104635 ], [ 82.2246426, 23.9050327 ], [ 82.2228885, 23.9003853 ], [ 82.2244314, 23.8969906 ], [ 82.2267314, 23.8953637 ], [ 82.2386979, 23.89389 ], [ 82.2404507, 23.8918781 ], [ 82.2405059, 23.8893761 ], [ 82.235212, 23.8819135 ], [ 82.2259476, 23.8776729 ], [ 82.2207866, 23.8733186 ], [ 82.2166604, 23.8665744 ], [ 82.2155654, 23.8596375 ], [ 82.2112935, 23.8558297 ], [ 82.2096302, 23.8508113 ], [ 82.2012772, 23.848636 ], [ 82.1992412, 23.8434905 ], [ 82.1971443, 23.8416488 ], [ 82.188873, 23.8425876 ], [ 82.1862174, 23.8386665 ], [ 82.1808519, 23.8362802 ], [ 82.1785615, 23.8216146 ], [ 82.1714624, 23.8182401 ], [ 82.1638338, 23.820682 ], [ 82.1458881, 23.8154383 ], [ 82.1420596, 23.815549 ], [ 82.1417219, 23.8168898 ], [ 82.1292855, 23.819035 ], [ 82.1233731, 23.8220459 ], [ 82.1165857, 23.8170088 ], [ 82.1116685, 23.8169562 ], [ 82.10665, 23.8186754 ], [ 82.1045152, 23.8171784 ], [ 82.0954356, 23.815526 ], [ 82.0941774, 23.8166833 ], [ 82.0832728, 23.8154175 ], [ 82.0776379, 23.8186409 ], [ 82.0723268, 23.817038 ], [ 82.0617256, 23.8191626 ], [ 82.0532905, 23.8184379 ], [ 82.0524402, 23.8216452 ], [ 82.049737, 23.8225737 ], [ 82.0492406, 23.8242165 ], [ 82.0393304, 23.8262121 ], [ 82.038416, 23.8268405 ], [ 82.0393169, 23.8285412 ], [ 82.0387565, 23.8331336 ], [ 82.0408667, 23.8329225 ], [ 82.0412672, 23.836876 ], [ 82.044051, 23.838835 ], [ 82.0441805, 23.8416489 ], [ 82.0347498, 23.8464089 ], [ 82.0204666, 23.8490714 ], [ 82.0174491, 23.8509561 ], [ 82.0169222, 23.8538232 ], [ 82.0122333, 23.856599 ], [ 82.0088132, 23.8610785 ], [ 82.0009268, 23.8621758 ], [ 81.9890705, 23.8604317 ], [ 81.9859916, 23.8619181 ], [ 81.9817103, 23.8608874 ], [ 81.9772102, 23.8562405 ], [ 81.9703341, 23.8572291 ], [ 81.9654049, 23.8559094 ], [ 81.9635873, 23.8536081 ], [ 81.9602655, 23.8555285 ], [ 81.9594294, 23.8529332 ], [ 81.9577993, 23.852284 ], [ 81.9555569, 23.8534138 ], [ 81.9541701, 23.8571164 ], [ 81.9499289, 23.8566491 ], [ 81.9460817, 23.8587727 ], [ 81.9469179, 23.8618918 ], [ 81.9384849, 23.862347 ], [ 81.9382305, 23.8640942 ], [ 81.9404648, 23.865592 ], [ 81.9396461, 23.8677503 ], [ 81.931307, 23.870548 ], [ 81.9214743, 23.8709125 ], [ 81.9202861, 23.8704389 ], [ 81.9203978, 23.8673193 ], [ 81.9157612, 23.8589283 ], [ 81.9104397, 23.8572231 ], [ 81.9086563, 23.8510793 ], [ 81.9062853, 23.8499242 ], [ 81.9060929, 23.8460643 ], [ 81.9045515, 23.8447193 ], [ 81.9019993, 23.8448643 ], [ 81.8990291, 23.8408604 ], [ 81.8922316, 23.8405183 ], [ 81.8878464, 23.8354168 ], [ 81.8677123, 23.834145 ], [ 81.8662774, 23.8286854 ], [ 81.8630704, 23.8244568 ], [ 81.8563373, 23.8228531 ], [ 81.8504141, 23.8236965 ], [ 81.846685, 23.8218223 ], [ 81.8382005, 23.8211027 ], [ 81.8365325, 23.8199828 ], [ 81.836877, 23.8161951 ], [ 81.8291587, 23.8150283 ], [ 81.8275055, 23.813809 ], [ 81.8273839, 23.8106036 ], [ 81.8253821, 23.8103863 ], [ 81.8234301, 23.8079117 ], [ 81.8155801, 23.806365 ], [ 81.8083931, 23.8134859 ], [ 81.7959042, 23.8148886 ], [ 81.7945943, 23.8143823 ], [ 81.793125, 23.8099122 ], [ 81.7911185, 23.8093468 ], [ 81.7824549, 23.8137841 ], [ 81.773157, 23.8163992 ], [ 81.7621228, 23.8236064 ], [ 81.7545078, 23.8307473 ], [ 81.7428548, 23.833769 ], [ 81.7373552, 23.8391808 ], [ 81.7322303, 23.8408591 ], [ 81.7284632, 23.8390241 ], [ 81.7254739, 23.8398241 ], [ 81.7250441, 23.8446287 ], [ 81.7296859, 23.8489412 ], [ 81.7319778, 23.8566779 ], [ 81.7283007, 23.8594415 ], [ 81.7240238, 23.8596969 ], [ 81.7201972, 23.8622108 ], [ 81.7074906, 23.8611325 ], [ 81.7072825, 23.8650544 ], [ 81.7097417, 23.8712488 ], [ 81.7077041, 23.8741942 ], [ 81.7038355, 23.8759271 ], [ 81.707303, 23.8804529 ], [ 81.7073101, 23.8823592 ], [ 81.7026467, 23.8861924 ], [ 81.6941969, 23.8843119 ], [ 81.690437, 23.8847631 ], [ 81.6887159, 23.8908729 ], [ 81.6888496, 23.9029024 ], [ 81.6875443, 23.9064783 ], [ 81.6825603, 23.9113981 ], [ 81.6723101, 23.9133879 ], [ 81.6717181, 23.9195547 ], [ 81.6679107, 23.9252547 ], [ 81.6623843, 23.9242744 ], [ 81.6577825, 23.9163433 ], [ 81.6384685, 23.9108282 ], [ 81.6364508, 23.9075904 ], [ 81.6321838, 23.9058212 ], [ 81.6210139, 23.906711 ], [ 81.6098055, 23.9039293 ], [ 81.6083585, 23.9014851 ], [ 81.6104727, 23.8987669 ], [ 81.6115681, 23.8922874 ], [ 81.6044016, 23.8850248 ], [ 81.6022537, 23.889093 ], [ 81.5915167, 23.8928211 ], [ 81.5875614, 23.8986365 ], [ 81.5693784, 23.9124852 ], [ 81.5625745, 23.9143561 ], [ 81.5526257, 23.9091071 ], [ 81.5448491, 23.9125942 ], [ 81.5415078, 23.9207047 ], [ 81.5398299, 23.9419409 ], [ 81.545362, 23.9515017 ], [ 81.5561227, 23.9533342 ], [ 81.55764, 23.9577748 ], [ 81.554216, 23.9639361 ], [ 81.5467114, 23.9682466 ], [ 81.5428542, 23.9781185 ], [ 81.5392285, 23.9814688 ], [ 81.5321432, 23.9827225 ], [ 81.5187881, 23.9789681 ], [ 81.5087725, 23.9817577 ], [ 81.5056573, 23.9876845 ], [ 81.5031702, 24.0004686 ], [ 81.5066885, 24.0092811 ], [ 81.5122382, 24.0132128 ], [ 81.5141965, 24.016266 ], [ 81.5137361, 24.0201209 ], [ 81.5119991, 24.0225935 ], [ 81.507839, 24.0249875 ], [ 81.4850181, 24.032327 ], [ 81.4816794, 24.0367489 ], [ 81.4844796, 24.0406428 ], [ 81.4964642, 24.0412883 ], [ 81.5076496, 24.0387426 ], [ 81.5155123, 24.0411591 ], [ 81.5270864, 24.050322 ], [ 81.531343, 24.0577868 ], [ 81.5327255, 24.0633178 ], [ 81.5352944, 24.0666418 ], [ 81.5413061, 24.0686586 ], [ 81.553308, 24.0677166 ], [ 81.5572546, 24.0703322 ], [ 81.5587867, 24.0740572 ], [ 81.5540239, 24.0801359 ], [ 81.543769, 24.0847671 ], [ 81.5352234, 24.0840851 ], [ 81.5257391, 24.0763779 ], [ 81.5218457, 24.0755853 ], [ 81.5178479, 24.076034 ], [ 81.509735, 24.081644 ], [ 81.5070856, 24.0913658 ], [ 81.5098143, 24.1085855 ], [ 81.5091852, 24.1136004 ], [ 81.5079682, 24.1159876 ], [ 81.4975666, 24.1250056 ], [ 81.4963215, 24.1346807 ], [ 81.486633, 24.1427959 ], [ 81.4853075, 24.1459432 ], [ 81.4863112, 24.1518021 ], [ 81.4937508, 24.1527173 ], [ 81.4991018, 24.1548803 ], [ 81.5008061, 24.1578926 ], [ 81.4997725, 24.1633541 ], [ 81.4969958, 24.166059 ], [ 81.4824894, 24.1645306 ], [ 81.4785099, 24.1656935 ], [ 81.4724022, 24.1699455 ], [ 81.4698173, 24.1743847 ], [ 81.4713329, 24.1874525 ], [ 81.473953, 24.1901233 ], [ 81.4806576, 24.1924888 ], [ 81.4834968, 24.1977414 ], [ 81.4811853, 24.2055752 ], [ 81.4826071, 24.2166342 ], [ 81.4803, 24.218279 ], [ 81.4794606, 24.2210558 ], [ 81.4820724, 24.2303443 ], [ 81.4800242, 24.2419834 ], [ 81.4704651, 24.2565698 ], [ 81.467431, 24.2687239 ], [ 81.4624288, 24.2768706 ], [ 81.4555425, 24.2820793 ], [ 81.4524575, 24.2786004 ], [ 81.4517362, 24.2746825 ], [ 81.4527633, 24.2713776 ], [ 81.4575914, 24.2671587 ], [ 81.4532996, 24.2625294 ], [ 81.4458132, 24.2592738 ], [ 81.4394165, 24.2580082 ], [ 81.4284319, 24.2590553 ], [ 81.3985696, 24.2645297 ], [ 81.3888246, 24.2625988 ], [ 81.3884458, 24.26598 ], [ 81.3838269, 24.2653845 ], [ 81.3817441, 24.2663597 ], [ 81.3801879, 24.2636692 ], [ 81.3687396, 24.2622428 ], [ 81.35004, 24.2530635 ], [ 81.3441199, 24.2608495 ], [ 81.341109, 24.2701978 ], [ 81.3490363, 24.2741448 ], [ 81.3450956, 24.2792676 ], [ 81.3476945, 24.2851005 ], [ 81.3451326, 24.289691 ], [ 81.3459348, 24.2920882 ], [ 81.3304705, 24.2901073 ], [ 81.3252941, 24.2905662 ], [ 81.3118312, 24.3059185 ], [ 81.3100014, 24.3106848 ], [ 81.3084296, 24.3115959 ], [ 81.3107182, 24.3154746 ], [ 81.3106775, 24.3180387 ], [ 81.3052316, 24.3226317 ], [ 81.3144381, 24.3243691 ], [ 81.3141246, 24.3309552 ], [ 81.3168428, 24.3338905 ], [ 81.3168516, 24.3361475 ], [ 81.3323156, 24.3403688 ], [ 81.3381495, 24.3390974 ], [ 81.3493366, 24.3493919 ], [ 81.357299, 24.3518939 ], [ 81.3731012, 24.3601423 ], [ 81.3837454, 24.3622998 ], [ 81.391749, 24.3680411 ], [ 81.3959773, 24.3678464 ], [ 81.4128283, 24.3743931 ], [ 81.4188172, 24.3772309 ], [ 81.4213763, 24.3805074 ], [ 81.4248015, 24.3802039 ], [ 81.4497207, 24.3892896 ], [ 81.4614015, 24.3953052 ], [ 81.5048867, 24.4240263 ], [ 81.531705, 24.4338769 ], [ 81.536446, 24.4372202 ], [ 81.545029, 24.4393917 ], [ 81.5486663, 24.442251 ], [ 81.5513151, 24.4409297 ], [ 81.5729987, 24.4469424 ], [ 81.577076, 24.4492685 ], [ 81.5851627, 24.4508869 ], [ 81.5903249, 24.4540435 ], [ 81.5926183, 24.4529291 ], [ 81.5953203, 24.4546585 ], [ 81.6011639, 24.4553952 ], [ 81.6294759, 24.4654047 ], [ 81.6673387, 24.482453 ], [ 81.678494, 24.4891664 ], [ 81.6790077, 24.4907552 ], [ 81.681548, 24.490655 ], [ 81.6818994, 24.4929344 ], [ 81.6834338, 24.4935704 ], [ 81.6844939, 24.4925723 ], [ 81.6905776, 24.4954046 ], [ 81.692034, 24.4975572 ], [ 81.6951472, 24.4980929 ], [ 81.6955921, 24.4998848 ], [ 81.6974412, 24.498295 ], [ 81.7040045, 24.5019564 ], [ 81.7076794, 24.5012276 ], [ 81.7130824, 24.5028135 ], [ 81.716549, 24.5074157 ], [ 81.7189901, 24.5061458 ], [ 81.7267621, 24.5083797 ], [ 81.7282689, 24.5109608 ], [ 81.736587, 24.5108419 ], [ 81.7417426, 24.4949176 ], [ 81.7439888, 24.4913994 ], [ 81.748266, 24.4917796 ], [ 81.7494883, 24.4928436 ], [ 81.7488984, 24.4955088 ], [ 81.7524085, 24.4978815 ], [ 81.7530554, 24.5007245 ], [ 81.7563344, 24.4988508 ], [ 81.7607431, 24.5004378 ], [ 81.7647235, 24.5088147 ], [ 81.7637726, 24.516948 ], [ 81.7730178, 24.5179431 ], [ 81.7827934, 24.5227162 ], [ 81.7884424, 24.5234056 ], [ 81.791716, 24.5276507 ], [ 81.7919857, 24.5301426 ], [ 81.7959733, 24.529251 ], [ 81.8132854, 24.5343599 ], [ 81.8187435, 24.5332516 ], [ 81.8189725, 24.5286383 ], [ 81.8079932, 24.5201609 ], [ 81.8025768, 24.5180955 ], [ 81.7988095, 24.5144282 ], [ 81.8048492, 24.5131853 ], [ 81.8120367, 24.5150211 ], [ 81.8159206, 24.5127882 ], [ 81.8174316, 24.5099449 ], [ 81.824821, 24.512814 ], [ 81.8274643, 24.5160198 ], [ 81.8321264, 24.5171542 ], [ 81.8345147, 24.5163649 ], [ 81.8372913, 24.5203109 ], [ 81.8395076, 24.5167273 ], [ 81.8583098, 24.5229779 ], [ 81.8662783, 24.5240123 ], [ 81.8636227, 24.5357396 ], [ 81.8757569, 24.540051 ], [ 81.8957238, 24.5441031 ], [ 81.8928975, 24.5538448 ], [ 81.916194, 24.5587117 ], [ 81.9166501, 24.5654457 ], [ 81.9152829, 24.5656582 ], [ 81.9196971, 24.5696789 ], [ 81.9303192, 24.569689 ], [ 81.9307342, 24.5706141 ], [ 81.9404325, 24.5690438 ], [ 81.9468059, 24.5709233 ], [ 81.9464266, 24.5723453 ], [ 81.951009, 24.5751509 ], [ 81.9492991, 24.5717797 ], [ 81.9510173, 24.5635679 ], [ 81.9514503, 24.5460395 ], [ 81.9533795, 24.5455601 ], [ 81.9624413, 24.5541181 ], [ 81.9784691, 24.5536099 ], [ 81.9822485, 24.5524652 ], [ 81.9915491, 24.5533705 ], [ 82.0179095, 24.5703638 ], [ 82.0247918, 24.5685508 ], [ 82.0336551, 24.5689177 ], [ 82.0397117, 24.5711621 ], [ 82.0673438, 24.5760916 ], [ 82.0666975, 24.5824047 ], [ 82.0691037, 24.5824927 ], [ 82.0692371, 24.5855764 ], [ 82.0681343, 24.5996087 ], [ 82.0708963, 24.6025508 ], [ 82.0765522, 24.6035867 ], [ 82.0778898, 24.5997386 ], [ 82.0811133, 24.600114 ], [ 82.0904254, 24.5950266 ], [ 82.1127273, 24.5985333 ], [ 82.1172795, 24.5981464 ], [ 82.1224713, 24.5896211 ], [ 82.1387446, 24.5942808 ], [ 82.1406949, 24.5952448 ], [ 82.1402125, 24.5972573 ], [ 82.1586613, 24.5969315 ], [ 82.1830388, 24.6025791 ], [ 82.1859048, 24.605795 ], [ 82.1842904, 24.6102189 ], [ 82.1717811, 24.616246 ] ] ] } }
]
}
