{
"type": "FeatureCollection",
"name": "2318",
"crs": { "type": "name", "properties": { "name": "urn:ogc:def:crs:OGC:1.3:CRS84" } },
"features": [
{ "type": "Feature", "properties": { "code": "2318", "name": "Neemuch", "type": "district" }, "geometry": { "type": "Polygon", "coordinates": [ [ [ 75.167081, 25.0484142 ], [ 75.1760902, 25.0397521 ], [ 75.1874508, 25.0367082 ], [ 75.1908504, 25.0364525 ], [ 75.1923646, 25.0380386 ], [ 75.193325, 25.0436366 ], [ 75.1968456, 25.0444854 ], [ 75.1994257, 25.0429828 ], [ 75.1998515, 25.0396543 ], [ 75.1988025, 25.0377095 ], [ 75.2053677, 25.0394662 ], [ 75.217845, 25.0348787 ], [ 75.2218333, 25.0367783 ], [ 75.2251195, 25.0340957 ], [ 75.2270527, 25.0342915 ], [ 75.2301208, 25.0370502 ], [ 75.2361375, 25.036842 ], [ 75.2402926, 25.0351421 ], [ 75.2499996, 25.0357991 ], [ 75.2516345, 25.0384874 ], [ 75.2539016, 25.0394905 ], [ 75.2601973, 25.0399447 ], [ 75.268376, 25.0424407 ], [ 75.2738465, 25.0395092 ], [ 75.2831911, 25.0380558 ], [ 75.2939737, 25.0390644 ], [ 75.3011027, 25.0417368 ], [ 75.3094247, 25.0417333 ], [ 75.3251401, 25.039171 ], [ 75.3316891, 25.0415723 ], [ 75.3471765, 25.0321403 ], [ 75.3463944, 25.0307333 ], [ 75.342717, 25.0307192 ], [ 75.3502068, 25.0224023 ], [ 75.3503515, 25.0175342 ], [ 75.3448728, 25.0182831 ], [ 75.3391414, 25.0172848 ], [ 75.339256, 25.019321 ], [ 75.3329848, 25.0166485 ], [ 75.3205406, 25.0067688 ], [ 75.3165288, 25.0055582 ], [ 75.3117661, 24.9953724 ], [ 75.3115068, 24.9888344 ], [ 75.3134563, 24.9800116 ], [ 75.3184744, 24.9741262 ], [ 75.3272344, 24.9709735 ], [ 75.3270219, 24.9674382 ], [ 75.3299557, 24.9604598 ], [ 75.3319378, 24.9574615 ], [ 75.3368848, 24.9548177 ], [ 75.3352849, 24.9437856 ], [ 75.3290933, 24.9341543 ], [ 75.3258258, 24.9194679 ], [ 75.3210004, 24.9127862 ], [ 75.3186965, 24.8948148 ], [ 75.3143323, 24.8859509 ], [ 75.3127363, 24.885137 ], [ 75.315123, 24.889336 ], [ 75.3151845, 24.8960053 ], [ 75.3093122, 24.9116053 ], [ 75.3085919, 24.9166145 ], [ 75.3027224, 24.9198732 ], [ 75.3009454, 24.9233096 ], [ 75.301406, 24.9262836 ], [ 75.3048731, 24.9286561 ], [ 75.3005113, 24.9331128 ], [ 75.2977032, 24.9330055 ], [ 75.2900877, 24.9376581 ], [ 75.28839, 24.9444392 ], [ 75.2867744, 24.9461356 ], [ 75.2867117, 24.9490348 ], [ 75.2884017, 24.9516144 ], [ 75.2818721, 24.9530854 ], [ 75.2853067, 24.9647831 ], [ 75.2821929, 24.9656064 ], [ 75.278266, 24.9638309 ], [ 75.2774804, 24.9648747 ], [ 75.2738923, 24.9640414 ], [ 75.272181, 24.9607301 ], [ 75.2728722, 24.9596722 ], [ 75.2706378, 24.9571883 ], [ 75.2708212, 24.9527311 ], [ 75.2667062, 24.9508826 ], [ 75.2666172, 24.9486475 ], [ 75.2689163, 24.9422314 ], [ 75.2729288, 24.9381826 ], [ 75.2726416, 24.935939 ], [ 75.2792642, 24.9343507 ], [ 75.277282, 24.924935 ], [ 75.2878353, 24.9235236 ], [ 75.287793, 24.9198261 ], [ 75.2934771, 24.9112851 ], [ 75.2940673, 24.9075451 ], [ 75.2867437, 24.9087638 ], [ 75.2842996, 24.9079569 ], [ 75.2816201, 24.9032206 ], [ 75.2773334, 24.8991511 ], [ 75.2726952, 24.9040545 ], [ 75.2673085, 24.8994358 ], [ 75.2640715, 24.8952104 ], [ 75.2650701, 24.8921877 ], [ 75.2633004, 24.8910846 ], [ 75.2623123, 24.8826376 ], [ 75.2634343, 24.8748553 ], [ 75.2743634, 24.8747815 ], [ 75.2781258, 24.872738 ], [ 75.2811056, 24.8683793 ], [ 75.290193, 24.8662125 ], [ 75.2913964, 24.8622861 ], [ 75.2931342, 24.8625085 ], [ 75.2946272, 24.8576243 ], [ 75.309253, 24.8560052 ], [ 75.3152958, 24.8579116 ], [ 75.3181778, 24.8604532 ], [ 75.3227687, 24.8691892 ], [ 75.3225858, 24.8731452 ], [ 75.3266394, 24.8748749 ], [ 75.3382905, 24.8727583 ], [ 75.3505338, 24.8736512 ], [ 75.3736317, 24.8677431 ], [ 75.3801871, 24.8716776 ], [ 75.3959755, 24.8775158 ], [ 75.4017787, 24.8826977 ], [ 75.4073495, 24.8847643 ], [ 75.420354, 24.886286 ], [ 75.4257974, 24.8842928 ], [ 75.4243055, 24.8808427 ], [ 75.4257551, 24.8690666 ], [ 75.419084, 24.8620096 ], [ 75.4197127, 24.8561872 ], [ 75.4178038, 24.8536684 ], [ 75.4142491, 24.8532539 ], [ 75.4039289, 24.8451586 ], [ 75.3960243, 24.8415493 ], [ 75.3812872, 24.8381963 ], [ 75.3717054, 24.8326482 ], [ 75.3626822, 24.8300197 ], [ 75.3467225, 24.8221689 ], [ 75.3358622, 24.8221711 ], [ 75.3284273, 24.8190312 ], [ 75.3266933, 24.8181274 ], [ 75.3240152, 24.8118746 ], [ 75.3170389, 24.8038969 ], [ 75.3115953, 24.8011763 ], [ 75.304731, 24.802053 ], [ 75.2979362, 24.8071377 ], [ 75.297336, 24.8126886 ], [ 75.2948595, 24.8157054 ], [ 75.2957955, 24.8202553 ], [ 75.2903082, 24.8285974 ], [ 75.2899587, 24.8336555 ], [ 75.272937, 24.8428362 ], [ 75.262316, 24.842214 ], [ 75.2576099, 24.8446064 ], [ 75.2502287, 24.8456937 ], [ 75.2404203, 24.8457007 ], [ 75.23656, 24.8422216 ], [ 75.2240912, 24.8439243 ], [ 75.2262226, 24.8403809 ], [ 75.2251965, 24.8339838 ], [ 75.2323765, 24.8313312 ], [ 75.245083, 24.8311258 ], [ 75.2490883, 24.8298232 ], [ 75.2500568, 24.8266606 ], [ 75.2539559, 24.8242743 ], [ 75.2542607, 24.8184757 ], [ 75.2523203, 24.8131054 ], [ 75.2495813, 24.8088366 ], [ 75.2441306, 24.8047109 ], [ 75.2399258, 24.8047809 ], [ 75.2330256, 24.8026604 ], [ 75.2217028, 24.803215 ], [ 75.2186686, 24.8051206 ], [ 75.2152004, 24.8021181 ], [ 75.207383, 24.7920804 ], [ 75.2069409, 24.7883707 ], [ 75.2047202, 24.785583 ], [ 75.2074533, 24.7812036 ], [ 75.2015768, 24.7717422 ], [ 75.2074373, 24.7707411 ], [ 75.2046248, 24.7695796 ], [ 75.1929096, 24.7735734 ], [ 75.1903664, 24.7534052 ], [ 75.1844004, 24.7485538 ], [ 75.1870098, 24.747503 ], [ 75.1876321, 24.7437361 ], [ 75.1976443, 24.7432491 ], [ 75.2040382, 24.7313733 ], [ 75.2071065, 24.7211952 ], [ 75.2133022, 24.7130989 ], [ 75.2174995, 24.7047479 ], [ 75.2199284, 24.7029922 ], [ 75.2245078, 24.7151553 ], [ 75.2283831, 24.7176196 ], [ 75.2415499, 24.7134399 ], [ 75.2516991, 24.7135993 ], [ 75.2616694, 24.7156189 ], [ 75.2649016, 24.7175098 ], [ 75.2685293, 24.7147487 ], [ 75.2846021, 24.7089059 ], [ 75.3203998, 24.7024005 ], [ 75.3299513, 24.7029849 ], [ 75.3490352, 24.7008012 ], [ 75.3707, 24.6923863 ], [ 75.382541, 24.6902613 ], [ 75.3917987, 24.6903774 ], [ 75.4340632, 24.6821059 ], [ 75.4564552, 24.68045 ], [ 75.4894136, 24.6866455 ], [ 75.4965236, 24.6911152 ], [ 75.5063306, 24.6999285 ], [ 75.5183467, 24.7058843 ], [ 75.53025, 24.7094778 ], [ 75.5334345, 24.7120494 ], [ 75.5418356, 24.7046047 ], [ 75.5496656, 24.7030627 ], [ 75.5540065, 24.6999586 ], [ 75.5594218, 24.6927791 ], [ 75.5648449, 24.6772836 ], [ 75.5710939, 24.6683483 ], [ 75.597444, 24.6549222 ], [ 75.6085102, 24.6461956 ], [ 75.606891, 24.6406659 ], [ 75.6026612, 24.6394558 ], [ 75.5839771, 24.6428374 ], [ 75.5814488, 24.6422264 ], [ 75.5768653, 24.6357035 ], [ 75.5720127, 24.6220004 ], [ 75.5739669, 24.617154 ], [ 75.5834425, 24.611906 ], [ 75.5886626, 24.6062087 ], [ 75.5841538, 24.5824745 ], [ 75.5849043, 24.5779565 ], [ 75.5934082, 24.558063 ], [ 75.5938992, 24.5541549 ], [ 75.5918588, 24.5290748 ], [ 75.5899272, 24.5195243 ], [ 75.5795826, 24.5033195 ], [ 75.5743858, 24.5004079 ], [ 75.5605123, 24.49689 ], [ 75.5481229, 24.4844749 ], [ 75.5387641, 24.4795811 ], [ 75.5326172, 24.4743322 ], [ 75.5180649, 24.459381 ], [ 75.5116883, 24.4483439 ], [ 75.4881234, 24.4242101 ], [ 75.4856782, 24.413238 ], [ 75.4794795, 24.4047875 ], [ 75.4730713, 24.3987474 ], [ 75.4648817, 24.3958724 ], [ 75.4603448, 24.3927738 ], [ 75.4575565, 24.3876338 ], [ 75.4552531, 24.3773112 ], [ 75.4307748, 24.3578572 ], [ 75.4291129, 24.3548513 ], [ 75.4301813, 24.3416876 ], [ 75.4290607, 24.3365374 ], [ 75.4256205, 24.3334283 ], [ 75.4176331, 24.3300046 ], [ 75.3960446, 24.3298015 ], [ 75.3652687, 24.3152351 ], [ 75.3628058, 24.3203409 ], [ 75.3567362, 24.3232294 ], [ 75.3561735, 24.3313142 ], [ 75.3515266, 24.3370872 ], [ 75.3439834, 24.3379571 ], [ 75.3418069, 24.3328466 ], [ 75.3383535, 24.3320919 ], [ 75.3336761, 24.3381262 ], [ 75.3197449, 24.333066 ], [ 75.3159021, 24.3331548 ], [ 75.3152783, 24.3290015 ], [ 75.31182, 24.3286751 ], [ 75.3109923, 24.3188158 ], [ 75.3090424, 24.3172395 ], [ 75.2923089, 24.316464 ], [ 75.2868694, 24.3179867 ], [ 75.2821571, 24.315307 ], [ 75.2817901, 24.318566 ], [ 75.2782769, 24.3198459 ], [ 75.269498, 24.3142379 ], [ 75.2596829, 24.3114862 ], [ 75.2528715, 24.3155527 ], [ 75.2509905, 24.3148109 ], [ 75.2504422, 24.3113029 ], [ 75.2474515, 24.3107523 ], [ 75.2436336, 24.315563 ], [ 75.2413189, 24.3162013 ], [ 75.2330839, 24.312104 ], [ 75.2300369, 24.3086438 ], [ 75.2215241, 24.3073404 ], [ 75.215408, 24.3096193 ], [ 75.2054129, 24.3086183 ], [ 75.1896078, 24.3122779 ], [ 75.176463, 24.3183184 ], [ 75.1653697, 24.3194368 ], [ 75.1531403, 24.3297996 ], [ 75.1448091, 24.3280088 ], [ 75.1395873, 24.3305826 ], [ 75.1323944, 24.3306959 ], [ 75.1260736, 24.3333053 ], [ 75.1234279, 24.3364337 ], [ 75.1225163, 24.3425098 ], [ 75.1317844, 24.3466085 ], [ 75.1325975, 24.3486579 ], [ 75.1161993, 24.3501475 ], [ 75.1158933, 24.3561559 ], [ 75.1077282, 24.3574553 ], [ 75.0885501, 24.356188 ], [ 75.0825454, 24.3494874 ], [ 75.0794445, 24.3402596 ], [ 75.0646636, 24.3399384 ], [ 75.0644644, 24.3338758 ], [ 75.0629122, 24.3346652 ], [ 75.0614755, 24.330656 ], [ 75.0586586, 24.3283887 ], [ 75.0585172, 24.3256982 ], [ 75.0513344, 24.3256949 ], [ 75.041675, 24.3237398 ], [ 75.0411773, 24.3313279 ], [ 75.0390472, 24.334121 ], [ 75.0402538, 24.3348078 ], [ 75.0443389, 24.333546 ], [ 75.0487346, 24.3400803 ], [ 75.05589, 24.3558427 ], [ 75.0457961, 24.359264 ], [ 75.0426841, 24.3633206 ], [ 75.0370487, 24.3672177 ], [ 75.0225233, 24.3703686 ], [ 75.0240204, 24.3655169 ], [ 75.0232176, 24.3648843 ], [ 75.0131489, 24.3658794 ], [ 75.0106585, 24.3568583 ], [ 75.0072117, 24.3540117 ], [ 75.0041379, 24.3477346 ], [ 75.0048618, 24.3430404 ], [ 74.9958155, 24.3404137 ], [ 74.9976582, 24.3325101 ], [ 74.9942019, 24.3325212 ], [ 74.9897647, 24.3404191 ], [ 74.9879308, 24.3420537 ], [ 74.9853749, 24.3420234 ], [ 74.9830606, 24.3326659 ], [ 74.9783337, 24.3371203 ], [ 74.9787753, 24.3385562 ], [ 74.9756856, 24.3373131 ], [ 74.9747507, 24.3266532 ], [ 74.9705751, 24.3193243 ], [ 74.9651649, 24.3158788 ], [ 74.9587366, 24.3162342 ], [ 74.9585424, 24.30523 ], [ 74.9525981, 24.2952875 ], [ 74.9614784, 24.283913 ], [ 74.9631503, 24.2742205 ], [ 74.9626131, 24.2669623 ], [ 74.9569312, 24.2611613 ], [ 74.9536348, 24.2555801 ], [ 74.9422786, 24.2514111 ], [ 74.9396547, 24.2479189 ], [ 74.9364566, 24.2463677 ], [ 74.9364228, 24.242915 ], [ 74.9289729, 24.2389951 ], [ 74.9250914, 24.2339247 ], [ 74.9255685, 24.228963 ], [ 74.9109441, 24.2179151 ], [ 74.90917, 24.2150067 ], [ 74.9115905, 24.2124031 ], [ 74.910077, 24.2101973 ], [ 74.9057694, 24.2130545 ], [ 74.8980238, 24.214488 ], [ 74.897104, 24.2272893 ], [ 74.887136, 24.229692 ], [ 74.8779209, 24.2378226 ], [ 74.8675773, 24.2430861 ], [ 74.8573573, 24.238422 ], [ 74.8499879, 24.2366741 ], [ 74.8392605, 24.2372723 ], [ 74.8333176, 24.2398619 ], [ 74.8232794, 24.2398182 ], [ 74.8118901, 24.2441386 ], [ 74.7950384, 24.2431648 ], [ 74.7868731, 24.2397519 ], [ 74.7763631, 24.2387254 ], [ 74.7692093, 24.239348 ], [ 74.7614931, 24.2413875 ], [ 74.7587393, 24.2432814 ], [ 74.7543242, 24.2421675 ], [ 74.7543515, 24.2445465 ], [ 74.75, 24.2486759 ], [ 74.7471611, 24.2551523 ], [ 74.7491783, 24.2584054 ], [ 74.7589698, 24.2657894 ], [ 74.7656065, 24.2727642 ], [ 74.7746139, 24.278052 ], [ 74.7751524, 24.2824175 ], [ 74.7814114, 24.2894455 ], [ 74.7807541, 24.3059941 ], [ 74.7836592, 24.3145052 ], [ 74.7831384, 24.3193484 ], [ 74.7788591, 24.3238555 ], [ 74.7811796, 24.3383379 ], [ 74.7909323, 24.3451681 ], [ 74.7923804, 24.3491426 ], [ 74.7961223, 24.3537672 ], [ 74.8019931, 24.3585505 ], [ 74.8010732, 24.3643688 ], [ 74.8084243, 24.3765513 ], [ 74.8072589, 24.3808302 ], [ 74.8109643, 24.3825427 ], [ 74.8173089, 24.3794936 ], [ 74.8225921, 24.3795859 ], [ 74.824915, 24.3882628 ], [ 74.8251913, 24.4000176 ], [ 74.8302433, 24.4015178 ], [ 74.8349839, 24.4064937 ], [ 74.8397749, 24.4081425 ], [ 74.8473984, 24.4204044 ], [ 74.8498679, 24.4225852 ], [ 74.8550986, 24.4241387 ], [ 74.855483, 24.4255292 ], [ 74.8538053, 24.4343224 ], [ 74.8552272, 24.4408985 ], [ 74.8538726, 24.4445288 ], [ 74.8514068, 24.4456028 ], [ 74.8471323, 24.4424378 ], [ 74.8413585, 24.4410056 ], [ 74.833927, 24.4431751 ], [ 74.831881, 24.4420956 ], [ 74.8322767, 24.438358 ], [ 74.8300935, 24.4351389 ], [ 74.8259267, 24.4364738 ], [ 74.8137526, 24.4367402 ], [ 74.818987, 24.452686 ], [ 74.8217582, 24.4531067 ], [ 74.8195456, 24.4605452 ], [ 74.8153452, 24.4684748 ], [ 74.8061823, 24.4671032 ], [ 74.7868846, 24.4722111 ], [ 74.7817937, 24.4675144 ], [ 74.7806522, 24.4639973 ], [ 74.7771385, 24.4605011 ], [ 74.7694182, 24.4632089 ], [ 74.7656571, 24.4667679 ], [ 74.7501168, 24.4666972 ], [ 74.7481524, 24.4699202 ], [ 74.7460857, 24.469782 ], [ 74.7443238, 24.4737152 ], [ 74.7316985, 24.4807982 ], [ 74.7279467, 24.4890841 ], [ 74.7205288, 24.4891572 ], [ 74.708727, 24.4864735 ], [ 74.7121628, 24.5004633 ], [ 74.71814, 24.5089763 ], [ 74.7247786, 24.5120367 ], [ 74.7246724, 24.5131808 ], [ 74.7446258, 24.5134577 ], [ 74.7465256, 24.5196943 ], [ 74.7458017, 24.5253513 ], [ 74.7435825, 24.5274764 ], [ 74.7447884, 24.5292174 ], [ 74.7442224, 24.5323122 ], [ 74.7555349, 24.5348826 ], [ 74.7527476, 24.5440813 ], [ 74.7524432, 24.5507641 ], [ 74.7535929, 24.553602 ], [ 74.7491551, 24.5594562 ], [ 74.7485942, 24.5626363 ], [ 74.7445949, 24.5677673 ], [ 74.7435129, 24.5714588 ], [ 74.7492902, 24.5746135 ], [ 74.7532907, 24.574347 ], [ 74.751981, 24.5774291 ], [ 74.7527816, 24.5796431 ], [ 74.7581986, 24.5771637 ], [ 74.7600742, 24.5776634 ], [ 74.7600955, 24.5794427 ], [ 74.7659171, 24.5796776 ], [ 74.7668525, 24.5785592 ], [ 74.7781312, 24.5814708 ], [ 74.7806275, 24.5856877 ], [ 74.7864299, 24.5859308 ], [ 74.7859616, 24.5941625 ], [ 74.7833338, 24.5943619 ], [ 74.7828208, 24.6054248 ], [ 74.7809323, 24.6053686 ], [ 74.7794001, 24.6154403 ], [ 74.7812919, 24.6154973 ], [ 74.7819298, 24.6178916 ], [ 74.7847259, 24.6177736 ], [ 74.7857459, 24.6192924 ], [ 74.7917371, 24.6197659 ], [ 74.7902065, 24.6222836 ], [ 74.7912824, 24.6317817 ], [ 74.7965194, 24.6346744 ], [ 74.8029426, 24.6341998 ], [ 74.8063148, 24.6483971 ], [ 74.8104624, 24.6502132 ], [ 74.8117542, 24.6520528 ], [ 74.8141386, 24.6501818 ], [ 74.8162609, 24.6585475 ], [ 74.8136655, 24.6593165 ], [ 74.814585, 24.6657525 ], [ 74.8035855, 24.6653592 ], [ 74.8007224, 24.6666018 ], [ 74.7980037, 24.6639701 ], [ 74.7907527, 24.6650755 ], [ 74.7902178, 24.6598726 ], [ 74.7885036, 24.6595631 ], [ 74.7885108, 24.6582581 ], [ 74.7860185, 24.6588554 ], [ 74.7839411, 24.6577527 ], [ 74.7805464, 24.6605046 ], [ 74.7742776, 24.6594838 ], [ 74.7719368, 24.6614807 ], [ 74.7740341, 24.6657467 ], [ 74.7776979, 24.6813179 ], [ 74.7807422, 24.6841853 ], [ 74.7843074, 24.6917633 ], [ 74.7835511, 24.6975559 ], [ 74.7845078, 24.7017117 ], [ 74.7876128, 24.7041772 ], [ 74.7841624, 24.7128063 ], [ 74.7822125, 24.7254519 ], [ 74.7796046, 24.732452 ], [ 74.7821077, 24.7288069 ], [ 74.784843, 24.7281381 ], [ 74.7890937, 24.7318018 ], [ 74.8039673, 24.733967 ], [ 74.7992135, 24.7637658 ], [ 74.7997778, 24.7790681 ], [ 74.8087998, 24.7810496 ], [ 74.8144115, 24.7606355 ], [ 74.8169639, 24.7481368 ], [ 74.8161049, 24.748008 ], [ 74.8232092, 24.7350385 ], [ 74.8304378, 24.7277721 ], [ 74.8298495, 24.7204243 ], [ 74.83649, 24.707953 ], [ 74.8358297, 24.7067394 ], [ 74.8437341, 24.6987008 ], [ 74.8480974, 24.6997665 ], [ 74.8463865, 24.6962289 ], [ 74.8494809, 24.6879141 ], [ 74.8545028, 24.6876481 ], [ 74.8518771, 24.6845116 ], [ 74.8507346, 24.6851788 ], [ 74.8501772, 24.6842029 ], [ 74.8514997, 24.6776654 ], [ 74.8530854, 24.6781772 ], [ 74.8524952, 24.6842187 ], [ 74.8593814, 24.6828435 ], [ 74.860137, 24.6789381 ], [ 74.8579578, 24.6743571 ], [ 74.8607747, 24.6743598 ], [ 74.8635473, 24.6696524 ], [ 74.8649854, 24.6696221 ], [ 74.864891, 24.6654856 ], [ 74.8672388, 24.664991 ], [ 74.8686887, 24.663055 ], [ 74.8683685, 24.65741 ], [ 74.8755777, 24.6526566 ], [ 74.8713877, 24.6525491 ], [ 74.8716566, 24.6505037 ], [ 74.8737771, 24.6496837 ], [ 74.8732269, 24.646468 ], [ 74.8765508, 24.6428492 ], [ 74.8782021, 24.6468063 ], [ 74.8815164, 24.6426002 ], [ 74.8843931, 24.6414239 ], [ 74.8847946, 24.6398978 ], [ 74.88323, 24.6382168 ], [ 74.8846826, 24.6382044 ], [ 74.8890785, 24.6338319 ], [ 74.893976, 24.6378093 ], [ 74.8940221, 24.6418013 ], [ 74.8930184, 24.642636 ], [ 74.8949789, 24.6439379 ], [ 74.898612, 24.6418586 ], [ 74.8981115, 24.6375683 ], [ 74.9018206, 24.6328067 ], [ 74.9013578, 24.6370376 ], [ 74.9033119, 24.6401051 ], [ 74.905258, 24.640874 ], [ 74.9094498, 24.6379188 ], [ 74.9114895, 24.6388503 ], [ 74.9138623, 24.6370002 ], [ 74.9172361, 24.6377697 ], [ 74.9197568, 24.6362538 ], [ 74.9214948, 24.6378353 ], [ 74.9249334, 24.6379093 ], [ 74.9291688, 24.6354592 ], [ 74.9360092, 24.6397884 ], [ 74.9370426, 24.6380142 ], [ 74.9391473, 24.6379518 ], [ 74.9407962, 24.6405897 ], [ 74.9430899, 24.6378043 ], [ 74.944101, 24.6419005 ], [ 74.941693, 24.6458147 ], [ 74.9421964, 24.6471426 ], [ 74.9438215, 24.6480914 ], [ 74.9474096, 24.645722 ], [ 74.9497648, 24.6497193 ], [ 74.9512975, 24.6472406 ], [ 74.9540281, 24.6519559 ], [ 74.9530244, 24.6537438 ], [ 74.9564627, 24.6557905 ], [ 74.9585511, 24.6609346 ], [ 74.9612754, 24.6560402 ], [ 74.9622783, 24.6564243 ], [ 74.9607586, 24.6654689 ], [ 74.9648933, 24.6702928 ], [ 74.9601863, 24.6777652 ], [ 74.9761146, 24.6787665 ], [ 74.983053, 24.6819465 ], [ 74.9971597, 24.6839184 ], [ 75.00172, 24.6864587 ], [ 75.0004596, 24.6918371 ], [ 74.9919335, 24.6932231 ], [ 74.9932151, 24.7110099 ], [ 74.9926801, 24.722435 ], [ 74.993882, 24.7260085 ], [ 74.992387, 24.7317458 ], [ 75.016033, 24.7321203 ], [ 75.0144049, 24.7346999 ], [ 75.0151502, 24.7401221 ], [ 75.0069291, 24.7712456 ], [ 75.0014888, 24.7745241 ], [ 74.9991169, 24.7747469 ], [ 74.9904104, 24.7692289 ], [ 74.9844132, 24.7688272 ], [ 74.9817148, 24.7641212 ], [ 74.9756191, 24.7636875 ], [ 74.9720203, 24.7637756 ], [ 74.9691483, 24.7706116 ], [ 74.9647721, 24.7693188 ], [ 74.9534289, 24.7736811 ], [ 74.9479847, 24.7719911 ], [ 74.9406147, 24.7747435 ], [ 74.9373882, 24.7783605 ], [ 74.9308919, 24.7790988 ], [ 74.9212921, 24.7706973 ], [ 74.9145334, 24.7692006 ], [ 74.9104206, 24.7704204 ], [ 74.9067107, 24.7818278 ], [ 74.8921056, 24.7835952 ], [ 74.8885213, 24.7864123 ], [ 74.8804224, 24.7894146 ], [ 74.8793201, 24.797377 ], [ 74.860435, 24.7984868 ], [ 74.8591115, 24.7958798 ], [ 74.8609377, 24.7854262 ], [ 74.860171, 24.7794173 ], [ 74.8493729, 24.7761345 ], [ 74.8483166, 24.7796707 ], [ 74.840503, 24.7897402 ], [ 74.8386955, 24.7980368 ], [ 74.8615188, 24.8041365 ], [ 74.8595343, 24.8077085 ], [ 74.8608482, 24.8224607 ], [ 74.858511, 24.8396189 ], [ 74.8510663, 24.8512863 ], [ 74.8499695, 24.8573664 ], [ 74.8465734, 24.8604966 ], [ 74.8430343, 24.874171 ], [ 74.8429348, 24.878781 ], [ 74.8403749, 24.8848155 ], [ 74.8374843, 24.8872613 ], [ 74.8307398, 24.88693 ], [ 74.8300504, 24.8912044 ], [ 74.8284318, 24.8923819 ], [ 74.8252862, 24.9001492 ], [ 74.8248911, 24.9229077 ], [ 74.8265289, 24.9245061 ], [ 74.8263819, 24.9335201 ], [ 74.8338632, 24.9441342 ], [ 74.8332243, 24.9597156 ], [ 74.8426344, 24.9688493 ], [ 74.8481462, 24.9661422 ], [ 74.8517607, 24.9670726 ], [ 74.8575646, 24.9638912 ], [ 74.8594167, 24.9615758 ], [ 74.8591104, 24.9557891 ], [ 74.8625814, 24.9531804 ], [ 74.8657068, 24.9350171 ], [ 74.8694795, 24.9249741 ], [ 74.8793944, 24.9299799 ], [ 74.8806966, 24.93736 ], [ 74.8878452, 24.937549 ], [ 74.8919479, 24.9297398 ], [ 74.9024473, 24.9300045 ], [ 74.9062672, 24.9236483 ], [ 74.9077953, 24.9182856 ], [ 74.9133431, 24.9161763 ], [ 74.9130043, 24.9086925 ], [ 74.9163019, 24.9071648 ], [ 74.9124031, 24.9008928 ], [ 74.9104117, 24.8943708 ], [ 74.9155314, 24.8875942 ], [ 74.920657, 24.8848709 ], [ 74.9238957, 24.8783023 ], [ 74.9266969, 24.8798135 ], [ 74.9315885, 24.8754017 ], [ 74.9322346, 24.8813146 ], [ 74.9412845, 24.8807015 ], [ 74.941081, 24.8794015 ], [ 74.9438919, 24.8800457 ], [ 74.9449848, 24.8789078 ], [ 74.9492466, 24.8814515 ], [ 74.952606, 24.8806824 ], [ 74.9508762, 24.876007 ], [ 74.9518957, 24.8764578 ], [ 74.9510681, 24.8742059 ], [ 74.951929, 24.8741603 ], [ 74.9482075, 24.8645748 ], [ 74.9567592, 24.860702 ], [ 74.9586622, 24.8581867 ], [ 74.968115, 24.8561182 ], [ 74.980574, 24.8586468 ], [ 74.9840158, 24.8568478 ], [ 74.9849697, 24.8533161 ], [ 74.9921823, 24.8545697 ], [ 74.9938774, 24.8534639 ], [ 75.0015738, 24.8561176 ], [ 75.0083146, 24.8564244 ], [ 75.0147632, 24.8540035 ], [ 75.0209882, 24.8485704 ], [ 75.0294256, 24.846668 ], [ 75.0330476, 24.8444094 ], [ 75.0387042, 24.8454963 ], [ 75.041961, 24.846972 ], [ 75.0414471, 24.8492119 ], [ 75.0489551, 24.8504831 ], [ 75.0515593, 24.8529974 ], [ 75.051996, 24.8559279 ], [ 75.0565916, 24.8621442 ], [ 75.0588387, 24.8622156 ], [ 75.0598961, 24.8635772 ], [ 75.0593557, 24.8668801 ], [ 75.0554846, 24.8698272 ], [ 75.0553054, 24.8718945 ], [ 75.0627682, 24.8714801 ], [ 75.0638553, 24.867691 ], [ 75.0654443, 24.86802 ], [ 75.0765344, 24.880681 ], [ 75.0882054, 24.8787057 ], [ 75.0871949, 24.8707904 ], [ 75.0984916, 24.8724542 ], [ 75.1124902, 24.8785179 ], [ 75.1169303, 24.8782616 ], [ 75.118924, 24.882297 ], [ 75.1185259, 24.8852504 ], [ 75.11625, 24.8918993 ], [ 75.1144043, 24.8927722 ], [ 75.1174114, 24.8950096 ], [ 75.1160964, 24.8970607 ], [ 75.113339, 24.8972435 ], [ 75.1132373, 24.8997135 ], [ 75.1159218, 24.9062139 ], [ 75.1176353, 24.9066506 ], [ 75.1194855, 24.9101803 ], [ 75.116426, 24.910599 ], [ 75.1167682, 24.9217966 ], [ 75.1183713, 24.925602 ], [ 75.1141226, 24.9364382 ], [ 75.1150804, 24.9438656 ], [ 75.1135612, 24.9668083 ], [ 75.127571, 24.9678782 ], [ 75.1303542, 24.971872 ], [ 75.13559, 24.9760397 ], [ 75.1411818, 24.9783465 ], [ 75.1384477, 24.9798527 ], [ 75.1294909, 24.9800686 ], [ 75.1321946, 24.9836108 ], [ 75.1372261, 24.9861892 ], [ 75.1393559, 24.9856588 ], [ 75.1421623, 24.9898719 ], [ 75.1517707, 24.989074 ], [ 75.1531155, 24.9947487 ], [ 75.1558193, 24.9936396 ], [ 75.1586827, 25.0010962 ], [ 75.1663257, 25.0028805 ], [ 75.1661266, 25.0059242 ], [ 75.1685695, 25.0059305 ], [ 75.1661211, 25.0129007 ], [ 75.1614705, 25.0186315 ], [ 75.1567311, 25.0211202 ], [ 75.1516258, 25.0203578 ], [ 75.1513603, 25.0261831 ], [ 75.1522358, 25.0314245 ], [ 75.1571216, 25.0358674 ], [ 75.155363, 25.0366052 ], [ 75.1559443, 25.037711 ], [ 75.1645195, 25.041856 ], [ 75.1652484, 25.0438371 ], [ 75.1641182, 25.0456901 ], [ 75.167081, 25.0484142 ] ], [ [ 75.2058534, 24.8786214 ], [ 75.2007325, 24.8678406 ], [ 75.2081362, 24.8613957 ], [ 75.2087426, 24.8540254 ], [ 75.2100201, 24.8544436 ], [ 75.2160071, 24.8507548 ], [ 75.2179446, 24.8465479 ], [ 75.2226366, 24.8440936 ], [ 75.2326553, 24.8481198 ], [ 75.2430377, 24.8606476 ], [ 75.2467222, 24.8619854 ], [ 75.2491284, 24.8670724 ], [ 75.2506706, 24.8805084 ], [ 75.2429609, 24.887222 ], [ 75.23894, 24.8865963 ], [ 75.2300849, 24.8772983 ], [ 75.2216255, 24.8737807 ], [ 75.2194014, 24.8756083 ], [ 75.2212603, 24.8827221 ], [ 75.220308, 24.8877705 ], [ 75.2160483, 24.8889597 ], [ 75.2132691, 24.8933184 ], [ 75.2084736, 24.8943004 ], [ 75.2058534, 24.8786214 ] ] ] } }
]
}
