{
"type": "FeatureCollection",
"name": "2319",
"crs": { "type": "name", "properties": { "name": "urn:ogc:def:crs:OGC:1.3:CRS84" } },
"features": [
{ "type": "Feature", "properties": { "code": "2319", "name": "Mandsaur", "type": "district" }, "geometry": { "type": "Polygon", "coordinates": [ [ [ 75.7847358, 24.7617164 ], [ 75.7979728, 24.7563097 ], [ 75.8025663, 24.7562626 ], [ 75.8264569, 24.7348607 ], [ 75.8332033, 24.7323038 ], [ 75.834132, 24.7284876 ], [ 75.8360207, 24.7277637 ], [ 75.8373175, 24.7250472 ], [ 75.8378043, 24.718005 ], [ 75.8338663, 24.6960278 ], [ 75.8335721, 24.6882043 ], [ 75.8285327, 24.6764785 ], [ 75.8284204, 24.672203 ], [ 75.82494, 24.6674539 ], [ 75.8384476, 24.6686253 ], [ 75.8412626, 24.6654352 ], [ 75.8477638, 24.6630191 ], [ 75.8469148, 24.6609603 ], [ 75.8481391, 24.6564199 ], [ 75.8469141, 24.6518792 ], [ 75.8487566, 24.6474008 ], [ 75.8409663, 24.6381067 ], [ 75.8423694, 24.6337758 ], [ 75.8462731, 24.6309949 ], [ 75.842598, 24.6280761 ], [ 75.8447032, 24.6272176 ], [ 75.842118, 24.6257533 ], [ 75.8415564, 24.6237561 ], [ 75.8381091, 24.623098 ], [ 75.8371559, 24.6208998 ], [ 75.8282319, 24.6204163 ], [ 75.8247008, 24.6144934 ], [ 75.8258764, 24.6107301 ], [ 75.8328498, 24.6050992 ], [ 75.836386, 24.606152 ], [ 75.8356123, 24.6011984 ], [ 75.832528, 24.5955937 ], [ 75.8354622, 24.5949498 ], [ 75.8374671, 24.5964152 ], [ 75.8416567, 24.6070167 ], [ 75.8457949, 24.6076392 ], [ 75.8458715, 24.6094811 ], [ 75.8492394, 24.6108755 ], [ 75.8630237, 24.6100339 ], [ 75.8628438, 24.6061336 ], [ 75.8711548, 24.6066637 ], [ 75.8726418, 24.5960438 ], [ 75.8721875, 24.5903434 ], [ 75.8783661, 24.5833853 ], [ 75.8820772, 24.5816523 ], [ 75.8941173, 24.5797616 ], [ 75.8987341, 24.5762843 ], [ 75.906447, 24.5756195 ], [ 75.9144166, 24.5722389 ], [ 75.9148177, 24.5690035 ], [ 75.9121896, 24.561307 ], [ 75.905846, 24.5627631 ], [ 75.9052527, 24.5530179 ], [ 75.9035842, 24.5509779 ], [ 75.9041931, 24.5463956 ], [ 75.9155967, 24.5430124 ], [ 75.9205946, 24.5358837 ], [ 75.9233388, 24.5351761 ], [ 75.9205501, 24.5216603 ], [ 75.9110459, 24.5136805 ], [ 75.9058776, 24.51354 ], [ 75.9011229, 24.5187884 ], [ 75.8905268, 24.5188287 ], [ 75.8910065, 24.5147755 ], [ 75.8896614, 24.5150859 ], [ 75.8898831, 24.5101357 ], [ 75.888095, 24.5070937 ], [ 75.8981984, 24.5045188 ], [ 75.902818, 24.5045951 ], [ 75.9039326, 24.4969076 ], [ 75.9079168, 24.4923683 ], [ 75.9117016, 24.4916907 ], [ 75.9100903, 24.4830939 ], [ 75.9053911, 24.4724746 ], [ 75.9088596, 24.4621811 ], [ 75.9090597, 24.4550093 ], [ 75.9026283, 24.453788 ], [ 75.9030618, 24.4495589 ], [ 75.9002325, 24.4422155 ], [ 75.8903722, 24.4393704 ], [ 75.8895619, 24.4377676 ], [ 75.8757546, 24.4303704 ], [ 75.8750858, 24.4263645 ], [ 75.8611945, 24.4215539 ], [ 75.8570561, 24.4185293 ], [ 75.8464395, 24.4157398 ], [ 75.8420145, 24.4162747 ], [ 75.8387902, 24.4141793 ], [ 75.8355696, 24.4148745 ], [ 75.8340715, 24.4172895 ], [ 75.826004, 24.4234298 ], [ 75.8248407, 24.4273105 ], [ 75.8168728, 24.4294373 ], [ 75.8098608, 24.4340429 ], [ 75.8144491, 24.4503647 ], [ 75.8140656, 24.4612989 ], [ 75.8033501, 24.4682515 ], [ 75.7894036, 24.4715311 ], [ 75.7854655, 24.4673618 ], [ 75.7843141, 24.4581713 ], [ 75.7860635, 24.4532604 ], [ 75.7811919, 24.449619 ], [ 75.7733957, 24.4496958 ], [ 75.7739771, 24.4416519 ], [ 75.7714916, 24.441876 ], [ 75.768912, 24.4367775 ], [ 75.7632004, 24.4331713 ], [ 75.7617925, 24.4308637 ], [ 75.7578626, 24.4311451 ], [ 75.7476001, 24.4241834 ], [ 75.747591, 24.4228877 ], [ 75.7558905, 24.4206573 ], [ 75.7546863, 24.416702 ], [ 75.7553071, 24.4065278 ], [ 75.7498964, 24.4043837 ], [ 75.7495171, 24.4009719 ], [ 75.7432165, 24.399343 ], [ 75.7427862, 24.3977318 ], [ 75.7353353, 24.3988096 ], [ 75.7279086, 24.3964111 ], [ 75.729249, 24.3780962 ], [ 75.7330438, 24.3778724 ], [ 75.7378678, 24.3823378 ], [ 75.738978, 24.3782382 ], [ 75.7388188, 24.3656709 ], [ 75.7399726, 24.3609617 ], [ 75.7375267, 24.3535559 ], [ 75.7407523, 24.3512873 ], [ 75.7431967, 24.3516826 ], [ 75.7421207, 24.3498553 ], [ 75.7431808, 24.3400542 ], [ 75.7382245, 24.334817 ], [ 75.7398381, 24.3321479 ], [ 75.7488046, 24.3269856 ], [ 75.7573436, 24.3192514 ], [ 75.7609569, 24.3145009 ], [ 75.7664655, 24.298018 ], [ 75.7722812, 24.2966926 ], [ 75.7792726, 24.2975013 ], [ 75.7858053, 24.2966367 ], [ 75.7872078, 24.2987177 ], [ 75.8018278, 24.3021344 ], [ 75.8035339, 24.2984316 ], [ 75.8065233, 24.299784 ], [ 75.8078247, 24.2975599 ], [ 75.8107272, 24.2960904 ], [ 75.808931, 24.294095 ], [ 75.8108935, 24.2927975 ], [ 75.8121826, 24.29331 ], [ 75.8136491, 24.2899515 ], [ 75.8121928, 24.2884707 ], [ 75.8118866, 24.2854949 ], [ 75.8184376, 24.2806912 ], [ 75.8167872, 24.27837 ], [ 75.8131864, 24.2784119 ], [ 75.8117133, 24.2752814 ], [ 75.8125703, 24.2713798 ], [ 75.8141903, 24.2712808 ], [ 75.814202, 24.2677043 ], [ 75.8116128, 24.2579101 ], [ 75.8192215, 24.2569662 ], [ 75.8186371, 24.2549192 ], [ 75.812989, 24.2504699 ], [ 75.8140191, 24.2451909 ], [ 75.8163988, 24.2422331 ], [ 75.817984, 24.2421478 ], [ 75.8180163, 24.2387202 ], [ 75.8254953, 24.2369594 ], [ 75.8302317, 24.2337591 ], [ 75.8236529, 24.229979 ], [ 75.8179424, 24.2294725 ], [ 75.8156834, 24.2258088 ], [ 75.8093558, 24.2297035 ], [ 75.8098825, 24.2249953 ], [ 75.807365, 24.2177655 ], [ 75.7948984, 24.2146972 ], [ 75.7941583, 24.2112736 ], [ 75.7927985, 24.2103459 ], [ 75.7774445, 24.2099825 ], [ 75.7722326, 24.2005485 ], [ 75.7725882, 24.1941885 ], [ 75.7709765, 24.1889675 ], [ 75.7739428, 24.1812711 ], [ 75.7681228, 24.1785279 ], [ 75.7637572, 24.1744992 ], [ 75.7638781, 24.1699963 ], [ 75.7603108, 24.1660403 ], [ 75.7615178, 24.162092 ], [ 75.7587126, 24.1587823 ], [ 75.7591655, 24.1554745 ], [ 75.7516246, 24.1477131 ], [ 75.7509592, 24.143327 ], [ 75.7558329, 24.1402864 ], [ 75.7576958, 24.1349124 ], [ 75.762203, 24.1307264 ], [ 75.7641189, 24.1211027 ], [ 75.7700308, 24.1157895 ], [ 75.7735727, 24.1189914 ], [ 75.7786421, 24.1192591 ], [ 75.7826367, 24.1159467 ], [ 75.7840511, 24.1122817 ], [ 75.7825892, 24.1097513 ], [ 75.7832664, 24.1078512 ], [ 75.7876017, 24.1047943 ], [ 75.7908917, 24.105414 ], [ 75.7891329, 24.1041903 ], [ 75.7876185, 24.0987024 ], [ 75.7928597, 24.0918474 ], [ 75.8057025, 24.09957 ], [ 75.8169037, 24.0855794 ], [ 75.8356965, 24.092116 ], [ 75.8365382, 24.0884039 ], [ 75.8350349, 24.0735101 ], [ 75.8367234, 24.0570634 ], [ 75.8149817, 24.0515405 ], [ 75.8104493, 24.0486474 ], [ 75.7816945, 24.0425289 ], [ 75.7805749, 24.0395225 ], [ 75.7819328, 24.0364042 ], [ 75.7830904, 24.0221373 ], [ 75.7784137, 24.0178665 ], [ 75.7752768, 24.0169883 ], [ 75.7753726, 24.0141112 ], [ 75.776766, 24.0144609 ], [ 75.7733934, 24.0078667 ], [ 75.7626592, 24.0098849 ], [ 75.7639893, 24.0053714 ], [ 75.7684652, 24.0007127 ], [ 75.7684309, 23.9975278 ], [ 75.7653398, 23.9926751 ], [ 75.7535233, 23.9909769 ], [ 75.7422819, 23.9927226 ], [ 75.7419443, 23.9886355 ], [ 75.7434031, 23.9884658 ], [ 75.7436413, 23.9862925 ], [ 75.7414498, 23.9829568 ], [ 75.7411303, 23.9769387 ], [ 75.7362064, 23.9753322 ], [ 75.7306708, 23.9767766 ], [ 75.7289254, 23.9731677 ], [ 75.7295332, 23.970252 ], [ 75.7182782, 23.9683362 ], [ 75.7175181, 23.9668585 ], [ 75.7017317, 23.9665928 ], [ 75.6987549, 23.9823354 ], [ 75.698824, 23.9878445 ], [ 75.6925032, 23.9869564 ], [ 75.6869931, 23.988774 ], [ 75.6877208, 24.0054617 ], [ 75.6829433, 24.0054125 ], [ 75.6831123, 24.0063594 ], [ 75.6781839, 24.0073104 ], [ 75.6743385, 24.017676 ], [ 75.6719649, 24.0176759 ], [ 75.6663963, 24.0135279 ], [ 75.6580997, 24.0102418 ], [ 75.6546046, 24.0064138 ], [ 75.6509016, 24.0063133 ], [ 75.6504857, 24.0051655 ], [ 75.6526441, 24.0039687 ], [ 75.6516329, 24.0028209 ], [ 75.6475169, 24.0035054 ], [ 75.6410848, 24.0007484 ], [ 75.6400535, 23.9978871 ], [ 75.635024, 23.9978824 ], [ 75.630002, 23.9950475 ], [ 75.6258106, 23.9963878 ], [ 75.6197674, 23.9949492 ], [ 75.6153702, 23.9964256 ], [ 75.6111369, 23.9954516 ], [ 75.6070969, 23.9925537 ], [ 75.6037894, 23.9954465 ], [ 75.5980175, 23.9941414 ], [ 75.5972972, 23.9912137 ], [ 75.5955248, 23.9899999 ], [ 75.5954699, 23.9944726 ], [ 75.5879052, 23.99064 ], [ 75.5813417, 23.9914011 ], [ 75.580997, 23.9967448 ], [ 75.5795297, 23.9983852 ], [ 75.5775052, 23.9941387 ], [ 75.5758019, 23.9941314 ], [ 75.5762848, 23.9971645 ], [ 75.5723497, 23.9987779 ], [ 75.568686, 24.0051471 ], [ 75.5655074, 24.0076843 ], [ 75.5482204, 24.0072149 ], [ 75.5396301, 24.0090563 ], [ 75.5210511, 24.0250208 ], [ 75.5130666, 24.014296 ], [ 75.5046862, 24.0059647 ], [ 75.4931053, 23.9978971 ], [ 75.4832304, 23.9875462 ], [ 75.4750252, 23.9831145 ], [ 75.4713535, 23.9790388 ], [ 75.46885, 23.9744536 ], [ 75.4653129, 23.947526 ], [ 75.460036, 23.9324176 ], [ 75.4594841, 23.9186035 ], [ 75.4572469, 23.9117942 ], [ 75.4532833, 23.9080347 ], [ 75.447164, 23.9059701 ], [ 75.4403096, 23.9061342 ], [ 75.4307296, 23.9083204 ], [ 75.4256625, 23.8997786 ], [ 75.4139052, 23.8859301 ], [ 75.3957429, 23.8785727 ], [ 75.386701, 23.8766779 ], [ 75.3750464, 23.8699927 ], [ 75.3681886, 23.8621064 ], [ 75.364765, 23.8554755 ], [ 75.355886, 23.8333963 ], [ 75.3518674, 23.8130722 ], [ 75.3483293, 23.8061412 ], [ 75.3445324, 23.8030211 ], [ 75.3375278, 23.8015675 ], [ 75.3324776, 23.8022738 ], [ 75.3290983, 23.8053468 ], [ 75.3289238, 23.8134987 ], [ 75.3304758, 23.8191378 ], [ 75.329677, 23.8263601 ], [ 75.3315573, 23.8305684 ], [ 75.3341394, 23.8309765 ], [ 75.3355045, 23.8326409 ], [ 75.3345793, 23.8406215 ], [ 75.329379, 23.8404829 ], [ 75.323818, 23.8421021 ], [ 75.3196601, 23.8476739 ], [ 75.3166133, 23.8478281 ], [ 75.3113242, 23.8457424 ], [ 75.3052657, 23.846454 ], [ 75.3018659, 23.8474745 ], [ 75.2989712, 23.8524677 ], [ 75.2924991, 23.8523661 ], [ 75.286068, 23.8478621 ], [ 75.2775624, 23.8452487 ], [ 75.2741995, 23.8428341 ], [ 75.2733206, 23.8409294 ], [ 75.2746465, 23.8361672 ], [ 75.2766554, 23.8340479 ], [ 75.2736538, 23.8271244 ], [ 75.2702252, 23.8228077 ], [ 75.2558038, 23.8228365 ], [ 75.2564729, 23.8321761 ], [ 75.2538659, 23.8367444 ], [ 75.2517693, 23.8460841 ], [ 75.2490639, 23.8481624 ], [ 75.2455344, 23.848856 ], [ 75.2419496, 23.863278 ], [ 75.2345135, 23.8641276 ], [ 75.2282441, 23.8630937 ], [ 75.2282861, 23.860403 ], [ 75.2262381, 23.8589824 ], [ 75.2170044, 23.8581033 ], [ 75.2158707, 23.8514497 ], [ 75.2111888, 23.8449561 ], [ 75.2104301, 23.8407264 ], [ 75.1999354, 23.8295812 ], [ 75.1861108, 23.8293932 ], [ 75.1711734, 23.8324368 ], [ 75.1629725, 23.8313645 ], [ 75.1562885, 23.8320207 ], [ 75.1546589, 23.8310594 ], [ 75.1528189, 23.832405 ], [ 75.1374481, 23.8321769 ], [ 75.1371584, 23.8301408 ], [ 75.1322705, 23.8309854 ], [ 75.1288013, 23.8426736 ], [ 75.1240797, 23.8500547 ], [ 75.1206979, 23.8505919 ], [ 75.1161047, 23.8365202 ], [ 75.1155211, 23.8290983 ], [ 75.101358, 23.8292097 ], [ 75.100191, 23.823905 ], [ 75.0931753, 23.816676 ], [ 75.0879983, 23.8167111 ], [ 75.0849899, 23.8180963 ], [ 75.0788498, 23.8219002 ], [ 75.0783487, 23.823593 ], [ 75.0667773, 23.8235891 ], [ 75.0524596, 23.8259954 ], [ 75.0495692, 23.8204306 ], [ 75.0486945, 23.8140828 ], [ 75.0477328, 23.8140056 ], [ 75.0494028, 23.8110856 ], [ 75.0562555, 23.805703 ], [ 75.0580954, 23.7962413 ], [ 75.0546345, 23.7907818 ], [ 75.0394756, 23.7894244 ], [ 75.0393952, 23.784964 ], [ 75.0408576, 23.784238 ], [ 75.0396467, 23.7829281 ], [ 75.0267491, 23.783381 ], [ 75.0253254, 23.7911134 ], [ 75.0209337, 23.7982976 ], [ 75.0226835, 23.8069486 ], [ 75.0213018, 23.8105231 ], [ 75.0198837, 23.8107162 ], [ 75.0190463, 23.8146748 ], [ 75.0171668, 23.8148677 ], [ 75.0098943, 23.8152462 ], [ 75.0087793, 23.8053271 ], [ 74.9990952, 23.8039208 ], [ 74.9970395, 23.8024211 ], [ 74.9957653, 23.7976531 ], [ 74.967307, 23.7988864 ], [ 74.9655862, 23.789802 ], [ 74.9608324, 23.7825258 ], [ 74.9558403, 23.7683933 ], [ 74.9483599, 23.7653572 ], [ 74.9403638, 23.7647315 ], [ 74.9388218, 23.7701305 ], [ 74.9353067, 23.7732859 ], [ 74.9319885, 23.7842003 ], [ 74.9284533, 23.7879521 ], [ 74.92434, 23.796621 ], [ 74.9037077, 23.7943062 ], [ 74.9038862, 23.7984929 ], [ 74.9067631, 23.8044426 ], [ 74.9057384, 23.8095227 ], [ 74.9063819, 23.8158324 ], [ 74.9085418, 23.8229286 ], [ 74.9115931, 23.8261415 ], [ 74.908901, 23.8357189 ], [ 74.9138361, 23.8416831 ], [ 74.9124046, 23.8459546 ], [ 74.9060101, 23.848069 ], [ 74.9036695, 23.8527374 ], [ 74.9030138, 23.8628985 ], [ 74.9040403, 23.8692534 ], [ 74.9026183, 23.8729513 ], [ 74.9081911, 23.8816213 ], [ 74.90868, 23.8918057 ], [ 74.9106841, 23.898938 ], [ 74.9104874, 23.9062901 ], [ 74.9129208, 23.9110742 ], [ 74.9208987, 23.9190903 ], [ 74.9202134, 23.922879 ], [ 74.9212052, 23.924135 ], [ 74.9162483, 23.9310286 ], [ 74.9201371, 23.9352216 ], [ 74.9269408, 23.9377631 ], [ 74.928237, 23.9394031 ], [ 74.9292769, 23.9427004 ], [ 74.9279973, 23.9463263 ], [ 74.9294444, 23.9508884 ], [ 74.929069, 23.9544423 ], [ 74.9307532, 23.9569858 ], [ 74.9336222, 23.9588522 ], [ 74.9472038, 23.9626013 ], [ 74.9559005, 23.9684706 ], [ 74.959143, 23.9721612 ], [ 74.962724, 23.9787376 ], [ 74.9624998, 23.9891835 ], [ 74.9646903, 23.9958272 ], [ 74.9631461, 23.9980714 ], [ 74.9633943, 24.0021967 ], [ 74.9648219, 24.0059427 ], [ 74.9673456, 24.0097513 ], [ 74.9722626, 24.0132649 ], [ 74.9764702, 24.0206251 ], [ 74.9822982, 24.0254107 ], [ 74.9789509, 24.0312502 ], [ 74.9781688, 24.0366633 ], [ 74.9765709, 24.0360505 ], [ 74.9738212, 24.0397902 ], [ 74.9714411, 24.0385367 ], [ 74.9691961, 24.0403755 ], [ 74.9653561, 24.0387751 ], [ 74.9605685, 24.0388411 ], [ 74.9596603, 24.0460393 ], [ 74.9553485, 24.0469562 ], [ 74.9553101, 24.0486039 ], [ 74.9457887, 24.0494979 ], [ 74.9393414, 24.0539203 ], [ 74.9382004, 24.0630803 ], [ 74.940677, 24.0699185 ], [ 74.9323944, 24.0742917 ], [ 74.9274728, 24.0743928 ], [ 74.9209033, 24.0776684 ], [ 74.9208814, 24.0802364 ], [ 74.9187379, 24.0809909 ], [ 74.9191475, 24.0853968 ], [ 74.9206626, 24.0868544 ], [ 74.9176989, 24.0909317 ], [ 74.9181733, 24.0980642 ], [ 74.9152045, 24.1026244 ], [ 74.9084725, 24.1046169 ], [ 74.9035212, 24.1093037 ], [ 74.9082408, 24.121243 ], [ 74.9048773, 24.1245888 ], [ 74.9013521, 24.1260336 ], [ 74.9020644, 24.1389088 ], [ 74.8956549, 24.1526049 ], [ 74.896108, 24.1579509 ], [ 74.8908343, 24.1624883 ], [ 74.8897375, 24.1654453 ], [ 74.8864999, 24.1657164 ], [ 74.884729, 24.1699374 ], [ 74.8824114, 24.1702354 ], [ 74.881708, 24.173102 ], [ 74.8797546, 24.1736077 ], [ 74.8844986, 24.1822387 ], [ 74.8944746, 24.1901918 ], [ 74.8981654, 24.1897489 ], [ 74.9017981, 24.1941677 ], [ 74.90235, 24.1972329 ], [ 74.9065438, 24.2000488 ], [ 74.9089673, 24.20784 ], [ 74.911661, 24.2119817 ], [ 74.90917, 24.2150067 ], [ 74.9109441, 24.2179151 ], [ 74.9255685, 24.228963 ], [ 74.9255253, 24.2351713 ], [ 74.9299834, 24.2397787 ], [ 74.9364228, 24.242915 ], [ 74.9364566, 24.2463677 ], [ 74.9396547, 24.2479189 ], [ 74.9422786, 24.2514111 ], [ 74.9536348, 24.2555801 ], [ 74.9569312, 24.2611613 ], [ 74.9626131, 24.2669623 ], [ 74.9631503, 24.2742205 ], [ 74.9614784, 24.283913 ], [ 74.9591078, 24.2880487 ], [ 74.9549083, 24.2913526 ], [ 74.9527255, 24.296333 ], [ 74.9585424, 24.30523 ], [ 74.9587366, 24.3162342 ], [ 74.9671271, 24.3165505 ], [ 74.9728861, 24.3221187 ], [ 74.9751471, 24.328363 ], [ 74.9756856, 24.3373131 ], [ 74.9787753, 24.3385562 ], [ 74.9783337, 24.3371203 ], [ 74.9830606, 24.3326659 ], [ 74.9853749, 24.3420234 ], [ 74.9879308, 24.3420537 ], [ 74.9922682, 24.3371889 ], [ 74.9942019, 24.3325212 ], [ 74.9976582, 24.3325101 ], [ 74.9958155, 24.3404137 ], [ 75.0048618, 24.3430404 ], [ 75.0041379, 24.3477346 ], [ 75.0072117, 24.3540117 ], [ 75.0106585, 24.3568583 ], [ 75.0131489, 24.3658794 ], [ 75.0232176, 24.3648843 ], [ 75.0240204, 24.3655169 ], [ 75.0225233, 24.3703686 ], [ 75.0240165, 24.3704734 ], [ 75.0370487, 24.3672177 ], [ 75.0426841, 24.3633206 ], [ 75.0457961, 24.359264 ], [ 75.05589, 24.3558427 ], [ 75.0487346, 24.3400803 ], [ 75.0443389, 24.333546 ], [ 75.0402538, 24.3348078 ], [ 75.0390472, 24.334121 ], [ 75.0411773, 24.3313279 ], [ 75.041675, 24.3237398 ], [ 75.0513344, 24.3256949 ], [ 75.0585172, 24.3256982 ], [ 75.0586586, 24.3283887 ], [ 75.0614755, 24.330656 ], [ 75.0629122, 24.3346652 ], [ 75.0644644, 24.3338758 ], [ 75.0646636, 24.3399384 ], [ 75.0794445, 24.3402596 ], [ 75.0825454, 24.3494874 ], [ 75.0885501, 24.356188 ], [ 75.1123898, 24.3572978 ], [ 75.1158933, 24.3561559 ], [ 75.1161993, 24.3501475 ], [ 75.1316219, 24.3491815 ], [ 75.1329227, 24.3481749 ], [ 75.1278426, 24.3442251 ], [ 75.1225163, 24.3425098 ], [ 75.1234279, 24.3364337 ], [ 75.1260736, 24.3333053 ], [ 75.1323944, 24.3306959 ], [ 75.1395873, 24.3305826 ], [ 75.1448091, 24.3280088 ], [ 75.1531403, 24.3297996 ], [ 75.1653697, 24.3194368 ], [ 75.176463, 24.3183184 ], [ 75.1896078, 24.3122779 ], [ 75.2054129, 24.3086183 ], [ 75.215408, 24.3096193 ], [ 75.2215241, 24.3073404 ], [ 75.2300369, 24.3086438 ], [ 75.2330839, 24.312104 ], [ 75.2413189, 24.3162013 ], [ 75.2436336, 24.315563 ], [ 75.2474515, 24.3107523 ], [ 75.2504422, 24.3113029 ], [ 75.2509905, 24.3148109 ], [ 75.2528715, 24.3155527 ], [ 75.2596829, 24.3114862 ], [ 75.269498, 24.3142379 ], [ 75.2782769, 24.3198459 ], [ 75.2817901, 24.318566 ], [ 75.2821571, 24.315307 ], [ 75.2868694, 24.3179867 ], [ 75.2923089, 24.316464 ], [ 75.3090424, 24.3172395 ], [ 75.3109923, 24.3188158 ], [ 75.31182, 24.3286751 ], [ 75.3152783, 24.3290015 ], [ 75.3159021, 24.3331548 ], [ 75.3197449, 24.333066 ], [ 75.3336761, 24.3381262 ], [ 75.3383535, 24.3320919 ], [ 75.3418069, 24.3328466 ], [ 75.3439834, 24.3379571 ], [ 75.3515266, 24.3370872 ], [ 75.3561735, 24.3313142 ], [ 75.3567362, 24.3232294 ], [ 75.3628058, 24.3203409 ], [ 75.3652687, 24.3152351 ], [ 75.394946, 24.3294856 ], [ 75.3999762, 24.3304961 ], [ 75.4160713, 24.3296845 ], [ 75.4256205, 24.3334283 ], [ 75.4290607, 24.3365374 ], [ 75.4300769, 24.3394352 ], [ 75.4294583, 24.3560881 ], [ 75.4352069, 24.362338 ], [ 75.4552531, 24.3773112 ], [ 75.4575565, 24.3876338 ], [ 75.4603448, 24.3927738 ], [ 75.4648817, 24.3958724 ], [ 75.4730713, 24.3987474 ], [ 75.4794795, 24.4047875 ], [ 75.4856782, 24.413238 ], [ 75.4881234, 24.4242101 ], [ 75.5116883, 24.4483439 ], [ 75.5180649, 24.459381 ], [ 75.5326172, 24.4743322 ], [ 75.5387641, 24.4795811 ], [ 75.5481229, 24.4844749 ], [ 75.5605123, 24.49689 ], [ 75.5743858, 24.5004079 ], [ 75.5795826, 24.5033195 ], [ 75.5899272, 24.5195243 ], [ 75.5918588, 24.5290748 ], [ 75.5938992, 24.5541549 ], [ 75.5934082, 24.558063 ], [ 75.5849043, 24.5779565 ], [ 75.5841538, 24.5824745 ], [ 75.5886626, 24.6062087 ], [ 75.5834425, 24.611906 ], [ 75.5739669, 24.617154 ], [ 75.5720127, 24.6220004 ], [ 75.5768653, 24.6357035 ], [ 75.5814488, 24.6422264 ], [ 75.5839771, 24.6428374 ], [ 75.6026612, 24.6394558 ], [ 75.606891, 24.6406659 ], [ 75.6085102, 24.6461956 ], [ 75.597444, 24.6549222 ], [ 75.5726202, 24.6673027 ], [ 75.5692848, 24.6700369 ], [ 75.5648449, 24.6772836 ], [ 75.5594218, 24.6927791 ], [ 75.5540065, 24.6999586 ], [ 75.5488367, 24.7033141 ], [ 75.5520107, 24.7051501 ], [ 75.5538811, 24.7044569 ], [ 75.5631919, 24.7073618 ], [ 75.5747854, 24.7077739 ], [ 75.5753396, 24.7121881 ], [ 75.580968, 24.711769 ], [ 75.5829721, 24.7132649 ], [ 75.5845703, 24.7082961 ], [ 75.5905742, 24.70578 ], [ 75.5996708, 24.6967714 ], [ 75.6097355, 24.680809 ], [ 75.6459621, 24.6849157 ], [ 75.6577224, 24.6929881 ], [ 75.6837233, 24.7253024 ], [ 75.7404754, 24.7550155 ], [ 75.7568331, 24.7615534 ], [ 75.7698097, 24.7584303 ], [ 75.7775669, 24.761375 ], [ 75.7847358, 24.7617164 ] ] ] } }
]
}
