{
"type": "FeatureCollection",
"name": "2320",
"crs": { "type": "name", "properties": { "name": "urn:ogc:def:crs:OGC:1.3:CRS84" } },
"features": [
{ "type": "Feature", "properties": { "code": "2320", "name": "Ratlam", "type": "district" }, "geometry": { "type": "Polygon", "coordinates": [ [ [ 75.4631083, 23.9135627 ], [ 75.4789373, 23.9111478 ], [ 75.4916488, 23.9067813 ], [ 75.5011144, 23.8977863 ], [ 75.505671, 23.8872534 ], [ 75.5214914, 23.884929 ], [ 75.5307548, 23.8766239 ], [ 75.5470887, 23.8695577 ], [ 75.5530757, 23.8616242 ], [ 75.5632229, 23.8575771 ], [ 75.5659301, 23.8534169 ], [ 75.5655911, 23.8454518 ], [ 75.5664974, 23.8438678 ], [ 75.5767569, 23.8423078 ], [ 75.5790288, 23.8397974 ], [ 75.5793271, 23.8351131 ], [ 75.5780579, 23.8312115 ], [ 75.5746143, 23.8284831 ], [ 75.5666867, 23.8332046 ], [ 75.5630529, 23.8330012 ], [ 75.5606209, 23.8314249 ], [ 75.5591151, 23.8283233 ], [ 75.5593024, 23.8181795 ], [ 75.5667854, 23.809576 ], [ 75.5715693, 23.8091474 ], [ 75.5805953, 23.812284 ], [ 75.5890121, 23.8097818 ], [ 75.5834477, 23.794823 ], [ 75.5984354, 23.7977643 ], [ 75.6089181, 23.7975444 ], [ 75.6143481, 23.8010528 ], [ 75.6204533, 23.8009335 ], [ 75.6270382, 23.7954379 ], [ 75.6341056, 23.7964387 ], [ 75.6384846, 23.7956619 ], [ 75.6440116, 23.7977841 ], [ 75.6500072, 23.7954559 ], [ 75.6545032, 23.7984038 ], [ 75.6599777, 23.7842317 ], [ 75.6753031, 23.7821828 ], [ 75.6777601, 23.7771276 ], [ 75.6804612, 23.7652746 ], [ 75.6860531, 23.7574371 ], [ 75.690184, 23.746613 ], [ 75.6902994, 23.7420488 ], [ 75.6885128, 23.739088 ], [ 75.6868119, 23.7304299 ], [ 75.6904187, 23.7160405 ], [ 75.6866571, 23.7142002 ], [ 75.6801214, 23.7149475 ], [ 75.6731092, 23.7135729 ], [ 75.6669682, 23.7063921 ], [ 75.6596141, 23.7072924 ], [ 75.6501275, 23.710504 ], [ 75.6443762, 23.7103605 ], [ 75.6436737, 23.701345 ], [ 75.6418444, 23.6971195 ], [ 75.6397168, 23.6975667 ], [ 75.6336276, 23.6950978 ], [ 75.627127, 23.6951206 ], [ 75.6264796, 23.6774415 ], [ 75.6214115, 23.6599249 ], [ 75.5869364, 23.6607962 ], [ 75.5858651, 23.6536901 ], [ 75.5826647, 23.6538382 ], [ 75.5730877, 23.6555057 ], [ 75.5596403, 23.6556089 ], [ 75.556208, 23.6660814 ], [ 75.5410727, 23.665609 ], [ 75.5336872, 23.667976 ], [ 75.5334777, 23.6696678 ], [ 75.5320021, 23.6699378 ], [ 75.5220992, 23.6659137 ], [ 75.5153056, 23.6485233 ], [ 75.5112187, 23.6311574 ], [ 75.5096221, 23.6301313 ], [ 75.5036842, 23.6183573 ], [ 75.5050317, 23.6020561 ], [ 75.5102941, 23.5954101 ], [ 75.5139786, 23.5947174 ], [ 75.5133899, 23.5840896 ], [ 75.508413, 23.5842395 ], [ 75.5088566, 23.5755086 ], [ 75.5039692, 23.5746064 ], [ 75.4992225, 23.5700339 ], [ 75.4983559, 23.5586078 ], [ 75.4987179, 23.5529326 ], [ 75.5060569, 23.5515157 ], [ 75.5188382, 23.5457101 ], [ 75.524761, 23.5425402 ], [ 75.5244745, 23.5392849 ], [ 75.5219552, 23.5360779 ], [ 75.5080248, 23.5300952 ], [ 75.5061779, 23.5257056 ], [ 75.4900846, 23.5255263 ], [ 75.4898083, 23.5286823 ], [ 75.4712435, 23.5313585 ], [ 75.4667212, 23.5341649 ], [ 75.4615988, 23.5481407 ], [ 75.4585819, 23.5475555 ], [ 75.455211, 23.5446814 ], [ 75.445682, 23.5453949 ], [ 75.4456297, 23.5481985 ], [ 75.4422393, 23.5543986 ], [ 75.4416312, 23.5625297 ], [ 75.4223121, 23.5672546 ], [ 75.4201386, 23.5704336 ], [ 75.4180964, 23.5709533 ], [ 75.4162072, 23.5753376 ], [ 75.4052752, 23.5772002 ], [ 75.4063026, 23.5923961 ], [ 75.4049995, 23.5921391 ], [ 75.3974132, 23.6016301 ], [ 75.3942192, 23.6029985 ], [ 75.3873458, 23.6034958 ], [ 75.3824123, 23.600363 ], [ 75.3752843, 23.5993745 ], [ 75.3723205, 23.602485 ], [ 75.3481502, 23.5944017 ], [ 75.3336358, 23.5925385 ], [ 75.3332112, 23.6190121 ], [ 75.3377673, 23.6209455 ], [ 75.340227, 23.6206526 ], [ 75.3402853, 23.6227835 ], [ 75.3417456, 23.6219892 ], [ 75.345332, 23.6229335 ], [ 75.3447874, 23.6261568 ], [ 75.3395049, 23.6276907 ], [ 75.3368148, 23.6275592 ], [ 75.3368546, 23.6256901 ], [ 75.3285258, 23.6228617 ], [ 75.3144198, 23.6217734 ], [ 75.3112317, 23.6080613 ], [ 75.3126893, 23.6026443 ], [ 75.3005006, 23.6024042 ], [ 75.2984139, 23.5933289 ], [ 75.2836696, 23.5921968 ], [ 75.283544, 23.5896775 ], [ 75.2803747, 23.5896757 ], [ 75.2781356, 23.5835254 ], [ 75.279389, 23.5706821 ], [ 75.2804129, 23.5703532 ], [ 75.2783732, 23.5666274 ], [ 75.2789879, 23.5633771 ], [ 75.281517, 23.5605029 ], [ 75.2784349, 23.5491692 ], [ 75.2761872, 23.5491227 ], [ 75.2743818, 23.5404716 ], [ 75.2639592, 23.5433674 ], [ 75.258266, 23.5413136 ], [ 75.2568377, 23.5395698 ], [ 75.2568709, 23.5297686 ], [ 75.2442248, 23.5326376 ], [ 75.2432331, 23.5243811 ], [ 75.239602, 23.5208127 ], [ 75.2396465, 23.5156028 ], [ 75.2291982, 23.5148697 ], [ 75.2261452, 23.5174542 ], [ 75.225249, 23.5235901 ], [ 75.2103351, 23.5230799 ], [ 75.2095539, 23.5263399 ], [ 75.2109055, 23.5267003 ], [ 75.211019, 23.5281134 ], [ 75.2072099, 23.5284766 ], [ 75.2069968, 23.5321606 ], [ 75.2053085, 23.533665 ], [ 75.1987583, 23.5359752 ], [ 75.1965034, 23.5315745 ], [ 75.1994988, 23.5293789 ], [ 75.1992094, 23.5284265 ], [ 75.1886764, 23.5261784 ], [ 75.1877879, 23.5216912 ], [ 75.1843205, 23.5193359 ], [ 75.1825682, 23.5089935 ], [ 75.1843094, 23.5055797 ], [ 75.1870457, 23.5049601 ], [ 75.1801076, 23.501983 ], [ 75.1778032, 23.5050629 ], [ 75.1760586, 23.5005322 ], [ 75.1771684, 23.4966899 ], [ 75.1731621, 23.491409 ], [ 75.1734595, 23.4880545 ], [ 75.1751278, 23.4857605 ], [ 75.1743583, 23.4833048 ], [ 75.1709909, 23.4831342 ], [ 75.1735002, 23.4787452 ], [ 75.1730784, 23.4764338 ], [ 75.1769393, 23.4745364 ], [ 75.1729538, 23.4705648 ], [ 75.1774244, 23.4639087 ], [ 75.1765819, 23.4619225 ], [ 75.1726235, 23.4636438 ], [ 75.1700095, 23.4618162 ], [ 75.17111, 23.4599965 ], [ 75.1732778, 23.4598558 ], [ 75.1725427, 23.456935 ], [ 75.1746173, 23.4560404 ], [ 75.1746703, 23.4539908 ], [ 75.1693804, 23.454033 ], [ 75.1661497, 23.4508014 ], [ 75.1652288, 23.4475601 ], [ 75.1624195, 23.4459716 ], [ 75.1643549, 23.4378717 ], [ 75.1578815, 23.4381035 ], [ 75.1559728, 23.4362845 ], [ 75.1542788, 23.4316573 ], [ 75.1552228, 23.4304065 ], [ 75.1591173, 23.4298278 ], [ 75.1571649, 23.4288891 ], [ 75.1586511, 23.4245005 ], [ 75.1559982, 23.4194266 ], [ 75.1568245, 23.4170742 ], [ 75.154755, 23.4169076 ], [ 75.1529942, 23.4187048 ], [ 75.1509979, 23.4171792 ], [ 75.1508406, 23.4139105 ], [ 75.1481937, 23.4122947 ], [ 75.1358512, 23.4109733 ], [ 75.1345491, 23.4012035 ], [ 75.1499769, 23.3999105 ], [ 75.1543498, 23.3985824 ], [ 75.1560172, 23.3966092 ], [ 75.1642348, 23.3963951 ], [ 75.162812, 23.3987747 ], [ 75.1638443, 23.3991536 ], [ 75.1651892, 23.3982007 ], [ 75.1654525, 23.3957763 ], [ 75.1660448, 23.3970673 ], [ 75.168333, 23.3940599 ], [ 75.1682044, 23.3898702 ], [ 75.1707869, 23.3896528 ], [ 75.1729376, 23.3856024 ], [ 75.1794216, 23.382011 ], [ 75.1811579, 23.370552 ], [ 75.1914757, 23.3683537 ], [ 75.1922957, 23.3556309 ], [ 75.1989985, 23.3532124 ], [ 75.205274, 23.3483424 ], [ 75.2043179, 23.3437875 ], [ 75.1967234, 23.3418363 ], [ 75.1943053, 23.3271283 ], [ 75.2037436, 23.3236249 ], [ 75.2073447, 23.3204627 ], [ 75.2163234, 23.3251169 ], [ 75.2233058, 23.3201464 ], [ 75.2266882, 23.319458 ], [ 75.2301899, 23.3151034 ], [ 75.2307484, 23.3104709 ], [ 75.2321208, 23.3090162 ], [ 75.2342325, 23.3089515 ], [ 75.2397114, 23.3136565 ], [ 75.2589007, 23.3125778 ], [ 75.2598104, 23.2949573 ], [ 75.2670199, 23.2947773 ], [ 75.2787241, 23.2973538 ], [ 75.2822292, 23.2964936 ], [ 75.2902727, 23.2994959 ], [ 75.2951408, 23.2998281 ], [ 75.3053081, 23.2987313 ], [ 75.3065266, 23.296023 ], [ 75.3124012, 23.2969599 ], [ 75.313737, 23.2938362 ], [ 75.3258296, 23.292319 ], [ 75.3248553, 23.2838128 ], [ 75.3213005, 23.2758656 ], [ 75.3106331, 23.273848 ], [ 75.3082038, 23.2748267 ], [ 75.3049759, 23.2702021 ], [ 75.2961294, 23.2726405 ], [ 75.2815807, 23.2732195 ], [ 75.2726319, 23.2679993 ], [ 75.2673354, 23.2731065 ], [ 75.2652715, 23.269087 ], [ 75.2606397, 23.2681627 ], [ 75.2633094, 23.2544079 ], [ 75.2620179, 23.2504972 ], [ 75.2623302, 23.2452336 ], [ 75.2654427, 23.2448068 ], [ 75.2670821, 23.2416837 ], [ 75.2803888, 23.2376063 ], [ 75.2802494, 23.2345316 ], [ 75.2827374, 23.2325511 ], [ 75.2838406, 23.2265876 ], [ 75.2838183, 23.2162306 ], [ 75.2760376, 23.215183 ], [ 75.2486726, 23.2249297 ], [ 75.2403586, 23.2254597 ], [ 75.2388131, 23.2176999 ], [ 75.2393617, 23.2137129 ], [ 75.2256574, 23.2103407 ], [ 75.2264126, 23.201446 ], [ 75.2302439, 23.185181 ], [ 75.2351947, 23.1837419 ], [ 75.2343188, 23.1636469 ], [ 75.2351281, 23.1620977 ], [ 75.2369689, 23.1620287 ], [ 75.2389701, 23.1554356 ], [ 75.2390864, 23.1543067 ], [ 75.2374601, 23.153888 ], [ 75.2401935, 23.1357363 ], [ 75.2421896, 23.1351569 ], [ 75.2397513, 23.1267249 ], [ 75.241486, 23.1175268 ], [ 75.2438827, 23.1175476 ], [ 75.2436017, 23.1088386 ], [ 75.241172, 23.093097 ], [ 75.2379253, 23.0857852 ], [ 75.2317681, 23.0876948 ], [ 75.219534, 23.0883844 ], [ 75.2113078, 23.0912651 ], [ 75.1870432, 23.0920306 ], [ 75.1772697, 23.0963639 ], [ 75.1778026, 23.0988379 ], [ 75.1800089, 23.0997041 ], [ 75.1785891, 23.1006256 ], [ 75.1691999, 23.1039695 ], [ 75.1678437, 23.1060196 ], [ 75.1636262, 23.1046843 ], [ 75.1597999, 23.1056514 ], [ 75.1572384, 23.1093135 ], [ 75.1539428, 23.1049348 ], [ 75.1493011, 23.1047686 ], [ 75.1477347, 23.106683 ], [ 75.1420925, 23.1074062 ], [ 75.1403595, 23.1052889 ], [ 75.1370015, 23.1049777 ], [ 75.1338194, 23.1072579 ], [ 75.1209582, 23.1077819 ], [ 75.1171071, 23.1099941 ], [ 75.1140858, 23.1092083 ], [ 75.1095604, 23.1152353 ], [ 75.1071736, 23.1146842 ], [ 75.1070669, 23.1096456 ], [ 75.0803989, 23.1046198 ], [ 75.064462, 23.1071745 ], [ 75.0482529, 23.1065355 ], [ 75.0391781, 23.108716 ], [ 75.0326393, 23.1133582 ], [ 75.0281494, 23.112439 ], [ 75.0280476, 23.1114682 ], [ 75.0141064, 23.1126284 ], [ 75.0063677, 23.109476 ], [ 74.9946537, 23.1158127 ], [ 74.9903724, 23.1208952 ], [ 74.9901443, 23.1281597 ], [ 74.993091, 23.1371106 ], [ 74.9931486, 23.1416164 ], [ 74.9919588, 23.143211 ], [ 74.9728267, 23.1450074 ], [ 74.958548, 23.1558243 ], [ 74.9546233, 23.1574291 ], [ 74.9435519, 23.1528518 ], [ 74.9381763, 23.1530346 ], [ 74.9244597, 23.1622951 ], [ 74.9195475, 23.1619715 ], [ 74.910938, 23.1582941 ], [ 74.9014933, 23.1506072 ], [ 74.8905745, 23.1378541 ], [ 74.8844721, 23.1374167 ], [ 74.880254, 23.1386404 ], [ 74.8657984, 23.1376606 ], [ 74.8501021, 23.1422144 ], [ 74.8338053, 23.1423736 ], [ 74.8294949, 23.1410812 ], [ 74.8198214, 23.1339672 ], [ 74.8164773, 23.1342324 ], [ 74.8074972, 23.1388881 ], [ 74.7971853, 23.140572 ], [ 74.7930993, 23.1481414 ], [ 74.7854096, 23.1481554 ], [ 74.7805488, 23.1523107 ], [ 74.7797899, 23.1552223 ], [ 74.7811103, 23.1592594 ], [ 74.786478, 23.1644501 ], [ 74.7893098, 23.1649979 ], [ 74.7950097, 23.16245 ], [ 74.800483, 23.1631795 ], [ 74.801643, 23.1671757 ], [ 74.7994779, 23.1706783 ], [ 74.7934501, 23.1737951 ], [ 74.7849473, 23.1753391 ], [ 74.7777937, 23.1746079 ], [ 74.7724018, 23.1755617 ], [ 74.7688253, 23.1778619 ], [ 74.7673192, 23.1804027 ], [ 74.7669891, 23.1840821 ], [ 74.7684262, 23.1885934 ], [ 74.780318, 23.196046 ], [ 74.7855643, 23.2022343 ], [ 74.7854983, 23.2060222 ], [ 74.7795035, 23.2150168 ], [ 74.7784159, 23.2196348 ], [ 74.7796718, 23.2258208 ], [ 74.7825795, 23.2315248 ], [ 74.7906021, 23.2380171 ], [ 74.7906095, 23.2417735 ], [ 74.7885219, 23.2440207 ], [ 74.7826834, 23.2438775 ], [ 74.7666302, 23.235727 ], [ 74.7590319, 23.237198 ], [ 74.7538409, 23.2399436 ], [ 74.7502597, 23.2398912 ], [ 74.7366342, 23.2331736 ], [ 74.7358166, 23.2290062 ], [ 74.7390368, 23.2262761 ], [ 74.7409883, 23.2264347 ], [ 74.7413771, 23.2250036 ], [ 74.7337673, 23.2204246 ], [ 74.7328055, 23.2175189 ], [ 74.726365, 23.2150056 ], [ 74.7228282, 23.216788 ], [ 74.7172547, 23.2157212 ], [ 74.7156642, 23.2191419 ], [ 74.7022162, 23.2145101 ], [ 74.6920658, 23.2191516 ], [ 74.6916619, 23.224792 ], [ 74.7039581, 23.2289934 ], [ 74.7058879, 23.2315218 ], [ 74.7088058, 23.2314234 ], [ 74.7095056, 23.2332674 ], [ 74.7151279, 23.2369948 ], [ 74.7129748, 23.2427992 ], [ 74.7127675, 23.2505311 ], [ 74.7076747, 23.254835 ], [ 74.6987826, 23.2573068 ], [ 74.7010734, 23.2646551 ], [ 74.6999554, 23.2683656 ], [ 74.695327, 23.2657596 ], [ 74.6924279, 23.2658398 ], [ 74.6882631, 23.267855 ], [ 74.6862154, 23.2675889 ], [ 74.678105, 23.2717864 ], [ 74.6768244, 23.2736943 ], [ 74.6731425, 23.269956 ], [ 74.6637773, 23.267407 ], [ 74.6566668, 23.260802 ], [ 74.6485552, 23.2559288 ], [ 74.6385555, 23.2554093 ], [ 74.626765, 23.2590627 ], [ 74.6239265, 23.2718167 ], [ 74.6248415, 23.2738677 ], [ 74.6218502, 23.2736708 ], [ 74.6168913, 23.2793812 ], [ 74.6079501, 23.2824574 ], [ 74.6016792, 23.2802331 ], [ 74.5982863, 23.276941 ], [ 74.5947472, 23.2767964 ], [ 74.5928195, 23.2788825 ], [ 74.5892159, 23.2790357 ], [ 74.5874569, 23.2771161 ], [ 74.5849935, 23.276938 ], [ 74.5852788, 23.2795086 ], [ 74.5793423, 23.28461 ], [ 74.5768531, 23.2848065 ], [ 74.5736904, 23.2892151 ], [ 74.5743658, 23.2951696 ], [ 74.5682392, 23.2951845 ], [ 74.5632111, 23.2926865 ], [ 74.5623805, 23.2910131 ], [ 74.5633607, 23.2882774 ], [ 74.5599366, 23.2818333 ], [ 74.5564718, 23.2784317 ], [ 74.553483, 23.2774702 ], [ 74.5496707, 23.2786065 ], [ 74.5466691, 23.277121 ], [ 74.5438321, 23.2804098 ], [ 74.5414686, 23.2867305 ], [ 74.539571, 23.2997007 ], [ 74.5342673, 23.3006516 ], [ 74.5319247, 23.3063624 ], [ 74.527919, 23.3107539 ], [ 74.5310806, 23.3128048 ], [ 74.5297326, 23.320673 ], [ 74.5236228, 23.3211332 ], [ 74.5148425, 23.3162692 ], [ 74.5140368, 23.3280456 ], [ 74.5352675, 23.3308198 ], [ 74.5399326, 23.3352868 ], [ 74.5382255, 23.3466677 ], [ 74.5415585, 23.3574853 ], [ 74.5413729, 23.3602262 ], [ 74.5398166, 23.3618656 ], [ 74.5414927, 23.3638216 ], [ 74.5466256, 23.3648979 ], [ 74.55469, 23.3612944 ], [ 74.5577014, 23.3619081 ], [ 74.5586083, 23.3642909 ], [ 74.5576861, 23.3680008 ], [ 74.559246, 23.3711802 ], [ 74.5651309, 23.3728542 ], [ 74.5689407, 23.3763017 ], [ 74.5694868, 23.3783853 ], [ 74.5665701, 23.386141 ], [ 74.5730399, 23.3963568 ], [ 74.5699537, 23.4126029 ], [ 74.5723502, 23.4206667 ], [ 74.575073, 23.4232124 ], [ 74.581842, 23.4215641 ], [ 74.5851483, 23.4238176 ], [ 74.5847905, 23.4255464 ], [ 74.5871808, 23.4265147 ], [ 74.5901725, 23.4245264 ], [ 74.5942506, 23.4241531 ], [ 74.5965677, 23.4282826 ], [ 74.5990674, 23.4287497 ], [ 74.5993158, 23.4372592 ], [ 74.6061714, 23.4445345 ], [ 74.6099148, 23.4516256 ], [ 74.6097375, 23.4536711 ], [ 74.6038866, 23.457265 ], [ 74.6126996, 23.4619299 ], [ 74.6162258, 23.4597753 ], [ 74.6318725, 23.4613937 ], [ 74.633541, 23.4670748 ], [ 74.6327705, 23.4695073 ], [ 74.6361481, 23.4679164 ], [ 74.6392856, 23.4635469 ], [ 74.6518837, 23.4622797 ], [ 74.6589548, 23.4672995 ], [ 74.664162, 23.4758558 ], [ 74.6664199, 23.4775182 ], [ 74.6660597, 23.4825035 ], [ 74.6770272, 23.4827254 ], [ 74.6813105, 23.4852272 ], [ 74.6821659, 23.4878891 ], [ 74.6803375, 23.4947774 ], [ 74.6865273, 23.4947358 ], [ 74.6967388, 23.5026597 ], [ 74.7034917, 23.5050077 ], [ 74.7113704, 23.5032295 ], [ 74.7187212, 23.5032294 ], [ 74.7237259, 23.4962875 ], [ 74.7292392, 23.4966179 ], [ 74.7329365, 23.5014433 ], [ 74.7324608, 23.504193 ], [ 74.7340493, 23.5081837 ], [ 74.7391218, 23.5137926 ], [ 74.7346806, 23.5182112 ], [ 74.7352881, 23.5205652 ], [ 74.7615104, 23.5211409 ], [ 74.7623725, 23.5263965 ], [ 74.766893, 23.5308602 ], [ 74.767227, 23.5355691 ], [ 74.7709185, 23.5423888 ], [ 74.7736837, 23.5443725 ], [ 74.7941094, 23.5508809 ], [ 74.7990137, 23.5381025 ], [ 74.8032961, 23.5330842 ], [ 74.8064811, 23.5381285 ], [ 74.8103237, 23.5408163 ], [ 74.8141676, 23.5407411 ], [ 74.8180696, 23.5423678 ], [ 74.8221198, 23.5408479 ], [ 74.8243031, 23.5427086 ], [ 74.8246597, 23.5451016 ], [ 74.8287769, 23.5482856 ], [ 74.8292315, 23.5505521 ], [ 74.8365328, 23.5510371 ], [ 74.8402942, 23.5498776 ], [ 74.8468314, 23.5518609 ], [ 74.8466252, 23.554055 ], [ 74.8487799, 23.5544029 ], [ 74.8484612, 23.5560733 ], [ 74.8508946, 23.5587554 ], [ 74.8501405, 23.5606852 ], [ 74.8523728, 23.5639112 ], [ 74.8538034, 23.5711413 ], [ 74.8569066, 23.5739298 ], [ 74.8664184, 23.5737003 ], [ 74.8682747, 23.5741654 ], [ 74.8711888, 23.5777501 ], [ 74.8733637, 23.5769014 ], [ 74.8733146, 23.5815875 ], [ 74.8709046, 23.5855196 ], [ 74.8699051, 23.5919349 ], [ 74.8798494, 23.595217 ], [ 74.8798153, 23.5996594 ], [ 74.8820593, 23.6059932 ], [ 74.8846804, 23.6066296 ], [ 74.8854644, 23.6081419 ], [ 74.8936071, 23.6094956 ], [ 74.8974988, 23.61567 ], [ 74.9016485, 23.6175845 ], [ 74.9008746, 23.6186321 ], [ 74.9035099, 23.6230101 ], [ 74.9029436, 23.625101 ], [ 74.9074218, 23.6240148 ], [ 74.9100329, 23.6222193 ], [ 74.9110659, 23.6191582 ], [ 74.9149853, 23.6181054 ], [ 74.9244373, 23.6199942 ], [ 74.9274563, 23.6218984 ], [ 74.9273497, 23.6252482 ], [ 74.9365387, 23.6287707 ], [ 74.9361027, 23.6395787 ], [ 74.9284099, 23.6415499 ], [ 74.9240078, 23.6506482 ], [ 74.9242945, 23.6572123 ], [ 74.9216806, 23.666486 ], [ 74.9175351, 23.6694126 ], [ 74.908007, 23.6710988 ], [ 74.907101, 23.6745798 ], [ 74.9038366, 23.674743 ], [ 74.9042006, 23.6801423 ], [ 74.8994607, 23.6822018 ], [ 74.8995927, 23.6840034 ], [ 74.9177234, 23.690649 ], [ 74.9215928, 23.6946522 ], [ 74.9183019, 23.705628 ], [ 74.9201418, 23.7111839 ], [ 74.9202285, 23.71918 ], [ 74.9244549, 23.7183977 ], [ 74.9265787, 23.7202073 ], [ 74.9252561, 23.723395 ], [ 74.9279779, 23.7240622 ], [ 74.9286218, 23.7280122 ], [ 74.9363753, 23.7295804 ], [ 74.9351019, 23.7328403 ], [ 74.9317679, 23.7343359 ], [ 74.9299608, 23.740097 ], [ 74.9303179, 23.7495594 ], [ 74.9263348, 23.7517024 ], [ 74.924521, 23.7563857 ], [ 74.9342495, 23.7579192 ], [ 74.9377746, 23.762928 ], [ 74.9416793, 23.7655498 ], [ 74.9483599, 23.7653572 ], [ 74.9558403, 23.7683933 ], [ 74.9608324, 23.7825258 ], [ 74.9655862, 23.789802 ], [ 74.967307, 23.7988864 ], [ 74.9957653, 23.7976531 ], [ 74.9970395, 23.8024211 ], [ 74.9990952, 23.8039208 ], [ 75.0087793, 23.8053271 ], [ 75.0098943, 23.8152462 ], [ 75.0190463, 23.8146748 ], [ 75.0198837, 23.8107162 ], [ 75.0213018, 23.8105231 ], [ 75.0226835, 23.8069486 ], [ 75.0211849, 23.7969931 ], [ 75.0253254, 23.7911134 ], [ 75.0267491, 23.783381 ], [ 75.0396467, 23.7829281 ], [ 75.0408576, 23.784238 ], [ 75.0393952, 23.784964 ], [ 75.0394756, 23.7894244 ], [ 75.0546345, 23.7907818 ], [ 75.0580954, 23.7962413 ], [ 75.0562555, 23.805703 ], [ 75.0494028, 23.8110856 ], [ 75.0477328, 23.8140056 ], [ 75.0486945, 23.8140828 ], [ 75.0495692, 23.8204306 ], [ 75.0524596, 23.8259954 ], [ 75.0667773, 23.8235891 ], [ 75.0783487, 23.823593 ], [ 75.0788498, 23.8219002 ], [ 75.0849899, 23.8180963 ], [ 75.0879983, 23.8167111 ], [ 75.0931753, 23.816676 ], [ 75.100191, 23.823905 ], [ 75.101358, 23.8292097 ], [ 75.1155211, 23.8290983 ], [ 75.1161047, 23.8365202 ], [ 75.1206979, 23.8505919 ], [ 75.1240797, 23.8500547 ], [ 75.1288013, 23.8426736 ], [ 75.1322705, 23.8309854 ], [ 75.1371584, 23.8301408 ], [ 75.1374481, 23.8321769 ], [ 75.1528189, 23.832405 ], [ 75.1546589, 23.8310594 ], [ 75.1562885, 23.8320207 ], [ 75.1629725, 23.8313645 ], [ 75.1711734, 23.8324368 ], [ 75.1861108, 23.8293932 ], [ 75.1999354, 23.8295812 ], [ 75.2104301, 23.8407264 ], [ 75.2111888, 23.8449561 ], [ 75.2158707, 23.8514497 ], [ 75.2170044, 23.8581033 ], [ 75.2262381, 23.8589824 ], [ 75.2282861, 23.860403 ], [ 75.2282441, 23.8630937 ], [ 75.2388187, 23.8642013 ], [ 75.2419496, 23.863278 ], [ 75.2455344, 23.848856 ], [ 75.2490639, 23.8481624 ], [ 75.2529232, 23.843721 ], [ 75.2538659, 23.8367444 ], [ 75.2564729, 23.8321761 ], [ 75.2558038, 23.8228365 ], [ 75.2702252, 23.8228077 ], [ 75.2736538, 23.8271244 ], [ 75.2766554, 23.8340479 ], [ 75.2746465, 23.8361672 ], [ 75.2733206, 23.8409294 ], [ 75.2741995, 23.8428341 ], [ 75.2775624, 23.8452487 ], [ 75.286068, 23.8478621 ], [ 75.2924991, 23.8523661 ], [ 75.2989712, 23.8524677 ], [ 75.3018659, 23.8474745 ], [ 75.3052657, 23.846454 ], [ 75.3113242, 23.8457424 ], [ 75.3166133, 23.8478281 ], [ 75.3196601, 23.8476739 ], [ 75.323818, 23.8421021 ], [ 75.329379, 23.8404829 ], [ 75.3345793, 23.8406215 ], [ 75.3355045, 23.8326409 ], [ 75.3341394, 23.8309765 ], [ 75.3315573, 23.8305684 ], [ 75.329677, 23.8263601 ], [ 75.3304758, 23.8191378 ], [ 75.3289238, 23.8134987 ], [ 75.3290983, 23.8053468 ], [ 75.3320967, 23.8023425 ], [ 75.3410321, 23.8021005 ], [ 75.3456988, 23.8036082 ], [ 75.3500613, 23.8088933 ], [ 75.3527747, 23.8157681 ], [ 75.3567668, 23.8360481 ], [ 75.3662184, 23.8586367 ], [ 75.3750464, 23.8699927 ], [ 75.386701, 23.8766779 ], [ 75.3957429, 23.8785727 ], [ 75.4139052, 23.8859301 ], [ 75.4181903, 23.8898505 ], [ 75.4204762, 23.8948034 ], [ 75.4256625, 23.8997786 ], [ 75.4311759, 23.9085392 ], [ 75.4425147, 23.9059205 ], [ 75.4517928, 23.9073477 ], [ 75.4572469, 23.9117942 ], [ 75.459663, 23.9199308 ], [ 75.4631083, 23.9135627 ] ] ] } }
]
}
