{
"type": "FeatureCollection",
"name": "2321",
"crs": { "type": "name", "properties": { "name": "urn:ogc:def:crs:OGC:1.3:CRS84" } },
"features": [
{ "type": "Feature", "properties": { "code": "2321", "name": "Ujjain", "type": "district" }, "geometry": { "type": "Polygon", "coordinates": [ [ [ 75.7286322, 23.7574897 ], [ 75.7343304, 23.7519568 ], [ 75.7331953, 23.7461644 ], [ 75.7385819, 23.7423186 ], [ 75.7454698, 23.7395731 ], [ 75.7543812, 23.7229024 ], [ 75.7613327, 23.7249437 ], [ 75.7623928, 23.7238745 ], [ 75.7644563, 23.724815 ], [ 75.766115, 23.7233941 ], [ 75.771008, 23.7241965 ], [ 75.7765403, 23.7228006 ], [ 75.7858814, 23.7229824 ], [ 75.7913607, 23.7119113 ], [ 75.7917846, 23.7084172 ], [ 75.8052337, 23.7080265 ], [ 75.8225846, 23.6972255 ], [ 75.8292959, 23.6983697 ], [ 75.8250607, 23.7096052 ], [ 75.8250688, 23.7141558 ], [ 75.8290957, 23.7241748 ], [ 75.8287549, 23.7314296 ], [ 75.8324376, 23.7316654 ], [ 75.83617, 23.7295445 ], [ 75.8374986, 23.730651 ], [ 75.8434127, 23.7304671 ], [ 75.8452609, 23.7328015 ], [ 75.8491369, 23.7230011 ], [ 75.8497754, 23.7176063 ], [ 75.8516098, 23.7141305 ], [ 75.8535319, 23.7138508 ], [ 75.8424505, 23.6945627 ], [ 75.8468592, 23.6877782 ], [ 75.8373209, 23.6830901 ], [ 75.8342385, 23.6800374 ], [ 75.8336019, 23.6776446 ], [ 75.8290188, 23.6773363 ], [ 75.8214474, 23.6725078 ], [ 75.8165952, 23.6716258 ], [ 75.8119833, 23.6601525 ], [ 75.8130786, 23.6552681 ], [ 75.8172788, 23.6549401 ], [ 75.8280356, 23.6436573 ], [ 75.8287698, 23.6324026 ], [ 75.8352106, 23.6253797 ], [ 75.8331894, 23.6177223 ], [ 75.8379239, 23.6121165 ], [ 75.8411354, 23.6028125 ], [ 75.8379583, 23.5942205 ], [ 75.8397377, 23.5897469 ], [ 75.8372055, 23.5888073 ], [ 75.8458771, 23.5825745 ], [ 75.8483475, 23.5744982 ], [ 75.8563762, 23.5674882 ], [ 75.8657604, 23.5663242 ], [ 75.8782151, 23.5615254 ], [ 75.8779995, 23.5589069 ], [ 75.8811192, 23.5582747 ], [ 75.8946167, 23.5602961 ], [ 75.8974731, 23.5670677 ], [ 75.9057944, 23.5675267 ], [ 75.9093313, 23.5703159 ], [ 75.9102812, 23.5690246 ], [ 75.9125835, 23.5701211 ], [ 75.9211436, 23.5665477 ], [ 75.9276721, 23.5542658 ], [ 75.9455414, 23.5526875 ], [ 75.9540627, 23.5530581 ], [ 75.9526925, 23.5630633 ], [ 75.954537, 23.5680329 ], [ 75.9788952, 23.5638966 ], [ 75.992283, 23.5723746 ], [ 75.9997024, 23.5735052 ], [ 76.0049306, 23.5701754 ], [ 76.0085986, 23.5652482 ], [ 76.0078966, 23.5615547 ], [ 76.0048972, 23.5583606 ], [ 76.0061219, 23.5580139 ], [ 76.0150411, 23.5568376 ], [ 76.025751, 23.5574859 ], [ 76.0269391, 23.5668409 ], [ 76.0521338, 23.5651482 ], [ 76.0672068, 23.558378 ], [ 76.0860198, 23.5683521 ], [ 76.0892317, 23.5718155 ], [ 76.0958289, 23.5731578 ], [ 76.1049254, 23.5661389 ], [ 76.106284, 23.5523424 ], [ 76.1089637, 23.5444962 ], [ 76.1165883, 23.5413004 ], [ 76.1214016, 23.5479055 ], [ 76.1320187, 23.5525148 ], [ 76.133645, 23.5598916 ], [ 76.1392532, 23.5649341 ], [ 76.1488831, 23.5710501 ], [ 76.1611276, 23.5705466 ], [ 76.1638415, 23.5723157 ], [ 76.1734786, 23.5668413 ], [ 76.1738536, 23.561252 ], [ 76.1790037, 23.5562797 ], [ 76.1720606, 23.546142 ], [ 76.1762754, 23.5422672 ], [ 76.1763088, 23.5403123 ], [ 76.1714247, 23.5344403 ], [ 76.1660675, 23.5329836 ], [ 76.1604985, 23.5264567 ], [ 76.1568539, 23.5190535 ], [ 76.1571563, 23.5144937 ], [ 76.1596327, 23.5111297 ], [ 76.1603218, 23.5071115 ], [ 76.1665775, 23.5043831 ], [ 76.1730607, 23.5092751 ], [ 76.1755527, 23.509491 ], [ 76.1778087, 23.5073999 ], [ 76.1886521, 23.5071249 ], [ 76.1910444, 23.5038237 ], [ 76.1965511, 23.5027874 ], [ 76.1993306, 23.5009667 ], [ 76.2038116, 23.5039487 ], [ 76.2027313, 23.5067257 ], [ 76.2034374, 23.5084906 ], [ 76.2112132, 23.5111321 ], [ 76.2068862, 23.520236 ], [ 76.2121315, 23.5226169 ], [ 76.2144637, 23.5252115 ], [ 76.216192, 23.5320953 ], [ 76.2274733, 23.5321425 ], [ 76.2356812, 23.5280465 ], [ 76.2375189, 23.5242619 ], [ 76.2376146, 23.5159323 ], [ 76.2395931, 23.5166216 ], [ 76.2434696, 23.5153771 ], [ 76.2462478, 23.5179123 ], [ 76.2524686, 23.5159028 ], [ 76.2535487, 23.5140328 ], [ 76.2527038, 23.5109364 ], [ 76.2463306, 23.5068377 ], [ 76.2477721, 23.4986394 ], [ 76.2463118, 23.4970107 ], [ 76.231088, 23.4969633 ], [ 76.228389, 23.4948342 ], [ 76.2214638, 23.4965767 ], [ 76.2194607, 23.4883071 ], [ 76.2092699, 23.4886606 ], [ 76.2077749, 23.4775056 ], [ 76.204568, 23.4756699 ], [ 76.2010251, 23.4767145 ], [ 76.2005316, 23.4782407 ], [ 76.1978444, 23.4778763 ], [ 76.1973531, 23.4745854 ], [ 76.1987026, 23.472201 ], [ 76.1972306, 23.4654387 ], [ 76.2093363, 23.4621864 ], [ 76.2082921, 23.4593563 ], [ 76.2105644, 23.4542671 ], [ 76.2123982, 23.4523382 ], [ 76.2139111, 23.4535518 ], [ 76.2145658, 23.4521067 ], [ 76.2131892, 23.4497734 ], [ 76.2142796, 23.4486532 ], [ 76.2126989, 23.4483515 ], [ 76.2123756, 23.4404736 ], [ 76.2070444, 23.4360024 ], [ 76.2032127, 23.4351963 ], [ 76.2039385, 23.4297286 ], [ 76.2010116, 23.4277616 ], [ 76.2018969, 23.4189756 ], [ 76.2057899, 23.4170594 ], [ 76.2044287, 23.415042 ], [ 76.2057301, 23.4152581 ], [ 76.2068284, 23.4191492 ], [ 76.2085353, 23.4182994 ], [ 76.2111631, 23.4194764 ], [ 76.2136468, 23.4171409 ], [ 76.2105261, 23.4104428 ], [ 76.2132565, 23.4040033 ], [ 76.209524, 23.396082 ], [ 76.2129503, 23.3847978 ], [ 76.2311486, 23.3861053 ], [ 76.2457124, 23.3927262 ], [ 76.2547673, 23.3738474 ], [ 76.2499957, 23.3703208 ], [ 76.2466121, 23.3656823 ], [ 76.2506317, 23.3602208 ], [ 76.2521541, 23.3516821 ], [ 76.23062, 23.3399644 ], [ 76.2281899, 23.3399705 ], [ 76.2274256, 23.3378987 ], [ 76.2239576, 23.34233 ], [ 76.2234955, 23.3390752 ], [ 76.2206106, 23.338779 ], [ 76.2189852, 23.342613 ], [ 76.2210187, 23.3487653 ], [ 76.2149716, 23.3508096 ], [ 76.2032013, 23.3412763 ], [ 76.2038054, 23.3377499 ], [ 76.1939866, 23.3260614 ], [ 76.1958848, 23.3194916 ], [ 76.1878811, 23.3067588 ], [ 76.1921511, 23.2928786 ], [ 76.1900915, 23.2890238 ], [ 76.1883819, 23.2808301 ], [ 76.1820383, 23.2691979 ], [ 76.1723323, 23.266849 ], [ 76.1666995, 23.2717492 ], [ 76.1592327, 23.2732093 ], [ 76.1584024, 23.2750695 ], [ 76.161853, 23.2766039 ], [ 76.1570748, 23.2818015 ], [ 76.1579795, 23.2838465 ], [ 76.1526036, 23.2844164 ], [ 76.1330149, 23.2813847 ], [ 76.1341676, 23.2704543 ], [ 76.1286745, 23.2629871 ], [ 76.1241692, 23.2608832 ], [ 76.1235829, 23.2512937 ], [ 76.1205879, 23.2436685 ], [ 76.1082565, 23.2397534 ], [ 76.0983047, 23.2382079 ], [ 76.0966034, 23.2436391 ], [ 76.0820878, 23.2425251 ], [ 76.0783921, 23.2341672 ], [ 76.0750213, 23.2338049 ], [ 76.0751062, 23.2288251 ], [ 76.0844177, 23.2283221 ], [ 76.087599, 23.2250813 ], [ 76.0849581, 23.2183851 ], [ 76.0843734, 23.2131342 ], [ 76.0812523, 23.2124246 ], [ 76.0811102, 23.2138783 ], [ 76.0753402, 23.2166126 ], [ 76.0596883, 23.2186205 ], [ 76.0562161, 23.2070069 ], [ 76.0702894, 23.2044163 ], [ 76.0729278, 23.2022591 ], [ 76.0832727, 23.202497 ], [ 76.0843928, 23.1972645 ], [ 76.093868, 23.1977723 ], [ 76.0968163, 23.206333 ], [ 76.1107956, 23.2069128 ], [ 76.1129397, 23.208606 ], [ 76.1302557, 23.214286 ], [ 76.1332793, 23.2143581 ], [ 76.1344511, 23.2060732 ], [ 76.1325216, 23.2030439 ], [ 76.1360188, 23.203292 ], [ 76.14882, 23.1996155 ], [ 76.1471871, 23.1900894 ], [ 76.1447937, 23.1885637 ], [ 76.1450231, 23.1872769 ], [ 76.1433431, 23.1876203 ], [ 76.1416483, 23.1857423 ], [ 76.1412494, 23.1811461 ], [ 76.1256491, 23.1802984 ], [ 76.1253468, 23.1819104 ], [ 76.1182065, 23.1814946 ], [ 76.1027851, 23.1759129 ], [ 76.0952257, 23.1752119 ], [ 76.0847381, 23.1692319 ], [ 76.0834937, 23.1665137 ], [ 76.0808619, 23.1663549 ], [ 76.0809244, 23.1691767 ], [ 76.0791811, 23.1694787 ], [ 76.0754732, 23.1734327 ], [ 76.0738205, 23.1794098 ], [ 76.0744538, 23.1836449 ], [ 76.0600801, 23.1858655 ], [ 76.060521, 23.1597199 ], [ 76.0588523, 23.1599407 ], [ 76.0571596, 23.1565945 ], [ 76.0572425, 23.1469733 ], [ 76.0700105, 23.1451452 ], [ 76.0704473, 23.1274154 ], [ 76.0801033, 23.126827 ], [ 76.0826764, 23.1253151 ], [ 76.090492, 23.1241341 ], [ 76.0908542, 23.1201069 ], [ 76.0924115, 23.1199267 ], [ 76.0958195, 23.1158956 ], [ 76.0989983, 23.1100132 ], [ 76.1046658, 23.105314 ], [ 76.1074381, 23.1056755 ], [ 76.1097231, 23.0983932 ], [ 76.1122173, 23.0961721 ], [ 76.1166199, 23.0881087 ], [ 76.1180209, 23.0809166 ], [ 76.1163476, 23.0729386 ], [ 76.1173338, 23.063209 ], [ 76.1130654, 23.0512622 ], [ 76.1098796, 23.0503906 ], [ 76.1098798, 23.0482099 ], [ 76.1016299, 23.0477484 ], [ 76.0877835, 23.0497098 ], [ 76.0874474, 23.0478586 ], [ 76.0828418, 23.0480786 ], [ 76.0831614, 23.0559032 ], [ 76.0806256, 23.0669911 ], [ 76.0730858, 23.0697203 ], [ 76.0714467, 23.0687266 ], [ 76.0689029, 23.0723195 ], [ 76.0709558, 23.0761805 ], [ 76.0609521, 23.0766192 ], [ 76.0620108, 23.0876451 ], [ 76.064192, 23.0882239 ], [ 76.0649955, 23.0918496 ], [ 76.0641505, 23.0934611 ], [ 76.0662292, 23.0944867 ], [ 76.065101, 23.0961659 ], [ 76.0659913, 23.1027129 ], [ 76.0614954, 23.1043951 ], [ 76.0620794, 23.1081698 ], [ 76.0595456, 23.1093743 ], [ 76.0617028, 23.1097906 ], [ 76.0610793, 23.1173799 ], [ 76.0571693, 23.1176762 ], [ 76.0565095, 23.1193419 ], [ 76.0575731, 23.1205117 ], [ 76.0559025, 23.1226511 ], [ 76.0567266, 23.1243265 ], [ 76.0551102, 23.125459 ], [ 76.0550117, 23.1272739 ], [ 76.0530401, 23.1261353 ], [ 76.0497776, 23.1291 ], [ 76.050874, 23.1326538 ], [ 76.0468637, 23.1368597 ], [ 76.0473797, 23.1393296 ], [ 76.0430886, 23.1391152 ], [ 76.0409784, 23.1408478 ], [ 76.0436265, 23.1456847 ], [ 76.0416272, 23.1498147 ], [ 76.0430453, 23.1541904 ], [ 76.0423462, 23.1556619 ], [ 76.0431549, 23.1585247 ], [ 76.0452635, 23.1598848 ], [ 76.0452088, 23.1615146 ], [ 76.0432892, 23.1625611 ], [ 76.0402965, 23.1617469 ], [ 76.0400842, 23.1655528 ], [ 76.0432767, 23.1670128 ], [ 76.0419065, 23.171852 ], [ 76.0391911, 23.1724735 ], [ 76.0393109, 23.1759726 ], [ 76.0412242, 23.1776171 ], [ 76.0390011, 23.1793722 ], [ 76.0409727, 23.1815268 ], [ 76.0345732, 23.1846836 ], [ 76.0333604, 23.1871165 ], [ 76.0306015, 23.1863518 ], [ 76.028009, 23.1920706 ], [ 76.0246312, 23.1895988 ], [ 76.0230627, 23.1906452 ], [ 76.0224528, 23.1961846 ], [ 76.0169942, 23.2000683 ], [ 76.0202484, 23.2047794 ], [ 76.0103582, 23.2095764 ], [ 76.0078631, 23.2141977 ], [ 76.0091067, 23.2165012 ], [ 76.0081865, 23.2186044 ], [ 76.0094295, 23.2217612 ], [ 76.0090603, 23.2249664 ], [ 76.0016703, 23.2236605 ], [ 76.0034718, 23.230231 ], [ 76.0027619, 23.2373459 ], [ 75.9916185, 23.2406308 ], [ 75.9911092, 23.2393038 ], [ 75.9868443, 23.239623 ], [ 75.9855313, 23.241177 ], [ 75.9800524, 23.2386389 ], [ 75.97891, 23.2397368 ], [ 75.9701349, 23.2390787 ], [ 75.9685099, 23.2559738 ], [ 75.9717742, 23.2630058 ], [ 75.9939112, 23.2640155 ], [ 75.9903422, 23.2790117 ], [ 75.9874342, 23.2787249 ], [ 75.9832986, 23.2895272 ], [ 75.9766683, 23.2985703 ], [ 75.9752149, 23.3027112 ], [ 75.9640984, 23.3008985 ], [ 75.9608124, 23.3216819 ], [ 75.9585872, 23.3202158 ], [ 75.9467711, 23.3197522 ], [ 75.9419688, 23.2971218 ], [ 75.9412157, 23.2962417 ], [ 75.9306436, 23.2967063 ], [ 75.9309719, 23.2750894 ], [ 75.9260844, 23.2741159 ], [ 75.9290335, 23.2676271 ], [ 75.928618, 23.2551754 ], [ 75.9321848, 23.2431877 ], [ 75.9323516, 23.2224193 ], [ 75.9499008, 23.2259651 ], [ 75.9510238, 23.2249894 ], [ 75.9513001, 23.2211291 ], [ 75.9536385, 23.2185906 ], [ 75.9531779, 23.2079855 ], [ 75.9513947, 23.2072504 ], [ 75.9536053, 23.178702 ], [ 75.9503376, 23.1775613 ], [ 75.9482179, 23.1592184 ], [ 75.9445072, 23.1502626 ], [ 75.9363521, 23.1472501 ], [ 75.9306399, 23.1474509 ], [ 75.9295352, 23.1443179 ], [ 75.9326642, 23.131797 ], [ 75.959012, 23.1254011 ], [ 75.9601906, 23.121012 ], [ 75.9576658, 23.1113876 ], [ 75.9578123, 23.1035768 ], [ 75.9670068, 23.102294 ], [ 75.9795654, 23.1030717 ], [ 75.9792514, 23.0946109 ], [ 75.9812369, 23.0872729 ], [ 75.9890993, 23.087895 ], [ 75.9917359, 23.0725017 ], [ 75.9820046, 23.0708742 ], [ 75.9792666, 23.0575661 ], [ 75.9798278, 23.0388107 ], [ 75.9728415, 23.0382057 ], [ 75.9642505, 23.0233521 ], [ 75.951187, 23.0222032 ], [ 75.9297128, 23.029436 ], [ 75.9249419, 23.0289139 ], [ 75.9225602, 23.0257226 ], [ 75.9199355, 23.0245223 ], [ 75.9157558, 23.0263792 ], [ 75.9075756, 23.027424 ], [ 75.9031454, 23.0227519 ], [ 75.9011357, 23.0226755 ], [ 75.8983495, 23.0168652 ], [ 75.9008099, 23.0023086 ], [ 75.8970314, 23.0018456 ], [ 75.8954846, 23.0060433 ], [ 75.8918948, 23.0049647 ], [ 75.8877544, 23.0082204 ], [ 75.8874571, 23.0103605 ], [ 75.8891888, 23.0127533 ], [ 75.8843165, 23.0161895 ], [ 75.8837801, 23.0195306 ], [ 75.8865265, 23.0214538 ], [ 75.8836246, 23.0274453 ], [ 75.88101, 23.0282581 ], [ 75.8777904, 23.0261136 ], [ 75.8768833, 23.0305699 ], [ 75.8719027, 23.0333556 ], [ 75.8746442, 23.0373513 ], [ 75.8743124, 23.0392295 ], [ 75.8707903, 23.0380556 ], [ 75.8670729, 23.0387824 ], [ 75.8670047, 23.0368455 ], [ 75.8466523, 23.0364324 ], [ 75.8421855, 23.0291218 ], [ 75.8341406, 23.0326416 ], [ 75.8154061, 23.0374848 ], [ 75.817698, 23.0398695 ], [ 75.816639, 23.0408354 ], [ 75.8111116, 23.0408152 ], [ 75.8075653, 23.0400507 ], [ 75.8072545, 23.0373641 ], [ 75.8047631, 23.0344509 ], [ 75.7940501, 23.034947 ], [ 75.7776804, 23.0324636 ], [ 75.7782252, 23.0277956 ], [ 75.7600297, 23.0284156 ], [ 75.760029, 23.0349215 ], [ 75.7584677, 23.0352455 ], [ 75.7403242, 23.0350733 ], [ 75.7329812, 23.0336021 ], [ 75.7316597, 23.0156741 ], [ 75.7274498, 23.0149907 ], [ 75.7176799, 23.0147936 ], [ 75.7098238, 23.0174618 ], [ 75.7096051, 23.0186178 ], [ 75.6980495, 23.0180096 ], [ 75.6847981, 23.020828 ], [ 75.6790811, 23.020225 ], [ 75.6783821, 23.016216 ], [ 75.6717429, 23.0141141 ], [ 75.6579456, 23.0189531 ], [ 75.6566095, 23.0207052 ], [ 75.652722, 23.0211168 ], [ 75.6502195, 23.0199298 ], [ 75.6504836, 23.0236727 ], [ 75.6485226, 23.0235737 ], [ 75.6492938, 23.0259078 ], [ 75.6446786, 23.0214296 ], [ 75.6445417, 23.0196372 ], [ 75.64124, 23.0237327 ], [ 75.6409372, 23.0207392 ], [ 75.6381081, 23.0208795 ], [ 75.6367376, 23.0225592 ], [ 75.6355326, 23.0201257 ], [ 75.6363323, 23.0176695 ], [ 75.6394443, 23.0182607 ], [ 75.6410392, 23.0171002 ], [ 75.6408338, 23.0127026 ], [ 75.6457499, 23.0100698 ], [ 75.6462273, 23.0069048 ], [ 75.6322394, 23.0069196 ], [ 75.6313035, 23.0176834 ], [ 75.6333089, 23.0291422 ], [ 75.628387, 23.0300905 ], [ 75.6263481, 23.0370074 ], [ 75.6211232, 23.043676 ], [ 75.6222306, 23.0451027 ], [ 75.6270702, 23.0458657 ], [ 75.6271922, 23.0475272 ], [ 75.6247529, 23.0516358 ], [ 75.6229867, 23.0516222 ], [ 75.622011, 23.0494777 ], [ 75.6205863, 23.049288 ], [ 75.6162001, 23.0527598 ], [ 75.6172927, 23.0569858 ], [ 75.6206007, 23.0590177 ], [ 75.6210592, 23.0631805 ], [ 75.6265679, 23.0623814 ], [ 75.6296957, 23.0655643 ], [ 75.6271487, 23.0695782 ], [ 75.6282126, 23.0728423 ], [ 75.6259679, 23.0752624 ], [ 75.6280712, 23.078924 ], [ 75.6277687, 23.0824411 ], [ 75.6233719, 23.0847663 ], [ 75.6165789, 23.0827434 ], [ 75.6156174, 23.0838676 ], [ 75.6067798, 23.0831129 ], [ 75.6064227, 23.089235 ], [ 75.5813446, 23.0851442 ], [ 75.5659915, 23.0859655 ], [ 75.56441, 23.075549 ], [ 75.5664108, 23.0752879 ], [ 75.5657293, 23.0715808 ], [ 75.5684132, 23.0712116 ], [ 75.5649514, 23.0651559 ], [ 75.5528119, 23.0644284 ], [ 75.545694, 23.0624339 ], [ 75.5454384, 23.0489432 ], [ 75.5372351, 23.0445865 ], [ 75.5353423, 23.0370275 ], [ 75.5339179, 23.0369679 ], [ 75.5336214, 23.0352793 ], [ 75.5284808, 23.0338359 ], [ 75.5258837, 23.0362949 ], [ 75.5204144, 23.0372215 ], [ 75.5220772, 23.0381708 ], [ 75.5208696, 23.0417504 ], [ 75.5179583, 23.0402088 ], [ 75.5167898, 23.0372416 ], [ 75.5187205, 23.032403 ], [ 75.5148611, 23.0273481 ], [ 75.51647, 23.0222293 ], [ 75.507071, 23.0216356 ], [ 75.5073718, 23.0178614 ], [ 75.5112016, 23.0168032 ], [ 75.5116322, 23.0151871 ], [ 75.5094744, 23.0117135 ], [ 75.5076348, 23.0126739 ], [ 75.5057483, 23.0058775 ], [ 75.5022503, 23.0015043 ], [ 75.4990848, 23.0023201 ], [ 75.4981024, 22.9989003 ], [ 75.4969059, 22.9988116 ], [ 75.4950241, 23.0029723 ], [ 75.4877429, 23.0034337 ], [ 75.4885524, 23.0148785 ], [ 75.4843845, 23.017911 ], [ 75.4751988, 23.0164181 ], [ 75.4596134, 23.0064177 ], [ 75.4590956, 23.005253 ], [ 75.4737351, 23.0026846 ], [ 75.473533, 22.9862269 ], [ 75.4857237, 22.985537 ], [ 75.4870663, 22.9874865 ], [ 75.4890056, 22.9854444 ], [ 75.4907469, 22.9860978 ], [ 75.4929109, 22.9846153 ], [ 75.4862896, 22.9680321 ], [ 75.4780164, 22.9694961 ], [ 75.4634569, 22.9695274 ], [ 75.4628192, 22.9637938 ], [ 75.4557462, 22.9419722 ], [ 75.4760631, 22.9394005 ], [ 75.4755074, 22.9263344 ], [ 75.4593632, 22.9261181 ], [ 75.4561543, 22.9152477 ], [ 75.4510261, 22.9139635 ], [ 75.4485535, 22.9109712 ], [ 75.4389649, 22.907264 ], [ 75.4407113, 22.8804892 ], [ 75.4370314, 22.8677945 ], [ 75.4145559, 22.868926 ], [ 75.4057521, 22.8713661 ], [ 75.3945453, 22.8694671 ], [ 75.3714649, 22.868344 ], [ 75.3691607, 22.8596751 ], [ 75.3705447, 22.8466492 ], [ 75.3630134, 22.8460529 ], [ 75.351563, 22.8304386 ], [ 75.3410663, 22.8297279 ], [ 75.3331977, 22.8364941 ], [ 75.3303516, 22.8404982 ], [ 75.3296727, 22.8461012 ], [ 75.3310953, 22.8610103 ], [ 75.3346874, 22.8731386 ], [ 75.3313642, 22.8736343 ], [ 75.330836, 22.8798559 ], [ 75.3232825, 22.8818899 ], [ 75.3243354, 22.8941892 ], [ 75.3223591, 22.9008662 ], [ 75.3247236, 22.9119469 ], [ 75.3263506, 22.9144577 ], [ 75.3223907, 22.9202312 ], [ 75.3185166, 22.9300409 ], [ 75.3069781, 22.9311562 ], [ 75.3067192, 22.9322758 ], [ 75.3058299, 22.9557894 ], [ 75.3250923, 22.9569299 ], [ 75.3263349, 22.9863363 ], [ 75.3001483, 22.9945841 ], [ 75.3025068, 23.007422 ], [ 75.3018178, 23.0188626 ], [ 75.3071095, 23.0299356 ], [ 75.3024916, 23.0361551 ], [ 75.3018378, 23.0452389 ], [ 75.3131032, 23.0438666 ], [ 75.3207113, 23.0379412 ], [ 75.3347656, 23.0394579 ], [ 75.3354576, 23.0586826 ], [ 75.3453816, 23.0591497 ], [ 75.3479278, 23.0635613 ], [ 75.3469507, 23.069092 ], [ 75.3450668, 23.0710872 ], [ 75.3308925, 23.0686233 ], [ 75.3245674, 23.0688302 ], [ 75.3252461, 23.0708836 ], [ 75.3235505, 23.0769872 ], [ 75.3167083, 23.0901458 ], [ 75.3155738, 23.0954911 ], [ 75.3162014, 23.1000333 ], [ 75.3200196, 23.1080983 ], [ 75.3185109, 23.1094342 ], [ 75.3171548, 23.1076187 ], [ 75.3119612, 23.1082398 ], [ 75.3098635, 23.1058054 ], [ 75.3073888, 23.106012 ], [ 75.3064168, 23.1076099 ], [ 75.3037036, 23.1064755 ], [ 75.300277, 23.1068757 ], [ 75.2969564, 23.1097094 ], [ 75.3002892, 23.1112325 ], [ 75.3005347, 23.1265743 ], [ 75.2921224, 23.1287237 ], [ 75.2909299, 23.1307864 ], [ 75.2683417, 23.1314229 ], [ 75.2682619, 23.1334681 ], [ 75.2503555, 23.1333241 ], [ 75.240247, 23.1356685 ], [ 75.2374601, 23.153888 ], [ 75.2390864, 23.1543067 ], [ 75.2389701, 23.1554356 ], [ 75.2369689, 23.1620287 ], [ 75.2351281, 23.1620977 ], [ 75.2343042, 23.1637553 ], [ 75.2351947, 23.1837419 ], [ 75.2302439, 23.185181 ], [ 75.2254793, 23.2073655 ], [ 75.2258822, 23.2104625 ], [ 75.2393617, 23.2137129 ], [ 75.2388131, 23.2176999 ], [ 75.2403586, 23.2254597 ], [ 75.2486726, 23.2249297 ], [ 75.2760376, 23.215183 ], [ 75.2838183, 23.2162306 ], [ 75.2838406, 23.2265876 ], [ 75.2827374, 23.2325511 ], [ 75.2802494, 23.2345316 ], [ 75.2803888, 23.2376063 ], [ 75.2670821, 23.2416837 ], [ 75.2654427, 23.2448068 ], [ 75.2623302, 23.2452336 ], [ 75.2620179, 23.2504972 ], [ 75.2633094, 23.2544079 ], [ 75.2606397, 23.2681627 ], [ 75.2652715, 23.269087 ], [ 75.2673354, 23.2731065 ], [ 75.2726319, 23.2679993 ], [ 75.2815807, 23.2732195 ], [ 75.2961294, 23.2726405 ], [ 75.3049759, 23.2702021 ], [ 75.3082038, 23.2748267 ], [ 75.3106331, 23.273848 ], [ 75.3213005, 23.2758656 ], [ 75.3248553, 23.2838128 ], [ 75.3258296, 23.292319 ], [ 75.313737, 23.2938362 ], [ 75.3124012, 23.2969599 ], [ 75.3065266, 23.296023 ], [ 75.3053081, 23.2987313 ], [ 75.2951408, 23.2998281 ], [ 75.2902727, 23.2994959 ], [ 75.2822292, 23.2964936 ], [ 75.2787241, 23.2973538 ], [ 75.2670199, 23.2947773 ], [ 75.2598104, 23.2949573 ], [ 75.2589007, 23.3125778 ], [ 75.2397114, 23.3136565 ], [ 75.2342325, 23.3089515 ], [ 75.2321208, 23.3090162 ], [ 75.2307484, 23.3104709 ], [ 75.2301899, 23.3151034 ], [ 75.2266882, 23.319458 ], [ 75.2233058, 23.3201464 ], [ 75.2163234, 23.3251169 ], [ 75.2073447, 23.3204627 ], [ 75.2037436, 23.3236249 ], [ 75.1943053, 23.3271283 ], [ 75.1967234, 23.3418363 ], [ 75.2043179, 23.3437875 ], [ 75.205274, 23.3483424 ], [ 75.1989985, 23.3532124 ], [ 75.1922957, 23.3556309 ], [ 75.1914757, 23.3683537 ], [ 75.1811579, 23.370552 ], [ 75.1794216, 23.382011 ], [ 75.1729376, 23.3856024 ], [ 75.1707869, 23.3896528 ], [ 75.1682044, 23.3898702 ], [ 75.168333, 23.3940599 ], [ 75.1660448, 23.3970673 ], [ 75.1654525, 23.3957763 ], [ 75.1651892, 23.3982007 ], [ 75.1638443, 23.3991536 ], [ 75.162812, 23.3987747 ], [ 75.1642348, 23.3963951 ], [ 75.1560172, 23.3966092 ], [ 75.1543498, 23.3985824 ], [ 75.1499769, 23.3999105 ], [ 75.1345491, 23.4012035 ], [ 75.1358512, 23.4109733 ], [ 75.1481937, 23.4122947 ], [ 75.1508406, 23.4139105 ], [ 75.1509979, 23.4171792 ], [ 75.1529942, 23.4187048 ], [ 75.154755, 23.4169076 ], [ 75.1568245, 23.4170742 ], [ 75.1559982, 23.4194266 ], [ 75.1586511, 23.4245005 ], [ 75.1571649, 23.4288891 ], [ 75.1591173, 23.4298278 ], [ 75.1552228, 23.4304065 ], [ 75.1542788, 23.4316573 ], [ 75.1559728, 23.4362845 ], [ 75.1578815, 23.4381035 ], [ 75.1643549, 23.4378717 ], [ 75.1624195, 23.4459716 ], [ 75.1652288, 23.4475601 ], [ 75.1661497, 23.4508014 ], [ 75.1693804, 23.454033 ], [ 75.1746703, 23.4539908 ], [ 75.1746173, 23.4560404 ], [ 75.1725427, 23.456935 ], [ 75.1732778, 23.4598558 ], [ 75.17111, 23.4599965 ], [ 75.1700095, 23.4618162 ], [ 75.1726235, 23.4636438 ], [ 75.1765819, 23.4619225 ], [ 75.1774244, 23.4639087 ], [ 75.1729538, 23.4705648 ], [ 75.1769393, 23.4745364 ], [ 75.1730784, 23.4764338 ], [ 75.1735002, 23.4787452 ], [ 75.1709909, 23.4831342 ], [ 75.1743583, 23.4833048 ], [ 75.1751278, 23.4857605 ], [ 75.1734595, 23.4880545 ], [ 75.1731621, 23.491409 ], [ 75.1771684, 23.4966899 ], [ 75.1760586, 23.5005322 ], [ 75.1778032, 23.5050629 ], [ 75.1801076, 23.501983 ], [ 75.1870457, 23.5049601 ], [ 75.1843094, 23.5055797 ], [ 75.1825682, 23.5089935 ], [ 75.1843205, 23.5193359 ], [ 75.1877879, 23.5216912 ], [ 75.1886764, 23.5261784 ], [ 75.1992094, 23.5284265 ], [ 75.1994988, 23.5293789 ], [ 75.1965034, 23.5315745 ], [ 75.1987583, 23.5359752 ], [ 75.2053085, 23.533665 ], [ 75.2069968, 23.5321606 ], [ 75.2072099, 23.5284766 ], [ 75.211019, 23.5281134 ], [ 75.2109055, 23.5267003 ], [ 75.2095539, 23.5263399 ], [ 75.2103351, 23.5230799 ], [ 75.225249, 23.5235901 ], [ 75.2261452, 23.5174542 ], [ 75.2291982, 23.5148697 ], [ 75.2396465, 23.5156028 ], [ 75.239602, 23.5208127 ], [ 75.2432331, 23.5243811 ], [ 75.2442248, 23.5326376 ], [ 75.2568709, 23.5297686 ], [ 75.2568377, 23.5395698 ], [ 75.258266, 23.5413136 ], [ 75.2639592, 23.5433674 ], [ 75.2743818, 23.5404716 ], [ 75.2761872, 23.5491227 ], [ 75.2784349, 23.5491692 ], [ 75.281517, 23.5605029 ], [ 75.2789879, 23.5633771 ], [ 75.2783732, 23.5666274 ], [ 75.2804129, 23.5703532 ], [ 75.279389, 23.5706821 ], [ 75.2781356, 23.5835254 ], [ 75.2803747, 23.5896757 ], [ 75.283544, 23.5896775 ], [ 75.2836696, 23.5921968 ], [ 75.2984139, 23.5933289 ], [ 75.3005006, 23.6024042 ], [ 75.3126893, 23.6026443 ], [ 75.3112317, 23.6080613 ], [ 75.3144198, 23.6217734 ], [ 75.3285258, 23.6228617 ], [ 75.3368546, 23.6256901 ], [ 75.3368148, 23.6275592 ], [ 75.3447874, 23.6261568 ], [ 75.345332, 23.6229335 ], [ 75.3417456, 23.6219892 ], [ 75.3402853, 23.6227835 ], [ 75.3404033, 23.620752 ], [ 75.3367042, 23.6206202 ], [ 75.3330202, 23.6184748 ], [ 75.3336358, 23.5925385 ], [ 75.3481502, 23.5944017 ], [ 75.3723205, 23.602485 ], [ 75.3752843, 23.5993745 ], [ 75.3824123, 23.600363 ], [ 75.3873458, 23.6034958 ], [ 75.3974132, 23.6016301 ], [ 75.4049995, 23.5921391 ], [ 75.4063026, 23.5923961 ], [ 75.4052752, 23.5772002 ], [ 75.4162072, 23.5753376 ], [ 75.4180964, 23.5709533 ], [ 75.4201386, 23.5704336 ], [ 75.4223121, 23.5672546 ], [ 75.4416312, 23.5625297 ], [ 75.4422393, 23.5543986 ], [ 75.4456297, 23.5481985 ], [ 75.445682, 23.5453949 ], [ 75.455211, 23.5446814 ], [ 75.4585819, 23.5475555 ], [ 75.4615988, 23.5481407 ], [ 75.4667212, 23.5341649 ], [ 75.4712435, 23.5313585 ], [ 75.4898083, 23.5286823 ], [ 75.4900846, 23.5255263 ], [ 75.5061779, 23.5257056 ], [ 75.5080248, 23.5300952 ], [ 75.5219552, 23.5360779 ], [ 75.5244745, 23.5392849 ], [ 75.524761, 23.5425402 ], [ 75.5188382, 23.5457101 ], [ 75.5060569, 23.5515157 ], [ 75.4987179, 23.5529326 ], [ 75.4983559, 23.5586078 ], [ 75.4992225, 23.5700339 ], [ 75.5039692, 23.5746064 ], [ 75.5088566, 23.5755086 ], [ 75.508413, 23.5842395 ], [ 75.5133899, 23.5840896 ], [ 75.5139786, 23.5947174 ], [ 75.5102941, 23.5954101 ], [ 75.5050317, 23.6020561 ], [ 75.5036842, 23.6183573 ], [ 75.5096221, 23.6301313 ], [ 75.5112187, 23.6311574 ], [ 75.5153056, 23.6485233 ], [ 75.5220992, 23.6659137 ], [ 75.5320021, 23.6699378 ], [ 75.5334777, 23.6696678 ], [ 75.5336872, 23.667976 ], [ 75.5410727, 23.665609 ], [ 75.556208, 23.6660814 ], [ 75.5596403, 23.6556089 ], [ 75.5730877, 23.6555057 ], [ 75.5826647, 23.6538382 ], [ 75.5858651, 23.6536901 ], [ 75.5869364, 23.6607962 ], [ 75.6214115, 23.6599249 ], [ 75.6264796, 23.6774415 ], [ 75.627127, 23.6951206 ], [ 75.6336276, 23.6950978 ], [ 75.6397168, 23.6975667 ], [ 75.6418444, 23.6971195 ], [ 75.6436737, 23.701345 ], [ 75.6443762, 23.7103605 ], [ 75.6501275, 23.710504 ], [ 75.6596141, 23.7072924 ], [ 75.6669682, 23.7063921 ], [ 75.6731092, 23.7135729 ], [ 75.6801214, 23.7149475 ], [ 75.6875201, 23.7145564 ], [ 75.6904187, 23.7160405 ], [ 75.6868119, 23.7304299 ], [ 75.6885128, 23.739088 ], [ 75.6902994, 23.7420488 ], [ 75.6899735, 23.7474663 ], [ 75.6962701, 23.7462627 ], [ 75.7110729, 23.7481648 ], [ 75.7130198, 23.7563525 ], [ 75.7286322, 23.7574897 ] ] ] } }
]
}
