{
"type": "FeatureCollection",
"name": "2323",
"crs": { "type": "name", "properties": { "name": "urn:ogc:def:crs:OGC:1.3:CRS84" } },
"features": [
{ "type": "Feature", "properties": { "code": "2323", "name": "Dewas", "type": "district" }, "geometry": { "type": "Polygon", "coordinates": [ [ [ 75.9608548, 23.3214067 ], [ 75.9640984, 23.3008985 ], [ 75.9752149, 23.3027112 ], [ 75.9766683, 23.2985703 ], [ 75.9832986, 23.2895272 ], [ 75.9874342, 23.2787249 ], [ 75.9903422, 23.2790117 ], [ 75.9939112, 23.2640155 ], [ 75.9717742, 23.2630058 ], [ 75.9685099, 23.2559738 ], [ 75.9701349, 23.2390787 ], [ 75.97891, 23.2397368 ], [ 75.9800524, 23.2386389 ], [ 75.9855313, 23.241177 ], [ 75.9868443, 23.239623 ], [ 75.9911092, 23.2393038 ], [ 75.9916185, 23.2406308 ], [ 76.0027619, 23.2373459 ], [ 76.0034718, 23.230231 ], [ 76.0016703, 23.2236605 ], [ 76.0090603, 23.2249664 ], [ 76.0094295, 23.2217612 ], [ 76.0081865, 23.2186044 ], [ 76.0091067, 23.2165012 ], [ 76.0078631, 23.2141977 ], [ 76.0103582, 23.2095764 ], [ 76.0202484, 23.2047794 ], [ 76.0169942, 23.2000683 ], [ 76.0224528, 23.1961846 ], [ 76.0230627, 23.1906452 ], [ 76.0246312, 23.1895988 ], [ 76.028009, 23.1920706 ], [ 76.0306015, 23.1863518 ], [ 76.0333604, 23.1871165 ], [ 76.0345732, 23.1846836 ], [ 76.0409727, 23.1815268 ], [ 76.0390011, 23.1793722 ], [ 76.0412242, 23.1776171 ], [ 76.0393109, 23.1759726 ], [ 76.0391911, 23.1724735 ], [ 76.0419065, 23.171852 ], [ 76.0432767, 23.1670128 ], [ 76.0400842, 23.1655528 ], [ 76.0402965, 23.1617469 ], [ 76.0432892, 23.1625611 ], [ 76.0452088, 23.1615146 ], [ 76.0452635, 23.1598848 ], [ 76.0431549, 23.1585247 ], [ 76.0423462, 23.1556619 ], [ 76.0430453, 23.1541904 ], [ 76.0416272, 23.1498147 ], [ 76.0436265, 23.1456847 ], [ 76.0409784, 23.1408478 ], [ 76.0430886, 23.1391152 ], [ 76.0473797, 23.1393296 ], [ 76.0468637, 23.1368597 ], [ 76.050874, 23.1326538 ], [ 76.0497776, 23.1291 ], [ 76.0530401, 23.1261353 ], [ 76.0550117, 23.1272739 ], [ 76.0551102, 23.125459 ], [ 76.0567266, 23.1243265 ], [ 76.0559025, 23.1226511 ], [ 76.0575731, 23.1205117 ], [ 76.0565095, 23.1193419 ], [ 76.0571693, 23.1176762 ], [ 76.0610793, 23.1173799 ], [ 76.0617028, 23.1097906 ], [ 76.0595456, 23.1093743 ], [ 76.0620794, 23.1081698 ], [ 76.0614954, 23.1043951 ], [ 76.0659913, 23.1027129 ], [ 76.065101, 23.0961659 ], [ 76.0662292, 23.0944867 ], [ 76.0641505, 23.0934611 ], [ 76.0649955, 23.0918496 ], [ 76.064192, 23.0882239 ], [ 76.0620108, 23.0876451 ], [ 76.0609521, 23.0766192 ], [ 76.0709558, 23.0761805 ], [ 76.0689029, 23.0723195 ], [ 76.0714467, 23.0687266 ], [ 76.0730858, 23.0697203 ], [ 76.0806256, 23.0669911 ], [ 76.0831614, 23.0559032 ], [ 76.0828418, 23.0480786 ], [ 76.0874474, 23.0478586 ], [ 76.0877835, 23.0497098 ], [ 76.1016299, 23.0477484 ], [ 76.1085089, 23.0480653 ], [ 76.1098798, 23.0482099 ], [ 76.1098796, 23.0503906 ], [ 76.1127337, 23.0509146 ], [ 76.1173338, 23.063209 ], [ 76.1163476, 23.0729386 ], [ 76.1178647, 23.0819279 ], [ 76.1166199, 23.0881087 ], [ 76.1122173, 23.0961721 ], [ 76.1097231, 23.0983932 ], [ 76.1074381, 23.1056755 ], [ 76.1046658, 23.105314 ], [ 76.0989983, 23.1100132 ], [ 76.0958195, 23.1158956 ], [ 76.0924115, 23.1199267 ], [ 76.0908542, 23.1201069 ], [ 76.090492, 23.1241341 ], [ 76.0826764, 23.1253151 ], [ 76.0801033, 23.126827 ], [ 76.0704473, 23.1274154 ], [ 76.0700105, 23.1451452 ], [ 76.0572425, 23.1469733 ], [ 76.0571596, 23.1565945 ], [ 76.0588523, 23.1599407 ], [ 76.060521, 23.1597199 ], [ 76.0600801, 23.1858655 ], [ 76.0744538, 23.1836449 ], [ 76.0738205, 23.1794098 ], [ 76.0754732, 23.1734327 ], [ 76.0791811, 23.1694787 ], [ 76.0809244, 23.1691767 ], [ 76.0808619, 23.1663549 ], [ 76.0834937, 23.1665137 ], [ 76.0847381, 23.1692319 ], [ 76.0952257, 23.1752119 ], [ 76.1027851, 23.1759129 ], [ 76.1182065, 23.1814946 ], [ 76.1253468, 23.1819104 ], [ 76.1256491, 23.1802984 ], [ 76.1412494, 23.1811461 ], [ 76.1416483, 23.1857423 ], [ 76.1433431, 23.1876203 ], [ 76.1450231, 23.1872769 ], [ 76.1447937, 23.1885637 ], [ 76.1471871, 23.1900894 ], [ 76.14882, 23.1996155 ], [ 76.1360188, 23.203292 ], [ 76.1325216, 23.2030439 ], [ 76.1344511, 23.2060732 ], [ 76.1332793, 23.2143581 ], [ 76.1129397, 23.208606 ], [ 76.1107956, 23.2069128 ], [ 76.0968163, 23.206333 ], [ 76.093868, 23.1977723 ], [ 76.0843928, 23.1972645 ], [ 76.0832727, 23.202497 ], [ 76.0729278, 23.2022591 ], [ 76.0702894, 23.2044163 ], [ 76.0562161, 23.2070069 ], [ 76.0596883, 23.2186205 ], [ 76.0753402, 23.2166126 ], [ 76.0811102, 23.2138783 ], [ 76.0812523, 23.2124246 ], [ 76.0843734, 23.2131342 ], [ 76.0849581, 23.2183851 ], [ 76.087599, 23.2250813 ], [ 76.0844177, 23.2283221 ], [ 76.0751062, 23.2288251 ], [ 76.0750213, 23.2338049 ], [ 76.0783921, 23.2341672 ], [ 76.0820878, 23.2425251 ], [ 76.0966034, 23.2436391 ], [ 76.0983047, 23.2382079 ], [ 76.1082565, 23.2397534 ], [ 76.1205879, 23.2436685 ], [ 76.1285322, 23.2437363 ], [ 76.1270715, 23.239858 ], [ 76.1354842, 23.236765 ], [ 76.1392261, 23.2327782 ], [ 76.1418937, 23.2329946 ], [ 76.141913, 23.2313647 ], [ 76.1438622, 23.2311117 ], [ 76.153746, 23.2340403 ], [ 76.1554212, 23.2318096 ], [ 76.161796, 23.2293883 ], [ 76.1632357, 23.2247286 ], [ 76.1842196, 23.2296749 ], [ 76.1910391, 23.2286337 ], [ 76.1922244, 23.2251974 ], [ 76.2049829, 23.222514 ], [ 76.2173444, 23.2257851 ], [ 76.2228536, 23.2239667 ], [ 76.2267489, 23.2265377 ], [ 76.2448447, 23.2221049 ], [ 76.2523299, 23.2167091 ], [ 76.2540542, 23.2168369 ], [ 76.2579632, 23.2211469 ], [ 76.2613286, 23.2215693 ], [ 76.2756164, 23.229525 ], [ 76.2905554, 23.2299355 ], [ 76.2992912, 23.2285222 ], [ 76.3065839, 23.2305167 ], [ 76.3125398, 23.2290925 ], [ 76.3202713, 23.2339713 ], [ 76.3323896, 23.2266248 ], [ 76.3346609, 23.2278039 ], [ 76.3420767, 23.2275663 ], [ 76.3560049, 23.2256542 ], [ 76.360225, 23.231542 ], [ 76.364871, 23.2328742 ], [ 76.3825951, 23.2297726 ], [ 76.3883301, 23.2260294 ], [ 76.3959364, 23.2259653 ], [ 76.4005715, 23.2210028 ], [ 76.4136237, 23.2191356 ], [ 76.4122683, 23.2114154 ], [ 76.4183612, 23.2015625 ], [ 76.4166024, 23.2000641 ], [ 76.4166311, 23.1983214 ], [ 76.4197961, 23.1982843 ], [ 76.4223546, 23.1961932 ], [ 76.4250656, 23.1968335 ], [ 76.4256995, 23.1940657 ], [ 76.4283474, 23.1960062 ], [ 76.432392, 23.1926272 ], [ 76.4439812, 23.1956795 ], [ 76.4518107, 23.1961635 ], [ 76.4597708, 23.1945927 ], [ 76.459198, 23.1897213 ], [ 76.4730225, 23.1830943 ], [ 76.4822866, 23.1829799 ], [ 76.488466, 23.1849395 ], [ 76.4964287, 23.1820215 ], [ 76.5118359, 23.1801379 ], [ 76.5162309, 23.1743168 ], [ 76.5224219, 23.1692417 ], [ 76.5254716, 23.1589859 ], [ 76.5272734, 23.1588922 ], [ 76.5252632, 23.1503308 ], [ 76.526709, 23.1494197 ], [ 76.5269254, 23.1472211 ], [ 76.530129, 23.1461485 ], [ 76.5309894, 23.1445372 ], [ 76.5362431, 23.1439217 ], [ 76.5426457, 23.1405977 ], [ 76.5408948, 23.1377343 ], [ 76.5403034, 23.1309256 ], [ 76.5381557, 23.1304504 ], [ 76.5343719, 23.1240055 ], [ 76.5303958, 23.1205718 ], [ 76.5280193, 23.1127913 ], [ 76.5132914, 23.1148178 ], [ 76.5080076, 23.117541 ], [ 76.5011241, 23.113215 ], [ 76.497043, 23.0982539 ], [ 76.5249267, 23.0900884 ], [ 76.5244048, 23.083099 ], [ 76.5211518, 23.0742838 ], [ 76.5014131, 23.0745542 ], [ 76.4916253, 23.0771286 ], [ 76.4862906, 23.0876792 ], [ 76.4818221, 23.0898585 ], [ 76.456295, 23.0915985 ], [ 76.4539251, 23.0873602 ], [ 76.4532949, 23.0778837 ], [ 76.4673083, 23.0757405 ], [ 76.4677706, 23.0666879 ], [ 76.465966, 23.0605983 ], [ 76.4649041, 23.0486751 ], [ 76.4619922, 23.0497738 ], [ 76.4602398, 23.0485151 ], [ 76.4575661, 23.0322943 ], [ 76.4539766, 23.0272029 ], [ 76.4641117, 23.0234641 ], [ 76.4694214, 23.0062725 ], [ 76.4696616, 23.0013103 ], [ 76.4655562, 23.002559 ], [ 76.4634595, 23.0000642 ], [ 76.4588094, 23.0003117 ], [ 76.4546281, 22.9974198 ], [ 76.4497999, 22.997526 ], [ 76.4414621, 22.9910914 ], [ 76.4385613, 22.9927405 ], [ 76.4327812, 22.990237 ], [ 76.4302038, 22.9838628 ], [ 76.432401, 22.9791032 ], [ 76.4342297, 22.9794231 ], [ 76.4434685, 22.9758344 ], [ 76.4449726, 22.970786 ], [ 76.464547, 22.9668436 ], [ 76.4613553, 22.9546189 ], [ 76.46369, 22.9463822 ], [ 76.4607234, 22.9423159 ], [ 76.4570846, 22.930782 ], [ 76.4532211, 22.925849 ], [ 76.4558698, 22.9207818 ], [ 76.4546505, 22.9196944 ], [ 76.4593927, 22.9191998 ], [ 76.4661297, 22.9133175 ], [ 76.4690732, 22.9058118 ], [ 76.4675389, 22.8999161 ], [ 76.4732603, 22.8999127 ], [ 76.4774254, 22.8977293 ], [ 76.4797795, 22.8980167 ], [ 76.484495, 22.8956522 ], [ 76.4852052, 22.8939224 ], [ 76.4930268, 22.8926629 ], [ 76.5007188, 22.8887576 ], [ 76.5041094, 22.8843535 ], [ 76.5010984, 22.8784636 ], [ 76.5015097, 22.8761883 ], [ 76.5059587, 22.8759253 ], [ 76.5109879, 22.8691881 ], [ 76.5168745, 22.8680815 ], [ 76.5150992, 22.8642786 ], [ 76.5220922, 22.8624637 ], [ 76.5287402, 22.8588378 ], [ 76.5271499, 22.8549132 ], [ 76.5351724, 22.8421178 ], [ 76.5339538, 22.8357825 ], [ 76.5306679, 22.8327917 ], [ 76.5255767, 22.820774 ], [ 76.5251862, 22.8150667 ], [ 76.5282861, 22.8049187 ], [ 76.5257532, 22.7987857 ], [ 76.5272373, 22.8004166 ], [ 76.5290642, 22.7994469 ], [ 76.5309238, 22.8004504 ], [ 76.5335922, 22.793729 ], [ 76.5360982, 22.7965027 ], [ 76.5385051, 22.7945715 ], [ 76.5389027, 22.7972356 ], [ 76.5408596, 22.7984242 ], [ 76.544911, 22.7990177 ], [ 76.5490315, 22.7978503 ], [ 76.5497485, 22.7958323 ], [ 76.5530752, 22.7944568 ], [ 76.5502616, 22.7925502 ], [ 76.552483, 22.7908264 ], [ 76.5514274, 22.7887897 ], [ 76.5529033, 22.7879234 ], [ 76.5522331, 22.7846451 ], [ 76.5558056, 22.7877125 ], [ 76.5579334, 22.7880385 ], [ 76.5592935, 22.7849868 ], [ 76.5665196, 22.7848316 ], [ 76.5667737, 22.7829308 ], [ 76.5599877, 22.7790904 ], [ 76.5566403, 22.7738064 ], [ 76.5547516, 22.7729342 ], [ 76.5555024, 22.7710607 ], [ 76.558281, 22.7739922 ], [ 76.5603919, 22.7788874 ], [ 76.5631085, 22.7797148 ], [ 76.5646477, 22.7783879 ], [ 76.5655775, 22.7789707 ], [ 76.5698889, 22.773369 ], [ 76.5757906, 22.77161 ], [ 76.5769941, 22.7690865 ], [ 76.5749989, 22.7663722 ], [ 76.5767573, 22.7640521 ], [ 76.5734775, 22.7597255 ], [ 76.5712671, 22.7599461 ], [ 76.5678625, 22.7636698 ], [ 76.570951, 22.7591378 ], [ 76.5738429, 22.7590936 ], [ 76.578802, 22.7643597 ], [ 76.5828763, 22.7665822 ], [ 76.5822133, 22.7695665 ], [ 76.5890044, 22.7728642 ], [ 76.5943105, 22.777868 ], [ 76.6065315, 22.7805609 ], [ 76.6078514, 22.7775675 ], [ 76.6093122, 22.7771026 ], [ 76.6110357, 22.7787552 ], [ 76.6127643, 22.7782407 ], [ 76.6124086, 22.7810174 ], [ 76.6147116, 22.7829049 ], [ 76.616411, 22.7811215 ], [ 76.6220399, 22.7809817 ], [ 76.6281021, 22.7828916 ], [ 76.6328449, 22.7866073 ], [ 76.628146, 22.7860476 ], [ 76.6216601, 22.7827065 ], [ 76.6214457, 22.784499 ], [ 76.6184268, 22.7846569 ], [ 76.6196246, 22.7865082 ], [ 76.6164545, 22.7889642 ], [ 76.6233399, 22.7891766 ], [ 76.6228528, 22.7948566 ], [ 76.6254727, 22.7936014 ], [ 76.626174, 22.7916599 ], [ 76.6322318, 22.7928155 ], [ 76.6277178, 22.7968477 ], [ 76.6337708, 22.7959173 ], [ 76.6361765, 22.7968563 ], [ 76.6377835, 22.7961338 ], [ 76.638816, 22.7973121 ], [ 76.6404326, 22.7961922 ], [ 76.6428047, 22.7999621 ], [ 76.6463595, 22.7985891 ], [ 76.647626, 22.8006162 ], [ 76.6461705, 22.8047973 ], [ 76.6522037, 22.8006831 ], [ 76.6520616, 22.7960145 ], [ 76.6546184, 22.7971745 ], [ 76.6552794, 22.7913363 ], [ 76.6532041, 22.7875125 ], [ 76.6584042, 22.7855429 ], [ 76.6611506, 22.7857906 ], [ 76.6615438, 22.7811355 ], [ 76.6652073, 22.7873473 ], [ 76.667549, 22.7859245 ], [ 76.6714009, 22.7865329 ], [ 76.675656, 22.7844862 ], [ 76.6797758, 22.7853924 ], [ 76.6838303, 22.7816976 ], [ 76.6845743, 22.7902489 ], [ 76.6869571, 22.7939187 ], [ 76.6898002, 22.7923103 ], [ 76.6910165, 22.7898852 ], [ 76.710545, 22.7928196 ], [ 76.7088649, 22.8085285 ], [ 76.7045594, 22.8079573 ], [ 76.6991107, 22.8098382 ], [ 76.6989364, 22.8117391 ], [ 76.7035634, 22.8121839 ], [ 76.7026435, 22.8131867 ], [ 76.7039638, 22.8138226 ], [ 76.7000385, 22.8142219 ], [ 76.7001985, 22.8130434 ], [ 76.6984644, 22.8126017 ], [ 76.6966353, 22.8164855 ], [ 76.7034265, 22.8196744 ], [ 76.7138109, 22.8201972 ], [ 76.715157, 22.8228423 ], [ 76.7225513, 22.8236054 ], [ 76.7293202, 22.8219035 ], [ 76.7334526, 22.8183158 ], [ 76.7205413, 22.819042 ], [ 76.7239735, 22.8169945 ], [ 76.7314926, 22.8157119 ], [ 76.7154237, 22.8138165 ], [ 76.7204684, 22.8123913 ], [ 76.7348875, 22.8160121 ], [ 76.7361579, 22.8149818 ], [ 76.7410726, 22.8156013 ], [ 76.7438325, 22.8193513 ], [ 76.7395542, 22.8169073 ], [ 76.7370862, 22.8186699 ], [ 76.7425746, 22.8233616 ], [ 76.7531771, 22.8242948 ], [ 76.7549332, 22.8212936 ], [ 76.7536388, 22.8199245 ], [ 76.7571023, 22.8193312 ], [ 76.7588427, 22.8174722 ], [ 76.7581519, 22.816519 ], [ 76.7629271, 22.813845 ], [ 76.7654628, 22.8160817 ], [ 76.7685796, 22.8163954 ], [ 76.7701013, 22.8137189 ], [ 76.7769037, 22.8156828 ], [ 76.7748041, 22.8163181 ], [ 76.7750754, 22.8183907 ], [ 76.7708994, 22.8145683 ], [ 76.771341, 22.8166365 ], [ 76.7704506, 22.8155162 ], [ 76.7688277, 22.8169102 ], [ 76.7665044, 22.8169764 ], [ 76.7672388, 22.8182502 ], [ 76.766171, 22.819753 ], [ 76.7700567, 22.8210965 ], [ 76.7678251, 22.822278 ], [ 76.7718237, 22.8224973 ], [ 76.7716914, 22.8235673 ], [ 76.7765067, 22.8260537 ], [ 76.7755221, 22.8270418 ], [ 76.7775135, 22.8282576 ], [ 76.7797352, 22.827383 ], [ 76.7792688, 22.8255135 ], [ 76.7811782, 22.8255281 ], [ 76.7813937, 22.8237042 ], [ 76.7826894, 22.8236644 ], [ 76.78204, 22.8259982 ], [ 76.7851079, 22.8271739 ], [ 76.7827019, 22.8266669 ], [ 76.7794613, 22.8288954 ], [ 76.7836305, 22.8294757 ], [ 76.785889, 22.831739 ], [ 76.7871712, 22.8300737 ], [ 76.7889868, 22.8321109 ], [ 76.7880265, 22.8332618 ], [ 76.7916208, 22.8341125 ], [ 76.7913586, 22.8326676 ], [ 76.7958797, 22.8313876 ], [ 76.7974812, 22.8332215 ], [ 76.7966283, 22.8341963 ], [ 76.7984741, 22.834879 ], [ 76.797742, 22.8372355 ], [ 76.8013176, 22.8369798 ], [ 76.8005272, 22.8393859 ], [ 76.8036721, 22.8433245 ], [ 76.8058987, 22.842287 ], [ 76.8064672, 22.8454343 ], [ 76.8078023, 22.8447079 ], [ 76.8068905, 22.8463014 ], [ 76.8026237, 22.8451933 ], [ 76.8049217, 22.8477498 ], [ 76.8044724, 22.8498943 ], [ 76.8073073, 22.8507849 ], [ 76.8104451, 22.8497478 ], [ 76.8108292, 22.8515268 ], [ 76.8144819, 22.8538535 ], [ 76.8164559, 22.8518135 ], [ 76.8182339, 22.8522972 ], [ 76.8180579, 22.853751 ], [ 76.8146279, 22.8543006 ], [ 76.8157624, 22.8557774 ], [ 76.8144228, 22.8551765 ], [ 76.8149729, 22.8565221 ], [ 76.8138325, 22.857217 ], [ 76.8155847, 22.86106 ], [ 76.8188836, 22.8600318 ], [ 76.8194933, 22.8581853 ], [ 76.8216901, 22.8591432 ], [ 76.8198821, 22.8606552 ], [ 76.8205002, 22.8621905 ], [ 76.8252991, 22.8625668 ], [ 76.8257337, 22.8596592 ], [ 76.8280387, 22.8580661 ], [ 76.8306091, 22.8641486 ], [ 76.8313806, 22.8589429 ], [ 76.8336811, 22.8557243 ], [ 76.831862, 22.8618508 ], [ 76.8324653, 22.8645871 ], [ 76.8371123, 22.8684079 ], [ 76.838768, 22.8718668 ], [ 76.8409711, 22.8688919 ], [ 76.8403726, 22.8657583 ], [ 76.8434084, 22.8634427 ], [ 76.850527, 22.8611277 ], [ 76.853957, 22.8612908 ], [ 76.8565097, 22.8625192 ], [ 76.8495708, 22.8684916 ], [ 76.8522797, 22.8692279 ], [ 76.856816, 22.8671923 ], [ 76.8566111, 22.8697929 ], [ 76.8519232, 22.8738062 ], [ 76.8566637, 22.8769447 ], [ 76.8586866, 22.8714682 ], [ 76.8610252, 22.8727868 ], [ 76.861133, 22.8665787 ], [ 76.8622534, 22.8686466 ], [ 76.8632328, 22.8674593 ], [ 76.864251, 22.869613 ], [ 76.8679688, 22.8639874 ], [ 76.8660342, 22.8701955 ], [ 76.8676616, 22.8711166 ], [ 76.8658685, 22.8718616 ], [ 76.866536, 22.8727691 ], [ 76.8647526, 22.8723716 ], [ 76.862745, 22.8740783 ], [ 76.8655711, 22.8755865 ], [ 76.8685481, 22.8750312 ], [ 76.866638, 22.877677 ], [ 76.8683821, 22.8841245 ], [ 76.8713205, 22.8805758 ], [ 76.8769093, 22.8638431 ], [ 76.8809388, 22.8697441 ], [ 76.8849535, 22.8680553 ], [ 76.885212, 22.8709855 ], [ 76.8775332, 22.8789007 ], [ 76.8821817, 22.8773339 ], [ 76.87938, 22.8801784 ], [ 76.8791609, 22.8821244 ], [ 76.8805936, 22.8850636 ], [ 76.8821918, 22.8831176 ], [ 76.8834588, 22.8841515 ], [ 76.8845554, 22.8879846 ], [ 76.8836054, 22.8908021 ], [ 76.8860029, 22.8900569 ], [ 76.8864654, 22.8852077 ], [ 76.8847887, 22.8795732 ], [ 76.8869908, 22.8758752 ], [ 76.8869815, 22.8799884 ], [ 76.8882388, 22.8811215 ], [ 76.8900657, 22.8782994 ], [ 76.8941152, 22.8804843 ], [ 76.8951238, 22.8798746 ], [ 76.8938955, 22.8775947 ], [ 76.8948845, 22.8762943 ], [ 76.8959818, 22.8824255 ], [ 76.8980922, 22.885211 ], [ 76.898054, 22.889708 ], [ 76.9030972, 22.8878786 ], [ 76.9034863, 22.8843567 ], [ 76.9007862, 22.8816572 ], [ 76.9008293, 22.8775305 ], [ 76.906363, 22.8706576 ], [ 76.901018, 22.8705366 ], [ 76.8953557, 22.8669662 ], [ 76.9007103, 22.8667757 ], [ 76.9167522, 22.8746284 ], [ 76.9157809, 22.8694905 ], [ 76.9145188, 22.8686646 ], [ 76.9145802, 22.8619281 ], [ 76.9123638, 22.8633193 ], [ 76.9105318, 22.8632385 ], [ 76.9072958, 22.8590628 ], [ 76.9100487, 22.860218 ], [ 76.9120518, 22.862868 ], [ 76.9127667, 22.8580186 ], [ 76.9158761, 22.8619685 ], [ 76.9157187, 22.8567446 ], [ 76.9177165, 22.8577329 ], [ 76.918599, 22.859963 ], [ 76.9176692, 22.8623969 ], [ 76.9205247, 22.8636739 ], [ 76.9202427, 22.8653897 ], [ 76.9223627, 22.8670325 ], [ 76.9248904, 22.864395 ], [ 76.9228921, 22.8622645 ], [ 76.9230227, 22.8597044 ], [ 76.9207709, 22.8569961 ], [ 76.9189324, 22.8513528 ], [ 76.9193595, 22.8465352 ], [ 76.9140283, 22.8403915 ], [ 76.9158257, 22.8399847 ], [ 76.9177248, 22.8378712 ], [ 76.9175732, 22.8359343 ], [ 76.920656, 22.8342583 ], [ 76.9217466, 22.8324836 ], [ 76.9211273, 22.8307635 ], [ 76.9104889, 22.829782 ], [ 76.9145598, 22.8255956 ], [ 76.9226557, 22.8274806 ], [ 76.924779, 22.8262745 ], [ 76.9255475, 22.8235291 ], [ 76.9266147, 22.8246891 ], [ 76.9294484, 22.8221823 ], [ 76.9302767, 22.8228683 ], [ 76.9288064, 22.8246567 ], [ 76.9300646, 22.8283406 ], [ 76.9263644, 22.8327486 ], [ 76.9259951, 22.8351868 ], [ 76.9214903, 22.8380101 ], [ 76.92171, 22.8395 ], [ 76.9193334, 22.8412119 ], [ 76.9237553, 22.8512611 ], [ 76.9243758, 22.8562907 ], [ 76.9269488, 22.857852 ], [ 76.9270422, 22.8600282 ], [ 76.9285133, 22.8591518 ], [ 76.9269566, 22.8526959 ], [ 76.9280182, 22.851657 ], [ 76.9301872, 22.8543202 ], [ 76.9318238, 22.8534798 ], [ 76.9316747, 22.8582612 ], [ 76.9279552, 22.8647732 ], [ 76.9337562, 22.8608386 ], [ 76.936431, 22.8608556 ], [ 76.930626, 22.8669667 ], [ 76.928692, 22.8674911 ], [ 76.9318699, 22.8704518 ], [ 76.9345693, 22.8707939 ], [ 76.934468, 22.873038 ], [ 76.9385424, 22.875032 ], [ 76.9385896, 22.871903 ], [ 76.9408267, 22.8732928 ], [ 76.942034, 22.8711882 ], [ 76.9393042, 22.8684758 ], [ 76.9443146, 22.8621798 ], [ 76.9429372, 22.8651106 ], [ 76.9429544, 22.8700952 ], [ 76.945015, 22.8692635 ], [ 76.9463602, 22.8701479 ], [ 76.9469322, 22.873841 ], [ 76.9486522, 22.8737724 ], [ 76.9486104, 22.8775877 ], [ 76.951808, 22.8709581 ], [ 76.9536524, 22.8755625 ], [ 76.9562486, 22.874166 ], [ 76.9564474, 22.8724096 ], [ 76.9547273, 22.8722885 ], [ 76.9513821, 22.8673914 ], [ 76.9521096, 22.8615215 ], [ 76.955378, 22.8603008 ], [ 76.9549605, 22.8629287 ], [ 76.9577607, 22.8687969 ], [ 76.9609117, 22.8664519 ], [ 76.9614408, 22.863562 ], [ 76.9621292, 22.8656701 ], [ 76.9673126, 22.8647461 ], [ 76.9652539, 22.8606928 ], [ 76.9678204, 22.8591517 ], [ 76.9675312, 22.8637391 ], [ 76.9701235, 22.8642071 ], [ 76.9718467, 22.862084 ], [ 76.9723359, 22.8648741 ], [ 76.9788753, 22.8660257 ], [ 76.9786391, 22.8694257 ], [ 76.9848848, 22.8746499 ], [ 76.9936309, 22.868923 ], [ 76.9943553, 22.8727016 ], [ 76.9917139, 22.8776881 ], [ 76.9999099, 22.8768337 ], [ 77.0039212, 22.878916 ], [ 77.0021524, 22.8734424 ], [ 77.0060593, 22.8688084 ], [ 77.0066087, 22.8645331 ], [ 77.0053005, 22.8617102 ], [ 77.0071195, 22.8597114 ], [ 77.0055778, 22.8566446 ], [ 77.0068997, 22.8547312 ], [ 77.003869, 22.8441276 ], [ 77.0074568, 22.8413761 ], [ 77.0055468, 22.8362682 ], [ 77.0077119, 22.8335336 ], [ 77.0107816, 22.832362 ], [ 77.0106047, 22.8283931 ], [ 77.0063291, 22.8215497 ], [ 77.007717, 22.8161914 ], [ 77.0057558, 22.8143161 ], [ 77.0093037, 22.8115465 ], [ 77.0116846, 22.8066178 ], [ 77.0099096, 22.8034198 ], [ 77.0134627, 22.7999141 ], [ 77.0111981, 22.7940881 ], [ 77.0117645, 22.7921696 ], [ 77.0146547, 22.7891736 ], [ 77.0181314, 22.7892256 ], [ 77.0245827, 22.7835228 ], [ 77.0293786, 22.7707512 ], [ 77.0283265, 22.7575214 ], [ 77.026161, 22.7562649 ], [ 77.0258702, 22.7543774 ], [ 77.0214516, 22.7520494 ], [ 77.0181118, 22.7523136 ], [ 77.0171812, 22.7465147 ], [ 77.0204441, 22.7446973 ], [ 77.0210592, 22.742395 ], [ 77.0216043, 22.7295634 ], [ 77.0372445, 22.7274055 ], [ 77.0395832, 22.7235689 ], [ 77.0392338, 22.714105 ], [ 77.0406118, 22.7049716 ], [ 77.0451798, 22.6993165 ], [ 77.0450699, 22.6957676 ], [ 77.0418336, 22.6962265 ], [ 77.0396605, 22.6927984 ], [ 77.0375922, 22.6931224 ], [ 77.0372068, 22.6948018 ], [ 77.0334651, 22.694172 ], [ 77.0305872, 22.6899939 ], [ 77.0313491, 22.6857953 ], [ 77.0339967, 22.684957 ], [ 77.0390877, 22.6748097 ], [ 77.0407493, 22.674253 ], [ 77.0413528, 22.6704764 ], [ 77.0447568, 22.6650599 ], [ 77.046339, 22.6718696 ], [ 77.0507458, 22.6738899 ], [ 77.0554436, 22.6784072 ], [ 77.0601351, 22.6760207 ], [ 77.0594329, 22.6691483 ], [ 77.0599404, 22.6670713 ], [ 77.0616623, 22.6665574 ], [ 77.0617121, 22.6642051 ], [ 77.0636388, 22.6638176 ], [ 77.0649532, 22.6617682 ], [ 77.0688552, 22.6611736 ], [ 77.0694695, 22.6579319 ], [ 77.0775062, 22.6581196 ], [ 77.0816911, 22.6543326 ], [ 77.0881665, 22.6526771 ], [ 77.0904144, 22.6506723 ], [ 77.0924487, 22.6470927 ], [ 77.0893553, 22.6454305 ], [ 77.0910242, 22.6438099 ], [ 77.0909809, 22.6414937 ], [ 77.0871444, 22.6364539 ], [ 77.0890235, 22.6302414 ], [ 77.0880121, 22.6292027 ], [ 77.0872803, 22.6195039 ], [ 77.0888462, 22.6201861 ], [ 77.0910549, 22.6173195 ], [ 77.0934766, 22.6182455 ], [ 77.0969497, 22.6153023 ], [ 77.1017258, 22.6140884 ], [ 77.1016631, 22.6106073 ], [ 77.1034191, 22.6083273 ], [ 77.1093378, 22.6052983 ], [ 77.1086085, 22.6037315 ], [ 77.1106609, 22.60221 ], [ 77.1133549, 22.6022237 ], [ 77.1163361, 22.5978352 ], [ 77.122682, 22.5985217 ], [ 77.1268299, 22.5973748 ], [ 77.1242623, 22.5962822 ], [ 77.1248216, 22.5942232 ], [ 77.1268347, 22.5933338 ], [ 77.1258135, 22.5899429 ], [ 77.1270291, 22.5885024 ], [ 77.126606, 22.5855315 ], [ 77.1311814, 22.5831518 ], [ 77.1315848, 22.5807317 ], [ 77.1301114, 22.5780723 ], [ 77.1326348, 22.576826 ], [ 77.1227602, 22.5633483 ], [ 77.1300424, 22.5554195 ], [ 77.1210883, 22.5480327 ], [ 77.0915553, 22.5175019 ], [ 77.0784169, 22.509001 ], [ 77.0419913, 22.4969771 ], [ 77.0262894, 22.4934723 ], [ 77.0009687, 22.4933962 ], [ 76.9831013, 22.4914283 ], [ 76.9775995, 22.4896393 ], [ 76.9442536, 22.4915446 ], [ 76.9296907, 22.4905659 ], [ 76.9187815, 22.4881808 ], [ 76.8977899, 22.4814122 ], [ 76.8714028, 22.4662381 ], [ 76.8628629, 22.4588372 ], [ 76.851341, 22.4532506 ], [ 76.8159426, 22.4429332 ], [ 76.810699, 22.4377477 ], [ 76.793889, 22.4283258 ], [ 76.7896809, 22.423858 ], [ 76.788358, 22.4190306 ], [ 76.7912058, 22.3995576 ], [ 76.7822224, 22.3776806 ], [ 76.7805146, 22.368622 ], [ 76.7834167, 22.3553576 ], [ 76.7810116, 22.3441943 ], [ 76.777835, 22.3402369 ], [ 76.7765149, 22.3331878 ], [ 76.7686164, 22.3163135 ], [ 76.7565774, 22.3092749 ], [ 76.7488873, 22.3022342 ], [ 76.7421522, 22.2919577 ], [ 76.7378196, 22.2923356 ], [ 76.7354196, 22.294613 ], [ 76.7349839, 22.302041 ], [ 76.7334466, 22.3032432 ], [ 76.7282672, 22.3007044 ], [ 76.7281709, 22.3018694 ], [ 76.7262789, 22.3024125 ], [ 76.7251144, 22.3092495 ], [ 76.7192093, 22.3102464 ], [ 76.7171558, 22.3089923 ], [ 76.7150455, 22.3099552 ], [ 76.7063663, 22.3054987 ], [ 76.7011639, 22.3047381 ], [ 76.6961681, 22.299778 ], [ 76.6847306, 22.2984958 ], [ 76.6838125, 22.2962656 ], [ 76.6826239, 22.2966543 ], [ 76.6550948, 22.3305043 ], [ 76.6609686, 22.3352623 ], [ 76.6606933, 22.3403602 ], [ 76.6645924, 22.345588 ], [ 76.6541435, 22.3534514 ], [ 76.6534794, 22.3579895 ], [ 76.6552907, 22.3606983 ], [ 76.6527281, 22.3634712 ], [ 76.6493057, 22.3642077 ], [ 76.6456889, 22.3630614 ], [ 76.6448245, 22.3610431 ], [ 76.6392569, 22.3658164 ], [ 76.6343344, 22.3672933 ], [ 76.6319509, 22.3711586 ], [ 76.622251, 22.3730462 ], [ 76.6200711, 22.3755431 ], [ 76.6212848, 22.3780084 ], [ 76.6185897, 22.3897978 ], [ 76.6166427, 22.3907098 ], [ 76.616526, 22.3931075 ], [ 76.6125683, 22.3975186 ], [ 76.6093391, 22.398575 ], [ 76.6074837, 22.4024128 ], [ 76.603176, 22.4057085 ], [ 76.5912542, 22.4069617 ], [ 76.5867869, 22.4059447 ], [ 76.5848294, 22.4077233 ], [ 76.5843057, 22.4049914 ], [ 76.5791397, 22.4027866 ], [ 76.5733271, 22.4029565 ], [ 76.5715733, 22.4048884 ], [ 76.5685575, 22.4056189 ], [ 76.5538472, 22.3987409 ], [ 76.548498, 22.4043012 ], [ 76.5254169, 22.4119602 ], [ 76.5201865, 22.4122144 ], [ 76.4947063, 22.4116154 ], [ 76.4821855, 22.4033206 ], [ 76.4598173, 22.3926101 ], [ 76.4435366, 22.3828242 ], [ 76.4421592, 22.3759209 ], [ 76.4383025, 22.3717096 ], [ 76.4360366, 22.3637862 ], [ 76.437364, 22.3575951 ], [ 76.4433901, 22.3514248 ], [ 76.4454983, 22.3448811 ], [ 76.4443955, 22.3428136 ], [ 76.4300177, 22.3410311 ], [ 76.4231983, 22.3415345 ], [ 76.4198293, 22.3400364 ], [ 76.4188967, 22.337919 ], [ 76.39971, 22.3373587 ], [ 76.3792369, 22.3256252 ], [ 76.3545255, 22.3165662 ], [ 76.346229, 22.3065726 ], [ 76.3417943, 22.3037677 ], [ 76.3266806, 22.298359 ], [ 76.3060651, 22.2943059 ], [ 76.2688844, 22.2924438 ], [ 76.2506484, 22.2902652 ], [ 76.2381961, 22.2987499 ], [ 76.2357012, 22.3038585 ], [ 76.2322242, 22.3066829 ], [ 76.2291911, 22.3129883 ], [ 76.2193564, 22.3159158 ], [ 76.2115863, 22.3227474 ], [ 76.2084548, 22.328777 ], [ 76.213645, 22.3319575 ], [ 76.2143123, 22.33561 ], [ 76.2084271, 22.3475021 ], [ 76.2026817, 22.3505934 ], [ 76.2018284, 22.352427 ], [ 76.2025533, 22.3552352 ], [ 76.2067147, 22.357414 ], [ 76.2159565, 22.3561719 ], [ 76.2204091, 22.3578716 ], [ 76.2212, 22.3645087 ], [ 76.2289629, 22.3714122 ], [ 76.2312905, 22.3805181 ], [ 76.2348107, 22.3870404 ], [ 76.2333399, 22.3936517 ], [ 76.212272, 22.4179162 ], [ 76.2076739, 22.419508 ], [ 76.2016223, 22.4188021 ], [ 76.1909633, 22.4208658 ], [ 76.1857206, 22.4261959 ], [ 76.1767848, 22.4276395 ], [ 76.1686369, 22.4335207 ], [ 76.1602301, 22.4359114 ], [ 76.1538392, 22.4411369 ], [ 76.1473746, 22.4435129 ], [ 76.1314384, 22.4583291 ], [ 76.1219608, 22.4583337 ], [ 76.1176469, 22.4607266 ], [ 76.1131775, 22.4614082 ], [ 76.1124483, 22.4671154 ], [ 76.1011573, 22.4704374 ], [ 76.0988052, 22.4745911 ], [ 76.0982159, 22.4822624 ], [ 76.0945979, 22.4969093 ], [ 76.0927021, 22.4998573 ], [ 76.0936928, 22.5026016 ], [ 76.0921511, 22.5084306 ], [ 76.0918758, 22.5215472 ], [ 76.0867894, 22.5316286 ], [ 76.0869036, 22.5407991 ], [ 76.0850548, 22.5468264 ], [ 76.0926356, 22.5566532 ], [ 76.0972786, 22.55441 ], [ 76.1064802, 22.5597889 ], [ 76.1027122, 22.5623756 ], [ 76.1048754, 22.5635634 ], [ 76.103412, 22.5642857 ], [ 76.1036549, 22.5656267 ], [ 76.106596, 22.566801 ], [ 76.1055603, 22.5676994 ], [ 76.1025754, 22.5667283 ], [ 76.1024688, 22.5647055 ], [ 76.1002034, 22.5640775 ], [ 76.0934653, 22.564108 ], [ 76.0878886, 22.5657052 ], [ 76.0796274, 22.5699519 ], [ 76.0783817, 22.5731754 ], [ 76.0724793, 22.573309 ], [ 76.0725946, 22.5770025 ], [ 76.0704639, 22.5800993 ], [ 76.0617486, 22.5852796 ], [ 76.063381, 22.5882737 ], [ 76.064553, 22.5880981 ], [ 76.0648115, 22.5860122 ], [ 76.0679237, 22.585309 ], [ 76.0691778, 22.5862214 ], [ 76.0724947, 22.5843532 ], [ 76.0736903, 22.5857172 ], [ 76.0742887, 22.584706 ], [ 76.0847817, 22.5838104 ], [ 76.0828551, 22.587851 ], [ 76.0839537, 22.5886099 ], [ 76.0883062, 22.5861727 ], [ 76.0884031, 22.5874866 ], [ 76.0831406, 22.5925289 ], [ 76.083539, 22.5933462 ], [ 76.0874925, 22.5924532 ], [ 76.0820786, 22.5988317 ], [ 76.0821063, 22.6034372 ], [ 76.0867326, 22.5978666 ], [ 76.0890028, 22.5999396 ], [ 76.0900198, 22.5977364 ], [ 76.0913424, 22.5977006 ], [ 76.0912072, 22.5939349 ], [ 76.093571, 22.5911541 ], [ 76.0971243, 22.5968935 ], [ 76.1005625, 22.5955892 ], [ 76.0985794, 22.591471 ], [ 76.1008365, 22.5863782 ], [ 76.102334, 22.5870377 ], [ 76.1054461, 22.5855571 ], [ 76.106671, 22.5878555 ], [ 76.1054502, 22.5902709 ], [ 76.1075991, 22.5931247 ], [ 76.1110372, 22.5910165 ], [ 76.1135274, 22.5819186 ], [ 76.1154867, 22.5859598 ], [ 76.1194251, 22.5848989 ], [ 76.114412, 22.586655 ], [ 76.1148981, 22.5888811 ], [ 76.1195076, 22.5904887 ], [ 76.1234511, 22.589211 ], [ 76.1190943, 22.5922044 ], [ 76.1196243, 22.593568 ], [ 76.1171101, 22.5957172 ], [ 76.1144357, 22.5951978 ], [ 76.1132393, 22.5979655 ], [ 76.1113477, 22.5976854 ], [ 76.1078414, 22.600024 ], [ 76.1136183, 22.6015506 ], [ 76.1167987, 22.6003001 ], [ 76.1165943, 22.6031446 ], [ 76.118836, 22.6042149 ], [ 76.1209953, 22.5997945 ], [ 76.1241221, 22.5984897 ], [ 76.1268986, 22.593979 ], [ 76.128022, 22.5949768 ], [ 76.1260624, 22.6015329 ], [ 76.1278423, 22.6039937 ], [ 76.1312024, 22.6006342 ], [ 76.1316497, 22.5982864 ], [ 76.1325736, 22.5994964 ], [ 76.1321265, 22.6046347 ], [ 76.1359049, 22.602842 ], [ 76.1379572, 22.6041421 ], [ 76.1408404, 22.5996763 ], [ 76.1384478, 22.5978343 ], [ 76.1413554, 22.5954816 ], [ 76.1366772, 22.5924118 ], [ 76.1403626, 22.589603 ], [ 76.143669, 22.5888441 ], [ 76.1442965, 22.5899367 ], [ 76.1415056, 22.5922172 ], [ 76.1438163, 22.598624 ], [ 76.1413025, 22.6004935 ], [ 76.1409235, 22.6036226 ], [ 76.1478046, 22.6037211 ], [ 76.1420182, 22.6075191 ], [ 76.1487838, 22.6134692 ], [ 76.1535002, 22.6089036 ], [ 76.161242, 22.6077596 ], [ 76.1622759, 22.6008467 ], [ 76.1651061, 22.6007196 ], [ 76.1681559, 22.6034504 ], [ 76.1664985, 22.6059162 ], [ 76.1671118, 22.6077627 ], [ 76.1657503, 22.60863 ], [ 76.165717, 22.6108831 ], [ 76.1611652, 22.611575 ], [ 76.1606701, 22.6153634 ], [ 76.1579807, 22.6155084 ], [ 76.1573638, 22.6184389 ], [ 76.1598443, 22.6188402 ], [ 76.1659034, 22.6161342 ], [ 76.1664386, 22.6170958 ], [ 76.1631322, 22.6196612 ], [ 76.1625445, 22.6226504 ], [ 76.1589991, 22.6230305 ], [ 76.1582406, 22.6242136 ], [ 76.155614, 22.6231441 ], [ 76.152268, 22.6242147 ], [ 76.1517382, 22.6254068 ], [ 76.1539417, 22.6269597 ], [ 76.1521864, 22.628906 ], [ 76.1514526, 22.6326312 ], [ 76.1591027, 22.6291214 ], [ 76.1579074, 22.6340793 ], [ 76.1609523, 22.6338303 ], [ 76.1650513, 22.6295174 ], [ 76.1701334, 22.627728 ], [ 76.172216, 22.6301475 ], [ 76.1720322, 22.6330418 ], [ 76.1742108, 22.6317949 ], [ 76.174854, 22.6350502 ], [ 76.1765223, 22.6348781 ], [ 76.1785568, 22.6384715 ], [ 76.1812417, 22.6379874 ], [ 76.183076, 22.6391923 ], [ 76.1851275, 22.6366044 ], [ 76.1885827, 22.6400481 ], [ 76.1904454, 22.6394604 ], [ 76.1894814, 22.6375508 ], [ 76.1901464, 22.6346835 ], [ 76.1878077, 22.6366892 ], [ 76.1862736, 22.6325042 ], [ 76.1807, 22.6337479 ], [ 76.1802906, 22.6316259 ], [ 76.1751911, 22.6260423 ], [ 76.175774, 22.6240194 ], [ 76.1723442, 22.6211759 ], [ 76.1742114, 22.6199246 ], [ 76.1753767, 22.6148582 ], [ 76.1787375, 22.6154124 ], [ 76.1809123, 22.6175338 ], [ 76.1837428, 22.6173296 ], [ 76.1824467, 22.6115597 ], [ 76.1856564, 22.6116714 ], [ 76.1892539, 22.6088434 ], [ 76.188324, 22.606794 ], [ 76.1862961, 22.606578 ], [ 76.1846759, 22.6047229 ], [ 76.1786119, 22.6051134 ], [ 76.1756632, 22.6004637 ], [ 76.1799516, 22.598742 ], [ 76.1837204, 22.5991515 ], [ 76.1843566, 22.5972413 ], [ 76.1874978, 22.5971318 ], [ 76.1931745, 22.6008138 ], [ 76.1926016, 22.6126123 ], [ 76.1994267, 22.6252427 ], [ 76.2140894, 22.6230904 ], [ 76.2143237, 22.617022 ], [ 76.2167011, 22.6158015 ], [ 76.2320655, 22.6170787 ], [ 76.236059, 22.6238352 ], [ 76.2360943, 22.6314794 ], [ 76.2375034, 22.6355917 ], [ 76.2472777, 22.6438337 ], [ 76.2420089, 22.6429572 ], [ 76.2420553, 22.6461674 ], [ 76.2402481, 22.6488733 ], [ 76.2331121, 22.6492621 ], [ 76.230628, 22.6514988 ], [ 76.22786, 22.651338 ], [ 76.22991, 22.6540954 ], [ 76.2293615, 22.6557032 ], [ 76.2341339, 22.6618135 ], [ 76.2296684, 22.6753348 ], [ 76.2256538, 22.6744299 ], [ 76.2218422, 22.6717096 ], [ 76.2218262, 22.6696779 ], [ 76.2161944, 22.6655814 ], [ 76.2134967, 22.661885 ], [ 76.208311, 22.6625832 ], [ 76.2006722, 22.6612234 ], [ 76.196387, 22.6627921 ], [ 76.1912875, 22.6608528 ], [ 76.1922929, 22.6675393 ], [ 76.2039597, 22.6761128 ], [ 76.202379, 22.6771384 ], [ 76.1999362, 22.676503 ], [ 76.2002341, 22.6784941 ], [ 76.1988525, 22.6788423 ], [ 76.1970016, 22.6845278 ], [ 76.1904891, 22.6902332 ], [ 76.1806469, 22.6945398 ], [ 76.1752457, 22.6950202 ], [ 76.1728367, 22.6942038 ], [ 76.1710885, 22.6904161 ], [ 76.1573369, 22.6894804 ], [ 76.1408806, 22.6927699 ], [ 76.1349008, 22.6981975 ], [ 76.1287554, 22.6995891 ], [ 76.1231291, 22.7027085 ], [ 76.1197469, 22.7029162 ], [ 76.1190998, 22.6993537 ], [ 76.1178881, 22.6992453 ], [ 76.1032353, 22.7015152 ], [ 76.100313, 22.716382 ], [ 76.0977773, 22.7157776 ], [ 76.0960443, 22.7174705 ], [ 76.0934265, 22.7150409 ], [ 76.0935085, 22.7180931 ], [ 76.0960293, 22.7196874 ], [ 76.0979755, 22.7231011 ], [ 76.0980138, 22.7260812 ], [ 76.0955944, 22.7278236 ], [ 76.0919245, 22.7276287 ], [ 76.0888869, 22.7290322 ], [ 76.0878003, 22.7334749 ], [ 76.0863448, 22.7340525 ], [ 76.0865188, 22.7385135 ], [ 76.0889327, 22.7402658 ], [ 76.0890286, 22.7455711 ], [ 76.0844471, 22.7487713 ], [ 76.0847617, 22.7505814 ], [ 76.0862961, 22.7513203 ], [ 76.0857507, 22.7521283 ], [ 76.0834432, 22.7520736 ], [ 76.0820987, 22.7550216 ], [ 76.0794599, 22.7553957 ], [ 76.0830764, 22.7576722 ], [ 76.0829005, 22.759853 ], [ 76.0788242, 22.7642721 ], [ 76.0801667, 22.767853 ], [ 76.0766884, 22.7735364 ], [ 76.072954, 22.7733638 ], [ 76.072086, 22.7769078 ], [ 76.0683447, 22.78139 ], [ 76.0680346, 22.7897112 ], [ 76.0651462, 22.7912046 ], [ 76.0622371, 22.7956689 ], [ 76.0628624, 22.8021618 ], [ 76.0599687, 22.8040932 ], [ 76.0601963, 22.8069287 ], [ 76.0537699, 22.8026773 ], [ 76.0523622, 22.8034217 ], [ 76.0520151, 22.8058912 ], [ 76.0492143, 22.8065672 ], [ 76.0484873, 22.8090817 ], [ 76.050761, 22.8103922 ], [ 76.0523081, 22.8136527 ], [ 76.0515036, 22.8151785 ], [ 76.0542501, 22.8160014 ], [ 76.0512873, 22.8190117 ], [ 76.0485219, 22.8171005 ], [ 76.045412, 22.8213838 ], [ 76.0425616, 22.8231252 ], [ 76.0424182, 22.8267462 ], [ 76.0391932, 22.8275301 ], [ 76.0367369, 22.8298224 ], [ 76.0367004, 22.8333938 ], [ 76.0391774, 22.837242 ], [ 76.0368483, 22.8384507 ], [ 76.0375333, 22.8412008 ], [ 76.0339862, 22.8424856 ], [ 76.032458, 22.8475732 ], [ 76.0275883, 22.8516925 ], [ 76.0258486, 22.8523913 ], [ 76.0238917, 22.8504125 ], [ 76.022649, 22.8509986 ], [ 76.0211197, 22.8568717 ], [ 76.0233012, 22.8582773 ], [ 76.0232417, 22.8597311 ], [ 76.0192804, 22.8602568 ], [ 76.0137581, 22.8630252 ], [ 76.0110885, 22.8626216 ], [ 76.0104475, 22.8601649 ], [ 76.0060382, 22.8602475 ], [ 76.0036607, 22.8656863 ], [ 75.9968827, 22.8707547 ], [ 75.9966227, 22.874227 ], [ 75.9906272, 22.8716397 ], [ 75.9843037, 22.872764 ], [ 75.9830254, 22.8767155 ], [ 75.9793693, 22.8808944 ], [ 75.9803993, 22.8832731 ], [ 75.9861418, 22.8860053 ], [ 75.9805727, 22.8931338 ], [ 75.9829732, 22.8968706 ], [ 75.9824946, 22.9016478 ], [ 75.9796128, 22.9060744 ], [ 75.9818879, 22.9111162 ], [ 75.9771648, 22.9169933 ], [ 75.9774072, 22.9217836 ], [ 75.9707253, 22.9297026 ], [ 75.9658069, 22.9295565 ], [ 75.9646892, 22.9347945 ], [ 75.9666317, 22.9382112 ], [ 75.9650954, 22.9444338 ], [ 75.9625947, 22.9447693 ], [ 75.9601754, 22.9427117 ], [ 75.9568035, 22.9452103 ], [ 75.9516756, 22.9465087 ], [ 75.9514298, 22.9514754 ], [ 75.9476084, 22.9530123 ], [ 75.9464311, 22.9578528 ], [ 75.9413122, 22.9585097 ], [ 75.9423043, 22.9632094 ], [ 75.9370872, 22.9630536 ], [ 75.9364605, 22.9681241 ], [ 75.9323406, 22.9688074 ], [ 75.9286467, 22.9735405 ], [ 75.9240976, 22.9747294 ], [ 75.9235715, 22.9760434 ], [ 75.9262884, 22.9782458 ], [ 75.9248214, 22.980278 ], [ 75.9195304, 22.9796746 ], [ 75.9175104, 22.9758103 ], [ 75.9154577, 22.9762985 ], [ 75.913967, 22.9811841 ], [ 75.911939, 22.9830131 ], [ 75.9138081, 22.9882726 ], [ 75.9098339, 22.9889734 ], [ 75.9066161, 22.9924326 ], [ 75.9013643, 22.9945961 ], [ 75.9003311, 22.9984386 ], [ 75.8970641, 23.0015733 ], [ 75.9008099, 23.0023086 ], [ 75.8983495, 23.0168652 ], [ 75.9011357, 23.0226755 ], [ 75.9031454, 23.0227519 ], [ 75.9075756, 23.027424 ], [ 75.9157558, 23.0263792 ], [ 75.9199355, 23.0245223 ], [ 75.9225602, 23.0257226 ], [ 75.9249419, 23.0289139 ], [ 75.9297128, 23.029436 ], [ 75.951187, 23.0222032 ], [ 75.9642505, 23.0233521 ], [ 75.9728415, 23.0382057 ], [ 75.9798278, 23.0388107 ], [ 75.9792666, 23.0575661 ], [ 75.9820046, 23.0708742 ], [ 75.9917359, 23.0725017 ], [ 75.9890993, 23.087895 ], [ 75.9812369, 23.0872729 ], [ 75.9792514, 23.0946109 ], [ 75.9795654, 23.1030717 ], [ 75.9670068, 23.102294 ], [ 75.9578123, 23.1035768 ], [ 75.9576658, 23.1113876 ], [ 75.9601906, 23.121012 ], [ 75.959012, 23.1254011 ], [ 75.9326642, 23.131797 ], [ 75.9295352, 23.1443179 ], [ 75.9306399, 23.1474509 ], [ 75.9363521, 23.1472501 ], [ 75.9442287, 23.1499647 ], [ 75.9476113, 23.1571103 ], [ 75.9499559, 23.1675385 ], [ 75.9503376, 23.1775613 ], [ 75.9536053, 23.178702 ], [ 75.9513947, 23.2072504 ], [ 75.9531779, 23.2079855 ], [ 75.9539007, 23.2159041 ], [ 75.9499008, 23.2259651 ], [ 75.9323516, 23.2224193 ], [ 75.9321848, 23.2431877 ], [ 75.928618, 23.2551754 ], [ 75.9290335, 23.2676271 ], [ 75.9260844, 23.2741159 ], [ 75.9309719, 23.2750894 ], [ 75.9306436, 23.2967063 ], [ 75.9412157, 23.2962417 ], [ 75.9419688, 23.2971218 ], [ 75.9467711, 23.3197522 ], [ 75.9529991, 23.3195144 ], [ 75.9608548, 23.3214067 ] ] ] } }
]
}
