{
"type": "FeatureCollection",
"name": "2325",
"crs": { "type": "name", "properties": { "name": "urn:ogc:def:crs:OGC:1.3:CRS84" } },
"features": [
{ "type": "Feature", "properties": { "code": "2325", "name": "Dhar", "type": "district" }, "geometry": { "type": "Polygon", "coordinates": [ [ [ 75.2421896, 23.1351569 ], [ 75.2555257, 23.1329895 ], [ 75.2682619, 23.1334681 ], [ 75.2683417, 23.1314229 ], [ 75.2909299, 23.1307864 ], [ 75.2921224, 23.1287237 ], [ 75.3005347, 23.1265743 ], [ 75.3002892, 23.1112325 ], [ 75.2969564, 23.1097094 ], [ 75.300277, 23.1068757 ], [ 75.3037036, 23.1064755 ], [ 75.3064168, 23.1076099 ], [ 75.3073888, 23.106012 ], [ 75.3098635, 23.1058054 ], [ 75.3119612, 23.1082398 ], [ 75.3171548, 23.1076187 ], [ 75.3185109, 23.1094342 ], [ 75.3200196, 23.1080983 ], [ 75.3162014, 23.1000333 ], [ 75.3155738, 23.0954911 ], [ 75.3167083, 23.0901458 ], [ 75.3235505, 23.0769872 ], [ 75.3252461, 23.0708836 ], [ 75.3245674, 23.0688302 ], [ 75.3308925, 23.0686233 ], [ 75.3450668, 23.0710872 ], [ 75.346648, 23.0697872 ], [ 75.3479278, 23.0635613 ], [ 75.3453816, 23.0591497 ], [ 75.3354576, 23.0586826 ], [ 75.3347656, 23.0394579 ], [ 75.3207113, 23.0379412 ], [ 75.3131032, 23.0438666 ], [ 75.3018378, 23.0452389 ], [ 75.3014492, 23.0422182 ], [ 75.3024916, 23.0361551 ], [ 75.3071095, 23.0299356 ], [ 75.3018178, 23.0188626 ], [ 75.3025068, 23.007422 ], [ 75.3001824, 22.9944983 ], [ 75.3263349, 22.9863363 ], [ 75.3250923, 22.9569299 ], [ 75.3057666, 22.9555908 ], [ 75.3068806, 22.9312013 ], [ 75.3185166, 22.9300409 ], [ 75.3223907, 22.9202312 ], [ 75.3263506, 22.9144577 ], [ 75.3247236, 22.9119469 ], [ 75.3223591, 22.9008662 ], [ 75.3243354, 22.8941892 ], [ 75.3232825, 22.8818899 ], [ 75.330836, 22.8798559 ], [ 75.3313642, 22.8736343 ], [ 75.3346874, 22.8731386 ], [ 75.3310953, 22.8610103 ], [ 75.3296727, 22.8461012 ], [ 75.3305565, 22.8398526 ], [ 75.3410663, 22.8297279 ], [ 75.351563, 22.8304386 ], [ 75.3630134, 22.8460529 ], [ 75.3705447, 22.8466492 ], [ 75.3691607, 22.8596751 ], [ 75.3714649, 22.868344 ], [ 75.3945453, 22.8694671 ], [ 75.4057521, 22.8713661 ], [ 75.4145559, 22.868926 ], [ 75.4420154, 22.8671377 ], [ 75.440911, 22.8503423 ], [ 75.4376295, 22.8442574 ], [ 75.4330408, 22.8447151 ], [ 75.4349445, 22.8311377 ], [ 75.4316901, 22.8299469 ], [ 75.4250565, 22.8315475 ], [ 75.4230682, 22.8287443 ], [ 75.4236317, 22.8247031 ], [ 75.4262699, 22.8246594 ], [ 75.4252155, 22.8095326 ], [ 75.4358261, 22.8093883 ], [ 75.434755, 22.7991034 ], [ 75.4357528, 22.7977936 ], [ 75.4430564, 22.7956008 ], [ 75.4391564, 22.7866039 ], [ 75.4381959, 22.7736099 ], [ 75.4563156, 22.7694613 ], [ 75.4658096, 22.7692304 ], [ 75.4717718, 22.7731234 ], [ 75.4743377, 22.7730405 ], [ 75.475081, 22.7708999 ], [ 75.479176, 22.7713443 ], [ 75.4808638, 22.7691353 ], [ 75.483712, 22.769016 ], [ 75.4840799, 22.7663654 ], [ 75.4899251, 22.7638102 ], [ 75.4910045, 22.7622788 ], [ 75.4880489, 22.7618069 ], [ 75.4851788, 22.7586483 ], [ 75.4844763, 22.7567705 ], [ 75.4857351, 22.7542051 ], [ 75.4844684, 22.7530727 ], [ 75.4850029, 22.7516907 ], [ 75.4835956, 22.7513124 ], [ 75.4890462, 22.7467208 ], [ 75.4956135, 22.7453318 ], [ 75.4947069, 22.7316909 ], [ 75.5090767, 22.7321536 ], [ 75.5085824, 22.7296383 ], [ 75.5101926, 22.7249167 ], [ 75.506925, 22.7154506 ], [ 75.5148582, 22.7092118 ], [ 75.5116265, 22.6975831 ], [ 75.5072245, 22.6952321 ], [ 75.5171263, 22.683861 ], [ 75.5206811, 22.6672521 ], [ 75.5193404, 22.6644202 ], [ 75.5199065, 22.6621811 ], [ 75.506999, 22.6629532 ], [ 75.4975039, 22.6601172 ], [ 75.497646, 22.6543289 ], [ 75.4954004, 22.6453228 ], [ 75.509379, 22.6442532 ], [ 75.5147342, 22.6508852 ], [ 75.5178742, 22.6591518 ], [ 75.5205409, 22.6596395 ], [ 75.52377, 22.6545891 ], [ 75.5180988, 22.6531044 ], [ 75.5237275, 22.6461863 ], [ 75.5247283, 22.6412067 ], [ 75.5236295, 22.6404746 ], [ 75.5277479, 22.6358672 ], [ 75.5286609, 22.6307882 ], [ 75.5359523, 22.6302144 ], [ 75.5373934, 22.6358275 ], [ 75.5546453, 22.6377413 ], [ 75.5646952, 22.6361335 ], [ 75.5676484, 22.6580647 ], [ 75.5758787, 22.6609887 ], [ 75.5840374, 22.6605937 ], [ 75.5896762, 22.6592405 ], [ 75.5914096, 22.6531137 ], [ 75.5984297, 22.6510922 ], [ 75.5996813, 22.6436515 ], [ 75.6049415, 22.6306169 ], [ 75.6167022, 22.6320583 ], [ 75.6383904, 22.6312045 ], [ 75.6453363, 22.6322242 ], [ 75.6544623, 22.6378803 ], [ 75.6672063, 22.637638 ], [ 75.6672789, 22.6367259 ], [ 75.6703529, 22.6363232 ], [ 75.679687, 22.6361442 ], [ 75.6875639, 22.6298065 ], [ 75.6966818, 22.6263802 ], [ 75.7036047, 22.6293073 ], [ 75.7037369, 22.6308965 ], [ 75.7055073, 22.6308415 ], [ 75.7043636, 22.6465413 ], [ 75.6921673, 22.6440003 ], [ 75.687135, 22.6385571 ], [ 75.6833015, 22.6373214 ], [ 75.6789358, 22.6430617 ], [ 75.6802806, 22.6497732 ], [ 75.6832196, 22.6505824 ], [ 75.6835522, 22.6548717 ], [ 75.6785915, 22.6580251 ], [ 75.6860399, 22.6588667 ], [ 75.6913876, 22.6613749 ], [ 75.7067709, 22.6616568 ], [ 75.7085876, 22.649212 ], [ 75.713608, 22.6343139 ], [ 75.7135645, 22.6196215 ], [ 75.7080365, 22.6147165 ], [ 75.7049413, 22.6148005 ], [ 75.7002244, 22.6117358 ], [ 75.697998, 22.6136287 ], [ 75.6983798, 22.6090322 ], [ 75.6963389, 22.6027073 ], [ 75.6961942, 22.5956366 ], [ 75.6861092, 22.5961013 ], [ 75.6832805, 22.5879164 ], [ 75.6801818, 22.5843821 ], [ 75.6807593, 22.5818579 ], [ 75.6640659, 22.576133 ], [ 75.663, 22.5721644 ], [ 75.6573304, 22.5692398 ], [ 75.6351558, 22.5657932 ], [ 75.6346352, 22.560989 ], [ 75.6310766, 22.5597205 ], [ 75.6260986, 22.5593097 ], [ 75.6202162, 22.5608765 ], [ 75.6183252, 22.5585917 ], [ 75.6155153, 22.5584471 ], [ 75.6133663, 22.562759 ], [ 75.6098754, 22.5659509 ], [ 75.6098605, 22.5684389 ], [ 75.5959154, 22.5670632 ], [ 75.5951195, 22.5473914 ], [ 75.6023585, 22.5408861 ], [ 75.5976725, 22.5419556 ], [ 75.5969949, 22.5269242 ], [ 75.5997171, 22.5244413 ], [ 75.5984592, 22.5199213 ], [ 75.5781208, 22.5178082 ], [ 75.5771745, 22.5135185 ], [ 75.5717122, 22.5136703 ], [ 75.5659133, 22.5161155 ], [ 75.5575007, 22.5151828 ], [ 75.5582095, 22.507949 ], [ 75.5540699, 22.4994677 ], [ 75.5529034, 22.4909389 ], [ 75.553609, 22.4886322 ], [ 75.5650544, 22.4907722 ], [ 75.5669884, 22.4780414 ], [ 75.5646204, 22.4716659 ], [ 75.5744398, 22.4530143 ], [ 75.5653078, 22.4429795 ], [ 75.566146, 22.4359774 ], [ 75.5653717, 22.4297603 ], [ 75.5636683, 22.4270554 ], [ 75.5533632, 22.4180623 ], [ 75.5401931, 22.4115774 ], [ 75.5428443, 22.4114658 ], [ 75.5458519, 22.4080903 ], [ 75.5468268, 22.3923884 ], [ 75.5479279, 22.394231 ], [ 75.5501573, 22.3925029 ], [ 75.550416, 22.3897941 ], [ 75.5517218, 22.3901604 ], [ 75.5549223, 22.3879676 ], [ 75.5517984, 22.3828646 ], [ 75.5574035, 22.376903 ], [ 75.5646371, 22.3758403 ], [ 75.5580757, 22.3703832 ], [ 75.5540109, 22.3636717 ], [ 75.5427157, 22.3612642 ], [ 75.5410332, 22.357895 ], [ 75.5368008, 22.3567956 ], [ 75.5392002, 22.3626577 ], [ 75.5380383, 22.365294 ], [ 75.5279118, 22.3648728 ], [ 75.526007, 22.3674816 ], [ 75.5279077, 22.3709866 ], [ 75.5224185, 22.3754669 ], [ 75.5180393, 22.3753738 ], [ 75.5148222, 22.373123 ], [ 75.5085443, 22.3736831 ], [ 75.5035006, 22.3675431 ], [ 75.5100054, 22.3501865 ], [ 75.5091889, 22.3397058 ], [ 75.504969, 22.336393 ], [ 75.5039242, 22.3377875 ], [ 75.4965137, 22.3397814 ], [ 75.4958479, 22.3331896 ], [ 75.4899791, 22.3262538 ], [ 75.4990395, 22.3268115 ], [ 75.5068627, 22.3235217 ], [ 75.5102614, 22.3277278 ], [ 75.514148, 22.3291484 ], [ 75.5187032, 22.3262207 ], [ 75.5169636, 22.3037057 ], [ 75.514812, 22.2937391 ], [ 75.5174865, 22.2797388 ], [ 75.5188126, 22.2773874 ], [ 75.5292477, 22.2712078 ], [ 75.5330127, 22.2633575 ], [ 75.5277147, 22.2505879 ], [ 75.5295272, 22.2445757 ], [ 75.5339152, 22.2396158 ], [ 75.5356453, 22.2342796 ], [ 75.5313521, 22.2209523 ], [ 75.5228093, 22.2110268 ], [ 75.5197401, 22.190954 ], [ 75.5158259, 22.1863998 ], [ 75.5164203, 22.1826524 ], [ 75.5204927, 22.1762342 ], [ 75.5205967, 22.1732224 ], [ 75.5112208, 22.1731936 ], [ 75.5102435, 22.1706508 ], [ 75.5107669, 22.164921 ], [ 75.5093149, 22.1620483 ], [ 75.5026298, 22.1565888 ], [ 75.4906088, 22.1539823 ], [ 75.4818, 22.1524214 ], [ 75.4681069, 22.1532653 ], [ 75.4558908, 22.1516508 ], [ 75.4280558, 22.1463251 ], [ 75.4090244, 22.1390604 ], [ 75.3981865, 22.1365969 ], [ 75.3901312, 22.1367468 ], [ 75.3786493, 22.1412584 ], [ 75.3640456, 22.1415697 ], [ 75.3226304, 22.1368747 ], [ 75.2894809, 22.1249898 ], [ 75.2512379, 22.1255049 ], [ 75.2386083, 22.1240683 ], [ 75.2184198, 22.1186671 ], [ 75.2097817, 22.1149195 ], [ 75.1979197, 22.1074025 ], [ 75.1882124, 22.1047515 ], [ 75.1476202, 22.1034031 ], [ 75.1318815, 22.1009256 ], [ 75.1148255, 22.0961979 ], [ 75.1007548, 22.0948553 ], [ 75.0898285, 22.0956751 ], [ 75.0605291, 22.0946639 ], [ 75.034232, 22.0894722 ], [ 75.0195564, 22.0891248 ], [ 74.9711551, 22.0841623 ], [ 74.942734, 22.0829981 ], [ 74.9147112, 22.0837388 ], [ 74.887458, 22.0790924 ], [ 74.8476754, 22.0644199 ], [ 74.8342138, 22.0621503 ], [ 74.8198785, 22.0656005 ], [ 74.791295, 22.077243 ], [ 74.7776804, 22.0785359 ], [ 74.7528005, 22.0695696 ], [ 74.7334682, 22.0598923 ], [ 74.6944674, 22.0485391 ], [ 74.6894429, 22.045299 ], [ 74.6844363, 22.0380717 ], [ 74.6789092, 22.0357346 ], [ 74.6653814, 22.034113 ], [ 74.6375814, 22.0369894 ], [ 74.619545, 22.0290696 ], [ 74.5918294, 22.0233407 ], [ 74.5667921, 22.0223179 ], [ 74.5622103, 22.0233864 ], [ 74.5536842, 22.0286615 ], [ 74.5417499, 22.0470611 ], [ 74.538779, 22.0498998 ], [ 74.5340598, 22.0518976 ], [ 74.5258012, 22.051807 ], [ 74.5109449, 22.0458415 ], [ 74.5022322, 22.044576 ], [ 74.4991611, 22.0530182 ], [ 74.4949169, 22.0550792 ], [ 74.494061, 22.0626433 ], [ 74.4925612, 22.0649699 ], [ 74.4925517, 22.0710568 ], [ 74.4977747, 22.071658 ], [ 74.4997415, 22.0736171 ], [ 74.5007886, 22.0783095 ], [ 74.5040385, 22.0794904 ], [ 74.5038652, 22.0838297 ], [ 74.5083897, 22.0846096 ], [ 74.5094094, 22.0877938 ], [ 74.5156051, 22.0894145 ], [ 74.5150493, 22.1001655 ], [ 74.5073604, 22.0990628 ], [ 74.4991606, 22.1001901 ], [ 74.4756334, 22.0964451 ], [ 74.4757866, 22.1005495 ], [ 74.4710516, 22.1135523 ], [ 74.4848243, 22.1141713 ], [ 74.4876144, 22.1126522 ], [ 74.4991615, 22.1128922 ], [ 74.5406282, 22.1174838 ], [ 74.5402951, 22.1234125 ], [ 74.5354104, 22.1228002 ], [ 74.5302887, 22.1288526 ], [ 74.526506, 22.1463974 ], [ 74.5090246, 22.1498718 ], [ 74.5021939, 22.1565949 ], [ 74.497518, 22.1666857 ], [ 74.4959924, 22.1740696 ], [ 74.496351, 22.1794653 ], [ 74.4991594, 22.1820575 ], [ 74.5095212, 22.1829567 ], [ 74.5096785, 22.1863162 ], [ 74.5075713, 22.189918 ], [ 74.5155308, 22.1985841 ], [ 74.515581, 22.2026029 ], [ 74.5193772, 22.2033233 ], [ 74.5216742, 22.2054515 ], [ 74.5117098, 22.2169863 ], [ 74.5120708, 22.220206 ], [ 74.5210476, 22.2265967 ], [ 74.5234152, 22.2323553 ], [ 74.5267006, 22.2363941 ], [ 74.5426331, 22.2369493 ], [ 74.5470498, 22.2313795 ], [ 74.5515411, 22.2216327 ], [ 74.5541416, 22.2196833 ], [ 74.5567603, 22.2196844 ], [ 74.5622871, 22.2238588 ], [ 74.5595187, 22.243012 ], [ 74.5640428, 22.2459713 ], [ 74.5695153, 22.2431557 ], [ 74.5751905, 22.2423402 ], [ 74.5902605, 22.2432517 ], [ 74.5903703, 22.2505713 ], [ 74.5953222, 22.2533584 ], [ 74.6022294, 22.254407 ], [ 74.6037717, 22.2562043 ], [ 74.6021413, 22.259848 ], [ 74.5963001, 22.2631976 ], [ 74.5991419, 22.2681333 ], [ 74.6077672, 22.2704102 ], [ 74.6141759, 22.2682614 ], [ 74.618741, 22.2707089 ], [ 74.6349299, 22.2698824 ], [ 74.6489606, 22.2741975 ], [ 74.6526489, 22.2803243 ], [ 74.6535864, 22.2858645 ], [ 74.6582402, 22.2890063 ], [ 74.6614374, 22.288247 ], [ 74.6618625, 22.2996798 ], [ 74.6599615, 22.3039517 ], [ 74.6579915, 22.3045121 ], [ 74.6395372, 22.3027538 ], [ 74.6359613, 22.3060052 ], [ 74.6379073, 22.3080415 ], [ 74.6379026, 22.3098341 ], [ 74.6325258, 22.3105253 ], [ 74.6332007, 22.3161016 ], [ 74.6317548, 22.3193347 ], [ 74.622893, 22.3286816 ], [ 74.6216163, 22.3462508 ], [ 74.6296837, 22.3503732 ], [ 74.6323438, 22.3530778 ], [ 74.6303782, 22.358871 ], [ 74.6313057, 22.3659782 ], [ 74.6482538, 22.3696068 ], [ 74.6540116, 22.3697594 ], [ 74.660871, 22.3678977 ], [ 74.6645173, 22.3693282 ], [ 74.668677, 22.3669836 ], [ 74.6729977, 22.3670682 ], [ 74.6720546, 22.3632937 ], [ 74.6733794, 22.3617174 ], [ 74.6771861, 22.3639513 ], [ 74.6783792, 22.3607812 ], [ 74.6814667, 22.3609743 ], [ 74.6833857, 22.3646672 ], [ 74.6869258, 22.3669596 ], [ 74.6918927, 22.368091 ], [ 74.6923608, 22.37243 ], [ 74.6911434, 22.3747333 ], [ 74.6940492, 22.3798434 ], [ 74.6921413, 22.3802189 ], [ 74.6898853, 22.3836696 ], [ 74.6917562, 22.3871773 ], [ 74.6916474, 22.3931826 ], [ 74.694469, 22.3940935 ], [ 74.6950529, 22.3965631 ], [ 74.6968937, 22.3976685 ], [ 74.6937924, 22.4006365 ], [ 74.6886753, 22.4028556 ], [ 74.6912556, 22.4065525 ], [ 74.6911503, 22.4095372 ], [ 74.6884758, 22.4124823 ], [ 74.6900217, 22.4158636 ], [ 74.6938443, 22.4170766 ], [ 74.6966496, 22.423162 ], [ 74.6992392, 22.4250572 ], [ 74.7122696, 22.4248791 ], [ 74.7144929, 22.4231756 ], [ 74.7210778, 22.4292042 ], [ 74.7212461, 22.4337827 ], [ 74.7238143, 22.4390187 ], [ 74.7347952, 22.4375126 ], [ 74.7424814, 22.4344052 ], [ 74.7453281, 22.4349223 ], [ 74.7476664, 22.4372775 ], [ 74.7465096, 22.4419381 ], [ 74.7391636, 22.4455918 ], [ 74.7363909, 22.4528453 ], [ 74.7262308, 22.4558141 ], [ 74.7218803, 22.458702 ], [ 74.717304, 22.4583841 ], [ 74.712837, 22.4619672 ], [ 74.7117853, 22.465878 ], [ 74.7123674, 22.47219 ], [ 74.7076078, 22.4749965 ], [ 74.7050882, 22.478163 ], [ 74.7097752, 22.483764 ], [ 74.709054, 22.488239 ], [ 74.7134096, 22.4989604 ], [ 74.7211443, 22.4972356 ], [ 74.7230369, 22.5005566 ], [ 74.725351, 22.501887 ], [ 74.7212709, 22.5044542 ], [ 74.7199794, 22.5131423 ], [ 74.7212248, 22.515047 ], [ 74.7159345, 22.5182469 ], [ 74.7143622, 22.5218419 ], [ 74.7151068, 22.5233766 ], [ 74.7124745, 22.526304 ], [ 74.716493, 22.5323521 ], [ 74.7187001, 22.5330778 ], [ 74.7203519, 22.5388472 ], [ 74.7274201, 22.5466091 ], [ 74.7278667, 22.5522889 ], [ 74.7362515, 22.5574487 ], [ 74.74746, 22.5610165 ], [ 74.7522199, 22.559207 ], [ 74.7596881, 22.5636148 ], [ 74.7663817, 22.5708709 ], [ 74.7722943, 22.5699717 ], [ 74.7775624, 22.5728648 ], [ 74.7801059, 22.578903 ], [ 74.7823365, 22.5805659 ], [ 74.7817579, 22.5877493 ], [ 74.7829477, 22.5972951 ], [ 74.7818675, 22.5984819 ], [ 74.7831389, 22.6098474 ], [ 74.7894241, 22.6303 ], [ 74.7841331, 22.6437704 ], [ 74.7880927, 22.6516154 ], [ 74.7949006, 22.6559173 ], [ 74.796305, 22.6587265 ], [ 74.7912426, 22.6635506 ], [ 74.7898436, 22.6678754 ], [ 74.7851045, 22.6686359 ], [ 74.7840159, 22.6741799 ], [ 74.7808865, 22.6755146 ], [ 74.7823197, 22.6786805 ], [ 74.7822377, 22.6922213 ], [ 74.7726518, 22.7115583 ], [ 74.7747783, 22.71868 ], [ 74.7652204, 22.7359125 ], [ 74.7643327, 22.7381513 ], [ 74.7653529, 22.7406444 ], [ 74.7620248, 22.7448772 ], [ 74.7623366, 22.7505342 ], [ 74.7604275, 22.7514296 ], [ 74.768366, 22.7534126 ], [ 74.770315, 22.751066 ], [ 74.771897, 22.7513606 ], [ 74.775477, 22.7555122 ], [ 74.7848217, 22.7591207 ], [ 74.7901328, 22.7598009 ], [ 74.7934486, 22.7591479 ], [ 74.7987671, 22.7551547 ], [ 74.8049122, 22.7525477 ], [ 74.8159787, 22.75013 ], [ 74.83072, 22.750533 ], [ 74.8397647, 22.7480149 ], [ 74.8456841, 22.748463 ], [ 74.8519351, 22.7464413 ], [ 74.854646, 22.7501486 ], [ 74.8566631, 22.7505346 ], [ 74.8568315, 22.7528871 ], [ 74.873028, 22.7556332 ], [ 74.8844684, 22.7552671 ], [ 74.8953236, 22.748225 ], [ 74.8988055, 22.7548909 ], [ 74.9017416, 22.7576446 ], [ 74.9030867, 22.7649588 ], [ 74.9027231, 22.7719979 ], [ 74.9187099, 22.7791958 ], [ 74.9213203, 22.7807664 ], [ 74.926187, 22.7870634 ], [ 74.9372378, 22.7916693 ], [ 74.9410642, 22.7992621 ], [ 74.942837, 22.7996813 ], [ 74.943311, 22.8028145 ], [ 74.9502824, 22.8073535 ], [ 74.9500372, 22.8131736 ], [ 74.9540059, 22.8204137 ], [ 74.95101, 22.8283347 ], [ 74.9521637, 22.8355537 ], [ 74.9649999, 22.8513631 ], [ 74.981845, 22.8623332 ], [ 74.9851323, 22.8666247 ], [ 74.9874919, 22.8741632 ], [ 74.9846568, 22.8872632 ], [ 74.9857723, 22.8927301 ], [ 74.9913143, 22.8998057 ], [ 74.9998422, 22.9073224 ], [ 75.0031415, 22.9130545 ], [ 75.0026946, 22.9168196 ], [ 74.999751, 22.9217252 ], [ 74.9997697, 22.9279739 ], [ 75.0061604, 22.9388916 ], [ 75.0060733, 22.9437496 ], [ 75.0024651, 22.9552149 ], [ 75.0075, 22.9627272 ], [ 75.0033627, 22.9711219 ], [ 75.0088878, 22.9933757 ], [ 75.0085671, 23.0034086 ], [ 75.0123534, 23.0132313 ], [ 75.0121123, 23.0157776 ], [ 75.0087735, 23.018746 ], [ 75.0068665, 23.024158 ], [ 75.0152267, 23.0369322 ], [ 75.0135433, 23.0434235 ], [ 75.009924, 23.0484099 ], [ 75.0048612, 23.0523883 ], [ 75.0027058, 23.0566849 ], [ 75.0071713, 23.0777368 ], [ 75.010189, 23.08122 ], [ 75.0147207, 23.0833091 ], [ 75.0159584, 23.0856261 ], [ 75.0148409, 23.0916121 ], [ 75.011225, 23.0968377 ], [ 75.0088059, 23.1064483 ], [ 75.0063677, 23.109476 ], [ 75.0141064, 23.1126284 ], [ 75.0280476, 23.1114682 ], [ 75.0281494, 23.112439 ], [ 75.0326393, 23.1133582 ], [ 75.0391781, 23.108716 ], [ 75.0482529, 23.1065355 ], [ 75.064462, 23.1071745 ], [ 75.0803989, 23.1046198 ], [ 75.1070669, 23.1096456 ], [ 75.1071736, 23.1146842 ], [ 75.1095604, 23.1152353 ], [ 75.1140858, 23.1092083 ], [ 75.1171071, 23.1099941 ], [ 75.1209582, 23.1077819 ], [ 75.1338194, 23.1072579 ], [ 75.1370015, 23.1049777 ], [ 75.1403595, 23.1052889 ], [ 75.1420925, 23.1074062 ], [ 75.1477347, 23.106683 ], [ 75.1493011, 23.1047686 ], [ 75.1539428, 23.1049348 ], [ 75.1572384, 23.1093135 ], [ 75.1597999, 23.1056514 ], [ 75.1636262, 23.1046843 ], [ 75.1678437, 23.1060196 ], [ 75.1691999, 23.1039695 ], [ 75.1785891, 23.1006256 ], [ 75.1800089, 23.0997041 ], [ 75.1778026, 23.0988379 ], [ 75.1772697, 23.0963639 ], [ 75.1870432, 23.0920306 ], [ 75.2113078, 23.0912651 ], [ 75.219534, 23.0883844 ], [ 75.2317681, 23.0876948 ], [ 75.2379253, 23.0857852 ], [ 75.241172, 23.093097 ], [ 75.2426475, 23.1005048 ], [ 75.2439351, 23.1160035 ], [ 75.2438827, 23.1175476 ], [ 75.241486, 23.1175268 ], [ 75.2397626, 23.1286347 ], [ 75.2421896, 23.1351569 ] ] ] } }
]
}
