{
"type": "FeatureCollection",
"name": "2326",
"crs": { "type": "name", "properties": { "name": "urn:ogc:def:crs:OGC:1.3:CRS84" } },
"features": [
{ "type": "Feature", "properties": { "code": "2326", "name": "Indore", "type": "district" }, "geometry": { "type": "Polygon", "coordinates": [ [ [ 75.6064227, 23.089235 ], [ 75.6067798, 23.0831129 ], [ 75.6156174, 23.0838676 ], [ 75.6165789, 23.0827434 ], [ 75.6233719, 23.0847663 ], [ 75.6279493, 23.0819896 ], [ 75.6280712, 23.078924 ], [ 75.6259679, 23.0752624 ], [ 75.6282126, 23.0728423 ], [ 75.6271487, 23.0695782 ], [ 75.6296957, 23.0655643 ], [ 75.6265679, 23.0623814 ], [ 75.6210592, 23.0631805 ], [ 75.6206007, 23.0590177 ], [ 75.6172927, 23.0569858 ], [ 75.6162001, 23.0527598 ], [ 75.6205863, 23.049288 ], [ 75.622011, 23.0494777 ], [ 75.6229867, 23.0516222 ], [ 75.6247529, 23.0516358 ], [ 75.6271922, 23.0475272 ], [ 75.6270702, 23.0458657 ], [ 75.6222306, 23.0451027 ], [ 75.6211232, 23.043676 ], [ 75.6263481, 23.0370074 ], [ 75.628387, 23.0300905 ], [ 75.6333089, 23.0291422 ], [ 75.6313035, 23.0176834 ], [ 75.6322394, 23.0069196 ], [ 75.6462273, 23.0069048 ], [ 75.6457499, 23.0100698 ], [ 75.6408338, 23.0127026 ], [ 75.6410392, 23.0171002 ], [ 75.6394443, 23.0182607 ], [ 75.6363323, 23.0176695 ], [ 75.6355326, 23.0201257 ], [ 75.6367376, 23.0225592 ], [ 75.6381081, 23.0208795 ], [ 75.6409372, 23.0207392 ], [ 75.64124, 23.0237327 ], [ 75.6445417, 23.0196372 ], [ 75.6446786, 23.0214296 ], [ 75.6494547, 23.0259348 ], [ 75.6485226, 23.0235737 ], [ 75.6504836, 23.0236727 ], [ 75.6502195, 23.0199298 ], [ 75.652722, 23.0211168 ], [ 75.6566095, 23.0207052 ], [ 75.6579456, 23.0189531 ], [ 75.6717429, 23.0141141 ], [ 75.6783821, 23.016216 ], [ 75.6790811, 23.020225 ], [ 75.6847981, 23.020828 ], [ 75.6980495, 23.0180096 ], [ 75.7096051, 23.0186178 ], [ 75.7098238, 23.0174618 ], [ 75.7148953, 23.0155221 ], [ 75.7238744, 23.0147086 ], [ 75.7316597, 23.0156741 ], [ 75.7329812, 23.0336021 ], [ 75.7372555, 23.0346375 ], [ 75.7595654, 23.0350702 ], [ 75.7600297, 23.0284156 ], [ 75.7782252, 23.0277956 ], [ 75.7776804, 23.0324636 ], [ 75.7940501, 23.034947 ], [ 75.8047631, 23.0344509 ], [ 75.8072545, 23.0373641 ], [ 75.8078482, 23.0402494 ], [ 75.8161657, 23.0409074 ], [ 75.817698, 23.0398695 ], [ 75.8154061, 23.0374848 ], [ 75.8341406, 23.0326416 ], [ 75.8421855, 23.0291218 ], [ 75.8466523, 23.0364324 ], [ 75.8670047, 23.0368455 ], [ 75.8670729, 23.0387824 ], [ 75.8707903, 23.0380556 ], [ 75.8743124, 23.0392295 ], [ 75.8746442, 23.0373513 ], [ 75.8719027, 23.0333556 ], [ 75.8768833, 23.0305699 ], [ 75.8777904, 23.0261136 ], [ 75.88101, 23.0282581 ], [ 75.8839221, 23.0270389 ], [ 75.8865265, 23.0214538 ], [ 75.8837801, 23.0195306 ], [ 75.8843165, 23.0161895 ], [ 75.8891888, 23.0127533 ], [ 75.8874571, 23.0103605 ], [ 75.8877544, 23.0082204 ], [ 75.8918948, 23.0049647 ], [ 75.8954846, 23.0060433 ], [ 75.8980343, 22.9997257 ], [ 75.900687, 22.9977568 ], [ 75.9009059, 22.9950207 ], [ 75.9066161, 22.9924326 ], [ 75.9098339, 22.9889734 ], [ 75.9134035, 22.9887694 ], [ 75.9140076, 22.9867194 ], [ 75.911939, 22.9830131 ], [ 75.913967, 22.9811841 ], [ 75.9151115, 22.9766373 ], [ 75.9169837, 22.9755621 ], [ 75.919033, 22.9794264 ], [ 75.9248214, 22.980278 ], [ 75.9262884, 22.9782458 ], [ 75.9235715, 22.9760434 ], [ 75.9240976, 22.9747294 ], [ 75.9286467, 22.9735405 ], [ 75.9323406, 22.9688074 ], [ 75.9364605, 22.9681241 ], [ 75.9370872, 22.9630536 ], [ 75.9423043, 22.9632094 ], [ 75.9413122, 22.9585097 ], [ 75.9464311, 22.9578528 ], [ 75.9476084, 22.9530123 ], [ 75.9514298, 22.9514754 ], [ 75.9516756, 22.9465087 ], [ 75.9568035, 22.9452103 ], [ 75.9601754, 22.9427117 ], [ 75.9625947, 22.9447693 ], [ 75.9650954, 22.9444338 ], [ 75.9666317, 22.9382112 ], [ 75.9646892, 22.9347945 ], [ 75.9658069, 22.9295565 ], [ 75.9707253, 22.9297026 ], [ 75.9774072, 22.9217836 ], [ 75.9771648, 22.9169933 ], [ 75.9818879, 22.9111162 ], [ 75.9796128, 22.9060744 ], [ 75.9824946, 22.9016478 ], [ 75.9829732, 22.8968706 ], [ 75.9805727, 22.8931338 ], [ 75.9861418, 22.8860053 ], [ 75.9803993, 22.8832731 ], [ 75.9793693, 22.8808944 ], [ 75.9830254, 22.8767155 ], [ 75.9843037, 22.872764 ], [ 75.9906272, 22.8716397 ], [ 75.9966227, 22.874227 ], [ 75.9968827, 22.8707547 ], [ 76.0036607, 22.8656863 ], [ 76.0060382, 22.8602475 ], [ 76.0104475, 22.8601649 ], [ 76.0110885, 22.8626216 ], [ 76.0137581, 22.8630252 ], [ 76.0192804, 22.8602568 ], [ 76.0232417, 22.8597311 ], [ 76.0233012, 22.8582773 ], [ 76.0211197, 22.8568717 ], [ 76.022649, 22.8509986 ], [ 76.0238917, 22.8504125 ], [ 76.0258486, 22.8523913 ], [ 76.0275883, 22.8516925 ], [ 76.032458, 22.8475732 ], [ 76.0339862, 22.8424856 ], [ 76.0375333, 22.8412008 ], [ 76.0368483, 22.8384507 ], [ 76.0391774, 22.837242 ], [ 76.0367004, 22.8333938 ], [ 76.0367369, 22.8298224 ], [ 76.0391932, 22.8275301 ], [ 76.0424182, 22.8267462 ], [ 76.0425616, 22.8231252 ], [ 76.045412, 22.8213838 ], [ 76.0485219, 22.8171005 ], [ 76.0512873, 22.8190117 ], [ 76.0542501, 22.8160014 ], [ 76.0515036, 22.8151785 ], [ 76.0523081, 22.8136527 ], [ 76.050761, 22.8103922 ], [ 76.0484873, 22.8090817 ], [ 76.0492143, 22.8065672 ], [ 76.0520151, 22.8058912 ], [ 76.0523622, 22.8034217 ], [ 76.0537699, 22.8026773 ], [ 76.0601963, 22.8069287 ], [ 76.0599687, 22.8040932 ], [ 76.0628624, 22.8021618 ], [ 76.0622371, 22.7956689 ], [ 76.0651462, 22.7912046 ], [ 76.0680346, 22.7897112 ], [ 76.0683447, 22.78139 ], [ 76.072086, 22.7769078 ], [ 76.072954, 22.7733638 ], [ 76.0766884, 22.7735364 ], [ 76.0801667, 22.767853 ], [ 76.0788242, 22.7642721 ], [ 76.0829005, 22.759853 ], [ 76.0830764, 22.7576722 ], [ 76.0794599, 22.7553957 ], [ 76.0820987, 22.7550216 ], [ 76.0834432, 22.7520736 ], [ 76.0857507, 22.7521283 ], [ 76.0862961, 22.7513203 ], [ 76.0847617, 22.7505814 ], [ 76.0844471, 22.7487713 ], [ 76.0890286, 22.7455711 ], [ 76.0889327, 22.7402658 ], [ 76.0865188, 22.7385135 ], [ 76.0863448, 22.7340525 ], [ 76.0878003, 22.7334749 ], [ 76.0888869, 22.7290322 ], [ 76.0919245, 22.7276287 ], [ 76.0955944, 22.7278236 ], [ 76.0980138, 22.7260812 ], [ 76.0979755, 22.7231011 ], [ 76.0960293, 22.7196874 ], [ 76.0935085, 22.7180931 ], [ 76.0934265, 22.7150409 ], [ 76.0960443, 22.7174705 ], [ 76.0977773, 22.7157776 ], [ 76.100313, 22.716382 ], [ 76.1032353, 22.7015152 ], [ 76.1178881, 22.6992453 ], [ 76.1190998, 22.6993537 ], [ 76.1197469, 22.7029162 ], [ 76.1231291, 22.7027085 ], [ 76.1287554, 22.6995891 ], [ 76.1349008, 22.6981975 ], [ 76.1408806, 22.6927699 ], [ 76.1573369, 22.6894804 ], [ 76.1710885, 22.6904161 ], [ 76.1728367, 22.6942038 ], [ 76.1752457, 22.6950202 ], [ 76.1806469, 22.6945398 ], [ 76.1904891, 22.6902332 ], [ 76.1970016, 22.6845278 ], [ 76.1988525, 22.6788423 ], [ 76.2002341, 22.6784941 ], [ 76.1999362, 22.676503 ], [ 76.202379, 22.6771384 ], [ 76.2039597, 22.6761128 ], [ 76.1922929, 22.6675393 ], [ 76.1912875, 22.6608528 ], [ 76.196387, 22.6627921 ], [ 76.2006722, 22.6612234 ], [ 76.208311, 22.6625832 ], [ 76.2134967, 22.661885 ], [ 76.2161944, 22.6655814 ], [ 76.2218262, 22.6696779 ], [ 76.2218422, 22.6717096 ], [ 76.2256538, 22.6744299 ], [ 76.2296684, 22.6753348 ], [ 76.2341339, 22.6618135 ], [ 76.2293615, 22.6557032 ], [ 76.22991, 22.6540954 ], [ 76.22786, 22.651338 ], [ 76.230628, 22.6514988 ], [ 76.2331121, 22.6492621 ], [ 76.2402481, 22.6488733 ], [ 76.2420553, 22.6461674 ], [ 76.2420089, 22.6429572 ], [ 76.2472777, 22.6438337 ], [ 76.2375034, 22.6355917 ], [ 76.2360943, 22.6314794 ], [ 76.236059, 22.6238352 ], [ 76.2320655, 22.6170787 ], [ 76.2167011, 22.6158015 ], [ 76.2143237, 22.617022 ], [ 76.2140894, 22.6230904 ], [ 76.1994267, 22.6252427 ], [ 76.1926016, 22.6126123 ], [ 76.1931745, 22.6008138 ], [ 76.1874978, 22.5971318 ], [ 76.1843566, 22.5972413 ], [ 76.1837204, 22.5991515 ], [ 76.1799516, 22.598742 ], [ 76.1756632, 22.6004637 ], [ 76.178067, 22.6045536 ], [ 76.1846759, 22.6047229 ], [ 76.1862961, 22.606578 ], [ 76.188324, 22.606794 ], [ 76.1892539, 22.6088434 ], [ 76.1856564, 22.6116714 ], [ 76.1824467, 22.6115597 ], [ 76.1837428, 22.6173296 ], [ 76.1809123, 22.6175338 ], [ 76.1787375, 22.6154124 ], [ 76.1753767, 22.6148582 ], [ 76.1742114, 22.6199246 ], [ 76.1723442, 22.6211759 ], [ 76.175774, 22.6240194 ], [ 76.1751911, 22.6260423 ], [ 76.1802906, 22.6316259 ], [ 76.1807, 22.6337479 ], [ 76.1862736, 22.6325042 ], [ 76.1878077, 22.6366892 ], [ 76.1901464, 22.6346835 ], [ 76.1894814, 22.6375508 ], [ 76.1904454, 22.6394604 ], [ 76.188135, 22.639967 ], [ 76.1851275, 22.6366044 ], [ 76.183076, 22.6391923 ], [ 76.1812417, 22.6379874 ], [ 76.1785568, 22.6384715 ], [ 76.1765223, 22.6348781 ], [ 76.174854, 22.6350502 ], [ 76.1742108, 22.6317949 ], [ 76.1720322, 22.6330418 ], [ 76.172216, 22.6301475 ], [ 76.1701334, 22.627728 ], [ 76.1650513, 22.6295174 ], [ 76.1609523, 22.6338303 ], [ 76.1579074, 22.6340793 ], [ 76.1591027, 22.6291214 ], [ 76.1513601, 22.6325048 ], [ 76.1539417, 22.6269597 ], [ 76.1517382, 22.6254068 ], [ 76.152268, 22.6242147 ], [ 76.155614, 22.6231441 ], [ 76.1582406, 22.6242136 ], [ 76.1589991, 22.6230305 ], [ 76.1625445, 22.6226504 ], [ 76.1631322, 22.6196612 ], [ 76.1664386, 22.6170958 ], [ 76.1659034, 22.6161342 ], [ 76.1598443, 22.6188402 ], [ 76.1573638, 22.6184389 ], [ 76.1579807, 22.6155084 ], [ 76.1606701, 22.6153634 ], [ 76.1611652, 22.611575 ], [ 76.165717, 22.6108831 ], [ 76.1657503, 22.60863 ], [ 76.1671118, 22.6077627 ], [ 76.1664985, 22.6059162 ], [ 76.1681559, 22.6034504 ], [ 76.1651061, 22.6007196 ], [ 76.1622759, 22.6008467 ], [ 76.161242, 22.6077596 ], [ 76.1535002, 22.6089036 ], [ 76.1487838, 22.6134692 ], [ 76.1420182, 22.6075191 ], [ 76.1478046, 22.6037211 ], [ 76.1409235, 22.6036226 ], [ 76.1413025, 22.6004935 ], [ 76.1438163, 22.598624 ], [ 76.1415056, 22.5922172 ], [ 76.1442965, 22.5899367 ], [ 76.143669, 22.5888441 ], [ 76.1403626, 22.589603 ], [ 76.1366772, 22.5924118 ], [ 76.1413554, 22.5954816 ], [ 76.1384478, 22.5978343 ], [ 76.1408404, 22.5996763 ], [ 76.1379572, 22.6041421 ], [ 76.1359049, 22.602842 ], [ 76.1322628, 22.604725 ], [ 76.1325736, 22.5994964 ], [ 76.1316497, 22.5982864 ], [ 76.1287662, 22.6037453 ], [ 76.126184, 22.6018129 ], [ 76.128022, 22.5949768 ], [ 76.1273314, 22.5940287 ], [ 76.1261499, 22.5941957 ], [ 76.1241221, 22.5984897 ], [ 76.1209953, 22.5997945 ], [ 76.1192153, 22.6042555 ], [ 76.1165943, 22.6031446 ], [ 76.1167987, 22.6003001 ], [ 76.1136183, 22.6015506 ], [ 76.1078414, 22.600024 ], [ 76.1113477, 22.5976854 ], [ 76.1132393, 22.5979655 ], [ 76.1144357, 22.5951978 ], [ 76.1171101, 22.5957172 ], [ 76.1196243, 22.593568 ], [ 76.1190943, 22.5922044 ], [ 76.1234511, 22.589211 ], [ 76.1195076, 22.5904887 ], [ 76.1148981, 22.5888811 ], [ 76.114412, 22.586655 ], [ 76.1194251, 22.5848989 ], [ 76.1154867, 22.5859598 ], [ 76.1140963, 22.5819186 ], [ 76.1118935, 22.5850249 ], [ 76.1130116, 22.5865195 ], [ 76.1110372, 22.5910165 ], [ 76.1075991, 22.5931247 ], [ 76.1054502, 22.5902709 ], [ 76.106671, 22.5878555 ], [ 76.1054461, 22.5855571 ], [ 76.102334, 22.5870377 ], [ 76.1008365, 22.5863782 ], [ 76.0985794, 22.591471 ], [ 76.1005625, 22.5955892 ], [ 76.0971243, 22.5968935 ], [ 76.093571, 22.5911541 ], [ 76.0912072, 22.5939349 ], [ 76.0913424, 22.5977006 ], [ 76.0900198, 22.5977364 ], [ 76.0890028, 22.5999396 ], [ 76.0867326, 22.5978666 ], [ 76.0821063, 22.6034372 ], [ 76.0820786, 22.5988317 ], [ 76.0874925, 22.5924532 ], [ 76.083539, 22.5933462 ], [ 76.0831406, 22.5925289 ], [ 76.0884031, 22.5874866 ], [ 76.0883062, 22.5861727 ], [ 76.0839537, 22.5886099 ], [ 76.0828551, 22.587851 ], [ 76.0847817, 22.5838104 ], [ 76.0742887, 22.584706 ], [ 76.0736903, 22.5857172 ], [ 76.0724947, 22.5843532 ], [ 76.0691778, 22.5862214 ], [ 76.0679237, 22.585309 ], [ 76.0648115, 22.5860122 ], [ 76.064553, 22.5880981 ], [ 76.0628366, 22.5880342 ], [ 76.0618071, 22.5848506 ], [ 76.0704639, 22.5800993 ], [ 76.0725946, 22.5770025 ], [ 76.0724793, 22.573309 ], [ 76.0781385, 22.5732882 ], [ 76.0787763, 22.5706244 ], [ 76.081626, 22.5686611 ], [ 76.0927846, 22.5642208 ], [ 76.1020993, 22.5643036 ], [ 76.1021136, 22.5664754 ], [ 76.1059541, 22.5675956 ], [ 76.106596, 22.566801 ], [ 76.1033049, 22.5652068 ], [ 76.1048754, 22.5635634 ], [ 76.1027122, 22.5623756 ], [ 76.1066989, 22.5600012 ], [ 76.0972786, 22.55441 ], [ 76.0926356, 22.5566532 ], [ 76.0912214, 22.5551719 ], [ 76.0850548, 22.5468264 ], [ 76.0868846, 22.5400225 ], [ 76.0807115, 22.5391494 ], [ 76.0814566, 22.5347293 ], [ 76.0782015, 22.5306195 ], [ 76.0763666, 22.5237016 ], [ 76.0739253, 22.527909 ], [ 76.0666672, 22.5318755 ], [ 76.0604451, 22.5335257 ], [ 76.0519844, 22.5308085 ], [ 76.0441133, 22.5345162 ], [ 76.0395234, 22.5291363 ], [ 76.0333662, 22.5279183 ], [ 76.0307169, 22.5286031 ], [ 76.029768, 22.5301377 ], [ 76.0278829, 22.5291929 ], [ 76.0282745, 22.5182437 ], [ 76.0306935, 22.5128405 ], [ 76.0304184, 22.5100499 ], [ 76.0267494, 22.5029226 ], [ 76.0279464, 22.5005929 ], [ 76.0259744, 22.4993653 ], [ 76.0260253, 22.4962995 ], [ 76.0236743, 22.4950292 ], [ 76.0347543, 22.485757 ], [ 76.0347227, 22.4819189 ], [ 76.0392646, 22.483565 ], [ 76.0406169, 22.4808927 ], [ 76.0477059, 22.4806614 ], [ 76.050666, 22.4783555 ], [ 76.0501542, 22.4721151 ], [ 76.0552802, 22.4615879 ], [ 76.0524082, 22.4539242 ], [ 76.0475425, 22.4596293 ], [ 76.0456138, 22.459827 ], [ 76.041884, 22.4579603 ], [ 76.0315336, 22.4482288 ], [ 76.0318956, 22.4370628 ], [ 76.0214664, 22.4449447 ], [ 76.008619, 22.4445973 ], [ 76.0129788, 22.4410649 ], [ 76.0107366, 22.4387154 ], [ 76.0107092, 22.4367784 ], [ 76.0066374, 22.432811 ], [ 76.0073547, 22.42882 ], [ 76.0047825, 22.426565 ], [ 76.0066271, 22.4219788 ], [ 76.0025451, 22.4191447 ], [ 75.9980604, 22.4179101 ], [ 75.993822, 22.4136011 ], [ 75.9870063, 22.4167215 ], [ 75.971259, 22.4198112 ], [ 75.9709124, 22.4242048 ], [ 75.9686523, 22.4287711 ], [ 75.9608776, 22.430577 ], [ 75.9139717, 22.4204855 ], [ 75.9132853, 22.4145165 ], [ 75.9086996, 22.4090991 ], [ 75.9115823, 22.4022398 ], [ 75.9094034, 22.3879719 ], [ 75.9034116, 22.387061 ], [ 75.8993289, 22.3907417 ], [ 75.8927595, 22.3913115 ], [ 75.8874668, 22.3900793 ], [ 75.8862965, 22.3875689 ], [ 75.8843154, 22.3871039 ], [ 75.8812709, 22.3834196 ], [ 75.878819, 22.3846389 ], [ 75.8739395, 22.3815369 ], [ 75.8643603, 22.3800329 ], [ 75.8583399, 22.3805653 ], [ 75.8562711, 22.3837438 ], [ 75.8494495, 22.383919 ], [ 75.8495501, 22.3918118 ], [ 75.8381713, 22.4005197 ], [ 75.8343668, 22.4088449 ], [ 75.8261559, 22.4062193 ], [ 75.8218244, 22.4061277 ], [ 75.8157117, 22.3918753 ], [ 75.8090571, 22.387082 ], [ 75.8049829, 22.3879427 ], [ 75.7996384, 22.3857278 ], [ 75.7994228, 22.3802552 ], [ 75.7910838, 22.3766298 ], [ 75.7844665, 22.3763734 ], [ 75.7813809, 22.3731838 ], [ 75.7804097, 22.3735716 ], [ 75.7752108, 22.3657796 ], [ 75.7714136, 22.366888 ], [ 75.7715192, 22.3685135 ], [ 75.7702662, 22.3692171 ], [ 75.7680589, 22.3670438 ], [ 75.7627187, 22.3670402 ], [ 75.7625653, 22.3646831 ], [ 75.7586822, 22.3639219 ], [ 75.7533938, 22.3603238 ], [ 75.7520561, 22.3579026 ], [ 75.7407559, 22.3590597 ], [ 75.7360567, 22.3581691 ], [ 75.7258105, 22.3651692 ], [ 75.7251094, 22.3690162 ], [ 75.7221779, 22.3695734 ], [ 75.7167925, 22.3662807 ], [ 75.7134648, 22.3622689 ], [ 75.7028438, 22.3612451 ], [ 75.7037209, 22.3585854 ], [ 75.6927276, 22.3598997 ], [ 75.6871627, 22.354385 ], [ 75.6813475, 22.3531726 ], [ 75.6755168, 22.3492512 ], [ 75.6747141, 22.3440369 ], [ 75.6624599, 22.3455843 ], [ 75.6587222, 22.3432961 ], [ 75.6545289, 22.3425836 ], [ 75.6511455, 22.3394826 ], [ 75.6535713, 22.3354143 ], [ 75.6535512, 22.3321365 ], [ 75.6443166, 22.335962 ], [ 75.6462927, 22.3413344 ], [ 75.6407944, 22.3450507 ], [ 75.6406685, 22.3470011 ], [ 75.6423186, 22.3470189 ], [ 75.6423771, 22.3489738 ], [ 75.6422759, 22.3550914 ], [ 75.6409462, 22.3561931 ], [ 75.6351362, 22.3551778 ], [ 75.6350584, 22.3528843 ], [ 75.6290105, 22.344767 ], [ 75.6254869, 22.3428934 ], [ 75.6206579, 22.3429927 ], [ 75.6156885, 22.3377192 ], [ 75.6079962, 22.339186 ], [ 75.6058655, 22.3406621 ], [ 75.599634, 22.3407515 ], [ 75.5998317, 22.3477178 ], [ 75.6022636, 22.3457137 ], [ 75.605258, 22.3465493 ], [ 75.6076024, 22.3450145 ], [ 75.6109171, 22.3467665 ], [ 75.6055583, 22.3514027 ], [ 75.607281, 22.3536603 ], [ 75.606184, 22.3546986 ], [ 75.6071302, 22.356166 ], [ 75.6104597, 22.3576833 ], [ 75.6104257, 22.3588255 ], [ 75.6065473, 22.3596875 ], [ 75.6103038, 22.3636834 ], [ 75.6020424, 22.3633078 ], [ 75.5986986, 22.3599754 ], [ 75.599601, 22.3624361 ], [ 75.5984939, 22.3645985 ], [ 75.5927087, 22.3609721 ], [ 75.5920287, 22.3629539 ], [ 75.5901792, 22.3635856 ], [ 75.5882501, 22.3714589 ], [ 75.5816823, 22.3715928 ], [ 75.5798818, 22.3702243 ], [ 75.5792741, 22.3731453 ], [ 75.5750297, 22.3778077 ], [ 75.5712821, 22.3776486 ], [ 75.5663805, 22.3742879 ], [ 75.563331, 22.3763816 ], [ 75.5574035, 22.376903 ], [ 75.5517984, 22.3828646 ], [ 75.5549223, 22.3879676 ], [ 75.5517218, 22.3901604 ], [ 75.550416, 22.3897941 ], [ 75.5501573, 22.3925029 ], [ 75.5479279, 22.394231 ], [ 75.5470503, 22.3922034 ], [ 75.5464818, 22.3929751 ], [ 75.5458519, 22.4080903 ], [ 75.5428443, 22.4114658 ], [ 75.5401931, 22.4115774 ], [ 75.5533632, 22.4180623 ], [ 75.5636683, 22.4270554 ], [ 75.5653717, 22.4297603 ], [ 75.566146, 22.4359774 ], [ 75.5653078, 22.4429795 ], [ 75.5744398, 22.4530143 ], [ 75.5646204, 22.4716659 ], [ 75.5669884, 22.4780414 ], [ 75.5650544, 22.4907722 ], [ 75.553609, 22.4886322 ], [ 75.5529034, 22.4909389 ], [ 75.5540699, 22.4994677 ], [ 75.5582095, 22.507949 ], [ 75.5575007, 22.5151828 ], [ 75.5659133, 22.5161155 ], [ 75.5717122, 22.5136703 ], [ 75.5771745, 22.5135185 ], [ 75.5781208, 22.5178082 ], [ 75.5984592, 22.5199213 ], [ 75.5997171, 22.5244413 ], [ 75.5969949, 22.5269242 ], [ 75.5976725, 22.5419556 ], [ 75.6023585, 22.5408861 ], [ 75.5951195, 22.5473914 ], [ 75.5959154, 22.5670632 ], [ 75.6098605, 22.5684389 ], [ 75.6098754, 22.5659509 ], [ 75.6133663, 22.562759 ], [ 75.6155153, 22.5584471 ], [ 75.6183252, 22.5585917 ], [ 75.6202162, 22.5608765 ], [ 75.6260986, 22.5593097 ], [ 75.6310766, 22.5597205 ], [ 75.6346352, 22.560989 ], [ 75.6351558, 22.5657932 ], [ 75.6573304, 22.5692398 ], [ 75.663, 22.5721644 ], [ 75.6640659, 22.576133 ], [ 75.6807593, 22.5818579 ], [ 75.6801818, 22.5843821 ], [ 75.6832805, 22.5879164 ], [ 75.6861092, 22.5961013 ], [ 75.6961942, 22.5956366 ], [ 75.6963389, 22.6027073 ], [ 75.6983798, 22.6090322 ], [ 75.697998, 22.6136287 ], [ 75.7002244, 22.6117358 ], [ 75.7049413, 22.6148005 ], [ 75.7080365, 22.6147165 ], [ 75.7135645, 22.6196215 ], [ 75.713608, 22.6343139 ], [ 75.7085876, 22.649212 ], [ 75.7067709, 22.6616568 ], [ 75.6913876, 22.6613749 ], [ 75.6860399, 22.6588667 ], [ 75.6785915, 22.6580251 ], [ 75.6835522, 22.6548717 ], [ 75.6832196, 22.6505824 ], [ 75.6802806, 22.6497732 ], [ 75.6789358, 22.6430617 ], [ 75.6833015, 22.6373214 ], [ 75.687135, 22.6385571 ], [ 75.6921673, 22.6440003 ], [ 75.7043636, 22.6465413 ], [ 75.7055073, 22.6308415 ], [ 75.7037369, 22.6308965 ], [ 75.7036047, 22.6293073 ], [ 75.6966818, 22.6263802 ], [ 75.6875639, 22.6298065 ], [ 75.679687, 22.6361442 ], [ 75.6703529, 22.6363232 ], [ 75.6672789, 22.6367259 ], [ 75.6672063, 22.637638 ], [ 75.6544623, 22.6378803 ], [ 75.6453363, 22.6322242 ], [ 75.6383904, 22.6312045 ], [ 75.6167022, 22.6320583 ], [ 75.6049415, 22.6306169 ], [ 75.5996813, 22.6436515 ], [ 75.5984297, 22.6510922 ], [ 75.5914096, 22.6531137 ], [ 75.5896762, 22.6592405 ], [ 75.5840374, 22.6605937 ], [ 75.5758787, 22.6609887 ], [ 75.5676484, 22.6580647 ], [ 75.5646952, 22.6361335 ], [ 75.5546453, 22.6377413 ], [ 75.5373934, 22.6358275 ], [ 75.5359523, 22.6302144 ], [ 75.5286609, 22.6307882 ], [ 75.5277479, 22.6358672 ], [ 75.5236295, 22.6404746 ], [ 75.5247283, 22.6412067 ], [ 75.5237275, 22.6461863 ], [ 75.5180988, 22.6531044 ], [ 75.52377, 22.6545891 ], [ 75.5205409, 22.6596395 ], [ 75.5178742, 22.6591518 ], [ 75.5147342, 22.6508852 ], [ 75.509379, 22.6442532 ], [ 75.4954004, 22.6453228 ], [ 75.497646, 22.6543289 ], [ 75.4975039, 22.6601172 ], [ 75.506999, 22.6629532 ], [ 75.5199065, 22.6621811 ], [ 75.5193404, 22.6644202 ], [ 75.5206811, 22.6672521 ], [ 75.5171263, 22.683861 ], [ 75.5073371, 22.6944826 ], [ 75.5078564, 22.6960995 ], [ 75.5116265, 22.6975831 ], [ 75.5148449, 22.7073922 ], [ 75.5141903, 22.7106246 ], [ 75.5080359, 22.7140472 ], [ 75.5067687, 22.7160826 ], [ 75.510091, 22.7241445 ], [ 75.5085824, 22.7296383 ], [ 75.5090767, 22.7321536 ], [ 75.4947069, 22.7316909 ], [ 75.4956135, 22.7453318 ], [ 75.4890462, 22.7467208 ], [ 75.4835956, 22.7513124 ], [ 75.4850029, 22.7516907 ], [ 75.4844684, 22.7530727 ], [ 75.4857351, 22.7542051 ], [ 75.4844763, 22.7567705 ], [ 75.4851788, 22.7586483 ], [ 75.4880489, 22.7618069 ], [ 75.4909756, 22.7625949 ], [ 75.4840799, 22.7663654 ], [ 75.483712, 22.769016 ], [ 75.4808638, 22.7691353 ], [ 75.4790008, 22.7714031 ], [ 75.4755385, 22.7706558 ], [ 75.4743377, 22.7730405 ], [ 75.4717718, 22.7731234 ], [ 75.4658096, 22.7692304 ], [ 75.4563156, 22.7694613 ], [ 75.4383613, 22.773348 ], [ 75.4391564, 22.7866039 ], [ 75.4430564, 22.7956008 ], [ 75.4357528, 22.7977936 ], [ 75.434755, 22.7991034 ], [ 75.4358261, 22.8093883 ], [ 75.4252155, 22.8095326 ], [ 75.4262699, 22.8246594 ], [ 75.4236317, 22.8247031 ], [ 75.4230682, 22.8287443 ], [ 75.4250565, 22.8315475 ], [ 75.4316901, 22.8299469 ], [ 75.4349445, 22.8311377 ], [ 75.4330702, 22.8448642 ], [ 75.4379609, 22.8445552 ], [ 75.4414771, 22.8524551 ], [ 75.4420641, 22.86707 ], [ 75.4370314, 22.8677945 ], [ 75.4407113, 22.8804892 ], [ 75.4389649, 22.907264 ], [ 75.4485535, 22.9109712 ], [ 75.4510261, 22.9139635 ], [ 75.4561543, 22.9152477 ], [ 75.4593632, 22.9261181 ], [ 75.4755074, 22.9263344 ], [ 75.4760631, 22.9394005 ], [ 75.4557462, 22.9419722 ], [ 75.4628192, 22.9637938 ], [ 75.4634569, 22.9695274 ], [ 75.4780164, 22.9694961 ], [ 75.4862896, 22.9680321 ], [ 75.4928961, 22.9845385 ], [ 75.4907469, 22.9860978 ], [ 75.4890056, 22.9854444 ], [ 75.4870663, 22.9874865 ], [ 75.4857237, 22.985537 ], [ 75.473533, 22.9862269 ], [ 75.4737351, 23.0026846 ], [ 75.4590956, 23.005253 ], [ 75.4599453, 23.006896 ], [ 75.4751988, 23.0164181 ], [ 75.4843845, 23.017911 ], [ 75.4885524, 23.0148785 ], [ 75.4877429, 23.0034337 ], [ 75.4950241, 23.0029723 ], [ 75.4969059, 22.9988116 ], [ 75.4981024, 22.9989003 ], [ 75.4990848, 23.0023201 ], [ 75.5022503, 23.0015043 ], [ 75.504794, 23.0039353 ], [ 75.5076348, 23.0126739 ], [ 75.5094744, 23.0117135 ], [ 75.5116322, 23.0151871 ], [ 75.5112016, 23.0168032 ], [ 75.5073718, 23.0178614 ], [ 75.507071, 23.0216356 ], [ 75.51647, 23.0222293 ], [ 75.5148611, 23.0273481 ], [ 75.5187205, 23.032403 ], [ 75.5167898, 23.0372416 ], [ 75.5179583, 23.0402088 ], [ 75.5208696, 23.0417504 ], [ 75.5220772, 23.0381708 ], [ 75.5204144, 23.0372215 ], [ 75.5258837, 23.0362949 ], [ 75.5284808, 23.0338359 ], [ 75.5336214, 23.0352793 ], [ 75.5339179, 23.0369679 ], [ 75.5353423, 23.0370275 ], [ 75.5372351, 23.0445865 ], [ 75.5454384, 23.0489432 ], [ 75.545694, 23.0624339 ], [ 75.5528119, 23.0644284 ], [ 75.5649514, 23.0651559 ], [ 75.5684132, 23.0712116 ], [ 75.5657293, 23.0715808 ], [ 75.5664108, 23.0752879 ], [ 75.56441, 23.075549 ], [ 75.5659915, 23.0859655 ], [ 75.5813446, 23.0851442 ], [ 75.6064227, 23.089235 ] ] ] } }
]
}
