{
"type": "FeatureCollection",
"name": "2332",
"crs": { "type": "name", "properties": { "name": "urn:ogc:def:crs:OGC:1.3:CRS84" } },
"features": [
{ "type": "Feature", "properties": { "code": "2332", "name": "Bhopal", "type": "district" }, "geometry": { "type": "Polygon", "coordinates": [ [ [ 77.2936475, 23.8953516 ], [ 77.299064, 23.8932474 ], [ 77.3007793, 23.8900475 ], [ 77.3141203, 23.8879134 ], [ 77.3179416, 23.884353 ], [ 77.3161461, 23.8916716 ], [ 77.3196624, 23.8901908 ], [ 77.3265157, 23.8927212 ], [ 77.332491, 23.8923934 ], [ 77.3349908, 23.8906695 ], [ 77.3429252, 23.8910042 ], [ 77.3771809, 23.8840745 ], [ 77.37883, 23.8729868 ], [ 77.3835224, 23.8616103 ], [ 77.3889065, 23.8558493 ], [ 77.3956554, 23.8528104 ], [ 77.4014806, 23.8473334 ], [ 77.399407, 23.8364133 ], [ 77.3965607, 23.8367206 ], [ 77.393224, 23.839597 ], [ 77.3892236, 23.8376155 ], [ 77.3910097, 23.8359222 ], [ 77.3891692, 23.833512 ], [ 77.3943068, 23.8289426 ], [ 77.3991355, 23.8276913 ], [ 77.4010938, 23.828797 ], [ 77.4013288, 23.8253346 ], [ 77.4047986, 23.8272208 ], [ 77.4072914, 23.8270995 ], [ 77.4050817, 23.8206024 ], [ 77.4095781, 23.8078707 ], [ 77.4151103, 23.7997208 ], [ 77.4164704, 23.802262 ], [ 77.4271226, 23.8034009 ], [ 77.4296483, 23.8003302 ], [ 77.4399833, 23.7945971 ], [ 77.4451252, 23.7948388 ], [ 77.446394, 23.7914028 ], [ 77.4366972, 23.7882101 ], [ 77.4344702, 23.7843986 ], [ 77.4339486, 23.7802502 ], [ 77.4356969, 23.7774439 ], [ 77.4354016, 23.7753673 ], [ 77.4379185, 23.7760796 ], [ 77.4373045, 23.774396 ], [ 77.4458875, 23.7782073 ], [ 77.4544128, 23.7719071 ], [ 77.4540887, 23.7612249 ], [ 77.456614, 23.7611276 ], [ 77.4676024, 23.755975 ], [ 77.4745968, 23.7564492 ], [ 77.4761341, 23.7590531 ], [ 77.4770068, 23.758538 ], [ 77.4794362, 23.7604186 ], [ 77.4817645, 23.7642508 ], [ 77.4904365, 23.7667843 ], [ 77.4918135, 23.7694333 ], [ 77.4951246, 23.7700849 ], [ 77.4997317, 23.7754215 ], [ 77.5065881, 23.7725364 ], [ 77.5104646, 23.7655644 ], [ 77.5158537, 23.7616225 ], [ 77.5258099, 23.7625864 ], [ 77.5280444, 23.7591117 ], [ 77.5313743, 23.7600572 ], [ 77.5353377, 23.7594275 ], [ 77.5411331, 23.755187 ], [ 77.5463505, 23.7572936 ], [ 77.5548762, 23.7551396 ], [ 77.5629029, 23.7600188 ], [ 77.5626845, 23.7656394 ], [ 77.5734336, 23.7668559 ], [ 77.5755311, 23.7656801 ], [ 77.5765677, 23.7606467 ], [ 77.5804475, 23.7604672 ], [ 77.5822245, 23.7566666 ], [ 77.58919, 23.7542124 ], [ 77.5912362, 23.7510662 ], [ 77.6101582, 23.7470176 ], [ 77.6106586, 23.7452976 ], [ 77.6066387, 23.732801 ], [ 77.6007392, 23.7337482 ], [ 77.6021713, 23.7326649 ], [ 77.601074, 23.7265972 ], [ 77.603658, 23.7275953 ], [ 77.6166579, 23.724626 ], [ 77.6152269, 23.7127888 ], [ 77.6183258, 23.7105994 ], [ 77.6217628, 23.7109696 ], [ 77.625141, 23.7087756 ], [ 77.6284358, 23.7083467 ], [ 77.6319319, 23.7129062 ], [ 77.6350259, 23.7141114 ], [ 77.6382564, 23.7079263 ], [ 77.6398008, 23.7073302 ], [ 77.6435523, 23.7123544 ], [ 77.6481367, 23.7122635 ], [ 77.6470072, 23.7016725 ], [ 77.6484568, 23.6928193 ], [ 77.6444115, 23.6874475 ], [ 77.6410817, 23.6785903 ], [ 77.6323459, 23.6668035 ], [ 77.629787, 23.6579551 ], [ 77.6236362, 23.657296 ], [ 77.6199112, 23.6594314 ], [ 77.611104, 23.6583428 ], [ 77.6066193, 23.6594304 ], [ 77.5902553, 23.6559283 ], [ 77.588982, 23.6524162 ], [ 77.5856837, 23.6520677 ], [ 77.5876004, 23.6508358 ], [ 77.5870027, 23.650032 ], [ 77.5814162, 23.648455 ], [ 77.577907, 23.6492711 ], [ 77.5736978, 23.6477077 ], [ 77.5725221, 23.6467051 ], [ 77.5731011, 23.6448362 ], [ 77.5712387, 23.6453323 ], [ 77.5699846, 23.64414 ], [ 77.5742115, 23.6373604 ], [ 77.5708757, 23.6339057 ], [ 77.5715287, 23.6308812 ], [ 77.5669796, 23.624067 ], [ 77.568421, 23.6219231 ], [ 77.5642796, 23.6136237 ], [ 77.5660488, 23.6122745 ], [ 77.5655303, 23.6105678 ], [ 77.5585773, 23.6122805 ], [ 77.5624517, 23.603903 ], [ 77.5554229, 23.5919815 ], [ 77.5510558, 23.5874648 ], [ 77.5454948, 23.589566 ], [ 77.5340877, 23.5801648 ], [ 77.5284839, 23.5804052 ], [ 77.5243733, 23.5752379 ], [ 77.5210121, 23.576703 ], [ 77.5155703, 23.5766857 ], [ 77.5058093, 23.5671391 ], [ 77.5100824, 23.5564562 ], [ 77.5109051, 23.5509264 ], [ 77.510833, 23.5493552 ], [ 77.5069592, 23.5494652 ], [ 77.5044218, 23.5449261 ], [ 77.5053752, 23.5248141 ], [ 77.5085257, 23.5221935 ], [ 77.5116789, 23.5221055 ], [ 77.5116188, 23.5179204 ], [ 77.5179477, 23.5137081 ], [ 77.5182025, 23.5073877 ], [ 77.5157945, 23.5065779 ], [ 77.5123104, 23.499051 ], [ 77.5115769, 23.4923371 ], [ 77.501169, 23.4832412 ], [ 77.5049006, 23.4755918 ], [ 77.5018011, 23.4718377 ], [ 77.5006594, 23.462848 ], [ 77.4971398, 23.4569833 ], [ 77.4975751, 23.4512313 ], [ 77.4942702, 23.4494325 ], [ 77.493182, 23.4473113 ], [ 77.495737, 23.4371785 ], [ 77.4912951, 23.4273081 ], [ 77.4893337, 23.4165962 ], [ 77.501871, 23.4138821 ], [ 77.5015711, 23.408257 ], [ 77.5044479, 23.4078981 ], [ 77.5077393, 23.4031916 ], [ 77.5110912, 23.4019119 ], [ 77.5157481, 23.4138567 ], [ 77.5172493, 23.4147065 ], [ 77.5273786, 23.4176026 ], [ 77.5348487, 23.4181307 ], [ 77.5548836, 23.4157346 ], [ 77.5591184, 23.4093481 ], [ 77.5577509, 23.4049502 ], [ 77.5596164, 23.4015965 ], [ 77.5576075, 23.3983631 ], [ 77.551391, 23.3972452 ], [ 77.5480323, 23.3942232 ], [ 77.5470436, 23.3786018 ], [ 77.5516614, 23.3768884 ], [ 77.5561889, 23.3792697 ], [ 77.5578619, 23.3788144 ], [ 77.5587185, 23.3772121 ], [ 77.556865, 23.3771209 ], [ 77.5552142, 23.3726868 ], [ 77.5574802, 23.3695545 ], [ 77.562284, 23.3663691 ], [ 77.5641443, 23.362144 ], [ 77.5678367, 23.3613824 ], [ 77.5756381, 23.3567349 ], [ 77.5808557, 23.3568538 ], [ 77.5803243, 23.3518693 ], [ 77.5831603, 23.35229 ], [ 77.5816206, 23.3501676 ], [ 77.5809145, 23.3413682 ], [ 77.6233692, 23.3450041 ], [ 77.6269482, 23.3395322 ], [ 77.6191502, 23.3289947 ], [ 77.6215409, 23.3273017 ], [ 77.625056, 23.3202812 ], [ 77.6275784, 23.3184121 ], [ 77.6258283, 23.3150847 ], [ 77.6241418, 23.3146061 ], [ 77.6212429, 23.3163398 ], [ 77.6053515, 23.3093994 ], [ 77.5974394, 23.2991768 ], [ 77.5892245, 23.2932021 ], [ 77.585857, 23.2879134 ], [ 77.5858052, 23.2862259 ], [ 77.5884403, 23.2832468 ], [ 77.5870148, 23.2778784 ], [ 77.5821588, 23.2720936 ], [ 77.5834159, 23.2681616 ], [ 77.5873257, 23.266921 ], [ 77.5880593, 23.264578 ], [ 77.5902439, 23.2635852 ], [ 77.5951809, 23.256358 ], [ 77.5860261, 23.2494496 ], [ 77.5880114, 23.2429432 ], [ 77.5908703, 23.2404654 ], [ 77.59189, 23.2269031 ], [ 77.594841, 23.2248358 ], [ 77.5942163, 23.222479 ], [ 77.5919205, 23.2218915 ], [ 77.5914909, 23.2200539 ], [ 77.5894295, 23.2199497 ], [ 77.5890495, 23.2157417 ], [ 77.5851581, 23.2097948 ], [ 77.5790964, 23.1950838 ], [ 77.5741581, 23.1968836 ], [ 77.5731571, 23.1962468 ], [ 77.57205, 23.1919618 ], [ 77.5724867, 23.1868287 ], [ 77.5790948, 23.1853182 ], [ 77.57907, 23.186677 ], [ 77.5814925, 23.1864023 ], [ 77.5791067, 23.179232 ], [ 77.5581977, 23.1749175 ], [ 77.5581144, 23.1655174 ], [ 77.561807, 23.1635009 ], [ 77.5605602, 23.1564212 ], [ 77.5627336, 23.1551577 ], [ 77.5642659, 23.1572715 ], [ 77.5660676, 23.1572901 ], [ 77.5661379, 23.1524726 ], [ 77.5613649, 23.1375811 ], [ 77.5465965, 23.1382967 ], [ 77.5441215, 23.1379343 ], [ 77.543191, 23.1347012 ], [ 77.5376404, 23.1344318 ], [ 77.5373652, 23.130007 ], [ 77.533038, 23.125634 ], [ 77.5331085, 23.1225732 ], [ 77.5353596, 23.1213327 ], [ 77.5345997, 23.1188674 ], [ 77.5308896, 23.1191316 ], [ 77.5242874, 23.1161612 ], [ 77.5227289, 23.1179977 ], [ 77.5164142, 23.1162417 ], [ 77.515286, 23.1169633 ], [ 77.5160642, 23.1203366 ], [ 77.5147507, 23.1207329 ], [ 77.5126547, 23.1174671 ], [ 77.509707, 23.1167787 ], [ 77.511642, 23.1140849 ], [ 77.5114193, 23.1120167 ], [ 77.5064121, 23.1109973 ], [ 77.5059964, 23.106631 ], [ 77.5007044, 23.1039599 ], [ 77.5011119, 23.0996698 ], [ 77.4982032, 23.0989691 ], [ 77.4940368, 23.1005386 ], [ 77.4888685, 23.0951743 ], [ 77.4871912, 23.0969453 ], [ 77.4823498, 23.0970255 ], [ 77.4818363, 23.0956531 ], [ 77.4840016, 23.0936561 ], [ 77.4824979, 23.0929619 ], [ 77.4795169, 23.094377 ], [ 77.4736892, 23.0938796 ], [ 77.4739264, 23.0975682 ], [ 77.4723999, 23.0993208 ], [ 77.4654023, 23.093641 ], [ 77.4640122, 23.0947297 ], [ 77.4577704, 23.0950764 ], [ 77.4555675, 23.0923774 ], [ 77.4535143, 23.0863151 ], [ 77.451124, 23.0879733 ], [ 77.4473514, 23.0878891 ], [ 77.4450714, 23.0859804 ], [ 77.437391, 23.0879072 ], [ 77.4353457, 23.086725 ], [ 77.4307351, 23.0893542 ], [ 77.4278843, 23.087486 ], [ 77.4145607, 23.0853409 ], [ 77.4113683, 23.08182 ], [ 77.4080743, 23.0817847 ], [ 77.4020384, 23.0847928 ], [ 77.4012126, 23.0802962 ], [ 77.4021836, 23.0790455 ], [ 77.3996311, 23.077407 ], [ 77.3870702, 23.0752368 ], [ 77.3794343, 23.0725047 ], [ 77.3746514, 23.0768941 ], [ 77.3670291, 23.0766771 ], [ 77.3594063, 23.0807265 ], [ 77.3552144, 23.0811956 ], [ 77.3529944, 23.079746 ], [ 77.3470064, 23.0808604 ], [ 77.3373202, 23.0794993 ], [ 77.3215861, 23.0853577 ], [ 77.3194556, 23.0896618 ], [ 77.3214328, 23.1007195 ], [ 77.3158057, 23.0997512 ], [ 77.2959312, 23.1010925 ], [ 77.2910661, 23.0995234 ], [ 77.2864466, 23.0955434 ], [ 77.2810453, 23.0938696 ], [ 77.2762665, 23.0948644 ], [ 77.2712109, 23.0940307 ], [ 77.2759666, 23.1043954 ], [ 77.274829, 23.1115371 ], [ 77.2717601, 23.11633 ], [ 77.2715293, 23.1244566 ], [ 77.2668974, 23.1298804 ], [ 77.2604753, 23.1328693 ], [ 77.2514327, 23.1347949 ], [ 77.2468868, 23.1342898 ], [ 77.2463996, 23.137603 ], [ 77.2483137, 23.1434889 ], [ 77.2475922, 23.149774 ], [ 77.2443762, 23.1515781 ], [ 77.237857, 23.1502058 ], [ 77.2374053, 23.1587572 ], [ 77.2310372, 23.1637237 ], [ 77.2321431, 23.1666573 ], [ 77.2315857, 23.1718589 ], [ 77.2217627, 23.1747142 ], [ 77.2257211, 23.1787345 ], [ 77.2259629, 23.1822197 ], [ 77.2271293, 23.1823217 ], [ 77.2283732, 23.1854011 ], [ 77.228043, 23.1878621 ], [ 77.2030746, 23.1924772 ], [ 77.2032959, 23.1948609 ], [ 77.2049127, 23.1950811 ], [ 77.2083732, 23.1992466 ], [ 77.2112458, 23.2001705 ], [ 77.2139304, 23.2051579 ], [ 77.2144648, 23.2081329 ], [ 77.2067202, 23.2116452 ], [ 77.2069383, 23.2168958 ], [ 77.2096404, 23.2182488 ], [ 77.2092945, 23.2199376 ], [ 77.1966208, 23.2158762 ], [ 77.1978266, 23.2143809 ], [ 77.192262, 23.21237 ], [ 77.183948, 23.2122424 ], [ 77.177714, 23.2215362 ], [ 77.1761139, 23.2270991 ], [ 77.1763538, 23.2290854 ], [ 77.1821484, 23.2301942 ], [ 77.1861946, 23.232599 ], [ 77.1894185, 23.2416814 ], [ 77.2062784, 23.2482651 ], [ 77.2028821, 23.2561585 ], [ 77.2031661, 23.2652602 ], [ 77.2060323, 23.2697058 ], [ 77.2102688, 23.2690895 ], [ 77.2120437, 23.2707635 ], [ 77.2129544, 23.2732417 ], [ 77.210789, 23.2801053 ], [ 77.2146583, 23.2853313 ], [ 77.2132685, 23.2902035 ], [ 77.2115292, 23.2910849 ], [ 77.2053953, 23.2910656 ], [ 77.2032458, 23.2927959 ], [ 77.1992033, 23.2921477 ], [ 77.1969757, 23.2941714 ], [ 77.1944586, 23.2943125 ], [ 77.1872482, 23.2921349 ], [ 77.1837528, 23.3014186 ], [ 77.1696563, 23.3021322 ], [ 77.1717409, 23.3087864 ], [ 77.1687566, 23.3159747 ], [ 77.176963, 23.3251959 ], [ 77.1750838, 23.3331515 ], [ 77.175054, 23.3446823 ], [ 77.1767624, 23.3496976 ], [ 77.1786509, 23.3523516 ], [ 77.1812919, 23.3534884 ], [ 77.1845233, 23.3517445 ], [ 77.1931541, 23.3524633 ], [ 77.1974783, 23.3463981 ], [ 77.1963106, 23.3390486 ], [ 77.2001269, 23.3262383 ], [ 77.204544, 23.3223445 ], [ 77.2055047, 23.3183439 ], [ 77.2175712, 23.3204998 ], [ 77.2175581, 23.3297821 ], [ 77.2236612, 23.3451737 ], [ 77.2217877, 23.3507325 ], [ 77.224549, 23.3554397 ], [ 77.2345654, 23.3636001 ], [ 77.2345512, 23.3701916 ], [ 77.240202, 23.3728016 ], [ 77.2422147, 23.3757889 ], [ 77.2469866, 23.3743451 ], [ 77.2533469, 23.3774894 ], [ 77.2496811, 23.3855227 ], [ 77.2458331, 23.385881 ], [ 77.2409367, 23.3909368 ], [ 77.2363425, 23.3892742 ], [ 77.2275688, 23.3906075 ], [ 77.2337358, 23.3955335 ], [ 77.2336592, 23.4036284 ], [ 77.2405707, 23.4031358 ], [ 77.2438956, 23.4014268 ], [ 77.2462072, 23.4044724 ], [ 77.2490069, 23.4053328 ], [ 77.2515179, 23.4037275 ], [ 77.2561599, 23.4039885 ], [ 77.2683631, 23.3998301 ], [ 77.2721464, 23.4033406 ], [ 77.2816856, 23.4169268 ], [ 77.2826037, 23.4192209 ], [ 77.2810222, 23.4210665 ], [ 77.288191, 23.4262354 ], [ 77.2881897, 23.4282625 ], [ 77.2845767, 23.4316961 ], [ 77.2835376, 23.4415105 ], [ 77.2872739, 23.4522126 ], [ 77.2915151, 23.4547837 ], [ 77.2930562, 23.4632586 ], [ 77.298143, 23.4678524 ], [ 77.2839726, 23.4712627 ], [ 77.2845065, 23.4850147 ], [ 77.2835211, 23.4873572 ], [ 77.2870601, 23.4872103 ], [ 77.2892348, 23.4925072 ], [ 77.2940109, 23.4949476 ], [ 77.2976535, 23.5018193 ], [ 77.2957599, 23.5085587 ], [ 77.2886015, 23.5102796 ], [ 77.2905093, 23.5202987 ], [ 77.2887016, 23.5294895 ], [ 77.2914699, 23.5343849 ], [ 77.2905276, 23.5376349 ], [ 77.291344, 23.5397934 ], [ 77.287421, 23.5410237 ], [ 77.2889809, 23.5443564 ], [ 77.2827265, 23.5529396 ], [ 77.2832864, 23.5576759 ], [ 77.2916655, 23.5659243 ], [ 77.2956866, 23.5741114 ], [ 77.2852792, 23.5801328 ], [ 77.2736499, 23.5813265 ], [ 77.2729248, 23.5942018 ], [ 77.2744532, 23.5943562 ], [ 77.2775942, 23.5997668 ], [ 77.2720519, 23.6018309 ], [ 77.2655358, 23.6022327 ], [ 77.2554091, 23.6081395 ], [ 77.2490035, 23.6138049 ], [ 77.2391937, 23.6148909 ], [ 77.2307022, 23.6139446 ], [ 77.2219581, 23.6229613 ], [ 77.2232505, 23.6279129 ], [ 77.2268255, 23.6315539 ], [ 77.2293842, 23.6385996 ], [ 77.2264685, 23.6450934 ], [ 77.2256279, 23.6534546 ], [ 77.2205018, 23.6550744 ], [ 77.2143846, 23.660622 ], [ 77.205714, 23.6604463 ], [ 77.2031127, 23.6540866 ], [ 77.2045533, 23.6536252 ], [ 77.2000855, 23.6485623 ], [ 77.1913071, 23.6554962 ], [ 77.1903297, 23.6614242 ], [ 77.1880072, 23.6628202 ], [ 77.1865876, 23.6666491 ], [ 77.1780945, 23.6693114 ], [ 77.1760931, 23.6647704 ], [ 77.1761058, 23.6602513 ], [ 77.1734934, 23.660031 ], [ 77.1729576, 23.6689292 ], [ 77.1711007, 23.6709206 ], [ 77.1716896, 23.6731373 ], [ 77.1666611, 23.6745473 ], [ 77.1690681, 23.6759145 ], [ 77.1697599, 23.6789074 ], [ 77.1657176, 23.6832786 ], [ 77.1687584, 23.6875396 ], [ 77.1767218, 23.6932121 ], [ 77.1775868, 23.6987194 ], [ 77.1863076, 23.7176321 ], [ 77.1869984, 23.7260651 ], [ 77.1912523, 23.7407128 ], [ 77.2035923, 23.7588575 ], [ 77.2062019, 23.7749639 ], [ 77.2082102, 23.7779018 ], [ 77.2153014, 23.7818073 ], [ 77.2172959, 23.7856977 ], [ 77.2176382, 23.7909794 ], [ 77.2146047, 23.795875 ], [ 77.2148295, 23.8016895 ], [ 77.216962, 23.8060041 ], [ 77.2237728, 23.8130515 ], [ 77.2251018, 23.8247702 ], [ 77.2233911, 23.8336739 ], [ 77.2139924, 23.8402301 ], [ 77.224528, 23.8478335 ], [ 77.2211449, 23.8622337 ], [ 77.2226674, 23.8762728 ], [ 77.226393, 23.8928736 ], [ 77.2401278, 23.8906978 ], [ 77.2487353, 23.8928008 ], [ 77.2542029, 23.8885206 ], [ 77.2636551, 23.8886253 ], [ 77.265564, 23.8869072 ], [ 77.2783466, 23.8863828 ], [ 77.2908587, 23.8918113 ], [ 77.2936475, 23.8953516 ] ] ] } }
]
}
