{
"type": "FeatureCollection",
"name": "2334",
"crs": { "type": "name", "properties": { "name": "urn:ogc:def:crs:OGC:1.3:CRS84" } },
"features": [
{ "type": "Feature", "properties": { "code": "2334", "name": "Raisen", "type": "district" }, "geometry": { "type": "Polygon", "coordinates": [ [ [ 78.4297083, 23.7454274 ], [ 78.4344408, 23.7449245 ], [ 78.4363005, 23.7260936 ], [ 78.4401545, 23.7256361 ], [ 78.4416931, 23.7232879 ], [ 78.4408826, 23.7204531 ], [ 78.4385969, 23.7191855 ], [ 78.4425432, 23.7173283 ], [ 78.4450374, 23.7143973 ], [ 78.4442902, 23.7108718 ], [ 78.4459782, 23.7042617 ], [ 78.4442951, 23.7015401 ], [ 78.4451852, 23.6974541 ], [ 78.4470567, 23.6952456 ], [ 78.447084, 23.6915437 ], [ 78.4513726, 23.6897719 ], [ 78.4567159, 23.6895299 ], [ 78.4574294, 23.685805 ], [ 78.4615249, 23.6818389 ], [ 78.4642126, 23.6767811 ], [ 78.4702717, 23.6773825 ], [ 78.4703686, 23.6758384 ], [ 78.4689563, 23.6750221 ], [ 78.4692796, 23.6679205 ], [ 78.4660553, 23.662058 ], [ 78.4710934, 23.6548497 ], [ 78.4703565, 23.6525838 ], [ 78.4672821, 23.6503691 ], [ 78.4660878, 23.6454308 ], [ 78.4673608, 23.6438364 ], [ 78.4692517, 23.6428556 ], [ 78.469116, 23.6449324 ], [ 78.4743631, 23.6494843 ], [ 78.4734146, 23.6459726 ], [ 78.4760808, 23.6398265 ], [ 78.4812843, 23.6390058 ], [ 78.4852855, 23.6361995 ], [ 78.4864583, 23.6379277 ], [ 78.4836869, 23.6407152 ], [ 78.4845116, 23.6423218 ], [ 78.495462, 23.6474806 ], [ 78.5027488, 23.6465377 ], [ 78.5065948, 23.6531411 ], [ 78.5111548, 23.656325 ], [ 78.5152658, 23.657425 ], [ 78.5168889, 23.6505188 ], [ 78.5121583, 23.6461498 ], [ 78.512822, 23.6408321 ], [ 78.5088318, 23.6393552 ], [ 78.5065339, 23.636261 ], [ 78.5095697, 23.6334281 ], [ 78.5084741, 23.6282807 ], [ 78.5092644, 23.6238479 ], [ 78.5139464, 23.6206234 ], [ 78.512426, 23.6167104 ], [ 78.5139899, 23.612671 ], [ 78.5131953, 23.6107382 ], [ 78.5156911, 23.6083878 ], [ 78.5129137, 23.6077831 ], [ 78.5125852, 23.6052163 ], [ 78.5106311, 23.604391 ], [ 78.5107829, 23.601653 ], [ 78.5061712, 23.5926813 ], [ 78.502317, 23.5916264 ], [ 78.4995686, 23.5891525 ], [ 78.5013329, 23.585804 ], [ 78.4987672, 23.5846756 ], [ 78.4993916, 23.5822608 ], [ 78.5031043, 23.5798055 ], [ 78.5023821, 23.5714822 ], [ 78.5062647, 23.5676139 ], [ 78.5070363, 23.5646372 ], [ 78.5040487, 23.5619441 ], [ 78.5070173, 23.5557298 ], [ 78.5065691, 23.5530951 ], [ 78.5028729, 23.5491149 ], [ 78.5002377, 23.539307 ], [ 78.4986658, 23.5372741 ], [ 78.5019339, 23.5344664 ], [ 78.503416, 23.5308942 ], [ 78.5090586, 23.531429 ], [ 78.508657, 23.5371622 ], [ 78.5128549, 23.5354069 ], [ 78.5167096, 23.53694 ], [ 78.51693, 23.5459266 ], [ 78.517653, 23.548058 ], [ 78.5195601, 23.5484724 ], [ 78.5180176, 23.5513494 ], [ 78.5196786, 23.5533708 ], [ 78.5251706, 23.5536386 ], [ 78.533962, 23.5496804 ], [ 78.5352881, 23.5503896 ], [ 78.5358891, 23.5523561 ], [ 78.5394013, 23.554735 ], [ 78.5370422, 23.5563341 ], [ 78.5368587, 23.5634807 ], [ 78.5392462, 23.5635656 ], [ 78.5414976, 23.5581944 ], [ 78.5530734, 23.5611459 ], [ 78.5579715, 23.5601639 ], [ 78.5598626, 23.5635755 ], [ 78.5652372, 23.5649636 ], [ 78.5678489, 23.5677727 ], [ 78.5678958, 23.5666486 ], [ 78.5698573, 23.5668276 ], [ 78.5719372, 23.5645281 ], [ 78.5741186, 23.5595244 ], [ 78.5745614, 23.5542108 ], [ 78.5773414, 23.5519047 ], [ 78.5804269, 23.551111 ], [ 78.5825296, 23.5527933 ], [ 78.5843467, 23.5523017 ], [ 78.5854701, 23.5539814 ], [ 78.5866801, 23.5528982 ], [ 78.589131, 23.5532735 ], [ 78.590123, 23.5519487 ], [ 78.5924785, 23.552123 ], [ 78.594027, 23.5477599 ], [ 78.5999821, 23.5458761 ], [ 78.6065263, 23.5495767 ], [ 78.6158016, 23.5466114 ], [ 78.6237477, 23.5539154 ], [ 78.6308257, 23.5511533 ], [ 78.6331151, 23.5513833 ], [ 78.6352354, 23.5487557 ], [ 78.6407564, 23.5460013 ], [ 78.6444126, 23.5499715 ], [ 78.6436615, 23.5540325 ], [ 78.6450017, 23.5595334 ], [ 78.6500811, 23.5632099 ], [ 78.6625282, 23.5630177 ], [ 78.6693841, 23.5609053 ], [ 78.6804989, 23.5606533 ], [ 78.6854062, 23.5659427 ], [ 78.6903774, 23.5661528 ], [ 78.6920056, 23.570599 ], [ 78.6998175, 23.5745774 ], [ 78.7019717, 23.5769939 ], [ 78.7098224, 23.5756264 ], [ 78.7124855, 23.5770944 ], [ 78.7193719, 23.5767223 ], [ 78.7238705, 23.5795503 ], [ 78.7292096, 23.576549 ], [ 78.7303719, 23.5784466 ], [ 78.729021, 23.5826529 ], [ 78.7323092, 23.5844723 ], [ 78.7400264, 23.5786858 ], [ 78.7395144, 23.5701038 ], [ 78.7414872, 23.5688631 ], [ 78.7427681, 23.5553973 ], [ 78.7449475, 23.5474454 ], [ 78.7403006, 23.545038 ], [ 78.7383753, 23.5412246 ], [ 78.7389367, 23.5335899 ], [ 78.7379407, 23.5312137 ], [ 78.7368009, 23.5296389 ], [ 78.734301, 23.5291396 ], [ 78.7293632, 23.5325019 ], [ 78.719362, 23.5356211 ], [ 78.715347, 23.5181022 ], [ 78.7115349, 23.5169734 ], [ 78.703947, 23.5180948 ], [ 78.7010896, 23.5171753 ], [ 78.6998919, 23.5159456 ], [ 78.696562, 23.5011842 ], [ 78.6907148, 23.5005232 ], [ 78.6776117, 23.4933897 ], [ 78.6730834, 23.4854431 ], [ 78.6697884, 23.4829136 ], [ 78.6658428, 23.4734294 ], [ 78.6680486, 23.4685642 ], [ 78.6708354, 23.4676876 ], [ 78.6718087, 23.4660394 ], [ 78.6688591, 23.4630312 ], [ 78.6677676, 23.4547673 ], [ 78.6638341, 23.4500031 ], [ 78.6633782, 23.4471094 ], [ 78.6617096, 23.4472745 ], [ 78.6581855, 23.4433724 ], [ 78.6544764, 23.4432467 ], [ 78.6382637, 23.4504703 ], [ 78.6337104, 23.4497618 ], [ 78.6287583, 23.4512202 ], [ 78.6268768, 23.4495295 ], [ 78.6271703, 23.4466062 ], [ 78.6248851, 23.4436853 ], [ 78.6242026, 23.4471796 ], [ 78.622211, 23.4463444 ], [ 78.6183946, 23.436579 ], [ 78.6149135, 23.4359242 ], [ 78.6127923, 23.4374997 ], [ 78.6085305, 23.4376144 ], [ 78.6084453, 23.4334676 ], [ 78.6036682, 23.4293632 ], [ 78.6035685, 23.4253993 ], [ 78.6010173, 23.4241168 ], [ 78.604963, 23.4211297 ], [ 78.607679, 23.4231608 ], [ 78.6108091, 23.4235325 ], [ 78.6125994, 23.41865 ], [ 78.6149309, 23.4202752 ], [ 78.6236522, 23.4179221 ], [ 78.6259662, 23.4153035 ], [ 78.6239556, 23.4119288 ], [ 78.6268688, 23.4119039 ], [ 78.6288229, 23.4053869 ], [ 78.6281649, 23.4016374 ], [ 78.6294243, 23.3981745 ], [ 78.6296293, 23.3869599 ], [ 78.6274184, 23.381917 ], [ 78.6304429, 23.368858 ], [ 78.6331275, 23.3661355 ], [ 78.6312543, 23.3615757 ], [ 78.6413982, 23.3560083 ], [ 78.6421138, 23.3499133 ], [ 78.6441375, 23.345387 ], [ 78.6516297, 23.3403971 ], [ 78.6592074, 23.337628 ], [ 78.6623115, 23.3353112 ], [ 78.6625921, 23.3335391 ], [ 78.6645841, 23.3322293 ], [ 78.6660118, 23.3327211 ], [ 78.6674943, 23.3358471 ], [ 78.670152, 23.3373159 ], [ 78.6755573, 23.3445244 ], [ 78.6796945, 23.3459586 ], [ 78.6850507, 23.3451778 ], [ 78.6862469, 23.3468907 ], [ 78.6962452, 23.3494554 ], [ 78.6987054, 23.3507815 ], [ 78.7001451, 23.3546207 ], [ 78.7088853, 23.3537877 ], [ 78.708252, 23.3613526 ], [ 78.7160013, 23.355601 ], [ 78.716163, 23.3524518 ], [ 78.7199399, 23.3518333 ], [ 78.7252126, 23.3473107 ], [ 78.7277404, 23.3441036 ], [ 78.7278471, 23.3396949 ], [ 78.7338239, 23.3392642 ], [ 78.7349311, 23.3271548 ], [ 78.7391469, 23.3261743 ], [ 78.7440763, 23.3222947 ], [ 78.7469553, 23.3218252 ], [ 78.746214, 23.3182659 ], [ 78.7503596, 23.3182812 ], [ 78.7472027, 23.3108621 ], [ 78.7477415, 23.3093333 ], [ 78.7539978, 23.3090693 ], [ 78.758484, 23.3103414 ], [ 78.7587738, 23.308766 ], [ 78.7628944, 23.3059675 ], [ 78.7629149, 23.2989313 ], [ 78.7708522, 23.2965099 ], [ 78.7729465, 23.2935564 ], [ 78.771514, 23.2877562 ], [ 78.7633499, 23.2843036 ], [ 78.7629349, 23.2807953 ], [ 78.7655704, 23.2732462 ], [ 78.7604068, 23.2682289 ], [ 78.7614837, 23.2631234 ], [ 78.7595938, 23.2617811 ], [ 78.7625254, 23.2562796 ], [ 78.7596498, 23.2505103 ], [ 78.760048, 23.2476821 ], [ 78.7649001, 23.2474033 ], [ 78.7689438, 23.243573 ], [ 78.7750552, 23.2511435 ], [ 78.778741, 23.2488616 ], [ 78.7837198, 23.2489503 ], [ 78.7915292, 23.2464083 ], [ 78.79954, 23.2414641 ], [ 78.8028668, 23.2423009 ], [ 78.8035871, 23.2383688 ], [ 78.8092752, 23.235721 ], [ 78.8116469, 23.2311079 ], [ 78.8116147, 23.2268459 ], [ 78.816248, 23.2222335 ], [ 78.8164862, 23.2133846 ], [ 78.8117868, 23.2035359 ], [ 78.8064514, 23.197258 ], [ 78.8068052, 23.1928427 ], [ 78.8025365, 23.1839465 ], [ 78.8024319, 23.1786054 ], [ 78.806454, 23.1630941 ], [ 78.7992047, 23.1597679 ], [ 78.8018333, 23.1568705 ], [ 78.800932, 23.1530912 ], [ 78.8021368, 23.1461976 ], [ 78.8010976, 23.1449148 ], [ 78.7978946, 23.1452023 ], [ 78.7966722, 23.1400321 ], [ 78.797779, 23.1339331 ], [ 78.7912186, 23.1247058 ], [ 78.7928905, 23.1206975 ], [ 78.788065, 23.117372 ], [ 78.7895012, 23.1155532 ], [ 78.7929425, 23.1153248 ], [ 78.7950381, 23.1127749 ], [ 78.8009493, 23.1124844 ], [ 78.8064667, 23.108744 ], [ 78.8021296, 23.1050037 ], [ 78.8020873, 23.1019697 ], [ 78.8044263, 23.0997359 ], [ 78.8010345, 23.0993145 ], [ 78.8013056, 23.0944429 ], [ 78.7970232, 23.0897906 ], [ 78.7932063, 23.0908 ], [ 78.7906942, 23.0886406 ], [ 78.7830569, 23.0882977 ], [ 78.7798155, 23.0896864 ], [ 78.7775176, 23.0887594 ], [ 78.7754946, 23.085661 ], [ 78.7753425, 23.0800985 ], [ 78.7737666, 23.0796867 ], [ 78.7707681, 23.0825156 ], [ 78.769021, 23.0826228 ], [ 78.7670256, 23.0757588 ], [ 78.7574781, 23.0790659 ], [ 78.7568798, 23.0767448 ], [ 78.7613371, 23.0743506 ], [ 78.7589249, 23.0705067 ], [ 78.7557747, 23.0738408 ], [ 78.7515888, 23.0674807 ], [ 78.7431976, 23.069284 ], [ 78.7430301, 23.0674104 ], [ 78.7472106, 23.0660257 ], [ 78.7486431, 23.0605796 ], [ 78.7437716, 23.0617437 ], [ 78.738524, 23.0587361 ], [ 78.731833, 23.0443111 ], [ 78.72708, 23.0426978 ], [ 78.7209969, 23.0432435 ], [ 78.710897, 23.0415563 ], [ 78.6930873, 23.0353027 ], [ 78.6783073, 23.0384735 ], [ 78.6703698, 23.0373924 ], [ 78.6629973, 23.0329381 ], [ 78.6537512, 23.0239418 ], [ 78.6483754, 23.0220058 ], [ 78.6411564, 23.023009 ], [ 78.6289669, 23.029868 ], [ 78.6221375, 23.0305047 ], [ 78.6173083, 23.0278769 ], [ 78.6109531, 23.0189458 ], [ 78.6007695, 23.0130165 ], [ 78.594756, 23.0113766 ], [ 78.5876692, 23.0108965 ], [ 78.5711134, 23.0155648 ], [ 78.5570115, 23.0172299 ], [ 78.5481106, 23.0159165 ], [ 78.5350174, 23.0110335 ], [ 78.5146874, 23.0121495 ], [ 78.4969916, 23.0059534 ], [ 78.4766882, 23.0067173 ], [ 78.4663468, 23.0043081 ], [ 78.4591183, 23.0005254 ], [ 78.4334629, 22.9774364 ], [ 78.4027209, 22.966049 ], [ 78.3931489, 22.9595624 ], [ 78.378339, 22.9388994 ], [ 78.3544572, 22.9204669 ], [ 78.3467662, 22.9177387 ], [ 78.3286923, 22.9203713 ], [ 78.3207441, 22.9164408 ], [ 78.307255, 22.9022449 ], [ 78.2975445, 22.8890928 ], [ 78.2890212, 22.8740173 ], [ 78.279948, 22.8678446 ], [ 78.276245, 22.8679552 ], [ 78.2652379, 22.8747838 ], [ 78.259117, 22.8758947 ], [ 78.2533492, 22.8744637 ], [ 78.2425963, 22.8685997 ], [ 78.237723, 22.8673797 ], [ 78.2322003, 22.8705395 ], [ 78.226397, 22.8766386 ], [ 78.2163314, 22.8930343 ], [ 78.2062255, 22.8947871 ], [ 78.1948102, 22.8907606 ], [ 78.1879992, 22.8836117 ], [ 78.1857686, 22.8752913 ], [ 78.1830674, 22.8712785 ], [ 78.1615392, 22.8641513 ], [ 78.1466233, 22.8508663 ], [ 78.1280667, 22.8371601 ], [ 78.1250952, 22.8291279 ], [ 78.1266633, 22.8063132 ], [ 78.1250464, 22.7994684 ], [ 78.1212383, 22.7944657 ], [ 78.1095613, 22.7896835 ], [ 78.1031773, 22.7901162 ], [ 78.0959114, 22.792928 ], [ 78.0796974, 22.802135 ], [ 78.0692037, 22.8115366 ], [ 78.0610302, 22.8142516 ], [ 78.0537985, 22.8126638 ], [ 78.0358533, 22.8020128 ], [ 78.0281442, 22.8019135 ], [ 78.0283612, 22.805002 ], [ 78.0312627, 22.8065523 ], [ 78.0303265, 22.8081636 ], [ 78.0324194, 22.8100748 ], [ 78.0297356, 22.810624 ], [ 78.0285207, 22.8137432 ], [ 78.0312759, 22.8156864 ], [ 78.0321049, 22.8215023 ], [ 78.0274175, 22.824073 ], [ 78.0264159, 22.8284611 ], [ 78.0218157, 22.8311537 ], [ 78.021293, 22.8331896 ], [ 78.0255467, 22.8382853 ], [ 78.0314335, 22.8419415 ], [ 78.0256713, 22.8477037 ], [ 78.0260916, 22.8526479 ], [ 78.0090338, 22.8548489 ], [ 78.0092184, 22.8612016 ], [ 78.0145951, 22.8698382 ], [ 78.018578, 22.8732362 ], [ 78.0179348, 22.8794891 ], [ 78.0189559, 22.8823793 ], [ 78.0273223, 22.8825562 ], [ 78.0309556, 22.8853758 ], [ 78.0345927, 22.9120662 ], [ 78.0235578, 22.9126917 ], [ 78.0221473, 22.921653 ], [ 78.0134652, 22.9230514 ], [ 78.0142031, 22.9268354 ], [ 78.0129626, 22.9298009 ], [ 78.0054264, 22.9299715 ], [ 78.0015654, 22.9249298 ], [ 77.9905408, 22.9251957 ], [ 77.9890861, 22.9226141 ], [ 77.9896589, 22.9198506 ], [ 77.9830086, 22.9174307 ], [ 77.9788669, 22.9126972 ], [ 77.9790268, 22.9113111 ], [ 77.9727065, 22.9128502 ], [ 77.9723449, 22.9115726 ], [ 77.9693718, 22.9116647 ], [ 77.9685421, 22.9100263 ], [ 77.9665691, 22.9111923 ], [ 77.9624651, 22.9107477 ], [ 77.9594296, 22.9123566 ], [ 77.9651686, 22.9159384 ], [ 77.9667907, 22.9218115 ], [ 77.9644436, 22.9251765 ], [ 77.9660685, 22.9279071 ], [ 77.9649443, 22.9304859 ], [ 77.9652941, 22.9360888 ], [ 77.9621618, 22.9395039 ], [ 77.9650054, 22.9418184 ], [ 77.967463, 22.95701 ], [ 77.9648999, 22.9637694 ], [ 77.9610396, 22.9685583 ], [ 77.9303353, 22.9666126 ], [ 77.9267749, 22.9639049 ], [ 77.9205008, 22.9667106 ], [ 77.8993628, 22.9599203 ], [ 77.881362, 22.9560663 ], [ 77.870524, 22.9511992 ], [ 77.8548454, 22.948936 ], [ 77.8533788, 22.9440236 ], [ 77.831791, 22.9326279 ], [ 77.8289656, 22.9269473 ], [ 77.8040691, 22.9135287 ], [ 77.7997316, 22.9131971 ], [ 77.7892371, 22.906776 ], [ 77.7780128, 22.907072 ], [ 77.7750515, 22.9111247 ], [ 77.7719425, 22.9105584 ], [ 77.7668716, 22.9132369 ], [ 77.7500409, 22.9090888 ], [ 77.7234538, 22.9000756 ], [ 77.7238417, 22.8972941 ], [ 77.7039697, 22.8915486 ], [ 77.6900437, 22.884358 ], [ 77.6897238, 22.8776173 ], [ 77.6877351, 22.8762274 ], [ 77.6878555, 22.8732384 ], [ 77.6837563, 22.8698718 ], [ 77.6827541, 22.8619032 ], [ 77.689585, 22.8522383 ], [ 77.7055821, 22.8493368 ], [ 77.7063368, 22.8488172 ], [ 77.7052883, 22.8468266 ], [ 77.6927788, 22.8479837 ], [ 77.6851766, 22.8532921 ], [ 77.6800952, 22.8529643 ], [ 77.6578444, 22.846952 ], [ 77.6507711, 22.848222 ], [ 77.6472239, 22.8439333 ], [ 77.6435166, 22.8429856 ], [ 77.6389566, 22.8388232 ], [ 77.6322346, 22.8460297 ], [ 77.6236753, 22.8517324 ], [ 77.6084598, 22.8613893 ], [ 77.5984713, 22.865343 ], [ 77.5899384, 22.8720508 ], [ 77.5873596, 22.8765878 ], [ 77.5814205, 22.8746494 ], [ 77.5747597, 22.8748732 ], [ 77.5712443, 22.8805881 ], [ 77.5646985, 22.8845409 ], [ 77.5629703, 22.8809914 ], [ 77.5590444, 22.8776172 ], [ 77.5558584, 22.8664908 ], [ 77.5509072, 22.8593639 ], [ 77.5418273, 22.8569438 ], [ 77.5398224, 22.8611508 ], [ 77.5380438, 22.8615562 ], [ 77.5359174, 22.8649368 ], [ 77.5372786, 22.8696468 ], [ 77.5409368, 22.8710935 ], [ 77.5369009, 22.8735927 ], [ 77.5365329, 22.877507 ], [ 77.5270663, 22.876165 ], [ 77.5239546, 22.8802718 ], [ 77.5245567, 22.8832475 ], [ 77.5280433, 22.8864643 ], [ 77.5280076, 22.8956299 ], [ 77.5321283, 22.8987793 ], [ 77.532784, 22.9020124 ], [ 77.5303851, 22.9035551 ], [ 77.5270342, 22.9043133 ], [ 77.5228083, 22.9014871 ], [ 77.5182609, 22.902053 ], [ 77.5062105, 22.899963 ], [ 77.5027043, 22.8969805 ], [ 77.501587, 22.8930245 ], [ 77.4943309, 22.8921905 ], [ 77.4819511, 22.9020015 ], [ 77.4784327, 22.9087492 ], [ 77.479161, 22.9114983 ], [ 77.4716094, 22.915535 ], [ 77.4685826, 22.915415 ], [ 77.4634963, 22.9188492 ], [ 77.4587441, 22.919028 ], [ 77.4564379, 22.9177152 ], [ 77.4538069, 22.919306 ], [ 77.4444411, 22.9143303 ], [ 77.4466373, 22.910776 ], [ 77.4439789, 22.9070968 ], [ 77.4389738, 22.907484 ], [ 77.4360113, 22.9091467 ], [ 77.4365682, 22.9118961 ], [ 77.4430238, 22.9170405 ], [ 77.4450483, 22.9203582 ], [ 77.4359186, 22.9304485 ], [ 77.4361348, 22.9341552 ], [ 77.4421099, 22.9416522 ], [ 77.4412439, 22.9451878 ], [ 77.4394265, 22.9471751 ], [ 77.4327824, 22.9488122 ], [ 77.4309113, 22.9510117 ], [ 77.4315459, 22.9532373 ], [ 77.4379199, 22.95733 ], [ 77.4355805, 22.9591098 ], [ 77.4283403, 22.9591756 ], [ 77.4243499, 22.9664506 ], [ 77.4203136, 22.9688357 ], [ 77.4062593, 22.960825 ], [ 77.4050166, 22.9632814 ], [ 77.4062179, 22.9713044 ], [ 77.4047657, 22.9751424 ], [ 77.4010702, 22.9782764 ], [ 77.3987451, 22.9833741 ], [ 77.3916506, 22.9886395 ], [ 77.3900713, 22.9949381 ], [ 77.3790602, 23.0033955 ], [ 77.3751681, 23.0078923 ], [ 77.3695202, 23.0109758 ], [ 77.3682275, 23.0146784 ], [ 77.3641494, 23.0190622 ], [ 77.3576422, 23.0223438 ], [ 77.3569199, 23.0262266 ], [ 77.3535584, 23.0297841 ], [ 77.3532457, 23.0334455 ], [ 77.3509034, 23.0365107 ], [ 77.3388974, 23.0388745 ], [ 77.3574289, 23.0516502 ], [ 77.3660151, 23.0600126 ], [ 77.3688889, 23.0652591 ], [ 77.3745587, 23.0700088 ], [ 77.3854257, 23.0747671 ], [ 77.3981525, 23.0766034 ], [ 77.4013001, 23.078323 ], [ 77.4020384, 23.0847928 ], [ 77.4080743, 23.0817847 ], [ 77.4113683, 23.08182 ], [ 77.4145607, 23.0853409 ], [ 77.4278843, 23.087486 ], [ 77.4307351, 23.0893542 ], [ 77.4353457, 23.086725 ], [ 77.437391, 23.0879072 ], [ 77.4450714, 23.0859804 ], [ 77.4473514, 23.0878891 ], [ 77.451124, 23.0879733 ], [ 77.4535143, 23.0863151 ], [ 77.4555675, 23.0923774 ], [ 77.4577704, 23.0950764 ], [ 77.4640122, 23.0947297 ], [ 77.4654023, 23.093641 ], [ 77.4726832, 23.0993886 ], [ 77.4739264, 23.0975682 ], [ 77.4736892, 23.0938796 ], [ 77.4795169, 23.094377 ], [ 77.48322, 23.0929794 ], [ 77.4839724, 23.0939632 ], [ 77.4818363, 23.0956531 ], [ 77.4823498, 23.0970255 ], [ 77.4871912, 23.0969453 ], [ 77.4888685, 23.0951743 ], [ 77.4940368, 23.1005386 ], [ 77.4982032, 23.0989691 ], [ 77.5014631, 23.0999545 ], [ 77.5007044, 23.1039599 ], [ 77.5059964, 23.106631 ], [ 77.5064121, 23.1109973 ], [ 77.5114193, 23.1120167 ], [ 77.511642, 23.1140849 ], [ 77.509707, 23.1167787 ], [ 77.5126547, 23.1174671 ], [ 77.5147507, 23.1207329 ], [ 77.5160642, 23.1203366 ], [ 77.515286, 23.1169633 ], [ 77.5164142, 23.1162417 ], [ 77.5227289, 23.1179977 ], [ 77.5242874, 23.1161612 ], [ 77.5308896, 23.1191316 ], [ 77.5345997, 23.1188674 ], [ 77.5353596, 23.1213327 ], [ 77.5331085, 23.1225732 ], [ 77.533038, 23.125634 ], [ 77.5373652, 23.130007 ], [ 77.5376404, 23.1344318 ], [ 77.543191, 23.1347012 ], [ 77.5441215, 23.1379343 ], [ 77.5465965, 23.1382967 ], [ 77.5613649, 23.1375811 ], [ 77.5661379, 23.1524726 ], [ 77.5660676, 23.1572901 ], [ 77.5642659, 23.1572715 ], [ 77.5627336, 23.1551577 ], [ 77.5605602, 23.1564212 ], [ 77.561807, 23.1635009 ], [ 77.5581144, 23.1655174 ], [ 77.5581977, 23.1749175 ], [ 77.5787112, 23.1788393 ], [ 77.5795497, 23.1829165 ], [ 77.5814342, 23.1851202 ], [ 77.5814925, 23.1864023 ], [ 77.579993, 23.1869483 ], [ 77.5790948, 23.1853182 ], [ 77.5724867, 23.1868287 ], [ 77.57205, 23.1919618 ], [ 77.5731571, 23.1962468 ], [ 77.5741581, 23.1968836 ], [ 77.5790964, 23.1950838 ], [ 77.5851581, 23.2097948 ], [ 77.5890495, 23.2157417 ], [ 77.5894295, 23.2199497 ], [ 77.5914909, 23.2200539 ], [ 77.5919205, 23.2218915 ], [ 77.5942163, 23.222479 ], [ 77.594841, 23.2248358 ], [ 77.59189, 23.2269031 ], [ 77.5908703, 23.2404654 ], [ 77.5880114, 23.2429432 ], [ 77.5860261, 23.2494496 ], [ 77.5951809, 23.256358 ], [ 77.5902439, 23.2635852 ], [ 77.5880593, 23.264578 ], [ 77.5873257, 23.266921 ], [ 77.5834159, 23.2681616 ], [ 77.5821588, 23.2720936 ], [ 77.5870148, 23.2778784 ], [ 77.5884403, 23.2832468 ], [ 77.5858052, 23.2862259 ], [ 77.585857, 23.2879134 ], [ 77.5892245, 23.2932021 ], [ 77.5974394, 23.2991768 ], [ 77.6053515, 23.3093994 ], [ 77.6212429, 23.3163398 ], [ 77.6241418, 23.3146061 ], [ 77.6258283, 23.3150847 ], [ 77.6275784, 23.3184121 ], [ 77.625056, 23.3202812 ], [ 77.6215409, 23.3273017 ], [ 77.6191502, 23.3289947 ], [ 77.6269482, 23.3395322 ], [ 77.6233692, 23.3450041 ], [ 77.5809145, 23.3413682 ], [ 77.5816206, 23.3501676 ], [ 77.5831603, 23.35229 ], [ 77.5803243, 23.3518693 ], [ 77.5808557, 23.3568538 ], [ 77.5756381, 23.3567349 ], [ 77.5678367, 23.3613824 ], [ 77.5641443, 23.362144 ], [ 77.562284, 23.3663691 ], [ 77.5574802, 23.3695545 ], [ 77.5552142, 23.3726868 ], [ 77.556865, 23.3771209 ], [ 77.5587185, 23.3772121 ], [ 77.5578619, 23.3788144 ], [ 77.5561889, 23.3792697 ], [ 77.5516614, 23.3768884 ], [ 77.5470436, 23.3786018 ], [ 77.5480323, 23.3942232 ], [ 77.551391, 23.3972452 ], [ 77.5576075, 23.3983631 ], [ 77.5596164, 23.4015965 ], [ 77.5577509, 23.4049502 ], [ 77.5591184, 23.4093481 ], [ 77.5548836, 23.4157346 ], [ 77.5348487, 23.4181307 ], [ 77.5273786, 23.4176026 ], [ 77.5172493, 23.4147065 ], [ 77.5157481, 23.4138567 ], [ 77.5110912, 23.4019119 ], [ 77.5077393, 23.4031916 ], [ 77.5044479, 23.4078981 ], [ 77.5015711, 23.408257 ], [ 77.501871, 23.4138821 ], [ 77.4893337, 23.4165962 ], [ 77.4912951, 23.4273081 ], [ 77.495737, 23.4371785 ], [ 77.493182, 23.4473113 ], [ 77.4942702, 23.4494325 ], [ 77.4975751, 23.4512313 ], [ 77.4971398, 23.4569833 ], [ 77.5006594, 23.462848 ], [ 77.5018011, 23.4718377 ], [ 77.5049006, 23.4755918 ], [ 77.501169, 23.4832412 ], [ 77.5122223, 23.4932858 ], [ 77.5123104, 23.499051 ], [ 77.5166311, 23.5073144 ], [ 77.5182025, 23.5073877 ], [ 77.5186848, 23.5042007 ], [ 77.5203109, 23.5031363 ], [ 77.5239812, 23.5046151 ], [ 77.533204, 23.5049097 ], [ 77.5364514, 23.5023157 ], [ 77.5428406, 23.5008609 ], [ 77.5495666, 23.5010945 ], [ 77.5577939, 23.5044933 ], [ 77.5659933, 23.505386 ], [ 77.5691619, 23.4906256 ], [ 77.5715559, 23.4896829 ], [ 77.5794805, 23.4903715 ], [ 77.6006709, 23.4873785 ], [ 77.6004661, 23.4828729 ], [ 77.6038589, 23.478011 ], [ 77.6075322, 23.4765219 ], [ 77.6190174, 23.4663213 ], [ 77.6242785, 23.4650823 ], [ 77.6295054, 23.4700167 ], [ 77.6348742, 23.4693529 ], [ 77.6355158, 23.4748291 ], [ 77.6457553, 23.4782954 ], [ 77.6500293, 23.4846649 ], [ 77.6471332, 23.4936992 ], [ 77.6450381, 23.4934422 ], [ 77.6501549, 23.501449 ], [ 77.6502239, 23.5038689 ], [ 77.6474541, 23.5094269 ], [ 77.6272651, 23.5264217 ], [ 77.6254339, 23.5261102 ], [ 77.6242016, 23.5332343 ], [ 77.622207, 23.5371756 ], [ 77.6240874, 23.5390085 ], [ 77.6225007, 23.5443087 ], [ 77.6259923, 23.5525615 ], [ 77.6395572, 23.5499694 ], [ 77.6418091, 23.5436848 ], [ 77.6468477, 23.5423929 ], [ 77.6477981, 23.5448443 ], [ 77.6516224, 23.5439587 ], [ 77.6519404, 23.5425321 ], [ 77.6543886, 23.5413668 ], [ 77.6550581, 23.5357686 ], [ 77.6615702, 23.5345391 ], [ 77.6613094, 23.5299478 ], [ 77.6634975, 23.5277125 ], [ 77.6616898, 23.5244353 ], [ 77.676934, 23.5185167 ], [ 77.6835659, 23.5246543 ], [ 77.6828391, 23.5308261 ], [ 77.6916592, 23.5343079 ], [ 77.7006395, 23.5429674 ], [ 77.7052818, 23.5511275 ], [ 77.7011085, 23.5580912 ], [ 77.7006067, 23.5626828 ], [ 77.7027333, 23.5645237 ], [ 77.7076016, 23.5644625 ], [ 77.712884, 23.5613354 ], [ 77.7138209, 23.556292 ], [ 77.7165708, 23.5528006 ], [ 77.7157622, 23.5448057 ], [ 77.7232865, 23.5353655 ], [ 77.7281727, 23.5346399 ], [ 77.735911, 23.5368062 ], [ 77.7404068, 23.5264372 ], [ 77.743668, 23.5267373 ], [ 77.7441564, 23.5254276 ], [ 77.7473681, 23.5252007 ], [ 77.7563271, 23.5266082 ], [ 77.756554, 23.5248478 ], [ 77.7643656, 23.5223252 ], [ 77.7655153, 23.520185 ], [ 77.7565156, 23.5075069 ], [ 77.7624848, 23.5055746 ], [ 77.7623407, 23.502351 ], [ 77.7643682, 23.501278 ], [ 77.7720725, 23.5027099 ], [ 77.7717288, 23.4978125 ], [ 77.7739531, 23.4951369 ], [ 77.7723984, 23.4927023 ], [ 77.7728153, 23.4851046 ], [ 77.7801454, 23.488684 ], [ 77.786475, 23.4869548 ], [ 77.7873924, 23.4839034 ], [ 77.792108, 23.4807909 ], [ 77.7921824, 23.4792785 ], [ 77.7981503, 23.4765637 ], [ 77.7980151, 23.4735254 ], [ 77.8035788, 23.4658076 ], [ 77.8053411, 23.465023 ], [ 77.8053471, 23.4632037 ], [ 77.8089796, 23.4603564 ], [ 77.8111643, 23.455996 ], [ 77.8216714, 23.4549886 ], [ 77.8249832, 23.457667 ], [ 77.8287658, 23.4584349 ], [ 77.831072, 23.4548336 ], [ 77.8336657, 23.4547258 ], [ 77.836426, 23.4527491 ], [ 77.8400012, 23.4420141 ], [ 77.8482999, 23.4414559 ], [ 77.8524202, 23.4394519 ], [ 77.8623432, 23.4408707 ], [ 77.8667816, 23.4364872 ], [ 77.8695312, 23.4362345 ], [ 77.878867, 23.4399592 ], [ 77.8801443, 23.4451418 ], [ 77.8859036, 23.445399 ], [ 77.8908799, 23.443456 ], [ 77.894066, 23.4479534 ], [ 77.9100867, 23.4479506 ], [ 77.9137471, 23.4489476 ], [ 77.9161603, 23.4356555 ], [ 77.9219923, 23.4351617 ], [ 77.925676, 23.4333547 ], [ 77.9276747, 23.4273315 ], [ 77.9266757, 23.4247675 ], [ 77.9288996, 23.4238998 ], [ 77.9304903, 23.4211525 ], [ 77.9577953, 23.4225373 ], [ 77.9599369, 23.4208205 ], [ 77.9594705, 23.4181616 ], [ 77.955037, 23.4161458 ], [ 77.9571812, 23.4106413 ], [ 77.9587459, 23.4095795 ], [ 77.9567984, 23.4088806 ], [ 77.955848, 23.4065246 ], [ 77.9575006, 23.4049975 ], [ 77.9557186, 23.4028044 ], [ 77.9574199, 23.4010926 ], [ 77.956333, 23.3996258 ], [ 77.9568702, 23.397964 ], [ 77.9551774, 23.3975406 ], [ 77.9529791, 23.3940698 ], [ 77.9575651, 23.3855842 ], [ 77.9583121, 23.3729787 ], [ 77.9617797, 23.3725822 ], [ 77.9633995, 23.3749535 ], [ 77.9772715, 23.3712247 ], [ 77.9888364, 23.3643634 ], [ 77.9981439, 23.3627401 ], [ 78.002245, 23.3642367 ], [ 78.0051664, 23.3620809 ], [ 78.0052363, 23.3549386 ], [ 78.0071322, 23.350949 ], [ 78.0148628, 23.3511578 ], [ 78.0152805, 23.3486749 ], [ 78.0176567, 23.3488256 ], [ 78.020049, 23.347238 ], [ 78.0208974, 23.3439474 ], [ 78.0222178, 23.3437405 ], [ 78.0244809, 23.3447262 ], [ 78.0250584, 23.3505416 ], [ 78.0306062, 23.3533893 ], [ 78.0332393, 23.3572329 ], [ 78.0374341, 23.3584497 ], [ 78.0406099, 23.3627541 ], [ 78.0521844, 23.3637802 ], [ 78.0522469, 23.3747556 ], [ 78.0507794, 23.375405 ], [ 78.0546651, 23.3798854 ], [ 78.0547766, 23.3818945 ], [ 78.0573147, 23.3823199 ], [ 78.0577918, 23.3867446 ], [ 78.0552718, 23.3888023 ], [ 78.0476941, 23.3910651 ], [ 78.0478131, 23.3968034 ], [ 78.0490349, 23.3987227 ], [ 78.0482697, 23.4024155 ], [ 78.0464743, 23.4027712 ], [ 78.045277, 23.4007164 ], [ 78.0442484, 23.4031177 ], [ 78.0383109, 23.4014982 ], [ 78.0345885, 23.4013156 ], [ 78.0329049, 23.4025246 ], [ 78.0318839, 23.4006052 ], [ 78.0272029, 23.4069816 ], [ 78.0152432, 23.4061385 ], [ 78.0144497, 23.4073751 ], [ 78.0069449, 23.408137 ], [ 77.9973369, 23.4136307 ], [ 77.9961863, 23.4178709 ], [ 77.9944503, 23.4187752 ], [ 77.9939439, 23.4227237 ], [ 77.9956244, 23.4241015 ], [ 77.9971728, 23.4316987 ], [ 77.9888146, 23.4529964 ], [ 77.9969386, 23.4536131 ], [ 77.9967591, 23.4553424 ], [ 77.9951202, 23.4559804 ], [ 77.9956029, 23.4593568 ], [ 77.9965155, 23.4620741 ], [ 77.9998823, 23.4642313 ], [ 78.0005453, 23.467058 ], [ 78.0071029, 23.4674964 ], [ 78.0076738, 23.4694653 ], [ 78.0105948, 23.4702801 ], [ 78.0114493, 23.4726238 ], [ 78.014538, 23.4721385 ], [ 78.0180149, 23.4696172 ], [ 78.0217487, 23.4700892 ], [ 78.0220755, 23.47148 ], [ 78.0243663, 23.4711518 ], [ 78.0295503, 23.4696111 ], [ 78.0304329, 23.467273 ], [ 78.0378999, 23.4693857 ], [ 78.044052, 23.4688427 ], [ 78.0451172, 23.4635566 ], [ 78.0541789, 23.4578001 ], [ 78.0665014, 23.4570738 ], [ 78.084698, 23.4503707 ], [ 78.0966559, 23.4587796 ], [ 78.1053322, 23.4604333 ], [ 78.1049842, 23.4637065 ], [ 78.1026249, 23.4666632 ], [ 78.1062901, 23.4693861 ], [ 78.1106751, 23.4705468 ], [ 78.1120159, 23.4724973 ], [ 78.1171305, 23.4713735 ], [ 78.1290821, 23.4760824 ], [ 78.1433, 23.4739413 ], [ 78.1461486, 23.4745956 ], [ 78.1439565, 23.4787539 ], [ 78.1411375, 23.4800996 ], [ 78.1384405, 23.4794949 ], [ 78.1353426, 23.482687 ], [ 78.135059, 23.486055 ], [ 78.1368017, 23.4877162 ], [ 78.1340907, 23.4979783 ], [ 78.1352368, 23.505119 ], [ 78.1303955, 23.5115594 ], [ 78.135512, 23.5182544 ], [ 78.1378986, 23.5168841 ], [ 78.1452009, 23.5177568 ], [ 78.1472228, 23.5169484 ], [ 78.1563393, 23.5184073 ], [ 78.1586112, 23.5194903 ], [ 78.1594005, 23.5234156 ], [ 78.1644686, 23.5252948 ], [ 78.1650443, 23.5268657 ], [ 78.1709731, 23.525047 ], [ 78.1743347, 23.5264499 ], [ 78.1757785, 23.5248287 ], [ 78.1800969, 23.5246941 ], [ 78.1805584, 23.5277232 ], [ 78.1825119, 23.5276322 ], [ 78.1870627, 23.5322129 ], [ 78.1882447, 23.5362349 ], [ 78.1909234, 23.5366581 ], [ 78.1923592, 23.5389825 ], [ 78.194372, 23.53937 ], [ 78.1945308, 23.5432389 ], [ 78.1972053, 23.5447772 ], [ 78.1981646, 23.5438196 ], [ 78.1966894, 23.5417301 ], [ 78.1974054, 23.5346824 ], [ 78.1987461, 23.5329301 ], [ 78.2043467, 23.5313652 ], [ 78.2061611, 23.527906 ], [ 78.2080827, 23.5316432 ], [ 78.2080664, 23.5289343 ], [ 78.2106512, 23.5283776 ], [ 78.2118739, 23.5262912 ], [ 78.2177686, 23.5256467 ], [ 78.2227154, 23.5279597 ], [ 78.2269844, 23.5335957 ], [ 78.2269238, 23.5375415 ], [ 78.2238458, 23.5401395 ], [ 78.2255345, 23.5456824 ], [ 78.2309416, 23.5467081 ], [ 78.2302062, 23.5518621 ], [ 78.2257005, 23.5547228 ], [ 78.2256246, 23.5610569 ], [ 78.2270089, 23.5620267 ], [ 78.2311338, 23.5603602 ], [ 78.234736, 23.5605495 ], [ 78.2393784, 23.5629795 ], [ 78.2394056, 23.5660314 ], [ 78.2433847, 23.5657193 ], [ 78.2432636, 23.5672317 ], [ 78.2390261, 23.5689279 ], [ 78.2425252, 23.5684941 ], [ 78.2449635, 23.5703116 ], [ 78.2421506, 23.5796523 ], [ 78.242901, 23.5833741 ], [ 78.2450334, 23.5851917 ], [ 78.2503548, 23.5860034 ], [ 78.2548026, 23.590767 ], [ 78.2658463, 23.5938315 ], [ 78.2682191, 23.5977383 ], [ 78.2695122, 23.597992 ], [ 78.2718444, 23.6037858 ], [ 78.2739016, 23.6044372 ], [ 78.2774302, 23.6093198 ], [ 78.2763505, 23.6118698 ], [ 78.2773875, 23.614182 ], [ 78.2768338, 23.6208226 ], [ 78.2747904, 23.6276067 ], [ 78.2770591, 23.6341679 ], [ 78.2812349, 23.6399446 ], [ 78.2811344, 23.6434885 ], [ 78.2840176, 23.6481041 ], [ 78.2832096, 23.6543473 ], [ 78.2873875, 23.6582006 ], [ 78.2908578, 23.6654755 ], [ 78.2900313, 23.6702877 ], [ 78.2952924, 23.6756401 ], [ 78.3032845, 23.6803708 ], [ 78.3064187, 23.6862411 ], [ 78.3182656, 23.6900291 ], [ 78.3210827, 23.694328 ], [ 78.3268789, 23.6901945 ], [ 78.3317646, 23.6807334 ], [ 78.3399909, 23.6775617 ], [ 78.3392075, 23.6743923 ], [ 78.3349542, 23.6698676 ], [ 78.3345822, 23.6679489 ], [ 78.3370192, 23.6649653 ], [ 78.3372946, 23.6613583 ], [ 78.3417802, 23.6576393 ], [ 78.3434075, 23.6569759 ], [ 78.3444117, 23.6592606 ], [ 78.3477349, 23.6583943 ], [ 78.3479313, 23.6566291 ], [ 78.3518918, 23.6536186 ], [ 78.3641543, 23.6486494 ], [ 78.3654677, 23.6503017 ], [ 78.3674918, 23.6487849 ], [ 78.3717505, 23.650925 ], [ 78.3760633, 23.65683 ], [ 78.3782638, 23.653435 ], [ 78.3860657, 23.6491503 ], [ 78.3855899, 23.644699 ], [ 78.3836883, 23.642022 ], [ 78.3872166, 23.6409472 ], [ 78.3909941, 23.6345497 ], [ 78.3975502, 23.6324225 ], [ 78.4021769, 23.6368596 ], [ 78.4100279, 23.639648 ], [ 78.4133649, 23.6391596 ], [ 78.4122388, 23.6426993 ], [ 78.4165368, 23.6432309 ], [ 78.4146468, 23.6484142 ], [ 78.4192878, 23.648422 ], [ 78.4196169, 23.6506295 ], [ 78.4165634, 23.6496733 ], [ 78.4115507, 23.6527625 ], [ 78.4087424, 23.6523027 ], [ 78.4067187, 23.6536259 ], [ 78.405318, 23.6583349 ], [ 78.4025393, 23.6590081 ], [ 78.3990409, 23.6642411 ], [ 78.3967933, 23.6770222 ], [ 78.4058024, 23.6753638 ], [ 78.4064828, 23.6713998 ], [ 78.4110851, 23.6705727 ], [ 78.423173, 23.6721855 ], [ 78.4253782, 23.6708621 ], [ 78.4321288, 23.6731666 ], [ 78.4298959, 23.678603 ], [ 78.4261365, 23.6796156 ], [ 78.4241226, 23.6817019 ], [ 78.4174464, 23.6825256 ], [ 78.4138395, 23.6857545 ], [ 78.4085699, 23.6863517 ], [ 78.4103703, 23.6912585 ], [ 78.4099005, 23.6940939 ], [ 78.4072343, 23.6971824 ], [ 78.4067989, 23.7011101 ], [ 78.4125988, 23.7011404 ], [ 78.4168955, 23.7070398 ], [ 78.4317054, 23.714159 ], [ 78.4323044, 23.715775 ], [ 78.4284669, 23.7203089 ], [ 78.4252943, 23.719809 ], [ 78.4172491, 23.723739 ], [ 78.4165731, 23.7258971 ], [ 78.4139502, 23.7277849 ], [ 78.4129706, 23.7318572 ], [ 78.4102789, 23.733447 ], [ 78.3989108, 23.7297338 ], [ 78.3988069, 23.7244789 ], [ 78.4006207, 23.7220723 ], [ 78.3990062, 23.7149757 ], [ 78.390729, 23.710539 ], [ 78.3880373, 23.7116137 ], [ 78.3864143, 23.7107742 ], [ 78.3850074, 23.7133205 ], [ 78.3826243, 23.7128195 ], [ 78.3814576, 23.7144719 ], [ 78.3825946, 23.707542 ], [ 78.3815548, 23.700251 ], [ 78.392654, 23.6971487 ], [ 78.3864368, 23.6886257 ], [ 78.3826574, 23.6909826 ], [ 78.3822947, 23.6938855 ], [ 78.3795592, 23.6940391 ], [ 78.3720097, 23.683272 ], [ 78.3689949, 23.6823373 ], [ 78.3584324, 23.6717138 ], [ 78.3532852, 23.6747786 ], [ 78.3458686, 23.6761634 ], [ 78.3435349, 23.6779146 ], [ 78.3462499, 23.6810573 ], [ 78.3474559, 23.6805248 ], [ 78.349911, 23.6842677 ], [ 78.3520581, 23.6847421 ], [ 78.3583368, 23.6917991 ], [ 78.3535893, 23.7041865 ], [ 78.35808, 23.7069138 ], [ 78.3568342, 23.7098888 ], [ 78.358089, 23.713618 ], [ 78.3618102, 23.7162186 ], [ 78.3676843, 23.7163273 ], [ 78.3678896, 23.7279659 ], [ 78.3766428, 23.7283452 ], [ 78.3827135, 23.726774 ], [ 78.3821208, 23.7368685 ], [ 78.3919387, 23.73759 ], [ 78.3984866, 23.7425506 ], [ 78.4034742, 23.7424821 ], [ 78.4075256, 23.7441968 ], [ 78.4094622, 23.7420655 ], [ 78.4092165, 23.740025 ], [ 78.4120562, 23.740715 ], [ 78.4180088, 23.7375713 ], [ 78.4221487, 23.7400666 ], [ 78.4248477, 23.7442056 ], [ 78.4297083, 23.7454274 ] ] ] } }
]
}
