{
"type": "FeatureCollection",
"name": "2339",
"crs": { "type": "name", "properties": { "name": "urn:ogc:def:crs:OGC:1.3:CRS84" } },
"features": [
{ "type": "Feature", "properties": { "code": "2339", "name": "Jabalpur", "type": "district" }, "geometry": { "type": "Polygon", "coordinates": [ [ [ 79.9682257, 23.6157636 ], [ 79.9738776, 23.6065005 ], [ 79.9710779, 23.6036041 ], [ 79.9749628, 23.5969559 ], [ 79.9694615, 23.5969279 ], [ 79.9704176, 23.5912208 ], [ 79.9662297, 23.5851241 ], [ 79.9637558, 23.5850082 ], [ 79.9642028, 23.5866197 ], [ 79.9604699, 23.5861298 ], [ 79.9618653, 23.5850229 ], [ 79.9593464, 23.5833447 ], [ 79.9603883, 23.5812674 ], [ 79.9577487, 23.5817473 ], [ 79.9542102, 23.5786704 ], [ 79.9570308, 23.5694636 ], [ 79.9597871, 23.5677148 ], [ 79.9854135, 23.5811568 ], [ 79.9935593, 23.5834227 ], [ 79.9967495, 23.5776585 ], [ 79.9978085, 23.5707752 ], [ 80.0102387, 23.570253 ], [ 80.0123407, 23.5733306 ], [ 80.0237764, 23.5712219 ], [ 80.0318352, 23.5714348 ], [ 80.0330815, 23.5732421 ], [ 80.0366205, 23.5736854 ], [ 80.0423273, 23.5730844 ], [ 80.0440055, 23.569963 ], [ 80.0424817, 23.5681142 ], [ 80.04674, 23.5679584 ], [ 80.0493825, 23.5721944 ], [ 80.0525515, 23.571943 ], [ 80.0546188, 23.5746593 ], [ 80.0590502, 23.573526 ], [ 80.0664301, 23.5765764 ], [ 80.0696725, 23.5748492 ], [ 80.0720495, 23.570212 ], [ 80.0737638, 23.573342 ], [ 80.0781865, 23.5738445 ], [ 80.0858703, 23.577526 ], [ 80.0861956, 23.5820215 ], [ 80.0908102, 23.5868133 ], [ 80.091037, 23.5934045 ], [ 80.1016512, 23.5928948 ], [ 80.1138466, 23.5895506 ], [ 80.1157033, 23.5888279 ], [ 80.1140708, 23.5858449 ], [ 80.1187932, 23.58484 ], [ 80.1355574, 23.5899561 ], [ 80.1398996, 23.5901948 ], [ 80.1423925, 23.5852687 ], [ 80.138974, 23.578603 ], [ 80.1395778, 23.5723948 ], [ 80.1490767, 23.5799635 ], [ 80.1583697, 23.5820198 ], [ 80.1635852, 23.5801949 ], [ 80.1658326, 23.5749088 ], [ 80.1706907, 23.5714714 ], [ 80.1704065, 23.569722 ], [ 80.1732334, 23.563653 ], [ 80.1780621, 23.5677741 ], [ 80.1796821, 23.567436 ], [ 80.1793844, 23.5701535 ], [ 80.1860181, 23.5782397 ], [ 80.1915234, 23.5794708 ], [ 80.1925505, 23.5810732 ], [ 80.1915259, 23.583585 ], [ 80.1932077, 23.587679 ], [ 80.1970713, 23.5897112 ], [ 80.2063994, 23.5830832 ], [ 80.2090638, 23.5755894 ], [ 80.2218408, 23.5747634 ], [ 80.2330454, 23.5758121 ], [ 80.2361515, 23.57444 ], [ 80.2383105, 23.5684121 ], [ 80.2366745, 23.5621345 ], [ 80.2331237, 23.5572601 ], [ 80.2201525, 23.5600087 ], [ 80.2198968, 23.5555618 ], [ 80.2252671, 23.5548277 ], [ 80.2257596, 23.5521839 ], [ 80.2376882, 23.5513887 ], [ 80.2373815, 23.5471886 ], [ 80.2341037, 23.5469557 ], [ 80.2335019, 23.5425601 ], [ 80.2308704, 23.5417915 ], [ 80.2299877, 23.5398591 ], [ 80.2261155, 23.5396643 ], [ 80.2254635, 23.5342492 ], [ 80.2274279, 23.5308122 ], [ 80.2243729, 23.5311664 ], [ 80.2201657, 23.5296069 ], [ 80.2190118, 23.5233187 ], [ 80.2108883, 23.5234227 ], [ 80.2120803, 23.5339482 ], [ 80.20695, 23.5354928 ], [ 80.2058076, 23.5375973 ], [ 80.1939496, 23.5355476 ], [ 80.2001664, 23.5161236 ], [ 80.1935755, 23.5117222 ], [ 80.1915976, 23.511798 ], [ 80.1899838, 23.5078077 ], [ 80.1922006, 23.5039924 ], [ 80.1956387, 23.5015991 ], [ 80.2000852, 23.4940754 ], [ 80.2001201, 23.4865076 ], [ 80.2051956, 23.4860475 ], [ 80.209656, 23.4904198 ], [ 80.2159015, 23.4888216 ], [ 80.2188857, 23.4905531 ], [ 80.2211145, 23.4893797 ], [ 80.2256836, 23.4904846 ], [ 80.2276267, 23.4892921 ], [ 80.2287281, 23.4903241 ], [ 80.2310824, 23.4885068 ], [ 80.2284568, 23.4863851 ], [ 80.2357302, 23.4863447 ], [ 80.2373429, 23.4836997 ], [ 80.2404545, 23.4844962 ], [ 80.2415761, 23.4863256 ], [ 80.2472445, 23.4864323 ], [ 80.2593651, 23.481764 ], [ 80.263447, 23.4820243 ], [ 80.2682547, 23.4804475 ], [ 80.2690186, 23.4737753 ], [ 80.2666176, 23.4652093 ], [ 80.2663805, 23.455963 ], [ 80.2632829, 23.4559067 ], [ 80.2615539, 23.4576752 ], [ 80.2579037, 23.4571895 ], [ 80.2548464, 23.4503068 ], [ 80.2584444, 23.4488738 ], [ 80.2600039, 23.4448975 ], [ 80.2638377, 23.4477987 ], [ 80.263867, 23.4420695 ], [ 80.2652634, 23.4397681 ], [ 80.2686755, 23.4376891 ], [ 80.271116, 23.4390271 ], [ 80.2732758, 23.4364506 ], [ 80.287594, 23.4339175 ], [ 80.2884604, 23.4409383 ], [ 80.2906162, 23.4442308 ], [ 80.2921763, 23.4454821 ], [ 80.29648, 23.4411276 ], [ 80.2963498, 23.437904 ], [ 80.2983782, 23.4331827 ], [ 80.2973347, 23.4270061 ], [ 80.2990985, 23.4227767 ], [ 80.3013645, 23.4212923 ], [ 80.3007976, 23.4201589 ], [ 80.3066406, 23.4167981 ], [ 80.3102018, 23.4175265 ], [ 80.3113972, 23.413852 ], [ 80.3138041, 23.4139251 ], [ 80.3149305, 23.4114018 ], [ 80.3174358, 23.4098678 ], [ 80.3085874, 23.3977106 ], [ 80.3062234, 23.390906 ], [ 80.3026016, 23.3861639 ], [ 80.3011006, 23.3851202 ], [ 80.2947567, 23.3856454 ], [ 80.2918329, 23.3840682 ], [ 80.2937052, 23.3693466 ], [ 80.2970022, 23.3593527 ], [ 80.2963797, 23.3535508 ], [ 80.2978522, 23.3524319 ], [ 80.3004475, 23.3546003 ], [ 80.3013725, 23.3531424 ], [ 80.2997798, 23.3507759 ], [ 80.3011148, 23.3505012 ], [ 80.3008321, 23.3488983 ], [ 80.2983734, 23.3473802 ], [ 80.2989911, 23.3445632 ], [ 80.2973782, 23.3435512 ], [ 80.2988566, 23.3404232 ], [ 80.2967404, 23.3387607 ], [ 80.2980417, 23.3374114 ], [ 80.3017672, 23.3376389 ], [ 80.3008253, 23.3346046 ], [ 80.3041025, 23.3317933 ], [ 80.3055033, 23.3267871 ], [ 80.3144864, 23.3220458 ], [ 80.3153474, 23.3205155 ], [ 80.321136, 23.3193529 ], [ 80.3227263, 23.3155114 ], [ 80.3239286, 23.3162883 ], [ 80.3281137, 23.3146281 ], [ 80.3295963, 23.3104117 ], [ 80.3264599, 23.3054581 ], [ 80.3419898, 23.3034394 ], [ 80.3551087, 23.307216 ], [ 80.3671483, 23.3052395 ], [ 80.3676322, 23.3073615 ], [ 80.365887, 23.308919 ], [ 80.3695628, 23.3118086 ], [ 80.3679154, 23.3133391 ], [ 80.3685311, 23.3174792 ], [ 80.3638962, 23.3249328 ], [ 80.3642088, 23.3288517 ], [ 80.3760987, 23.3310913 ], [ 80.3762014, 23.3338362 ], [ 80.3790372, 23.3368701 ], [ 80.381252, 23.3360168 ], [ 80.3865473, 23.339109 ], [ 80.3908254, 23.3385173 ], [ 80.3906551, 23.3458447 ], [ 80.3915745, 23.3469417 ], [ 80.3900489, 23.3482354 ], [ 80.3946556, 23.3513432 ], [ 80.4027818, 23.3493672 ], [ 80.405793, 23.3459219 ], [ 80.4061783, 23.3417998 ], [ 80.410119, 23.3409954 ], [ 80.4218802, 23.3466375 ], [ 80.4322795, 23.3450476 ], [ 80.4358894, 23.3480846 ], [ 80.4378157, 23.347673 ], [ 80.4407964, 23.3435949 ], [ 80.4584477, 23.344056 ], [ 80.4629628, 23.3472274 ], [ 80.4637616, 23.3645139 ], [ 80.4671381, 23.3677807 ], [ 80.4676338, 23.3699628 ], [ 80.470163, 23.3714313 ], [ 80.4780953, 23.3712095 ], [ 80.4821077, 23.3739337 ], [ 80.4832473, 23.3800729 ], [ 80.4812773, 23.3813204 ], [ 80.4808978, 23.3837722 ], [ 80.4846979, 23.3925492 ], [ 80.5032109, 23.3868454 ], [ 80.5097157, 23.3806003 ], [ 80.5234258, 23.378729 ], [ 80.5286381, 23.3809878 ], [ 80.5330166, 23.3863178 ], [ 80.5439485, 23.3937189 ], [ 80.5441231, 23.3881343 ], [ 80.5452981, 23.3861711 ], [ 80.5543489, 23.381638 ], [ 80.5558083, 23.3779953 ], [ 80.5529905, 23.3702196 ], [ 80.5446933, 23.3670282 ], [ 80.5404463, 23.3626512 ], [ 80.5424324, 23.3536679 ], [ 80.5470135, 23.3549659 ], [ 80.567248, 23.3546812 ], [ 80.5759677, 23.3518715 ], [ 80.5740517, 23.3498301 ], [ 80.5731229, 23.3363759 ], [ 80.5678127, 23.3163656 ], [ 80.5774082, 23.3156273 ], [ 80.5781715, 23.3135779 ], [ 80.5828253, 23.3136785 ], [ 80.5846065, 23.2910283 ], [ 80.5834893, 23.2845267 ], [ 80.5824929, 23.2822645 ], [ 80.5713649, 23.2817825 ], [ 80.5691479, 23.2773121 ], [ 80.568394, 23.2688466 ], [ 80.5617279, 23.2701759 ], [ 80.5430208, 23.2707317 ], [ 80.5424722, 23.2649479 ], [ 80.5434705, 23.262375 ], [ 80.5333835, 23.2571639 ], [ 80.5268161, 23.2573496 ], [ 80.5226223, 23.2591302 ], [ 80.5207511, 23.2522847 ], [ 80.5220735, 23.2482247 ], [ 80.5216493, 23.2406531 ], [ 80.517242, 23.2350518 ], [ 80.5060875, 23.2139121 ], [ 80.5035742, 23.2111652 ], [ 80.5030497, 23.2024286 ], [ 80.4845631, 23.2020145 ], [ 80.4781431, 23.199569 ], [ 80.4802625, 23.1930819 ], [ 80.498425, 23.187331 ], [ 80.5035218, 23.1826314 ], [ 80.5084792, 23.1763233 ], [ 80.5102273, 23.1708345 ], [ 80.5145543, 23.1701378 ], [ 80.5141549, 23.1689005 ], [ 80.518431, 23.164664 ], [ 80.5228091, 23.1542149 ], [ 80.5296316, 23.1590456 ], [ 80.5359241, 23.1611577 ], [ 80.5424297, 23.1664301 ], [ 80.5526252, 23.1669723 ], [ 80.5546773, 23.1646616 ], [ 80.5564195, 23.156942 ], [ 80.5557962, 23.1537226 ], [ 80.5580768, 23.1526942 ], [ 80.5622149, 23.1470658 ], [ 80.5819229, 23.1380426 ], [ 80.577562, 23.1277655 ], [ 80.5741548, 23.1271323 ], [ 80.5674453, 23.1205519 ], [ 80.5648976, 23.1198737 ], [ 80.5569351, 23.1219789 ], [ 80.5539931, 23.1191242 ], [ 80.5519172, 23.1123239 ], [ 80.5419747, 23.1040612 ], [ 80.5258331, 23.1053613 ], [ 80.524882, 23.0977938 ], [ 80.5293237, 23.0833533 ], [ 80.5281905, 23.0779031 ], [ 80.5202359, 23.0784896 ], [ 80.5164648, 23.0773086 ], [ 80.507308, 23.079853 ], [ 80.5073446, 23.0826297 ], [ 80.5053182, 23.0839737 ], [ 80.5121591, 23.0909226 ], [ 80.5119311, 23.1070316 ], [ 80.5005693, 23.1059349 ], [ 80.4909827, 23.1071366 ], [ 80.4885989, 23.1159973 ], [ 80.4870473, 23.116951 ], [ 80.4818523, 23.1156046 ], [ 80.4793784, 23.1170601 ], [ 80.4788532, 23.1260548 ], [ 80.4745664, 23.1253848 ], [ 80.4709856, 23.1220458 ], [ 80.4582361, 23.1248388 ], [ 80.462976, 23.1317446 ], [ 80.4620111, 23.1421481 ], [ 80.4504547, 23.1429714 ], [ 80.4359913, 23.1403136 ], [ 80.4246061, 23.1420424 ], [ 80.4228832, 23.1435285 ], [ 80.4231648, 23.1529155 ], [ 80.4199864, 23.1539774 ], [ 80.4112166, 23.1720767 ], [ 80.3913062, 23.1712808 ], [ 80.3941674, 23.167131 ], [ 80.3896882, 23.1575413 ], [ 80.3896574, 23.1444516 ], [ 80.3928211, 23.142108 ], [ 80.3595226, 23.1392998 ], [ 80.3571794, 23.1365588 ], [ 80.3560035, 23.1314475 ], [ 80.3506057, 23.1208676 ], [ 80.3369233, 23.1165665 ], [ 80.3375839, 23.1109632 ], [ 80.3292855, 23.0969321 ], [ 80.3116505, 23.0976982 ], [ 80.3087909, 23.0963335 ], [ 80.3013851, 23.099098 ], [ 80.3000783, 23.1058252 ], [ 80.2955715, 23.1077918 ], [ 80.2971308, 23.113012 ], [ 80.2962008, 23.1254466 ], [ 80.2935326, 23.1299605 ], [ 80.291497, 23.1296344 ], [ 80.2895077, 23.1333223 ], [ 80.2836631, 23.134186 ], [ 80.2809716, 23.136266 ], [ 80.2762803, 23.1353782 ], [ 80.2790783, 23.1417237 ], [ 80.2763313, 23.1459754 ], [ 80.2659072, 23.1454764 ], [ 80.2607, 23.1484122 ], [ 80.2480909, 23.151519 ], [ 80.24396, 23.1472676 ], [ 80.2436394, 23.1435463 ], [ 80.2417282, 23.1416146 ], [ 80.2381959, 23.1400453 ], [ 80.2326694, 23.1426731 ], [ 80.2282252, 23.1427845 ], [ 80.2177617, 23.1323306 ], [ 80.2102207, 23.1309436 ], [ 80.203536, 23.1322973 ], [ 80.1885033, 23.1298289 ], [ 80.1843317, 23.1272561 ], [ 80.1796514, 23.1221134 ], [ 80.181649, 23.1108891 ], [ 80.1900444, 23.1045538 ], [ 80.1902417, 23.0982893 ], [ 80.1887301, 23.0920119 ], [ 80.2027437, 23.0863645 ], [ 80.2042225, 23.068573 ], [ 80.204095, 23.0675297 ], [ 80.1972902, 23.0668509 ], [ 80.193259, 23.0685012 ], [ 80.1909056, 23.0672058 ], [ 80.1868737, 23.067239 ], [ 80.1821321, 23.0627286 ], [ 80.1808649, 23.0565795 ], [ 80.1813762, 23.055035 ], [ 80.1852242, 23.0535755 ], [ 80.1878686, 23.0435986 ], [ 80.1873845, 23.0414218 ], [ 80.1892431, 23.0397634 ], [ 80.1918168, 23.0333081 ], [ 80.1909506, 23.0281458 ], [ 80.1864538, 23.0227637 ], [ 80.1766363, 23.0241854 ], [ 80.1698384, 23.0380851 ], [ 80.1691908, 23.0426517 ], [ 80.1636968, 23.0476486 ], [ 80.1579672, 23.0486163 ], [ 80.148264, 23.0454113 ], [ 80.1465806, 23.0481486 ], [ 80.1442429, 23.0489167 ], [ 80.1417533, 23.0448339 ], [ 80.1406411, 23.0498927 ], [ 80.1418572, 23.0565682 ], [ 80.1382258, 23.056311 ], [ 80.1348192, 23.0594142 ], [ 80.131256, 23.0586105 ], [ 80.1292646, 23.0597577 ], [ 80.1248571, 23.0543965 ], [ 80.1101075, 23.0516046 ], [ 80.108443, 23.0527065 ], [ 80.1074416, 23.0593414 ], [ 80.1087773, 23.0757369 ], [ 80.097422, 23.0793712 ], [ 80.0910079, 23.0775544 ], [ 80.0811958, 23.0772269 ], [ 80.08291, 23.0749464 ], [ 80.0796471, 23.0659621 ], [ 80.0710998, 23.0665331 ], [ 80.06643, 23.0629046 ], [ 80.0577532, 23.0588861 ], [ 80.0539583, 23.0539253 ], [ 80.0472387, 23.0515871 ], [ 80.0424097, 23.0467429 ], [ 80.0401577, 23.0418457 ], [ 80.0365966, 23.0393732 ], [ 80.0308727, 23.0383493 ], [ 80.0146657, 23.0316094 ], [ 79.9943085, 23.0299834 ], [ 79.9923745, 23.027461 ], [ 79.9953055, 23.0211559 ], [ 79.9928715, 23.0156721 ], [ 79.9903386, 23.0138138 ], [ 79.9982328, 23.0164988 ], [ 80.005332, 23.0063952 ], [ 80.0045103, 23.0030161 ], [ 79.9980161, 23.0035185 ], [ 79.9912128, 22.9982629 ], [ 79.9947188, 22.9921063 ], [ 79.9984873, 22.9906269 ], [ 80.0015628, 22.987311 ], [ 80.0050685, 22.9823698 ], [ 80.0055686, 22.9793451 ], [ 79.9991903, 22.9794531 ], [ 79.9974006, 22.9754983 ], [ 79.9938202, 22.9740607 ], [ 79.9896377, 22.9696617 ], [ 79.9844396, 22.9692274 ], [ 79.982126, 22.966204 ], [ 79.9698941, 22.9612905 ], [ 79.9659573, 22.9582588 ], [ 79.9669843, 22.955486 ], [ 79.9618787, 22.9539357 ], [ 79.9607655, 22.9515298 ], [ 79.9529096, 22.9482335 ], [ 79.9513531, 22.9459857 ], [ 79.9548134, 22.9441419 ], [ 79.95529, 22.9422544 ], [ 79.9535531, 22.9397404 ], [ 79.9548292, 22.937997 ], [ 79.9541997, 22.9368731 ], [ 79.9623275, 22.9317984 ], [ 79.9708086, 22.9239284 ], [ 79.9744986, 22.9173974 ], [ 79.9694185, 22.9155404 ], [ 79.968229, 22.9081771 ], [ 79.9701246, 22.9008797 ], [ 79.9703376, 22.8919037 ], [ 79.9689666, 22.8895296 ], [ 79.9727653, 22.8861592 ], [ 79.9755715, 22.8853854 ], [ 79.9687308, 22.8795516 ], [ 79.962303, 22.8709767 ], [ 79.9652416, 22.8717336 ], [ 79.9666071, 22.8663283 ], [ 79.9651853, 22.8603783 ], [ 79.9654978, 22.8539984 ], [ 79.9643711, 22.8519853 ], [ 79.9583619, 22.856174 ], [ 79.9509571, 22.8569001 ], [ 79.9465494, 22.8596067 ], [ 79.9410446, 22.8607921 ], [ 79.9312747, 22.8571974 ], [ 79.9251896, 22.8571407 ], [ 79.9067126, 22.845262 ], [ 79.9040609, 22.8604917 ], [ 79.9025463, 22.8637835 ], [ 79.9004074, 22.8635852 ], [ 79.8869015, 22.8602276 ], [ 79.8828328, 22.8505928 ], [ 79.8818829, 22.8520692 ], [ 79.8769089, 22.8525435 ], [ 79.8703709, 22.855713 ], [ 79.8642424, 22.8521684 ], [ 79.855276, 22.8343783 ], [ 79.8468204, 22.8308372 ], [ 79.8397819, 22.8309578 ], [ 79.8343796, 22.8325413 ], [ 79.833005, 22.8352229 ], [ 79.8276114, 22.8389237 ], [ 79.8269665, 22.844757 ], [ 79.8186152, 22.8484024 ], [ 79.8179818, 22.8605566 ], [ 79.8207953, 22.8668967 ], [ 79.820589, 22.871186 ], [ 79.8006357, 22.8634257 ], [ 79.7934536, 22.8563155 ], [ 79.7898381, 22.8493063 ], [ 79.7875193, 22.8492011 ], [ 79.7848124, 22.846599 ], [ 79.7653034, 22.8447402 ], [ 79.7633924, 22.8463823 ], [ 79.7591913, 22.860227 ], [ 79.7646693, 22.8639105 ], [ 79.7707964, 22.8730938 ], [ 79.7813167, 22.879331 ], [ 79.7726648, 22.8830641 ], [ 79.7678077, 22.8878333 ], [ 79.7635629, 22.8883271 ], [ 79.7552263, 22.8926329 ], [ 79.7497429, 22.8991394 ], [ 79.7440657, 22.8968527 ], [ 79.7513382, 22.9134893 ], [ 79.7512383, 22.9161395 ], [ 79.7484638, 22.9206208 ], [ 79.7452747, 22.9193094 ], [ 79.7410063, 22.9209109 ], [ 79.7301554, 22.9197265 ], [ 79.7236406, 22.9223223 ], [ 79.7179039, 22.9226689 ], [ 79.7161404, 22.9242277 ], [ 79.7069179, 22.9237044 ], [ 79.7008602, 22.9254909 ], [ 79.6947322, 22.9237961 ], [ 79.6908235, 22.9247323 ], [ 79.6853688, 22.9239173 ], [ 79.6869167, 22.929872 ], [ 79.6788384, 22.9267416 ], [ 79.6727653, 22.9281071 ], [ 79.669079, 22.9243291 ], [ 79.6649941, 22.9233865 ], [ 79.6564446, 22.9234246 ], [ 79.6544368, 22.9251407 ], [ 79.6487973, 22.926433 ], [ 79.6395039, 22.9445934 ], [ 79.6318745, 22.9441109 ], [ 79.6298465, 22.9457815 ], [ 79.6295248, 22.949082 ], [ 79.6274041, 22.9498451 ], [ 79.6260879, 22.9538905 ], [ 79.6224655, 22.9555521 ], [ 79.6242986, 22.9604553 ], [ 79.6227042, 22.9678418 ], [ 79.6318075, 22.9687266 ], [ 79.6382439, 22.9707986 ], [ 79.6378541, 22.9731373 ], [ 79.6404579, 22.9728256 ], [ 79.6430723, 22.9789747 ], [ 79.6351147, 22.9846372 ], [ 79.6326669, 22.9885202 ], [ 79.6282975, 22.989771 ], [ 79.6273953, 22.9932791 ], [ 79.6229039, 22.994584 ], [ 79.618349, 22.9924257 ], [ 79.6151206, 22.9925836 ], [ 79.616461, 23.0031946 ], [ 79.6151538, 23.0046891 ], [ 79.6135396, 23.0039892 ], [ 79.6090085, 23.0051942 ], [ 79.6056377, 23.0099572 ], [ 79.6061786, 23.0136234 ], [ 79.6093535, 23.0171273 ], [ 79.6088557, 23.0195563 ], [ 79.6044023, 23.019601 ], [ 79.601285, 23.0221108 ], [ 79.5930907, 23.0203937 ], [ 79.5902999, 23.0231202 ], [ 79.5920746, 23.0266106 ], [ 79.5972689, 23.0306299 ], [ 79.5988829, 23.0340344 ], [ 79.5984235, 23.0387434 ], [ 79.5939099, 23.0433705 ], [ 79.5948455, 23.0476869 ], [ 79.5997234, 23.0528799 ], [ 79.5963995, 23.059444 ], [ 79.6010923, 23.0647769 ], [ 79.6062058, 23.0657167 ], [ 79.608211, 23.0677396 ], [ 79.6064141, 23.0761552 ], [ 79.6084427, 23.0882555 ], [ 79.6058319, 23.0872393 ], [ 79.6053833, 23.0844129 ], [ 79.6024214, 23.0834102 ], [ 79.6002921, 23.0918663 ], [ 79.6032348, 23.0928374 ], [ 79.6061291, 23.0912485 ], [ 79.6136009, 23.0904365 ], [ 79.6135078, 23.0948205 ], [ 79.6081586, 23.0971452 ], [ 79.607646, 23.0986487 ], [ 79.6092367, 23.1008972 ], [ 79.6149469, 23.1032138 ], [ 79.6157033, 23.1053494 ], [ 79.6050336, 23.1070641 ], [ 79.5958324, 23.1107469 ], [ 79.5881253, 23.1106144 ], [ 79.5817258, 23.1120621 ], [ 79.5798995, 23.1143551 ], [ 79.5775622, 23.126355 ], [ 79.574343, 23.132413 ], [ 79.5713984, 23.1344618 ], [ 79.5444475, 23.1396605 ], [ 79.5350738, 23.1397639 ], [ 79.5200635, 23.1435021 ], [ 79.5142689, 23.1428028 ], [ 79.5069102, 23.1385851 ], [ 79.4985309, 23.1300229 ], [ 79.4807658, 23.118764 ], [ 79.4698277, 23.1062287 ], [ 79.4627318, 23.1001873 ], [ 79.4581527, 23.0983026 ], [ 79.4531308, 23.0987747 ], [ 79.4411919, 23.1066407 ], [ 79.4348475, 23.1081784 ], [ 79.4184465, 23.1049555 ], [ 79.4058529, 23.1001006 ], [ 79.4034761, 23.1001958 ], [ 79.3985518, 23.1018717 ], [ 79.388152, 23.1111646 ], [ 79.3817629, 23.1130207 ], [ 79.378063, 23.1128176 ], [ 79.3618632, 23.1060087 ], [ 79.3468153, 23.1073477 ], [ 79.3520417, 23.1138183 ], [ 79.3536456, 23.1268395 ], [ 79.3579214, 23.1304654 ], [ 79.3524287, 23.1354402 ], [ 79.3515445, 23.1386817 ], [ 79.3551371, 23.1430481 ], [ 79.3646863, 23.1480786 ], [ 79.3735623, 23.1564675 ], [ 79.3734158, 23.1639216 ], [ 79.3708814, 23.1674296 ], [ 79.3914158, 23.1764674 ], [ 79.4236089, 23.1943395 ], [ 79.42784, 23.1982209 ], [ 79.4286715, 23.2013359 ], [ 79.4516674, 23.2193992 ], [ 79.4571625, 23.2265479 ], [ 79.4752952, 23.2378966 ], [ 79.4786318, 23.2438584 ], [ 79.4869471, 23.2493112 ], [ 79.4888316, 23.2530684 ], [ 79.488923, 23.2569648 ], [ 79.492983, 23.2618512 ], [ 79.488279, 23.2640218 ], [ 79.4919684, 23.2641184 ], [ 79.4985674, 23.2615778 ], [ 79.5112243, 23.2681954 ], [ 79.5157835, 23.2683385 ], [ 79.5314375, 23.2657796 ], [ 79.5326463, 23.2633876 ], [ 79.5308745, 23.2602486 ], [ 79.532033, 23.2597393 ], [ 79.5453343, 23.2669068 ], [ 79.5553794, 23.2706275 ], [ 79.5614857, 23.2758671 ], [ 79.5658348, 23.2765459 ], [ 79.5694447, 23.2809087 ], [ 79.5930952, 23.295051 ], [ 79.5946398, 23.2949972 ], [ 79.5950549, 23.2963155 ], [ 79.6149717, 23.3091762 ], [ 79.633347, 23.3180748 ], [ 79.6558814, 23.3314716 ], [ 79.662639, 23.334179 ], [ 79.6648984, 23.3364991 ], [ 79.668433, 23.335148 ], [ 79.6745013, 23.338221 ], [ 79.674836, 23.3433677 ], [ 79.6875466, 23.3497877 ], [ 79.7028536, 23.3615326 ], [ 79.7063345, 23.3680139 ], [ 79.7034779, 23.375108 ], [ 79.7044758, 23.3759473 ], [ 79.712479, 23.3716767 ], [ 79.7156183, 23.3778826 ], [ 79.7161055, 23.3824648 ], [ 79.7194289, 23.3858128 ], [ 79.7196413, 23.3889368 ], [ 79.7172713, 23.3921978 ], [ 79.7224623, 23.3938064 ], [ 79.719741, 23.3984086 ], [ 79.7249956, 23.3996514 ], [ 79.733177, 23.4092803 ], [ 79.7329001, 23.4116012 ], [ 79.730597, 23.4128261 ], [ 79.7331173, 23.4196778 ], [ 79.7298646, 23.4206507 ], [ 79.7247899, 23.4188031 ], [ 79.7229532, 23.4227364 ], [ 79.724866, 23.422401 ], [ 79.7265896, 23.4244001 ], [ 79.7243544, 23.4253902 ], [ 79.7292001, 23.4282537 ], [ 79.7354708, 23.426254 ], [ 79.7348242, 23.4311438 ], [ 79.7370569, 23.4329437 ], [ 79.7377743, 23.4365865 ], [ 79.7408448, 23.4340695 ], [ 79.7413257, 23.4298209 ], [ 79.745574, 23.4315377 ], [ 79.7471774, 23.4301371 ], [ 79.7555493, 23.4330444 ], [ 79.7584321, 23.4319676 ], [ 79.7665733, 23.4382668 ], [ 79.7676539, 23.4453331 ], [ 79.7715435, 23.4459813 ], [ 79.7714091, 23.4426088 ], [ 79.7751255, 23.4392658 ], [ 79.7821604, 23.4411076 ], [ 79.7833382, 23.4432257 ], [ 79.7890024, 23.4464569 ], [ 79.7859587, 23.446532 ], [ 79.785556, 23.4486717 ], [ 79.7935671, 23.4555113 ], [ 79.7873788, 23.4598511 ], [ 79.7927637, 23.4649511 ], [ 79.7964987, 23.4632059 ], [ 79.80214, 23.4658406 ], [ 79.8020213, 23.4681475 ], [ 79.8078384, 23.4815994 ], [ 79.8146672, 23.4905457 ], [ 79.8157175, 23.4952776 ], [ 79.8099787, 23.4988374 ], [ 79.812753, 23.5018348 ], [ 79.8154306, 23.5020074 ], [ 79.8196232, 23.5085325 ], [ 79.820156, 23.5105102 ], [ 79.8153084, 23.51268 ], [ 79.8361792, 23.5111696 ], [ 79.8431862, 23.5053608 ], [ 79.8473183, 23.5041651 ], [ 79.873239, 23.5404247 ], [ 79.8744583, 23.5499506 ], [ 79.8763192, 23.5514811 ], [ 79.8754671, 23.5528265 ], [ 79.8782439, 23.554393 ], [ 79.8766425, 23.5562396 ], [ 79.8782047, 23.5564426 ], [ 79.8791157, 23.5583568 ], [ 79.8799825, 23.557025 ], [ 79.883357, 23.5596613 ], [ 79.8848898, 23.5589751 ], [ 79.885992, 23.5622391 ], [ 79.8873094, 23.5619952 ], [ 79.8881619, 23.5642659 ], [ 79.892134, 23.5658096 ], [ 79.8920069, 23.5677283 ], [ 79.8936869, 23.56785 ], [ 79.8916447, 23.5694078 ], [ 79.8929477, 23.5705995 ], [ 79.8925611, 23.5729201 ], [ 79.8954361, 23.5725585 ], [ 79.8986887, 23.5749508 ], [ 79.9010104, 23.5747924 ], [ 79.9008643, 23.579113 ], [ 79.9034756, 23.5812975 ], [ 79.9024034, 23.5840291 ], [ 79.9034129, 23.5858303 ], [ 79.906161, 23.5863805 ], [ 79.9090703, 23.5850391 ], [ 79.9100357, 23.5863525 ], [ 79.9111864, 23.5850837 ], [ 79.9121618, 23.5870022 ], [ 79.9174225, 23.5866442 ], [ 79.9265759, 23.5942936 ], [ 79.929687, 23.5951865 ], [ 79.9328825, 23.5989097 ], [ 79.9443691, 23.6052007 ], [ 79.9550224, 23.6091844 ], [ 79.9663734, 23.6154397 ], [ 79.9682257, 23.6157636 ] ] ] } }
]
}
