{
"type": "FeatureCollection",
"name": "2341",
"crs": { "type": "name", "properties": { "name": "urn:ogc:def:crs:OGC:1.3:CRS84" } },
"features": [
{ "type": "Feature", "properties": { "code": "2341", "name": "Dindori", "type": "district" }, "geometry": { "type": "Polygon", "coordinates": [ [ [ 80.7054275, 23.3723008 ], [ 80.7053069, 23.3669238 ], [ 80.7146982, 23.3624536 ], [ 80.7165182, 23.3637437 ], [ 80.7231337, 23.3623718 ], [ 80.729087, 23.3585891 ], [ 80.737354, 23.3503755 ], [ 80.7355934, 23.344187 ], [ 80.7388013, 23.3446226 ], [ 80.744716, 23.3428575 ], [ 80.751889, 23.3440034 ], [ 80.7577586, 23.3414751 ], [ 80.7618531, 23.3447964 ], [ 80.759866, 23.335648 ], [ 80.7567502, 23.3372846 ], [ 80.7548643, 23.3358249 ], [ 80.7541436, 23.3325421 ], [ 80.7500394, 23.3297442 ], [ 80.7498581, 23.3250216 ], [ 80.7487245, 23.3243481 ], [ 80.7493432, 23.3213688 ], [ 80.7512261, 23.3206615 ], [ 80.7527846, 23.3216469 ], [ 80.7541788, 23.3206096 ], [ 80.7452117, 23.3177956 ], [ 80.7420854, 23.3149131 ], [ 80.7414332, 23.3126697 ], [ 80.7296591, 23.3088586 ], [ 80.7240688, 23.3048531 ], [ 80.7235162, 23.2978962 ], [ 80.7276369, 23.2982682 ], [ 80.732845, 23.2954248 ], [ 80.7353139, 23.296132 ], [ 80.7351518, 23.2950891 ], [ 80.7325025, 23.2948427 ], [ 80.7325646, 23.2931045 ], [ 80.7300308, 23.2968715 ], [ 80.7273577, 23.297379 ], [ 80.7222774, 23.2948629 ], [ 80.7189686, 23.2881786 ], [ 80.7166472, 23.2883696 ], [ 80.717124, 23.2781749 ], [ 80.7224431, 23.2742257 ], [ 80.7221059, 23.2674312 ], [ 80.725399, 23.2602641 ], [ 80.7284774, 23.2601763 ], [ 80.7291922, 23.261914 ], [ 80.7323101, 23.2623048 ], [ 80.7427886, 23.2588117 ], [ 80.7446374, 23.2510006 ], [ 80.7461428, 23.2505197 ], [ 80.7459358, 23.2484031 ], [ 80.7417962, 23.2415572 ], [ 80.7400704, 23.234556 ], [ 80.747016, 23.2293872 ], [ 80.7528153, 23.228097 ], [ 80.7666407, 23.2219488 ], [ 80.7755178, 23.2206905 ], [ 80.7788399, 23.2271578 ], [ 80.782645, 23.2278825 ], [ 80.7873471, 23.2316144 ], [ 80.7924075, 23.2505497 ], [ 80.7992753, 23.2523387 ], [ 80.8118277, 23.2527596 ], [ 80.8102516, 23.2481626 ], [ 80.8129977, 23.2478438 ], [ 80.8133464, 23.2440785 ], [ 80.8167865, 23.2428382 ], [ 80.8210123, 23.2440723 ], [ 80.8255569, 23.2417035 ], [ 80.8332915, 23.2406041 ], [ 80.8312035, 23.2308786 ], [ 80.8394837, 23.2316967 ], [ 80.8408044, 23.2264473 ], [ 80.8463687, 23.2261099 ], [ 80.8501651, 23.2228462 ], [ 80.8558125, 23.2208696 ], [ 80.8653772, 23.2227711 ], [ 80.8646535, 23.2329836 ], [ 80.8729978, 23.2389435 ], [ 80.8857206, 23.2447085 ], [ 80.8945546, 23.2474346 ], [ 80.8981556, 23.2473122 ], [ 80.8978743, 23.25057 ], [ 80.8996517, 23.2528739 ], [ 80.9075483, 23.2550801 ], [ 80.9124893, 23.2585013 ], [ 80.9150462, 23.2631283 ], [ 80.9156893, 23.2727537 ], [ 80.921445, 23.283407 ], [ 80.92297, 23.2839168 ], [ 80.9230488, 23.2854969 ], [ 80.9359731, 23.2902193 ], [ 80.942126, 23.2890791 ], [ 80.9506021, 23.2840147 ], [ 80.9516364, 23.279422 ], [ 80.9559956, 23.2792619 ], [ 80.9579332, 23.2752155 ], [ 80.9565107, 23.2665976 ], [ 80.9641785, 23.2600604 ], [ 80.9833295, 23.2494253 ], [ 80.9949627, 23.2487758 ], [ 80.9910834, 23.2433835 ], [ 80.991, 23.2374555 ], [ 81.0009252, 23.2317091 ], [ 81.0062069, 23.2254286 ], [ 81.0179341, 23.2220056 ], [ 81.0245793, 23.2134905 ], [ 81.0304339, 23.2096113 ], [ 81.0523223, 23.2085077 ], [ 81.0638585, 23.200115 ], [ 81.0675827, 23.1944683 ], [ 81.0722847, 23.1981766 ], [ 81.0779996, 23.1969143 ], [ 81.0909949, 23.2025566 ], [ 81.104145, 23.202109 ], [ 81.1067814, 23.2030125 ], [ 81.1103073, 23.2116465 ], [ 81.1181594, 23.2173582 ], [ 81.1226356, 23.2176238 ], [ 81.125073, 23.2139511 ], [ 81.1258008, 23.2069441 ], [ 81.1343822, 23.1989435 ], [ 81.1390215, 23.1920671 ], [ 81.1436543, 23.1775197 ], [ 81.1489577, 23.1770946 ], [ 81.1571036, 23.1791248 ], [ 81.1624697, 23.1757735 ], [ 81.1620053, 23.1740579 ], [ 81.155021, 23.1690661 ], [ 81.1566799, 23.1637246 ], [ 81.1599954, 23.1633718 ], [ 81.1753689, 23.1688351 ], [ 81.1859357, 23.1683572 ], [ 81.1917064, 23.1660387 ], [ 81.1916859, 23.1639664 ], [ 81.1827335, 23.1594325 ], [ 81.1784001, 23.153479 ], [ 81.1797315, 23.1498485 ], [ 81.1818549, 23.1487597 ], [ 81.1918117, 23.1518575 ], [ 81.1954722, 23.1493185 ], [ 81.1948744, 23.1452825 ], [ 81.1895379, 23.1346838 ], [ 81.1895314, 23.1312796 ], [ 81.1932102, 23.1272417 ], [ 81.2028943, 23.125639 ], [ 81.2056695, 23.1297055 ], [ 81.2050806, 23.1325998 ], [ 81.2071246, 23.1380979 ], [ 81.2098602, 23.1408822 ], [ 81.213209, 23.14037 ], [ 81.2146227, 23.1371728 ], [ 81.2109099, 23.1333553 ], [ 81.2090324, 23.1210532 ], [ 81.2110835, 23.1147764 ], [ 81.213855, 23.1132533 ], [ 81.221676, 23.1152894 ], [ 81.2275809, 23.107195 ], [ 81.2358526, 23.1114017 ], [ 81.2382784, 23.1112194 ], [ 81.241564, 23.1008238 ], [ 81.249449, 23.0979284 ], [ 81.2471631, 23.0911984 ], [ 81.2521107, 23.0871775 ], [ 81.2549256, 23.0827731 ], [ 81.2539034, 23.0742707 ], [ 81.2613993, 23.0735629 ], [ 81.2636513, 23.0705035 ], [ 81.2625787, 23.0694191 ], [ 81.2588352, 23.0703736 ], [ 81.2535292, 23.0671144 ], [ 81.2544919, 23.0655033 ], [ 81.2600457, 23.0643696 ], [ 81.2609353, 23.0623701 ], [ 81.2596285, 23.0613805 ], [ 81.2534261, 23.0624459 ], [ 81.2518525, 23.0596635 ], [ 81.2524922, 23.0537223 ], [ 81.2510447, 23.0519875 ], [ 81.2489903, 23.0525095 ], [ 81.2477815, 23.0574669 ], [ 81.2442247, 23.0575283 ], [ 81.2415884, 23.0557333 ], [ 81.2400314, 23.0607867 ], [ 81.2384515, 23.0619798 ], [ 81.2344988, 23.0612872 ], [ 81.2290265, 23.0577874 ], [ 81.2283471, 23.0561941 ], [ 81.2293312, 23.0543784 ], [ 81.235777, 23.0551055 ], [ 81.2372733, 23.0533571 ], [ 81.2352569, 23.0515661 ], [ 81.2304659, 23.0517048 ], [ 81.2302191, 23.0479712 ], [ 81.2265192, 23.0454813 ], [ 81.2281171, 23.0426404 ], [ 81.2272074, 23.0396386 ], [ 81.2304684, 23.0360832 ], [ 81.2262727, 23.0356344 ], [ 81.2261658, 23.0296838 ], [ 81.2231086, 23.0248954 ], [ 81.2096154, 23.0157334 ], [ 81.2043649, 23.0036766 ], [ 81.2017905, 22.9965615 ], [ 81.2007078, 22.9876811 ], [ 81.193196, 22.9647666 ], [ 81.1863838, 22.9523938 ], [ 81.1875631, 22.9511969 ], [ 81.1878248, 22.9467856 ], [ 81.1913481, 22.9443517 ], [ 81.1920931, 22.9415083 ], [ 81.1907766, 22.9280745 ], [ 81.1961293, 22.9206808 ], [ 81.1983612, 22.9139336 ], [ 81.2004941, 22.9117688 ], [ 81.2041693, 22.9115022 ], [ 81.213088, 22.9157743 ], [ 81.2294545, 22.90761 ], [ 81.2371908, 22.9015312 ], [ 81.2572244, 22.9016157 ], [ 81.2660261, 22.8891155 ], [ 81.2780007, 22.8800344 ], [ 81.2894764, 22.8794179 ], [ 81.3003655, 22.8821233 ], [ 81.3100547, 22.8776486 ], [ 81.3148153, 22.8777272 ], [ 81.3198334, 22.8671819 ], [ 81.323796, 22.8634041 ], [ 81.3274166, 22.8615903 ], [ 81.3356405, 22.8620756 ], [ 81.3414636, 22.8579095 ], [ 81.3476271, 22.8562175 ], [ 81.3508285, 22.8520867 ], [ 81.3565285, 22.8521056 ], [ 81.3608352, 22.8504535 ], [ 81.366082, 22.8521379 ], [ 81.3701302, 22.8561385 ], [ 81.3887261, 22.8552349 ], [ 81.393768, 22.8520828 ], [ 81.4032439, 22.8539506 ], [ 81.4049093, 22.8508259 ], [ 81.4029308, 22.8477921 ], [ 81.4057167, 22.8445679 ], [ 81.4183525, 22.8423435 ], [ 81.4246404, 22.8395423 ], [ 81.4294029, 22.8353688 ], [ 81.4298143, 22.8288534 ], [ 81.4359442, 22.822932 ], [ 81.4380267, 22.8185289 ], [ 81.4373964, 22.814109 ], [ 81.4338293, 22.8094734 ], [ 81.4343835, 22.8071208 ], [ 81.4415914, 22.7975956 ], [ 81.4504283, 22.7942822 ], [ 81.4489465, 22.7916505 ], [ 81.4458145, 22.7899272 ], [ 81.4454727, 22.7880897 ], [ 81.4524839, 22.7780539 ], [ 81.4531742, 22.7762927 ], [ 81.4521449, 22.772934 ], [ 81.4532828, 22.7704231 ], [ 81.4578144, 22.7682129 ], [ 81.4606551, 22.7716654 ], [ 81.4642768, 22.7707198 ], [ 81.4675605, 22.766591 ], [ 81.4690125, 22.7611224 ], [ 81.4759629, 22.7586258 ], [ 81.4832268, 22.7589145 ], [ 81.4851227, 22.7615456 ], [ 81.488193, 22.7594393 ], [ 81.4919088, 22.7608273 ], [ 81.4954318, 22.7588154 ], [ 81.4961399, 22.7612937 ], [ 81.5021591, 22.7605997 ], [ 81.5038592, 22.7651161 ], [ 81.5096818, 22.7653778 ], [ 81.5124153, 22.7626797 ], [ 81.5150003, 22.7629524 ], [ 81.5138342, 22.7600393 ], [ 81.5149901, 22.7573266 ], [ 81.5170951, 22.761211 ], [ 81.519296, 22.7608015 ], [ 81.5207635, 22.7580889 ], [ 81.5208154, 22.7537906 ], [ 81.5253777, 22.752728 ], [ 81.526425, 22.7477776 ], [ 81.527574, 22.7477769 ], [ 81.5285521, 22.7522648 ], [ 81.5324471, 22.7515628 ], [ 81.5312241, 22.7471409 ], [ 81.5328073, 22.7457547 ], [ 81.5353238, 22.7476479 ], [ 81.5358878, 22.7532895 ], [ 81.5382926, 22.753494 ], [ 81.5411614, 22.7510574 ], [ 81.5439069, 22.7513432 ], [ 81.5461249, 22.7546042 ], [ 81.549119, 22.754407 ], [ 81.5489809, 22.7576488 ], [ 81.5540131, 22.7610283 ], [ 81.5625775, 22.7594877 ], [ 81.5635771, 22.7558489 ], [ 81.5666546, 22.7539582 ], [ 81.5711279, 22.7558697 ], [ 81.5752805, 22.7558711 ], [ 81.5768486, 22.7545125 ], [ 81.5787077, 22.7561656 ], [ 81.5800175, 22.755755 ], [ 81.5812534, 22.7577059 ], [ 81.5837662, 22.7553949 ], [ 81.5880592, 22.7585248 ], [ 81.5884344, 22.7569536 ], [ 81.592471, 22.7540558 ], [ 81.5943209, 22.7540336 ], [ 81.5946854, 22.7569685 ], [ 81.5964964, 22.7569914 ], [ 81.5977714, 22.7595787 ], [ 81.6003809, 22.7600443 ], [ 81.6033112, 22.7633768 ], [ 81.6068993, 22.7632012 ], [ 81.6061346, 22.7657882 ], [ 81.6074537, 22.7678021 ], [ 81.6096398, 22.767861 ], [ 81.6110467, 22.7696085 ], [ 81.6128287, 22.7685611 ], [ 81.6135687, 22.7698841 ], [ 81.61519, 22.7693017 ], [ 81.6159057, 22.7715503 ], [ 81.618715, 22.7698934 ], [ 81.619903, 22.7725031 ], [ 81.6219966, 22.7711396 ], [ 81.6220891, 22.7728057 ], [ 81.6255655, 22.7741421 ], [ 81.6251225, 22.7782419 ], [ 81.6272551, 22.7772305 ], [ 81.6295096, 22.7814069 ], [ 81.6344323, 22.7799166 ], [ 81.6344373, 22.7819484 ], [ 81.6362292, 22.782147 ], [ 81.6378704, 22.785497 ], [ 81.6406119, 22.7856368 ], [ 81.642633, 22.787402 ], [ 81.6442153, 22.785817 ], [ 81.6451553, 22.7869366 ], [ 81.6508038, 22.7871345 ], [ 81.6523714, 22.7855764 ], [ 81.6532628, 22.7868044 ], [ 81.6560578, 22.7864156 ], [ 81.6578647, 22.7877381 ], [ 81.6585115, 22.7843923 ], [ 81.6601327, 22.7835702 ], [ 81.6653135, 22.7832033 ], [ 81.6663952, 22.7852935 ], [ 81.6732845, 22.7830159 ], [ 81.676002, 22.7843515 ], [ 81.6800141, 22.783542 ], [ 81.6830175, 22.7814278 ], [ 81.6842204, 22.7818563 ], [ 81.683174, 22.7830351 ], [ 81.6853799, 22.7834452 ], [ 81.6895998, 22.7795741 ], [ 81.6901994, 22.7811632 ], [ 81.6919422, 22.7802188 ], [ 81.6946233, 22.7765559 ], [ 81.6932493, 22.7748272 ], [ 81.695338, 22.7747902 ], [ 81.6934381, 22.7726554 ], [ 81.6947545, 22.7666949 ], [ 81.6922757, 22.765346 ], [ 81.6945091, 22.7628256 ], [ 81.6965492, 22.7632672 ], [ 81.6970792, 22.7617814 ], [ 81.6986517, 22.7618258 ], [ 81.6980847, 22.757618 ], [ 81.6959431, 22.7585626 ], [ 81.695796, 22.756531 ], [ 81.6970714, 22.7563588 ], [ 81.6967491, 22.7545575 ], [ 81.6999329, 22.7544205 ], [ 81.6985628, 22.7505652 ], [ 81.7010411, 22.7503316 ], [ 81.7013169, 22.7480271 ], [ 81.7054369, 22.7450616 ], [ 81.7045706, 22.7402651 ], [ 81.7024229, 22.7380142 ], [ 81.7047565, 22.7355218 ], [ 81.7024798, 22.7330418 ], [ 81.7014134, 22.7277505 ], [ 81.6992224, 22.7268275 ], [ 81.6989747, 22.7220432 ], [ 81.6942378, 22.7158339 ], [ 81.6933837, 22.7103192 ], [ 81.6977121, 22.7051391 ], [ 81.7074428, 22.7021652 ], [ 81.7102386, 22.7027932 ], [ 81.7114394, 22.7004786 ], [ 81.7137749, 22.7034638 ], [ 81.7162166, 22.7011462 ], [ 81.7181805, 22.7026671 ], [ 81.7257731, 22.7004804 ], [ 81.7267529, 22.6988904 ], [ 81.7310617, 22.6981532 ], [ 81.73879, 22.690383 ], [ 81.7414629, 22.6891782 ], [ 81.7312843, 22.6807923 ], [ 81.7252565, 22.6730781 ], [ 81.7227249, 22.6570645 ], [ 81.7139481, 22.6486489 ], [ 81.6988854, 22.6447645 ], [ 81.6887692, 22.6484668 ], [ 81.6846487, 22.6478182 ], [ 81.6801759, 22.6422255 ], [ 81.6757629, 22.639116 ], [ 81.6720541, 22.6325566 ], [ 81.6690432, 22.6319615 ], [ 81.6624414, 22.6268114 ], [ 81.6608975, 22.6192894 ], [ 81.6527413, 22.6185597 ], [ 81.6472545, 22.6132642 ], [ 81.6457115, 22.6048707 ], [ 81.6480348, 22.5977002 ], [ 81.6464927, 22.5934065 ], [ 81.6494337, 22.5889451 ], [ 81.6449794, 22.5868642 ], [ 81.6454847, 22.584444 ], [ 81.6489564, 22.5849628 ], [ 81.6497143, 22.5814543 ], [ 81.651839, 22.5808535 ], [ 81.6556759, 22.584185 ], [ 81.6578349, 22.5844419 ], [ 81.6551739, 22.578812 ], [ 81.6555623, 22.5758183 ], [ 81.6561789, 22.5722919 ], [ 81.6599315, 22.5694555 ], [ 81.6534592, 22.5630181 ], [ 81.6492881, 22.5632807 ], [ 81.6438575, 22.5612767 ], [ 81.6427683, 22.5597145 ], [ 81.6387384, 22.5610966 ], [ 81.6362492, 22.5600538 ], [ 81.635185, 22.5652825 ], [ 81.6290252, 22.5633593 ], [ 81.6240422, 22.5558822 ], [ 81.6286893, 22.544418 ], [ 81.6219425, 22.5380155 ], [ 81.6154196, 22.5369225 ], [ 81.6132127, 22.5386653 ], [ 81.604989, 22.5346098 ], [ 81.5999777, 22.5352593 ], [ 81.5963369, 22.536532 ], [ 81.5943477, 22.5422299 ], [ 81.5918291, 22.5452184 ], [ 81.5862346, 22.5439168 ], [ 81.5695494, 22.55073 ], [ 81.5628328, 22.5474991 ], [ 81.5627525, 22.5423608 ], [ 81.5630333, 22.5339626 ], [ 81.5700331, 22.5322719 ], [ 81.5625329, 22.5334431 ], [ 81.558952, 22.5307868 ], [ 81.5529589, 22.5310461 ], [ 81.5460835, 22.5275797 ], [ 81.5409818, 22.5330406 ], [ 81.5326716, 22.5385266 ], [ 81.5222305, 22.5390125 ], [ 81.5213379, 22.5365962 ], [ 81.5232155, 22.5346424 ], [ 81.5234409, 22.5321726 ], [ 81.5182449, 22.5198021 ], [ 81.5104914, 22.5219551 ], [ 81.5093118, 22.526063 ], [ 81.4966494, 22.5195183 ], [ 81.4955299, 22.514262 ], [ 81.4974356, 22.5116416 ], [ 81.4944216, 22.5050091 ], [ 81.4893807, 22.5031664 ], [ 81.4863135, 22.4937575 ], [ 81.4870103, 22.4902352 ], [ 81.4847101, 22.4878301 ], [ 81.4785621, 22.4922185 ], [ 81.4727955, 22.4937393 ], [ 81.4630088, 22.4930676 ], [ 81.461987, 22.4909009 ], [ 81.4588376, 22.4894712 ], [ 81.4525731, 22.4958093 ], [ 81.4494243, 22.4957566 ], [ 81.4468915, 22.4934279 ], [ 81.4426062, 22.4943509 ], [ 81.4439747, 22.49072 ], [ 81.4510811, 22.4866034 ], [ 81.4472367, 22.4846546 ], [ 81.4425405, 22.4791977 ], [ 81.4464015, 22.4761753 ], [ 81.4498721, 22.4791267 ], [ 81.4508823, 22.4785889 ], [ 81.4501933, 22.4712429 ], [ 81.4466168, 22.4697636 ], [ 81.4490302, 22.4675184 ], [ 81.4528589, 22.4683925 ], [ 81.4541959, 22.4700354 ], [ 81.4558911, 22.4694973 ], [ 81.4573013, 22.4716774 ], [ 81.4586759, 22.4712071 ], [ 81.4589274, 22.4692925 ], [ 81.4552774, 22.4668787 ], [ 81.4473678, 22.4658756 ], [ 81.4410162, 22.4717843 ], [ 81.4429314, 22.4737973 ], [ 81.4415254, 22.479907 ], [ 81.4392137, 22.482125 ], [ 81.4344809, 22.4811199 ], [ 81.4322063, 22.4792063 ], [ 81.4278386, 22.4798128 ], [ 81.4227774, 22.4700479 ], [ 81.4245094, 22.4632654 ], [ 81.4267094, 22.4614541 ], [ 81.4286994, 22.4568885 ], [ 81.4229543, 22.4476928 ], [ 81.4067044, 22.440951 ], [ 81.3964118, 22.4400813 ], [ 81.3933816, 22.4453194 ], [ 81.3929838, 22.4490445 ], [ 81.3900599, 22.4522642 ], [ 81.3904538, 22.4558222 ], [ 81.3881078, 22.4592134 ], [ 81.3900611, 22.4633086 ], [ 81.3886528, 22.4682078 ], [ 81.3912523, 22.4710928 ], [ 81.3915009, 22.4777076 ], [ 81.3840633, 22.4897594 ], [ 81.3861922, 22.4985505 ], [ 81.3848236, 22.5046645 ], [ 81.381948, 22.508235 ], [ 81.3820553, 22.5098183 ], [ 81.3758197, 22.5110535 ], [ 81.3724087, 22.5147232 ], [ 81.3706256, 22.5148826 ], [ 81.3613552, 22.5150043 ], [ 81.360593, 22.5120367 ], [ 81.3543086, 22.5112568 ], [ 81.3538844, 22.5142312 ], [ 81.3506005, 22.5175916 ], [ 81.3400584, 22.5195077 ], [ 81.3347446, 22.5242353 ], [ 81.3265267, 22.5261441 ], [ 81.3228708, 22.5230207 ], [ 81.3233828, 22.5189259 ], [ 81.3183907, 22.5168647 ], [ 81.3172143, 22.5146143 ], [ 81.3199266, 22.5070519 ], [ 81.3198466, 22.5032319 ], [ 81.3182029, 22.5018579 ], [ 81.3208899, 22.4952278 ], [ 81.3181256, 22.4939174 ], [ 81.3227041, 22.4904242 ], [ 81.3208497, 22.4860844 ], [ 81.3151787, 22.4877666 ], [ 81.313728, 22.4829212 ], [ 81.3072907, 22.4819072 ], [ 81.2999496, 22.4902933 ], [ 81.2917842, 22.4942944 ], [ 81.2812693, 22.5029542 ], [ 81.2732863, 22.4931866 ], [ 81.2690678, 22.4943218 ], [ 81.2621298, 22.493265 ], [ 81.2597799, 22.4851314 ], [ 81.2619331, 22.4721696 ], [ 81.2483148, 22.458808 ], [ 81.2321909, 22.452155 ], [ 81.2077402, 22.4565945 ], [ 81.2061153, 22.4608351 ], [ 81.1994617, 22.4630331 ], [ 81.201446, 22.4682018 ], [ 81.2003876, 22.4694621 ], [ 81.1999201, 22.4852025 ], [ 81.1976665, 22.4895666 ], [ 81.193519, 22.4909532 ], [ 81.1974876, 22.4928282 ], [ 81.1969618, 22.4960984 ], [ 81.1949152, 22.4979767 ], [ 81.1939759, 22.5017218 ], [ 81.1899495, 22.5060106 ], [ 81.1886774, 22.5101371 ], [ 81.1893905, 22.5112571 ], [ 81.1848052, 22.5142983 ], [ 81.183802, 22.5173394 ], [ 81.178388, 22.522743 ], [ 81.1781616, 22.5263571 ], [ 81.1739841, 22.5260764 ], [ 81.1735857, 22.5287749 ], [ 81.1724901, 22.5285243 ], [ 81.1683339, 22.5338836 ], [ 81.1678199, 22.5367544 ], [ 81.1690472, 22.5384996 ], [ 81.1679106, 22.5405426 ], [ 81.1653126, 22.5409517 ], [ 81.1622532, 22.5393766 ], [ 81.1599075, 22.5403712 ], [ 81.1597933, 22.541397 ], [ 81.1620394, 22.542092 ], [ 81.1571152, 22.5469003 ], [ 81.1553969, 22.5540865 ], [ 81.1556625, 22.5551777 ], [ 81.1593755, 22.555656 ], [ 81.1575411, 22.5574963 ], [ 81.1580175, 22.5595119 ], [ 81.1549385, 22.5593277 ], [ 81.1524762, 22.5620975 ], [ 81.1481571, 22.5622369 ], [ 81.1496181, 22.5659716 ], [ 81.1438402, 22.5671494 ], [ 81.1425906, 22.57128 ], [ 81.1404463, 22.5699021 ], [ 81.1374451, 22.5711396 ], [ 81.135843, 22.5728789 ], [ 81.1364195, 22.5746636 ], [ 81.1350706, 22.57716 ], [ 81.1363197, 22.5805303 ], [ 81.1314014, 22.5865073 ], [ 81.1258138, 22.587909 ], [ 81.1263093, 22.5899382 ], [ 81.1231674, 22.5940934 ], [ 81.1147714, 22.5938136 ], [ 81.1136761, 22.5950845 ], [ 81.1140167, 22.598641 ], [ 81.1117433, 22.5997563 ], [ 81.1102537, 22.5995392 ], [ 81.110055, 22.5975129 ], [ 81.1076323, 22.5959827 ], [ 81.1013456, 22.5983722 ], [ 81.0967405, 22.5962857 ], [ 81.0937759, 22.5973008 ], [ 81.0891139, 22.6027015 ], [ 81.0893836, 22.610309 ], [ 81.0842133, 22.6132332 ], [ 81.0814807, 22.6126302 ], [ 81.0803824, 22.6098457 ], [ 81.0754698, 22.6090925 ], [ 81.0680815, 22.6142595 ], [ 81.0665301, 22.6098112 ], [ 81.0629891, 22.6075417 ], [ 81.052633, 22.6081141 ], [ 81.0455624, 22.6060262 ], [ 81.0434791, 22.6088238 ], [ 81.04362, 22.6133929 ], [ 81.0397124, 22.6138568 ], [ 81.0370768, 22.6161555 ], [ 81.0323321, 22.6159064 ], [ 81.0312603, 22.6133291 ], [ 81.0329337, 22.6040449 ], [ 81.0283242, 22.6019022 ], [ 81.0226491, 22.6020185 ], [ 81.0209567, 22.5957417 ], [ 81.0170905, 22.59182 ], [ 81.0178559, 22.5897522 ], [ 81.0206024, 22.5880036 ], [ 81.0211538, 22.5828211 ], [ 81.0164575, 22.5735347 ], [ 81.0160883, 22.5704478 ], [ 81.0240396, 22.5698635 ], [ 81.0253627, 22.5660271 ], [ 81.0248034, 22.5613293 ], [ 81.0097996, 22.5542922 ], [ 81.0076322, 22.5480674 ], [ 80.9907317, 22.5456846 ], [ 80.9875449, 22.5420702 ], [ 80.9848706, 22.540993 ], [ 80.9835387, 22.5409487 ], [ 80.9823498, 22.5435097 ], [ 80.9803042, 22.5445314 ], [ 80.9702217, 22.5429529 ], [ 80.9653751, 22.5499497 ], [ 80.9657843, 22.5587 ], [ 80.9647113, 22.5607912 ], [ 80.9612258, 22.5608744 ], [ 80.9492343, 22.5552635 ], [ 80.9457456, 22.5581638 ], [ 80.9446747, 22.5651944 ], [ 80.9355378, 22.5716866 ], [ 80.9344253, 22.5737459 ], [ 80.9343215, 22.580889 ], [ 80.9366226, 22.583963 ], [ 80.9360748, 22.5877424 ], [ 80.939405, 22.5865175 ], [ 80.9402397, 22.5832255 ], [ 80.942875, 22.58294 ], [ 80.9509589, 22.588332 ], [ 80.9527159, 22.5911622 ], [ 80.9568271, 22.5871732 ], [ 80.9597515, 22.5905625 ], [ 80.9653476, 22.5896023 ], [ 80.9672309, 22.5918769 ], [ 80.9669457, 22.5944056 ], [ 80.9556319, 22.5969853 ], [ 80.957246, 22.6045113 ], [ 80.9626886, 22.6059668 ], [ 80.9674629, 22.6115133 ], [ 80.973294, 22.6116588 ], [ 80.9800213, 22.6071303 ], [ 80.9815491, 22.6081497 ], [ 80.9845064, 22.6149385 ], [ 80.9871613, 22.6143814 ], [ 80.9902223, 22.6110108 ], [ 80.9932916, 22.6117581 ], [ 80.9936777, 22.6138799 ], [ 80.9983624, 22.6175884 ], [ 81.0024888, 22.6179028 ], [ 81.0045199, 22.6223672 ], [ 81.0078274, 22.6215417 ], [ 81.0089058, 22.6236899 ], [ 81.0060309, 22.6260577 ], [ 81.0061144, 22.6301936 ], [ 81.0094808, 22.6389725 ], [ 81.0115159, 22.6408357 ], [ 81.0046363, 22.6439245 ], [ 80.9971536, 22.645217 ], [ 80.9910564, 22.6484816 ], [ 80.9866253, 22.6490626 ], [ 80.9758452, 22.6486996 ], [ 80.9713811, 22.6440111 ], [ 80.965329, 22.6500786 ], [ 80.9622917, 22.6473395 ], [ 80.9648226, 22.6420237 ], [ 80.9631416, 22.6374238 ], [ 80.9596055, 22.6378501 ], [ 80.9557114, 22.6411166 ], [ 80.9546332, 22.6441513 ], [ 80.9486663, 22.6473645 ], [ 80.9509013, 22.6511968 ], [ 80.953917, 22.6506897 ], [ 80.9545575, 22.6561887 ], [ 80.9500375, 22.6641286 ], [ 80.9438856, 22.6686872 ], [ 80.9437081, 22.6737893 ], [ 80.9404416, 22.6800397 ], [ 80.9316971, 22.6779751 ], [ 80.9228277, 22.679441 ], [ 80.9239584, 22.6844388 ], [ 80.9229685, 22.6921917 ], [ 80.9291206, 22.7079791 ], [ 80.92789, 22.7097584 ], [ 80.9190908, 22.7089756 ], [ 80.9165949, 22.7113286 ], [ 80.9164887, 22.7141325 ], [ 80.9268711, 22.7306502 ], [ 80.9426385, 22.7443386 ], [ 80.9248892, 22.7550119 ], [ 80.9114385, 22.7562799 ], [ 80.8985819, 22.7601157 ], [ 80.8765083, 22.75758 ], [ 80.8724285, 22.7586817 ], [ 80.8676137, 22.7581081 ], [ 80.8701742, 22.766714 ], [ 80.87088, 22.7739427 ], [ 80.8699498, 22.7801734 ], [ 80.8721165, 22.7887792 ], [ 80.8703095, 22.801742 ], [ 80.8691162, 22.8045774 ], [ 80.8546228, 22.8059669 ], [ 80.8544473, 22.8073214 ], [ 80.857747, 22.8254047 ], [ 80.8671812, 22.8343858 ], [ 80.8673466, 22.8399032 ], [ 80.8711021, 22.8466217 ], [ 80.8701181, 22.8485903 ], [ 80.8455647, 22.8508588 ], [ 80.8305067, 22.8496363 ], [ 80.8266249, 22.8329926 ], [ 80.8165035, 22.8314271 ], [ 80.7915813, 22.8189816 ], [ 80.7877226, 22.8209887 ], [ 80.7856092, 22.8203374 ], [ 80.7850092, 22.8215291 ], [ 80.7832473, 22.8196498 ], [ 80.7808746, 22.8207636 ], [ 80.7796733, 22.8181984 ], [ 80.7775112, 22.8176688 ], [ 80.7751414, 22.8147235 ], [ 80.7638041, 22.8134292 ], [ 80.7440827, 22.815805 ], [ 80.7377114, 22.8148344 ], [ 80.7299748, 22.8117559 ], [ 80.7293661, 22.8246468 ], [ 80.7302521, 22.8301682 ], [ 80.731876, 22.8326098 ], [ 80.7267567, 22.8328976 ], [ 80.7287132, 22.8370547 ], [ 80.7344552, 22.8356962 ], [ 80.7372585, 22.8385703 ], [ 80.7380212, 22.8419562 ], [ 80.7427506, 22.8411897 ], [ 80.7408313, 22.8468032 ], [ 80.7380812, 22.8496271 ], [ 80.7363671, 22.8564506 ], [ 80.7184574, 22.8625845 ], [ 80.7165425, 22.8623148 ], [ 80.7114868, 22.8571344 ], [ 80.7088666, 22.8507108 ], [ 80.7003412, 22.8506519 ], [ 80.6961037, 22.8524148 ], [ 80.6926759, 22.8563398 ], [ 80.6885731, 22.8443045 ], [ 80.6875223, 22.8475964 ], [ 80.6838848, 22.8513001 ], [ 80.6819548, 22.8493141 ], [ 80.683365, 22.8431732 ], [ 80.6818093, 22.8391915 ], [ 80.6790413, 22.8365285 ], [ 80.6737567, 22.8382099 ], [ 80.6702732, 22.8363327 ], [ 80.6671812, 22.8399681 ], [ 80.6680339, 22.8409792 ], [ 80.6670893, 22.8422483 ], [ 80.6652283, 22.8416347 ], [ 80.6620135, 22.8431119 ], [ 80.6592317, 22.8421373 ], [ 80.655247, 22.8428063 ], [ 80.6509958, 22.8394769 ], [ 80.6481109, 22.8450606 ], [ 80.6482577, 22.84865 ], [ 80.6306617, 22.8552166 ], [ 80.6121971, 22.8578485 ], [ 80.5885441, 22.8566846 ], [ 80.5889525, 22.8602244 ], [ 80.582501, 22.8630944 ], [ 80.5822762, 22.8656228 ], [ 80.5680963, 22.8699166 ], [ 80.5683227, 22.8760347 ], [ 80.5602907, 22.8804698 ], [ 80.5560946, 22.8718354 ], [ 80.552344, 22.8695536 ], [ 80.5441885, 22.8682494 ], [ 80.5311328, 22.8723103 ], [ 80.5234298, 22.8718857 ], [ 80.5260054, 22.8745016 ], [ 80.5380127, 22.9030706 ], [ 80.5396741, 22.9194609 ], [ 80.5366372, 22.9276224 ], [ 80.5315135, 22.9357239 ], [ 80.5296213, 22.9369554 ], [ 80.518686, 22.9384475 ], [ 80.5132038, 22.9420241 ], [ 80.5093335, 22.9472632 ], [ 80.5127869, 22.9509906 ], [ 80.5166277, 22.9522619 ], [ 80.5316484, 22.9452055 ], [ 80.5355871, 22.9457721 ], [ 80.5383157, 22.9480807 ], [ 80.5427199, 22.9610591 ], [ 80.5455513, 22.9634625 ], [ 80.5585573, 22.9580731 ], [ 80.5640379, 22.957082 ], [ 80.5679623, 22.9577832 ], [ 80.5729866, 22.964291 ], [ 80.5763905, 22.9763742 ], [ 80.5715622, 22.9783502 ], [ 80.5693699, 22.9857088 ], [ 80.5591528, 22.987222 ], [ 80.5589664, 22.9896871 ], [ 80.5554287, 22.993731 ], [ 80.5558276, 22.9957313 ], [ 80.5573937, 22.9942782 ], [ 80.5593928, 22.9952136 ], [ 80.5650893, 22.9944754 ], [ 80.5669282, 23.0052631 ], [ 80.5700021, 23.0141722 ], [ 80.5718066, 23.0149268 ], [ 80.571804, 23.0213967 ], [ 80.5597515, 23.0304131 ], [ 80.5565282, 23.0575375 ], [ 80.5536944, 23.0650175 ], [ 80.5492894, 23.0718285 ], [ 80.5528696, 23.074354 ], [ 80.552738, 23.0835643 ], [ 80.5505367, 23.084087 ], [ 80.5494075, 23.0789079 ], [ 80.5467666, 23.0804192 ], [ 80.5440036, 23.0738395 ], [ 80.5426865, 23.073139 ], [ 80.5384022, 23.080645 ], [ 80.5293237, 23.0833533 ], [ 80.524882, 23.0977938 ], [ 80.5254185, 23.1048148 ], [ 80.5280731, 23.1055975 ], [ 80.5419747, 23.1040612 ], [ 80.5519172, 23.1123239 ], [ 80.5539931, 23.1191242 ], [ 80.5569351, 23.1219789 ], [ 80.5648976, 23.1198737 ], [ 80.5674453, 23.1205519 ], [ 80.5741548, 23.1271323 ], [ 80.577562, 23.1277655 ], [ 80.5819229, 23.1380426 ], [ 80.5622149, 23.1470658 ], [ 80.5580768, 23.1526942 ], [ 80.5557962, 23.1537226 ], [ 80.5564195, 23.156942 ], [ 80.5546773, 23.1646616 ], [ 80.5519072, 23.1673061 ], [ 80.5424297, 23.1664301 ], [ 80.5359241, 23.1611577 ], [ 80.5296316, 23.1590456 ], [ 80.5228091, 23.1542149 ], [ 80.518431, 23.164664 ], [ 80.5141549, 23.1689005 ], [ 80.5145543, 23.1701378 ], [ 80.5102273, 23.1708345 ], [ 80.5084792, 23.1763233 ], [ 80.5035218, 23.1826314 ], [ 80.498425, 23.187331 ], [ 80.4802625, 23.1930819 ], [ 80.4783143, 23.2003345 ], [ 80.4849441, 23.2020548 ], [ 80.5030497, 23.2024286 ], [ 80.5035742, 23.2111652 ], [ 80.5060875, 23.2139121 ], [ 80.517242, 23.2350518 ], [ 80.5216493, 23.2406531 ], [ 80.5220735, 23.2482247 ], [ 80.5207511, 23.2522847 ], [ 80.5226223, 23.2591302 ], [ 80.5268161, 23.2573496 ], [ 80.5333835, 23.2571639 ], [ 80.5434705, 23.262375 ], [ 80.5424722, 23.2649479 ], [ 80.5430208, 23.2707317 ], [ 80.5617279, 23.2701759 ], [ 80.568394, 23.2688466 ], [ 80.5691479, 23.2773121 ], [ 80.5713649, 23.2817825 ], [ 80.5824929, 23.2822645 ], [ 80.5846065, 23.2910283 ], [ 80.5828253, 23.3136785 ], [ 80.5781715, 23.3135779 ], [ 80.5774082, 23.3156273 ], [ 80.5678127, 23.3163656 ], [ 80.5731229, 23.3363759 ], [ 80.5740517, 23.3498301 ], [ 80.5759677, 23.3518715 ], [ 80.5906329, 23.3491258 ], [ 80.5994148, 23.3488657 ], [ 80.6078345, 23.3514763 ], [ 80.624582, 23.3602268 ], [ 80.6555864, 23.3654743 ], [ 80.664785, 23.3649801 ], [ 80.6773926, 23.366412 ], [ 80.6788703, 23.3683845 ], [ 80.685473, 23.3699712 ], [ 80.6920751, 23.3698737 ], [ 80.69166, 23.3711244 ], [ 80.6994525, 23.3745386 ], [ 80.7036972, 23.3738593 ], [ 80.7054275, 23.3723008 ] ] ] } }
]
}
