{
"type": "FeatureCollection",
"name": "2345",
"crs": { "type": "name", "properties": { "name": "urn:ogc:def:crs:OGC:1.3:CRS84" } },
"features": [
{ "type": "Feature", "properties": { "code": "2345", "name": "Balaghat", "type": "district" }, "geometry": { "type": "Polygon", "coordinates": [ [ [ 80.8109107, 22.3996015 ], [ 80.8129309, 22.3991236 ], [ 80.8112664, 22.3969782 ], [ 80.8112917, 22.3946212 ], [ 80.8147654, 22.3901028 ], [ 80.8197226, 22.390845 ], [ 80.823083, 22.3899566 ], [ 80.8241177, 22.3883539 ], [ 80.8341698, 22.3836744 ], [ 80.8443273, 22.3822273 ], [ 80.8453637, 22.3829476 ], [ 80.8422043, 22.3877852 ], [ 80.8445831, 22.3890635 ], [ 80.8494295, 22.3856056 ], [ 80.8523281, 22.3856286 ], [ 80.85682, 22.3811048 ], [ 80.865705, 22.3788975 ], [ 80.8654146, 22.3648594 ], [ 80.8720364, 22.3596309 ], [ 80.8798811, 22.3585561 ], [ 80.8932053, 22.3503508 ], [ 80.8900745, 22.3516606 ], [ 80.8917101, 22.3489873 ], [ 80.8828416, 22.3473264 ], [ 80.8805647, 22.3382959 ], [ 80.8814721, 22.3337353 ], [ 80.8990232, 22.3337446 ], [ 80.9022709, 22.3408944 ], [ 80.9042006, 22.3424947 ], [ 80.9088822, 22.3428618 ], [ 80.9145508, 22.3399526 ], [ 80.9208505, 22.3388943 ], [ 80.9304922, 22.3323531 ], [ 80.9321607, 22.3295936 ], [ 80.9290922, 22.3267817 ], [ 80.9200563, 22.3293898 ], [ 80.9163723, 22.3287136 ], [ 80.9140549, 22.3200762 ], [ 80.9099439, 22.3182711 ], [ 80.9093028, 22.3164199 ], [ 80.9131348, 22.3094564 ], [ 80.9102082, 22.3080122 ], [ 80.9099117, 22.3060526 ], [ 80.903893, 22.2990594 ], [ 80.9057016, 22.2932479 ], [ 80.9130179, 22.2901397 ], [ 80.9135537, 22.2805309 ], [ 80.91497, 22.279036 ], [ 80.9182644, 22.2797305 ], [ 80.9243475, 22.2768344 ], [ 80.9366466, 22.2778641 ], [ 80.9371114, 22.2866328 ], [ 80.9380725, 22.2875671 ], [ 80.9452867, 22.2863495 ], [ 80.954243, 22.2772333 ], [ 80.958254, 22.2751633 ], [ 80.9606151, 22.2804134 ], [ 80.9628085, 22.2809992 ], [ 80.9654284, 22.2810564 ], [ 80.9744686, 22.2763597 ], [ 80.9808739, 22.2779902 ], [ 80.9826631, 22.2828249 ], [ 80.9875517, 22.2865513 ], [ 80.9983704, 22.2843382 ], [ 81.0039795, 22.2858954 ], [ 81.0111253, 22.2855549 ], [ 81.018912, 22.2774387 ], [ 81.0239761, 22.2748193 ], [ 81.027342, 22.2745707 ], [ 81.0308833, 22.2721175 ], [ 81.032399, 22.2650732 ], [ 81.0361705, 22.2611011 ], [ 81.0422966, 22.2577843 ], [ 81.044948, 22.25436 ], [ 81.0484196, 22.2438457 ], [ 81.0377369, 22.2337973 ], [ 81.0270471, 22.2289151 ], [ 81.0236374, 22.2292788 ], [ 81.0193853, 22.2209949 ], [ 81.0195238, 22.217342 ], [ 81.0217584, 22.2121191 ], [ 81.0303719, 22.2031748 ], [ 81.0316398, 22.1996535 ], [ 81.0290069, 22.192495 ], [ 81.0306637, 22.1874027 ], [ 81.025529, 22.1873996 ], [ 81.0224343, 22.1894748 ], [ 81.0166578, 22.1855291 ], [ 81.0171617, 22.1796097 ], [ 81.0267509, 22.1663901 ], [ 81.0263073, 22.1628407 ], [ 81.0222148, 22.1577312 ], [ 81.0237773, 22.1486742 ], [ 81.021913, 22.132729 ], [ 81.0136778, 22.1336719 ], [ 80.9990605, 22.1313164 ], [ 80.9973356, 22.1329248 ], [ 80.9948736, 22.1330214 ], [ 80.9889521, 22.1282528 ], [ 80.9826012, 22.1256969 ], [ 80.9783419, 22.1199651 ], [ 80.9809612, 22.1102145 ], [ 80.9843421, 22.1145561 ], [ 80.9904764, 22.113554 ], [ 81.0031642, 22.1010629 ], [ 81.0066588, 22.0999456 ], [ 81.0113334, 22.0955689 ], [ 81.0061177, 22.0921922 ], [ 81.0014496, 22.0834965 ], [ 81.0045815, 22.0753619 ], [ 81.0066989, 22.0750022 ], [ 81.0091052, 22.0708993 ], [ 81.0031667, 22.0584911 ], [ 80.9983119, 22.0575971 ], [ 80.9948784, 22.0586066 ], [ 80.9948318, 22.0494266 ], [ 80.9896651, 22.051381 ], [ 80.9842573, 22.0486168 ], [ 80.9823883, 22.0495211 ], [ 80.9797284, 22.0552169 ], [ 80.9700419, 22.0574083 ], [ 80.9690247, 22.0647466 ], [ 80.9718804, 22.0823507 ], [ 80.9676069, 22.0892529 ], [ 80.9665485, 22.0935251 ], [ 80.9610095, 22.1000349 ], [ 80.9607645, 22.1035706 ], [ 80.9569792, 22.110418 ], [ 80.9475775, 22.1182659 ], [ 80.9219517, 22.1199505 ], [ 80.9146854, 22.1131883 ], [ 80.9079341, 22.109573 ], [ 80.8968107, 22.0643434 ], [ 80.8929545, 22.063084 ], [ 80.8890058, 22.0571014 ], [ 80.8861093, 22.0591472 ], [ 80.8826942, 22.0590345 ], [ 80.8819915, 22.0529657 ], [ 80.8858033, 22.049624 ], [ 80.8757911, 22.0385343 ], [ 80.8769486, 22.0339059 ], [ 80.8757764, 22.0110439 ], [ 80.865745, 21.9942591 ], [ 80.8591404, 21.9707775 ], [ 80.852673, 21.9573074 ], [ 80.8474691, 21.9557241 ], [ 80.840875, 21.9555838 ], [ 80.8384918, 21.95797 ], [ 80.8360568, 21.9545349 ], [ 80.8288071, 21.9587102 ], [ 80.8254944, 21.9584206 ], [ 80.827501, 21.9561739 ], [ 80.8260232, 21.9528358 ], [ 80.8281738, 21.9543031 ], [ 80.8291298, 21.9535478 ], [ 80.8274655, 21.9512676 ], [ 80.8289824, 21.9483831 ], [ 80.8331807, 21.9501061 ], [ 80.8312868, 21.9472879 ], [ 80.8340382, 21.9457516 ], [ 80.8364714, 21.9497434 ], [ 80.8376795, 21.948838 ], [ 80.8375267, 21.9469831 ], [ 80.8430362, 21.9461193 ], [ 80.8420431, 21.9441451 ], [ 80.8458907, 21.9420778 ], [ 80.8427998, 21.9424604 ], [ 80.8413868, 21.9411744 ], [ 80.8457142, 21.9398477 ], [ 80.845807, 21.9339702 ], [ 80.8476965, 21.9325331 ], [ 80.8476516, 21.9307419 ], [ 80.8456208, 21.9304271 ], [ 80.8461003, 21.9262442 ], [ 80.8392491, 21.9230458 ], [ 80.8398108, 21.919453 ], [ 80.8378742, 21.9178174 ], [ 80.8381526, 21.9157191 ], [ 80.8362304, 21.914607 ], [ 80.8360319, 21.9117076 ], [ 80.8344179, 21.9102662 ], [ 80.8350024, 21.9083375 ], [ 80.8321202, 21.9079674 ], [ 80.8333412, 21.9066675 ], [ 80.8355598, 21.907824 ], [ 80.8361353, 21.9069989 ], [ 80.8333902, 21.9021251 ], [ 80.8343331, 21.90061 ], [ 80.8331789, 21.8986316 ], [ 80.8348066, 21.8960594 ], [ 80.8331338, 21.8946013 ], [ 80.8320989, 21.890238 ], [ 80.8339398, 21.8910498 ], [ 80.8331796, 21.8890595 ], [ 80.8349854, 21.8855938 ], [ 80.8399674, 21.8842839 ], [ 80.8413237, 21.8821503 ], [ 80.8432626, 21.8823916 ], [ 80.8427935, 21.8806444 ], [ 80.844293, 21.8801246 ], [ 80.8450365, 21.8776693 ], [ 80.842952, 21.8760736 ], [ 80.846213, 21.8738745 ], [ 80.8499117, 21.8762465 ], [ 80.8495648, 21.8734393 ], [ 80.8533097, 21.8727643 ], [ 80.8527157, 21.8704809 ], [ 80.849092, 21.8711333 ], [ 80.8457581, 21.8697488 ], [ 80.8432642, 21.865555 ], [ 80.8454356, 21.8642607 ], [ 80.8456623, 21.8623928 ], [ 80.8469012, 21.8633429 ], [ 80.8486469, 21.8621934 ], [ 80.8464999, 21.8599735 ], [ 80.8492888, 21.8591724 ], [ 80.8502411, 21.8558821 ], [ 80.8525355, 21.8547523 ], [ 80.8509432, 21.8521025 ], [ 80.8465394, 21.8528149 ], [ 80.8418608, 21.8505836 ], [ 80.8409854, 21.8483017 ], [ 80.83933, 21.8476534 ], [ 80.8412674, 21.8397816 ], [ 80.8389057, 21.8400212 ], [ 80.8406969, 21.8386743 ], [ 80.8386789, 21.8383583 ], [ 80.8383698, 21.8367041 ], [ 80.83985, 21.8373144 ], [ 80.8424731, 21.8355318 ], [ 80.8451789, 21.8288248 ], [ 80.8426057, 21.8241051 ], [ 80.8428515, 21.821565 ], [ 80.8404996, 21.8183928 ], [ 80.8404415, 21.8158619 ], [ 80.8414268, 21.815395 ], [ 80.8390675, 21.8134794 ], [ 80.8403645, 21.8123958 ], [ 80.8379252, 21.8091742 ], [ 80.8395608, 21.8072121 ], [ 80.8384448, 21.8064098 ], [ 80.8395541, 21.8061552 ], [ 80.8383553, 21.8050584 ], [ 80.8390415, 21.802245 ], [ 80.8401817, 21.8021473 ], [ 80.835673, 21.7971688 ], [ 80.8366285, 21.7961042 ], [ 80.8338875, 21.7960373 ], [ 80.8320506, 21.7941967 ], [ 80.8318121, 21.789464 ], [ 80.8299506, 21.7886755 ], [ 80.8302229, 21.7867811 ], [ 80.8261784, 21.78298 ], [ 80.8283055, 21.779779 ], [ 80.8295394, 21.7799379 ], [ 80.8270908, 21.778629 ], [ 80.8286709, 21.777415 ], [ 80.8282097, 21.7762121 ], [ 80.8268599, 21.7768064 ], [ 80.8235231, 21.7745578 ], [ 80.8227374, 21.7728888 ], [ 80.8240626, 21.7721802 ], [ 80.8226264, 21.771399 ], [ 80.8245757, 21.770446 ], [ 80.8213303, 21.7680017 ], [ 80.8227769, 21.76795 ], [ 80.82222, 21.7664408 ], [ 80.8186351, 21.7656047 ], [ 80.8189603, 21.7641938 ], [ 80.8171223, 21.7621332 ], [ 80.8156312, 21.7557294 ], [ 80.816612, 21.7539873 ], [ 80.8201687, 21.7540177 ], [ 80.8197392, 21.7480232 ], [ 80.8092636, 21.7484288 ], [ 80.8045083, 21.7466174 ], [ 80.8032585, 21.744472 ], [ 80.7854326, 21.7403079 ], [ 80.7844646, 21.74287 ], [ 80.785851, 21.7487643 ], [ 80.7796258, 21.7507011 ], [ 80.7762663, 21.7536335 ], [ 80.7779249, 21.7547741 ], [ 80.7720338, 21.7585189 ], [ 80.7665115, 21.7596289 ], [ 80.7644284, 21.7582446 ], [ 80.7593843, 21.7591846 ], [ 80.7559915, 21.762065 ], [ 80.7474671, 21.7555445 ], [ 80.7403401, 21.7441287 ], [ 80.7378068, 21.7362634 ], [ 80.7398651, 21.7320012 ], [ 80.7333822, 21.7277712 ], [ 80.7339969, 21.720526 ], [ 80.7320591, 21.7136626 ], [ 80.7261427, 21.7136657 ], [ 80.725676, 21.7121351 ], [ 80.7290213, 21.7069204 ], [ 80.733974, 21.7059399 ], [ 80.7351263, 21.7038922 ], [ 80.7323293, 21.6981612 ], [ 80.7341365, 21.6945068 ], [ 80.732996, 21.6926585 ], [ 80.7297778, 21.6920633 ], [ 80.7253087, 21.6812839 ], [ 80.7228852, 21.6800009 ], [ 80.7214524, 21.6770031 ], [ 80.7159762, 21.6747283 ], [ 80.7191819, 21.6684872 ], [ 80.7180119, 21.6661932 ], [ 80.715262, 21.6657819 ], [ 80.7162986, 21.6632752 ], [ 80.7143873, 21.6615499 ], [ 80.7170771, 21.6600815 ], [ 80.7166007, 21.6572071 ], [ 80.7181973, 21.6550055 ], [ 80.7192832, 21.6453709 ], [ 80.7250121, 21.6446459 ], [ 80.7268457, 21.6456234 ], [ 80.7283179, 21.6399978 ], [ 80.7276383, 21.6366641 ], [ 80.7295837, 21.6340329 ], [ 80.729005, 21.6268621 ], [ 80.7315737, 21.6265088 ], [ 80.7290995, 21.6205599 ], [ 80.7293759, 21.6181896 ], [ 80.730946, 21.6173477 ], [ 80.7234008, 21.6140484 ], [ 80.7229677, 21.61203 ], [ 80.7249784, 21.6095516 ], [ 80.721912, 21.6095516 ], [ 80.7207879, 21.6065704 ], [ 80.7170484, 21.6029661 ], [ 80.7187892, 21.6003673 ], [ 80.718674, 21.5992511 ], [ 80.7163672, 21.5990689 ], [ 80.7180834, 21.5931967 ], [ 80.7154337, 21.5902964 ], [ 80.7186125, 21.5874336 ], [ 80.7153557, 21.58505 ], [ 80.7255025, 21.5800871 ], [ 80.7289145, 21.572575 ], [ 80.728675, 21.5699453 ], [ 80.7257071, 21.5691047 ], [ 80.7259832, 21.5663521 ], [ 80.7211688, 21.5612178 ], [ 80.7223783, 21.5599326 ], [ 80.719994, 21.5549955 ], [ 80.7245541, 21.5526675 ], [ 80.7276314, 21.5486881 ], [ 80.7341884, 21.5457742 ], [ 80.7407816, 21.5392259 ], [ 80.7313652, 21.5197945 ], [ 80.7304785, 21.5155981 ], [ 80.7336541, 21.5127928 ], [ 80.731497, 21.5081802 ], [ 80.7332111, 21.5006649 ], [ 80.7292906, 21.4989556 ], [ 80.7275998, 21.4961975 ], [ 80.7328891, 21.4843356 ], [ 80.7371614, 21.4809821 ], [ 80.7377536, 21.4731242 ], [ 80.7349261, 21.4599083 ], [ 80.7243997, 21.4451844 ], [ 80.7142936, 21.4361855 ], [ 80.7068158, 21.4330735 ], [ 80.7057391, 21.4308838 ], [ 80.7071926, 21.4254551 ], [ 80.7068672, 21.4127928 ], [ 80.7038214, 21.4076688 ], [ 80.6999282, 21.4045818 ], [ 80.7010883, 21.4006299 ], [ 80.7005461, 21.396602 ], [ 80.69742, 21.3935823 ], [ 80.6991063, 21.3909443 ], [ 80.6953666, 21.3849263 ], [ 80.6947279, 21.3802481 ], [ 80.6902933, 21.3720672 ], [ 80.6873949, 21.3699639 ], [ 80.6849266, 21.3701454 ], [ 80.6801999, 21.364859 ], [ 80.6818757, 21.3599497 ], [ 80.6792182, 21.356663 ], [ 80.6792943, 21.3538541 ], [ 80.6764781, 21.3510145 ], [ 80.6775473, 21.3484266 ], [ 80.6712798, 21.3451906 ], [ 80.672416, 21.3409634 ], [ 80.6711378, 21.3382452 ], [ 80.6616321, 21.3361251 ], [ 80.6561145, 21.329805 ], [ 80.6519138, 21.3271302 ], [ 80.6449109, 21.3280401 ], [ 80.630254, 21.3222383 ], [ 80.6213379, 21.3203687 ], [ 80.6111586, 21.3276117 ], [ 80.6089126, 21.3271373 ], [ 80.6078622, 21.3238587 ], [ 80.5998854, 21.3267975 ], [ 80.5982995, 21.3280663 ], [ 80.5977929, 21.3315479 ], [ 80.5893441, 21.3335985 ], [ 80.5914237, 21.3409217 ], [ 80.5894709, 21.3437166 ], [ 80.5845734, 21.3442258 ], [ 80.5813719, 21.3469887 ], [ 80.576571, 21.34687 ], [ 80.572774, 21.3428046 ], [ 80.5694333, 21.3434628 ], [ 80.5666993, 21.3456521 ], [ 80.5675612, 21.3482355 ], [ 80.56503, 21.3493952 ], [ 80.5654138, 21.3539924 ], [ 80.5663147, 21.3553159 ], [ 80.5695539, 21.3559312 ], [ 80.5701897, 21.3575165 ], [ 80.5668093, 21.3601797 ], [ 80.5638762, 21.3649699 ], [ 80.5607432, 21.3636456 ], [ 80.5584083, 21.3673387 ], [ 80.5543013, 21.3664972 ], [ 80.5533264, 21.3685649 ], [ 80.550829, 21.3687355 ], [ 80.5484848, 21.3711413 ], [ 80.5431624, 21.3707053 ], [ 80.540136, 21.3770126 ], [ 80.5392022, 21.3827065 ], [ 80.5318015, 21.3820658 ], [ 80.5276224, 21.3948705 ], [ 80.5251928, 21.3940155 ], [ 80.5239315, 21.3912239 ], [ 80.5191084, 21.3930047 ], [ 80.517125, 21.3951981 ], [ 80.5150059, 21.3917602 ], [ 80.5112151, 21.3928369 ], [ 80.5084152, 21.390821 ], [ 80.5016753, 21.3955985 ], [ 80.5009688, 21.3985061 ], [ 80.495744, 21.3967229 ], [ 80.4875152, 21.3979629 ], [ 80.4841912, 21.3953371 ], [ 80.4834121, 21.3988131 ], [ 80.4810891, 21.4009427 ], [ 80.4797476, 21.3997279 ], [ 80.4797919, 21.3967329 ], [ 80.4764653, 21.3948975 ], [ 80.4736411, 21.3969035 ], [ 80.4709291, 21.3958605 ], [ 80.462352, 21.4026274 ], [ 80.4575559, 21.4026801 ], [ 80.4570126, 21.4004586 ], [ 80.4582573, 21.4003649 ], [ 80.4558044, 21.3982611 ], [ 80.456319, 21.3961088 ], [ 80.4541982, 21.3952604 ], [ 80.4510443, 21.3878398 ], [ 80.4498851, 21.3874406 ], [ 80.4517442, 21.3780633 ], [ 80.4486317, 21.3720539 ], [ 80.4461226, 21.3710924 ], [ 80.4370496, 21.372675 ], [ 80.4324635, 21.373825 ], [ 80.4306069, 21.3762582 ], [ 80.4169405, 21.3752013 ], [ 80.4153186, 21.3766151 ], [ 80.412236, 21.3767175 ], [ 80.4067593, 21.3817049 ], [ 80.3995971, 21.3982178 ], [ 80.3963794, 21.4029766 ], [ 80.3960352, 21.4081072 ], [ 80.3981164, 21.4122978 ], [ 80.4085651, 21.4184199 ], [ 80.4089067, 21.4210367 ], [ 80.4046016, 21.4250239 ], [ 80.4221551, 21.4405395 ], [ 80.4186972, 21.4426976 ], [ 80.4179884, 21.4484983 ], [ 80.4138956, 21.457297 ], [ 80.4110811, 21.4598806 ], [ 80.4090627, 21.4673678 ], [ 80.4037245, 21.4675251 ], [ 80.3972168, 21.4715855 ], [ 80.3904229, 21.4794075 ], [ 80.392106, 21.4867047 ], [ 80.3899647, 21.4886032 ], [ 80.3839734, 21.4900991 ], [ 80.3847727, 21.4997421 ], [ 80.3787805, 21.513805 ], [ 80.3765001, 21.5232785 ], [ 80.3696659, 21.5284342 ], [ 80.3660567, 21.529062 ], [ 80.3601477, 21.5344647 ], [ 80.3443359, 21.5386677 ], [ 80.331312, 21.5475422 ], [ 80.3300913, 21.5494391 ], [ 80.3306773, 21.5511806 ], [ 80.3393078, 21.5550773 ], [ 80.3361873, 21.5563168 ], [ 80.3320332, 21.5608064 ], [ 80.3277544, 21.5714018 ], [ 80.3213685, 21.5758706 ], [ 80.3148323, 21.5773074 ], [ 80.3032486, 21.5747975 ], [ 80.2980617, 21.5758101 ], [ 80.2952289, 21.5813635 ], [ 80.2952447, 21.5910666 ], [ 80.2940697, 21.5933248 ], [ 80.2825531, 21.595638 ], [ 80.2798501, 21.5972164 ], [ 80.2724383, 21.6131346 ], [ 80.2667253, 21.6185437 ], [ 80.2519581, 21.6249601 ], [ 80.2458428, 21.6204893 ], [ 80.2352918, 21.6224019 ], [ 80.2214786, 21.6209699 ], [ 80.2168946, 21.625648 ], [ 80.2189822, 21.6288716 ], [ 80.2174569, 21.6334327 ], [ 80.2145186, 21.6301651 ], [ 80.208828, 21.6352329 ], [ 80.1927783, 21.6354505 ], [ 80.1876274, 21.6285429 ], [ 80.169087, 21.6221414 ], [ 80.1625461, 21.615302 ], [ 80.1602023, 21.6106592 ], [ 80.154617, 21.606471 ], [ 80.1456137, 21.6055246 ], [ 80.1344163, 21.6082278 ], [ 80.1286738, 21.611445 ], [ 80.1213334, 21.6108764 ], [ 80.1179724, 21.6075937 ], [ 80.1182069, 21.5985203 ], [ 80.1160624, 21.5932531 ], [ 80.1107218, 21.5908437 ], [ 80.1012362, 21.5899905 ], [ 80.0963334, 21.5850353 ], [ 80.0901253, 21.5745526 ], [ 80.0722133, 21.5567893 ], [ 80.0666863, 21.5542024 ], [ 80.0561126, 21.5534329 ], [ 80.0445113, 21.5562384 ], [ 80.0328654, 21.556214 ], [ 80.0041004, 21.5354583 ], [ 79.9968058, 21.5336187 ], [ 79.9887001, 21.5369252 ], [ 79.9795246, 21.5505191 ], [ 79.9714828, 21.5577177 ], [ 79.9638898, 21.5583495 ], [ 79.9482087, 21.554171 ], [ 79.9359005, 21.5562444 ], [ 79.9297735, 21.5525752 ], [ 79.9221865, 21.5418029 ], [ 79.9184468, 21.5285636 ], [ 79.9184649, 21.5245445 ], [ 79.9097049, 21.5227673 ], [ 79.8970028, 21.5243771 ], [ 79.8937543, 21.5196766 ], [ 79.8912446, 21.5181866 ], [ 79.8822445, 21.5262166 ], [ 79.8731856, 21.5295401 ], [ 79.8631324, 21.5307951 ], [ 79.8507026, 21.5408232 ], [ 79.8312491, 21.5469248 ], [ 79.8285552, 21.5488749 ], [ 79.8215079, 21.5615439 ], [ 79.8082898, 21.5738444 ], [ 79.7920707, 21.5865897 ], [ 79.7738129, 21.5903051 ], [ 79.7609756, 21.5947538 ], [ 79.7543019, 21.5954943 ], [ 79.7399605, 21.6036019 ], [ 79.733403, 21.6033307 ], [ 79.7249427, 21.5958084 ], [ 79.7181569, 21.5930578 ], [ 79.7120143, 21.5918689 ], [ 79.6990697, 21.5929001 ], [ 79.6969347, 21.5910452 ], [ 79.6950056, 21.5853876 ], [ 79.6895477, 21.5809554 ], [ 79.6830299, 21.5805968 ], [ 79.6754311, 21.5822971 ], [ 79.660936, 21.5768954 ], [ 79.658973, 21.5651594 ], [ 79.6565195, 21.5597276 ], [ 79.6527872, 21.556242 ], [ 79.6395941, 21.5529696 ], [ 79.6304663, 21.5545464 ], [ 79.62226, 21.5575674 ], [ 79.6185043, 21.5572602 ], [ 79.5999689, 21.5494823 ], [ 79.5916428, 21.5478824 ], [ 79.5841048, 21.5422719 ], [ 79.5800362, 21.5411781 ], [ 79.5759814, 21.5420032 ], [ 79.5658139, 21.5476358 ], [ 79.5401907, 21.5427207 ], [ 79.5377029, 21.5461559 ], [ 79.5375179, 21.5487524 ], [ 79.543927, 21.5595211 ], [ 79.5439675, 21.5644793 ], [ 79.5425088, 21.5682248 ], [ 79.5320564, 21.5750176 ], [ 79.5286401, 21.5793505 ], [ 79.5182353, 21.5803603 ], [ 79.5120284, 21.5839734 ], [ 79.5101098, 21.5960418 ], [ 79.5176525, 21.5962371 ], [ 79.5233273, 21.5942719 ], [ 79.5266517, 21.5979 ], [ 79.5356413, 21.5999551 ], [ 79.5427602, 21.606028 ], [ 79.5433631, 21.6073017 ], [ 79.5422951, 21.6087055 ], [ 79.5456839, 21.6109109 ], [ 79.5467772, 21.6162128 ], [ 79.5448141, 21.6207638 ], [ 79.5413893, 21.6220039 ], [ 79.5379677, 21.6262244 ], [ 79.5406066, 21.6310666 ], [ 79.54477, 21.6307887 ], [ 79.5477345, 21.6323796 ], [ 79.5596684, 21.6331885 ], [ 79.5694963, 21.6353325 ], [ 79.5757582, 21.6424422 ], [ 79.5777466, 21.6473423 ], [ 79.5793451, 21.6484988 ], [ 79.5814948, 21.6476458 ], [ 79.5853822, 21.650853 ], [ 79.5871224, 21.6461886 ], [ 79.5891796, 21.6480722 ], [ 79.5905954, 21.6458055 ], [ 79.5926433, 21.6464788 ], [ 79.5929561, 21.6516178 ], [ 79.5886665, 21.6528 ], [ 79.5880623, 21.6542584 ], [ 79.5886163, 21.6601425 ], [ 79.5941423, 21.6612319 ], [ 79.5940785, 21.6664295 ], [ 79.5956335, 21.6689044 ], [ 79.6087339, 21.6792019 ], [ 79.6088154, 21.6863051 ], [ 79.6052488, 21.6926086 ], [ 79.6034307, 21.7017888 ], [ 79.6008016, 21.7051933 ], [ 79.599496, 21.7096094 ], [ 79.6035067, 21.7113124 ], [ 79.6157618, 21.7089563 ], [ 79.6230343, 21.7096564 ], [ 79.6276443, 21.7085952 ], [ 79.6345398, 21.7053256 ], [ 79.6345588, 21.7007874 ], [ 79.6390183, 21.6963165 ], [ 79.6531366, 21.6945806 ], [ 79.6569293, 21.6929001 ], [ 79.6642069, 21.6966466 ], [ 79.6729863, 21.6963417 ], [ 79.66991, 21.7013595 ], [ 79.670732, 21.7031203 ], [ 79.6731967, 21.7041086 ], [ 79.669878, 21.7070176 ], [ 79.670271, 21.7121428 ], [ 79.6684153, 21.7118588 ], [ 79.6652368, 21.7162308 ], [ 79.6634646, 21.7213971 ], [ 79.6601839, 21.724017 ], [ 79.6611039, 21.7312148 ], [ 79.6577408, 21.733952 ], [ 79.6564996, 21.7379034 ], [ 79.6586508, 21.7396596 ], [ 79.6585791, 21.7434708 ], [ 79.6638145, 21.7460481 ], [ 79.6696632, 21.7463672 ], [ 79.6795084, 21.7447025 ], [ 79.682419, 21.7467877 ], [ 79.6806457, 21.7480437 ], [ 79.6819708, 21.7499759 ], [ 79.6811318, 21.7553756 ], [ 79.6853239, 21.7581467 ], [ 79.6880858, 21.7619479 ], [ 79.6893992, 21.7694523 ], [ 79.688338, 21.7746232 ], [ 79.68895, 21.7809403 ], [ 79.6835526, 21.7882848 ], [ 79.6882447, 21.7933135 ], [ 79.6907187, 21.8003704 ], [ 79.6935424, 21.8001435 ], [ 79.6973779, 21.8022552 ], [ 79.7072763, 21.8026388 ], [ 79.7138779, 21.8047352 ], [ 79.7243115, 21.8026204 ], [ 79.7345246, 21.8034945 ], [ 79.7419742, 21.8012451 ], [ 79.7485292, 21.8014078 ], [ 79.7523258, 21.8020514 ], [ 79.7566364, 21.8051884 ], [ 79.7642901, 21.8065393 ], [ 79.7697137, 21.8089768 ], [ 79.7690542, 21.8115774 ], [ 79.7727949, 21.8146006 ], [ 79.7810559, 21.8274976 ], [ 79.7806243, 21.8291726 ], [ 79.7878244, 21.8391832 ], [ 79.7935571, 21.8369554 ], [ 79.7911188, 21.8379296 ], [ 79.7918132, 21.8415695 ], [ 79.7906848, 21.8440435 ], [ 79.7932867, 21.8447176 ], [ 79.7777433, 21.8556957 ], [ 79.7763092, 21.8590996 ], [ 79.777068, 21.8600392 ], [ 79.7816236, 21.8619249 ], [ 79.7973365, 21.8601719 ], [ 79.8079575, 21.8640916 ], [ 79.8189846, 21.8704988 ], [ 79.8220118, 21.8736878 ], [ 79.8246965, 21.874533 ], [ 79.8265142, 21.8785389 ], [ 79.8388736, 21.8853515 ], [ 79.8384905, 21.8885213 ], [ 79.8411399, 21.8969119 ], [ 79.8416461, 21.9054826 ], [ 79.853463, 21.9030371 ], [ 79.8657488, 21.9021667 ], [ 79.8639389, 21.9054539 ], [ 79.8644517, 21.9075627 ], [ 79.8771539, 21.907879 ], [ 79.8762587, 21.9096943 ], [ 79.8806479, 21.9128867 ], [ 79.884418, 21.9199986 ], [ 79.8839488, 21.9228254 ], [ 79.8912137, 21.9301084 ], [ 79.8907976, 21.931296 ], [ 79.8800534, 21.9316534 ], [ 79.8772559, 21.9281133 ], [ 79.8688783, 21.9320011 ], [ 79.8595423, 21.9328721 ], [ 79.8408934, 21.9374029 ], [ 79.8400686, 21.9453365 ], [ 79.8459102, 21.9485302 ], [ 79.8457446, 21.9540481 ], [ 79.8560161, 21.9539412 ], [ 79.8634945, 21.958173 ], [ 79.8614751, 21.9663144 ], [ 79.8803696, 21.9695163 ], [ 79.8893738, 21.968143 ], [ 79.9232385, 21.9736318 ], [ 79.9231901, 21.9878152 ], [ 79.9212167, 21.994142 ], [ 79.9206399, 22.0070944 ], [ 79.9211554, 22.0137139 ], [ 79.9236555, 22.0176372 ], [ 79.9231388, 22.0219316 ], [ 79.9254018, 22.0259001 ], [ 79.9263291, 22.0322667 ], [ 79.9170648, 22.0346716 ], [ 79.9183302, 22.0386809 ], [ 79.9219396, 22.0420124 ], [ 79.9199323, 22.050642 ], [ 79.9203694, 22.0543898 ], [ 79.9318345, 22.0650744 ], [ 79.9340695, 22.0692007 ], [ 79.9402038, 22.0719528 ], [ 79.9479556, 22.0729429 ], [ 79.9529302, 22.0716311 ], [ 79.9539677, 22.0729627 ], [ 79.9596284, 22.0685708 ], [ 79.9668766, 22.0700118 ], [ 79.9901146, 22.0688411 ], [ 79.9912167, 22.0716624 ], [ 79.9967332, 22.0757404 ], [ 79.9950456, 22.0795256 ], [ 80.001276, 22.082239 ], [ 80.0072755, 22.0803514 ], [ 80.0151378, 22.0814993 ], [ 80.0230261, 22.0803936 ], [ 80.0298274, 22.0816756 ], [ 80.0507088, 22.0815598 ], [ 80.0585926, 22.0790933 ], [ 80.0628184, 22.0763585 ], [ 80.067154, 22.077376 ], [ 80.0669217, 22.0885608 ], [ 80.0639325, 22.0994601 ], [ 80.0606985, 22.104015 ], [ 80.0620336, 22.1092263 ], [ 80.0596707, 22.1158224 ], [ 80.0533944, 22.1171293 ], [ 80.0476597, 22.120581 ], [ 80.0460493, 22.1231044 ], [ 80.0463264, 22.1303067 ], [ 80.0438785, 22.1395351 ], [ 80.0428435, 22.1609784 ], [ 80.0393472, 22.1710008 ], [ 80.0339511, 22.179103 ], [ 80.0334887, 22.1819837 ], [ 80.0361378, 22.1864915 ], [ 80.0560026, 22.2053349 ], [ 80.0597332, 22.2122901 ], [ 80.0860577, 22.2219027 ], [ 80.088559, 22.2260935 ], [ 80.0831744, 22.2303684 ], [ 80.0831594, 22.2323326 ], [ 80.086728, 22.2355801 ], [ 80.0946621, 22.2395823 ], [ 80.0987109, 22.245909 ], [ 80.0955297, 22.2659029 ], [ 80.0861655, 22.2709174 ], [ 80.087169, 22.2737127 ], [ 80.0937617, 22.2758047 ], [ 80.0940909, 22.2788481 ], [ 80.0811413, 22.2966854 ], [ 80.0911679, 22.3096513 ], [ 80.0888134, 22.3133263 ], [ 80.0902771, 22.3207002 ], [ 80.1005256, 22.3280079 ], [ 80.1003205, 22.3351195 ], [ 80.0979919, 22.338536 ], [ 80.103382, 22.3426696 ], [ 80.1079978, 22.344273 ], [ 80.1240399, 22.3448654 ], [ 80.1293793, 22.3461612 ], [ 80.1391451, 22.343492 ], [ 80.1428189, 22.3389719 ], [ 80.1450566, 22.3394773 ], [ 80.1497465, 22.3463264 ], [ 80.1598475, 22.3462432 ], [ 80.1724269, 22.3399637 ], [ 80.1680686, 22.325421 ], [ 80.1849811, 22.3230766 ], [ 80.2008037, 22.3163557 ], [ 80.2125805, 22.3145029 ], [ 80.2138755, 22.3133146 ], [ 80.2136409, 22.3108043 ], [ 80.2150963, 22.3100765 ], [ 80.220847, 22.310326 ], [ 80.2221488, 22.312163 ], [ 80.2281286, 22.313857 ], [ 80.2304406, 22.3100356 ], [ 80.2320849, 22.3027738 ], [ 80.2350488, 22.3015436 ], [ 80.2597346, 22.3082702 ], [ 80.273114, 22.3074031 ], [ 80.2777388, 22.3211055 ], [ 80.2794409, 22.3231701 ], [ 80.2882585, 22.3241187 ], [ 80.3008553, 22.3373819 ], [ 80.3189754, 22.3460992 ], [ 80.323077, 22.3461187 ], [ 80.3277285, 22.3418531 ], [ 80.335209, 22.3391729 ], [ 80.3331711, 22.3366213 ], [ 80.3338368, 22.3341154 ], [ 80.3440933, 22.3298506 ], [ 80.3462827, 22.3271012 ], [ 80.3427842, 22.323994 ], [ 80.3408928, 22.3185707 ], [ 80.3412379, 22.3159202 ], [ 80.336653, 22.3116793 ], [ 80.3340683, 22.3055695 ], [ 80.3360596, 22.2989414 ], [ 80.3580745, 22.3007287 ], [ 80.3626455, 22.2995551 ], [ 80.3711032, 22.3009733 ], [ 80.3849234, 22.3092496 ], [ 80.3872912, 22.3063823 ], [ 80.3997475, 22.3044618 ], [ 80.4001058, 22.3005469 ], [ 80.4034088, 22.2931186 ], [ 80.4211092, 22.2781957 ], [ 80.4197694, 22.2757487 ], [ 80.421447, 22.2725604 ], [ 80.4211162, 22.269752 ], [ 80.4176535, 22.2580446 ], [ 80.4155152, 22.2441781 ], [ 80.4222671, 22.2443974 ], [ 80.4259833, 22.2464102 ], [ 80.4468209, 22.2460862 ], [ 80.4485584, 22.2478825 ], [ 80.4510695, 22.2633152 ], [ 80.4649929, 22.2643692 ], [ 80.4604891, 22.2770914 ], [ 80.4622914, 22.2808247 ], [ 80.4669431, 22.2790791 ], [ 80.4831807, 22.2780079 ], [ 80.4851746, 22.271667 ], [ 80.4874534, 22.2700716 ], [ 80.4944842, 22.2715611 ], [ 80.5023071, 22.2713353 ], [ 80.5078535, 22.2756741 ], [ 80.515636, 22.262305 ], [ 80.5174115, 22.26227 ], [ 80.5181811, 22.2645056 ], [ 80.5191868, 22.2624834 ], [ 80.5209188, 22.2622904 ], [ 80.5239198, 22.2647848 ], [ 80.5262776, 22.2646327 ], [ 80.5251386, 22.2493969 ], [ 80.5322069, 22.240569 ], [ 80.5799191, 22.22651 ], [ 80.5956996, 22.2305774 ], [ 80.5982455, 22.2322757 ], [ 80.6078539, 22.2278925 ], [ 80.6373266, 22.2261951 ], [ 80.6458866, 22.2274743 ], [ 80.6591393, 22.2194955 ], [ 80.6617054, 22.2217436 ], [ 80.6641885, 22.2220726 ], [ 80.6816146, 22.212996 ], [ 80.6911483, 22.2125951 ], [ 80.6998287, 22.2035785 ], [ 80.706248, 22.2021576 ], [ 80.7131696, 22.2055767 ], [ 80.7208871, 22.2163189 ], [ 80.7280311, 22.2173305 ], [ 80.728557, 22.2202742 ], [ 80.7242512, 22.2349113 ], [ 80.7177717, 22.2353486 ], [ 80.7034697, 22.2546236 ], [ 80.7052902, 22.2570113 ], [ 80.7039492, 22.2704949 ], [ 80.7085704, 22.2750305 ], [ 80.7111348, 22.2716561 ], [ 80.7166125, 22.2723531 ], [ 80.7188046, 22.2714351 ], [ 80.7231752, 22.277447 ], [ 80.7448096, 22.2844944 ], [ 80.7434096, 22.2871053 ], [ 80.7454164, 22.2905717 ], [ 80.7468623, 22.290548 ], [ 80.746418, 22.2929595 ], [ 80.7488387, 22.2967694 ], [ 80.7505464, 22.2970777 ], [ 80.7525178, 22.3012198 ], [ 80.7548032, 22.301217 ], [ 80.7573663, 22.3057613 ], [ 80.7595883, 22.3064807 ], [ 80.7617601, 22.3092051 ], [ 80.7659044, 22.3089099 ], [ 80.7657661, 22.312066 ], [ 80.7697826, 22.3141638 ], [ 80.7720889, 22.3125533 ], [ 80.7737016, 22.3172503 ], [ 80.7765324, 22.3151162 ], [ 80.7788747, 22.3174159 ], [ 80.7824953, 22.3169078 ], [ 80.7849482, 22.313622 ], [ 80.7879084, 22.3137185 ], [ 80.7920727, 22.3210625 ], [ 80.7904261, 22.3231929 ], [ 80.790716, 22.3254643 ], [ 80.794646, 22.3275298 ], [ 80.7950529, 22.328871 ], [ 80.7921126, 22.3415103 ], [ 80.7941303, 22.355055 ], [ 80.8022262, 22.3663877 ], [ 80.794031, 22.3757757 ], [ 80.7950292, 22.3791943 ], [ 80.800896, 22.3849089 ], [ 80.8014775, 22.387203 ], [ 80.7953621, 22.4000461 ], [ 80.7982263, 22.4014563 ], [ 80.8065455, 22.3991888 ], [ 80.811269, 22.4019677 ], [ 80.8109107, 22.3996015 ] ] ] } }
]
}
