{
"type": "FeatureCollection",
"name": "2401",
"crs": { "type": "name", "properties": { "name": "urn:ogc:def:crs:OGC:1.3:CRS84" } },
"features": [
{ "type": "Feature", "properties": { "code": "2401", "name": "Kachchh", "type": "district" }, "geometry": { "type": "MultiPolygon", "coordinates": [ [ [ [ 70.2578089, 23.1706423 ], [ 70.2566199, 23.170621 ], [ 70.256464, 23.1737747 ], [ 70.257648, 23.1738043 ], [ 70.2578089, 23.1706423 ] ] ], [ [ [ 70.2525409, 23.1758423 ], [ 70.2559886, 23.175383 ], [ 70.2536054, 23.1745733 ], [ 70.2538352, 23.1710874 ], [ 70.2526089, 23.170875 ], [ 70.2521715, 23.1754846 ], [ 70.2497828, 23.1752831 ], [ 70.2495696, 23.1769774 ], [ 70.25268, 23.1774047 ], [ 70.2525409, 23.1758423 ] ] ], [ [ [ 68.5253186, 23.6896864 ], [ 68.5340208, 23.688536 ], [ 68.5303706, 23.6866404 ], [ 68.5306321, 23.6835544 ], [ 68.5324621, 23.6813344 ], [ 68.5293705, 23.6791475 ], [ 68.5311021, 23.6773472 ], [ 68.5298092, 23.6756851 ], [ 68.5320396, 23.6756142 ], [ 68.5336504, 23.6782155 ], [ 68.5354298, 23.6782662 ], [ 68.5343811, 23.6849743 ], [ 68.5385671, 23.6856447 ], [ 68.5381169, 23.6844346 ], [ 68.5442065, 23.6823431 ], [ 68.5434193, 23.6790245 ], [ 68.5474265, 23.6749544 ], [ 68.5439508, 23.6729306 ], [ 68.5436887, 23.6713137 ], [ 68.5389494, 23.6705257 ], [ 68.536188, 23.6733458 ], [ 68.5286978, 23.6739959 ], [ 68.529309, 23.669247 ], [ 68.5311194, 23.6667154 ], [ 68.5335004, 23.6682473 ], [ 68.5352609, 23.6670564 ], [ 68.5321893, 23.6646665 ], [ 68.5320286, 23.6632669 ], [ 68.5339115, 23.6620761 ], [ 68.5307496, 23.6629771 ], [ 68.5270307, 23.6613451 ], [ 68.5243221, 23.6590364 ], [ 68.5247005, 23.6575559 ], [ 68.52253, 23.656778 ], [ 68.5228697, 23.6547377 ], [ 68.525668, 23.6548975 ], [ 68.5220424, 23.6534775 ], [ 68.5209028, 23.6567588 ], [ 68.5241728, 23.6619166 ], [ 68.5266219, 23.6772858 ], [ 68.5271396, 23.6865455 ], [ 68.5253186, 23.6896864 ] ] ], [ [ [ 71.3007421, 24.5794647 ], [ 71.3010558, 24.5748334 ], [ 71.2991144, 24.5774235 ], [ 71.2989361, 24.5699347 ], [ 71.2972663, 24.5643274 ], [ 71.2957555, 24.5649857 ], [ 71.2945425, 24.5630575 ], [ 71.2926371, 24.5634538 ], [ 71.2910145, 24.5614758 ], [ 71.2860361, 24.5593062 ], [ 71.2893945, 24.5558278 ], [ 71.2857539, 24.5533475 ], [ 71.2807155, 24.5526583 ], [ 71.2780887, 24.547777 ], [ 71.278874, 24.5470553 ], [ 71.2757664, 24.545049 ], [ 71.2783865, 24.5456466 ], [ 71.2707188, 24.537936 ], [ 71.2664862, 24.536299 ], [ 71.2663892, 24.5343082 ], [ 71.2631761, 24.5351185 ], [ 71.2602268, 24.5333783 ], [ 71.2567566, 24.5081421 ], [ 71.2586474, 24.5067306 ], [ 71.269089, 24.5098394 ], [ 71.2923646, 24.5191482 ], [ 71.3484689, 24.5176107 ], [ 71.3453176, 24.5000012 ], [ 71.3390369, 24.4935224 ], [ 71.3334812, 24.4821411 ], [ 71.33398, 24.479821 ], [ 71.3313513, 24.4793598 ], [ 71.3352785, 24.4757722 ], [ 71.3363872, 24.4793611 ], [ 71.3423169, 24.4754127 ], [ 71.3418686, 24.4735708 ], [ 71.3338696, 24.4701743 ], [ 71.3354386, 24.468211 ], [ 71.3378994, 24.4693808 ], [ 71.3414462, 24.4665738 ], [ 71.3443857, 24.4661907 ], [ 71.3492157, 24.4575832 ], [ 71.3465874, 24.4562421 ], [ 71.3441757, 24.4573025 ], [ 71.3376369, 24.4559423 ], [ 71.3311503, 24.4608519 ], [ 71.3224591, 24.4526336 ], [ 71.3204994, 24.4455232 ], [ 71.3206825, 24.4439162 ], [ 71.3240704, 24.4430642 ], [ 71.3361501, 24.4304236 ], [ 71.3437871, 24.4319466 ], [ 71.3430096, 24.4254145 ], [ 71.3412154, 24.4241547 ], [ 71.3377293, 24.4257158 ], [ 71.3332692, 24.419607 ], [ 71.3242397, 24.4135961 ], [ 71.3222311, 24.4067881 ], [ 71.3189795, 24.4022773 ], [ 71.3205919, 24.4010275 ], [ 71.3212398, 24.39585 ], [ 71.3229608, 24.394221 ], [ 71.3346675, 24.3936106 ], [ 71.3393754, 24.3912192 ], [ 71.3425098, 24.393179 ], [ 71.3473552, 24.3925299 ], [ 71.3478585, 24.3895371 ], [ 71.3460551, 24.3867786 ], [ 71.3495249, 24.3873977 ], [ 71.3525952, 24.3897996 ], [ 71.3529257, 24.3875472 ], [ 71.3661052, 24.3915298 ], [ 71.3670665, 24.3900086 ], [ 71.3661153, 24.3879501 ], [ 71.3620149, 24.3840812 ], [ 71.3660663, 24.382181 ], [ 71.364923, 24.3811382 ], [ 71.3664854, 24.3803077 ], [ 71.3671954, 24.3758703 ], [ 71.3698419, 24.3760104 ], [ 71.3735529, 24.3785293 ], [ 71.3727842, 24.3757802 ], [ 71.3743513, 24.3745794 ], [ 71.3718526, 24.373329 ], [ 71.372454, 24.3705618 ], [ 71.3764309, 24.365682 ], [ 71.377781, 24.3619126 ], [ 71.3808214, 24.3598992 ], [ 71.3831025, 24.3537598 ], [ 71.3807914, 24.3531821 ], [ 71.3840237, 24.3507217 ], [ 71.3825996, 24.3498641 ], [ 71.3758738, 24.3534215 ], [ 71.3711139, 24.3508123 ], [ 71.3741245, 24.3488125 ], [ 71.381954, 24.3479908 ], [ 71.3816238, 24.3456931 ], [ 71.3779923, 24.3433909 ], [ 71.3782336, 24.3392921 ], [ 71.3761149, 24.3378341 ], [ 71.3748044, 24.3338932 ], [ 71.3714936, 24.3353829 ], [ 71.3707841, 24.3330536 ], [ 71.3666359, 24.331663 ], [ 71.3633645, 24.3331435 ], [ 71.3623253, 24.3294419 ], [ 71.3606846, 24.3303852 ], [ 71.3576352, 24.3290126 ], [ 71.3535164, 24.3302038 ], [ 71.3511274, 24.3280818 ], [ 71.3485163, 24.3284741 ], [ 71.3480684, 24.326375 ], [ 71.3422351, 24.3280532 ], [ 71.3325264, 24.3234554 ], [ 71.3253682, 24.3237829 ], [ 71.3255266, 24.3219456 ], [ 71.319831, 24.3236726 ], [ 71.3210975, 24.3226438 ], [ 71.3211777, 24.3193937 ], [ 71.3186012, 24.3195643 ], [ 71.3166811, 24.3170356 ], [ 71.3141517, 24.3220725 ], [ 71.3104128, 24.3118057 ], [ 71.3074129, 24.3117954 ], [ 71.3065624, 24.3086261 ], [ 71.3031095, 24.3084439 ], [ 71.3036525, 24.3065256 ], [ 71.3013621, 24.3063846 ], [ 71.2995021, 24.3030478 ], [ 71.2961325, 24.3038947 ], [ 71.2964343, 24.3015972 ], [ 71.2945926, 24.3009868 ], [ 71.2945904, 24.2963959 ], [ 71.2978139, 24.2925966 ], [ 71.2980325, 24.2894187 ], [ 71.3002997, 24.2864675 ], [ 71.3018214, 24.2867074 ], [ 71.2998332, 24.2842372 ], [ 71.3032817, 24.2819998 ], [ 71.3006521, 24.2816781 ], [ 71.3009438, 24.2796784 ], [ 71.3031603, 24.2788579 ], [ 71.3009696, 24.2775884 ], [ 71.3046305, 24.2741593 ], [ 71.3033406, 24.2734364 ], [ 71.3050013, 24.2714284 ], [ 71.2998939, 24.2728208 ], [ 71.301363, 24.2700002 ], [ 71.2998905, 24.270189 ], [ 71.2984304, 24.266121 ], [ 71.2971944, 24.2661385 ], [ 71.2998609, 24.2616888 ], [ 71.3027327, 24.259749 ], [ 71.2968299, 24.2581211 ], [ 71.2912308, 24.259188 ], [ 71.2892619, 24.2582886 ], [ 71.2860943, 24.260571 ], [ 71.2847235, 24.2633284 ], [ 71.285264, 24.2649583 ], [ 71.2837961, 24.2658287 ], [ 71.2796765, 24.2631086 ], [ 71.2770223, 24.2633914 ], [ 71.2763068, 24.2589399 ], [ 71.2742446, 24.2577694 ], [ 71.2774446, 24.2517901 ], [ 71.277106, 24.2504221 ], [ 71.2827879, 24.2500689 ], [ 71.282267, 24.2486692 ], [ 71.2838972, 24.2480697 ], [ 71.285398, 24.2420531 ], [ 71.2860876, 24.2486623 ], [ 71.2894894, 24.2491924 ], [ 71.2906083, 24.2472113 ], [ 71.2917697, 24.2481509 ], [ 71.292506, 24.2438402 ], [ 71.2890595, 24.2441498 ], [ 71.2883, 24.238633 ], [ 71.2858271, 24.2409293 ], [ 71.2856071, 24.2386405 ], [ 71.2797995, 24.2365515 ], [ 71.2852679, 24.2308532 ], [ 71.2885373, 24.229731 ], [ 71.2879966, 24.2286428 ], [ 71.2905095, 24.2250644 ], [ 71.2926152, 24.2267629 ], [ 71.2954759, 24.2257713 ], [ 71.2981459, 24.2226442 ], [ 71.2997851, 24.2225231 ], [ 71.3021858, 24.2250929 ], [ 71.3034961, 24.2234233 ], [ 71.3099551, 24.2220944 ], [ 71.3101533, 24.2193724 ], [ 71.3066142, 24.2192039 ], [ 71.3041342, 24.2176228 ], [ 71.3049177, 24.216025 ], [ 71.3002177, 24.2148357 ], [ 71.3029142, 24.2074741 ], [ 71.3049077, 24.2073035 ], [ 71.308646, 24.2021454 ], [ 71.3114456, 24.2038123 ], [ 71.3175363, 24.1979642 ], [ 71.3271828, 24.1972542 ], [ 71.3297228, 24.195693 ], [ 71.3299202, 24.1943749 ], [ 71.3255908, 24.1902746 ], [ 71.3259532, 24.1821536 ], [ 71.3336544, 24.1821468 ], [ 71.3384315, 24.1857368 ], [ 71.3483421, 24.1878153 ], [ 71.3595771, 24.1874647 ], [ 71.3607387, 24.1857268 ], [ 71.3563694, 24.1815236 ], [ 71.3607002, 24.1773844 ], [ 71.3583682, 24.1731769 ], [ 71.354481, 24.1726167 ], [ 71.3494123, 24.175645 ], [ 71.3451809, 24.1740282 ], [ 71.3454018, 24.1769083 ], [ 71.3435514, 24.1772646 ], [ 71.3423907, 24.1752059 ], [ 71.34531, 24.168575 ], [ 71.3375421, 24.1637791 ], [ 71.3351606, 24.1642165 ], [ 71.3333935, 24.166866 ], [ 71.3305946, 24.1643552 ], [ 71.3300117, 24.1711174 ], [ 71.328924, 24.1719568 ], [ 71.3275614, 24.1708549 ], [ 71.3273317, 24.1664759 ], [ 71.3249413, 24.1643083 ], [ 71.3143825, 24.1641195 ], [ 71.3094072, 24.166176 ], [ 71.3056263, 24.1607663 ], [ 71.3021237, 24.159907 ], [ 71.2985855, 24.161088 ], [ 71.2952463, 24.1665667 ], [ 71.2871953, 24.1686254 ], [ 71.2822366, 24.174008 ], [ 71.2727676, 24.1763269 ], [ 71.2696981, 24.1750653 ], [ 71.2719294, 24.1721958 ], [ 71.2686179, 24.1720987 ], [ 71.2670403, 24.1699578 ], [ 71.2670181, 24.167019 ], [ 71.2575931, 24.1589678 ], [ 71.2610523, 24.1584466 ], [ 71.2639784, 24.1599475 ], [ 71.2678019, 24.1592189 ], [ 71.2776366, 24.1533478 ], [ 71.2807561, 24.1528397 ], [ 71.2818501, 24.1503078 ], [ 71.2854862, 24.1497095 ], [ 71.2792201, 24.1474893 ], [ 71.2772392, 24.1451497 ], [ 71.2717987, 24.1446812 ], [ 71.2727802, 24.1413999 ], [ 71.2745872, 24.1394193 ], [ 71.2797779, 24.1381992 ], [ 71.2834797, 24.1345404 ], [ 71.2821775, 24.1326301 ], [ 71.2938451, 24.1331919 ], [ 71.3017375, 24.1291781 ], [ 71.3024971, 24.1252961 ], [ 71.3043958, 24.1251841 ], [ 71.3019977, 24.1212782 ], [ 71.3056229, 24.1206659 ], [ 71.3108457, 24.1221849 ], [ 71.3129124, 24.1202582 ], [ 71.3249827, 24.1197163 ], [ 71.3266314, 24.1169946 ], [ 71.3284022, 24.1164986 ], [ 71.3315195, 24.1196775 ], [ 71.3336109, 24.1163465 ], [ 71.3363833, 24.1049577 ], [ 71.322852, 24.0971801 ], [ 71.3180622, 24.0972687 ], [ 71.3163514, 24.0961079 ], [ 71.3169727, 24.0923477 ], [ 71.3138647, 24.08209 ], [ 71.3175244, 24.0787102 ], [ 71.3113358, 24.0748886 ], [ 71.315664, 24.0718793 ], [ 71.312145, 24.0691693 ], [ 71.3126228, 24.0673412 ], [ 71.3079821, 24.0660707 ], [ 71.3048571, 24.06267 ], [ 71.3082918, 24.0565591 ], [ 71.3218817, 24.0522803 ], [ 71.3191706, 24.0461534 ], [ 71.3009169, 24.0317224 ], [ 71.2916053, 24.0197456 ], [ 71.2885447, 24.0103948 ], [ 71.2886539, 24.0012848 ], [ 71.2850192, 23.991639 ], [ 71.29538, 23.9870084 ], [ 71.3038198, 23.9898881 ], [ 71.3092181, 23.9933304 ], [ 71.3190839, 23.9837592 ], [ 71.3145071, 23.9784306 ], [ 71.3046286, 23.9750271 ], [ 71.2982314, 23.9673857 ], [ 71.297409, 23.9624105 ], [ 71.3015495, 23.9550224 ], [ 71.29828, 23.9522161 ], [ 71.2914327, 23.9509724 ], [ 71.2888677, 23.9484497 ], [ 71.3019789, 23.9334889 ], [ 71.2979756, 23.9342905 ], [ 71.2995019, 23.9276822 ], [ 71.2797731, 23.9282357 ], [ 71.2742678, 23.9344305 ], [ 71.2707769, 23.9330153 ], [ 71.275427, 23.9278042 ], [ 71.2730442, 23.9225478 ], [ 71.2650551, 23.9212196 ], [ 71.2621593, 23.9250232 ], [ 71.2602624, 23.9320237 ], [ 71.2531053, 23.9332823 ], [ 71.247711, 23.9297838 ], [ 71.2476731, 23.9284882 ], [ 71.2543899, 23.9214038 ], [ 71.2388523, 23.9186115 ], [ 71.2330182, 23.9301456 ], [ 71.2182149, 23.9361144 ], [ 71.1994573, 23.9269967 ], [ 71.1935164, 23.9209412 ], [ 71.18702, 23.9225647 ], [ 71.1776875, 23.930658 ], [ 71.1758641, 23.9274309 ], [ 71.1772777, 23.9254395 ], [ 71.1761411, 23.9202258 ], [ 71.1684015, 23.9200702 ], [ 71.1651891, 23.9180713 ], [ 71.1600671, 23.9184834 ], [ 71.1580003, 23.9206192 ], [ 71.154434, 23.9166924 ], [ 71.1455648, 23.915466 ], [ 71.1398041, 23.9124646 ], [ 71.1402508, 23.9103608 ], [ 71.13096, 23.9096573 ], [ 71.1274636, 23.9111517 ], [ 71.1279055, 23.9080909 ], [ 71.1192583, 23.90531 ], [ 71.1034517, 23.9059227 ], [ 71.0974421, 23.9020033 ], [ 71.086218, 23.8827107 ], [ 71.0797596, 23.8749803 ], [ 71.0694674, 23.8454119 ], [ 71.0711221, 23.8439272 ], [ 71.069346, 23.8423781 ], [ 71.068197, 23.843723 ], [ 71.0665774, 23.8433116 ], [ 71.0648029, 23.8385753 ], [ 71.0637527, 23.8384258 ], [ 71.067599, 23.8303961 ], [ 71.0698904, 23.8314533 ], [ 71.0700185, 23.8301215 ], [ 71.0718932, 23.8301493 ], [ 71.0719871, 23.8285106 ], [ 71.0743079, 23.8298566 ], [ 71.0721167, 23.8233325 ], [ 71.0667774, 23.8239446 ], [ 71.0663641, 23.8264635 ], [ 71.0641409, 23.82658 ], [ 71.0634742, 23.8250404 ], [ 71.0633778, 23.8213249 ], [ 71.0696694, 23.8199232 ], [ 71.0693223, 23.8170564 ], [ 71.0653921, 23.8158993 ], [ 71.0612066, 23.8054691 ], [ 71.057443, 23.8059055 ], [ 71.053884, 23.8090956 ], [ 71.0492475, 23.8084209 ], [ 71.0465968, 23.8095334 ], [ 71.0431165, 23.8046121 ], [ 71.0444939, 23.7905276 ], [ 71.0547189, 23.788993 ], [ 71.0559466, 23.7867905 ], [ 71.055982, 23.7845784 ], [ 71.0542656, 23.7835844 ], [ 71.054302, 23.7795801 ], [ 71.056397, 23.7788768 ], [ 71.0570653, 23.776859 ], [ 71.0554124, 23.7763031 ], [ 71.0553198, 23.775048 ], [ 71.0566297, 23.7749628 ], [ 71.0547133, 23.771707 ], [ 71.0553174, 23.7704522 ], [ 71.0539051, 23.7694313 ], [ 71.0564815, 23.7672023 ], [ 71.0545183, 23.7601949 ], [ 71.0586555, 23.7553211 ], [ 71.056751, 23.7487315 ], [ 71.0538245, 23.7457913 ], [ 71.0537471, 23.7437913 ], [ 71.0598396, 23.7411665 ], [ 71.0648563, 23.7416696 ], [ 71.0728056, 23.730368 ], [ 71.0687749, 23.7297076 ], [ 71.0681413, 23.7321858 ], [ 71.0652326, 23.7338551 ], [ 71.0632123, 23.7335067 ], [ 71.0618428, 23.7361336 ], [ 71.0571245, 23.7374499 ], [ 71.0574705, 23.7321545 ], [ 71.0590749, 23.7304712 ], [ 71.0570888, 23.720859 ], [ 71.0615974, 23.7056017 ], [ 71.0680773, 23.6978933 ], [ 71.066883, 23.6935092 ], [ 71.0695176, 23.6885668 ], [ 71.0687194, 23.6866523 ], [ 71.053764, 23.6845741 ], [ 71.047751, 23.6812756 ], [ 71.0392317, 23.6808875 ], [ 71.0353321, 23.6701317 ], [ 71.0345731, 23.6617567 ], [ 71.0365297, 23.6455053 ], [ 71.0388176, 23.6389649 ], [ 71.0469407, 23.6250959 ], [ 71.0523429, 23.6203401 ], [ 71.0602799, 23.6213864 ], [ 71.0634639, 23.6230445 ], [ 71.0683324, 23.6161841 ], [ 71.0681429, 23.6123602 ], [ 71.0662482, 23.6090638 ], [ 71.0690221, 23.6070062 ], [ 71.0743575, 23.6064482 ], [ 71.080827, 23.5985314 ], [ 71.0861706, 23.6020542 ], [ 71.0848427, 23.6031645 ], [ 71.0927049, 23.6067373 ], [ 71.0912544, 23.6082449 ], [ 71.0921066, 23.6088591 ], [ 71.0907143, 23.6126646 ], [ 71.08574, 23.6175031 ], [ 71.0894227, 23.6245513 ], [ 71.0948615, 23.6247962 ], [ 71.0940258, 23.6150219 ], [ 71.0966519, 23.6147786 ], [ 71.1203897, 23.6246588 ], [ 71.1355404, 23.6278502 ], [ 71.1395686, 23.6317414 ], [ 71.1389568, 23.637457 ], [ 71.1374036, 23.6390236 ], [ 71.1367131, 23.644071 ], [ 71.1316556, 23.6431639 ], [ 71.1320383, 23.6503872 ], [ 71.1310484, 23.6518952 ], [ 71.136754, 23.6614566 ], [ 71.1366416, 23.6640481 ], [ 71.149572, 23.6682359 ], [ 71.1503715, 23.6708994 ], [ 71.1495339, 23.6737482 ], [ 71.1432991, 23.6742051 ], [ 71.1492313, 23.6801951 ], [ 71.1488888, 23.683563 ], [ 71.157156, 23.692902 ], [ 71.1573476, 23.6946898 ], [ 71.1616091, 23.6986797 ], [ 71.1642213, 23.6992699 ], [ 71.1808005, 23.7159374 ], [ 71.1796537, 23.7172967 ], [ 71.1735281, 23.7137593 ], [ 71.171057, 23.714004 ], [ 71.1673262, 23.7155851 ], [ 71.1622286, 23.7215141 ], [ 71.1591825, 23.7176593 ], [ 71.1602853, 23.7161513 ], [ 71.1589172, 23.7155873 ], [ 71.1579259, 23.7125041 ], [ 71.1520668, 23.7129973 ], [ 71.1504688, 23.7155213 ], [ 71.1519947, 23.7199723 ], [ 71.1506611, 23.7202209 ], [ 71.1471594, 23.7168175 ], [ 71.1445754, 23.7169578 ], [ 71.1456006, 23.7193774 ], [ 71.1441541, 23.7196936 ], [ 71.1443456, 23.7207455 ], [ 71.1478477, 23.7269886 ], [ 71.1442734, 23.7300409 ], [ 71.1774961, 23.7289133 ], [ 71.1730092, 23.7419257 ], [ 71.1746874, 23.744345 ], [ 71.1820273, 23.7402026 ], [ 71.1838329, 23.7420302 ], [ 71.1896185, 23.7392243 ], [ 71.1901062, 23.7340324 ], [ 71.1958169, 23.7385173 ], [ 71.2069395, 23.7386878 ], [ 71.2177268, 23.7294674 ], [ 71.2172652, 23.7216621 ], [ 71.2251979, 23.7139191 ], [ 71.2179991, 23.6989761 ], [ 71.2237756, 23.6941013 ], [ 71.2239229, 23.6879388 ], [ 71.2133032, 23.6785234 ], [ 71.2206376, 23.666894 ], [ 71.2218453, 23.6563878 ], [ 71.2281177, 23.655228 ], [ 71.2428457, 23.6557547 ], [ 71.2626636, 23.6494298 ], [ 71.2761749, 23.6496195 ], [ 71.3043319, 23.6457204 ], [ 71.3336026, 23.6488142 ], [ 71.3466714, 23.6554039 ], [ 71.3510529, 23.6563752 ], [ 71.3614189, 23.6518392 ], [ 71.3755431, 23.6497223 ], [ 71.3753814, 23.6434967 ], [ 71.377415, 23.6397496 ], [ 71.3834764, 23.6344628 ], [ 71.3862979, 23.6231535 ], [ 71.3922641, 23.6113337 ], [ 71.3938355, 23.6028099 ], [ 71.4048801, 23.6115754 ], [ 71.4147166, 23.6229996 ], [ 71.4191122, 23.6244159 ], [ 71.4250771, 23.6288249 ], [ 71.4233009, 23.6096339 ], [ 71.4267719, 23.6032851 ], [ 71.4166719, 23.5785979 ], [ 71.4164695, 23.5739162 ], [ 71.4185685, 23.5673243 ], [ 71.4221719, 23.5636347 ], [ 71.4306253, 23.5639344 ], [ 71.4523838, 23.5614463 ], [ 71.4570986, 23.5590873 ], [ 71.4734586, 23.5561521 ], [ 71.4481526, 23.536004 ], [ 71.4452228, 23.4693478 ], [ 71.4534754, 23.4712535 ], [ 71.4646648, 23.4803219 ], [ 71.4773816, 23.4938173 ], [ 71.4949017, 23.5002832 ], [ 71.5081124, 23.5115578 ], [ 71.5080191, 23.5173996 ], [ 71.5119063, 23.5234476 ], [ 71.5149658, 23.5240186 ], [ 71.5202947, 23.5278145 ], [ 71.5193823, 23.5000074 ], [ 71.5106402, 23.4924797 ], [ 71.5075206, 23.4873902 ], [ 71.5061505, 23.4668618 ], [ 71.5080103, 23.4562626 ], [ 71.518219, 23.4622921 ], [ 71.5200989, 23.4685115 ], [ 71.5337456, 23.478909 ], [ 71.5321474, 23.4610421 ], [ 71.534547, 23.4593422 ], [ 71.542566, 23.4592922 ], [ 71.5478853, 23.4558924 ], [ 71.5541445, 23.4428134 ], [ 71.5612436, 23.4404136 ], [ 71.5618235, 23.4378038 ], [ 71.5601137, 23.4311843 ], [ 71.5681126, 23.4191752 ], [ 71.5690124, 23.4165354 ], [ 71.5683025, 23.4140657 ], [ 71.5700123, 23.4116258 ], [ 71.5760116, 23.4124257 ], [ 71.581181, 23.4168853 ], [ 71.5831107, 23.4165253 ], [ 71.5874002, 23.420705 ], [ 71.5927296, 23.4231248 ], [ 71.5943694, 23.4232448 ], [ 71.5940794, 23.4214449 ], [ 71.6012685, 23.4250446 ], [ 71.6028484, 23.4237047 ], [ 71.6002987, 23.4209748 ], [ 71.596679, 23.419925 ], [ 71.5939694, 23.4156853 ], [ 71.58917, 23.4135455 ], [ 71.5817708, 23.4056162 ], [ 71.5803809, 23.4018765 ], [ 71.5809808, 23.4002667 ], [ 71.5892398, 23.3971869 ], [ 71.5721518, 23.3905374 ], [ 71.5704221, 23.3882276 ], [ 71.5696021, 23.3816582 ], [ 71.5637829, 23.3728989 ], [ 71.5665324, 23.3690392 ], [ 71.5819005, 23.3708889 ], [ 71.5834404, 23.3690091 ], [ 71.5845402, 23.3719388 ], [ 71.5916694, 23.3750286 ], [ 71.594379, 23.3777383 ], [ 71.5994784, 23.3780483 ], [ 71.6009082, 23.3768084 ], [ 71.6007683, 23.3751485 ], [ 71.5911194, 23.3712788 ], [ 71.5890597, 23.3668493 ], [ 71.5828904, 23.3639995 ], [ 71.578021, 23.3646895 ], [ 71.5667524, 23.3618298 ], [ 71.5618229, 23.3577701 ], [ 71.561563, 23.3523506 ], [ 71.5631528, 23.3519506 ], [ 71.5836103, 23.3631096 ], [ 71.5866198, 23.3598198 ], [ 71.5859899, 23.3561001 ], [ 71.5871298, 23.3555202 ], [ 71.5948889, 23.3551701 ], [ 71.6033977, 23.3514103 ], [ 71.6160462, 23.3545501 ], [ 71.6219654, 23.3492505 ], [ 71.6294145, 23.3487405 ], [ 71.6351338, 23.342091 ], [ 71.641383, 23.3382912 ], [ 71.6438826, 23.3336716 ], [ 71.6468923, 23.3313817 ], [ 71.6465223, 23.3286619 ], [ 71.6514416, 23.3184827 ], [ 71.6457823, 23.3119532 ], [ 71.6438025, 23.3052138 ], [ 71.6287343, 23.2935948 ], [ 71.6290542, 23.2915149 ], [ 71.6321339, 23.292015 ], [ 71.6338236, 23.2889352 ], [ 71.6359033, 23.290035 ], [ 71.6355633, 23.2847954 ], [ 71.6391929, 23.2837355 ], [ 71.6396928, 23.2864154 ], [ 71.6412726, 23.2842255 ], [ 71.6414326, 23.2810057 ], [ 71.6466919, 23.2787859 ], [ 71.6517213, 23.2819056 ], [ 71.6517813, 23.2854153 ], [ 71.6591804, 23.2905049 ], [ 71.6597603, 23.288675 ], [ 71.6625301, 23.289725 ], [ 71.6666936, 23.288045 ], [ 71.6713089, 23.288135 ], [ 71.6740586, 23.2901848 ], [ 71.6727188, 23.2933946 ], [ 71.6745686, 23.2931946 ], [ 71.6774082, 23.288665 ], [ 71.6767783, 23.2856851 ], [ 71.6745429, 23.2834828 ], [ 71.6767844, 23.278593 ], [ 71.6758183, 23.274846 ], [ 71.672215, 23.2724495 ], [ 71.6697359, 23.2743945 ], [ 71.6636661, 23.2731915 ], [ 71.6602632, 23.2744698 ], [ 71.6634896, 23.2667819 ], [ 71.65963, 23.2601339 ], [ 71.6665337, 23.2571352 ], [ 71.6778206, 23.2579918 ], [ 71.6821229, 23.2542351 ], [ 71.6846471, 23.2499279 ], [ 71.6867168, 23.249358 ], [ 71.6914762, 23.2526877 ], [ 71.6949258, 23.2527377 ], [ 71.6965556, 23.2515178 ], [ 71.6971455, 23.248218 ], [ 71.6962056, 23.2437583 ], [ 71.6880066, 23.2404986 ], [ 71.6819573, 23.2398188 ], [ 71.6618498, 23.2413288 ], [ 71.6536407, 23.2368391 ], [ 71.651971, 23.2345493 ], [ 71.6535708, 23.2323795 ], [ 71.6593801, 23.2315695 ], [ 71.6638094, 23.2287997 ], [ 71.667379, 23.2294096 ], [ 71.6706486, 23.2264399 ], [ 71.6662192, 23.2235801 ], [ 71.6656292, 23.2173306 ], [ 71.6575301, 23.2075915 ], [ 71.6650792, 23.2072314 ], [ 71.6652792, 23.2059316 ], [ 71.6723382, 23.2045217 ], [ 71.6767777, 23.2020618 ], [ 71.6780875, 23.199082 ], [ 71.6778375, 23.1955423 ], [ 71.6829568, 23.1845331 ], [ 71.6847866, 23.1827333 ], [ 71.689256, 23.1819333 ], [ 71.697895, 23.1886628 ], [ 71.7089938, 23.2008917 ], [ 71.7206223, 23.1986518 ], [ 71.7211422, 23.1972719 ], [ 71.7132232, 23.1939722 ], [ 71.706364, 23.1851229 ], [ 71.7001346, 23.1753338 ], [ 71.7027942, 23.172594 ], [ 71.7083536, 23.1687242 ], [ 71.7201421, 23.1651044 ], [ 71.7239316, 23.1652044 ], [ 71.7268613, 23.1669942 ], [ 71.7269512, 23.1692641 ], [ 71.7304108, 23.1705339 ], [ 71.7304409, 23.1754236 ], [ 71.7323407, 23.1771034 ], [ 71.7398798, 23.1769734 ], [ 71.7419994, 23.1795432 ], [ 71.7484687, 23.1781033 ], [ 71.7506146, 23.1755173 ], [ 71.7501506, 23.1676769 ], [ 71.7541127, 23.1654812 ], [ 71.7585122, 23.1598454 ], [ 71.7624104, 23.1577443 ], [ 71.7626812, 23.1550581 ], [ 71.7596735, 23.1491325 ], [ 71.7593275, 23.1426489 ], [ 71.7535745, 23.1392765 ], [ 71.7472632, 23.1379804 ], [ 71.7448828, 23.1359377 ], [ 71.7464376, 23.1334874 ], [ 71.7499998, 23.1325952 ], [ 71.7530181, 23.1281785 ], [ 71.7593133, 23.1249506 ], [ 71.7611796, 23.1171592 ], [ 71.7579979, 23.1161862 ], [ 71.7557156, 23.1193134 ], [ 71.749504, 23.122117 ], [ 71.7485183, 23.1195079 ], [ 71.7455686, 23.1219578 ], [ 71.7359498, 23.119468 ], [ 71.73466, 23.1160582 ], [ 71.7330302, 23.1160882 ], [ 71.7316403, 23.1136685 ], [ 71.7275608, 23.1117486 ], [ 71.726011, 23.107009 ], [ 71.7265009, 23.1041992 ], [ 71.7224114, 23.1035593 ], [ 71.7251211, 23.0990996 ], [ 71.7235612, 23.0940401 ], [ 71.7220314, 23.0928302 ], [ 71.7213614, 23.09432 ], [ 71.7198317, 23.0907703 ], [ 71.7103129, 23.09529 ], [ 71.7107628, 23.1026695 ], [ 71.7083132, 23.1156484 ], [ 71.701984, 23.1203081 ], [ 71.6899556, 23.1246578 ], [ 71.6893257, 23.1311674 ], [ 71.6853261, 23.1290575 ], [ 71.6827065, 23.1327472 ], [ 71.6774872, 23.1345871 ], [ 71.6723378, 23.1346772 ], [ 71.6682683, 23.1390068 ], [ 71.670908, 23.1417066 ], [ 71.6695682, 23.1431165 ], [ 71.6619491, 23.1384569 ], [ 71.6606592, 23.1385769 ], [ 71.6593695, 23.1412667 ], [ 71.6582095, 23.1385869 ], [ 71.6551099, 23.1421467 ], [ 71.6517704, 23.1417767 ], [ 71.6503906, 23.1432666 ], [ 71.6406517, 23.1442765 ], [ 71.6313029, 23.1425068 ], [ 71.6186645, 23.1425368 ], [ 71.6129551, 23.1396671 ], [ 71.6105255, 23.1447267 ], [ 71.605906, 23.1349075 ], [ 71.6035863, 23.141587 ], [ 71.6013066, 23.1438768 ], [ 71.5951273, 23.1371474 ], [ 71.5941874, 23.1324578 ], [ 71.589858, 23.1356276 ], [ 71.5837987, 23.1321179 ], [ 71.5761696, 23.1337978 ], [ 71.5737299, 23.1329778 ], [ 71.5706204, 23.1349277 ], [ 71.5726301, 23.1376975 ], [ 71.5709804, 23.1383974 ], [ 71.5676208, 23.1372675 ], [ 71.5693505, 23.1420971 ], [ 71.5673208, 23.1415972 ], [ 71.5662609, 23.1428871 ], [ 71.5644711, 23.1390674 ], [ 71.5616514, 23.1386074 ], [ 71.5614115, 23.1412173 ], [ 71.5583619, 23.1412572 ], [ 71.5572621, 23.1395474 ], [ 71.5544424, 23.1437771 ], [ 71.5556222, 23.1405774 ], [ 71.5507129, 23.1402874 ], [ 71.5482632, 23.1430172 ], [ 71.5488731, 23.144807 ], [ 71.5466234, 23.1496467 ], [ 71.5388544, 23.1551063 ], [ 71.5327152, 23.1561562 ], [ 71.525836, 23.1548564 ], [ 71.5225365, 23.1562563 ], [ 71.5206867, 23.1534566 ], [ 71.5182569, 23.1570063 ], [ 71.5156073, 23.1584962 ], [ 71.5123077, 23.1545865 ], [ 71.5135275, 23.1545265 ], [ 71.5127376, 23.1512067 ], [ 71.5082481, 23.1530066 ], [ 71.5066884, 23.1554464 ], [ 71.5032888, 23.1499269 ], [ 71.5001892, 23.1520967 ], [ 71.5004907, 23.1497517 ], [ 71.4884616, 23.14983 ], [ 71.4754669, 23.1465656 ], [ 71.4671574, 23.1396721 ], [ 71.4538095, 23.1390113 ], [ 71.4528106, 23.1340319 ], [ 71.4504227, 23.1328547 ], [ 71.4488781, 23.1379843 ], [ 71.4500403, 23.1385482 ], [ 71.4447424, 23.1462033 ], [ 71.4392638, 23.1447925 ], [ 71.4336493, 23.1450882 ], [ 71.431468, 23.1474683 ], [ 71.429598, 23.1472343 ], [ 71.4269599, 23.1429189 ], [ 71.4248406, 23.1417729 ], [ 71.4195097, 23.1429213 ], [ 71.4157124, 23.1464711 ], [ 71.4024039, 23.149499 ], [ 71.3962137, 23.1531707 ], [ 71.3903199, 23.1487061 ], [ 71.3901388, 23.1458302 ], [ 71.3867409, 23.1469186 ], [ 71.3891829, 23.1537539 ], [ 71.3653068, 23.159389 ], [ 71.3605496, 23.1730416 ], [ 71.3499917, 23.1745077 ], [ 71.3458417, 23.1703488 ], [ 71.3463841, 23.1688229 ], [ 71.3415941, 23.1676436 ], [ 71.3406773, 23.1625958 ], [ 71.3370644, 23.1607439 ], [ 71.3357602, 23.1625947 ], [ 71.3347794, 23.160301 ], [ 71.3320252, 23.1612394 ], [ 71.3333209, 23.1715155 ], [ 71.325517, 23.1733598 ], [ 71.323299, 23.1759417 ], [ 71.3197739, 23.1861847 ], [ 71.3154926, 23.1823952 ], [ 71.3115614, 23.1716258 ], [ 71.3120814, 23.1663391 ], [ 71.3098549, 23.1659545 ], [ 71.3067778, 23.1675108 ], [ 71.3046493, 23.1666611 ], [ 71.3025582, 23.1687731 ], [ 71.2995773, 23.1728531 ], [ 71.3004915, 23.1798967 ], [ 71.296343, 23.1755786 ], [ 71.294312, 23.1746385 ], [ 71.2936177, 23.1762544 ], [ 71.2912058, 23.1753412 ], [ 71.2907096, 23.1723611 ], [ 71.2880111, 23.169425 ], [ 71.2882042, 23.1651947 ], [ 71.2871258, 23.1639029 ], [ 71.2844589, 23.1651927 ], [ 71.2840751, 23.1695402 ], [ 71.2819801, 23.1697152 ], [ 71.2797257, 23.1675828 ], [ 71.2779205, 23.1653514 ], [ 71.2776979, 23.1624166 ], [ 71.2801467, 23.1588919 ], [ 71.2837655, 23.1578602 ], [ 71.2858996, 23.1498746 ], [ 71.268738, 23.155914 ], [ 71.2499998, 23.1528044 ], [ 71.246576, 23.1479833 ], [ 71.2473168, 23.1518339 ], [ 71.2455258, 23.1528151 ], [ 71.2450448, 23.1500298 ], [ 71.2444168, 23.15208 ], [ 71.2432532, 23.1503743 ], [ 71.2425711, 23.1519866 ], [ 71.2410908, 23.1509628 ], [ 71.2406215, 23.1558889 ], [ 71.2389851, 23.1550639 ], [ 71.2384002, 23.1504772 ], [ 71.2357642, 23.1510841 ], [ 71.2369244, 23.1489342 ], [ 71.2334923, 23.1492301 ], [ 71.2375047, 23.148103 ], [ 71.2355503, 23.146303 ], [ 71.2362312, 23.1432776 ], [ 71.2345943, 23.1415676 ], [ 71.2333296, 23.1411802 ], [ 71.2326477, 23.1432305 ], [ 71.2294249, 23.1425012 ], [ 71.2266868, 23.1434782 ], [ 71.2221489, 23.1469937 ], [ 71.2188942, 23.1427518 ], [ 71.2083946, 23.1379765 ], [ 71.2098213, 23.139732 ], [ 71.2087677, 23.1412947 ], [ 71.2116689, 23.1431488 ], [ 71.2150426, 23.1433906 ], [ 71.2161536, 23.1472953 ], [ 71.2222764, 23.1544296 ], [ 71.224306, 23.1590018 ], [ 71.2236244, 23.1616886 ], [ 71.2189827, 23.1643734 ], [ 71.2167171, 23.1643792 ], [ 71.2130834, 23.1705305 ], [ 71.2132412, 23.1729233 ], [ 71.2106224, 23.1783516 ], [ 71.2064547, 23.1826475 ], [ 71.2002282, 23.1831383 ], [ 71.1960641, 23.18612 ], [ 71.1872494, 23.1868914 ], [ 71.185134, 23.1853797 ], [ 71.1837602, 23.1819129 ], [ 71.1827607, 23.1858186 ], [ 71.1814426, 23.1870878 ], [ 71.1782238, 23.1858699 ], [ 71.1763253, 23.1891393 ], [ 71.1703798, 23.1838272 ], [ 71.1678987, 23.183241 ], [ 71.1661539, 23.1788485 ], [ 71.1633063, 23.1773368 ], [ 71.1617251, 23.1809491 ], [ 71.162673, 23.1826103 ], [ 71.1614092, 23.1864166 ], [ 71.1578206, 23.1903183 ], [ 71.1587587, 23.1919118 ], [ 71.1569616, 23.1923005 ], [ 71.1558542, 23.1974251 ], [ 71.1514253, 23.2028437 ], [ 71.148734, 23.202501 ], [ 71.147361, 23.1991828 ], [ 71.1449827, 23.2015263 ], [ 71.1461992, 23.2031877 ], [ 71.1303595, 23.2100246 ], [ 71.1265593, 23.2100744 ], [ 71.126823, 23.2081194 ], [ 71.122212, 23.2057356 ], [ 71.1246934, 23.2079795 ], [ 71.1244834, 23.2097854 ], [ 71.1206831, 23.2104671 ], [ 71.1200481, 23.2131038 ], [ 71.1171954, 23.2125168 ], [ 71.1152414, 23.2151624 ], [ 71.1116754, 23.2167949 ], [ 71.110283, 23.2182863 ], [ 71.109755, 23.2222864 ], [ 71.1079578, 23.2174553 ], [ 71.0981453, 23.2113049 ], [ 71.0848437, 23.1966786 ], [ 71.0889082, 23.1935101 ], [ 71.0814159, 23.1938966 ], [ 71.0661829, 23.1819951 ], [ 71.0654867, 23.1771866 ], [ 71.0634308, 23.1768968 ], [ 71.0588422, 23.1732335 ], [ 71.0408702, 23.1676898 ], [ 71.0310703, 23.167251 ], [ 71.0162076, 23.1717474 ], [ 71.0066519, 23.1764766 ], [ 71.0013701, 23.1742107 ], [ 71.0049123, 23.1721547 ], [ 71.0089169, 23.1717332 ], [ 71.0015065, 23.1692264 ], [ 70.9950633, 23.168777 ], [ 70.9920523, 23.170978 ], [ 70.9838247, 23.1716974 ], [ 70.9852222, 23.1668699 ], [ 70.9807046, 23.159699 ], [ 70.972834, 23.1602594 ], [ 70.9707427, 23.1583374 ], [ 70.9689126, 23.1595983 ], [ 70.9686768, 23.1574989 ], [ 70.9649154, 23.1550812 ], [ 70.962725, 23.1580397 ], [ 70.9646266, 23.1611809 ], [ 70.9647564, 23.1654294 ], [ 70.9630533, 23.1670873 ], [ 70.9601139, 23.1673689 ], [ 70.9618152, 23.170289 ], [ 70.9643551, 23.1714298 ], [ 70.9643474, 23.1743781 ], [ 70.9533381, 23.1703567 ], [ 70.9513345, 23.1679288 ], [ 70.950678, 23.164087 ], [ 70.9525452, 23.1506904 ], [ 70.9553867, 23.150558 ], [ 70.9600849, 23.1448984 ], [ 70.9535044, 23.1463286 ], [ 70.9535083, 23.1447122 ], [ 70.956558, 23.1419024 ], [ 70.9609662, 23.1413312 ], [ 70.964404, 23.1425211 ], [ 70.9659447, 23.1394321 ], [ 70.9697621, 23.1389512 ], [ 70.9613539, 23.1368612 ], [ 70.9533162, 23.1417325 ], [ 70.9586779, 23.1358694 ], [ 70.9567744, 23.1365025 ], [ 70.9564073, 23.1350308 ], [ 70.9543967, 23.1361606 ], [ 70.9543855, 23.1338219 ], [ 70.9518768, 23.134663 ], [ 70.9499759, 23.1314899 ], [ 70.9464372, 23.1324894 ], [ 70.9479085, 23.1357801 ], [ 70.9459775, 23.1401288 ], [ 70.9429554, 23.1398818 ], [ 70.9399782, 23.1415807 ], [ 70.9325066, 23.1372313 ], [ 70.9301782, 23.1378507 ], [ 70.9308184, 23.1393991 ], [ 70.939618, 23.1439602 ], [ 70.9404883, 23.1465785 ], [ 70.9448062, 23.1501614 ], [ 70.9439889, 23.1556608 ], [ 70.9379666, 23.1616997 ], [ 70.9278984, 23.1623988 ], [ 70.9263404, 23.1614197 ], [ 70.9224201, 23.1632314 ], [ 70.9143831, 23.1640508 ], [ 70.9061404, 23.1626215 ], [ 70.8938941, 23.1625197 ], [ 70.8905731, 23.1580278 ], [ 70.8906749, 23.1517883 ], [ 70.8923248, 23.1493907 ], [ 70.8897758, 23.145892 ], [ 70.8901267, 23.1406321 ], [ 70.8930021, 23.1394218 ], [ 70.9001453, 23.143579 ], [ 70.9008421, 23.1371903 ], [ 70.9050939, 23.135072 ], [ 70.902921, 23.1330633 ], [ 70.8974629, 23.131493 ], [ 70.8951345, 23.1331909 ], [ 70.890272, 23.1313631 ], [ 70.8893055, 23.1320539 ], [ 70.8899257, 23.1341036 ], [ 70.8874459, 23.1357021 ], [ 70.8810164, 23.1350615 ], [ 70.8803572, 23.1337115 ], [ 70.8820657, 23.1296526 ], [ 70.8813575, 23.1241309 ], [ 70.875114, 23.1216931 ], [ 70.8733176, 23.1261447 ], [ 70.8766861, 23.1313909 ], [ 70.8748652, 23.1375539 ], [ 70.8640466, 23.139802 ], [ 70.8490084, 23.1483018 ], [ 70.8343701, 23.1513825 ], [ 70.8322799, 23.1529712 ], [ 70.8301007, 23.1578602 ], [ 70.8257909, 23.1533125 ], [ 70.8272813, 23.149692 ], [ 70.8311441, 23.1472099 ], [ 70.840404, 23.1451227 ], [ 70.8329998, 23.1457702 ], [ 70.8283608, 23.1482927 ], [ 70.8257624, 23.1511093 ], [ 70.8255705, 23.1550507 ], [ 70.8287627, 23.1582888 ], [ 70.8333718, 23.1592201 ], [ 70.8362626, 23.1582501 ], [ 70.8348327, 23.1555408 ], [ 70.8364493, 23.1540784 ], [ 70.8419816, 23.1521517 ], [ 70.8466004, 23.152401 ], [ 70.8471618, 23.1532904 ], [ 70.8447788, 23.1546987 ], [ 70.8475417, 23.1581395 ], [ 70.843972, 23.1600983 ], [ 70.847868, 23.1625009 ], [ 70.8474078, 23.1687313 ], [ 70.8486383, 23.1693094 ], [ 70.8652993, 23.1714692 ], [ 70.9015717, 23.1707582 ], [ 70.9456284, 23.1902168 ], [ 70.9593158, 23.1945667 ], [ 70.9518789, 23.197135 ], [ 70.9189016, 23.198376 ], [ 70.9088242, 23.1935657 ], [ 70.895836, 23.1838296 ], [ 70.8905664, 23.1826699 ], [ 70.8853655, 23.1837675 ], [ 70.8785775, 23.1900481 ], [ 70.8742162, 23.1917457 ], [ 70.8629196, 23.1923593 ], [ 70.8603064, 23.1951584 ], [ 70.8613269, 23.1977861 ], [ 70.8643403, 23.1995155 ], [ 70.8711489, 23.2002246 ], [ 70.8732882, 23.2039945 ], [ 70.8609403, 23.205836 ], [ 70.859851, 23.2065537 ], [ 70.8601975, 23.2084681 ], [ 70.8931267, 23.2247028 ], [ 70.8706793, 23.2298058 ], [ 70.8473106, 23.2414247 ], [ 70.8389103, 23.2478341 ], [ 70.8341606, 23.2498104 ], [ 70.8310046, 23.2484507 ], [ 70.826923, 23.239605 ], [ 70.8232117, 23.2347639 ], [ 70.8190064, 23.2319453 ], [ 70.8122458, 23.2300736 ], [ 70.8080539, 23.2309162 ], [ 70.8016568, 23.2346834 ], [ 70.7888497, 23.2460317 ], [ 70.7828084, 23.2495137 ], [ 70.7767691, 23.2495914 ], [ 70.7676789, 23.2461046 ], [ 70.7496313, 23.2350707 ], [ 70.746144, 23.2224456 ], [ 70.7445208, 23.2208757 ], [ 70.7370532, 23.2227368 ], [ 70.7331436, 23.2207757 ], [ 70.7329152, 23.222356 ], [ 70.7315217, 23.2208445 ], [ 70.7324634, 23.2193946 ], [ 70.7239135, 23.2176576 ], [ 70.7232041, 23.2162946 ], [ 70.7242332, 23.214208 ], [ 70.7309445, 23.2076571 ], [ 70.7262734, 23.2056376 ], [ 70.7244762, 23.2059186 ], [ 70.7222275, 23.2100783 ], [ 70.7191957, 23.2123646 ], [ 70.7158744, 23.2126872 ], [ 70.7131736, 23.2099549 ], [ 70.7118464, 23.2156466 ], [ 70.7075665, 23.2142268 ], [ 70.7004983, 23.2144156 ], [ 70.6985478, 23.2117166 ], [ 70.6939172, 23.2119084 ], [ 70.6922014, 23.2093989 ], [ 70.6894812, 23.2102669 ], [ 70.6869114, 23.2093153 ], [ 70.6831125, 23.2123147 ], [ 70.6876895, 23.2125386 ], [ 70.6849595, 23.2136684 ], [ 70.6877495, 23.2154552 ], [ 70.6843597, 23.2159442 ], [ 70.6804708, 23.2144872 ], [ 70.6819808, 23.2158457 ], [ 70.6815616, 23.2177873 ], [ 70.6771508, 23.2184344 ], [ 70.6781723, 23.2198562 ], [ 70.6754815, 23.2220875 ], [ 70.6672445, 23.2195661 ], [ 70.6678026, 23.2231463 ], [ 70.6653222, 23.2271064 ], [ 70.664945, 23.2237566 ], [ 70.657392, 23.2213655 ], [ 70.6508027, 23.2238951 ], [ 70.6520664, 23.2169059 ], [ 70.6446351, 23.208216 ], [ 70.6457039, 23.2023195 ], [ 70.6443752, 23.2011684 ], [ 70.6490233, 23.1920387 ], [ 70.6383074, 23.1866177 ], [ 70.6179081, 23.181828 ], [ 70.5789629, 23.1777088 ], [ 70.5352697, 23.1793382 ], [ 70.5311585, 23.1784194 ], [ 70.5237007, 23.179381 ], [ 70.511562, 23.1773592 ], [ 70.5012426, 23.1781191 ], [ 70.4996624, 23.1812918 ], [ 70.4916438, 23.1860882 ], [ 70.4887914, 23.1914314 ], [ 70.4757136, 23.19968 ], [ 70.4610051, 23.2038967 ], [ 70.4514711, 23.2044706 ], [ 70.4280312, 23.2175463 ], [ 70.4316825, 23.2227281 ], [ 70.4322327, 23.2298974 ], [ 70.4363086, 23.2333767 ], [ 70.4247609, 23.2372546 ], [ 70.4030148, 23.2353956 ], [ 70.3951484, 23.2309678 ], [ 70.3887046, 23.2308557 ], [ 70.385666, 23.2333888 ], [ 70.3780105, 23.2316374 ], [ 70.3765497, 23.2297864 ], [ 70.373809, 23.2300663 ], [ 70.3698911, 23.2275063 ], [ 70.3693977, 23.2249193 ], [ 70.3655092, 23.2249779 ], [ 70.36399, 23.2224495 ], [ 70.3663595, 23.2198581 ], [ 70.3490422, 23.2199693 ], [ 70.3456323, 23.2209799 ], [ 70.341622, 23.2198595 ], [ 70.3377621, 23.2226172 ], [ 70.3327842, 23.2227289 ], [ 70.3276732, 23.2262671 ], [ 70.3228142, 23.2217192 ], [ 70.323856, 23.2181167 ], [ 70.3189851, 23.2197494 ], [ 70.3117751, 23.2194172 ], [ 70.3082466, 23.2225084 ], [ 70.3034488, 23.2239059 ], [ 70.2956697, 23.2189585 ], [ 70.2966496, 23.2137399 ], [ 70.2933101, 23.2110971 ], [ 70.2915296, 23.1991002 ], [ 70.2837008, 23.1982517 ], [ 70.2726919, 23.1852016 ], [ 70.2687626, 23.1824721 ], [ 70.2675742, 23.1784621 ], [ 70.2496812, 23.1778937 ], [ 70.2464635, 23.1764709 ], [ 70.2474906, 23.1741193 ], [ 70.2495054, 23.1744394 ], [ 70.2497621, 23.1727787 ], [ 70.2451095, 23.1731067 ], [ 70.2449972, 23.1757418 ], [ 70.2461978, 23.1763534 ], [ 70.2449521, 23.1758025 ], [ 70.2376234, 23.1714422 ], [ 70.2361868, 23.1703009 ], [ 70.236185, 23.1681519 ], [ 70.2396754, 23.1669845 ], [ 70.2385358, 23.1648814 ], [ 70.2183067, 23.1662628 ], [ 70.2087664, 23.1603538 ], [ 70.2091964, 23.1531253 ], [ 70.2128055, 23.1398541 ], [ 70.2083897, 23.1359151 ], [ 70.2072995, 23.1256172 ], [ 70.2015572, 23.1143059 ], [ 70.1920676, 23.103461 ], [ 70.1876612, 23.09502 ], [ 70.1738821, 23.0774033 ], [ 70.1836344, 23.0796815 ], [ 70.1806306, 23.0768728 ], [ 70.1803226, 23.0754327 ], [ 70.1816938, 23.0751938 ], [ 70.1795299, 23.0709184 ], [ 70.1771434, 23.0692709 ], [ 70.1755433, 23.0702014 ], [ 70.1733026, 23.067561 ], [ 70.1713312, 23.0671236 ], [ 70.1716431, 23.0660626 ], [ 70.1677667, 23.0643878 ], [ 70.1649441, 23.0674099 ], [ 70.1662216, 23.0644026 ], [ 70.1681631, 23.0632417 ], [ 70.1647253, 23.0538426 ], [ 70.1567119, 23.0453157 ], [ 70.1532563, 23.0382145 ], [ 70.1508369, 23.0395739 ], [ 70.1492948, 23.0369961 ], [ 70.1598722, 23.0350237 ], [ 70.1625942, 23.0406054 ], [ 70.1696004, 23.0428429 ], [ 70.1715207, 23.050924 ], [ 70.1694927, 23.0557827 ], [ 70.1699519, 23.0574125 ], [ 70.1861409, 23.068342 ], [ 70.1886167, 23.0728142 ], [ 70.2108155, 23.0746331 ], [ 70.2164651, 23.0659117 ], [ 70.2136381, 23.0632314 ], [ 70.217835, 23.0642719 ], [ 70.2192183, 23.0608127 ], [ 70.2179879, 23.0525736 ], [ 70.2197751, 23.040906 ], [ 70.2222835, 23.035455 ], [ 70.2202859, 23.0252434 ], [ 70.2201763, 23.0152158 ], [ 70.2208867, 23.0144064 ], [ 70.2221409, 23.0153814 ], [ 70.2208238, 23.0134365 ], [ 70.2239639, 23.005565 ], [ 70.2255153, 22.9865779 ], [ 70.2302541, 22.9726596 ], [ 70.2286158, 22.9599917 ], [ 70.2307426, 22.9551593 ], [ 70.2264058, 22.951821 ], [ 70.2074164, 22.9437323 ], [ 70.180382, 22.9375497 ], [ 70.1757509, 22.9374203 ], [ 70.1723098, 22.9388618 ], [ 70.1643929, 22.9382816 ], [ 70.1335467, 22.9587529 ], [ 70.1303581, 22.9599992 ], [ 70.125507, 22.959751 ], [ 70.1211188, 22.9626315 ], [ 70.1199584, 22.9653901 ], [ 70.1211773, 22.968948 ], [ 70.1334069, 22.981111 ], [ 70.1336364, 22.9857705 ], [ 70.1297353, 22.9881681 ], [ 70.1289649, 22.9904482 ], [ 70.1337888, 23.0015692 ], [ 70.1422076, 23.0089277 ], [ 70.1479552, 23.0204175 ], [ 70.1581429, 23.0323034 ], [ 70.1482065, 23.0348156 ], [ 70.1504649, 23.0336143 ], [ 70.150123, 23.031244 ], [ 70.1472159, 23.0326847 ], [ 70.1418442, 23.0269469 ], [ 70.1390247, 23.026437 ], [ 70.1384339, 23.0212268 ], [ 70.1352145, 23.020884 ], [ 70.1329652, 23.011019 ], [ 70.1299459, 23.0074478 ], [ 70.1257076, 23.0050956 ], [ 70.1220887, 22.9965887 ], [ 70.1199965, 22.997618 ], [ 70.1182165, 22.9968279 ], [ 70.1190896, 22.9930669 ], [ 70.1180997, 22.9912699 ], [ 70.097184, 22.9758034 ], [ 70.0900685, 22.9741946 ], [ 70.080531, 22.9757106 ], [ 70.0838551, 22.9734082 ], [ 70.0850368, 22.9689876 ], [ 70.083716, 22.9680118 ], [ 70.0705795, 22.9660811 ], [ 70.0642334, 22.9635324 ], [ 70.0595193, 22.9636158 ], [ 70.0584065, 22.9579294 ], [ 70.0527328, 22.9546048 ], [ 70.0495693, 22.9545221 ], [ 70.046023, 22.9512285 ], [ 70.0402487, 22.9530805 ], [ 70.0365458, 22.9526901 ], [ 70.0318479, 22.9458359 ], [ 70.0297638, 22.9464195 ], [ 70.0291997, 22.942847 ], [ 70.0262521, 22.9397046 ], [ 70.0273015, 22.9364326 ], [ 70.0259771, 22.9348863 ], [ 70.0272147, 22.9320368 ], [ 70.0242089, 22.9290502 ], [ 70.02713, 22.9287203 ], [ 70.0272958, 22.9269571 ], [ 70.0236517, 22.9263588 ], [ 70.0189771, 22.9235901 ], [ 70.0167517, 22.9202425 ], [ 69.9959436, 22.9139995 ], [ 69.9847577, 22.9145782 ], [ 69.9837414, 22.9063725 ], [ 69.9821163, 22.9028539 ], [ 69.9657093, 22.8988413 ], [ 69.9624692, 22.8998997 ], [ 69.9612401, 22.8984511 ], [ 69.959033, 22.8992785 ], [ 69.9622409, 22.8935878 ], [ 69.9587012, 22.8986241 ], [ 69.9370438, 22.8983497 ], [ 69.9361219, 22.8967878 ], [ 69.9321454, 22.8970061 ], [ 69.9334558, 22.8956692 ], [ 69.9320373, 22.8948886 ], [ 69.9270476, 22.8960281 ], [ 69.9306628, 22.8942615 ], [ 69.923634, 22.8897353 ], [ 69.9206562, 22.8889731 ], [ 69.9193019, 22.8900707 ], [ 69.9199154, 22.8885219 ], [ 69.9186675, 22.8872851 ], [ 69.9197248, 22.886874 ], [ 69.9171666, 22.8873082 ], [ 69.9181603, 22.886012 ], [ 69.9167863, 22.8866987 ], [ 69.9161477, 22.8858185 ], [ 69.9150518, 22.8876609 ], [ 69.9152168, 22.8852679 ], [ 69.9119425, 22.8865058 ], [ 69.9136714, 22.882934 ], [ 69.9102641, 22.8785643 ], [ 69.9044164, 22.8763306 ], [ 69.9036413, 22.8743802 ], [ 69.899709, 22.8735773 ], [ 69.9015262, 22.8728094 ], [ 69.8987438, 22.8712612 ], [ 69.8978135, 22.8732209 ], [ 69.8963562, 22.870634 ], [ 69.8944316, 22.8708329 ], [ 69.8932479, 22.8725352 ], [ 69.8910748, 22.8728876 ], [ 69.8906523, 22.8755334 ], [ 69.8871708, 22.8755338 ], [ 69.8877954, 22.8711045 ], [ 69.8776463, 22.8741617 ], [ 69.8794441, 22.8713398 ], [ 69.8562664, 22.8687202 ], [ 69.8392538, 22.8628435 ], [ 69.8367646, 22.8612717 ], [ 69.8374811, 22.8601701 ], [ 69.8351277, 22.8607475 ], [ 69.8316931, 22.8602364 ], [ 69.8312012, 22.8595907 ], [ 69.8355226, 22.8597679 ], [ 69.8278839, 22.8579779 ], [ 69.812346, 22.8499675 ], [ 69.8069725, 22.850155 ], [ 69.8047892, 22.8518472 ], [ 69.8006632, 22.8510597 ], [ 69.7948577, 22.8484112 ], [ 69.7900765, 22.8439524 ], [ 69.7898291, 22.8422727 ], [ 69.7836639, 22.8392442 ], [ 69.7816357, 22.8346106 ], [ 69.768607, 22.8264032 ], [ 69.7479721, 22.8185263 ], [ 69.7455734, 22.8206272 ], [ 69.7434148, 22.8195182 ], [ 69.7416182, 22.820269 ], [ 69.7364331, 22.8169226 ], [ 69.7343436, 22.8168835 ], [ 69.7293884, 22.8206614 ], [ 69.7319762, 22.8164471 ], [ 69.724884, 22.8153455 ], [ 69.7221381, 22.8098886 ], [ 69.7200544, 22.81112 ], [ 69.7199019, 22.8088921 ], [ 69.7168927, 22.8096975 ], [ 69.7131645, 22.8060019 ], [ 69.7116999, 22.8079216 ], [ 69.7121206, 22.8108156 ], [ 69.7107896, 22.8086264 ], [ 69.7090322, 22.8097743 ], [ 69.7092598, 22.8076836 ], [ 69.7056033, 22.809189 ], [ 69.7079925, 22.8058602 ], [ 69.7060437, 22.8046467 ], [ 69.6915062, 22.8038182 ], [ 69.6904886, 22.8043921 ], [ 69.6905775, 22.8067941 ], [ 69.6895207, 22.8067493 ], [ 69.6871274, 22.8025198 ], [ 69.6829041, 22.8000516 ], [ 69.6713188, 22.8002768 ], [ 69.669385, 22.7989228 ], [ 69.6669112, 22.7992531 ], [ 69.6661218, 22.7974608 ], [ 69.6645445, 22.7990144 ], [ 69.6570539, 22.7962529 ], [ 69.651254, 22.7957619 ], [ 69.647037, 22.7966565 ], [ 69.6472034, 22.8016095 ], [ 69.6459619, 22.8040117 ], [ 69.6464687, 22.8059848 ], [ 69.6479054, 22.8059394 ], [ 69.6459385, 22.8100032 ], [ 69.64023, 22.8044414 ], [ 69.6364168, 22.8055931 ], [ 69.636909, 22.8082704 ], [ 69.6342794, 22.8117608 ], [ 69.6311866, 22.8088668 ], [ 69.6278067, 22.8102756 ], [ 69.6252303, 22.8085057 ], [ 69.6230193, 22.8111742 ], [ 69.6182755, 22.8122532 ], [ 69.6134153, 22.8086815 ], [ 69.6118912, 22.8057106 ], [ 69.6085357, 22.8060398 ], [ 69.605911, 22.8029512 ], [ 69.6004904, 22.8053255 ], [ 69.598848, 22.8119443 ], [ 69.5974262, 22.8101291 ], [ 69.5934761, 22.8117808 ], [ 69.5916344, 22.8143766 ], [ 69.5885376, 22.8116986 ], [ 69.5877477, 22.8154911 ], [ 69.5844414, 22.8125013 ], [ 69.5812217, 22.8139679 ], [ 69.5817469, 22.8167403 ], [ 69.5782309, 22.8153893 ], [ 69.5756195, 22.8177274 ], [ 69.575318, 22.8164179 ], [ 69.5779784, 22.8129286 ], [ 69.575963, 22.8103859 ], [ 69.5710053, 22.8096304 ], [ 69.5693714, 22.8158651 ], [ 69.5672689, 22.8120311 ], [ 69.5648575, 22.8135563 ], [ 69.5649897, 22.811782 ], [ 69.563504, 22.8123458 ], [ 69.5640647, 22.8112218 ], [ 69.5624141, 22.8101285 ], [ 69.5609824, 22.8096719 ], [ 69.5602804, 22.811139 ], [ 69.5573588, 22.8101536 ], [ 69.5568731, 22.8073224 ], [ 69.5482384, 22.8072282 ], [ 69.5461726, 22.8088978 ], [ 69.5466413, 22.8068076 ], [ 69.5434567, 22.8059843 ], [ 69.5410355, 22.8072563 ], [ 69.5400289, 22.8048492 ], [ 69.5370051, 22.8040574 ], [ 69.5343918, 22.8085846 ], [ 69.5328399, 22.8060102 ], [ 69.5313785, 22.8066279 ], [ 69.5304246, 22.8056476 ], [ 69.5333686, 22.8018341 ], [ 69.5305194, 22.8021891 ], [ 69.532157, 22.8004427 ], [ 69.530823, 22.799882 ], [ 69.5271583, 22.80351 ], [ 69.5270231, 22.8018529 ], [ 69.5242019, 22.8039687 ], [ 69.5234869, 22.8025731 ], [ 69.5185242, 22.8028679 ], [ 69.5115956, 22.8072428 ], [ 69.5120062, 22.8053468 ], [ 69.5086848, 22.8054122 ], [ 69.5053409, 22.8088954 ], [ 69.5034953, 22.8031598 ], [ 69.5046725, 22.7989572 ], [ 69.5021103, 22.7998177 ], [ 69.4984031, 22.7974465 ], [ 69.4942828, 22.7969079 ], [ 69.4929059, 22.7995379 ], [ 69.4874432, 22.7998071 ], [ 69.4866952, 22.8021283 ], [ 69.4828459, 22.8056889 ], [ 69.4832155, 22.799047 ], [ 69.4805058, 22.7963082 ], [ 69.4773447, 22.7955201 ], [ 69.4679189, 22.7983389 ], [ 69.4658654, 22.800706 ], [ 69.4683644, 22.8018378 ], [ 69.4678785, 22.8032964 ], [ 69.4635154, 22.8039581 ], [ 69.4633264, 22.8053173 ], [ 69.4605561, 22.8066688 ], [ 69.4604167, 22.8094367 ], [ 69.45864, 22.8110269 ], [ 69.4576499, 22.8086164 ], [ 69.4573368, 22.8142784 ], [ 69.4546282, 22.8131646 ], [ 69.4520198, 22.8083167 ], [ 69.4491191, 22.8118083 ], [ 69.4476086, 22.8106757 ], [ 69.4479872, 22.8082058 ], [ 69.4442678, 22.8108985 ], [ 69.4387205, 22.810657 ], [ 69.4346921, 22.8090874 ], [ 69.4348134, 22.8081978 ], [ 69.4290236, 22.8101956 ], [ 69.4270704, 22.8095687 ], [ 69.4241835, 22.8127979 ], [ 69.4219419, 22.8090466 ], [ 69.4193221, 22.8102483 ], [ 69.4186216, 22.8128492 ], [ 69.418212, 22.8110659 ], [ 69.4168336, 22.8108676 ], [ 69.4186347, 22.8081265 ], [ 69.4321132, 22.8031781 ], [ 69.4308413, 22.8012777 ], [ 69.4339289, 22.8013172 ], [ 69.4326525, 22.8001889 ], [ 69.4361585, 22.7994561 ], [ 69.4336697, 22.7989966 ], [ 69.4357584, 22.7978579 ], [ 69.4368303, 22.7990495 ], [ 69.4382215, 22.7956988 ], [ 69.439498, 22.7970302 ], [ 69.4408115, 22.7942077 ], [ 69.4511065, 22.7865907 ], [ 69.4578993, 22.7866865 ], [ 69.4603082, 22.7841704 ], [ 69.4597084, 22.7828071 ], [ 69.4650052, 22.7813503 ], [ 69.466367, 22.7791507 ], [ 69.4692347, 22.7788194 ], [ 69.4699781, 22.7764485 ], [ 69.4786451, 22.7766779 ], [ 69.4947011, 22.7798677 ], [ 69.4910863, 22.7775497 ], [ 69.4803445, 22.7767987 ], [ 69.4777866, 22.7745473 ], [ 69.4717582, 22.7737475 ], [ 69.4587802, 22.7780217 ], [ 69.4453084, 22.7797711 ], [ 69.4463704, 22.7808182 ], [ 69.4384024, 22.7867905 ], [ 69.4342298, 22.7880202 ], [ 69.4448707, 22.7808414 ], [ 69.443692, 22.7800879 ], [ 69.4104127, 22.8035187 ], [ 69.3974549, 22.8111065 ], [ 69.3814466, 22.8158172 ], [ 69.3844859, 22.8173251 ], [ 69.3810473, 22.8170273 ], [ 69.3812178, 22.8187746 ], [ 69.3798783, 22.8167384 ], [ 69.3580386, 22.8216863 ], [ 69.3517105, 22.8202774 ], [ 69.3477617, 22.8207458 ], [ 69.3354517, 22.8279674 ], [ 69.3139738, 22.833266 ], [ 69.3011127, 22.8331939 ], [ 69.2858178, 22.8275549 ], [ 69.2679095, 22.8251962 ], [ 69.254014, 22.829855 ], [ 69.2477326, 22.8297269 ], [ 69.2344965, 22.8335068 ], [ 69.2275615, 22.8373261 ], [ 69.221819, 22.8361157 ], [ 69.2175868, 22.8373465 ], [ 69.2086574, 22.8364665 ], [ 69.2012781, 22.8374681 ], [ 69.204159, 22.8409478 ], [ 69.203229, 22.8416571 ], [ 69.1988621, 22.837826 ], [ 69.1958323, 22.838026 ], [ 69.1943426, 22.8396882 ], [ 69.1937894, 22.8437881 ], [ 69.1962698, 22.8454576 ], [ 69.1936633, 22.8449756 ], [ 69.1918811, 22.8462542 ], [ 69.1924032, 22.848218 ], [ 69.1944107, 22.8487273 ], [ 69.1932421, 22.8499559 ], [ 69.1941832, 22.8518563 ], [ 69.1886301, 22.8530958 ], [ 69.1867101, 22.8520039 ], [ 69.1860341, 22.8545462 ], [ 69.1842019, 22.8535355 ], [ 69.1811831, 22.8577672 ], [ 69.1774309, 22.8556465 ], [ 69.1741915, 22.8564241 ], [ 69.1723755, 22.8602534 ], [ 69.167596, 22.8596949 ], [ 69.1668504, 22.8589542 ], [ 69.1680631, 22.8578662 ], [ 69.172832, 22.8559549 ], [ 69.1773417, 22.8517365 ], [ 69.1749349, 22.8514348 ], [ 69.1500775, 22.866205 ], [ 69.1475392, 22.8669052 ], [ 69.1474416, 22.8660248 ], [ 69.1312418, 22.8722933 ], [ 69.0998932, 22.8961129 ], [ 69.0437671, 22.9299436 ], [ 69.0317774, 22.9348132 ], [ 69.0198289, 22.9421066 ], [ 69.0057409, 22.946964 ], [ 68.9807985, 22.9608226 ], [ 68.972307, 22.9634513 ], [ 68.9549406, 22.9729697 ], [ 68.9496819, 22.9775144 ], [ 68.9405551, 22.9803674 ], [ 68.931171, 22.9871572 ], [ 68.9254776, 22.9935613 ], [ 68.9222205, 22.9949981 ], [ 68.9178115, 22.9940963 ], [ 68.9178268, 22.9961642 ], [ 68.8745788, 23.021138 ], [ 68.8684326, 23.0272331 ], [ 68.8347693, 23.044918 ], [ 68.8239757, 23.0524568 ], [ 68.812956, 23.0579276 ], [ 68.8141609, 23.0585105 ], [ 68.8200215, 23.0564808 ], [ 68.832417, 23.0474322 ], [ 68.8485331, 23.0387489 ], [ 68.8501672, 23.0393676 ], [ 68.8520555, 23.0369163 ], [ 68.8587051, 23.0332148 ], [ 68.8605881, 23.0334452 ], [ 68.8621737, 23.0314542 ], [ 68.8670568, 23.0317074 ], [ 68.8676031, 23.0303394 ], [ 68.8645251, 23.0302264 ], [ 68.8688959, 23.0294319 ], [ 68.8702813, 23.0272196 ], [ 68.871691, 23.0329943 ], [ 68.8686177, 23.032186 ], [ 68.8689786, 23.0343352 ], [ 68.8624566, 23.0318064 ], [ 68.8607881, 23.0343121 ], [ 68.8557682, 23.0352958 ], [ 68.8554071, 23.0362981 ], [ 68.8566463, 23.0355263 ], [ 68.8571875, 23.0371607 ], [ 68.8559239, 23.0384338 ], [ 68.8542263, 23.0373861 ], [ 68.8526259, 23.0394582 ], [ 68.8399066, 23.0444676 ], [ 68.8403747, 23.0453075 ], [ 68.8418776, 23.0444184 ], [ 68.8420722, 23.0466579 ], [ 68.8367204, 23.0463677 ], [ 68.8359385, 23.0506973 ], [ 68.8380272, 23.0489415 ], [ 68.840974, 23.0488654 ], [ 68.839057, 23.0473163 ], [ 68.8448921, 23.0470286 ], [ 68.8470189, 23.0484376 ], [ 68.8432082, 23.050112 ], [ 68.8435098, 23.0538233 ], [ 68.8390758, 23.0502556 ], [ 68.8371189, 23.0520972 ], [ 68.8417864, 23.0585772 ], [ 68.8404836, 23.0589517 ], [ 68.8395911, 23.0574118 ], [ 68.838698, 23.0584952 ], [ 68.838923, 23.0560166 ], [ 68.8376449, 23.0551675 ], [ 68.8341951, 23.0566114 ], [ 68.8344206, 23.0527784 ], [ 68.8357571, 23.0538487 ], [ 68.8366453, 23.0531897 ], [ 68.8347677, 23.0505525 ], [ 68.8310336, 23.0563578 ], [ 68.8319356, 23.0581324 ], [ 68.8294329, 23.0571791 ], [ 68.8245763, 23.0624015 ], [ 68.8270128, 23.057526 ], [ 68.8250197, 23.0560227 ], [ 68.8233683, 23.0569832 ], [ 68.8237885, 23.0554121 ], [ 68.8212116, 23.0572352 ], [ 68.8222796, 23.0589513 ], [ 68.8215711, 23.061335 ], [ 68.8189321, 23.0598667 ], [ 68.817931, 23.0619025 ], [ 68.8207487, 23.0682199 ], [ 68.817638, 23.0627016 ], [ 68.8160375, 23.0627913 ], [ 68.8151531, 23.077031 ], [ 68.8109375, 23.075991 ], [ 68.8097183, 23.0742974 ], [ 68.8097731, 23.0718413 ], [ 68.8125708, 23.0681492 ], [ 68.8113912, 23.0654895 ], [ 68.8117395, 23.0613991 ], [ 68.8087921, 23.0620029 ], [ 68.8090691, 23.0644863 ], [ 68.8076793, 23.06277 ], [ 68.8058152, 23.063311 ], [ 68.8052726, 23.0652386 ], [ 68.8044827, 23.0640825 ], [ 68.803243, 23.0648721 ], [ 68.8096418, 23.0605946 ], [ 68.8114666, 23.0608391 ], [ 68.8117993, 23.0587805 ], [ 68.783422, 23.0736003 ], [ 68.7614252, 23.0787176 ], [ 68.7585885, 23.0803455 ], [ 68.7498575, 23.0880102 ], [ 68.7515199, 23.088625 ], [ 68.7569803, 23.0836132 ], [ 68.7600672, 23.0861572 ], [ 68.7561597, 23.0844342 ], [ 68.7579907, 23.0890002 ], [ 68.7635602, 23.0875548 ], [ 68.7623562, 23.0858383 ], [ 68.760931, 23.0861443 ], [ 68.761225, 23.0846366 ], [ 68.7637387, 23.084083 ], [ 68.7643609, 23.0811804 ], [ 68.763117, 23.0805835 ], [ 68.7694858, 23.0797255 ], [ 68.7651385, 23.0790228 ], [ 68.768482, 23.0779324 ], [ 68.7704966, 23.0789315 ], [ 68.7700343, 23.077342 ], [ 68.7784811, 23.0775504 ], [ 68.7772018, 23.0787372 ], [ 68.7732495, 23.0780754 ], [ 68.773824, 23.0798096 ], [ 68.7797713, 23.0817546 ], [ 68.7815368, 23.0832772 ], [ 68.7740382, 23.0805502 ], [ 68.7723368, 23.0783096 ], [ 68.7727158, 23.0804229 ], [ 68.7667184, 23.0866089 ], [ 68.760942, 23.0904606 ], [ 68.7609687, 23.0936165 ], [ 68.7618921, 23.0924071 ], [ 68.7637749, 23.0935869 ], [ 68.7618117, 23.0951792 ], [ 68.7601094, 23.0997697 ], [ 68.761139, 23.1000729 ], [ 68.7617223, 23.0970529 ], [ 68.7651346, 23.0960349 ], [ 68.7633372, 23.097659 ], [ 68.7630078, 23.1006838 ], [ 68.7611869, 23.1011294 ], [ 68.7644863, 23.1070824 ], [ 68.7668032, 23.1029077 ], [ 68.7681233, 23.1060826 ], [ 68.7662579, 23.1072777 ], [ 68.7667775, 23.1107004 ], [ 68.7682796, 23.1123493 ], [ 68.7686079, 23.1106655 ], [ 68.7707549, 23.1114434 ], [ 68.7688403, 23.113045 ], [ 68.7694199, 23.1146526 ], [ 68.7710798, 23.1142564 ], [ 68.7714199, 23.1163651 ], [ 68.7731866, 23.1167365 ], [ 68.7849074, 23.1152085 ], [ 68.7836449, 23.1200115 ], [ 68.7765325, 23.1203324 ], [ 68.7749926, 23.1228932 ], [ 68.7727632, 23.1214994 ], [ 68.7724985, 23.1231698 ], [ 68.7718065, 23.1215078 ], [ 68.7712833, 23.122722 ], [ 68.7699757, 23.1218091 ], [ 68.7700567, 23.124482 ], [ 68.7681138, 23.1245575 ], [ 68.7663726, 23.1225923 ], [ 68.7650311, 23.1237602 ], [ 68.7629764, 23.1211407 ], [ 68.7544322, 23.1230307 ], [ 68.7532608, 23.1174945 ], [ 68.7516119, 23.1164053 ], [ 68.7498744, 23.1170608 ], [ 68.7491971, 23.1135517 ], [ 68.747648, 23.1131731 ], [ 68.7469082, 23.1101622 ], [ 68.7458635, 23.1100185 ], [ 68.7441189, 23.1131758 ], [ 68.7399268, 23.113951 ], [ 68.742322, 23.117963 ], [ 68.73979, 23.1195089 ], [ 68.7404314, 23.1161675 ], [ 68.7394645, 23.1155632 ], [ 68.7332295, 23.1195316 ], [ 68.7342941, 23.1260865 ], [ 68.732455, 23.1276048 ], [ 68.7318891, 23.1341788 ], [ 68.7279596, 23.1346375 ], [ 68.7241349, 23.1317505 ], [ 68.7258652, 23.1345847 ], [ 68.7244119, 23.1364909 ], [ 68.7196477, 23.1373065 ], [ 68.7176135, 23.1395562 ], [ 68.7153772, 23.1391873 ], [ 68.7130548, 23.1413648 ], [ 68.7131927, 23.1430759 ], [ 68.715542, 23.1445915 ], [ 68.7124632, 23.1475008 ], [ 68.7122461, 23.1514289 ], [ 68.7100832, 23.1514436 ], [ 68.7060143, 23.1485066 ], [ 68.7021914, 23.1486892 ], [ 68.6987958, 23.1530658 ], [ 68.6950814, 23.1554197 ], [ 68.6930739, 23.1540029 ], [ 68.6897246, 23.1542843 ], [ 68.687966, 23.1524475 ], [ 68.682776, 23.1526933 ], [ 68.6764959, 23.1621181 ], [ 68.6779463, 23.1626864 ], [ 68.6794783, 23.1598145 ], [ 68.6823193, 23.1579127 ], [ 68.6804778, 23.1677557 ], [ 68.678808, 23.1684064 ], [ 68.6826005, 23.1758456 ], [ 68.6802167, 23.1739909 ], [ 68.6796655, 23.1753906 ], [ 68.6808721, 23.176519 ], [ 68.6795881, 23.1771741 ], [ 68.6807609, 23.1790157 ], [ 68.6767073, 23.1782496 ], [ 68.675634, 23.1810627 ], [ 68.6701012, 23.1820036 ], [ 68.6676808, 23.1873995 ], [ 68.6634033, 23.189956 ], [ 68.6621154, 23.1947194 ], [ 68.659552, 23.1976999 ], [ 68.6602706, 23.1996772 ], [ 68.6624542, 23.2008506 ], [ 68.6697112, 23.1981532 ], [ 68.6737177, 23.2018903 ], [ 68.6703396, 23.2074897 ], [ 68.6710737, 23.2111962 ], [ 68.669171, 23.2181993 ], [ 68.662034, 23.2179483 ], [ 68.6599278, 23.2146621 ], [ 68.6547004, 23.2115931 ], [ 68.6497328, 23.2121538 ], [ 68.6449462, 23.2145248 ], [ 68.6429285, 23.2130488 ], [ 68.6405351, 23.2131619 ], [ 68.6415269, 23.2148412 ], [ 68.6407748, 23.2160558 ], [ 68.6380437, 23.2111937 ], [ 68.632353, 23.2107787 ], [ 68.6281424, 23.2118669 ], [ 68.6260372, 23.2096366 ], [ 68.6230429, 23.2087969 ], [ 68.6231992, 23.205185 ], [ 68.6209866, 23.2057268 ], [ 68.6206299, 23.2096908 ], [ 68.6220121, 23.2126887 ], [ 68.6259346, 23.2132802 ], [ 68.6306095, 23.2174472 ], [ 68.6429292, 23.2180151 ], [ 68.6433155, 23.2200286 ], [ 68.6451181, 23.2206288 ], [ 68.6436822, 23.2224259 ], [ 68.6455438, 23.2252429 ], [ 68.6535178, 23.231147 ], [ 68.656278, 23.231309 ], [ 68.6581194, 23.2296201 ], [ 68.6595416, 23.2320804 ], [ 68.6680324, 23.231577 ], [ 68.6741495, 23.2332592 ], [ 68.6756235, 23.2294933 ], [ 68.6771817, 23.2290639 ], [ 68.6812284, 23.2329588 ], [ 68.6838467, 23.2323618 ], [ 68.6871651, 23.2348978 ], [ 68.6929301, 23.2350625 ], [ 68.6998121, 23.2406306 ], [ 68.7019957, 23.2400561 ], [ 68.7013954, 23.2413161 ], [ 68.7036628, 23.2420463 ], [ 68.7052288, 23.2462037 ], [ 68.7044645, 23.2500005 ], [ 68.7058884, 23.2541977 ], [ 68.7098734, 23.2583582 ], [ 68.7109408, 23.2617708 ], [ 68.7147393, 23.2641208 ], [ 68.7231077, 23.2610457 ], [ 68.7238631, 23.2584131 ], [ 68.7225026, 23.2556238 ], [ 68.7245203, 23.2551349 ], [ 68.7257107, 23.2591252 ], [ 68.7242964, 23.2627786 ], [ 68.7257734, 23.2644753 ], [ 68.7241723, 23.2667923 ], [ 68.7168362, 23.2650857 ], [ 68.714625, 23.2686493 ], [ 68.7117221, 23.2683168 ], [ 68.7108085, 23.2701479 ], [ 68.7073688, 23.2694931 ], [ 68.7055467, 23.270722 ], [ 68.7060961, 23.2740627 ], [ 68.7100656, 23.2759839 ], [ 68.7126244, 23.2805289 ], [ 68.7122203, 23.2826465 ], [ 68.7081619, 23.2797186 ], [ 68.7066425, 23.2804689 ], [ 68.7088828, 23.2835377 ], [ 68.7122175, 23.2852685 ], [ 68.7118661, 23.286719 ], [ 68.7083335, 23.2883327 ], [ 68.699309, 23.2841928 ], [ 68.7018185, 23.2881871 ], [ 68.7026275, 23.292548 ], [ 68.7096846, 23.2916143 ], [ 68.7139863, 23.2956319 ], [ 68.7134399, 23.3012738 ], [ 68.7116431, 23.3043178 ], [ 68.7129745, 23.3071839 ], [ 68.7076358, 23.3136114 ], [ 68.7087612, 23.315209 ], [ 68.7136945, 23.3164658 ], [ 68.7135146, 23.3179559 ], [ 68.6983967, 23.3134626 ], [ 68.692807, 23.308833 ], [ 68.6813992, 23.3118489 ], [ 68.6788246, 23.3156197 ], [ 68.6792516, 23.3199763 ], [ 68.6804411, 23.3234929 ], [ 68.6849852, 23.3288547 ], [ 68.6791683, 23.3311187 ], [ 68.672695, 23.3305069 ], [ 68.668261, 23.331488 ], [ 68.6651531, 23.3363512 ], [ 68.6696426, 23.340043 ], [ 68.6702794, 23.3431716 ], [ 68.6605065, 23.3474542 ], [ 68.6588777, 23.3455628 ], [ 68.6611607, 23.3438332 ], [ 68.6603084, 23.3381267 ], [ 68.6611977, 23.3364606 ], [ 68.6598623, 23.3341674 ], [ 68.6557407, 23.3338297 ], [ 68.6557838, 23.3300734 ], [ 68.6524247, 23.3283403 ], [ 68.6542481, 23.3274235 ], [ 68.6517789, 23.3260876 ], [ 68.6546818, 23.3214278 ], [ 68.653092, 23.3168863 ], [ 68.6567241, 23.316574 ], [ 68.6555256, 23.3132649 ], [ 68.6580868, 23.3119551 ], [ 68.6556028, 23.3091293 ], [ 68.6552886, 23.3034679 ], [ 68.6523362, 23.3031434 ], [ 68.6467066, 23.3111987 ], [ 68.6442298, 23.3212715 ], [ 68.6409642, 23.3215924 ], [ 68.6400258, 23.3231862 ], [ 68.6437905, 23.3259173 ], [ 68.6425106, 23.3322787 ], [ 68.6526218, 23.3355549 ], [ 68.6436988, 23.3334524 ], [ 68.6440021, 23.3350235 ], [ 68.6481583, 23.3369101 ], [ 68.6421297, 23.3354888 ], [ 68.6405509, 23.3394484 ], [ 68.6359647, 23.3388935 ], [ 68.6361506, 23.3409883 ], [ 68.6390012, 23.3411055 ], [ 68.6396371, 23.3430332 ], [ 68.6369577, 23.3435843 ], [ 68.6368602, 23.3470742 ], [ 68.633868, 23.3494266 ], [ 68.6291152, 23.3488986 ], [ 68.6329977, 23.3509391 ], [ 68.6325186, 23.3525373 ], [ 68.627355, 23.351603 ], [ 68.6304112, 23.3544652 ], [ 68.6258441, 23.354795 ], [ 68.62914, 23.3579055 ], [ 68.6251107, 23.3591652 ], [ 68.6262354, 23.3612555 ], [ 68.6258149, 23.3649035 ], [ 68.623497, 23.3663618 ], [ 68.6203867, 23.3656349 ], [ 68.6119409, 23.3691334 ], [ 68.6119798, 23.3717022 ], [ 68.6164497, 23.3714723 ], [ 68.6203767, 23.3740052 ], [ 68.617506, 23.373084 ], [ 68.6137303, 23.3754496 ], [ 68.6104878, 23.3749753 ], [ 68.610537, 23.3721085 ], [ 68.6095883, 23.3720046 ], [ 68.6068832, 23.376668 ], [ 68.6099106, 23.3767631 ], [ 68.6091425, 23.3790881 ], [ 68.6108884, 23.3800274 ], [ 68.6085649, 23.3828579 ], [ 68.5995015, 23.3860893 ], [ 68.5948587, 23.3915784 ], [ 68.5903192, 23.3931622 ], [ 68.5836796, 23.4001133 ], [ 68.5831994, 23.4029078 ], [ 68.5752995, 23.4026211 ], [ 68.5765702, 23.4055877 ], [ 68.5742663, 23.406918 ], [ 68.5703429, 23.4037862 ], [ 68.5658726, 23.4172144 ], [ 68.5628007, 23.418276 ], [ 68.5588453, 23.4162911 ], [ 68.5477219, 23.4170618 ], [ 68.5434882, 23.4202109 ], [ 68.5433063, 23.4219309 ], [ 68.5483784, 23.4232868 ], [ 68.5463619, 23.4255398 ], [ 68.5441611, 23.4239675 ], [ 68.5423503, 23.4250321 ], [ 68.5351917, 23.433904 ], [ 68.5351849, 23.4366941 ], [ 68.5333843, 23.4367112 ], [ 68.5306286, 23.4452017 ], [ 68.5319963, 23.4486066 ], [ 68.5362124, 23.4515978 ], [ 68.5415998, 23.4520205 ], [ 68.5392988, 23.4537303 ], [ 68.5420849, 23.4589057 ], [ 68.5432213, 23.4571772 ], [ 68.5460237, 23.4600002 ], [ 68.5438247, 23.4628569 ], [ 68.5462654, 23.4650613 ], [ 68.5437888, 23.4655025 ], [ 68.5407541, 23.4584716 ], [ 68.5341686, 23.4563506 ], [ 68.5336297, 23.4573118 ], [ 68.5355801, 23.4604778 ], [ 68.5322739, 23.4576045 ], [ 68.5292206, 23.45707 ], [ 68.5303831, 23.453179 ], [ 68.5321991, 23.4524893 ], [ 68.5307332, 23.4494592 ], [ 68.5287804, 23.4499139 ], [ 68.5213926, 23.4611779 ], [ 68.5208233, 23.4631279 ], [ 68.5221876, 23.464587 ], [ 68.5192168, 23.4647792 ], [ 68.51922, 23.4669598 ], [ 68.5211666, 23.4685593 ], [ 68.518184, 23.4711894 ], [ 68.5127745, 23.4845942 ], [ 68.5129778, 23.4873528 ], [ 68.5151658, 23.4873453 ], [ 68.5160383, 23.4858651 ], [ 68.5177069, 23.4864171 ], [ 68.5173954, 23.4903626 ], [ 68.5154107, 23.4931152 ], [ 68.5117919, 23.494756 ], [ 68.5136706, 23.4959583 ], [ 68.5121504, 23.4992348 ], [ 68.5129419, 23.5010398 ], [ 68.5045273, 23.4994712 ], [ 68.5024211, 23.5019304 ], [ 68.50501, 23.5028398 ], [ 68.502524, 23.50719 ], [ 68.5045599, 23.5133405 ], [ 68.5033434, 23.5105766 ], [ 68.5023624, 23.5125894 ], [ 68.5007331, 23.5116085 ], [ 68.5006534, 23.5130395 ], [ 68.494334, 23.5181179 ], [ 68.4949124, 23.5242664 ], [ 68.4902933, 23.5331367 ], [ 68.4896235, 23.5397963 ], [ 68.4835933, 23.548708 ], [ 68.4892433, 23.553056 ], [ 68.4924322, 23.5538662 ], [ 68.4948122, 23.5591962 ], [ 68.4928036, 23.5747732 ], [ 68.4904029, 23.5795334 ], [ 68.4920741, 23.5860151 ], [ 68.4951516, 23.5874213 ], [ 68.4976334, 23.5907105 ], [ 68.4945114, 23.5890742 ], [ 68.4936627, 23.5930522 ], [ 68.4950743, 23.5991819 ], [ 68.4975545, 23.6006111 ], [ 68.4939439, 23.6005417 ], [ 68.4929051, 23.6058336 ], [ 68.4953723, 23.6036511 ], [ 68.4964619, 23.6058625 ], [ 68.5011317, 23.6044927 ], [ 68.5062704, 23.6103927 ], [ 68.509121, 23.6113023 ], [ 68.5088827, 23.6094015 ], [ 68.5105512, 23.6118316 ], [ 68.5059315, 23.6113992 ], [ 68.5023517, 23.60955 ], [ 68.5022116, 23.612841 ], [ 68.5073005, 23.6145786 ], [ 68.5053602, 23.6147306 ], [ 68.5059111, 23.6177512 ], [ 68.5092931, 23.6162324 ], [ 68.5095743, 23.6140701 ], [ 68.5123807, 23.6152189 ], [ 68.5146808, 23.6183987 ], [ 68.5123537, 23.6181984 ], [ 68.5119511, 23.6191823 ], [ 68.5157122, 23.6214016 ], [ 68.5153524, 23.6239206 ], [ 68.5112336, 23.6216919 ], [ 68.507931, 23.6219785 ], [ 68.5106402, 23.639479 ], [ 68.5138314, 23.644059 ], [ 68.5119103, 23.6384099 ], [ 68.5146203, 23.6383081 ], [ 68.5169405, 23.6354293 ], [ 68.5290193, 23.6357983 ], [ 68.5293613, 23.6373381 ], [ 68.5260178, 23.6392862 ], [ 68.5296612, 23.6427286 ], [ 68.5283415, 23.6448496 ], [ 68.5290213, 23.6466695 ], [ 68.5325889, 23.646789 ], [ 68.5333714, 23.6492363 ], [ 68.527158, 23.6481085 ], [ 68.5245593, 23.6434072 ], [ 68.5218111, 23.6421187 ], [ 68.5221813, 23.6449496 ], [ 68.5206328, 23.6448492 ], [ 68.5200388, 23.6460994 ], [ 68.520732, 23.6495896 ], [ 68.5320698, 23.6532355 ], [ 68.5327471, 23.6519763 ], [ 68.5349909, 23.6530656 ], [ 68.5335074, 23.6509475 ], [ 68.5349096, 23.6502169 ], [ 68.5383189, 23.6526386 ], [ 68.5392288, 23.655366 ], [ 68.5393087, 23.6528694 ], [ 68.5429107, 23.653237 ], [ 68.5407075, 23.6575066 ], [ 68.5486174, 23.6582781 ], [ 68.5479885, 23.6609054 ], [ 68.5526184, 23.6641671 ], [ 68.5516079, 23.6655661 ], [ 68.5555858, 23.6697574 ], [ 68.5601845, 23.6776057 ], [ 68.5595367, 23.6791855 ], [ 68.5614767, 23.6817144 ], [ 68.560736, 23.6827164 ], [ 68.5625983, 23.6835568 ], [ 68.5614656, 23.6842742 ], [ 68.5623573, 23.6852045 ], [ 68.5610281, 23.6867164 ], [ 68.562317, 23.687683 ], [ 68.561537, 23.688694 ], [ 68.5628656, 23.6885455 ], [ 68.5646864, 23.6839866 ], [ 68.5679556, 23.6849448 ], [ 68.5681947, 23.6877259 ], [ 68.5648259, 23.6900045 ], [ 68.5610263, 23.6904725 ], [ 68.5571345, 23.6892248 ], [ 68.5576859, 23.6944439 ], [ 68.5525454, 23.6993444 ], [ 68.5506685, 23.697935 ], [ 68.5522771, 23.6969832 ], [ 68.5516658, 23.6943735 ], [ 68.5482894, 23.6918121 ], [ 68.5499657, 23.7010137 ], [ 68.5571893, 23.7166327 ], [ 68.560037, 23.7189138 ], [ 68.5671164, 23.7214627 ], [ 68.5733046, 23.7214423 ], [ 68.5691872, 23.7177028 ], [ 68.572737, 23.7181826 ], [ 68.573723, 23.717113 ], [ 68.5716146, 23.7169317 ], [ 68.5732431, 23.715474 ], [ 68.5695658, 23.7151432 ], [ 68.5720328, 23.7133834 ], [ 68.5712155, 23.7096044 ], [ 68.5774237, 23.7068119 ], [ 68.5797225, 23.7089344 ], [ 68.579625, 23.7072415 ], [ 68.5812427, 23.7078243 ], [ 68.5809936, 23.7050433 ], [ 68.5848615, 23.7067734 ], [ 68.5845927, 23.7040239 ], [ 68.5872357, 23.7026251 ], [ 68.5930102, 23.7065314 ], [ 68.5953245, 23.7060126 ], [ 68.5956623, 23.707972 ], [ 68.6004621, 23.7087944 ], [ 68.5964603, 23.7140216 ], [ 68.5923515, 23.7136913 ], [ 68.5930517, 23.7172309 ], [ 68.5955914, 23.7187031 ], [ 68.5952136, 23.719791 ], [ 68.5998813, 23.7214396 ], [ 68.5968211, 23.724053 ], [ 68.6025828, 23.7236206 ], [ 68.6055009, 23.7195714 ], [ 68.6072611, 23.7214902 ], [ 68.6101296, 23.721021 ], [ 68.6127679, 23.7179513 ], [ 68.6149399, 23.72029 ], [ 68.6167101, 23.7195226 ], [ 68.6189116, 23.7214007 ], [ 68.6202111, 23.7203624 ], [ 68.620927, 23.7226107 ], [ 68.622148, 23.7211525 ], [ 68.6231777, 23.7257709 ], [ 68.6251783, 23.7252291 ], [ 68.6321563, 23.7278202 ], [ 68.6311562, 23.7328089 ], [ 68.6286896, 23.7345109 ], [ 68.6216282, 23.7244391 ], [ 68.6156801, 23.72587 ], [ 68.6136791, 23.7286102 ], [ 68.6136494, 23.7318426 ], [ 68.6152822, 23.7359509 ], [ 68.6165082, 23.7345108 ], [ 68.618308, 23.7345922 ], [ 68.6175575, 23.7370797 ], [ 68.6184795, 23.7380187 ], [ 68.6284789, 23.7389894 ], [ 68.6300386, 23.7414994 ], [ 68.6349533, 23.7387588 ], [ 68.6383367, 23.7422392 ], [ 68.6379292, 23.7390384 ], [ 68.6408958, 23.7361804 ], [ 68.6406166, 23.7386409 ], [ 68.6420978, 23.7394308 ], [ 68.6467956, 23.7380216 ], [ 68.6460947, 23.7399404 ], [ 68.6488457, 23.7389016 ], [ 68.6457663, 23.7408117 ], [ 68.6484344, 23.7421296 ], [ 68.6481552, 23.7435787 ], [ 68.6461248, 23.7434797 ], [ 68.6439567, 23.7413582 ], [ 68.641956, 23.7427083 ], [ 68.6419269, 23.7452997 ], [ 68.644527, 23.7505291 ], [ 68.6389706, 23.7535635 ], [ 68.6352878, 23.7610173 ], [ 68.6359749, 23.7642948 ], [ 68.6409103, 23.7711925 ], [ 68.6434916, 23.7787044 ], [ 68.6517904, 23.7943819 ], [ 68.6567466, 23.7982092 ], [ 68.6607986, 23.7961678 ], [ 68.6725324, 23.8040423 ], [ 68.6790889, 23.7955664 ], [ 68.6814878, 23.794956 ], [ 68.6938541, 23.8181735 ], [ 68.7112431, 23.8301685 ], [ 68.7083087, 23.834273 ], [ 68.7000684, 23.8380839 ], [ 68.69271, 23.8444166 ], [ 68.6882348, 23.8464455 ], [ 68.6718601, 23.8434449 ], [ 68.6676484, 23.841514 ], [ 68.6583603, 23.8334535 ], [ 68.6554793, 23.8327904 ], [ 68.6354412, 23.8307031 ], [ 68.6220044, 23.8312408 ], [ 68.6026491, 23.8295238 ], [ 68.5808331, 23.820987 ], [ 68.574005, 23.8137437 ], [ 68.5717064, 23.8070615 ], [ 68.5575897, 23.7879056 ], [ 68.5553681, 23.7864916 ], [ 68.5550703, 23.7838099 ], [ 68.5517565, 23.7790139 ], [ 68.5306951, 23.7535995 ], [ 68.5270027, 23.7458212 ], [ 68.5232013, 23.7465593 ], [ 68.5231534, 23.7450197 ], [ 68.5210798, 23.7438898 ], [ 68.5193504, 23.7476492 ], [ 68.5115322, 23.7483299 ], [ 68.5087593, 23.7504878 ], [ 68.5057221, 23.7409218 ], [ 68.498606, 23.7381689 ], [ 68.4884243, 23.7316217 ], [ 68.4756279, 23.7350211 ], [ 68.472658, 23.73747 ], [ 68.4736981, 23.7379794 ], [ 68.4731791, 23.7390903 ], [ 68.4639566, 23.7422426 ], [ 68.4551576, 23.7409789 ], [ 68.4450713, 23.7350699 ], [ 68.4418108, 23.7362993 ], [ 68.4388632, 23.7356731 ], [ 68.4348435, 23.7389793 ], [ 68.4277155, 23.7371476 ], [ 68.4209768, 23.7332088 ], [ 68.4188495, 23.7270935 ], [ 68.419753, 23.7235719 ], [ 68.4190253, 23.7179018 ], [ 68.412725, 23.702974 ], [ 68.409066, 23.6791741 ], [ 68.4034975, 23.6577176 ], [ 68.4015451, 23.6261293 ], [ 68.3977061, 23.6132137 ], [ 68.3981852, 23.6076111 ], [ 68.3947057, 23.6010338 ], [ 68.3889292, 23.5956214 ], [ 68.3508724, 23.5849344 ], [ 68.3341512, 23.5786332 ], [ 68.3081142, 23.575595 ], [ 68.2909787, 23.5713657 ], [ 68.2818673, 23.5661281 ], [ 68.2780812, 23.5597286 ], [ 68.2726698, 23.5642911 ], [ 68.2693498, 23.5649283 ], [ 68.2656337, 23.5635172 ], [ 68.2663214, 23.5670165 ], [ 68.2596117, 23.5668583 ], [ 68.2541725, 23.5699061 ], [ 68.2441531, 23.5705755 ], [ 68.2463149, 23.5725558 ], [ 68.2295585, 23.5779856 ], [ 68.231737, 23.5765078 ], [ 68.2299147, 23.5762969 ], [ 68.2297077, 23.574595 ], [ 68.223619, 23.5739038 ], [ 68.2222875, 23.5750469 ], [ 68.224605, 23.5760476 ], [ 68.2227685, 23.5763558 ], [ 68.224557, 23.5772756 ], [ 68.2215494, 23.577106 ], [ 68.222109, 23.5786858 ], [ 68.2201151, 23.5781362 ], [ 68.2199252, 23.5797165 ], [ 68.2152589, 23.5821075 ], [ 68.2090878, 23.5833255 ], [ 68.19924, 23.5794254 ], [ 68.1936908, 23.5801549 ], [ 68.1874515, 23.5822569 ], [ 68.1840003, 23.5870031 ], [ 68.1853709, 23.5955532 ], [ 68.1895805, 23.5887255 ], [ 68.19221, 23.5866972 ], [ 68.2015994, 23.5853068 ], [ 68.2038288, 23.586344 ], [ 68.2072812, 23.5846673 ], [ 68.2076691, 23.5861569 ], [ 68.1951207, 23.5887366 ], [ 68.1888612, 23.6003238 ], [ 68.186531, 23.6037648 ], [ 68.1850222, 23.6039325 ], [ 68.1838629, 23.6078742 ], [ 68.1810317, 23.6093832 ], [ 68.1805017, 23.6070447 ], [ 68.1800432, 23.6119253 ], [ 68.1778639, 23.614093 ], [ 68.1776553, 23.6191946 ], [ 68.1775119, 23.6278626 ], [ 68.182392, 23.6384792 ], [ 68.185951, 23.6412227 ], [ 68.1863205, 23.6452811 ], [ 68.1900022, 23.6480922 ], [ 68.1964333, 23.6503421 ], [ 68.2084698, 23.6506701 ], [ 68.2056281, 23.6518589 ], [ 68.1957923, 23.6522385 ], [ 68.1872516, 23.6554385 ], [ 68.182571, 23.6550386 ], [ 68.1880716, 23.6585894 ], [ 68.2017703, 23.6586689 ], [ 68.2047468, 23.6620066 ], [ 68.2066594, 23.6688888 ], [ 68.2057019, 23.6803379 ], [ 68.2016321, 23.6901987 ], [ 68.1984825, 23.6946064 ], [ 68.1968203, 23.7029772 ], [ 68.1917825, 23.707345 ], [ 68.1897626, 23.7172238 ], [ 68.1816545, 23.7216332 ], [ 68.1846431, 23.7373336 ], [ 68.2026391, 23.7666719 ], [ 68.2034526, 23.7896683 ], [ 68.1985404, 23.8132364 ], [ 68.1980824, 23.8360754 ], [ 68.1995317, 23.8470945 ], [ 68.2039219, 23.8588434 ], [ 68.2061334, 23.8706926 ], [ 68.20865, 23.8754631 ], [ 68.2168927, 23.8824918 ], [ 68.2231003, 23.8849934 ], [ 68.2308384, 23.8857331 ], [ 68.2521652, 23.8968981 ], [ 68.2579978, 23.9030196 ], [ 68.2714349, 23.9246577 ], [ 68.2757437, 23.9287687 ], [ 68.2829908, 23.9317256 ], [ 68.2891838, 23.9319774 ], [ 68.3189362, 23.9220998 ], [ 68.3240981, 23.9212889 ], [ 68.328655, 23.9223468 ], [ 68.3347089, 23.9271291 ], [ 68.3383161, 23.9363981 ], [ 68.3356973, 23.956297 ], [ 68.3390348, 23.9669518 ], [ 68.3423451, 23.9707536 ], [ 68.3503668, 23.9760053 ], [ 68.3689329, 23.9847739 ], [ 68.3786024, 23.9844624 ], [ 68.3832992, 23.9777132 ], [ 68.3858089, 23.9695149 ], [ 68.3896602, 23.9665938 ], [ 68.3973788, 23.9704751 ], [ 68.753026, 23.9713104 ], [ 68.7625175, 24.1143105 ], [ 68.7656357, 24.2078214 ], [ 68.769345, 24.2643874 ], [ 68.7682863, 24.2824074 ], [ 68.7657061, 24.2877053 ], [ 68.7647043, 24.2958437 ], [ 68.8082298, 24.3136004 ], [ 68.8204123, 24.3123412 ], [ 68.8263117, 24.3173629 ], [ 68.8307076, 24.3118614 ], [ 68.8433851, 24.2779358 ], [ 68.8438769, 24.2600776 ], [ 68.8476676, 24.2392496 ], [ 68.8574037, 24.2143097 ], [ 68.8648215, 24.2127801 ], [ 68.8749216, 24.2123289 ], [ 68.8802918, 24.2165676 ], [ 68.8899027, 24.2378877 ], [ 68.8927995, 24.2514662 ], [ 68.8974988, 24.2636856 ], [ 68.9067503, 24.279786 ], [ 68.9452838, 24.3024928 ], [ 68.9629404, 24.2792759 ], [ 68.9673425, 24.2717255 ], [ 68.9732427, 24.2601743 ], [ 68.9847413, 24.2276097 ], [ 68.9936285, 24.2243076 ], [ 69.0053284, 24.2231197 ], [ 69.0161459, 24.2256692 ], [ 69.0308328, 24.235389 ], [ 69.0339018, 24.2395485 ], [ 69.0828688, 24.2651065 ], [ 69.0878952, 24.2693151 ], [ 69.0936659, 24.2713251 ], [ 69.0947535, 24.2744943 ], [ 69.1937535, 24.2361144 ], [ 69.3127396, 24.2816019 ], [ 69.3668532, 24.2701433 ], [ 69.3762783, 24.2694935 ], [ 69.4049774, 24.2712011 ], [ 69.4459924, 24.2803285 ], [ 69.4697373, 24.2711199 ], [ 69.482878, 24.268389 ], [ 69.4940061, 24.2677801 ], [ 69.510704, 24.2697115 ], [ 69.5283598, 24.273362 ], [ 69.544159, 24.2784993 ], [ 69.5636788, 24.2814876 ], [ 69.594446, 24.2923985 ], [ 69.731214, 24.1710566 ], [ 70.0250573, 24.1712849 ], [ 70.0386639, 24.1764619 ], [ 70.0510468, 24.1896003 ], [ 70.0668101, 24.1991592 ], [ 70.1098684, 24.2949747 ], [ 70.1393667, 24.3029015 ], [ 70.1659107, 24.3034833 ], [ 70.1990565, 24.3144806 ], [ 70.2141989, 24.321212 ], [ 70.2312162, 24.3235934 ], [ 70.2506506, 24.3244196 ], [ 70.2546935, 24.3261608 ], [ 70.2594924, 24.3310488 ], [ 70.2658604, 24.3336807 ], [ 70.305218, 24.3468307 ], [ 70.3255854, 24.3518764 ], [ 70.3455909, 24.351579 ], [ 70.3541988, 24.3541082 ], [ 70.3630883, 24.3506468 ], [ 70.3684592, 24.350769 ], [ 70.3764171, 24.3555269 ], [ 70.3909146, 24.3598776 ], [ 70.3983668, 24.3671173 ], [ 70.411675, 24.3756147 ], [ 70.4387012, 24.3833157 ], [ 70.4760953, 24.3897863 ], [ 70.4933631, 24.3969737 ], [ 70.5153308, 24.4040633 ], [ 70.5347601, 24.4078949 ], [ 70.5474457, 24.413382 ], [ 70.5485953, 24.4118613 ], [ 70.5496783, 24.4144033 ], [ 70.5577655, 24.4198014 ], [ 70.5731217, 24.4223623 ], [ 70.6024685, 24.4081227 ], [ 70.5989787, 24.4059644 ], [ 70.5804533, 24.3632745 ], [ 70.5635638, 24.3562582 ], [ 70.562042, 24.3544565 ], [ 70.5627143, 24.3499471 ], [ 70.5817736, 24.3044686 ], [ 70.5794419, 24.2952906 ], [ 70.5845313, 24.2903625 ], [ 70.5848207, 24.2779846 ], [ 70.5744007, 24.2641455 ], [ 70.5712298, 24.2517349 ], [ 70.5819594, 24.2479372 ], [ 70.5827781, 24.2439151 ], [ 70.5856227, 24.2473602 ], [ 70.6435039, 24.2248918 ], [ 70.6669432, 24.2195828 ], [ 70.698422, 24.2202658 ], [ 70.6964564, 24.2174273 ], [ 70.7005377, 24.2186622 ], [ 70.7138996, 24.2156529 ], [ 70.740202, 24.2190387 ], [ 70.7580935, 24.2185548 ], [ 70.7749462, 24.2203273 ], [ 70.8054597, 24.2208541 ], [ 70.826545, 24.2268254 ], [ 70.836192, 24.2314867 ], [ 70.8522332, 24.2450732 ], [ 70.8766086, 24.2457473 ], [ 70.8844913, 24.2504824 ], [ 70.9072578, 24.2587792 ], [ 70.9092033, 24.262831 ], [ 70.8828512, 24.2728193 ], [ 70.8757487, 24.2802316 ], [ 70.8745051, 24.2944903 ], [ 70.8771511, 24.2979995 ], [ 70.8826341, 24.2998088 ], [ 70.8786659, 24.3013965 ], [ 70.9171914, 24.320606 ], [ 70.9186565, 24.3229174 ], [ 70.9247692, 24.3258832 ], [ 70.923658, 24.3277337 ], [ 70.9476798, 24.3480517 ], [ 70.9553674, 24.3486103 ], [ 70.9865425, 24.3647089 ], [ 71.0035473, 24.3509559 ], [ 71.0202049, 24.3473659 ], [ 71.0399249, 24.3532736 ], [ 71.0421337, 24.3512524 ], [ 71.0420532, 24.3538751 ], [ 71.0468315, 24.3562339 ], [ 71.0494827, 24.3559735 ], [ 71.0572704, 24.3614843 ], [ 71.0666806, 24.3768904 ], [ 71.0818892, 24.3929116 ], [ 71.0843188, 24.3944516 ], [ 71.1080472, 24.3967084 ], [ 71.1182357, 24.4015303 ], [ 71.1218439, 24.4056608 ], [ 71.1255265, 24.4200789 ], [ 71.1030673, 24.4356964 ], [ 71.0675608, 24.4369153 ], [ 71.043895, 24.434169 ], [ 71.0375359, 24.4319355 ], [ 71.0102096, 24.4442546 ], [ 71.0042515, 24.4456946 ], [ 70.9985652, 24.4444268 ], [ 70.9963661, 24.4658978 ], [ 70.9986382, 24.4724722 ], [ 70.9960364, 24.4750159 ], [ 70.9978345, 24.4771932 ], [ 70.9999998, 24.4863392 ], [ 71.0052098, 24.5230207 ], [ 71.0030321, 24.5300204 ], [ 70.9951811, 24.5378892 ], [ 70.9873547, 24.5434205 ], [ 70.9924618, 24.5638471 ], [ 70.9894308, 24.5848261 ], [ 70.9862612, 24.5954636 ], [ 70.9988224, 24.6218426 ], [ 71.0071302, 24.6286099 ], [ 71.0094598, 24.6354233 ], [ 71.0491973, 24.6483899 ], [ 71.0637935, 24.6557181 ], [ 71.0663259, 24.659109 ], [ 71.0747317, 24.6619197 ], [ 71.0854326, 24.6719258 ], [ 71.0964895, 24.6887247 ], [ 71.1133974, 24.6752571 ], [ 71.2878234, 24.616229 ], [ 71.2846148, 24.5938829 ], [ 71.3068134, 24.5894435 ], [ 71.3034952, 24.5818945 ], [ 71.3007421, 24.5794647 ] ], [ [ 71.1317597, 24.2577886 ], [ 71.1376621, 24.2492978 ], [ 71.1395629, 24.2507998 ], [ 71.1598784, 24.235656 ], [ 71.1621859, 24.2328998 ], [ 71.1619001, 24.2283178 ], [ 71.1701554, 24.2236142 ], [ 71.1779479, 24.2162417 ], [ 71.1874516, 24.2115193 ], [ 71.1981304, 24.214614 ], [ 71.2048584, 24.2181473 ], [ 71.2114875, 24.2279874 ], [ 71.2126348, 24.2340854 ], [ 71.2108886, 24.241563 ], [ 71.2076178, 24.2452411 ], [ 71.1871023, 24.2520344 ], [ 71.1783771, 24.2536883 ], [ 71.1763455, 24.2567748 ], [ 71.1728357, 24.2587358 ], [ 71.1678509, 24.2597624 ], [ 71.1523351, 24.2666709 ], [ 71.1507162, 24.2695601 ], [ 71.1422393, 24.2736927 ], [ 71.1332907, 24.274583 ], [ 71.128825, 24.2692951 ], [ 71.1317597, 24.2577886 ] ], [ [ 71.2245687, 24.2183959 ], [ 71.21628, 24.2044722 ], [ 71.2239405, 24.2047188 ], [ 71.2348451, 24.2028395 ], [ 71.240608, 24.2062659 ], [ 71.2419768, 24.213053 ], [ 71.2350469, 24.2099304 ], [ 71.2300573, 24.2150195 ], [ 71.2245687, 24.2183959 ] ] ] ] } }
]
}
