{
"type": "FeatureCollection",
"name": "2402",
"crs": { "type": "name", "properties": { "name": "urn:ogc:def:crs:OGC:1.3:CRS84" } },
"features": [
{ "type": "Feature", "properties": { "code": "2402", "name": "Banas Kantha", "type": "district" }, "geometry": { "type": "MultiPolygon", "coordinates": [ [ [ [ 71.2245687, 24.2183959 ], [ 71.2350469, 24.2099304 ], [ 71.2419768, 24.213053 ], [ 71.240608, 24.2062659 ], [ 71.2348451, 24.2028395 ], [ 71.2239405, 24.2047188 ], [ 71.21628, 24.2044722 ], [ 71.2245687, 24.2183959 ] ] ], [ [ [ 71.1871023, 24.2520344 ], [ 71.2076178, 24.2452411 ], [ 71.2108886, 24.241563 ], [ 71.2126348, 24.2340854 ], [ 71.2114875, 24.2279874 ], [ 71.2048584, 24.2181473 ], [ 71.1981304, 24.214614 ], [ 71.1874516, 24.2115193 ], [ 71.1779479, 24.2162417 ], [ 71.1701554, 24.2236142 ], [ 71.1619001, 24.2283178 ], [ 71.1621859, 24.2328998 ], [ 71.1598784, 24.235656 ], [ 71.1475961, 24.245145 ], [ 71.1395629, 24.2507998 ], [ 71.1376621, 24.2492978 ], [ 71.1317597, 24.2577886 ], [ 71.128825, 24.2692951 ], [ 71.1332907, 24.274583 ], [ 71.1422393, 24.2736927 ], [ 71.1507162, 24.2695601 ], [ 71.1523351, 24.2666709 ], [ 71.1678509, 24.2597624 ], [ 71.1728357, 24.2587358 ], [ 71.1763455, 24.2567748 ], [ 71.1783771, 24.2536883 ], [ 71.1871023, 24.2520344 ] ] ], [ [ [ 72.0597628, 24.7120584 ], [ 72.0851986, 24.7064111 ], [ 72.0911617, 24.6909703 ], [ 72.0927549, 24.6819472 ], [ 72.0863532, 24.6788763 ], [ 72.0861412, 24.6775897 ], [ 72.0872104, 24.67002 ], [ 72.0900228, 24.6641435 ], [ 72.0898168, 24.6586951 ], [ 72.0944649, 24.6582131 ], [ 72.0980562, 24.6561191 ], [ 72.102478, 24.6504593 ], [ 72.1076197, 24.6489975 ], [ 72.1087658, 24.6466458 ], [ 72.1149591, 24.6484292 ], [ 72.1169944, 24.6433647 ], [ 72.1245705, 24.6386026 ], [ 72.1281855, 24.6416991 ], [ 72.1502573, 24.6436695 ], [ 72.1603301, 24.6352622 ], [ 72.1648097, 24.6212767 ], [ 72.1703409, 24.6231755 ], [ 72.1732973, 24.621465 ], [ 72.1838893, 24.6197311 ], [ 72.1839933, 24.6205977 ], [ 72.1871382, 24.619504 ], [ 72.192032, 24.6200481 ], [ 72.1965718, 24.6147194 ], [ 72.1977876, 24.6167005 ], [ 72.1947495, 24.6230215 ], [ 72.202211, 24.6231126 ], [ 72.2103317, 24.6268457 ], [ 72.216692, 24.6269005 ], [ 72.2268748, 24.639163 ], [ 72.2303676, 24.6406095 ], [ 72.2340023, 24.6404264 ], [ 72.2369759, 24.6353911 ], [ 72.2422889, 24.6345789 ], [ 72.2485679, 24.6269001 ], [ 72.2546866, 24.6248813 ], [ 72.2631156, 24.6309274 ], [ 72.2678909, 24.6367991 ], [ 72.2708436, 24.637573 ], [ 72.2722317, 24.6370413 ], [ 72.2706814, 24.6305175 ], [ 72.273656, 24.6283664 ], [ 72.2829764, 24.6257542 ], [ 72.2892026, 24.619533 ], [ 72.2971493, 24.6247915 ], [ 72.3049851, 24.6175458 ], [ 72.3155812, 24.6197634 ], [ 72.3202231, 24.6177822 ], [ 72.3354466, 24.6333015 ], [ 72.3379513, 24.6300655 ], [ 72.3473344, 24.628456 ], [ 72.3476362, 24.6260501 ], [ 72.3431881, 24.6211876 ], [ 72.3453077, 24.6156268 ], [ 72.3439266, 24.6096274 ], [ 72.3410236, 24.6085344 ], [ 72.3386742, 24.6056043 ], [ 72.3385127, 24.6001468 ], [ 72.3355855, 24.5985843 ], [ 72.3306234, 24.5995534 ], [ 72.3173894, 24.5943174 ], [ 72.3135684, 24.594018 ], [ 72.3077814, 24.5958934 ], [ 72.3072983, 24.5977991 ], [ 72.30462, 24.5989751 ], [ 72.3053783, 24.6027941 ], [ 72.3033001, 24.603425 ], [ 72.3032491, 24.6057037 ], [ 72.297394, 24.6089682 ], [ 72.2951936, 24.6094113 ], [ 72.2897463, 24.6038651 ], [ 72.2867183, 24.6049766 ], [ 72.2853498, 24.6071443 ], [ 72.2763437, 24.6075269 ], [ 72.2643533, 24.6044763 ], [ 72.2643029, 24.6000615 ], [ 72.2584491, 24.5982968 ], [ 72.256883, 24.5941652 ], [ 72.2484704, 24.5893375 ], [ 72.2463957, 24.5856071 ], [ 72.2514807, 24.5802533 ], [ 72.2531047, 24.5750995 ], [ 72.263213, 24.5650094 ], [ 72.2647324, 24.5602753 ], [ 72.2713056, 24.5613632 ], [ 72.2752065, 24.5652344 ], [ 72.2854976, 24.5653581 ], [ 72.2901271, 24.5507398 ], [ 72.2892999, 24.5480218 ], [ 72.295435, 24.5466258 ], [ 72.2993382, 24.5472913 ], [ 72.3018585, 24.5502087 ], [ 72.3235974, 24.5513188 ], [ 72.3268783, 24.5539696 ], [ 72.3289911, 24.5524084 ], [ 72.3304019, 24.554544 ], [ 72.3268718, 24.5580233 ], [ 72.330935, 24.569305 ], [ 72.3331864, 24.5669268 ], [ 72.3409514, 24.5632181 ], [ 72.348745, 24.5624477 ], [ 72.3537298, 24.5637619 ], [ 72.3542936, 24.5565577 ], [ 72.3579558, 24.5556418 ], [ 72.3583562, 24.5508976 ], [ 72.360498, 24.5509203 ], [ 72.3612287, 24.5477966 ], [ 72.3621761, 24.5485913 ], [ 72.367516, 24.5477203 ], [ 72.3698602, 24.5437029 ], [ 72.3697172, 24.5418205 ], [ 72.3675115, 24.5397711 ], [ 72.368163, 24.5373425 ], [ 72.3709019, 24.531014 ], [ 72.3764628, 24.5246896 ], [ 72.3789789, 24.5183608 ], [ 72.3784508, 24.5144969 ], [ 72.3796891, 24.5123933 ], [ 72.3823433, 24.5110434 ], [ 72.3857329, 24.5118693 ], [ 72.3885791, 24.5076799 ], [ 72.3917221, 24.510853 ], [ 72.4000411, 24.514472 ], [ 72.4129684, 24.5172544 ], [ 72.4163298, 24.5211717 ], [ 72.4201482, 24.5201008 ], [ 72.4234379, 24.5166871 ], [ 72.4253424, 24.5175756 ], [ 72.4338331, 24.5158798 ], [ 72.4363056, 24.5171472 ], [ 72.4392352, 24.5151327 ], [ 72.4410806, 24.5153261 ], [ 72.4414337, 24.5113625 ], [ 72.4436821, 24.508978 ], [ 72.4429345, 24.5039813 ], [ 72.4302176, 24.4801744 ], [ 72.4337791, 24.4601067 ], [ 72.4438879, 24.4499561 ], [ 72.4480395, 24.447794 ], [ 72.4514568, 24.4421079 ], [ 72.4520916, 24.4339676 ], [ 72.4584133, 24.4248671 ], [ 72.457243, 24.4147987 ], [ 72.4749945, 24.4143975 ], [ 72.5004239, 24.4170546 ], [ 72.4931928, 24.4590839 ], [ 72.5044376, 24.4583665 ], [ 72.5048, 24.4715975 ], [ 72.5144858, 24.4839553 ], [ 72.5201861, 24.5 ], [ 72.5259887, 24.5031299 ], [ 72.5325993, 24.5037169 ], [ 72.5352462, 24.5056722 ], [ 72.5359845, 24.5176096 ], [ 72.5382438, 24.5196821 ], [ 72.5410045, 24.5181226 ], [ 72.5436498, 24.5130082 ], [ 72.5518243, 24.504843 ], [ 72.551951, 24.5033953 ], [ 72.5543304, 24.5026554 ], [ 72.5554196, 24.5002111 ], [ 72.5759428, 24.4788547 ], [ 72.6135674, 24.4723075 ], [ 72.6563313, 24.4622153 ], [ 72.6709402, 24.4648793 ], [ 72.6808779, 24.4651376 ], [ 72.683358, 24.4638772 ], [ 72.6882325, 24.4578083 ], [ 72.6875, 24.4526038 ], [ 72.6797732, 24.4429286 ], [ 72.6891457, 24.4117323 ], [ 72.6919083, 24.4061245 ], [ 72.6965742, 24.4021182 ], [ 72.7002725, 24.3959636 ], [ 72.7199042, 24.3747767 ], [ 72.724329, 24.3676188 ], [ 72.7320332, 24.3637494 ], [ 72.7714141, 24.368226 ], [ 72.8058248, 24.3629366 ], [ 72.8085036, 24.3667568 ], [ 72.8147803, 24.3702262 ], [ 72.8364942, 24.3691633 ], [ 72.8497601, 24.3720414 ], [ 72.8540773, 24.3713063 ], [ 72.8556844, 24.3686386 ], [ 72.8576704, 24.3681829 ], [ 72.8585819, 24.3697359 ], [ 72.8697985, 24.3637824 ], [ 72.869966, 24.3658589 ], [ 72.8911502, 24.356974 ], [ 72.8939633, 24.3531141 ], [ 72.901634, 24.3471089 ], [ 72.907855, 24.3388783 ], [ 72.9107269, 24.3372119 ], [ 72.9136291, 24.3380012 ], [ 72.9197949, 24.3444187 ], [ 72.9275456, 24.3449623 ], [ 72.9382098, 24.3483031 ], [ 72.9509101, 24.3563368 ], [ 72.9540315, 24.3563624 ], [ 72.9594698, 24.3609593 ], [ 72.9622718, 24.3582944 ], [ 72.9629673, 24.3521231 ], [ 72.966547, 24.3486992 ], [ 72.9656574, 24.3314375 ], [ 72.9640157, 24.3297909 ], [ 72.9620297, 24.3217162 ], [ 72.9671271, 24.3132354 ], [ 72.9743389, 24.3072451 ], [ 72.9784536, 24.3094181 ], [ 72.9876525, 24.3065585 ], [ 72.9967418, 24.3080186 ], [ 73.0004565, 24.2980665 ], [ 72.9989763, 24.2961444 ], [ 73.0014507, 24.2890557 ], [ 73.0065743, 24.2875863 ], [ 73.0069278, 24.2833749 ], [ 73.0134672, 24.2784864 ], [ 73.0187815, 24.2777543 ], [ 73.0226245, 24.2816481 ], [ 73.023909, 24.2764531 ], [ 73.0280819, 24.2740724 ], [ 73.0248246, 24.2704589 ], [ 73.0244427, 24.2613715 ], [ 73.0177662, 24.2504098 ], [ 73.0167377, 24.2425013 ], [ 73.0139036, 24.2347844 ], [ 73.0049936, 24.2289228 ], [ 72.9969946, 24.2280761 ], [ 72.9916197, 24.2234668 ], [ 72.9891987, 24.208057 ], [ 72.9922837, 24.2015813 ], [ 72.9936878, 24.1926419 ], [ 72.9918, 24.1840166 ], [ 72.9855057, 24.1780309 ], [ 72.9740813, 24.1736285 ], [ 72.9718641, 24.1699508 ], [ 72.9649879, 24.1665694 ], [ 72.9605854, 24.1610871 ], [ 72.9566529, 24.1590082 ], [ 72.9535164, 24.1551547 ], [ 72.9551777, 24.1524994 ], [ 72.9529259, 24.1469074 ], [ 72.9529256, 24.1386011 ], [ 72.9516603, 24.1367103 ], [ 72.9496004, 24.1388376 ], [ 72.942928, 24.1353196 ], [ 72.9434995, 24.1278526 ], [ 72.9424685, 24.1224224 ], [ 72.9405493, 24.1207485 ], [ 72.9417223, 24.115719 ], [ 72.9449377, 24.1135552 ], [ 72.946391, 24.1090808 ], [ 72.9447179, 24.1074339 ], [ 72.9445981, 24.1042559 ], [ 72.9402303, 24.1029351 ], [ 72.9340952, 24.0976063 ], [ 72.9297755, 24.0930575 ], [ 72.9274968, 24.0885124 ], [ 72.9284754, 24.0772127 ], [ 72.9307446, 24.0716006 ], [ 72.9222685, 24.0592477 ], [ 72.9211677, 24.0471632 ], [ 72.9225583, 24.0455827 ], [ 72.9231561, 24.04068 ], [ 72.9180383, 24.0384786 ], [ 72.9116611, 24.031939 ], [ 72.8987035, 24.0254952 ], [ 72.8829169, 24.0280521 ], [ 72.8747235, 24.0274338 ], [ 72.8666533, 24.024725 ], [ 72.8603666, 24.0296092 ], [ 72.8562653, 24.0455309 ], [ 72.8390815, 24.0398535 ], [ 72.8347254, 24.0434504 ], [ 72.8285367, 24.0429746 ], [ 72.8195192, 24.0484432 ], [ 72.8153024, 24.0572581 ], [ 72.813179, 24.0563544 ], [ 72.8089065, 24.0586775 ], [ 72.8050436, 24.0649176 ], [ 72.8066258, 24.0665369 ], [ 72.8059806, 24.0681924 ], [ 72.8021294, 24.0709625 ], [ 72.8026197, 24.0734231 ], [ 72.7994031, 24.075806 ], [ 72.7972158, 24.0746651 ], [ 72.7944176, 24.0788009 ], [ 72.7922074, 24.0795566 ], [ 72.7918341, 24.080319 ], [ 72.7936422, 24.080646 ], [ 72.7936096, 24.0855937 ], [ 72.7899153, 24.0878218 ], [ 72.7893094, 24.0895685 ], [ 72.790381, 24.0901244 ], [ 72.785255, 24.1002516 ], [ 72.7821442, 24.1020412 ], [ 72.7736476, 24.1022534 ], [ 72.7684432, 24.0977175 ], [ 72.7688076, 24.0910501 ], [ 72.7682578, 24.0898353 ], [ 72.7643442, 24.0891962 ], [ 72.7646744, 24.0817646 ], [ 72.762031, 24.0804829 ], [ 72.7607462, 24.0771964 ], [ 72.759769, 24.0784455 ], [ 72.7594522, 24.0772897 ], [ 72.7619188, 24.0706662 ], [ 72.7572754, 24.072122 ], [ 72.7538138, 24.071121 ], [ 72.7523709, 24.0782353 ], [ 72.7493903, 24.0790004 ], [ 72.7346717, 24.0765108 ], [ 72.7347837, 24.0867222 ], [ 72.729966, 24.0941109 ], [ 72.7248293, 24.096814 ], [ 72.7179988, 24.0970622 ], [ 72.7130385, 24.0991825 ], [ 72.7064436, 24.0913402 ], [ 72.7046786, 24.0840776 ], [ 72.6965624, 24.0790302 ], [ 72.6907403, 24.0782564 ], [ 72.6890819, 24.0753093 ], [ 72.6858504, 24.073076 ], [ 72.6776342, 24.0723072 ], [ 72.6732772, 24.0703495 ], [ 72.6700031, 24.0712623 ], [ 72.6614149, 24.0752328 ], [ 72.6522371, 24.083767 ], [ 72.6523199, 24.0809635 ], [ 72.6448506, 24.0783238 ], [ 72.6460303, 24.0764953 ], [ 72.6440388, 24.0752813 ], [ 72.6394022, 24.0749207 ], [ 72.6384485, 24.0764195 ], [ 72.6370815, 24.0759817 ], [ 72.6384823, 24.0708082 ], [ 72.6356594, 24.0644116 ], [ 72.6291649, 24.062033 ], [ 72.6284519, 24.0588819 ], [ 72.6254627, 24.057758 ], [ 72.6238158, 24.0550313 ], [ 72.6200157, 24.0538756 ], [ 72.6206401, 24.0511896 ], [ 72.6227884, 24.0512122 ], [ 72.6252561, 24.0460974 ], [ 72.6260968, 24.0472666 ], [ 72.6306684, 24.0477811 ], [ 72.6308108, 24.045867 ], [ 72.6331361, 24.046219 ], [ 72.6338142, 24.0438986 ], [ 72.6368223, 24.0422732 ], [ 72.6398923, 24.023895 ], [ 72.6484546, 24.0269049 ], [ 72.6481415, 24.0084096 ], [ 72.6509114, 24.0004132 ], [ 72.6507235, 23.9943956 ], [ 72.6488703, 23.9910823 ], [ 72.6461528, 23.989453 ], [ 72.6442022, 23.9897242 ], [ 72.6416328, 23.9924827 ], [ 72.6386747, 23.9922619 ], [ 72.634513, 23.9943524 ], [ 72.6290636, 23.9937252 ], [ 72.6213737, 23.9904026 ], [ 72.621074, 23.9877031 ], [ 72.6185879, 23.9857257 ], [ 72.6173349, 23.9868949 ], [ 72.6152369, 23.9852651 ], [ 72.6017891, 23.9846634 ], [ 72.5996771, 23.983645 ], [ 72.6001178, 23.9799397 ], [ 72.5909078, 23.9773842 ], [ 72.5910017, 23.9753347 ], [ 72.5891298, 23.9751672 ], [ 72.5873276, 23.9722055 ], [ 72.5898692, 23.9658543 ], [ 72.5882879, 23.963081 ], [ 72.5858321, 23.9618175 ], [ 72.5871203, 23.9578677 ], [ 72.5862813, 23.9544049 ], [ 72.5892187, 23.9548164 ], [ 72.5905658, 23.952434 ], [ 72.5900895, 23.9499861 ], [ 72.5850615, 23.9431863 ], [ 72.5865994, 23.9383969 ], [ 72.5841494, 23.9382879 ], [ 72.5843508, 23.9360193 ], [ 72.5764589, 23.9353198 ], [ 72.5741795, 23.936398 ], [ 72.5659245, 23.9335286 ], [ 72.5624809, 23.9348995 ], [ 72.5602641, 23.9384064 ], [ 72.5583344, 23.9375208 ], [ 72.557194, 23.9392492 ], [ 72.5530542, 23.9377577 ], [ 72.552346, 23.9394593 ], [ 72.5485845, 23.9381483 ], [ 72.5480829, 23.9391683 ], [ 72.5457155, 23.9390678 ], [ 72.5454839, 23.9403995 ], [ 72.5346474, 23.9350801 ], [ 72.5288856, 23.942566 ], [ 72.525069, 23.9429068 ], [ 72.5247291, 23.9440983 ], [ 72.517978, 23.9408164 ], [ 72.5106895, 23.9345994 ], [ 72.5023313, 23.9334509 ], [ 72.4994216, 23.9346498 ], [ 72.4873339, 23.9319592 ], [ 72.4866827, 23.9341492 ], [ 72.4812112, 23.9340898 ], [ 72.4805153, 23.9536783 ], [ 72.4772541, 23.9543983 ], [ 72.4772556, 23.9562854 ], [ 72.4785819, 23.9562664 ], [ 72.4777138, 23.9580456 ], [ 72.4751839, 23.9579661 ], [ 72.4762122, 23.9661545 ], [ 72.4718542, 23.965715 ], [ 72.4709428, 23.9686679 ], [ 72.4640468, 23.9708572 ], [ 72.4609168, 23.9701954 ], [ 72.4512852, 23.9742951 ], [ 72.4447299, 23.9716663 ], [ 72.4434801, 23.968227 ], [ 72.4380903, 23.9671188 ], [ 72.4380298, 23.9739852 ], [ 72.4358191, 23.9743157 ], [ 72.4362177, 23.975557 ], [ 72.434209, 23.9770566 ], [ 72.4315806, 23.9775858 ], [ 72.4324803, 23.9787456 ], [ 72.4315878, 23.9825877 ], [ 72.42979, 23.9836041 ], [ 72.4280893, 23.9817764 ], [ 72.4272321, 23.9764543 ], [ 72.4194602, 23.9780864 ], [ 72.4169198, 23.9768953 ], [ 72.4139313, 23.9728062 ], [ 72.407044, 23.9754352 ], [ 72.4057811, 23.9743159 ], [ 72.3988148, 23.9756083 ], [ 72.3867139, 23.9741246 ], [ 72.386144, 23.9753886 ], [ 72.3851073, 23.9737771 ], [ 72.3861435, 23.9701791 ], [ 72.3854655, 23.9683868 ], [ 72.3836035, 23.968247 ], [ 72.3794867, 23.9714751 ], [ 72.3702162, 23.971746 ], [ 72.3707859, 23.9772084 ], [ 72.3692085, 23.986025 ], [ 72.3663389, 23.9882956 ], [ 72.3661372, 23.9940966 ], [ 72.3609675, 24.0004342 ], [ 72.3619409, 24.0059898 ], [ 72.3611521, 24.0099591 ], [ 72.3566973, 24.0086885 ], [ 72.3514844, 24.009378 ], [ 72.3492596, 24.0101802 ], [ 72.3495184, 24.0119993 ], [ 72.3443469, 24.013993 ], [ 72.3423704, 24.0221939 ], [ 72.3450167, 24.0263162 ], [ 72.3423524, 24.0289609 ], [ 72.3416255, 24.0351331 ], [ 72.3399315, 24.0361738 ], [ 72.3398162, 24.0377765 ], [ 72.332396, 24.0389741 ], [ 72.3224253, 24.0376105 ], [ 72.3189569, 24.0388654 ], [ 72.309278, 24.0385704 ], [ 72.3064135, 24.0394542 ], [ 72.2993933, 24.0532312 ], [ 72.2931473, 24.0511842 ], [ 72.2891539, 24.0536715 ], [ 72.2874566, 24.0526621 ], [ 72.287252, 24.0541746 ], [ 72.2816175, 24.0535936 ], [ 72.2704654, 24.0555414 ], [ 72.2685386, 24.0601659 ], [ 72.2633651, 24.0632179 ], [ 72.261258, 24.069752 ], [ 72.2583826, 24.0705085 ], [ 72.2556797, 24.0813903 ], [ 72.2509603, 24.0823875 ], [ 72.2400393, 24.0767803 ], [ 72.2341941, 24.0721846 ], [ 72.2257865, 24.0721814 ], [ 72.2218216, 24.0758 ], [ 72.2178997, 24.0849891 ], [ 72.2168051, 24.0945917 ], [ 72.2101828, 24.1115198 ], [ 72.2063383, 24.1140815 ], [ 72.2079539, 24.1177011 ], [ 72.2172854, 24.125984 ], [ 72.220434, 24.1269255 ], [ 72.2235164, 24.1310586 ], [ 72.2179672, 24.1369036 ], [ 72.2176469, 24.1427723 ], [ 72.2137577, 24.1458353 ], [ 72.2036354, 24.1490913 ], [ 72.1997658, 24.1444074 ], [ 72.1993594, 24.1393788 ], [ 72.1977693, 24.1373255 ], [ 72.1908418, 24.1346969 ], [ 72.1908256, 24.1321599 ], [ 72.1852565, 24.130334 ], [ 72.1875545, 24.1222795 ], [ 72.1769188, 24.1183426 ], [ 72.1739975, 24.1189665 ], [ 72.1713773, 24.1224343 ], [ 72.1677276, 24.1226295 ], [ 72.161079, 24.1269289 ], [ 72.1539961, 24.1275942 ], [ 72.1489842, 24.1295768 ], [ 72.1539782, 24.135124 ], [ 72.1522718, 24.1378871 ], [ 72.149643, 24.15241 ], [ 72.1401134, 24.1528176 ], [ 72.1291276, 24.1553103 ], [ 72.1248473, 24.1526786 ], [ 72.1206656, 24.1526334 ], [ 72.1200065, 24.1439253 ], [ 72.1153876, 24.1373388 ], [ 72.1121116, 24.135894 ], [ 72.1084911, 24.1355777 ], [ 72.0938749, 24.1416924 ], [ 72.0896844, 24.1386082 ], [ 72.0928804, 24.1241541 ], [ 72.0987041, 24.1250581 ], [ 72.1116503, 24.1233939 ], [ 72.1154572, 24.1247439 ], [ 72.1166229, 24.1265497 ], [ 72.1219942, 24.1247893 ], [ 72.1239716, 24.1282517 ], [ 72.14011, 24.1264407 ], [ 72.1445567, 24.1273023 ], [ 72.1481321, 24.1238935 ], [ 72.1506, 24.1179341 ], [ 72.1471514, 24.1135784 ], [ 72.1468903, 24.1112446 ], [ 72.1485476, 24.1103685 ], [ 72.147076, 24.1045498 ], [ 72.1521404, 24.1000211 ], [ 72.1566988, 24.0984763 ], [ 72.1573224, 24.0945126 ], [ 72.1560231, 24.0904184 ], [ 72.1540758, 24.0905723 ], [ 72.1537849, 24.086857 ], [ 72.1479265, 24.0766195 ], [ 72.1468251, 24.0771615 ], [ 72.1445089, 24.0743719 ], [ 72.1361941, 24.070161 ], [ 72.1331651, 24.063322 ], [ 72.1325841, 24.0528667 ], [ 72.1243646, 24.050497 ], [ 72.1167254, 24.0501628 ], [ 72.1012446, 24.0544545 ], [ 72.0981743, 24.0429154 ], [ 72.1011103, 24.0345868 ], [ 72.0948831, 24.0325317 ], [ 72.0929267, 24.0332266 ], [ 72.0936922, 24.0387613 ], [ 72.0902114, 24.0415415 ], [ 72.0858667, 24.0394097 ], [ 72.0857779, 24.0403712 ], [ 72.0744628, 24.0394561 ], [ 72.0708215, 24.0365747 ], [ 72.0670028, 24.0355576 ], [ 72.0657458, 24.0326048 ], [ 72.0607078, 24.032499 ], [ 72.0477434, 24.0460587 ], [ 72.0417011, 24.0475362 ], [ 72.039035, 24.0500584 ], [ 72.0326477, 24.0523931 ], [ 72.0314073, 24.0614211 ], [ 72.0286843, 24.0673783 ], [ 72.0188965, 24.0720804 ], [ 72.012901, 24.0687175 ], [ 72.0147816, 24.0543226 ], [ 72.0128927, 24.0498159 ], [ 72.0159777, 24.0464143 ], [ 72.0192377, 24.045419 ], [ 72.0224622, 24.0393674 ], [ 72.0263716, 24.0241476 ], [ 72.0284325, 24.0220406 ], [ 72.0273925, 24.0193313 ], [ 72.0294124, 24.0194951 ], [ 72.0349649, 24.014027 ], [ 72.0348947, 24.0087722 ], [ 72.040002, 24.0067572 ], [ 72.0424862, 24.0027362 ], [ 72.0448053, 24.0032431 ], [ 72.0444667, 24.002489 ], [ 72.0504667, 23.9995062 ], [ 72.047717, 23.9929768 ], [ 72.0483169, 23.9895471 ], [ 72.0441878, 23.9867754 ], [ 72.0431275, 23.9835476 ], [ 72.0399779, 23.9804378 ], [ 72.0339486, 23.9808079 ], [ 72.0275294, 23.9785781 ], [ 72.0203503, 23.9780081 ], [ 72.0180106, 23.9842077 ], [ 72.0129213, 23.9861976 ], [ 72.0113595, 23.9850261 ], [ 72.0099016, 23.9780782 ], [ 72.0055321, 23.9741586 ], [ 72.0076118, 23.9699089 ], [ 72.005942, 23.9659392 ], [ 71.9999997, 23.9672026 ], [ 71.9968332, 23.9748885 ], [ 71.9969332, 23.9771684 ], [ 71.9992429, 23.9800881 ], [ 71.998923, 23.9835278 ], [ 71.9976831, 23.9848577 ], [ 71.9949135, 23.9849678 ], [ 71.9927238, 23.9877776 ], [ 71.9922539, 23.9937471 ], [ 71.9830951, 23.9981568 ], [ 71.9725163, 23.995007 ], [ 71.9714165, 23.9934472 ], [ 71.966947, 23.9937172 ], [ 71.9610078, 23.9910774 ], [ 71.9612877, 23.9925473 ], [ 71.9532106, 24.0004001 ], [ 71.9491267, 24.0081127 ], [ 71.942516, 24.0063191 ], [ 71.9422564, 24.0079263 ], [ 71.9253961, 24.0092286 ], [ 71.923674, 24.0038435 ], [ 71.9287717, 23.9795585 ], [ 71.9395803, 23.9751788 ], [ 71.9488491, 23.973159 ], [ 71.9477792, 23.9633197 ], [ 71.9404601, 23.9614699 ], [ 71.9291314, 23.9523507 ], [ 71.932781, 23.947671 ], [ 71.9382902, 23.9317323 ], [ 71.9381302, 23.9276626 ], [ 71.9501686, 23.9171534 ], [ 71.9586876, 23.9176533 ], [ 71.9592075, 23.9148436 ], [ 71.9613871, 23.9126437 ], [ 71.9743655, 23.9056042 ], [ 71.9768052, 23.9006846 ], [ 71.977745, 23.8893455 ], [ 71.9724557, 23.8881956 ], [ 71.9582474, 23.8888356 ], [ 71.93688, 23.8805664 ], [ 71.9241416, 23.8845161 ], [ 71.9191223, 23.8822664 ], [ 71.9117331, 23.8813465 ], [ 71.9012544, 23.8733071 ], [ 71.8970149, 23.8789967 ], [ 71.8894558, 23.8784069 ], [ 71.8756675, 23.8710775 ], [ 71.8673685, 23.8695876 ], [ 71.8669786, 23.8612283 ], [ 71.8613491, 23.8469795 ], [ 71.8392919, 23.8436599 ], [ 71.8315029, 23.8451698 ], [ 71.8278533, 23.8444499 ], [ 71.8251836, 23.8456798 ], [ 71.8239938, 23.8496795 ], [ 71.8151049, 23.8522493 ], [ 71.8160149, 23.8548992 ], [ 71.815105, 23.8552291 ], [ 71.8036264, 23.8511794 ], [ 71.7971972, 23.8509595 ], [ 71.7903779, 23.8469399 ], [ 71.7823589, 23.8442301 ], [ 71.7789793, 23.8448601 ], [ 71.7760897, 23.8390606 ], [ 71.7726501, 23.8389206 ], [ 71.7711603, 23.8359709 ], [ 71.7720201, 23.8330411 ], [ 71.7665207, 23.8268316 ], [ 71.764451, 23.8296315 ], [ 71.7649111, 23.8370809 ], [ 71.7616814, 23.8391407 ], [ 71.7617015, 23.8416405 ], [ 71.7508628, 23.8408506 ], [ 71.7482303, 23.8429889 ], [ 71.7449636, 23.8504629 ], [ 71.7313426, 23.8558814 ], [ 71.7276267, 23.8556222 ], [ 71.7240024, 23.859516 ], [ 71.7196495, 23.8611801 ], [ 71.714325, 23.8701625 ], [ 71.7143635, 23.8761577 ], [ 71.7087709, 23.8821741 ], [ 71.7129197, 23.8897199 ], [ 71.7145974, 23.9087473 ], [ 71.717826, 23.9188034 ], [ 71.7173757, 23.9276835 ], [ 71.7083438, 23.9274902 ], [ 71.6977668, 23.9303939 ], [ 71.697416, 23.9354773 ], [ 71.6929578, 23.9474064 ], [ 71.6939236, 23.962132 ], [ 71.6885439, 23.970829 ], [ 71.6735555, 23.9728526 ], [ 71.6650609, 23.9724759 ], [ 71.6586483, 23.967918 ], [ 71.6499422, 23.9641412 ], [ 71.6432846, 23.9573976 ], [ 71.6339755, 23.9546313 ], [ 71.6218815, 23.9540583 ], [ 71.6182663, 23.9516791 ], [ 71.6134137, 23.9440585 ], [ 71.6051964, 23.9424913 ], [ 71.5987125, 23.9445444 ], [ 71.594363, 23.9558071 ], [ 71.5869285, 23.9634077 ], [ 71.5867107, 23.9693035 ], [ 71.5915676, 23.976505 ], [ 71.5868508, 23.9775468 ], [ 71.575345, 23.9755528 ], [ 71.5703268, 23.9805214 ], [ 71.5605156, 23.9794252 ], [ 71.5670434, 23.9835719 ], [ 71.5655902, 23.9921307 ], [ 71.564386, 23.9928796 ], [ 71.5656964, 23.9961395 ], [ 71.5649884, 23.9972814 ], [ 71.559209, 23.9986785 ], [ 71.5586481, 24.000177 ], [ 71.5565205, 23.9996885 ], [ 71.5543921, 24.0009922 ], [ 71.5516599, 24.0008917 ], [ 71.5471278, 23.9951156 ], [ 71.5460841, 23.9819151 ], [ 71.516827, 23.9801955 ], [ 71.5098821, 23.9774548 ], [ 71.4981274, 23.9697329 ], [ 71.4921825, 23.97455 ], [ 71.4875306, 23.9753931 ], [ 71.4898902, 23.9879188 ], [ 71.4868068, 23.9904581 ], [ 71.4887434, 23.9968401 ], [ 71.4913956, 24.0004398 ], [ 71.4910841, 24.0148155 ], [ 71.4863488, 24.0174644 ], [ 71.4843167, 24.0205041 ], [ 71.4852669, 24.0223453 ], [ 71.4841677, 24.0244136 ], [ 71.4806577, 24.0234546 ], [ 71.4790274, 24.0252931 ], [ 71.4711499, 24.0202648 ], [ 71.4640187, 24.0133351 ], [ 71.4624785, 24.0103836 ], [ 71.4610506, 23.9990839 ], [ 71.4543931, 23.992641 ], [ 71.4494637, 23.9909867 ], [ 71.448504, 23.9883283 ], [ 71.445875, 23.9878691 ], [ 71.4464197, 23.9865506 ], [ 71.4448325, 23.9863121 ], [ 71.4425892, 23.9810403 ], [ 71.4453499, 23.979942 ], [ 71.4497631, 23.9820753 ], [ 71.4490613, 23.974848 ], [ 71.4465386, 23.9709082 ], [ 71.4487965, 23.9673723 ], [ 71.4544641, 23.9646969 ], [ 71.4482274, 23.9600639 ], [ 71.4446261, 23.9413036 ], [ 71.4411281, 23.9394973 ], [ 71.4323507, 23.9391284 ], [ 71.4216565, 23.9349608 ], [ 71.4160507, 23.9295723 ], [ 71.416118, 23.9252383 ], [ 71.4043987, 23.9399988 ], [ 71.4058353, 23.9497992 ], [ 71.4004093, 23.9585582 ], [ 71.3984494, 23.9592357 ], [ 71.3952329, 23.9657911 ], [ 71.3915383, 23.9642703 ], [ 71.3896226, 23.9659905 ], [ 71.3884483, 23.9652322 ], [ 71.3874902, 23.9634716 ], [ 71.3880693, 23.9581897 ], [ 71.383918, 23.9538923 ], [ 71.3741771, 23.9551748 ], [ 71.3721974, 23.9560551 ], [ 71.3699819, 23.9603212 ], [ 71.3720943, 23.9608404 ], [ 71.3708316, 23.9652102 ], [ 71.3662236, 23.9646277 ], [ 71.3663709, 23.9659459 ], [ 71.365521, 23.965657 ], [ 71.3659973, 23.9705777 ], [ 71.3601267, 23.9686181 ], [ 71.3582547, 23.9704958 ], [ 71.3488371, 23.9686572 ], [ 71.3461839, 23.9700563 ], [ 71.3353952, 23.9702932 ], [ 71.3314887, 23.9727616 ], [ 71.3271336, 23.9793649 ], [ 71.3190839, 23.9837592 ], [ 71.3092181, 23.9933304 ], [ 71.3038198, 23.9898881 ], [ 71.29538, 23.9870084 ], [ 71.2850192, 23.991639 ], [ 71.2886539, 24.0012848 ], [ 71.2885447, 24.0103948 ], [ 71.2916053, 24.0197456 ], [ 71.3009169, 24.0317224 ], [ 71.3191706, 24.0461534 ], [ 71.3218817, 24.0522803 ], [ 71.3082918, 24.0565591 ], [ 71.3048333, 24.0612029 ], [ 71.3061835, 24.0646705 ], [ 71.3126228, 24.0673412 ], [ 71.312145, 24.0691693 ], [ 71.315664, 24.0718793 ], [ 71.3113358, 24.0748886 ], [ 71.3175244, 24.0787102 ], [ 71.3138647, 24.08209 ], [ 71.3169727, 24.0923477 ], [ 71.3160959, 24.0955977 ], [ 71.3180622, 24.0972687 ], [ 71.322852, 24.0971801 ], [ 71.3363634, 24.1053368 ], [ 71.3317114, 24.1195963 ], [ 71.3284022, 24.1164986 ], [ 71.3266314, 24.1169946 ], [ 71.3249827, 24.1197163 ], [ 71.3129124, 24.1202582 ], [ 71.3108457, 24.1221849 ], [ 71.3056229, 24.1206659 ], [ 71.302406, 24.1210572 ], [ 71.3043958, 24.1251841 ], [ 71.3024971, 24.1252961 ], [ 71.3017375, 24.1291781 ], [ 71.2938451, 24.1331919 ], [ 71.2821775, 24.1326301 ], [ 71.2834797, 24.1345404 ], [ 71.2797779, 24.1381992 ], [ 71.2745872, 24.1394193 ], [ 71.2727802, 24.1413999 ], [ 71.2717987, 24.1446812 ], [ 71.2772392, 24.1451497 ], [ 71.2792201, 24.1474893 ], [ 71.2854862, 24.1497095 ], [ 71.2818501, 24.1503078 ], [ 71.2807561, 24.1528397 ], [ 71.2776366, 24.1533478 ], [ 71.2678019, 24.1592189 ], [ 71.2639784, 24.1599475 ], [ 71.2610523, 24.1584466 ], [ 71.2575931, 24.1589678 ], [ 71.2670181, 24.167019 ], [ 71.2670403, 24.1699578 ], [ 71.2686179, 24.1720987 ], [ 71.2719294, 24.1721958 ], [ 71.2696981, 24.1750653 ], [ 71.2727676, 24.1763269 ], [ 71.2822366, 24.174008 ], [ 71.2871953, 24.1686254 ], [ 71.2952463, 24.1665667 ], [ 71.2985855, 24.161088 ], [ 71.3021237, 24.159907 ], [ 71.3056263, 24.1607663 ], [ 71.3094072, 24.166176 ], [ 71.3143825, 24.1641195 ], [ 71.3249413, 24.1643083 ], [ 71.3273317, 24.1664759 ], [ 71.3275614, 24.1708549 ], [ 71.328924, 24.1719568 ], [ 71.3300117, 24.1711174 ], [ 71.3305946, 24.1643552 ], [ 71.3333935, 24.166866 ], [ 71.3351606, 24.1642165 ], [ 71.3375421, 24.1637791 ], [ 71.34531, 24.168575 ], [ 71.3423907, 24.1752059 ], [ 71.3435514, 24.1772646 ], [ 71.3454018, 24.1769083 ], [ 71.3451809, 24.1740282 ], [ 71.3494123, 24.175645 ], [ 71.354481, 24.1726167 ], [ 71.3583682, 24.1731769 ], [ 71.3607002, 24.1773844 ], [ 71.3563694, 24.1815236 ], [ 71.3607387, 24.1857268 ], [ 71.3595771, 24.1874647 ], [ 71.3483421, 24.1878153 ], [ 71.3384315, 24.1857368 ], [ 71.3336544, 24.1821468 ], [ 71.3259532, 24.1821536 ], [ 71.3255908, 24.1902746 ], [ 71.3299202, 24.1943749 ], [ 71.3297228, 24.195693 ], [ 71.3271828, 24.1972542 ], [ 71.3175363, 24.1979642 ], [ 71.3114456, 24.2038123 ], [ 71.308646, 24.2021454 ], [ 71.3049077, 24.2073035 ], [ 71.3029142, 24.2074741 ], [ 71.3002177, 24.2148357 ], [ 71.3049177, 24.216025 ], [ 71.3041342, 24.2176228 ], [ 71.3066142, 24.2192039 ], [ 71.3101533, 24.2193724 ], [ 71.3099551, 24.2220944 ], [ 71.3034961, 24.2234233 ], [ 71.3021858, 24.2250929 ], [ 71.2997851, 24.2225231 ], [ 71.2981459, 24.2226442 ], [ 71.2954759, 24.2257713 ], [ 71.2926152, 24.2267629 ], [ 71.2905095, 24.2250644 ], [ 71.2879966, 24.2286428 ], [ 71.2885373, 24.229731 ], [ 71.2852679, 24.2308532 ], [ 71.2797995, 24.2365515 ], [ 71.2856071, 24.2386405 ], [ 71.2858271, 24.2409293 ], [ 71.2883, 24.238633 ], [ 71.2890595, 24.2441498 ], [ 71.292506, 24.2438402 ], [ 71.2917697, 24.2481509 ], [ 71.2906083, 24.2472113 ], [ 71.2894894, 24.2491924 ], [ 71.2860876, 24.2486623 ], [ 71.285398, 24.2420531 ], [ 71.2838972, 24.2480697 ], [ 71.282267, 24.2486692 ], [ 71.2827879, 24.2500689 ], [ 71.277106, 24.2504221 ], [ 71.2774446, 24.2517901 ], [ 71.2742446, 24.2577694 ], [ 71.2763068, 24.2589399 ], [ 71.2770223, 24.2633914 ], [ 71.2796765, 24.2631086 ], [ 71.2837961, 24.2658287 ], [ 71.285264, 24.2649583 ], [ 71.2847235, 24.2633284 ], [ 71.2860943, 24.260571 ], [ 71.2892619, 24.2582886 ], [ 71.2912308, 24.259188 ], [ 71.2968299, 24.2581211 ], [ 71.3027327, 24.259749 ], [ 71.2998609, 24.2616888 ], [ 71.2971944, 24.2661385 ], [ 71.2984304, 24.266121 ], [ 71.2998905, 24.270189 ], [ 71.301363, 24.2700002 ], [ 71.2998939, 24.2728208 ], [ 71.3050013, 24.2714284 ], [ 71.3033406, 24.2734364 ], [ 71.3046305, 24.2741593 ], [ 71.3009696, 24.2775884 ], [ 71.3031603, 24.2788579 ], [ 71.3009438, 24.2796784 ], [ 71.3006521, 24.2816781 ], [ 71.3032817, 24.2819998 ], [ 71.2998332, 24.2842372 ], [ 71.3018214, 24.2867074 ], [ 71.3002997, 24.2864675 ], [ 71.2980325, 24.2894187 ], [ 71.2978139, 24.2925966 ], [ 71.2945904, 24.2963959 ], [ 71.2945926, 24.3009868 ], [ 71.2964343, 24.3015972 ], [ 71.2961325, 24.3038947 ], [ 71.2995021, 24.3030478 ], [ 71.3013621, 24.3063846 ], [ 71.3036525, 24.3065256 ], [ 71.3031095, 24.3084439 ], [ 71.3065624, 24.3086261 ], [ 71.3074129, 24.3117954 ], [ 71.3104128, 24.3118057 ], [ 71.3141517, 24.3220725 ], [ 71.3166811, 24.3170356 ], [ 71.3186012, 24.3195643 ], [ 71.3211777, 24.3193937 ], [ 71.3210975, 24.3226438 ], [ 71.319831, 24.3236726 ], [ 71.3255266, 24.3219456 ], [ 71.3253682, 24.3237829 ], [ 71.3325264, 24.3234554 ], [ 71.3422351, 24.3280532 ], [ 71.3480684, 24.326375 ], [ 71.3485163, 24.3284741 ], [ 71.3511274, 24.3280818 ], [ 71.3535164, 24.3302038 ], [ 71.3576352, 24.3290126 ], [ 71.3606846, 24.3303852 ], [ 71.3623253, 24.3294419 ], [ 71.3633645, 24.3331435 ], [ 71.3666359, 24.331663 ], [ 71.3707841, 24.3330536 ], [ 71.3714936, 24.3353829 ], [ 71.3748044, 24.3338932 ], [ 71.3761149, 24.3378341 ], [ 71.3782336, 24.3392921 ], [ 71.3779923, 24.3433909 ], [ 71.3816238, 24.3456931 ], [ 71.381954, 24.3479908 ], [ 71.3741245, 24.3488125 ], [ 71.3711139, 24.3508123 ], [ 71.3758738, 24.3534215 ], [ 71.3825996, 24.3498641 ], [ 71.3840237, 24.3507217 ], [ 71.3807914, 24.3531821 ], [ 71.3831025, 24.3537598 ], [ 71.3808214, 24.3598992 ], [ 71.377781, 24.3619126 ], [ 71.3764309, 24.365682 ], [ 71.372454, 24.3705618 ], [ 71.3718526, 24.373329 ], [ 71.3743513, 24.3745794 ], [ 71.3727842, 24.3757802 ], [ 71.3735529, 24.3785293 ], [ 71.3698419, 24.3760104 ], [ 71.3671954, 24.3758703 ], [ 71.3664854, 24.3803077 ], [ 71.364923, 24.3811382 ], [ 71.3660663, 24.382181 ], [ 71.3620149, 24.3840812 ], [ 71.3661153, 24.3879501 ], [ 71.3670665, 24.3900086 ], [ 71.3661052, 24.3915298 ], [ 71.3529257, 24.3875472 ], [ 71.3525952, 24.3897996 ], [ 71.3495249, 24.3873977 ], [ 71.3460551, 24.3867786 ], [ 71.3478585, 24.3895371 ], [ 71.3473552, 24.3925299 ], [ 71.3425098, 24.393179 ], [ 71.3393754, 24.3912192 ], [ 71.3346675, 24.3936106 ], [ 71.3229608, 24.394221 ], [ 71.3212398, 24.39585 ], [ 71.3205919, 24.4010275 ], [ 71.3189795, 24.4022773 ], [ 71.3222311, 24.4067881 ], [ 71.3242397, 24.4135961 ], [ 71.3332692, 24.419607 ], [ 71.3377293, 24.4257158 ], [ 71.3412154, 24.4241547 ], [ 71.3430096, 24.4254145 ], [ 71.3437871, 24.4319466 ], [ 71.3361501, 24.4304236 ], [ 71.3240704, 24.4430642 ], [ 71.3206825, 24.4439162 ], [ 71.3204994, 24.4455232 ], [ 71.3224591, 24.4526336 ], [ 71.3311503, 24.4608519 ], [ 71.3376369, 24.4559423 ], [ 71.3441757, 24.4573025 ], [ 71.3465874, 24.4562421 ], [ 71.3492157, 24.4575832 ], [ 71.3443857, 24.4661907 ], [ 71.3414462, 24.4665738 ], [ 71.3378994, 24.4693808 ], [ 71.3354386, 24.468211 ], [ 71.3338696, 24.4701743 ], [ 71.3418686, 24.4735708 ], [ 71.3423169, 24.4754127 ], [ 71.3363872, 24.4793611 ], [ 71.3352785, 24.4757722 ], [ 71.3313513, 24.4793598 ], [ 71.33398, 24.479821 ], [ 71.3334812, 24.4821411 ], [ 71.3390369, 24.4935224 ], [ 71.3453176, 24.5000012 ], [ 71.3484689, 24.5176107 ], [ 71.2923646, 24.5191482 ], [ 71.269089, 24.5098394 ], [ 71.2586474, 24.5067306 ], [ 71.2567566, 24.5081421 ], [ 71.2602268, 24.5333783 ], [ 71.2631761, 24.5351185 ], [ 71.2663892, 24.5343082 ], [ 71.2664862, 24.536299 ], [ 71.2707188, 24.537936 ], [ 71.2783865, 24.5456466 ], [ 71.2757664, 24.545049 ], [ 71.278874, 24.5470553 ], [ 71.2780887, 24.547777 ], [ 71.2807155, 24.5526583 ], [ 71.2857539, 24.5533475 ], [ 71.2893945, 24.5558278 ], [ 71.2860361, 24.5593062 ], [ 71.2910145, 24.5614758 ], [ 71.2926371, 24.5634538 ], [ 71.2945425, 24.5630575 ], [ 71.2957555, 24.5649857 ], [ 71.2973254, 24.5644042 ], [ 71.2989361, 24.5699347 ], [ 71.2991144, 24.5774235 ], [ 71.3010558, 24.5748334 ], [ 71.3007421, 24.5794647 ], [ 71.3034952, 24.5818945 ], [ 71.3068134, 24.5894435 ], [ 71.2846148, 24.5938829 ], [ 71.2878234, 24.616229 ], [ 71.2911456, 24.6176212 ], [ 71.2986966, 24.6240712 ], [ 71.298004, 24.6261202 ], [ 71.3045457, 24.6286602 ], [ 71.3043741, 24.6352776 ], [ 71.3135045, 24.6476499 ], [ 71.3481685, 24.6609354 ], [ 71.358639, 24.6307517 ], [ 71.3671281, 24.6292989 ], [ 71.3693356, 24.6264191 ], [ 71.3732663, 24.6277011 ], [ 71.3778045, 24.6259676 ], [ 71.3812861, 24.62887 ], [ 71.3816863, 24.6326301 ], [ 71.382995, 24.6336592 ], [ 71.3879628, 24.6311987 ], [ 71.3911628, 24.6312887 ], [ 71.3962303, 24.6350301 ], [ 71.3983846, 24.6407806 ], [ 71.4225772, 24.64783 ], [ 71.4290069, 24.656919 ], [ 71.4477239, 24.6683855 ], [ 71.4504856, 24.6689167 ], [ 71.4619937, 24.666518 ], [ 71.4723151, 24.6756569 ], [ 71.4791703, 24.679647 ], [ 71.4913625, 24.6792633 ], [ 71.4999998, 24.6804348 ], [ 71.5026351, 24.6821405 ], [ 71.5137547, 24.6789157 ], [ 71.5213444, 24.6831732 ], [ 71.528902, 24.6847039 ], [ 71.5418321, 24.6757558 ], [ 71.5570268, 24.6777449 ], [ 71.572996, 24.6834162 ], [ 71.5777001, 24.6814044 ], [ 71.5845311, 24.6700538 ], [ 71.5893143, 24.6674054 ], [ 71.6075995, 24.6765536 ], [ 71.6110975, 24.6729924 ], [ 71.616823, 24.6708667 ], [ 71.6192634, 24.6674046 ], [ 71.6241538, 24.6697249 ], [ 71.6268608, 24.6671157 ], [ 71.6247416, 24.6638566 ], [ 71.6273695, 24.6642673 ], [ 71.6275868, 24.661067 ], [ 71.6288809, 24.6599249 ], [ 71.6387548, 24.659536 ], [ 71.6399442, 24.6512843 ], [ 71.643919, 24.643926 ], [ 71.647238, 24.6445756 ], [ 71.655366, 24.6391889 ], [ 71.6627065, 24.6444189 ], [ 71.6644792, 24.6434388 ], [ 71.6774499, 24.6463057 ], [ 71.6835358, 24.6488854 ], [ 71.6904286, 24.6542044 ], [ 71.6971016, 24.6544451 ], [ 71.7063575, 24.6612971 ], [ 71.7355588, 24.6600458 ], [ 71.7477446, 24.6650739 ], [ 71.7624291, 24.668626 ], [ 71.7726931, 24.6758691 ], [ 71.7802719, 24.6749125 ], [ 71.7915288, 24.6773386 ], [ 71.8029635, 24.6716477 ], [ 71.8103856, 24.6560643 ], [ 71.8101355, 24.6524801 ], [ 71.8025313, 24.6311254 ], [ 71.8058996, 24.6267509 ], [ 71.8085783, 24.6240366 ], [ 71.8160433, 24.6203157 ], [ 71.8212727, 24.6201687 ], [ 71.8308412, 24.6233856 ], [ 71.8378341, 24.621302 ], [ 71.8521673, 24.6093626 ], [ 71.8556248, 24.6220726 ], [ 71.8653916, 24.6307132 ], [ 71.8574924, 24.6522038 ], [ 71.8577673, 24.6661656 ], [ 71.8613529, 24.6723004 ], [ 71.8663321, 24.6757449 ], [ 71.8717513, 24.6817667 ], [ 71.8765534, 24.6816402 ], [ 71.8799768, 24.6789137 ], [ 71.8850305, 24.6775458 ], [ 71.886453, 24.6735327 ], [ 71.8882312, 24.6721421 ], [ 71.8995249, 24.6767404 ], [ 71.9074984, 24.6775604 ], [ 71.9186119, 24.6721136 ], [ 71.9201725, 24.6709169 ], [ 71.9203181, 24.6641639 ], [ 71.9170073, 24.6602874 ], [ 71.9116425, 24.658569 ], [ 71.9154428, 24.649513 ], [ 71.925503, 24.6360402 ], [ 71.9360119, 24.6353952 ], [ 71.9386448, 24.6365045 ], [ 71.9398731, 24.6338046 ], [ 71.9428717, 24.6357578 ], [ 71.9461836, 24.6410873 ], [ 71.9552785, 24.6452445 ], [ 71.9642529, 24.6458306 ], [ 71.9774392, 24.6569175 ], [ 71.9813915, 24.657971 ], [ 71.9882478, 24.6575303 ], [ 71.982753, 24.6730015 ], [ 71.9838462, 24.6859468 ], [ 71.9938349, 24.6950618 ], [ 71.9951571, 24.6931694 ], [ 72.0010989, 24.6948825 ], [ 72.0014263, 24.6884052 ], [ 72.0059254, 24.6904311 ], [ 72.0125014, 24.6905806 ], [ 72.0178288, 24.6947778 ], [ 72.0284645, 24.6973308 ], [ 72.0349434, 24.7024492 ], [ 72.0425762, 24.7043719 ], [ 72.0485316, 24.7105591 ], [ 72.0597628, 24.7120584 ] ] ] ] } }
]
}
