{
"type": "FeatureCollection",
"name": "2406",
"crs": { "type": "name", "properties": { "name": "urn:ogc:def:crs:OGC:1.3:CRS84" } },
"features": [
{ "type": "Feature", "properties": { "code": "2406", "name": "Gandhinagar", "type": "district" }, "geometry": { "type": "Polygon", "coordinates": [ [ [ 72.6505467, 23.5662456 ], [ 72.6553128, 23.5665492 ], [ 72.6544975, 23.5510195 ], [ 72.6591761, 23.5515018 ], [ 72.6607556, 23.5502654 ], [ 72.6629774, 23.556669 ], [ 72.6728223, 23.5553238 ], [ 72.6786306, 23.5560295 ], [ 72.6800529, 23.5511948 ], [ 72.6794188, 23.5475898 ], [ 72.677176, 23.5450339 ], [ 72.6757582, 23.5305202 ], [ 72.6857206, 23.5317024 ], [ 72.6864868, 23.5277757 ], [ 72.6909191, 23.5228067 ], [ 72.6979015, 23.5231448 ], [ 72.6989423, 23.5274587 ], [ 72.7002379, 23.528353 ], [ 72.7080182, 23.5294384 ], [ 72.7146224, 23.5266269 ], [ 72.7241586, 23.5260224 ], [ 72.724939, 23.5211601 ], [ 72.7303554, 23.5204422 ], [ 72.7306243, 23.5148715 ], [ 72.7292923, 23.512482 ], [ 72.7300982, 23.5116595 ], [ 72.7277245, 23.5052737 ], [ 72.7203043, 23.498448 ], [ 72.7191115, 23.500333 ], [ 72.7170423, 23.4988988 ], [ 72.7185457, 23.4988443 ], [ 72.7183289, 23.4962961 ], [ 72.7225987, 23.4959676 ], [ 72.7285736, 23.5062514 ], [ 72.7314322, 23.506977 ], [ 72.7340272, 23.5029082 ], [ 72.7400141, 23.5030204 ], [ 72.7415944, 23.5061009 ], [ 72.7624738, 23.5026211 ], [ 72.7647652, 23.5110188 ], [ 72.771709, 23.5175911 ], [ 72.7857518, 23.5030308 ], [ 72.7978525, 23.5028757 ], [ 72.7975311, 23.4998025 ], [ 72.7996095, 23.4947606 ], [ 72.8141688, 23.480654 ], [ 72.8193859, 23.4698748 ], [ 72.8188782, 23.4667234 ], [ 72.8124403, 23.4503462 ], [ 72.8071701, 23.4405653 ], [ 72.8020212, 23.4342289 ], [ 72.7959415, 23.430709 ], [ 72.7934632, 23.4267484 ], [ 72.7946317, 23.4199679 ], [ 72.80312, 23.4103691 ], [ 72.803488, 23.4083106 ], [ 72.8021195, 23.4059398 ], [ 72.7976691, 23.4040595 ], [ 72.7925519, 23.4047613 ], [ 72.787331, 23.4070294 ], [ 72.7785741, 23.4147309 ], [ 72.7716758, 23.4152277 ], [ 72.7679543, 23.4134193 ], [ 72.7651053, 23.4096972 ], [ 72.7598535, 23.4073098 ], [ 72.7409187, 23.4057598 ], [ 72.7341269, 23.4033313 ], [ 72.7268588, 23.3982212 ], [ 72.7234383, 23.3897808 ], [ 72.7234814, 23.3885708 ], [ 72.7307105, 23.3886925 ], [ 72.7406875, 23.3931594 ], [ 72.7527443, 23.3872229 ], [ 72.7517847, 23.3829107 ], [ 72.7465888, 23.3745632 ], [ 72.7644845, 23.3673712 ], [ 72.7607556, 23.3587455 ], [ 72.7650229, 23.3547439 ], [ 72.7679853, 23.3560146 ], [ 72.7736336, 23.3552553 ], [ 72.7750117, 23.3565022 ], [ 72.7870328, 23.3540352 ], [ 72.7943605, 23.3577232 ], [ 72.7964193, 23.3575526 ], [ 72.7977603, 23.3555353 ], [ 72.8001417, 23.3554415 ], [ 72.8005516, 23.3570851 ], [ 72.8077699, 23.3558558 ], [ 72.8048008, 23.3479446 ], [ 72.8045586, 23.3341475 ], [ 72.7969184, 23.3315253 ], [ 72.7974587, 23.327205 ], [ 72.799561, 23.3270661 ], [ 72.8010613, 23.3190485 ], [ 72.8102861, 23.3188674 ], [ 72.8258961, 23.3303359 ], [ 72.8283264, 23.3289371 ], [ 72.833767, 23.3314939 ], [ 72.8361676, 23.3312146 ], [ 72.8361342, 23.3283658 ], [ 72.8439229, 23.3254057 ], [ 72.8491453, 23.3195059 ], [ 72.8544008, 23.3177142 ], [ 72.8548606, 23.3154162 ], [ 72.8608197, 23.3151866 ], [ 72.8650434, 23.3134983 ], [ 72.8711831, 23.3149749 ], [ 72.8832281, 23.3129972 ], [ 72.8852279, 23.318636 ], [ 72.8843483, 23.3224465 ], [ 72.8888899, 23.3226538 ], [ 72.8942678, 23.3247977 ], [ 72.9083085, 23.3249352 ], [ 72.9155872, 23.3225451 ], [ 72.916545, 23.3215967 ], [ 72.9126037, 23.3177647 ], [ 72.9137375, 23.3167667 ], [ 72.9123062, 23.3037283 ], [ 72.9141567, 23.2966668 ], [ 72.9105839, 23.2971868 ], [ 72.8963256, 23.2934287 ], [ 72.8914186, 23.2946077 ], [ 72.8844486, 23.2933171 ], [ 72.8836906, 23.2884186 ], [ 72.8895406, 23.2858176 ], [ 72.8935184, 23.2819977 ], [ 72.8988258, 23.2811391 ], [ 72.9149858, 23.2908695 ], [ 72.9204453, 23.2910486 ], [ 72.9189746, 23.2637616 ], [ 72.9270452, 23.2586799 ], [ 72.9272222, 23.2490005 ], [ 72.9292449, 23.2489501 ], [ 72.9293124, 23.2465437 ], [ 72.932161, 23.2468135 ], [ 72.929941, 23.2427736 ], [ 72.9336107, 23.2437519 ], [ 72.9361443, 23.23906 ], [ 72.9445099, 23.2414538 ], [ 72.9461093, 23.2449206 ], [ 72.9448911, 23.2505257 ], [ 72.9478551, 23.2525818 ], [ 72.9503946, 23.2510464 ], [ 72.9556488, 23.2407126 ], [ 72.9598315, 23.2414236 ], [ 72.9611907, 23.2429399 ], [ 72.9613402, 23.2474095 ], [ 72.9632877, 23.2517512 ], [ 72.9591699, 23.2535505 ], [ 72.9597794, 23.2591891 ], [ 72.9630492, 23.2603205 ], [ 72.9662372, 23.2562598 ], [ 72.9693201, 23.2557704 ], [ 72.9706063, 23.2572911 ], [ 72.9677204, 23.2600694 ], [ 72.9701576, 23.2652103 ], [ 72.9722102, 23.265498 ], [ 72.9753455, 23.2629586 ], [ 72.9783661, 23.2639906 ], [ 72.9776257, 23.2669302 ], [ 72.9709786, 23.2720091 ], [ 72.9665278, 23.2737184 ], [ 72.9658208, 23.275931 ], [ 72.9587391, 23.2753888 ], [ 72.9578216, 23.2774209 ], [ 72.9605412, 23.2810583 ], [ 72.9702761, 23.2804883 ], [ 72.9777957, 23.2845784 ], [ 72.9843282, 23.2822894 ], [ 72.9871043, 23.2825267 ], [ 72.9906151, 23.2845197 ], [ 72.9953074, 23.2902679 ], [ 73.004186, 23.2829273 ], [ 73.0170089, 23.2783043 ], [ 72.9999116, 23.2702554 ], [ 72.9980947, 23.2655112 ], [ 72.9945044, 23.2617486 ], [ 72.9897062, 23.2507723 ], [ 72.9862082, 23.2280431 ], [ 72.9814455, 23.2224525 ], [ 72.9829342, 23.2090561 ], [ 72.9841949, 23.2095337 ], [ 72.9847653, 23.2081924 ], [ 72.9830841, 23.2071552 ], [ 72.9836445, 23.2054031 ], [ 72.9818275, 23.205463 ], [ 72.981698, 23.2024156 ], [ 72.986234, 23.2006155 ], [ 72.9812356, 23.1922756 ], [ 72.9816058, 23.1909164 ], [ 72.9803651, 23.1907637 ], [ 72.9776257, 23.1785937 ], [ 72.9783374, 23.1770083 ], [ 72.9820584, 23.1769471 ], [ 72.982208, 23.174658 ], [ 72.984435, 23.1748551 ], [ 72.9831479, 23.1715285 ], [ 72.9809951, 23.1723473 ], [ 72.9803687, 23.1706275 ], [ 72.9735451, 23.1681578 ], [ 72.9711881, 23.1635586 ], [ 72.9756581, 23.1598672 ], [ 72.9813363, 23.1593171 ], [ 73.0127706, 23.1614177 ], [ 73.0141045, 23.1602584 ], [ 73.0114305, 23.158139 ], [ 73.013601, 23.1550569 ], [ 73.0118405, 23.1524596 ], [ 73.0146605, 23.1490167 ], [ 73.0140204, 23.1435803 ], [ 73.022531, 23.1422902 ], [ 73.0250596, 23.1429691 ], [ 73.0289301, 23.1375085 ], [ 73.0288304, 23.1334496 ], [ 73.0244401, 23.1289004 ], [ 73.0156211, 23.1262488 ], [ 73.0085737, 23.1300499 ], [ 72.9966249, 23.1329243 ], [ 72.984651, 23.1310752 ], [ 72.9791361, 23.1277811 ], [ 72.9748402, 23.1216434 ], [ 72.9750832, 23.1149959 ], [ 72.9783567, 23.1098027 ], [ 72.9777464, 23.1088274 ], [ 72.9757592, 23.1078347 ], [ 72.9663727, 23.1080371 ], [ 72.9653556, 23.1053149 ], [ 72.9660389, 23.1031794 ], [ 72.971473, 23.1030536 ], [ 72.9714906, 23.101384 ], [ 72.9707037, 23.1004106 ], [ 72.9659822, 23.1011504 ], [ 72.9649163, 23.0904409 ], [ 72.9576419, 23.0877277 ], [ 72.9551889, 23.0854699 ], [ 72.9582505, 23.0736252 ], [ 72.9504091, 23.0739768 ], [ 72.9451384, 23.0727648 ], [ 72.9452613, 23.0745842 ], [ 72.9417327, 23.0733442 ], [ 72.939591, 23.0743068 ], [ 72.939651, 23.0772144 ], [ 72.9392111, 23.0758239 ], [ 72.930091, 23.0761841 ], [ 72.9275343, 23.0769345 ], [ 72.9270918, 23.0808265 ], [ 72.9254813, 23.0806239 ], [ 72.9260546, 23.0740861 ], [ 72.9229125, 23.0750669 ], [ 72.9221013, 23.0718977 ], [ 72.923735, 23.0693146 ], [ 72.9180358, 23.0693976 ], [ 72.9122526, 23.0661439 ], [ 72.9064556, 23.0650661 ], [ 72.9101239, 23.0613585 ], [ 72.9138155, 23.0547569 ], [ 72.9135024, 23.0519486 ], [ 72.9114044, 23.0517866 ], [ 72.9084566, 23.0478774 ], [ 72.9085965, 23.0414662 ], [ 72.9054543, 23.0399589 ], [ 72.9046326, 23.0306085 ], [ 72.8980957, 23.0295668 ], [ 72.8969782, 23.026867 ], [ 72.8954465, 23.0268492 ], [ 72.8956657, 23.0250296 ], [ 72.892914, 23.0209213 ], [ 72.8921189, 23.0212014 ], [ 72.8919576, 23.0182396 ], [ 72.8908163, 23.0187906 ], [ 72.8926985, 23.0146908 ], [ 72.8903182, 23.0146414 ], [ 72.8903477, 23.0162803 ], [ 72.8867773, 23.0160278 ], [ 72.8870454, 23.0148222 ], [ 72.8857773, 23.014538 ], [ 72.8803193, 23.0161321 ], [ 72.8767489, 23.0147506 ], [ 72.8775683, 23.0132606 ], [ 72.8763391, 23.0119423 ], [ 72.8773195, 23.0109806 ], [ 72.8750807, 23.0086825 ], [ 72.8608487, 23.0084021 ], [ 72.8590828, 23.0114089 ], [ 72.8530931, 23.0129027 ], [ 72.8456405, 23.0116328 ], [ 72.8430119, 23.0101695 ], [ 72.8488028, 23.0026034 ], [ 72.848462, 22.9991712 ], [ 72.8450729, 22.9972428 ], [ 72.8365337, 22.9965502 ], [ 72.8358937, 23.0003618 ], [ 72.8334251, 23.0029299 ], [ 72.8241235, 23.0056995 ], [ 72.8225071, 23.0110988 ], [ 72.8193754, 23.0121407 ], [ 72.8190575, 23.0140504 ], [ 72.8245641, 23.0145624 ], [ 72.8234162, 23.0192892 ], [ 72.821187, 23.0192885 ], [ 72.8182661, 23.0172422 ], [ 72.8153662, 23.0232686 ], [ 72.8115471, 23.0226486 ], [ 72.8069358, 23.0262587 ], [ 72.8071056, 23.0281415 ], [ 72.8120066, 23.0314394 ], [ 72.810645, 23.0326669 ], [ 72.8148983, 23.0337386 ], [ 72.8153358, 23.0373688 ], [ 72.810969, 23.0385907 ], [ 72.8051257, 23.0366197 ], [ 72.8019975, 23.038808 ], [ 72.8017088, 23.0405778 ], [ 72.7944866, 23.0442179 ], [ 72.7944997, 23.0466379 ], [ 72.7977472, 23.0498767 ], [ 72.7975366, 23.0511363 ], [ 72.7897893, 23.0584691 ], [ 72.7702729, 23.0584575 ], [ 72.7688228, 23.0597659 ], [ 72.7660711, 23.059615 ], [ 72.7709031, 23.070156 ], [ 72.7781491, 23.0773754 ], [ 72.77522, 23.0856043 ], [ 72.7644022, 23.0960356 ], [ 72.7580926, 23.0951236 ], [ 72.7537231, 23.0912647 ], [ 72.743985, 23.0890352 ], [ 72.743634, 23.0949861 ], [ 72.745136, 23.0991025 ], [ 72.7441655, 23.0998843 ], [ 72.7410153, 23.0974035 ], [ 72.7382051, 23.0985523 ], [ 72.7380358, 23.100363 ], [ 72.7361762, 23.100274 ], [ 72.7360966, 23.0984862 ], [ 72.7324651, 23.0980147 ], [ 72.7331156, 23.0997524 ], [ 72.716318, 23.0947743 ], [ 72.7139191, 23.105336 ], [ 72.7103498, 23.1107332 ], [ 72.7061078, 23.1102118 ], [ 72.7032288, 23.1115813 ], [ 72.700573, 23.1106751 ], [ 72.6998905, 23.1120028 ], [ 72.6970493, 23.1112547 ], [ 72.693942, 23.1056848 ], [ 72.6906707, 23.103203 ], [ 72.6838027, 23.1016932 ], [ 72.680992, 23.1027553 ], [ 72.6805251, 23.1066021 ], [ 72.6721354, 23.1080633 ], [ 72.6652541, 23.0948366 ], [ 72.6599545, 23.0969553 ], [ 72.6579238, 23.0951047 ], [ 72.6549173, 23.0947758 ], [ 72.6503845, 23.1005828 ], [ 72.6466266, 23.1012154 ], [ 72.642809, 23.0952653 ], [ 72.637367, 23.0919835 ], [ 72.6291095, 23.0910043 ], [ 72.6103593, 23.0915141 ], [ 72.6099046, 23.1007882 ], [ 72.6118236, 23.1047056 ], [ 72.6132016, 23.1046025 ], [ 72.6139966, 23.1083309 ], [ 72.6168497, 23.1096239 ], [ 72.6186096, 23.1150511 ], [ 72.6129607, 23.1152463 ], [ 72.6143457, 23.1232931 ], [ 72.6124677, 23.1231807 ], [ 72.6121774, 23.1260201 ], [ 72.6085407, 23.1290699 ], [ 72.5970353, 23.1319384 ], [ 72.5880822, 23.1292684 ], [ 72.5867466, 23.1304883 ], [ 72.5826963, 23.1299192 ], [ 72.5808098, 23.1224027 ], [ 72.5782135, 23.1181958 ], [ 72.5714975, 23.1221125 ], [ 72.569077, 23.1161303 ], [ 72.5630776, 23.1160347 ], [ 72.5664092, 23.1212529 ], [ 72.5679348, 23.1268518 ], [ 72.5666753, 23.1269327 ], [ 72.567827, 23.1279534 ], [ 72.5669757, 23.1324545 ], [ 72.562619, 23.1372702 ], [ 72.5578779, 23.1386318 ], [ 72.5568002, 23.1361707 ], [ 72.5523295, 23.1339926 ], [ 72.5456621, 23.1319532 ], [ 72.54058, 23.1322713 ], [ 72.5409394, 23.1351745 ], [ 72.539742, 23.137314 ], [ 72.5418806, 23.1369629 ], [ 72.5412387, 23.1408227 ], [ 72.5433204, 23.1456503 ], [ 72.5430313, 23.1474199 ], [ 72.540892, 23.1488004 ], [ 72.5425418, 23.1495597 ], [ 72.5454294, 23.1545907 ], [ 72.5451694, 23.1564327 ], [ 72.5485782, 23.1640103 ], [ 72.5374302, 23.1644109 ], [ 72.5357894, 23.1571411 ], [ 72.5307612, 23.1485328 ], [ 72.526133, 23.1481418 ], [ 72.5253846, 23.1500827 ], [ 72.5184952, 23.1505207 ], [ 72.5118229, 23.1598393 ], [ 72.5042149, 23.1550028 ], [ 72.5034933, 23.1483699 ], [ 72.505056, 23.1480596 ], [ 72.5049861, 23.1441632 ], [ 72.4944342, 23.1420634 ], [ 72.4876162, 23.1449219 ], [ 72.4830559, 23.144433 ], [ 72.486087, 23.137794 ], [ 72.4855066, 23.1324217 ], [ 72.4845154, 23.1324043 ], [ 72.4863794, 23.1255044 ], [ 72.4956877, 23.1137451 ], [ 72.4989762, 23.1123023 ], [ 72.4980079, 23.0997246 ], [ 72.4817096, 23.0972354 ], [ 72.4786674, 23.0950748 ], [ 72.4776966, 23.0894363 ], [ 72.4756792, 23.086968 ], [ 72.4643402, 23.0833765 ], [ 72.4597095, 23.083939 ], [ 72.460219, 23.0795366 ], [ 72.4657884, 23.0816375 ], [ 72.4688787, 23.0764571 ], [ 72.4739603, 23.0722099 ], [ 72.4745399, 23.0708866 ], [ 72.4723483, 23.0699084 ], [ 72.4718266, 23.0637683 ], [ 72.461978, 23.0603473 ], [ 72.452943, 23.0625689 ], [ 72.4488091, 23.060458 ], [ 72.4474212, 23.0475414 ], [ 72.4391333, 23.0458022 ], [ 72.4348714, 23.0436324 ], [ 72.4266038, 23.0478884 ], [ 72.4310516, 23.0556796 ], [ 72.4310425, 23.057147 ], [ 72.4296862, 23.0572107 ], [ 72.4302546, 23.0632379 ], [ 72.4276351, 23.064968 ], [ 72.4146657, 23.0645972 ], [ 72.4128073, 23.0667964 ], [ 72.4072158, 23.0679084 ], [ 72.4074708, 23.0668926 ], [ 72.4033458, 23.0651596 ], [ 72.4030269, 23.0571502 ], [ 72.3973672, 23.0572414 ], [ 72.3872474, 23.0517389 ], [ 72.3880869, 23.0549489 ], [ 72.3856475, 23.0565384 ], [ 72.3849598, 23.0588998 ], [ 72.3811395, 23.0606608 ], [ 72.381272, 23.0727202 ], [ 72.3827898, 23.0770679 ], [ 72.3848688, 23.0787879 ], [ 72.3842686, 23.0796774 ], [ 72.3816677, 23.0809056 ], [ 72.3751627, 23.0809374 ], [ 72.375031, 23.0825087 ], [ 72.3716003, 23.0858858 ], [ 72.3695016, 23.0935972 ], [ 72.3654999, 23.0902064 ], [ 72.3559837, 23.0882371 ], [ 72.3486435, 23.0904574 ], [ 72.3475249, 23.0954146 ], [ 72.3451668, 23.0990262 ], [ 72.3365066, 23.1070653 ], [ 72.3383535, 23.1181454 ], [ 72.3417247, 23.1259839 ], [ 72.3433064, 23.1250857 ], [ 72.3440725, 23.1263952 ], [ 72.3473144, 23.1239532 ], [ 72.3507263, 23.1254437 ], [ 72.3516052, 23.1239539 ], [ 72.3562914, 23.1244737 ], [ 72.3621014, 23.1129567 ], [ 72.3650935, 23.111914 ], [ 72.3678416, 23.1095754 ], [ 72.3675098, 23.1078552 ], [ 72.3690327, 23.1078733 ], [ 72.3686423, 23.1044465 ], [ 72.3693794, 23.1022658 ], [ 72.3708289, 23.1022568 ], [ 72.3674518, 23.0973174 ], [ 72.3707217, 23.0959856 ], [ 72.3728691, 23.1012681 ], [ 72.3775596, 23.1075753 ], [ 72.3809324, 23.1088574 ], [ 72.3813278, 23.1102841 ], [ 72.3857402, 23.1111552 ], [ 72.3849792, 23.1149659 ], [ 72.3873615, 23.1184647 ], [ 72.3908177, 23.1203741 ], [ 72.3910474, 23.1222343 ], [ 72.3975398, 23.1225043 ], [ 72.4027879, 23.1254923 ], [ 72.4010273, 23.1337819 ], [ 72.4174538, 23.1306946 ], [ 72.4273835, 23.1436221 ], [ 72.4275124, 23.1485839 ], [ 72.4290026, 23.1509898 ], [ 72.4255272, 23.1533522 ], [ 72.4209862, 23.1530331 ], [ 72.4179354, 23.1553817 ], [ 72.4185443, 23.1511737 ], [ 72.4163956, 23.1499733 ], [ 72.3974075, 23.1479321 ], [ 72.3939172, 23.1515716 ], [ 72.3868915, 23.1539517 ], [ 72.3847485, 23.1593019 ], [ 72.3837091, 23.1671714 ], [ 72.3842613, 23.1717991 ], [ 72.385609, 23.1718216 ], [ 72.3868691, 23.1744085 ], [ 72.390317, 23.1764986 ], [ 72.3921874, 23.1765796 ], [ 72.3943999, 23.1792702 ], [ 72.3969395, 23.1799381 ], [ 72.4023472, 23.1874905 ], [ 72.409756, 23.1880397 ], [ 72.413428, 23.1860207 ], [ 72.4153379, 23.1870586 ], [ 72.4163152, 23.1886973 ], [ 72.4146774, 23.199127 ], [ 72.4154944, 23.2034068 ], [ 72.4166184, 23.205077 ], [ 72.4204137, 23.2056674 ], [ 72.4227644, 23.2092469 ], [ 72.4299723, 23.2050277 ], [ 72.432833, 23.201478 ], [ 72.4371646, 23.1997471 ], [ 72.4390233, 23.1953669 ], [ 72.4480933, 23.195846 ], [ 72.4489117, 23.2006268 ], [ 72.4429241, 23.2017357 ], [ 72.4397457, 23.204306 ], [ 72.4403536, 23.208798 ], [ 72.4378161, 23.2138782 ], [ 72.4393656, 23.2162072 ], [ 72.4380127, 23.2164065 ], [ 72.4368515, 23.2194455 ], [ 72.4337256, 23.2203767 ], [ 72.4325835, 23.2227564 ], [ 72.4304631, 23.2334348 ], [ 72.431257, 23.2393625 ], [ 72.4286241, 23.240605 ], [ 72.4262754, 23.2438429 ], [ 72.4263947, 23.248904 ], [ 72.4464837, 23.2446249 ], [ 72.4460643, 23.2553745 ], [ 72.4384157, 23.2620823 ], [ 72.4353954, 23.2611941 ], [ 72.4330951, 23.2638407 ], [ 72.4256671, 23.2625431 ], [ 72.4270431, 23.2576215 ], [ 72.4230949, 23.2576228 ], [ 72.4233751, 23.2621014 ], [ 72.4208884, 23.2637817 ], [ 72.4200839, 23.2686805 ], [ 72.4134793, 23.2765922 ], [ 72.4121073, 23.2807913 ], [ 72.4157246, 23.2833412 ], [ 72.415887, 23.2866912 ], [ 72.4190647, 23.2895707 ], [ 72.4227538, 23.3003419 ], [ 72.4270576, 23.3062413 ], [ 72.4371244, 23.3107568 ], [ 72.4401536, 23.3077803 ], [ 72.448183, 23.3044312 ], [ 72.4513138, 23.3002084 ], [ 72.4508628, 23.2979919 ], [ 72.4632336, 23.2974977 ], [ 72.4653226, 23.3004807 ], [ 72.475038, 23.3025263 ], [ 72.4763353, 23.3067221 ], [ 72.4713701, 23.3074391 ], [ 72.4654869, 23.3122937 ], [ 72.4609271, 23.3116645 ], [ 72.4591444, 23.3135722 ], [ 72.4704007, 23.314457 ], [ 72.4803823, 23.3130229 ], [ 72.4845206, 23.3189075 ], [ 72.4802418, 23.3323401 ], [ 72.4723986, 23.3420385 ], [ 72.4717995, 23.3445467 ], [ 72.4771932, 23.3460537 ], [ 72.4851208, 23.3406223 ], [ 72.4887379, 23.3406234 ], [ 72.5007586, 23.3464049 ], [ 72.506108, 23.3461562 ], [ 72.508356, 23.3476567 ], [ 72.508164, 23.3491058 ], [ 72.5113853, 23.3501962 ], [ 72.5183425, 23.3513343 ], [ 72.5213259, 23.3505643 ], [ 72.5198168, 23.3544639 ], [ 72.5216745, 23.3551063 ], [ 72.5247736, 23.3632664 ], [ 72.519717, 23.3696741 ], [ 72.5179425, 23.3686751 ], [ 72.5102556, 23.3734148 ], [ 72.505987, 23.3780437 ], [ 72.5058961, 23.3812446 ], [ 72.5039249, 23.3814553 ], [ 72.504108, 23.3845209 ], [ 72.5073342, 23.386713 ], [ 72.511474, 23.3960028 ], [ 72.5273355, 23.404632 ], [ 72.5277445, 23.4072101 ], [ 72.5247124, 23.4127207 ], [ 72.5240929, 23.4168693 ], [ 72.5263324, 23.4250198 ], [ 72.5295419, 23.4249495 ], [ 72.5309031, 23.4235598 ], [ 72.5372612, 23.4265612 ], [ 72.5371822, 23.4275589 ], [ 72.5389994, 23.4272099 ], [ 72.5408191, 23.4293787 ], [ 72.5408318, 23.4308495 ], [ 72.536322, 23.431483 ], [ 72.5360169, 23.4357671 ], [ 72.5370435, 23.4371953 ], [ 72.5362999, 23.4397918 ], [ 72.5339102, 23.4401538 ], [ 72.5339246, 23.441994 ], [ 72.5379689, 23.4432207 ], [ 72.5400141, 23.4423779 ], [ 72.5436643, 23.4465897 ], [ 72.5455547, 23.4537577 ], [ 72.5549912, 23.456777 ], [ 72.5679469, 23.455453 ], [ 72.5678113, 23.4585427 ], [ 72.5750722, 23.4647432 ], [ 72.5771836, 23.476049 ], [ 72.5765115, 23.4880878 ], [ 72.580546, 23.5000003 ], [ 72.5807089, 23.5120161 ], [ 72.5842371, 23.5218624 ], [ 72.5914419, 23.5198636 ], [ 72.6021805, 23.5192348 ], [ 72.6051484, 23.5106743 ], [ 72.6136885, 23.5096246 ], [ 72.6195008, 23.511511 ], [ 72.6212699, 23.5155017 ], [ 72.6201579, 23.5294349 ], [ 72.6220701, 23.5347527 ], [ 72.6211239, 23.5392818 ], [ 72.6269202, 23.5439223 ], [ 72.6239407, 23.5485213 ], [ 72.6239063, 23.5565683 ], [ 72.6258374, 23.5562375 ], [ 72.6282305, 23.5596972 ], [ 72.6379791, 23.5627724 ], [ 72.6468955, 23.5675802 ], [ 72.6505467, 23.5662456 ] ] ] } }
]
}
