{
"type": "FeatureCollection",
"name": "2412",
"crs": { "type": "name", "properties": { "name": "urn:ogc:def:crs:OGC:1.3:CRS84" } },
"features": [
{ "type": "Feature", "properties": { "code": "2412", "name": "Junagadh", "type": "district" }, "geometry": { "type": "Polygon", "coordinates": [ [ [ 70.1195135, 21.6805186 ], [ 70.122504, 21.6800083 ], [ 70.1269681, 21.6753888 ], [ 70.1301661, 21.6704575 ], [ 70.1303351, 21.6677887 ], [ 70.1330984, 21.6687234 ], [ 70.1352864, 21.6629837 ], [ 70.1474312, 21.6647752 ], [ 70.1491942, 21.6635422 ], [ 70.1476386, 21.6627069 ], [ 70.1520712, 21.6525369 ], [ 70.139371, 21.642893 ], [ 70.1271823, 21.6427726 ], [ 70.1334285, 21.6206626 ], [ 70.1391648, 21.6119694 ], [ 70.1455533, 21.6098915 ], [ 70.1654544, 21.6128048 ], [ 70.1720913, 21.6179284 ], [ 70.1831184, 21.6225082 ], [ 70.1875099, 21.6261102 ], [ 70.1999421, 21.6280783 ], [ 70.1997934, 21.6299253 ], [ 70.2171845, 21.6366402 ], [ 70.2283087, 21.6380515 ], [ 70.2304812, 21.6365871 ], [ 70.2322558, 21.6330095 ], [ 70.2358715, 21.6306093 ], [ 70.2399783, 21.6205996 ], [ 70.2407852, 21.6209964 ], [ 70.2433604, 21.6165421 ], [ 70.2428568, 21.6149213 ], [ 70.2447001, 21.6132176 ], [ 70.2529721, 21.6120629 ], [ 70.25581, 21.6099935 ], [ 70.261777, 21.6149469 ], [ 70.2654696, 21.6126269 ], [ 70.2645563, 21.6068983 ], [ 70.2654866, 21.5969279 ], [ 70.2718444, 21.5754166 ], [ 70.2521514, 21.5699218 ], [ 70.246699, 21.5671015 ], [ 70.249745, 21.5580942 ], [ 70.2509438, 21.5480448 ], [ 70.2552198, 21.5373372 ], [ 70.253039, 21.52919 ], [ 70.263448, 21.5258358 ], [ 70.26665, 21.5265141 ], [ 70.2705849, 21.5298749 ], [ 70.2793228, 21.5416584 ], [ 70.2843036, 21.5441022 ], [ 70.2879068, 21.5439628 ], [ 70.2957235, 21.5463299 ], [ 70.2916441, 21.5695631 ], [ 70.2993846, 21.5787285 ], [ 70.3040116, 21.5893182 ], [ 70.3323466, 21.5896715 ], [ 70.3393894, 21.5934682 ], [ 70.3445483, 21.5920132 ], [ 70.3491673, 21.5942158 ], [ 70.3656477, 21.5965301 ], [ 70.3699875, 21.5999696 ], [ 70.3726641, 21.6205061 ], [ 70.3720182, 21.6292146 ], [ 70.3683937, 21.6356915 ], [ 70.3682524, 21.6388638 ], [ 70.3742549, 21.6351018 ], [ 70.3852157, 21.6377565 ], [ 70.3928484, 21.6408609 ], [ 70.3919048, 21.6468598 ], [ 70.3903077, 21.6490946 ], [ 70.4017575, 21.6503122 ], [ 70.4093164, 21.6537455 ], [ 70.4177216, 21.652595 ], [ 70.4203197, 21.6579487 ], [ 70.4366495, 21.6582542 ], [ 70.440623, 21.6680871 ], [ 70.4412463, 21.6735354 ], [ 70.44808, 21.6747022 ], [ 70.4510849, 21.672837 ], [ 70.4513544, 21.6632773 ], [ 70.4542477, 21.660685 ], [ 70.4535107, 21.6588472 ], [ 70.455445, 21.6555776 ], [ 70.4550921, 21.6538617 ], [ 70.4589655, 21.6494787 ], [ 70.4770734, 21.6547879 ], [ 70.4836665, 21.6534856 ], [ 70.4870338, 21.654652 ], [ 70.4885629, 21.6488647 ], [ 70.49165, 21.6500332 ], [ 70.4971926, 21.6498416 ], [ 70.5008403, 21.6550195 ], [ 70.5060903, 21.656071 ], [ 70.5069924, 21.6575482 ], [ 70.5062316, 21.6665294 ], [ 70.523877, 21.6691104 ], [ 70.5420089, 21.6753881 ], [ 70.544125, 21.6751272 ], [ 70.5484072, 21.6717875 ], [ 70.5526339, 21.672539 ], [ 70.5536846, 21.6476806 ], [ 70.5446339, 21.6454818 ], [ 70.5475222, 21.6405974 ], [ 70.5488874, 21.6402914 ], [ 70.54925, 21.6371935 ], [ 70.5527087, 21.6320488 ], [ 70.5533187, 21.6245601 ], [ 70.5563163, 21.6218649 ], [ 70.5624133, 21.6204196 ], [ 70.5672056, 21.6208649 ], [ 70.5682639, 21.6310592 ], [ 70.5804437, 21.633131 ], [ 70.5919681, 21.6304829 ], [ 70.6009368, 21.6300102 ], [ 70.6057771, 21.6225508 ], [ 70.6084576, 21.6209706 ], [ 70.6098384, 21.6251296 ], [ 70.6120551, 21.6247731 ], [ 70.6143973, 21.6267918 ], [ 70.6216658, 21.6291402 ], [ 70.6253846, 21.6315923 ], [ 70.6268143, 21.6343287 ], [ 70.6293643, 21.6329695 ], [ 70.6344357, 21.6350012 ], [ 70.6397453, 21.6491079 ], [ 70.642325, 21.6522505 ], [ 70.6451748, 21.6506697 ], [ 70.6560524, 21.6493178 ], [ 70.6606929, 21.6438482 ], [ 70.6613307, 21.6446113 ], [ 70.6680826, 21.6426904 ], [ 70.674729, 21.6432982 ], [ 70.677727, 21.6392511 ], [ 70.6857766, 21.6346783 ], [ 70.682958, 21.6277207 ], [ 70.6849795, 21.6228204 ], [ 70.696996, 21.6053442 ], [ 70.7013656, 21.6044617 ], [ 70.7106042, 21.6062227 ], [ 70.7206126, 21.6106922 ], [ 70.7241137, 21.6109521 ], [ 70.721595, 21.6138617 ], [ 70.7262126, 21.6152001 ], [ 70.7252235, 21.6164109 ], [ 70.7254836, 21.6293483 ], [ 70.7274724, 21.6346621 ], [ 70.7322326, 21.6384477 ], [ 70.7312007, 21.6407198 ], [ 70.7419511, 21.6451107 ], [ 70.743259, 21.643859 ], [ 70.743189, 21.6410096 ], [ 70.7699082, 21.6434392 ], [ 70.7724176, 21.6534791 ], [ 70.7774885, 21.6624864 ], [ 70.7936356, 21.6662385 ], [ 70.7989645, 21.6559994 ], [ 70.8056341, 21.6484069 ], [ 70.8103526, 21.6390883 ], [ 70.8160115, 21.6437505 ], [ 70.8280605, 21.6348312 ], [ 70.8395195, 21.6235898 ], [ 70.8424471, 21.6191198 ], [ 70.8518991, 21.6112099 ], [ 70.8555699, 21.605972 ], [ 70.8588972, 21.6043422 ], [ 70.8640064, 21.599181 ], [ 70.8670052, 21.5942319 ], [ 70.8730553, 21.5773928 ], [ 70.879404, 21.577465 ], [ 70.8822462, 21.553125 ], [ 70.8814543, 21.5480448 ], [ 70.890143, 21.5500537 ], [ 70.8925413, 21.5440475 ], [ 70.8943935, 21.5350789 ], [ 70.8913231, 21.5299855 ], [ 70.8882823, 21.527877 ], [ 70.8845951, 21.5283965 ], [ 70.8842139, 21.5295391 ], [ 70.8780749, 21.5284962 ], [ 70.8719841, 21.5292459 ], [ 70.8690931, 21.5290561 ], [ 70.8666752, 21.5269381 ], [ 70.8647446, 21.5286495 ], [ 70.8633784, 21.5340277 ], [ 70.8488559, 21.531258 ], [ 70.8473865, 21.5166583 ], [ 70.8461661, 21.5139081 ], [ 70.8421564, 21.5112205 ], [ 70.837939, 21.5100681 ], [ 70.8194034, 21.5105282 ], [ 70.8144504, 21.5152681 ], [ 70.8046153, 21.5149573 ], [ 70.8064318, 21.5006782 ], [ 70.8099874, 21.490908 ], [ 70.8271929, 21.4926027 ], [ 70.833605, 21.494519 ], [ 70.829621, 21.4891578 ], [ 70.8274322, 21.4682174 ], [ 70.8317002, 21.4568657 ], [ 70.8665334, 21.4665121 ], [ 70.8749322, 21.4603572 ], [ 70.8838461, 21.4459469 ], [ 70.8858817, 21.4459694 ], [ 70.8843398, 21.4380835 ], [ 70.879318, 21.4248021 ], [ 70.8791868, 21.4186308 ], [ 70.8891858, 21.4066679 ], [ 70.8848842, 21.4050623 ], [ 70.8857505, 21.4015543 ], [ 70.8907137, 21.4029553 ], [ 70.8926428, 21.3969133 ], [ 70.8824389, 21.3872502 ], [ 70.8828725, 21.3807067 ], [ 70.8802735, 21.3782322 ], [ 70.8737744, 21.377135 ], [ 70.8675981, 21.3799482 ], [ 70.8663447, 21.3783044 ], [ 70.867695, 21.370352 ], [ 70.8693535, 21.368618 ], [ 70.8688137, 21.363646 ], [ 70.8712724, 21.3609411 ], [ 70.8719812, 21.3460974 ], [ 70.873596, 21.3449052 ], [ 70.8726705, 21.3426157 ], [ 70.8746853, 21.3376573 ], [ 70.8712776, 21.333733 ], [ 70.8667903, 21.3336425 ], [ 70.8681873, 21.3191117 ], [ 70.8725984, 21.318537 ], [ 70.8764153, 21.320515 ], [ 70.8788877, 21.3180854 ], [ 70.8817889, 21.3178143 ], [ 70.8832251, 21.3181755 ], [ 70.8843676, 21.3215172 ], [ 70.8881221, 21.3239238 ], [ 70.8913175, 21.323201 ], [ 70.9005283, 21.3264919 ], [ 70.9153276, 21.3370199 ], [ 70.9215684, 21.3487233 ], [ 70.9310169, 21.3406738 ], [ 70.9313434, 21.3343281 ], [ 70.9380427, 21.3223631 ], [ 70.9422347, 21.3203474 ], [ 70.9436525, 21.311988 ], [ 70.939445, 21.3112671 ], [ 70.9349708, 21.3064097 ], [ 70.9321035, 21.3064423 ], [ 70.9283966, 21.3035895 ], [ 70.9082285, 21.2995938 ], [ 70.8995429, 21.2866754 ], [ 70.8957075, 21.2873895 ], [ 70.8954414, 21.2801415 ], [ 70.8940779, 21.2797172 ], [ 70.8959519, 21.2783395 ], [ 70.8913264, 21.2768453 ], [ 70.8904919, 21.2686355 ], [ 70.8713992, 21.262585 ], [ 70.8666346, 21.2621649 ], [ 70.861311, 21.2649193 ], [ 70.8247846, 21.2615709 ], [ 70.8268919, 21.2551861 ], [ 70.8104486, 21.2479939 ], [ 70.8041576, 21.2372436 ], [ 70.8039088, 21.2337436 ], [ 70.809384, 21.2256126 ], [ 70.8114284, 21.2202845 ], [ 70.8151764, 21.2177389 ], [ 70.8194611, 21.2091691 ], [ 70.8254391, 21.2041492 ], [ 70.82364, 21.1982869 ], [ 70.8343041, 21.1887701 ], [ 70.8407328, 21.1868387 ], [ 70.8505037, 21.180256 ], [ 70.8526182, 21.1748823 ], [ 70.8535291, 21.1674176 ], [ 70.8642843, 21.1735737 ], [ 70.8661959, 21.1717584 ], [ 70.8705627, 21.1708914 ], [ 70.8746456, 21.1757733 ], [ 70.8927925, 21.1855618 ], [ 70.9008487, 21.1819669 ], [ 70.9062658, 21.183122 ], [ 70.9217531, 21.1798768 ], [ 70.9477011, 21.1711025 ], [ 70.9493, 21.1691016 ], [ 70.9781648, 21.1643148 ], [ 70.9894044, 21.1704572 ], [ 71.0054563, 21.1663742 ], [ 71.0079359, 21.161025 ], [ 71.0162048, 21.1536955 ], [ 71.022264, 21.1447661 ], [ 71.0269634, 21.1448961 ], [ 71.0386525, 21.136376 ], [ 71.0414516, 21.1329369 ], [ 71.0752773, 21.1172079 ], [ 71.085616, 21.1036789 ], [ 71.0931151, 21.0976793 ], [ 71.0923551, 21.0934297 ], [ 71.0958946, 21.0869202 ], [ 71.1107628, 21.0797306 ], [ 71.1128025, 21.0763308 ], [ 71.1189418, 21.0786506 ], [ 71.1236312, 21.0758908 ], [ 71.1253709, 21.0761508 ], [ 71.1346698, 21.0674914 ], [ 71.1345297, 21.0570822 ], [ 71.1383192, 21.0425832 ], [ 71.1485079, 21.031674 ], [ 71.1385876, 21.0196013 ], [ 71.1310998, 21.0064061 ], [ 71.1303799, 21.0022565 ], [ 71.1267529, 21.0031714 ], [ 71.1250126, 21.0089787 ], [ 71.1212653, 21.0092737 ], [ 71.1182557, 21.0112903 ], [ 71.1144287, 21.0111461 ], [ 71.1070466, 21.0158691 ], [ 71.0891825, 21.0169752 ], [ 71.091415, 21.0196121 ], [ 71.0906515, 21.0258587 ], [ 71.0849389, 21.027899 ], [ 71.0857824, 21.0321201 ], [ 71.0903839, 21.0362496 ], [ 71.0793101, 21.0400179 ], [ 71.0769152, 21.0350707 ], [ 71.0755913, 21.0246152 ], [ 71.0736874, 21.020861 ], [ 71.0683419, 21.0179729 ], [ 71.0689663, 21.0076372 ], [ 71.0735038, 21.0010593 ], [ 71.0719346, 20.9877017 ], [ 71.0667432, 20.9891725 ], [ 71.066066, 20.9874968 ], [ 71.0634698, 20.9898286 ], [ 71.0524264, 20.9914253 ], [ 71.0459318, 20.9880205 ], [ 71.0452138, 20.983173 ], [ 71.0459552, 20.9817206 ], [ 71.0489614, 20.9809233 ], [ 71.0417554, 20.9747249 ], [ 71.0429922, 20.9726462 ], [ 71.036095, 20.9696501 ], [ 71.0369852, 20.9657584 ], [ 71.0310516, 20.96775 ], [ 71.0234914, 20.9684124 ], [ 71.0208715, 20.9625771 ], [ 71.0155255, 20.9597977 ], [ 71.0141055, 20.9568119 ], [ 71.007998, 20.9583356 ], [ 71.0054344, 20.9566578 ], [ 71.0000035, 20.9559907 ], [ 71.0008421, 20.9505805 ], [ 71.0027405, 20.9503588 ], [ 71.0014692, 20.949904 ], [ 71.0015711, 20.948458 ], [ 70.9954265, 20.9473373 ], [ 70.9925898, 20.9491161 ], [ 70.9888706, 20.9484954 ], [ 70.9891444, 20.9563221 ], [ 70.9909566, 20.9619512 ], [ 70.9849779, 20.9654047 ], [ 70.9814333, 20.9645621 ], [ 70.9785683, 20.9694469 ], [ 70.9836256, 20.9818018 ], [ 70.9790137, 20.9844382 ], [ 70.967611, 20.986335 ], [ 70.9664367, 20.9908303 ], [ 70.9619042, 20.9952311 ], [ 70.9585299, 20.9942356 ], [ 70.9567533, 20.9954344 ], [ 70.953189, 20.9928342 ], [ 70.9341816, 20.9882769 ], [ 70.9307623, 20.9803086 ], [ 70.9312896, 20.9768587 ], [ 70.9217692, 20.9733479 ], [ 70.9176954, 20.9743673 ], [ 70.9091496, 20.9689353 ], [ 70.9075983, 20.9668704 ], [ 70.9070167, 20.9623872 ], [ 70.910207, 20.9593309 ], [ 70.9109539, 20.9576845 ], [ 70.9099817, 20.9571422 ], [ 70.9086873, 20.9568259 ], [ 70.9048051, 20.9597306 ], [ 70.9021342, 20.9595223 ], [ 70.9024143, 20.9636449 ], [ 70.9008755, 20.9626756 ], [ 70.9009943, 20.9601424 ], [ 70.8992243, 20.957949 ], [ 70.8973162, 20.960859 ], [ 70.8929773, 20.9632476 ], [ 70.8720202, 20.9329332 ], [ 70.8619231, 20.9574503 ], [ 70.8609224, 20.9669933 ], [ 70.8675345, 20.9658761 ], [ 70.8736764, 20.9674516 ], [ 70.8678223, 20.9715007 ], [ 70.8608079, 20.9741865 ], [ 70.8591015, 20.9791006 ], [ 70.8614944, 20.9788606 ], [ 70.8610111, 20.9809357 ], [ 70.8580154, 20.9808277 ], [ 70.8574436, 20.9795406 ], [ 70.856463, 20.9706137 ], [ 70.8390196, 20.9717637 ], [ 70.8403117, 20.9770405 ], [ 70.8364403, 20.9833204 ], [ 70.8380624, 20.9839458 ], [ 70.837206, 20.9856047 ], [ 70.8387464, 20.988401 ], [ 70.8377537, 20.9890626 ], [ 70.8409437, 20.9917422 ], [ 70.8408425, 20.9940762 ], [ 70.8375891, 20.9943391 ], [ 70.8334817, 20.9880408 ], [ 70.8180006, 20.9963667 ], [ 70.8153163, 20.9969264 ], [ 70.8121101, 20.9947403 ], [ 70.8025162, 20.9994057 ], [ 70.8048188, 20.9964837 ], [ 70.8033828, 20.9946494 ], [ 70.7953878, 20.9938818 ], [ 70.7898552, 20.9917884 ], [ 70.7869275, 20.9922442 ], [ 70.7824977, 20.9904318 ], [ 70.7822764, 20.9920506 ], [ 70.7798812, 20.9943275 ], [ 70.778303, 20.9938783 ], [ 70.7784821, 20.9956317 ], [ 70.7769936, 20.9960591 ], [ 70.7803095, 21.002272 ], [ 70.7772009, 21.0012406 ], [ 70.7686847, 21.0036732 ], [ 70.7656945, 21.0025975 ], [ 70.7672664, 20.9999519 ], [ 70.7660502, 20.9980394 ], [ 70.7682271, 20.9968712 ], [ 70.7672347, 20.9958934 ], [ 70.7630405, 20.9971839 ], [ 70.7643284, 20.9885441 ], [ 70.7629059, 20.9847009 ], [ 70.7611571, 20.9868203 ], [ 70.759376, 20.986499 ], [ 70.7591052, 20.9825615 ], [ 70.7569207, 20.9802803 ], [ 70.7515335, 20.9774855 ], [ 70.7485578, 20.9782225 ], [ 70.7442123, 20.9762581 ], [ 70.7491943, 20.9678621 ], [ 70.7543345, 20.9645964 ], [ 70.7533159, 20.9635104 ], [ 70.7360576, 20.9772193 ], [ 70.7311114, 20.9846038 ], [ 70.7266262, 20.9947785 ], [ 70.7180616, 20.9943715 ], [ 70.7182591, 20.9984513 ], [ 70.7155094, 20.9986314 ], [ 70.7138621, 21.002121 ], [ 70.7147775, 21.0035229 ], [ 70.7131502, 21.0044065 ], [ 70.7125241, 21.0073915 ], [ 70.7100661, 21.0077421 ], [ 70.7092656, 21.0097517 ], [ 70.707893, 21.0094498 ], [ 70.7079717, 21.0113205 ], [ 70.7142587, 21.0109703 ], [ 70.7153753, 21.0186241 ], [ 70.7136657, 21.0229551 ], [ 70.7206447, 21.0339879 ], [ 70.7245499, 21.0370805 ], [ 70.7255682, 21.0414109 ], [ 70.7226301, 21.0448787 ], [ 70.7239284, 21.0540385 ], [ 70.7226854, 21.0613239 ], [ 70.7154677, 21.0596114 ], [ 70.7086053, 21.0523628 ], [ 70.7118335, 21.0619594 ], [ 70.7092127, 21.0638872 ], [ 70.7069381, 21.0725387 ], [ 70.7020498, 21.0764863 ], [ 70.6994367, 21.0824109 ], [ 70.6937994, 21.0822976 ], [ 70.6943554, 21.0809371 ], [ 70.6919743, 21.0804431 ], [ 70.6940518, 21.0778776 ], [ 70.6830799, 21.075653 ], [ 70.67557, 21.0762581 ], [ 70.6693637, 21.0745007 ], [ 70.665543, 21.0768014 ], [ 70.6658755, 21.07878 ], [ 70.6700346, 21.0781813 ], [ 70.6716911, 21.0807651 ], [ 70.6730884, 21.0889634 ], [ 70.6703341, 21.0909617 ], [ 70.6710009, 21.0946434 ], [ 70.6673064, 21.0953088 ], [ 70.6606947, 21.0992308 ], [ 70.6615296, 21.1011787 ], [ 70.6659945, 21.1043547 ], [ 70.6650361, 21.1059777 ], [ 70.6663219, 21.1112906 ], [ 70.6552087, 21.1189142 ], [ 70.6498792, 21.1206736 ], [ 70.6503204, 21.1161429 ], [ 70.649304, 21.1139304 ], [ 70.6424996, 21.1078577 ], [ 70.6406883, 21.1074625 ], [ 70.6402101, 21.1112956 ], [ 70.6379852, 21.1110922 ], [ 70.6375863, 21.1090373 ], [ 70.6319468, 21.1077731 ], [ 70.6263132, 21.1119321 ], [ 70.6215135, 21.1100426 ], [ 70.6216217, 21.1140306 ], [ 70.6187948, 21.116184 ], [ 70.6165311, 21.1217205 ], [ 70.6201566, 21.1260101 ], [ 70.6200543, 21.1296904 ], [ 70.6227844, 21.1337782 ], [ 70.6226949, 21.1355487 ], [ 70.6182566, 21.1377681 ], [ 70.6174847, 21.1432965 ], [ 70.6137732, 21.14628 ], [ 70.6164727, 21.1479312 ], [ 70.6147787, 21.1496872 ], [ 70.6161585, 21.15303 ], [ 70.6133105, 21.1535588 ], [ 70.6082489, 21.1510334 ], [ 70.5996645, 21.1562798 ], [ 70.5974344, 21.1537232 ], [ 70.5972241, 21.1510295 ], [ 70.5955694, 21.1499877 ], [ 70.5920943, 21.1509668 ], [ 70.5900905, 21.1501448 ], [ 70.5912204, 21.1544276 ], [ 70.5887262, 21.1557501 ], [ 70.5887721, 21.1594274 ], [ 70.5878413, 21.160557 ], [ 70.5853988, 21.1594951 ], [ 70.5854718, 21.1618133 ], [ 70.5768729, 21.1695505 ], [ 70.5662809, 21.1644458 ], [ 70.564241, 21.1547996 ], [ 70.549219, 21.1540559 ], [ 70.548804, 21.1505201 ], [ 70.5517778, 21.1343738 ], [ 70.5258448, 21.1346014 ], [ 70.5188237, 21.1412845 ], [ 70.5023736, 21.1413439 ], [ 70.5005816, 21.1290334 ], [ 70.5008177, 21.1052967 ], [ 70.5041965, 21.0966048 ], [ 70.5067873, 21.0932683 ], [ 70.501964, 21.0948515 ], [ 70.4839815, 21.0937965 ], [ 70.4831633, 21.0969056 ], [ 70.4770338, 21.0987537 ], [ 70.4687704, 21.0978949 ], [ 70.4639271, 21.0934214 ], [ 70.4569581, 21.0914967 ], [ 70.4503228, 21.0923488 ], [ 70.4478968, 21.0910718 ], [ 70.4474389, 21.0796917 ], [ 70.4495598, 21.0777399 ], [ 70.4521732, 21.0790167 ], [ 70.4539713, 21.0763559 ], [ 70.452427, 21.0675595 ], [ 70.4503269, 21.0628683 ], [ 70.4557319, 21.0581917 ], [ 70.4558454, 21.0545156 ], [ 70.4636291, 21.0541413 ], [ 70.4620055, 21.050141 ], [ 70.4511432, 21.0412497 ], [ 70.4467054, 21.0360492 ], [ 70.4449978, 21.0359506 ], [ 70.4452003, 21.0370163 ], [ 70.4425933, 21.037469 ], [ 70.4425651, 21.0389457 ], [ 70.4414058, 21.0390771 ], [ 70.4354499, 21.0371781 ], [ 70.4360923, 21.0437216 ], [ 70.4327501, 21.0463105 ], [ 70.4322459, 21.0487133 ], [ 70.4215591, 21.0411794 ], [ 70.4218584, 21.0449231 ], [ 70.4107325, 21.0480464 ], [ 70.4083953, 21.0516462 ], [ 70.4062738, 21.0517279 ], [ 70.406972, 21.054478 ], [ 70.4061589, 21.0543969 ], [ 70.3999286, 21.0526051 ], [ 70.4007791, 21.0467703 ], [ 70.3940573, 21.0374546 ], [ 70.3953688, 21.0251934 ], [ 70.3914717, 21.016514 ], [ 70.3841946, 21.014505 ], [ 70.3837378, 21.0157605 ], [ 70.3788752, 21.0150291 ], [ 70.3759317, 21.0096867 ], [ 70.3729691, 21.0080383 ], [ 70.3661831, 21.0088511 ], [ 70.3658126, 21.0101337 ], [ 70.3627201, 21.0107838 ], [ 70.3622631, 21.0126669 ], [ 70.3675391, 21.0131595 ], [ 70.3704584, 21.0179375 ], [ 70.3682748, 21.0181994 ], [ 70.3673416, 21.0211529 ], [ 70.3657159, 21.0217579 ], [ 70.3659754, 21.0242779 ], [ 70.3644604, 21.022652 ], [ 70.3630799, 21.0244403 ], [ 70.359511, 21.023302 ], [ 70.3608289, 21.0243815 ], [ 70.3604632, 21.0267162 ], [ 70.3574569, 21.0275108 ], [ 70.3555522, 21.0259661 ], [ 70.3583703, 21.031485 ], [ 70.3508373, 21.0343383 ], [ 70.3486439, 21.0338593 ], [ 70.3429192, 21.0272272 ], [ 70.3399533, 21.0275986 ], [ 70.3379238, 21.0258685 ], [ 70.3284228, 21.0147071 ], [ 70.3166251, 21.014279 ], [ 70.3077629, 21.0101481 ], [ 70.3073066, 21.0086848 ], [ 70.3030804, 21.0062219 ], [ 70.2935268, 21.0195505 ], [ 70.2876174, 21.0164481 ], [ 70.2769754, 21.0137824 ], [ 70.2767324, 21.017621 ], [ 70.2750632, 21.018067 ], [ 70.2723101, 21.0139288 ], [ 70.2544438, 21.0062986 ], [ 70.2462143, 20.9958886 ], [ 70.2417348, 20.9931304 ], [ 70.2389311, 20.9924913 ], [ 70.2336234, 20.9969581 ], [ 70.225339, 21.0003019 ], [ 70.1950426, 21.0258091 ], [ 70.1861228, 21.0319725 ], [ 70.1661602, 21.0507789 ], [ 70.1598787, 21.0548201 ], [ 70.1435906, 21.0693364 ], [ 70.1391061, 21.0761644 ], [ 70.1228164, 21.0885337 ], [ 70.1062614, 21.104393 ], [ 70.0984454, 21.1081719 ], [ 70.0924045, 21.1133327 ], [ 70.0507978, 21.1539728 ], [ 70.0272444, 21.1809303 ], [ 70.0008906, 21.2062793 ], [ 69.9818555, 21.2279779 ], [ 69.9882992, 21.2361381 ], [ 70.0026463, 21.2443138 ], [ 70.0007276, 21.2519598 ], [ 70.0026617, 21.254919 ], [ 70.0119258, 21.2608504 ], [ 70.0218624, 21.2708096 ], [ 70.0288559, 21.2738169 ], [ 70.0280516, 21.2808657 ], [ 70.0264265, 21.2829783 ], [ 70.0185316, 21.2807646 ], [ 70.0129057, 21.277632 ], [ 69.9969812, 21.2981271 ], [ 69.9850779, 21.2966722 ], [ 69.9777804, 21.2938861 ], [ 69.9764223, 21.2950114 ], [ 69.978387, 21.3203082 ], [ 69.9782728, 21.3360235 ], [ 69.9568957, 21.3435093 ], [ 69.9485249, 21.3569479 ], [ 69.9417013, 21.3723679 ], [ 69.9507672, 21.3856722 ], [ 69.943484, 21.3905028 ], [ 69.9442394, 21.3969601 ], [ 69.9541074, 21.4013045 ], [ 69.9592428, 21.4009858 ], [ 69.9775173, 21.4039847 ], [ 69.9815609, 21.4042494 ], [ 69.9884017, 21.3958749 ], [ 69.9971111, 21.4005996 ], [ 69.9921637, 21.4070512 ], [ 69.991442, 21.4094034 ], [ 69.992902, 21.4113948 ], [ 69.9903172, 21.4198377 ], [ 69.9873345, 21.4235527 ], [ 69.9842624, 21.4235548 ], [ 69.9817229, 21.4264647 ], [ 69.9828579, 21.4286677 ], [ 69.981218, 21.4286687 ], [ 69.9826478, 21.4315759 ], [ 69.9808726, 21.4311842 ], [ 69.9796534, 21.4324946 ], [ 69.9815504, 21.4345029 ], [ 69.9997068, 21.4408008 ], [ 70.0222587, 21.4439511 ], [ 70.029352, 21.4691896 ], [ 70.0298697, 21.4758507 ], [ 70.0288113, 21.4779242 ], [ 70.009566, 21.4778535 ], [ 69.9964387, 21.4738795 ], [ 69.9926773, 21.4877774 ], [ 69.9850535, 21.5062072 ], [ 69.9869603, 21.5072671 ], [ 69.9902986, 21.5059146 ], [ 69.992727, 21.5072631 ], [ 69.9822337, 21.530075 ], [ 69.9826613, 21.5337595 ], [ 70.0026179, 21.5428912 ], [ 69.999895, 21.5486945 ], [ 69.9937468, 21.556281 ], [ 69.9866246, 21.5721995 ], [ 69.9758981, 21.5663812 ], [ 69.9683668, 21.580854 ], [ 69.9643616, 21.5918295 ], [ 69.9655932, 21.5924519 ], [ 69.9659443, 21.5902165 ], [ 69.9691819, 21.5942517 ], [ 69.9771334, 21.5995439 ], [ 69.9781849, 21.5979898 ], [ 69.9791043, 21.6006535 ], [ 69.9814205, 21.5985162 ], [ 69.9845185, 21.6023615 ], [ 69.9860971, 21.6018682 ], [ 69.9837358, 21.5954214 ], [ 69.9880766, 21.5831537 ], [ 69.9905698, 21.5794355 ], [ 69.9975683, 21.5826231 ], [ 69.9967966, 21.5835132 ], [ 70.0, 21.5852375 ], [ 70.006444, 21.5867266 ], [ 70.0125637, 21.5899731 ], [ 70.0135665, 21.59192 ], [ 70.0207452, 21.5935503 ], [ 70.0196709, 21.5968732 ], [ 70.0308026, 21.6015626 ], [ 70.0342023, 21.5930659 ], [ 70.0476713, 21.5977102 ], [ 70.0464233, 21.5927243 ], [ 70.0475708, 21.5867595 ], [ 70.0592128, 21.5840821 ], [ 70.0707227, 21.5850977 ], [ 70.0736652, 21.5928927 ], [ 70.0700084, 21.5975202 ], [ 70.0700731, 21.605188 ], [ 70.0684825, 21.6104347 ], [ 70.0609679, 21.6118364 ], [ 70.0551883, 21.6103936 ], [ 70.0495423, 21.6120123 ], [ 70.0406497, 21.6075286 ], [ 70.0387929, 21.6119169 ], [ 70.0398593, 21.6133308 ], [ 70.0463485, 21.6153255 ], [ 70.0474472, 21.6200314 ], [ 70.0583101, 21.6266334 ], [ 70.0566282, 21.6367485 ], [ 70.0767497, 21.6404306 ], [ 70.0907597, 21.6489326 ], [ 70.0978896, 21.6463689 ], [ 70.1090572, 21.645169 ], [ 70.1075492, 21.6541326 ], [ 70.1030894, 21.6624951 ], [ 70.1059007, 21.6640128 ], [ 70.107074, 21.669364 ], [ 70.1116971, 21.6717848 ], [ 70.1195135, 21.6805186 ] ], [ [ 70.8604792, 21.4091337 ], [ 70.8460362, 21.4089062 ], [ 70.8514486, 21.3978477 ], [ 70.8679401, 21.3896483 ], [ 70.8716771, 21.4027795 ], [ 70.8751535, 21.4051242 ], [ 70.8796867, 21.4114869 ], [ 70.878848, 21.4201031 ], [ 70.865687, 21.4155782 ], [ 70.8620124, 21.4126698 ], [ 70.8604792, 21.4091337 ] ] ] } }
]
}
