{
"type": "FeatureCollection",
"name": "2415",
"crs": { "type": "name", "properties": { "name": "urn:ogc:def:crs:OGC:1.3:CRS84" } },
"features": [
{ "type": "Feature", "properties": { "code": "2415", "name": "Anand", "type": "district" }, "geometry": { "type": "Polygon", "coordinates": [ [ [ 73.024819, 22.7348357 ], [ 73.0307095, 22.7336925 ], [ 73.0326074, 22.7343843 ], [ 73.033788, 22.730213 ], [ 73.0389872, 22.7289742 ], [ 73.0397774, 22.7262339 ], [ 73.0385858, 22.7248156 ], [ 73.0370081, 22.7260248 ], [ 73.0367676, 22.7212974 ], [ 73.0424881, 22.7185958 ], [ 73.0413062, 22.7171459 ], [ 73.0429947, 22.7177336 ], [ 73.0446844, 22.7162264 ], [ 73.0443163, 22.7132056 ], [ 73.0454454, 22.7131069 ], [ 73.0476871, 22.7165575 ], [ 73.0524168, 22.7184154 ], [ 73.056885, 22.7177852 ], [ 73.0605055, 22.7190148 ], [ 73.0653344, 22.7170074 ], [ 73.0687012, 22.7197267 ], [ 73.0698843, 22.7185351 ], [ 73.0748619, 22.7223339 ], [ 73.0756608, 22.720343 ], [ 73.0785421, 22.7204567 ], [ 73.0800939, 22.7226831 ], [ 73.0814426, 22.7212432 ], [ 73.0831793, 22.7240158 ], [ 73.0855012, 22.7235468 ], [ 73.0857732, 22.7251137 ], [ 73.0899785, 22.7251327 ], [ 73.0928108, 22.7270431 ], [ 73.0958091, 22.7266825 ], [ 73.0965974, 22.7279242 ], [ 73.0996785, 22.7276358 ], [ 73.1005892, 22.7247462 ], [ 73.0969585, 22.7230345 ], [ 73.0974803, 22.717797 ], [ 73.1044884, 22.7196357 ], [ 73.1127479, 22.7184534 ], [ 73.1248278, 22.722093 ], [ 73.1364646, 22.7174148 ], [ 73.1419537, 22.7115537 ], [ 73.1436318, 22.7048079 ], [ 73.1455053, 22.7047761 ], [ 73.1465414, 22.701218 ], [ 73.1456453, 22.697326 ], [ 73.1473922, 22.6970955 ], [ 73.1511812, 22.6883266 ], [ 73.1561729, 22.6850566 ], [ 73.1579238, 22.681408 ], [ 73.1827602, 22.6871079 ], [ 73.2023046, 22.6832978 ], [ 73.2037173, 22.6778292 ], [ 73.201167, 22.6764082 ], [ 73.2013963, 22.6689581 ], [ 73.2002965, 22.6686066 ], [ 73.1998165, 22.6714287 ], [ 73.194508, 22.6704875 ], [ 73.1963058, 22.6661205 ], [ 73.2002271, 22.6660267 ], [ 73.2077543, 22.6514994 ], [ 73.212974, 22.6514514 ], [ 73.2125071, 22.6441597 ], [ 73.2187625, 22.6368326 ], [ 73.2167857, 22.6339394 ], [ 73.2183365, 22.6326517 ], [ 73.2181448, 22.6298118 ], [ 73.2197962, 22.6263296 ], [ 73.219755, 22.6230427 ], [ 73.2180463, 22.6208402 ], [ 73.2096661, 22.6204025 ], [ 73.2003362, 22.6174407 ], [ 73.1943163, 22.6097135 ], [ 73.1912882, 22.603222 ], [ 73.1845479, 22.6024933 ], [ 73.1601724, 22.5925537 ], [ 73.1562037, 22.5888431 ], [ 73.1534697, 22.5829332 ], [ 73.153573, 22.5656265 ], [ 73.1502499, 22.5520589 ], [ 73.137346, 22.5261386 ], [ 73.1165447, 22.5159392 ], [ 73.1068057, 22.514313 ], [ 73.099958, 22.5155493 ], [ 73.0970283, 22.5117515 ], [ 73.0922368, 22.5108522 ], [ 73.0904595, 22.5055826 ], [ 73.0878797, 22.5027419 ], [ 73.0877799, 22.4942979 ], [ 73.0898972, 22.4797232 ], [ 73.0936704, 22.4656228 ], [ 73.0933568, 22.4555311 ], [ 73.0796279, 22.4430658 ], [ 73.0743309, 22.4364268 ], [ 73.067523, 22.4318958 ], [ 73.0650232, 22.4283549 ], [ 73.0657311, 22.4194556 ], [ 73.0681922, 22.4103762 ], [ 73.07278, 22.4003989 ], [ 73.0729706, 22.3970576 ], [ 73.0679691, 22.3852666 ], [ 73.0574424, 22.3757715 ], [ 73.0527343, 22.3733718 ], [ 73.0467637, 22.3627807 ], [ 73.0467852, 22.3589111 ], [ 73.0533533, 22.3393808 ], [ 73.0636319, 22.3204432 ], [ 73.0632692, 22.3173049 ], [ 73.0598799, 22.3110634 ], [ 73.0518131, 22.304305 ], [ 73.0350968, 22.2957944 ], [ 73.026986, 22.285689 ], [ 73.0092379, 22.2676972 ], [ 72.9975973, 22.2640204 ], [ 72.9745328, 22.254098 ], [ 72.9682036, 22.2627894 ], [ 72.951715, 22.2633084 ], [ 72.9497064, 22.2895572 ], [ 72.9441578, 22.3035166 ], [ 72.9374384, 22.3063776 ], [ 72.9257969, 22.3058444 ], [ 72.9165707, 22.3009164 ], [ 72.9111292, 22.293657 ], [ 72.9112684, 22.2878458 ], [ 72.9161078, 22.2786964 ], [ 72.9169604, 22.2743072 ], [ 72.9167109, 22.2676292 ], [ 72.9129693, 22.2630786 ], [ 72.9068806, 22.2608313 ], [ 72.8953593, 22.2598805 ], [ 72.8870839, 22.2631686 ], [ 72.8685863, 22.27462 ], [ 72.8398364, 22.2748198 ], [ 72.8335013, 22.2715087 ], [ 72.8149323, 22.2547194 ], [ 72.8027339, 22.2522807 ], [ 72.8002721, 22.2475699 ], [ 72.7948524, 22.2418915 ], [ 72.7876046, 22.2361714 ], [ 72.7751639, 22.2291926 ], [ 72.7619996, 22.2252331 ], [ 72.7474174, 22.2230625 ], [ 72.7401017, 22.220291 ], [ 72.7126943, 22.2091237 ], [ 72.7028655, 22.2014255 ], [ 72.6989563, 22.1999057 ], [ 72.6951553, 22.200797 ], [ 72.6619996, 22.2233038 ], [ 72.6341628, 22.2320543 ], [ 72.6197049, 22.2338744 ], [ 72.5758217, 22.2328153 ], [ 72.5629022, 22.2305217 ], [ 72.5470654, 22.2247038 ], [ 72.531324, 22.2157957 ], [ 72.5169368, 22.2014957 ], [ 72.499408, 22.1792269 ], [ 72.459934, 22.1570593 ], [ 72.4334502, 22.1402512 ], [ 72.3932502, 22.1052843 ], [ 72.3424682, 22.1689186 ], [ 72.3355702, 22.1850779 ], [ 72.3340894, 22.1923473 ], [ 72.3391898, 22.2138463 ], [ 72.3583896, 22.2491641 ], [ 72.3624768, 22.2715925 ], [ 72.3615487, 22.2904395 ], [ 72.362378, 22.2954201 ], [ 72.3702043, 22.3066681 ], [ 72.3740379, 22.317347 ], [ 72.3766245, 22.3203587 ], [ 72.3820553, 22.3230676 ], [ 72.3865452, 22.3301745 ], [ 72.3863369, 22.3345859 ], [ 72.3880845, 22.3383065 ], [ 72.3997208, 22.3492546 ], [ 72.401571, 22.3531059 ], [ 72.4009509, 22.3596848 ], [ 72.3995049, 22.3629857 ], [ 72.3935443, 22.3680438 ], [ 72.3834954, 22.3733547 ], [ 72.3764169, 22.375152 ], [ 72.3511904, 22.3767715 ], [ 72.3467186, 22.3782248 ], [ 72.34499, 22.379403 ], [ 72.3415121, 22.38669 ], [ 72.3679778, 22.4072286 ], [ 72.3733388, 22.4468188 ], [ 72.3669564, 22.4412784 ], [ 72.3559305, 22.4404377 ], [ 72.360258, 22.4447999 ], [ 72.3605587, 22.4482361 ], [ 72.3638274, 22.4535461 ], [ 72.3732174, 22.4505257 ], [ 72.3768072, 22.452395 ], [ 72.3781141, 22.4591859 ], [ 72.3757291, 22.4732871 ], [ 72.3915969, 22.4761939 ], [ 72.4069024, 22.4817949 ], [ 72.4081546, 22.4761235 ], [ 72.4098747, 22.4771029 ], [ 72.4248726, 22.4893126 ], [ 72.431659, 22.4973249 ], [ 72.4387687, 22.5091916 ], [ 72.4400397, 22.5350723 ], [ 72.436948, 22.5447993 ], [ 72.4254518, 22.5573603 ], [ 72.4224835, 22.5625266 ], [ 72.4224898, 22.5668656 ], [ 72.4262692, 22.5717273 ], [ 72.4285598, 22.5735372 ], [ 72.4318222, 22.5737167 ], [ 72.4409877, 22.5654682 ], [ 72.4476268, 22.5710687 ], [ 72.4656488, 22.5774981 ], [ 72.4878857, 22.5986238 ], [ 72.4957725, 22.6034448 ], [ 72.5035809, 22.6057339 ], [ 72.5050422, 22.6086022 ], [ 72.5050911, 22.614025 ], [ 72.5119042, 22.6134597 ], [ 72.5160498, 22.6117615 ], [ 72.5183887, 22.6058346 ], [ 72.5175191, 22.6046059 ], [ 72.521068, 22.5994338 ], [ 72.5240893, 22.5974852 ], [ 72.5259901, 22.598123 ], [ 72.5257885, 22.5875574 ], [ 72.5335679, 22.5881037 ], [ 72.5329384, 22.5692886 ], [ 72.5466967, 22.5698782 ], [ 72.5540876, 22.5678272 ], [ 72.551937, 22.5619565 ], [ 72.5524262, 22.555816 ], [ 72.5574543, 22.5527388 ], [ 72.5576346, 22.5415005 ], [ 72.5673455, 22.543527 ], [ 72.5684222, 22.5253084 ], [ 72.5675641, 22.5200118 ], [ 72.5708634, 22.5216204 ], [ 72.5736726, 22.5213188 ], [ 72.5749238, 22.5150023 ], [ 72.572432, 22.5116106 ], [ 72.576993, 22.5036923 ], [ 72.588919, 22.5002095 ], [ 72.5938511, 22.5002602 ], [ 72.5966983, 22.5025318 ], [ 72.5970387, 22.5012315 ], [ 72.5994199, 22.5007623 ], [ 72.6044001, 22.5049712 ], [ 72.6047494, 22.5095722 ], [ 72.6106586, 22.5102321 ], [ 72.6189045, 22.5133007 ], [ 72.6213887, 22.5110724 ], [ 72.6213985, 22.5095011 ], [ 72.6236485, 22.5087516 ], [ 72.6278084, 22.5096726 ], [ 72.6286149, 22.5073021 ], [ 72.6337855, 22.5060511 ], [ 72.6357534, 22.503843 ], [ 72.6384035, 22.5046126 ], [ 72.6387662, 22.5034094 ], [ 72.6403552, 22.5036801 ], [ 72.6407345, 22.5051114 ], [ 72.6385868, 22.5071615 ], [ 72.6490547, 22.5098829 ], [ 72.6509014, 22.5096884 ], [ 72.652242, 22.506952 ], [ 72.6522311, 22.5010099 ], [ 72.6661734, 22.5036888 ], [ 72.6713689, 22.5059315 ], [ 72.6698136, 22.5198207 ], [ 72.6669835, 22.5302969 ], [ 72.6510945, 22.5282685 ], [ 72.6423461, 22.5288794 ], [ 72.6411027, 22.5353407 ], [ 72.6436511, 22.5398555 ], [ 72.6472036, 22.5409073 ], [ 72.6467327, 22.5445781 ], [ 72.6490421, 22.5475082 ], [ 72.6556053, 22.5511779 ], [ 72.6555132, 22.5522074 ], [ 72.6612009, 22.5530189 ], [ 72.6605219, 22.5584057 ], [ 72.6643916, 22.5591362 ], [ 72.6713403, 22.5640558 ], [ 72.6685039, 22.5724956 ], [ 72.6731193, 22.5767656 ], [ 72.6736914, 22.5790095 ], [ 72.6723813, 22.5797368 ], [ 72.6752911, 22.5859624 ], [ 72.6913194, 22.5902729 ], [ 72.6942411, 22.5889261 ], [ 72.6975973, 22.5819441 ], [ 72.7104675, 22.5897355 ], [ 72.7092554, 22.5955155 ], [ 72.706897, 22.5954219 ], [ 72.7050372, 22.599902 ], [ 72.6939593, 22.5989048 ], [ 72.6938203, 22.6029324 ], [ 72.6912573, 22.6024323 ], [ 72.6889683, 22.6053816 ], [ 72.6886293, 22.6084747 ], [ 72.6902683, 22.6088036 ], [ 72.687051, 22.6131531 ], [ 72.6854492, 22.6201025 ], [ 72.6868809, 22.6242108 ], [ 72.6856187, 22.6291915 ], [ 72.6956581, 22.630122 ], [ 72.7039677, 22.6338205 ], [ 72.7054068, 22.6328308 ], [ 72.7084766, 22.6337413 ], [ 72.7144087, 22.6306723 ], [ 72.7142588, 22.6246311 ], [ 72.7172938, 22.6247694 ], [ 72.7166051, 22.627673 ], [ 72.7189079, 22.6308593 ], [ 72.7248661, 22.6284487 ], [ 72.7275353, 22.6293008 ], [ 72.7337651, 22.6405483 ], [ 72.7407249, 22.6451895 ], [ 72.7439638, 22.6442615 ], [ 72.7472321, 22.6411967 ], [ 72.7427871, 22.6408003 ], [ 72.7455477, 22.6376318 ], [ 72.7419486, 22.6305946 ], [ 72.7402539, 22.6283398 ], [ 72.7380913, 22.6288471 ], [ 72.7378179, 22.6259059 ], [ 72.7322819, 22.6253625 ], [ 72.7351203, 22.6192722 ], [ 72.7342961, 22.617656 ], [ 72.7378599, 22.6157627 ], [ 72.7377962, 22.6133849 ], [ 72.7355522, 22.6140855 ], [ 72.73519, 22.6115654 ], [ 72.7380901, 22.6104919 ], [ 72.7398875, 22.6120679 ], [ 72.7448696, 22.6122725 ], [ 72.7444719, 22.6136815 ], [ 72.7514412, 22.6134302 ], [ 72.75209, 22.6147391 ], [ 72.7567417, 22.6126792 ], [ 72.7528626, 22.6040645 ], [ 72.7523271, 22.5989014 ], [ 72.750634, 22.5968017 ], [ 72.7521886, 22.5928535 ], [ 72.7561001, 22.5936269 ], [ 72.7566011, 22.5918984 ], [ 72.7607667, 22.5908414 ], [ 72.7706098, 22.5905175 ], [ 72.7769811, 22.588509 ], [ 72.7794633, 22.5901408 ], [ 72.7763718, 22.593955 ], [ 72.7737911, 22.6071259 ], [ 72.7709669, 22.6101682 ], [ 72.7709446, 22.6122545 ], [ 72.7775934, 22.6156952 ], [ 72.7767339, 22.6198163 ], [ 72.7902058, 22.6232636 ], [ 72.7927285, 22.62145 ], [ 72.7935259, 22.6167643 ], [ 72.7959044, 22.6140796 ], [ 72.7960352, 22.6093575 ], [ 72.8017722, 22.6086943 ], [ 72.8043822, 22.6101333 ], [ 72.8043037, 22.6112497 ], [ 72.8082617, 22.6115136 ], [ 72.8105004, 22.6081452 ], [ 72.8218959, 22.6071829 ], [ 72.8225226, 22.6036026 ], [ 72.8272006, 22.6039426 ], [ 72.8272422, 22.5957927 ], [ 72.8305396, 22.5942946 ], [ 72.8332522, 22.5968328 ], [ 72.8397191, 22.5986946 ], [ 72.8433616, 22.5973046 ], [ 72.850621, 22.6017036 ], [ 72.8497984, 22.6057445 ], [ 72.8564054, 22.6095691 ], [ 72.8538085, 22.6183921 ], [ 72.860209, 22.6171014 ], [ 72.871886, 22.620389 ], [ 72.871745, 22.6148624 ], [ 72.8739676, 22.6139233 ], [ 72.8749256, 22.6109207 ], [ 72.8750277, 22.6035113 ], [ 72.8629775, 22.6008651 ], [ 72.8622096, 22.5967021 ], [ 72.8630461, 22.5937446 ], [ 72.8597204, 22.5914146 ], [ 72.8641066, 22.5878027 ], [ 72.867209, 22.5824343 ], [ 72.8707049, 22.5843037 ], [ 72.8788833, 22.5855453 ], [ 72.8895227, 22.5919156 ], [ 72.8975854, 22.5949533 ], [ 72.9007451, 22.5903427 ], [ 72.9057199, 22.5926536 ], [ 72.9137531, 22.5932839 ], [ 72.9186894, 22.5957434 ], [ 72.9221591, 22.603373 ], [ 72.9250098, 22.605991 ], [ 72.9258881, 22.6139328 ], [ 72.928102, 22.6167495 ], [ 72.9297801, 22.6291702 ], [ 72.9409284, 22.6300509 ], [ 72.9618664, 22.6361498 ], [ 72.9627746, 22.6339097 ], [ 72.9751154, 22.641709 ], [ 72.9763154, 22.6528698 ], [ 72.9805911, 22.652456 ], [ 72.9848632, 22.6536768 ], [ 72.9881228, 22.6655493 ], [ 72.9900122, 22.6675753 ], [ 72.9900008, 22.6714447 ], [ 72.9918014, 22.6719852 ], [ 72.9934435, 22.680486 ], [ 72.9921946, 22.6878736 ], [ 72.9951826, 22.6882462 ], [ 72.9959038, 22.6949235 ], [ 72.9978994, 22.6977421 ], [ 72.9973329, 22.700031 ], [ 73.0052498, 22.7026568 ], [ 73.0077888, 22.7042254 ], [ 73.0075393, 22.7057153 ], [ 73.0092089, 22.7053462 ], [ 73.0084986, 22.7109851 ], [ 73.0060888, 22.7117779 ], [ 73.0039928, 22.7155736 ], [ 73.0055391, 22.7172273 ], [ 73.0037317, 22.7192442 ], [ 73.0035632, 22.7226936 ], [ 73.0073322, 22.726173 ], [ 73.0116294, 22.7269753 ], [ 73.0138794, 22.725383 ], [ 73.0217205, 22.7254333 ], [ 73.0250695, 22.7315443 ], [ 73.024819, 22.7348357 ] ], [ [ 72.7457158, 22.5993024 ], [ 72.7469942, 22.6008626 ], [ 72.7455585, 22.6044061 ], [ 72.7440584, 22.6058013 ], [ 72.7403767, 22.6056432 ], [ 72.7419573, 22.5981052 ], [ 72.7458952, 22.5966597 ], [ 72.7457158, 22.5993024 ] ] ] } }
]
}
