{
"type": "FeatureCollection",
"name": "2419",
"crs": { "type": "name", "properties": { "name": "urn:ogc:def:crs:OGC:1.3:CRS84" } },
"features": [
{ "type": "Feature", "properties": { "code": "2419", "name": "Vadodara", "type": "district" }, "geometry": { "type": "Polygon", "coordinates": [ [ [ 73.4064004, 22.8090043 ], [ 73.4040301, 22.7937845 ], [ 73.4144199, 22.7866077 ], [ 73.4227704, 22.7856165 ], [ 73.4252707, 22.7788251 ], [ 73.4246708, 22.7760756 ], [ 73.4265294, 22.7724945 ], [ 73.4247695, 22.7664584 ], [ 73.4267495, 22.7624574 ], [ 73.4104293, 22.7592473 ], [ 73.3846642, 22.7420601 ], [ 73.3862655, 22.7400282 ], [ 73.3866542, 22.7325918 ], [ 73.3829346, 22.7197691 ], [ 73.3860044, 22.7052799 ], [ 73.3874059, 22.7043632 ], [ 73.3869336, 22.7013607 ], [ 73.3893813, 22.7010038 ], [ 73.3895117, 22.6922038 ], [ 73.3911752, 22.6874537 ], [ 73.4027518, 22.6903552 ], [ 73.4070115, 22.6781049 ], [ 73.4087432, 22.6765738 ], [ 73.4102519, 22.6780139 ], [ 73.41572, 22.675624 ], [ 73.4145993, 22.6701158 ], [ 73.4168491, 22.6612068 ], [ 73.4154182, 22.6590535 ], [ 73.4093998, 22.6570457 ], [ 73.4071127, 22.6543552 ], [ 73.4038197, 22.6564463 ], [ 73.4002199, 22.6566862 ], [ 73.3971042, 22.6435477 ], [ 73.3895547, 22.6435261 ], [ 73.3838347, 22.6500373 ], [ 73.3681563, 22.6477258 ], [ 73.3688765, 22.6408177 ], [ 73.3675778, 22.6388264 ], [ 73.3656467, 22.6389889 ], [ 73.365827, 22.6319182 ], [ 73.3647181, 22.6320265 ], [ 73.3648447, 22.6299088 ], [ 73.3627679, 22.6293579 ], [ 73.3625054, 22.6274706 ], [ 73.3743972, 22.6253398 ], [ 73.3841151, 22.6269288 ], [ 73.3877429, 22.621718 ], [ 73.3871638, 22.6178711 ], [ 73.3887442, 22.6167377 ], [ 73.3889433, 22.6137396 ], [ 73.3884033, 22.6117213 ], [ 73.3830537, 22.6116811 ], [ 73.3813848, 22.5969708 ], [ 73.3779222, 22.5856693 ], [ 73.3814958, 22.5823099 ], [ 73.3827743, 22.5793027 ], [ 73.3719954, 22.5563838 ], [ 73.3843916, 22.5556836 ], [ 73.391683, 22.551994 ], [ 73.4140106, 22.5537057 ], [ 73.4182681, 22.5509458 ], [ 73.4189767, 22.5476947 ], [ 73.4212368, 22.5467864 ], [ 73.4182496, 22.5386735 ], [ 73.4178299, 22.5336437 ], [ 73.4112806, 22.5251161 ], [ 73.4145408, 22.521616 ], [ 73.4136315, 22.5201849 ], [ 73.4147778, 22.517647 ], [ 73.413208, 22.5180448 ], [ 73.411152, 22.5166049 ], [ 73.4120311, 22.515065 ], [ 73.4102378, 22.5146771 ], [ 73.4052304, 22.5069391 ], [ 73.4081601, 22.5045771 ], [ 73.4099391, 22.5063962 ], [ 73.4100312, 22.5053577 ], [ 73.411431, 22.5064094 ], [ 73.4120576, 22.505136 ], [ 73.4147402, 22.5056681 ], [ 73.4165113, 22.4973473 ], [ 73.4195376, 22.4943483 ], [ 73.4231186, 22.4938505 ], [ 73.4240687, 22.4873574 ], [ 73.4274158, 22.4857488 ], [ 73.4273877, 22.476032 ], [ 73.4301561, 22.4618532 ], [ 73.4288284, 22.4581511 ], [ 73.4252866, 22.4569016 ], [ 73.4269889, 22.4495728 ], [ 73.4240302, 22.4483907 ], [ 73.4221797, 22.4491318 ], [ 73.4204886, 22.447114 ], [ 73.4212505, 22.430493 ], [ 73.4198996, 22.4284615 ], [ 73.4291266, 22.4263455 ], [ 73.4329178, 22.4215624 ], [ 73.4345648, 22.4231242 ], [ 73.4455856, 22.4253141 ], [ 73.4463763, 22.4141745 ], [ 73.4379247, 22.4001445 ], [ 73.4429644, 22.398955 ], [ 73.4440069, 22.3958977 ], [ 73.4487853, 22.3965774 ], [ 73.4580116, 22.3812253 ], [ 73.4610652, 22.3808489 ], [ 73.4704033, 22.3831147 ], [ 73.4724318, 22.3818266 ], [ 73.4729935, 22.379668 ], [ 73.4682118, 22.3734172 ], [ 73.4676836, 22.3677191 ], [ 73.4643048, 22.3601806 ], [ 73.4785198, 22.3552593 ], [ 73.4782119, 22.3525999 ], [ 73.4822386, 22.3495494 ], [ 73.49116, 22.3492001 ], [ 73.4941273, 22.3508685 ], [ 73.4992903, 22.3489185 ], [ 73.5079347, 22.3500493 ], [ 73.5107289, 22.3522592 ], [ 73.513804, 22.3491774 ], [ 73.5130481, 22.3475513 ], [ 73.5141566, 22.3452177 ], [ 73.5176967, 22.343012 ], [ 73.5177176, 22.3411518 ], [ 73.5279558, 22.3459579 ], [ 73.5341638, 22.3461511 ], [ 73.5417808, 22.344358 ], [ 73.5463134, 22.3459496 ], [ 73.5516836, 22.3426197 ], [ 73.5543222, 22.3364891 ], [ 73.5662088, 22.3364486 ], [ 73.565352, 22.3309486 ], [ 73.5628292, 22.3286494 ], [ 73.5441812, 22.331179 ], [ 73.5452216, 22.3192635 ], [ 73.5472531, 22.3139499 ], [ 73.5468916, 22.3093712 ], [ 73.5461407, 22.3070816 ], [ 73.5439518, 22.30699 ], [ 73.5415349, 22.2976634 ], [ 73.5421898, 22.2947273 ], [ 73.5448715, 22.2945147 ], [ 73.5472424, 22.288813 ], [ 73.5491497, 22.2881546 ], [ 73.5481217, 22.2867544 ], [ 73.5469226, 22.2880949 ], [ 73.5425901, 22.2876729 ], [ 73.5421431, 22.2887654 ], [ 73.5396309, 22.2867954 ], [ 73.5407539, 22.2830256 ], [ 73.5401207, 22.2790834 ], [ 73.5434827, 22.2792748 ], [ 73.5450714, 22.2753336 ], [ 73.54626, 22.2753432 ], [ 73.5451698, 22.2729451 ], [ 73.5440243, 22.2738566 ], [ 73.5434201, 22.2700453 ], [ 73.5402811, 22.2703553 ], [ 73.536731, 22.2686873 ], [ 73.5337644, 22.2649966 ], [ 73.5322652, 22.2651854 ], [ 73.5312044, 22.2627962 ], [ 73.5294718, 22.2637751 ], [ 73.5245934, 22.2614377 ], [ 73.5255352, 22.2603049 ], [ 73.5235894, 22.250817 ], [ 73.5211345, 22.2481466 ], [ 73.508367, 22.2490457 ], [ 73.5021778, 22.2433383 ], [ 73.4980875, 22.2356184 ], [ 73.4916083, 22.2359284 ], [ 73.4906985, 22.2341385 ], [ 73.4916483, 22.2245993 ], [ 73.485979, 22.2242593 ], [ 73.4808646, 22.2190148 ], [ 73.4844591, 22.2128902 ], [ 73.485479, 22.2129902 ], [ 73.486209, 22.2112704 ], [ 73.485179, 22.2096905 ], [ 73.4864689, 22.2077307 ], [ 73.4924381, 22.2044109 ], [ 73.5016149, 22.2042797 ], [ 73.5036744, 22.2001993 ], [ 73.5052848, 22.1994509 ], [ 73.5039554, 22.1890104 ], [ 73.4953976, 22.177583 ], [ 73.4963474, 22.1669037 ], [ 73.498957, 22.163034 ], [ 73.4978572, 22.1620342 ], [ 73.4992371, 22.1595543 ], [ 73.5009164, 22.1598928 ], [ 73.5032353, 22.1577362 ], [ 73.5044274, 22.1525669 ], [ 73.5062583, 22.154117 ], [ 73.5083974, 22.1523259 ], [ 73.5067648, 22.1511642 ], [ 73.5060237, 22.1447473 ], [ 73.5090334, 22.1450655 ], [ 73.5115747, 22.1433062 ], [ 73.5144149, 22.1435565 ], [ 73.5154268, 22.144817 ], [ 73.515976, 22.1430157 ], [ 73.5178061, 22.1456675 ], [ 73.5189265, 22.1448058 ], [ 73.5161854, 22.1416748 ], [ 73.5109232, 22.1397567 ], [ 73.5069872, 22.1343579 ], [ 73.5066672, 22.122586 ], [ 73.5009477, 22.1124266 ], [ 73.4981969, 22.1098782 ], [ 73.4827687, 22.1060986 ], [ 73.4790892, 22.1033588 ], [ 73.4764995, 22.0969893 ], [ 73.4761495, 22.0867901 ], [ 73.4789091, 22.0808005 ], [ 73.4832186, 22.0784208 ], [ 73.4865382, 22.0705513 ], [ 73.487948, 22.0705913 ], [ 73.4894078, 22.0721912 ], [ 73.4890779, 22.0778808 ], [ 73.4920975, 22.0790807 ], [ 73.4927574, 22.0774308 ], [ 73.4970369, 22.0766708 ], [ 73.5016553, 22.0785296 ], [ 73.5040549, 22.0826585 ], [ 73.5083656, 22.0840523 ], [ 73.5100235, 22.0889799 ], [ 73.514154, 22.092148 ], [ 73.5199832, 22.0915693 ], [ 73.5241536, 22.0934097 ], [ 73.5398439, 22.091251 ], [ 73.540703, 22.088628 ], [ 73.5389603, 22.0860578 ], [ 73.539103, 22.0823191 ], [ 73.5326401, 22.0745129 ], [ 73.5326418, 22.0716998 ], [ 73.535593, 22.07041 ], [ 73.5369024, 22.0682207 ], [ 73.5423822, 22.0666927 ], [ 73.5432504, 22.0648237 ], [ 73.5421913, 22.0618114 ], [ 73.5291409, 22.0619715 ], [ 73.5321512, 22.0587537 ], [ 73.530892, 22.0506519 ], [ 73.5216121, 22.0565122 ], [ 73.5222837, 22.0521733 ], [ 73.518576, 22.0485315 ], [ 73.5157928, 22.039413 ], [ 73.5139925, 22.0377229 ], [ 73.5089557, 22.0372453 ], [ 73.5040862, 22.0395132 ], [ 73.4998675, 22.0396455 ], [ 73.5031743, 22.0354259 ], [ 73.5001784, 22.0329538 ], [ 73.5018776, 22.0282138 ], [ 73.503316, 22.0282645 ], [ 73.5023764, 22.0226059 ], [ 73.5007342, 22.0174164 ], [ 73.4949468, 22.0173954 ], [ 73.4991151, 22.0139247 ], [ 73.5003056, 22.0091256 ], [ 73.5111005, 22.0034187 ], [ 73.5112447, 21.9934672 ], [ 73.5136944, 21.9930673 ], [ 73.5142043, 21.9901775 ], [ 73.5118146, 21.9875477 ], [ 73.5137444, 21.9855478 ], [ 73.5128544, 21.9809582 ], [ 73.5068351, 21.9791183 ], [ 73.5047273, 21.9772362 ], [ 73.507555, 21.9697091 ], [ 73.5043954, 21.9664293 ], [ 73.5038255, 21.9628896 ], [ 73.4740787, 21.9740505 ], [ 73.4618098, 21.9799006 ], [ 73.4586503, 21.9749984 ], [ 73.4538194, 21.9762787 ], [ 73.4471133, 21.9745389 ], [ 73.4398756, 21.9640118 ], [ 73.4428806, 21.9416225 ], [ 73.438663, 21.9266733 ], [ 73.4294643, 21.9177855 ], [ 73.4164636, 21.9102936 ], [ 73.4076469, 21.9098847 ], [ 73.3998079, 21.911584 ], [ 73.3833993, 21.9218633 ], [ 73.3763193, 21.9294542 ], [ 73.3646023, 21.930944 ], [ 73.3553539, 21.9283649 ], [ 73.3489519, 21.9231938 ], [ 73.3445158, 21.9144825 ], [ 73.3438841, 21.9037851 ], [ 73.3467334, 21.882305 ], [ 73.3449926, 21.8780691 ], [ 73.3412243, 21.8755351 ], [ 73.3353756, 21.8742876 ], [ 73.3277656, 21.8749268 ], [ 73.3143671, 21.8805761 ], [ 73.2974721, 21.8908557 ], [ 73.2788639, 21.9050835 ], [ 73.2774306, 21.9138429 ], [ 73.2679147, 21.9231843 ], [ 73.2649733, 21.9284023 ], [ 73.2568754, 21.935563 ], [ 73.2423573, 21.9339831 ], [ 73.2333784, 21.9284135 ], [ 73.2268492, 21.9226141 ], [ 73.2220097, 21.9159246 ], [ 73.2208898, 21.9064853 ], [ 73.2241594, 21.8944063 ], [ 73.2279489, 21.8876668 ], [ 73.2393574, 21.8737278 ], [ 73.2458366, 21.8692381 ], [ 73.2485062, 21.8650784 ], [ 73.2489861, 21.8596288 ], [ 73.2470363, 21.8502096 ], [ 73.2437367, 21.8424002 ], [ 73.2462942, 21.8406476 ], [ 73.2399853, 21.835418 ], [ 73.2374145, 21.8371826 ], [ 73.2193696, 21.8247017 ], [ 73.2095807, 21.8222919 ], [ 73.2015018, 21.8223919 ], [ 73.1839639, 21.8313513 ], [ 73.1591871, 21.8557745 ], [ 73.1582456, 21.8543928 ], [ 73.1484552, 21.8566275 ], [ 73.1479892, 21.8538677 ], [ 73.1418048, 21.8546243 ], [ 73.142117, 21.8643395 ], [ 73.1372799, 21.8670088 ], [ 73.1319305, 21.8661689 ], [ 73.1305107, 21.8711285 ], [ 73.1268212, 21.8703785 ], [ 73.1253614, 21.8776281 ], [ 73.1153626, 21.8782081 ], [ 73.1045739, 21.8771381 ], [ 73.0911955, 21.8722486 ], [ 73.0859062, 21.880688 ], [ 73.0775972, 21.8795581 ], [ 73.0718079, 21.8770784 ], [ 73.0592395, 21.882298 ], [ 73.0588896, 21.8889674 ], [ 73.0624992, 21.9026764 ], [ 73.0626792, 21.9117557 ], [ 73.0871063, 21.9178151 ], [ 73.0915458, 21.9213048 ], [ 73.090436, 21.9296341 ], [ 73.0766576, 21.9292543 ], [ 73.0751878, 21.9304242 ], [ 73.0668888, 21.9238647 ], [ 73.0619894, 21.9222248 ], [ 73.0531905, 21.9222449 ], [ 73.0473713, 21.9354039 ], [ 73.0420619, 21.9337241 ], [ 73.0431917, 21.9284045 ], [ 73.0378324, 21.9267946 ], [ 73.0355726, 21.9197952 ], [ 73.0181947, 21.9186953 ], [ 73.0, 21.9108362 ], [ 72.9938767, 21.9270644 ], [ 73.0003614, 21.9310535 ], [ 73.0021468, 21.9357441 ], [ 73.0159552, 21.9420035 ], [ 73.0204646, 21.9421735 ], [ 73.0422419, 21.9371738 ], [ 73.0479612, 21.9395036 ], [ 73.0481213, 21.9418534 ], [ 73.0514209, 21.9453331 ], [ 73.0522407, 21.9488328 ], [ 73.0504111, 21.9754008 ], [ 73.0488613, 21.9761507 ], [ 73.068009, 21.9840301 ], [ 73.0623462, 21.9999999 ], [ 73.0623183, 22.0030398 ], [ 73.0641193, 22.0037087 ], [ 73.063252, 22.0166092 ], [ 73.050363, 22.0123684 ], [ 73.0498421, 22.0083268 ], [ 73.047964, 22.0069262 ], [ 73.0480094, 22.0033589 ], [ 73.0436024, 22.0046076 ], [ 73.0323735, 21.9973691 ], [ 73.0302301, 21.9966916 ], [ 73.0283939, 21.9977792 ], [ 73.0259942, 21.9955893 ], [ 73.0195137, 22.0026299 ], [ 73.0180175, 22.0024889 ], [ 73.0147763, 22.0112785 ], [ 73.0108029, 22.0101622 ], [ 73.0090187, 22.0171673 ], [ 73.0005285, 22.0182494 ], [ 72.9999999, 22.0195047 ], [ 72.9978672, 22.0190173 ], [ 72.9976697, 22.0202457 ], [ 72.9961393, 22.0201475 ], [ 72.9941199, 22.0260056 ], [ 72.9892784, 22.0277069 ], [ 72.9872591, 22.0402162 ], [ 72.9846206, 22.0479259 ], [ 72.980499, 22.0484976 ], [ 72.979262, 22.052585 ], [ 72.9728803, 22.0490759 ], [ 72.9703524, 22.049985 ], [ 72.9604833, 22.0462879 ], [ 72.9590211, 22.0471466 ], [ 72.9589744, 22.0499055 ], [ 72.954635, 22.051127 ], [ 72.9537156, 22.0527936 ], [ 72.9496658, 22.0521453 ], [ 72.9463536, 22.0540072 ], [ 72.9404535, 22.0537252 ], [ 72.9398928, 22.0459047 ], [ 72.9317053, 22.0417941 ], [ 72.9287851, 22.042766 ], [ 72.9294258, 22.0462337 ], [ 72.9264675, 22.0495354 ], [ 72.9135583, 22.0471143 ], [ 72.9161462, 22.0519859 ], [ 72.9198765, 22.0535337 ], [ 72.9222281, 22.0605365 ], [ 72.9165757, 22.0625745 ], [ 72.9157389, 22.0665439 ], [ 72.904849, 22.0680635 ], [ 72.9039698, 22.0791718 ], [ 72.8977712, 22.0949317 ], [ 72.8846498, 22.0932625 ], [ 72.8770044, 22.1089225 ], [ 72.8739419, 22.1099519 ], [ 72.8718824, 22.1124399 ], [ 72.873433, 22.114332 ], [ 72.8719841, 22.1160117 ], [ 72.8769125, 22.1167793 ], [ 72.8798639, 22.1190189 ], [ 72.8746446, 22.1267811 ], [ 72.8736415, 22.1392888 ], [ 72.8663955, 22.1388506 ], [ 72.8638847, 22.1408599 ], [ 72.8629143, 22.1551873 ], [ 72.8665738, 22.1582671 ], [ 72.8763125, 22.1620285 ], [ 72.8794636, 22.1653654 ], [ 72.8822511, 22.1659252 ], [ 72.8857808, 22.1720685 ], [ 72.8875404, 22.1703047 ], [ 72.8903704, 22.1601673 ], [ 72.8962897, 22.1626862 ], [ 72.9027223, 22.1620666 ], [ 72.9035323, 22.1637371 ], [ 72.9071486, 22.1637455 ], [ 72.9071294, 22.1648156 ], [ 72.9101981, 22.1650272 ], [ 72.9125487, 22.162927 ], [ 72.9135378, 22.1637576 ], [ 72.912467, 22.1658349 ], [ 72.914368, 22.1678664 ], [ 72.9267885, 22.1691181 ], [ 72.9291988, 22.1715781 ], [ 72.9281785, 22.1781936 ], [ 72.9262453, 22.1812873 ], [ 72.9268094, 22.1860871 ], [ 72.9233482, 22.1876639 ], [ 72.9221766, 22.1926042 ], [ 72.9150781, 22.1924165 ], [ 72.9107085, 22.1887826 ], [ 72.9056321, 22.188856 ], [ 72.9037408, 22.1871043 ], [ 72.8983591, 22.187295 ], [ 72.8959822, 22.1801474 ], [ 72.884768, 22.1742488 ], [ 72.876822, 22.1814042 ], [ 72.8765748, 22.1887147 ], [ 72.8776028, 22.1900964 ], [ 72.8753531, 22.1962238 ], [ 72.8771135, 22.2058641 ], [ 72.8724438, 22.2067131 ], [ 72.8697524, 22.2098738 ], [ 72.8688262, 22.2095216 ], [ 72.8688939, 22.2155632 ], [ 72.8575977, 22.2320436 ], [ 72.8488697, 22.2478419 ], [ 72.8492197, 22.2749747 ], [ 72.8698525, 22.2742679 ], [ 72.8870839, 22.2631686 ], [ 72.8945735, 22.2600477 ], [ 72.9084185, 22.2612193 ], [ 72.9129693, 22.2630786 ], [ 72.9167109, 22.2676292 ], [ 72.9161078, 22.2786964 ], [ 72.9107789, 22.2899591 ], [ 72.9111292, 22.293657 ], [ 72.9132409, 22.2974358 ], [ 72.9165707, 22.3009164 ], [ 72.9257969, 22.3058444 ], [ 72.9374384, 22.3063776 ], [ 72.9419167, 22.3051159 ], [ 72.9448756, 22.302708 ], [ 72.9491159, 22.2923254 ], [ 72.951715, 22.2633084 ], [ 72.9682036, 22.2627894 ], [ 72.9745328, 22.254098 ], [ 72.9975973, 22.2640204 ], [ 73.0092379, 22.2676972 ], [ 73.026986, 22.285689 ], [ 73.0350968, 22.2957944 ], [ 73.0518131, 22.304305 ], [ 73.0590698, 22.3102729 ], [ 73.0618439, 22.3140127 ], [ 73.0636319, 22.3204432 ], [ 73.0533533, 22.3393808 ], [ 73.0467852, 22.3589111 ], [ 73.0467637, 22.3627807 ], [ 73.0527343, 22.3733718 ], [ 73.0574424, 22.3757715 ], [ 73.0679691, 22.3852666 ], [ 73.0729706, 22.3970576 ], [ 73.07278, 22.4003989 ], [ 73.0681922, 22.4103762 ], [ 73.0657311, 22.4194556 ], [ 73.0650232, 22.4283549 ], [ 73.067523, 22.4318958 ], [ 73.0743309, 22.4364268 ], [ 73.0796279, 22.4430658 ], [ 73.0933568, 22.4555311 ], [ 73.0936704, 22.4656228 ], [ 73.0898972, 22.4797232 ], [ 73.0876482, 22.4960994 ], [ 73.0878797, 22.5027419 ], [ 73.0904595, 22.5055826 ], [ 73.0917412, 22.5102515 ], [ 73.0935779, 22.5116335 ], [ 73.0970283, 22.5117515 ], [ 73.099958, 22.5155493 ], [ 73.1047452, 22.5143308 ], [ 73.1117967, 22.5147198 ], [ 73.1213559, 22.5175513 ], [ 73.1250155, 22.5204004 ], [ 73.1356641, 22.5246082 ], [ 73.1405008, 22.5311006 ], [ 73.1502499, 22.5520589 ], [ 73.153573, 22.5656265 ], [ 73.1534697, 22.5829332 ], [ 73.1562037, 22.5888431 ], [ 73.1601724, 22.5925537 ], [ 73.1845479, 22.6024933 ], [ 73.1912882, 22.603222 ], [ 73.1943163, 22.6097135 ], [ 73.2010855, 22.6179326 ], [ 73.2096661, 22.6204025 ], [ 73.2188247, 22.6212506 ], [ 73.2197132, 22.6260317 ], [ 73.2385908, 22.6453306 ], [ 73.2602594, 22.6568155 ], [ 73.2692374, 22.6664841 ], [ 73.2693197, 22.6733968 ], [ 73.2648666, 22.6875126 ], [ 73.2650192, 22.6914544 ], [ 73.255051, 22.7057105 ], [ 73.251861, 22.7194116 ], [ 73.2518184, 22.734641 ], [ 73.254678, 22.7430682 ], [ 73.2598304, 22.750001 ], [ 73.2583275, 22.7505274 ], [ 73.254999, 22.7603092 ], [ 73.2587985, 22.7694369 ], [ 73.26483, 22.7768279 ], [ 73.2760396, 22.782208 ], [ 73.280057, 22.7817951 ], [ 73.2884066, 22.7836373 ], [ 73.2913437, 22.7820947 ], [ 73.2968064, 22.7830546 ], [ 73.302095, 22.7820276 ], [ 73.3080834, 22.7836286 ], [ 73.315583, 22.7815861 ], [ 73.3244531, 22.7859958 ], [ 73.3502208, 22.7923544 ], [ 73.3526608, 22.7896637 ], [ 73.3553196, 22.7898537 ], [ 73.3561087, 22.7872848 ], [ 73.3589963, 22.7873437 ], [ 73.3599854, 22.7811175 ], [ 73.3634282, 22.7773251 ], [ 73.3620459, 22.7710852 ], [ 73.3809071, 22.7580187 ], [ 73.3790428, 22.7641593 ], [ 73.3808348, 22.771406 ], [ 73.3783471, 22.780075 ], [ 73.3790049, 22.7934442 ], [ 73.3774859, 22.8013636 ], [ 73.383563, 22.7948165 ], [ 73.3843825, 22.8115719 ], [ 73.3987443, 22.8080259 ], [ 73.4046923, 22.8145536 ], [ 73.4048522, 22.8112124 ], [ 73.4064004, 22.8090043 ] ] ] } }
]
}
