{
"type": "FeatureCollection",
"name": "2420",
"crs": { "type": "name", "properties": { "name": "urn:ogc:def:crs:OGC:1.3:CRS84" } },
"features": [
{ "type": "Feature", "properties": { "code": "2420", "name": "Narmada", "type": "district" }, "geometry": { "type": "Polygon", "coordinates": [ [ [ 73.6145144, 22.070921 ], [ 73.6203617, 22.073179 ], [ 73.6251094, 22.072872 ], [ 73.6308214, 22.0795321 ], [ 73.6303509, 22.0668888 ], [ 73.6380196, 22.0676831 ], [ 73.6449673, 22.0733221 ], [ 73.6484696, 22.0720483 ], [ 73.6522938, 22.0604695 ], [ 73.6572892, 22.0620133 ], [ 73.6593367, 22.0559621 ], [ 73.6575054, 22.0544408 ], [ 73.6588558, 22.0504533 ], [ 73.6607063, 22.0511212 ], [ 73.6619068, 22.0482129 ], [ 73.660778, 22.0473643 ], [ 73.6605445, 22.0431017 ], [ 73.6656545, 22.0433533 ], [ 73.665505, 22.0456608 ], [ 73.6666775, 22.0467803 ], [ 73.6735949, 22.048711 ], [ 73.6775155, 22.0538123 ], [ 73.6822041, 22.053192 ], [ 73.6845138, 22.0512224 ], [ 73.6835853, 22.0431717 ], [ 73.6760148, 22.0431336 ], [ 73.6744636, 22.0262823 ], [ 73.6719842, 22.0268339 ], [ 73.6713274, 22.0177354 ], [ 73.6699656, 22.0148052 ], [ 73.6709771, 22.0129671 ], [ 73.6744629, 22.0107851 ], [ 73.6763662, 22.0114256 ], [ 73.6780943, 22.0095647 ], [ 73.6797325, 22.0010479 ], [ 73.6827528, 22.0096941 ], [ 73.6869234, 22.012623 ], [ 73.690114, 22.0114252 ], [ 73.689464, 22.0089735 ], [ 73.6910854, 22.0009829 ], [ 73.6879311, 21.9990798 ], [ 73.6892143, 21.9963324 ], [ 73.6868276, 21.9959613 ], [ 73.6890023, 21.9920183 ], [ 73.687517, 21.9893956 ], [ 73.689692, 21.9888262 ], [ 73.6888258, 21.9872644 ], [ 73.6960804, 21.9882904 ], [ 73.693286, 21.9912604 ], [ 73.6932395, 21.9929028 ], [ 73.6987917, 21.9934163 ], [ 73.6984618, 21.9990159 ], [ 73.701813, 22.0017478 ], [ 73.7008516, 22.0059071 ], [ 73.7063207, 22.0096071 ], [ 73.708819, 22.0089736 ], [ 73.7086592, 22.0008278 ], [ 73.7062008, 21.9968161 ], [ 73.7071306, 21.9941662 ], [ 73.7026974, 21.9926516 ], [ 73.7045908, 21.9768476 ], [ 73.7106402, 21.9798274 ], [ 73.7140998, 21.9795574 ], [ 73.7153396, 21.9816072 ], [ 73.7289179, 21.9815271 ], [ 73.7290479, 21.9799173 ], [ 73.7311976, 21.9785373 ], [ 73.7343372, 21.9788873 ], [ 73.736857, 21.9771674 ], [ 73.7451659, 21.9645684 ], [ 73.7482354, 21.9625385 ], [ 73.7578955, 21.9629311 ], [ 73.7707397, 21.9676764 ], [ 73.7735518, 21.9614783 ], [ 73.7760603, 21.9599988 ], [ 73.7810366, 21.9599204 ], [ 73.7793048, 21.9582577 ], [ 73.7794966, 21.9536384 ], [ 73.7774642, 21.9527115 ], [ 73.7787263, 21.9399559 ], [ 73.7832432, 21.9382334 ], [ 73.7865558, 21.9348305 ], [ 73.7876736, 21.9351517 ], [ 73.7900281, 21.9311838 ], [ 73.7936911, 21.9325131 ], [ 73.795582, 21.9351737 ], [ 73.7958099, 21.943207 ], [ 73.7992148, 21.9484014 ], [ 73.8009445, 21.9448936 ], [ 73.8034906, 21.9447186 ], [ 73.8037245, 21.9415307 ], [ 73.8081925, 21.9401779 ], [ 73.8010205, 21.9381565 ], [ 73.8005071, 21.929387 ], [ 73.8055887, 21.9296375 ], [ 73.8121737, 21.9336861 ], [ 73.8201055, 21.9358699 ], [ 73.8229497, 21.9403411 ], [ 73.8413504, 21.9461257 ], [ 73.847095, 21.9504572 ], [ 73.8549749, 21.9526076 ], [ 73.8559, 21.947329 ], [ 73.8604454, 21.943568 ], [ 73.8598473, 21.9351713 ], [ 73.8654074, 21.9294302 ], [ 73.8681517, 21.9243232 ], [ 73.871762, 21.9230634 ], [ 73.8750722, 21.9250186 ], [ 73.8870888, 21.924973 ], [ 73.8893103, 21.9261919 ], [ 73.8937813, 21.9205515 ], [ 73.9032311, 21.9133929 ], [ 73.9084752, 21.9068262 ], [ 73.9076613, 21.9031462 ], [ 73.9108005, 21.8983093 ], [ 73.9141825, 21.8978074 ], [ 73.9205535, 21.8933398 ], [ 73.9257448, 21.8920873 ], [ 73.9314092, 21.8887981 ], [ 73.9356007, 21.8809983 ], [ 73.93645, 21.8760127 ], [ 73.9405115, 21.8709085 ], [ 73.9281486, 21.8642074 ], [ 73.9121493, 21.8579579 ], [ 73.9078245, 21.8570556 ], [ 73.9005834, 21.8579466 ], [ 73.8880013, 21.8552117 ], [ 73.8757968, 21.8436705 ], [ 73.8697558, 21.841074 ], [ 73.8423213, 21.8439972 ], [ 73.8249674, 21.8423583 ], [ 73.8138632, 21.8397899 ], [ 73.807316, 21.8363329 ], [ 73.7959515, 21.8247274 ], [ 73.7981532, 21.8223125 ], [ 73.8016064, 21.8217496 ], [ 73.8043011, 21.8196962 ], [ 73.8078359, 21.8098084 ], [ 73.8223859, 21.8113037 ], [ 73.82743, 21.8099099 ], [ 73.8280653, 21.8040714 ], [ 73.8329451, 21.8009479 ], [ 73.8324572, 21.7996517 ], [ 73.82696, 21.7979253 ], [ 73.8273389, 21.7924795 ], [ 73.8344949, 21.7920976 ], [ 73.8381607, 21.7887478 ], [ 73.8371022, 21.7873251 ], [ 73.8308942, 21.787125 ], [ 73.8294538, 21.7859415 ], [ 73.8295676, 21.777547 ], [ 73.8341366, 21.7762025 ], [ 73.834698, 21.7740531 ], [ 73.8336061, 21.7716506 ], [ 73.824945, 21.7652315 ], [ 73.8237374, 21.7626031 ], [ 73.8246664, 21.7599346 ], [ 73.8275485, 21.7567203 ], [ 73.8336639, 21.7549246 ], [ 73.8375139, 21.7455298 ], [ 73.8468103, 21.7372769 ], [ 73.8503724, 21.7372187 ], [ 73.8532677, 21.7353767 ], [ 73.8559311, 21.7324374 ], [ 73.8583628, 21.726504 ], [ 73.8676085, 21.7183448 ], [ 73.8807392, 21.7153692 ], [ 73.8829854, 21.7126865 ], [ 73.8863241, 21.7066714 ], [ 73.8838934, 21.705231 ], [ 73.8903, 21.6979739 ], [ 73.8918165, 21.6921484 ], [ 73.8912796, 21.6871181 ], [ 73.8924582, 21.6849278 ], [ 73.8916074, 21.6810579 ], [ 73.8945875, 21.6759774 ], [ 73.8886339, 21.6607738 ], [ 73.8880149, 21.6532461 ], [ 73.8837785, 21.6533367 ], [ 73.8741949, 21.6475615 ], [ 73.8599241, 21.6424074 ], [ 73.8516668, 21.6464808 ], [ 73.8497698, 21.6391335 ], [ 73.8459396, 21.639738 ], [ 73.8385899, 21.6330804 ], [ 73.8346582, 21.634353 ], [ 73.8360334, 21.6391761 ], [ 73.832102, 21.6383533 ], [ 73.8303813, 21.6423673 ], [ 73.8248035, 21.6397783 ], [ 73.8217303, 21.6434215 ], [ 73.8175915, 21.6419706 ], [ 73.8142627, 21.6441732 ], [ 73.8123227, 21.6400767 ], [ 73.8053195, 21.6394237 ], [ 73.8015823, 21.6371417 ], [ 73.7880459, 21.6341008 ], [ 73.7861101, 21.6324786 ], [ 73.7850207, 21.62901 ], [ 73.7805149, 21.6285921 ], [ 73.7826826, 21.6220771 ], [ 73.7813664, 21.6185947 ], [ 73.787723, 21.6164984 ], [ 73.7899565, 21.6122908 ], [ 73.7982906, 21.6045684 ], [ 73.8120921, 21.6028987 ], [ 73.8141306, 21.6010932 ], [ 73.8155083, 21.5972101 ], [ 73.8154247, 21.588883 ], [ 73.8174819, 21.5880167 ], [ 73.8164447, 21.5857359 ], [ 73.8171901, 21.5809676 ], [ 73.823337, 21.5643877 ], [ 73.8222759, 21.5617908 ], [ 73.8252953, 21.5551265 ], [ 73.827796, 21.5544408 ], [ 73.8267394, 21.5523271 ], [ 73.8280683, 21.5478298 ], [ 73.827229, 21.5458517 ], [ 73.8293241, 21.5451026 ], [ 73.832961, 21.5370564 ], [ 73.8347926, 21.5285085 ], [ 73.834896, 21.5205834 ], [ 73.838425, 21.5155626 ], [ 73.8460558, 21.5094045 ], [ 73.8514477, 21.4991861 ], [ 73.8535566, 21.4974659 ], [ 73.8591875, 21.4995211 ], [ 73.8638296, 21.4981667 ], [ 73.8643554, 21.5009394 ], [ 73.8691228, 21.5010842 ], [ 73.8718346, 21.5047962 ], [ 73.8726356, 21.5064038 ], [ 73.8663189, 21.5070268 ], [ 73.8643015, 21.5125721 ], [ 73.8685965, 21.5127439 ], [ 73.8685724, 21.5108518 ], [ 73.8720083, 21.5107254 ], [ 73.877056, 21.5121569 ], [ 73.8784697, 21.5048999 ], [ 73.8798257, 21.5051979 ], [ 73.9053164, 21.515762 ], [ 73.9042276, 21.5245092 ], [ 73.911978, 21.5227284 ], [ 73.9151382, 21.5196163 ], [ 73.9168224, 21.5195888 ], [ 73.9217503, 21.5211589 ], [ 73.9215875, 21.5250786 ], [ 73.9271319, 21.5250803 ], [ 73.9292557, 21.5236989 ], [ 73.9295433, 21.5184696 ], [ 73.9320552, 21.512264 ], [ 73.9355105, 21.5124389 ], [ 73.9402984, 21.5142298 ], [ 73.9416574, 21.5161791 ], [ 73.9459266, 21.5167924 ], [ 73.9465673, 21.5143446 ], [ 73.9517542, 21.512694 ], [ 73.9521243, 21.5190882 ], [ 73.9552089, 21.5203511 ], [ 73.9542071, 21.5240997 ], [ 73.9559452, 21.5252955 ], [ 73.9556443, 21.5309404 ], [ 73.9541834, 21.5336957 ], [ 73.9553187, 21.5355556 ], [ 73.9544528, 21.5406544 ], [ 73.9603468, 21.5416403 ], [ 73.9628095, 21.5276944 ], [ 73.9663001, 21.5220658 ], [ 73.9741676, 21.5234837 ], [ 73.9774336, 21.5216844 ], [ 73.9825593, 21.5221915 ], [ 73.9809769, 21.5163717 ], [ 73.9767247, 21.5155525 ], [ 73.9784157, 21.5114736 ], [ 73.9746454, 21.5095974 ], [ 73.9783991, 21.5017783 ], [ 73.9789938, 21.4967426 ], [ 73.9806828, 21.4970395 ], [ 73.9805465, 21.4953778 ], [ 73.9768647, 21.4951408 ], [ 73.9782507, 21.4899513 ], [ 73.972721, 21.4897154 ], [ 73.9736881, 21.4856189 ], [ 73.9752453, 21.4840149 ], [ 73.9779524, 21.4843655 ], [ 73.9782313, 21.4831505 ], [ 73.9816722, 21.4842051 ], [ 73.9821043, 21.4812785 ], [ 73.9858346, 21.482423 ], [ 73.9892111, 21.4813641 ], [ 73.9837389, 21.4736729 ], [ 73.9781251, 21.4694903 ], [ 73.9713899, 21.4616595 ], [ 73.9657201, 21.4593055 ], [ 73.949107, 21.4607588 ], [ 73.9431923, 21.4600524 ], [ 73.9263049, 21.4507786 ], [ 73.9177136, 21.4493039 ], [ 73.9086302, 21.4489543 ], [ 73.8919119, 21.4533102 ], [ 73.8818156, 21.450859 ], [ 73.8679138, 21.4434306 ], [ 73.8376223, 21.4238553 ], [ 73.8347006, 21.4202329 ], [ 73.8340324, 21.412303 ], [ 73.8186094, 21.4012438 ], [ 73.8136563, 21.403333 ], [ 73.8025275, 21.4115971 ], [ 73.7940356, 21.4107037 ], [ 73.7820456, 21.4131903 ], [ 73.7767953, 21.4111327 ], [ 73.762845, 21.4096564 ], [ 73.7430833, 21.4109913 ], [ 73.7160266, 21.4061818 ], [ 73.7098473, 21.403852 ], [ 73.7096474, 21.3996823 ], [ 73.6990386, 21.3963726 ], [ 73.6925094, 21.4020022 ], [ 73.6912697, 21.4167211 ], [ 73.6939593, 21.4210708 ], [ 73.6952992, 21.4284602 ], [ 73.6884201, 21.4381294 ], [ 73.68978, 21.4464788 ], [ 73.6763418, 21.4727568 ], [ 73.6737121, 21.4740468 ], [ 73.6697725, 21.471917 ], [ 73.666633, 21.4724469 ], [ 73.6557444, 21.4790465 ], [ 73.6494751, 21.4805664 ], [ 73.6447457, 21.4793165 ], [ 73.6426459, 21.4772267 ], [ 73.6352368, 21.4774466 ], [ 73.6286576, 21.4728771 ], [ 73.60952, 21.473737 ], [ 73.6069302, 21.4725072 ], [ 73.6061004, 21.4768769 ], [ 73.6035207, 21.4791867 ], [ 73.600901, 21.4844463 ], [ 73.5972515, 21.4847562 ], [ 73.580558, 21.4808525 ], [ 73.5647155, 21.4748272 ], [ 73.5550466, 21.4745273 ], [ 73.5499572, 21.4770971 ], [ 73.5480975, 21.4802969 ], [ 73.5365589, 21.478497 ], [ 73.5278799, 21.479427 ], [ 73.5239205, 21.4832967 ], [ 73.5156615, 21.4832167 ], [ 73.5107321, 21.4874465 ], [ 73.5019132, 21.4873165 ], [ 73.4944541, 21.4856467 ], [ 73.4936143, 21.4908663 ], [ 73.4884749, 21.4911363 ], [ 73.4860852, 21.494766 ], [ 73.4848754, 21.5045853 ], [ 73.4892649, 21.5138645 ], [ 73.4880151, 21.5153844 ], [ 73.4683374, 21.508285 ], [ 73.4653478, 21.5199241 ], [ 73.4584187, 21.522424 ], [ 73.4417709, 21.5381429 ], [ 73.4428907, 21.5423625 ], [ 73.440561, 21.5455523 ], [ 73.4416208, 21.5477521 ], [ 73.4399011, 21.5487121 ], [ 73.4419009, 21.5583613 ], [ 73.4470903, 21.5647507 ], [ 73.4463904, 21.5694004 ], [ 73.44977, 21.5712903 ], [ 73.4502299, 21.5753699 ], [ 73.4572591, 21.5775597 ], [ 73.4649482, 21.5844492 ], [ 73.4661581, 21.5888888 ], [ 73.4703476, 21.5938584 ], [ 73.4726273, 21.5928685 ], [ 73.4734873, 21.5938084 ], [ 73.4741172, 21.598018 ], [ 73.4707577, 21.6090072 ], [ 73.4743672, 21.611307 ], [ 73.4822363, 21.610887 ], [ 73.4803366, 21.6270958 ], [ 73.4783868, 21.6318655 ], [ 73.4800067, 21.6338853 ], [ 73.484756, 21.636035 ], [ 73.485756, 21.6389049 ], [ 73.4843562, 21.6418846 ], [ 73.4807166, 21.6435645 ], [ 73.4769771, 21.6473643 ], [ 73.4738675, 21.6544137 ], [ 73.4742774, 21.6601633 ], [ 73.4777871, 21.6670027 ], [ 73.487026, 21.6777918 ], [ 73.4960349, 21.6783817 ], [ 73.4996244, 21.6800016 ], [ 73.4998545, 21.6812315 ], [ 73.487586, 21.6935406 ], [ 73.487516, 21.7034099 ], [ 73.4780572, 21.7040199 ], [ 73.4749677, 21.7113993 ], [ 73.4717581, 21.7133591 ], [ 73.4691184, 21.7208986 ], [ 73.4620692, 21.7183788 ], [ 73.4532204, 21.7192488 ], [ 73.4496108, 21.716819 ], [ 73.4494708, 21.7137793 ], [ 73.4472211, 21.7117393 ], [ 73.439682, 21.7094296 ], [ 73.431503, 21.7147792 ], [ 73.431563, 21.717909 ], [ 73.406976, 21.7092798 ], [ 73.4029565, 21.7180691 ], [ 73.3954774, 21.7170792 ], [ 73.3951174, 21.720729 ], [ 73.3932577, 21.7220588 ], [ 73.3948575, 21.7248286 ], [ 73.4005968, 21.7269584 ], [ 73.4020267, 21.7295282 ], [ 73.4039964, 21.7298882 ], [ 73.4044364, 21.7350178 ], [ 73.408216, 21.7374376 ], [ 73.4066262, 21.7398874 ], [ 73.4069162, 21.744497 ], [ 73.407806, 21.7483267 ], [ 73.4097159, 21.7497166 ], [ 73.4007758, 21.7588481 ], [ 73.3971262, 21.7585551 ], [ 73.3943178, 21.7602669 ], [ 73.3962865, 21.7682549 ], [ 73.3954176, 21.7758141 ], [ 73.3926863, 21.7774536 ], [ 73.3869089, 21.7776438 ], [ 73.3826015, 21.7812747 ], [ 73.3741795, 21.7804125 ], [ 73.3739619, 21.7869421 ], [ 73.3713608, 21.7882246 ], [ 73.3710222, 21.7920221 ], [ 73.3693299, 21.793273 ], [ 73.3669411, 21.7992651 ], [ 73.3644315, 21.8019247 ], [ 73.3601617, 21.8024843 ], [ 73.3598906, 21.8060923 ], [ 73.3578743, 21.8054148 ], [ 73.3590103, 21.8075643 ], [ 73.355872, 21.8082504 ], [ 73.3558814, 21.8103411 ], [ 73.3514954, 21.8105799 ], [ 73.3475924, 21.8143815 ], [ 73.3359874, 21.8103513 ], [ 73.3357064, 21.812284 ], [ 73.3323639, 21.8160221 ], [ 73.3368366, 21.8174907 ], [ 73.3348648, 21.8313803 ], [ 73.3309562, 21.83375 ], [ 73.327638, 21.834991 ], [ 73.3209552, 21.8316112 ], [ 73.321386, 21.8305322 ], [ 73.3195286, 21.8313128 ], [ 73.319239, 21.8296419 ], [ 73.3149127, 21.8301444 ], [ 73.3163286, 21.8268231 ], [ 73.3115898, 21.8252004 ], [ 73.3113972, 21.8233714 ], [ 73.3085686, 21.8222911 ], [ 73.3057877, 21.8223713 ], [ 73.3040694, 21.8256534 ], [ 73.3021594, 21.825043 ], [ 73.2993483, 21.8274892 ], [ 73.2994191, 21.8307812 ], [ 73.3016718, 21.8328503 ], [ 73.2971009, 21.8337287 ], [ 73.29694, 21.836262 ], [ 73.2994697, 21.8358522 ], [ 73.3009878, 21.8370088 ], [ 73.3029879, 21.8414711 ], [ 73.3024274, 21.8501273 ], [ 73.3085167, 21.8514077 ], [ 73.3079496, 21.853751 ], [ 73.3065903, 21.854157 ], [ 73.3059107, 21.859169 ], [ 73.3038118, 21.8581386 ], [ 73.3039889, 21.8618595 ], [ 73.3016573, 21.8617591 ], [ 73.3018384, 21.8674082 ], [ 73.2997377, 21.8789672 ], [ 73.3021499, 21.882987 ], [ 73.30225, 21.8861661 ], [ 73.3038314, 21.8875079 ], [ 73.3143671, 21.8805761 ], [ 73.3277656, 21.8749268 ], [ 73.3353756, 21.8742876 ], [ 73.3442525, 21.8772877 ], [ 73.3463563, 21.8806567 ], [ 73.3467765, 21.8843776 ], [ 73.3438841, 21.9037851 ], [ 73.3445158, 21.9144825 ], [ 73.3489519, 21.9231938 ], [ 73.3553539, 21.9283649 ], [ 73.3595739, 21.9301806 ], [ 73.3664124, 21.9309306 ], [ 73.3763193, 21.9294542 ], [ 73.3833993, 21.9218633 ], [ 73.3976789, 21.912632 ], [ 73.4028756, 21.9106126 ], [ 73.4136472, 21.9098337 ], [ 73.4235444, 21.9137551 ], [ 73.438663, 21.9266733 ], [ 73.4428806, 21.9416225 ], [ 73.4398756, 21.9640118 ], [ 73.442433, 21.9666794 ], [ 73.4448806, 21.9726795 ], [ 73.4489535, 21.9754366 ], [ 73.4538194, 21.9762787 ], [ 73.4586503, 21.9749984 ], [ 73.4618098, 21.9799006 ], [ 73.4740787, 21.9740505 ], [ 73.5038255, 21.9628896 ], [ 73.5043954, 21.9664293 ], [ 73.507555, 21.9697091 ], [ 73.5047273, 21.9772362 ], [ 73.5068351, 21.9791183 ], [ 73.5128544, 21.9809582 ], [ 73.5137444, 21.9855478 ], [ 73.5118146, 21.9875477 ], [ 73.5141743, 21.9904274 ], [ 73.5136944, 21.9930673 ], [ 73.5112447, 21.9934672 ], [ 73.5111005, 22.0034187 ], [ 73.5003056, 22.0091256 ], [ 73.4991151, 22.0139247 ], [ 73.4949468, 22.0173954 ], [ 73.5007342, 22.0174164 ], [ 73.5023764, 22.0226059 ], [ 73.503316, 22.0282645 ], [ 73.5018776, 22.0282138 ], [ 73.5001784, 22.0329538 ], [ 73.5031743, 22.0354259 ], [ 73.4998675, 22.0396455 ], [ 73.5040862, 22.0395132 ], [ 73.5089557, 22.0372453 ], [ 73.5143167, 22.0379444 ], [ 73.5183648, 22.0457814 ], [ 73.518576, 22.0485315 ], [ 73.5222837, 22.0521733 ], [ 73.5216121, 22.0565122 ], [ 73.5340129, 22.048631 ], [ 73.5455706, 22.0476525 ], [ 73.5571492, 22.0534103 ], [ 73.5631697, 22.0545506 ], [ 73.5636582, 22.0561402 ], [ 73.5619369, 22.0602215 ], [ 73.5628567, 22.0614998 ], [ 73.5680699, 22.0592123 ], [ 73.5723254, 22.0525217 ], [ 73.5761469, 22.0536427 ], [ 73.5794771, 22.0614102 ], [ 73.5823342, 22.0649014 ], [ 73.5893969, 22.0658604 ], [ 73.5977135, 22.0720707 ], [ 73.6028827, 22.0711006 ], [ 73.6090734, 22.0779106 ], [ 73.609102, 22.0820919 ], [ 73.6145721, 22.0790714 ], [ 73.6145144, 22.070921 ] ] ] } }
]
}
