{
"type": "FeatureCollection",
"name": "2430",
"crs": { "type": "name", "properties": { "name": "urn:ogc:def:crs:OGC:1.3:CRS84" } },
"features": [
{ "type": "Feature", "properties": { "code": "2430", "name": "Gir Somnath", "type": "district" }, "geometry": { "type": "Polygon", "coordinates": [ [ [ 70.5855532, 21.1602795 ], [ 70.5878413, 21.160557 ], [ 70.5887262, 21.1557501 ], [ 70.5912204, 21.1544276 ], [ 70.5900905, 21.1501448 ], [ 70.5920943, 21.1509668 ], [ 70.5955694, 21.1499877 ], [ 70.5972241, 21.1510295 ], [ 70.5974344, 21.1537232 ], [ 70.5996645, 21.1562798 ], [ 70.6082489, 21.1510334 ], [ 70.6133105, 21.1535588 ], [ 70.6161585, 21.15303 ], [ 70.6147787, 21.1496872 ], [ 70.6164727, 21.1479312 ], [ 70.6137732, 21.14628 ], [ 70.6174847, 21.1432965 ], [ 70.6182566, 21.1377681 ], [ 70.6226949, 21.1355487 ], [ 70.6227844, 21.1337782 ], [ 70.6200543, 21.1296904 ], [ 70.6201566, 21.1260101 ], [ 70.6165311, 21.1217205 ], [ 70.6187948, 21.116184 ], [ 70.6216217, 21.1140306 ], [ 70.6215135, 21.1100426 ], [ 70.6263132, 21.1119321 ], [ 70.6319468, 21.1077731 ], [ 70.6375863, 21.1090373 ], [ 70.6379852, 21.1110922 ], [ 70.6402101, 21.1112956 ], [ 70.6406883, 21.1074625 ], [ 70.6424996, 21.1078577 ], [ 70.649304, 21.1139304 ], [ 70.6503204, 21.1161429 ], [ 70.6498792, 21.1206736 ], [ 70.6552087, 21.1189142 ], [ 70.6663219, 21.1112906 ], [ 70.6650361, 21.1059777 ], [ 70.6659945, 21.1043547 ], [ 70.6615296, 21.1011787 ], [ 70.6606947, 21.0992308 ], [ 70.6673064, 21.0953088 ], [ 70.6710009, 21.0946434 ], [ 70.6703341, 21.0909617 ], [ 70.6730884, 21.0889634 ], [ 70.6716911, 21.0807651 ], [ 70.6700346, 21.0781813 ], [ 70.6658755, 21.07878 ], [ 70.665543, 21.0768014 ], [ 70.6693637, 21.0745007 ], [ 70.67557, 21.0762581 ], [ 70.6830799, 21.075653 ], [ 70.6940518, 21.0778776 ], [ 70.6919743, 21.0804431 ], [ 70.6943554, 21.0809371 ], [ 70.6937994, 21.0822976 ], [ 70.6994367, 21.0824109 ], [ 70.7020498, 21.0764863 ], [ 70.7069381, 21.0725387 ], [ 70.7092127, 21.0638872 ], [ 70.7118335, 21.0619594 ], [ 70.7086053, 21.0523628 ], [ 70.7154677, 21.0596114 ], [ 70.7226854, 21.0613239 ], [ 70.7239284, 21.0540385 ], [ 70.7226301, 21.0448787 ], [ 70.7255682, 21.0414109 ], [ 70.7245499, 21.0370805 ], [ 70.7206447, 21.0339879 ], [ 70.7136657, 21.0229551 ], [ 70.7153753, 21.0186241 ], [ 70.7142587, 21.0109703 ], [ 70.7079717, 21.0113205 ], [ 70.707893, 21.0094498 ], [ 70.7092656, 21.0097517 ], [ 70.7100661, 21.0077421 ], [ 70.7125241, 21.0073915 ], [ 70.7131502, 21.0044065 ], [ 70.7147775, 21.0035229 ], [ 70.7138621, 21.002121 ], [ 70.7155094, 20.9986314 ], [ 70.7182591, 20.9984513 ], [ 70.7180616, 20.9943715 ], [ 70.7266262, 20.9947785 ], [ 70.7311114, 20.9846038 ], [ 70.7360576, 20.9772193 ], [ 70.7463281, 20.968061 ], [ 70.7533159, 20.9635104 ], [ 70.7543345, 20.9645964 ], [ 70.7491943, 20.9678621 ], [ 70.7442123, 20.9762581 ], [ 70.7485578, 20.9782225 ], [ 70.7515335, 20.9774855 ], [ 70.7569207, 20.9802803 ], [ 70.7591052, 20.9825615 ], [ 70.759376, 20.986499 ], [ 70.7611571, 20.9868203 ], [ 70.7629059, 20.9847009 ], [ 70.7643284, 20.9885441 ], [ 70.7630405, 20.9971839 ], [ 70.7672347, 20.9958934 ], [ 70.7682271, 20.9968712 ], [ 70.7660502, 20.9980394 ], [ 70.7672664, 20.9999519 ], [ 70.7656945, 21.0025975 ], [ 70.7686847, 21.0036732 ], [ 70.7772009, 21.0012406 ], [ 70.7803095, 21.002272 ], [ 70.7769936, 20.9960591 ], [ 70.7784821, 20.9956317 ], [ 70.778303, 20.9938783 ], [ 70.7798812, 20.9943275 ], [ 70.7822764, 20.9920506 ], [ 70.7824977, 20.9904318 ], [ 70.7869275, 20.9922442 ], [ 70.7898552, 20.9917884 ], [ 70.7953878, 20.9938818 ], [ 70.8033828, 20.9946494 ], [ 70.8048188, 20.9964837 ], [ 70.8025162, 20.9994057 ], [ 70.8121101, 20.9947403 ], [ 70.8153163, 20.9969264 ], [ 70.8180006, 20.9963667 ], [ 70.8334817, 20.9880408 ], [ 70.8375891, 20.9943391 ], [ 70.8408425, 20.9940762 ], [ 70.8409437, 20.9917422 ], [ 70.8377537, 20.9890626 ], [ 70.8387464, 20.988401 ], [ 70.837206, 20.9856047 ], [ 70.8380624, 20.9839458 ], [ 70.8364403, 20.9833204 ], [ 70.8403117, 20.9770405 ], [ 70.8390196, 20.9717637 ], [ 70.856463, 20.9706137 ], [ 70.8574436, 20.9795406 ], [ 70.8580154, 20.9808277 ], [ 70.8610111, 20.9809357 ], [ 70.8614944, 20.9788606 ], [ 70.8591015, 20.9791006 ], [ 70.8608079, 20.9741865 ], [ 70.8678223, 20.9715007 ], [ 70.8736764, 20.9674516 ], [ 70.8675345, 20.9658761 ], [ 70.8609224, 20.9669933 ], [ 70.8619231, 20.9574503 ], [ 70.8720202, 20.9329332 ], [ 70.8929773, 20.9632476 ], [ 70.8973162, 20.960859 ], [ 70.8992243, 20.957949 ], [ 70.9009943, 20.9601424 ], [ 70.9008755, 20.9626756 ], [ 70.9024143, 20.9636449 ], [ 70.9021342, 20.9595223 ], [ 70.9048051, 20.9597306 ], [ 70.9086873, 20.9568259 ], [ 70.9099817, 20.9571422 ], [ 70.9109539, 20.9576845 ], [ 70.910207, 20.9593309 ], [ 70.9070167, 20.9623872 ], [ 70.9075983, 20.9668704 ], [ 70.9096668, 20.9695806 ], [ 70.9176954, 20.9743673 ], [ 70.9217692, 20.9733479 ], [ 70.9312896, 20.9768587 ], [ 70.9307623, 20.9803086 ], [ 70.9341816, 20.9882769 ], [ 70.953189, 20.9928342 ], [ 70.9567533, 20.9954344 ], [ 70.9585299, 20.9942356 ], [ 70.9619042, 20.9952311 ], [ 70.9664367, 20.9908303 ], [ 70.967611, 20.986335 ], [ 70.9790137, 20.9844382 ], [ 70.9836256, 20.9818018 ], [ 70.9785683, 20.9694469 ], [ 70.9814333, 20.9645621 ], [ 70.9849779, 20.9654047 ], [ 70.9909566, 20.9619512 ], [ 70.9891444, 20.9563221 ], [ 70.9888706, 20.9484954 ], [ 70.9925898, 20.9491161 ], [ 70.9954265, 20.9473373 ], [ 71.0015711, 20.948458 ], [ 71.0014692, 20.949904 ], [ 71.0027405, 20.9503588 ], [ 71.0008421, 20.9505805 ], [ 71.0000035, 20.9559907 ], [ 71.0054344, 20.9566578 ], [ 71.007998, 20.9583356 ], [ 71.0141055, 20.9568119 ], [ 71.0155255, 20.9597977 ], [ 71.0208715, 20.9625771 ], [ 71.0234914, 20.9684124 ], [ 71.0310516, 20.96775 ], [ 71.0369852, 20.9657584 ], [ 71.036095, 20.9696501 ], [ 71.0429922, 20.9726462 ], [ 71.0417554, 20.9747249 ], [ 71.0489614, 20.9809233 ], [ 71.0459552, 20.9817206 ], [ 71.0452138, 20.983173 ], [ 71.0459318, 20.9880205 ], [ 71.0524264, 20.9914253 ], [ 71.0634698, 20.9898286 ], [ 71.066066, 20.9874968 ], [ 71.0667432, 20.9891725 ], [ 71.0719346, 20.9877017 ], [ 71.0735038, 21.0010593 ], [ 71.0689663, 21.0076372 ], [ 71.0683419, 21.0179729 ], [ 71.0736874, 21.020861 ], [ 71.0755913, 21.0246152 ], [ 71.0769152, 21.0350707 ], [ 71.0793101, 21.0400179 ], [ 71.0903839, 21.0362496 ], [ 71.0857824, 21.0321201 ], [ 71.0849389, 21.027899 ], [ 71.0906515, 21.0258587 ], [ 71.091415, 21.0196121 ], [ 71.0891825, 21.0169752 ], [ 71.1070466, 21.0158691 ], [ 71.1144287, 21.0111461 ], [ 71.1182557, 21.0112903 ], [ 71.1212653, 21.0092737 ], [ 71.1250126, 21.0089787 ], [ 71.1267529, 21.0031714 ], [ 71.1303799, 21.0022565 ], [ 71.1294024, 20.993298 ], [ 71.1326973, 20.9896269 ], [ 71.1283165, 20.9882632 ], [ 71.1254501, 20.9853531 ], [ 71.1258889, 20.9809951 ], [ 71.1231471, 20.9759525 ], [ 71.1234068, 20.9691964 ], [ 71.1214355, 20.9660442 ], [ 71.1242626, 20.9625307 ], [ 71.1319119, 20.9600873 ], [ 71.1370391, 20.9542065 ], [ 71.1375218, 20.9523012 ], [ 71.1362292, 20.9502454 ], [ 71.143257, 20.9503407 ], [ 71.1474253, 20.951835 ], [ 71.1451615, 20.9551907 ], [ 71.1515412, 20.9546163 ], [ 71.1516119, 20.9567579 ], [ 71.1576193, 20.9601609 ], [ 71.1614462, 20.9596317 ], [ 71.1651299, 20.9620021 ], [ 71.1689612, 20.960169 ], [ 71.173348, 20.9669898 ], [ 71.17841, 20.9647077 ], [ 71.1875225, 20.9679019 ], [ 71.1892278, 20.9754476 ], [ 71.1935714, 20.9789368 ], [ 71.1955904, 20.9779514 ], [ 71.1970459, 20.9749883 ], [ 71.2011753, 20.9731439 ], [ 71.2198114, 20.9571159 ], [ 71.2180559, 20.9560195 ], [ 71.2097413, 20.9356383 ], [ 71.2056806, 20.9310774 ], [ 71.2054343, 20.9270056 ], [ 71.2015695, 20.9266687 ], [ 71.2004435, 20.9243344 ], [ 71.1967707, 20.9231709 ], [ 71.1962984, 20.9246619 ], [ 71.1896903, 20.9228125 ], [ 71.1844435, 20.9260716 ], [ 71.177605, 20.9190277 ], [ 71.1932617, 20.9020958 ], [ 71.1909376, 20.8957425 ], [ 71.1822331, 20.8926613 ], [ 71.1765414, 20.887587 ], [ 71.1795662, 20.8803918 ], [ 71.185428, 20.8788137 ], [ 71.1885491, 20.8733706 ], [ 71.2048097, 20.8738017 ], [ 71.2047504, 20.8709747 ], [ 71.2081328, 20.8618595 ], [ 71.2148957, 20.8503805 ], [ 71.2124521, 20.8450934 ], [ 71.2137235, 20.8423469 ], [ 71.2120697, 20.84032 ], [ 71.2151504, 20.834592 ], [ 71.2151529, 20.8317298 ], [ 71.2184781, 20.8303888 ], [ 71.2186008, 20.8287369 ], [ 71.2213137, 20.827024 ], [ 71.2206793, 20.8201197 ], [ 71.22357, 20.8178188 ], [ 71.2235688, 20.8158995 ], [ 71.2156134, 20.8108204 ], [ 71.2118997, 20.8045439 ], [ 71.2080419, 20.8036525 ], [ 71.2038299, 20.7988323 ], [ 71.2027563, 20.7966478 ], [ 71.2040375, 20.7943055 ], [ 71.2073938, 20.7948635 ], [ 71.2082402, 20.7939543 ], [ 71.2077195, 20.7924285 ], [ 71.2030173, 20.7913514 ], [ 71.203535, 20.7895582 ], [ 71.1837483, 20.7838805 ], [ 71.1607048, 20.7799038 ], [ 71.156152, 20.7777098 ], [ 71.15096, 20.7715561 ], [ 71.1463915, 20.7713434 ], [ 71.1458486, 20.7577963 ], [ 71.1353122, 20.7562943 ], [ 71.1279658, 20.7577371 ], [ 71.1233616, 20.7546539 ], [ 71.1202478, 20.7555371 ], [ 71.1174399, 20.7542391 ], [ 71.1116465, 20.7573227 ], [ 71.092003, 20.7568482 ], [ 71.08605, 20.7552618 ], [ 71.0790297, 20.7506683 ], [ 71.0764935, 20.7435412 ], [ 71.0741397, 20.7450469 ], [ 71.074769, 20.7434956 ], [ 71.0730117, 20.7433234 ], [ 71.0810873, 20.7425944 ], [ 71.0796892, 20.741814 ], [ 71.0814128, 20.7404314 ], [ 71.0810486, 20.7387076 ], [ 71.0789611, 20.736762 ], [ 71.0740933, 20.7361933 ], [ 71.0718214, 20.7345855 ], [ 71.0668535, 20.7354441 ], [ 71.0646129, 20.7334252 ], [ 71.0605756, 20.7360603 ], [ 71.0596724, 20.7345232 ], [ 71.0555517, 20.7328237 ], [ 71.0540877, 20.733385 ], [ 71.0504933, 20.7304997 ], [ 71.0438269, 20.7310634 ], [ 71.0448203, 20.7319638 ], [ 71.0430704, 20.7344215 ], [ 71.028963, 20.7371028 ], [ 71.0154424, 20.7381367 ], [ 71.0080695, 20.7369369 ], [ 71.0023075, 20.7418202 ], [ 70.999486, 20.7422287 ], [ 70.9930662, 20.7357753 ], [ 70.9844752, 20.7322539 ], [ 70.981276, 20.7226861 ], [ 70.9740214, 20.7278661 ], [ 70.9643543, 20.7296148 ], [ 70.9633005, 20.7335715 ], [ 70.9604123, 20.7367207 ], [ 70.9385096, 20.732431 ], [ 70.9317154, 20.7368927 ], [ 70.926596, 20.7370597 ], [ 70.9242929, 20.7406643 ], [ 70.9194928, 20.7430953 ], [ 70.915863, 20.742026 ], [ 70.9101055, 20.7368381 ], [ 70.9053478, 20.7365636 ], [ 70.8938687, 20.7323879 ], [ 70.8840467, 20.7314404 ], [ 70.8780651, 20.7285367 ], [ 70.8721318, 20.7183527 ], [ 70.870788, 20.7088732 ], [ 70.8713928, 20.7071074 ], [ 70.8742192, 20.7064145 ], [ 70.8730054, 20.7044789 ], [ 70.8673946, 20.7035529 ], [ 70.8590094, 20.7061086 ], [ 70.8441396, 20.7064681 ], [ 70.8386205, 20.7035496 ], [ 70.8327521, 20.6974333 ], [ 70.8348688, 20.6970544 ], [ 70.8389883, 20.6900959 ], [ 70.830829, 20.6914495 ], [ 70.828131, 20.6901129 ], [ 70.8221738, 20.6915704 ], [ 70.8215803, 20.6934515 ], [ 70.8079428, 20.6989837 ], [ 70.8075488, 20.7002797 ], [ 70.8028451, 20.7003501 ], [ 70.7885028, 20.7109883 ], [ 70.7726145, 20.715886 ], [ 70.7662198, 20.7202432 ], [ 70.7560949, 20.7219708 ], [ 70.7485155, 20.7177594 ], [ 70.7427516, 20.7185717 ], [ 70.7370828, 20.721999 ], [ 70.7335502, 20.7225285 ], [ 70.7296724, 20.7269665 ], [ 70.7246367, 20.7268205 ], [ 70.7215219, 20.7296974 ], [ 70.7171017, 20.7307553 ], [ 70.7154287, 20.7324448 ], [ 70.714045, 20.7316271 ], [ 70.7074324, 20.7362821 ], [ 70.7038464, 20.7365954 ], [ 70.6920743, 20.745502 ], [ 70.6852627, 20.7480877 ], [ 70.6744679, 20.7565456 ], [ 70.6681691, 20.7587693 ], [ 70.6668236, 20.7609704 ], [ 70.663013, 20.7609745 ], [ 70.6622108, 20.7595792 ], [ 70.6638191, 20.7589555 ], [ 70.6628873, 20.757759 ], [ 70.657274, 20.7556737 ], [ 70.6529963, 20.7575803 ], [ 70.6491511, 20.7612616 ], [ 70.6460253, 20.7610363 ], [ 70.645825, 20.7634399 ], [ 70.6428661, 20.7629289 ], [ 70.634867, 20.76708 ], [ 70.6335956, 20.7664795 ], [ 70.6346045, 20.7645564 ], [ 70.6279254, 20.7660787 ], [ 70.6211263, 20.7706355 ], [ 70.6121612, 20.7711139 ], [ 70.6109174, 20.7725184 ], [ 70.6118776, 20.7743113 ], [ 70.6094893, 20.7764193 ], [ 70.5989342, 20.7778361 ], [ 70.5908232, 20.7811945 ], [ 70.5856656, 20.7815864 ], [ 70.5747137, 20.7907198 ], [ 70.570391, 20.792376 ], [ 70.5623132, 20.7924501 ], [ 70.5578299, 20.7985768 ], [ 70.5518337, 20.8034158 ], [ 70.5482336, 20.8043248 ], [ 70.5419884, 20.8018264 ], [ 70.5412721, 20.803217 ], [ 70.5371365, 20.8038292 ], [ 70.5325327, 20.8082256 ], [ 70.5267723, 20.810914 ], [ 70.5234439, 20.8105509 ], [ 70.5229911, 20.8125422 ], [ 70.5197249, 20.8126622 ], [ 70.5196708, 20.8145183 ], [ 70.5179225, 20.8144721 ], [ 70.5163254, 20.8165703 ], [ 70.5113975, 20.8173764 ], [ 70.5084031, 20.8209807 ], [ 70.4999999, 20.8225569 ], [ 70.4901757, 20.827829 ], [ 70.4876266, 20.8298763 ], [ 70.4857221, 20.8352103 ], [ 70.4807201, 20.8354413 ], [ 70.4740582, 20.8395938 ], [ 70.4683383, 20.8390272 ], [ 70.4520725, 20.848104 ], [ 70.4474153, 20.8484141 ], [ 70.447082, 20.8504267 ], [ 70.4427042, 20.8534949 ], [ 70.4377195, 20.8528989 ], [ 70.4312534, 20.86058 ], [ 70.4247459, 20.8622384 ], [ 70.4139249, 20.8738657 ], [ 70.4136906, 20.8754745 ], [ 70.3957378, 20.8915108 ], [ 70.3905299, 20.8946116 ], [ 70.3864978, 20.8952423 ], [ 70.3848834, 20.8977759 ], [ 70.3781542, 20.9000936 ], [ 70.3750299, 20.9028205 ], [ 70.3736166, 20.9020751 ], [ 70.3736384, 20.9034451 ], [ 70.3706494, 20.9020557 ], [ 70.3712331, 20.9005608 ], [ 70.369764, 20.9008274 ], [ 70.373354, 20.8964785 ], [ 70.3700809, 20.8997392 ], [ 70.3642518, 20.9003718 ], [ 70.3575071, 20.9045009 ], [ 70.3462212, 20.9154219 ], [ 70.338832, 20.9174846 ], [ 70.3221009, 20.9266983 ], [ 70.3100396, 20.9358347 ], [ 70.3080865, 20.9388253 ], [ 70.2939942, 20.9461733 ], [ 70.2756691, 20.960853 ], [ 70.2704979, 20.9632546 ], [ 70.2568281, 20.9732341 ], [ 70.2379949, 20.9923329 ], [ 70.2462143, 20.9958886 ], [ 70.2557656, 21.007275 ], [ 70.2723101, 21.0139288 ], [ 70.2750632, 21.018067 ], [ 70.2767324, 21.017621 ], [ 70.2769754, 21.0137824 ], [ 70.2876174, 21.0164481 ], [ 70.2935268, 21.0195505 ], [ 70.3030804, 21.0062219 ], [ 70.3073066, 21.0086848 ], [ 70.3077629, 21.0101481 ], [ 70.3166251, 21.014279 ], [ 70.3284228, 21.0147071 ], [ 70.3379238, 21.0258685 ], [ 70.3399533, 21.0275986 ], [ 70.3429192, 21.0272272 ], [ 70.3486439, 21.0338593 ], [ 70.3508373, 21.0343383 ], [ 70.3583703, 21.031485 ], [ 70.3555522, 21.0259661 ], [ 70.3574569, 21.0275108 ], [ 70.3604632, 21.0267162 ], [ 70.3608289, 21.0243815 ], [ 70.359511, 21.023302 ], [ 70.3630799, 21.0244403 ], [ 70.3644604, 21.022652 ], [ 70.3659754, 21.0242779 ], [ 70.3657159, 21.0217579 ], [ 70.3673416, 21.0211529 ], [ 70.3682748, 21.0181994 ], [ 70.3704584, 21.0179375 ], [ 70.3675391, 21.0131595 ], [ 70.3622631, 21.0126669 ], [ 70.3627201, 21.0107838 ], [ 70.3658126, 21.0101337 ], [ 70.3661831, 21.0088511 ], [ 70.3736376, 21.0082823 ], [ 70.3759317, 21.0096867 ], [ 70.3788752, 21.0150291 ], [ 70.3888119, 21.0153175 ], [ 70.3929918, 21.0187854 ], [ 70.3953688, 21.0251934 ], [ 70.3940573, 21.0374546 ], [ 70.4007791, 21.0467703 ], [ 70.3997212, 21.0497555 ], [ 70.4007465, 21.0533727 ], [ 70.406972, 21.054478 ], [ 70.4062738, 21.0517279 ], [ 70.4083953, 21.0516462 ], [ 70.4107325, 21.0480464 ], [ 70.4218584, 21.0449231 ], [ 70.4215591, 21.0411794 ], [ 70.4322459, 21.0487133 ], [ 70.4327501, 21.0463105 ], [ 70.4360923, 21.0437216 ], [ 70.4354499, 21.0371781 ], [ 70.4414058, 21.0390771 ], [ 70.4425651, 21.0389457 ], [ 70.4425933, 21.037469 ], [ 70.4452003, 21.0370163 ], [ 70.4449978, 21.0359506 ], [ 70.4467054, 21.0360492 ], [ 70.4511432, 21.0412497 ], [ 70.4620055, 21.050141 ], [ 70.4636291, 21.0541413 ], [ 70.4558454, 21.0545156 ], [ 70.4557319, 21.0581917 ], [ 70.4503269, 21.0628683 ], [ 70.452427, 21.0675595 ], [ 70.4539713, 21.0763559 ], [ 70.4521732, 21.0790167 ], [ 70.4495598, 21.0777399 ], [ 70.4474389, 21.0796917 ], [ 70.4478968, 21.0910718 ], [ 70.4503228, 21.0923488 ], [ 70.4569581, 21.0914967 ], [ 70.4639271, 21.0934214 ], [ 70.4687704, 21.0978949 ], [ 70.4770338, 21.0987537 ], [ 70.4831633, 21.0969056 ], [ 70.4839815, 21.0937965 ], [ 70.501964, 21.0948515 ], [ 70.5067873, 21.0932683 ], [ 70.5041965, 21.0966048 ], [ 70.5008177, 21.1052967 ], [ 70.5005816, 21.1290334 ], [ 70.5023736, 21.1413439 ], [ 70.5188237, 21.1412845 ], [ 70.5258448, 21.1346014 ], [ 70.5517778, 21.1343738 ], [ 70.548804, 21.1505201 ], [ 70.549219, 21.1540559 ], [ 70.564241, 21.1547996 ], [ 70.5662809, 21.1644458 ], [ 70.5768729, 21.1695505 ], [ 70.5854718, 21.1618133 ], [ 70.5855532, 21.1602795 ] ] ] } }
]
}
