{
"type": "FeatureCollection",
"name": "2501",
"crs": { "type": "name", "properties": { "name": "urn:ogc:def:crs:OGC:1.3:CRS84" } },
"features": [
{ "type": "Feature", "properties": { "code": "2501", "name": "Diu", "type": "district" }, "geometry": { "type": "MultiPolygon", "coordinates": [ [ [ [ 70.9253626, 20.7379903 ], [ 70.9317154, 20.7368927 ], [ 70.9395033, 20.7324035 ], [ 70.9604123, 20.7367207 ], [ 70.9633005, 20.7335715 ], [ 70.9643543, 20.7296148 ], [ 70.9740214, 20.7278661 ], [ 70.981276, 20.7226861 ], [ 70.9844752, 20.7322539 ], [ 70.9930662, 20.7357753 ], [ 70.999486, 20.7422287 ], [ 71.0023075, 20.7418202 ], [ 71.007381, 20.7375226 ], [ 70.9999999, 20.7352041 ], [ 70.9930781, 20.7265668 ], [ 70.993315, 20.722615 ], [ 70.9984529, 20.7171493 ], [ 70.997313, 20.7140528 ], [ 70.9944197, 20.711274 ], [ 70.9893111, 20.7093491 ], [ 70.9870031, 20.7103171 ], [ 70.9769568, 20.7028036 ], [ 70.9752459, 20.7048443 ], [ 70.9736938, 20.7030131 ], [ 70.9730351, 20.7051436 ], [ 70.9712556, 20.7043496 ], [ 70.9689129, 20.7080219 ], [ 70.9635961, 20.7058599 ], [ 70.9596803, 20.7071445 ], [ 70.952311, 20.7040228 ], [ 70.9490437, 20.7068334 ], [ 70.9481216, 20.7056776 ], [ 70.9443348, 20.7058779 ], [ 70.9382063, 20.7079533 ], [ 70.9376793, 20.7103696 ], [ 70.930125, 20.7122826 ], [ 70.9182155, 20.7096667 ], [ 70.9150464, 20.7053004 ], [ 70.9151655, 20.70213 ], [ 70.9170086, 20.7020663 ], [ 70.9133218, 20.6995065 ], [ 70.9113685, 20.7000037 ], [ 70.9118296, 20.7013856 ], [ 70.910534, 20.7022575 ], [ 70.9097464, 20.7008305 ], [ 70.8976561, 20.7000694 ], [ 70.8969123, 20.7010179 ], [ 70.8989525, 20.7028557 ], [ 70.8979976, 20.7045585 ], [ 70.887741, 20.7092836 ], [ 70.8767733, 20.709677 ], [ 70.8748218, 20.7085657 ], [ 70.8742192, 20.7064145 ], [ 70.8709271, 20.7076177 ], [ 70.8724582, 20.7193057 ], [ 70.8757398, 20.7231613 ], [ 70.8767689, 20.7271863 ], [ 70.880475, 20.7301038 ], [ 70.9101055, 20.7368381 ], [ 70.915863, 20.742026 ], [ 70.9194928, 20.7430953 ], [ 70.9242929, 20.7406643 ], [ 70.9253626, 20.7379903 ] ] ], [ [ [ 71.1552444, 20.7599086 ], [ 71.1499138, 20.7594256 ], [ 71.1514538, 20.7615483 ], [ 71.1513205, 20.763875 ], [ 71.1529044, 20.7616233 ], [ 71.155262, 20.7610521 ], [ 71.1552444, 20.7599086 ] ] ], [ [ [ 71.1496743, 20.7711971 ], [ 71.1488283, 20.7661584 ], [ 71.1497172, 20.7619011 ], [ 71.1480177, 20.7582546 ], [ 71.1460738, 20.7589756 ], [ 71.1463915, 20.7713434 ], [ 71.1496743, 20.7711971 ] ] ] ] } }
]
}
