{
"type": "FeatureCollection",
"name": "2705",
"crs": { "type": "name", "properties": { "name": "urn:ogc:def:crs:OGC:1.3:CRS84" } },
"features": [
{ "type": "Feature", "properties": { "code": "2705", "name": "Akola", "type": "district" }, "geometry": { "type": "Polygon", "coordinates": [ [ [ 77.0456627, 21.2432401 ], [ 77.0511457, 21.2331331 ], [ 77.0562289, 21.2334487 ], [ 77.0596973, 21.2314351 ], [ 77.0616027, 21.2249508 ], [ 77.0666039, 21.2201588 ], [ 77.0719094, 21.2217508 ], [ 77.0751661, 21.2213826 ], [ 77.0806529, 21.2164432 ], [ 77.0847936, 21.2196768 ], [ 77.0856745, 21.2219314 ], [ 77.0887572, 21.2223158 ], [ 77.0931329, 21.2263305 ], [ 77.1061274, 21.2215534 ], [ 77.1090958, 21.2188672 ], [ 77.1178868, 21.2197099 ], [ 77.1190699, 21.2244901 ], [ 77.1257046, 21.2246769 ], [ 77.1276457, 21.2210365 ], [ 77.1303085, 21.2203822 ], [ 77.1421803, 21.2270162 ], [ 77.148705, 21.2275479 ], [ 77.1503902, 21.2322919 ], [ 77.1533686, 21.2345031 ], [ 77.1627569, 21.2347818 ], [ 77.1663426, 21.2375677 ], [ 77.1647731, 21.2432239 ], [ 77.1726172, 21.2435888 ], [ 77.1804148, 21.2413639 ], [ 77.190265, 21.242895 ], [ 77.1924862, 21.2413593 ], [ 77.1937317, 21.2365025 ], [ 77.191827, 21.2342657 ], [ 77.1920682, 21.2315169 ], [ 77.1906481, 21.2286718 ], [ 77.1741126, 21.2234669 ], [ 77.174529, 21.2216399 ], [ 77.1778206, 21.2193176 ], [ 77.1772851, 21.2114206 ], [ 77.1758137, 21.2082066 ], [ 77.1819588, 21.207639 ], [ 77.1836451, 21.2013358 ], [ 77.1785258, 21.1954963 ], [ 77.1796808, 21.191026 ], [ 77.1728622, 21.1913661 ], [ 77.1721827, 21.1867483 ], [ 77.1682711, 21.1870885 ], [ 77.1662072, 21.1844264 ], [ 77.1654593, 21.1772135 ], [ 77.1609925, 21.1676194 ], [ 77.1664664, 21.1664993 ], [ 77.1658188, 21.1652835 ], [ 77.1674917, 21.1647634 ], [ 77.1673785, 21.1629632 ], [ 77.1659759, 21.1563477 ], [ 77.1647327, 21.1564057 ], [ 77.1645003, 21.1509339 ], [ 77.1631592, 21.1510541 ], [ 77.1628114, 21.1467909 ], [ 77.1595351, 21.1454817 ], [ 77.1661924, 21.1440998 ], [ 77.1631184, 21.136264 ], [ 77.1648933, 21.13591 ], [ 77.1832025, 21.134438 ], [ 77.1921715, 21.1354818 ], [ 77.1932766, 21.1392889 ], [ 77.1962537, 21.1389416 ], [ 77.1961485, 21.1205275 ], [ 77.1848904, 21.1212576 ], [ 77.1795665, 21.1190732 ], [ 77.1717268, 21.1186261 ], [ 77.1718017, 21.0924508 ], [ 77.1731305, 21.0925329 ], [ 77.1733023, 21.0910644 ], [ 77.1756015, 21.0895889 ], [ 77.1757274, 21.086323 ], [ 77.1769976, 21.0854226 ], [ 77.1753637, 21.077703 ], [ 77.1765621, 21.0723911 ], [ 77.1740192, 21.0714328 ], [ 77.169745, 21.0732145 ], [ 77.1500772, 21.0720435 ], [ 77.1519996, 21.0614453 ], [ 77.1505662, 21.0544138 ], [ 77.1517715, 21.0478332 ], [ 77.1494392, 21.0391298 ], [ 77.1506758, 21.0349436 ], [ 77.1495676, 21.0339731 ], [ 77.1617918, 21.029503 ], [ 77.161026, 21.0262264 ], [ 77.1727881, 21.0235555 ], [ 77.1709579, 21.0105258 ], [ 77.1696103, 21.0106373 ], [ 77.1658201, 20.998355 ], [ 77.1684938, 20.9976561 ], [ 77.1676758, 20.9887084 ], [ 77.1457016, 20.9898195 ], [ 77.1335483, 20.988888 ], [ 77.1329271, 20.9762139 ], [ 77.1385673, 20.974324 ], [ 77.1598506, 20.9713389 ], [ 77.156303, 20.9624478 ], [ 77.1536586, 20.9625662 ], [ 77.1510708, 20.9490909 ], [ 77.1497602, 20.9480985 ], [ 77.1467697, 20.937813 ], [ 77.1445033, 20.9216082 ], [ 77.1380822, 20.922021 ], [ 77.1375294, 20.9183263 ], [ 77.1353522, 20.9183785 ], [ 77.1353835, 20.900314 ], [ 77.1376454, 20.8983811 ], [ 77.1368649, 20.8839962 ], [ 77.1356807, 20.8836816 ], [ 77.1355323, 20.8817038 ], [ 77.1374551, 20.8800745 ], [ 77.131622, 20.8797469 ], [ 77.1319096, 20.8705597 ], [ 77.1295478, 20.8632225 ], [ 77.1367, 20.861154 ], [ 77.142637, 20.8638211 ], [ 77.1515531, 20.861576 ], [ 77.1535516, 20.8592146 ], [ 77.1553371, 20.8595316 ], [ 77.1582069, 20.8623461 ], [ 77.1558524, 20.8670443 ], [ 77.1587456, 20.8706009 ], [ 77.162007, 20.8696085 ], [ 77.1647001, 20.8634823 ], [ 77.1704024, 20.8597667 ], [ 77.1692026, 20.854419 ], [ 77.1801313, 20.8504235 ], [ 77.1960951, 20.8540984 ], [ 77.2115304, 20.8485336 ], [ 77.2161017, 20.8578649 ], [ 77.2217149, 20.8585344 ], [ 77.2268589, 20.8557451 ], [ 77.238875, 20.8561554 ], [ 77.2448174, 20.8529447 ], [ 77.2471713, 20.8529362 ], [ 77.2518324, 20.8554527 ], [ 77.255062, 20.8521391 ], [ 77.2560799, 20.8474099 ], [ 77.2580372, 20.8457272 ], [ 77.2606887, 20.8458215 ], [ 77.2646182, 20.8512158 ], [ 77.2710898, 20.8531309 ], [ 77.2858512, 20.8463739 ], [ 77.2892344, 20.8497602 ], [ 77.2945293, 20.8486969 ], [ 77.3027822, 20.8492338 ], [ 77.3069941, 20.8512483 ], [ 77.3085569, 20.853561 ], [ 77.3121648, 20.8540137 ], [ 77.3144824, 20.8579164 ], [ 77.3184315, 20.8559266 ], [ 77.317987, 20.8514689 ], [ 77.3207167, 20.8515119 ], [ 77.3195673, 20.8554381 ], [ 77.3259281, 20.8538099 ], [ 77.3273238, 20.8491784 ], [ 77.3374334, 20.8433468 ], [ 77.3414599, 20.8451414 ], [ 77.3445516, 20.8430881 ], [ 77.3533816, 20.8480985 ], [ 77.3628344, 20.8477556 ], [ 77.3712229, 20.8455338 ], [ 77.3747387, 20.8428262 ], [ 77.3840562, 20.8434223 ], [ 77.3873168, 20.8457279 ], [ 77.3892505, 20.8452544 ], [ 77.3915338, 20.8413821 ], [ 77.394293, 20.8409095 ], [ 77.3954646, 20.8415973 ], [ 77.3956799, 20.8442106 ], [ 77.3995074, 20.8461324 ], [ 77.4120922, 20.8458701 ], [ 77.4129541, 20.8427221 ], [ 77.418037, 20.8427966 ], [ 77.424932, 20.8479307 ], [ 77.4279996, 20.845576 ], [ 77.4322097, 20.8469049 ], [ 77.4324219, 20.8435602 ], [ 77.4336885, 20.8424896 ], [ 77.4359168, 20.8438979 ], [ 77.4375142, 20.8538591 ], [ 77.4423548, 20.8512941 ], [ 77.4443575, 20.8526694 ], [ 77.4475837, 20.8522492 ], [ 77.4538552, 20.8587889 ], [ 77.4534295, 20.8608798 ], [ 77.4549382, 20.8580679 ], [ 77.4552852, 20.8611558 ], [ 77.4574621, 20.8637334 ], [ 77.4576832, 20.8673873 ], [ 77.4606384, 20.8672144 ], [ 77.4576031, 20.8711947 ], [ 77.462723, 20.871884 ], [ 77.4633627, 20.8737538 ], [ 77.4607229, 20.8757823 ], [ 77.4650893, 20.8796227 ], [ 77.4663602, 20.8792712 ], [ 77.4654337, 20.8765553 ], [ 77.4678036, 20.8759801 ], [ 77.4696121, 20.8782857 ], [ 77.4744956, 20.8760944 ], [ 77.4742358, 20.879392 ], [ 77.4796765, 20.8789568 ], [ 77.4763899, 20.8684853 ], [ 77.4755558, 20.8608248 ], [ 77.4770021, 20.8608123 ], [ 77.4775434, 20.8626617 ], [ 77.4817339, 20.8626098 ], [ 77.499498, 20.8601334 ], [ 77.4991322, 20.8570003 ], [ 77.5152396, 20.8536871 ], [ 77.5166386, 20.8510577 ], [ 77.5267647, 20.8516497 ], [ 77.5268777, 20.8500537 ], [ 77.5329053, 20.850335 ], [ 77.533072, 20.8546555 ], [ 77.5400542, 20.8548693 ], [ 77.5408796, 20.8559882 ], [ 77.5506601, 20.8545966 ], [ 77.5534989, 20.8247404 ], [ 77.5594454, 20.8241069 ], [ 77.5586167, 20.8227891 ], [ 77.5609697, 20.818787 ], [ 77.5652816, 20.8186382 ], [ 77.5691579, 20.8084514 ], [ 77.58745, 20.8081301 ], [ 77.5925604, 20.8103957 ], [ 77.5926457, 20.8047615 ], [ 77.5975667, 20.8037632 ], [ 77.602918, 20.800869 ], [ 77.610195, 20.7996588 ], [ 77.6113183, 20.7786275 ], [ 77.6194144, 20.7794248 ], [ 77.614235, 20.7593855 ], [ 77.6198045, 20.7568245 ], [ 77.6146414, 20.7365704 ], [ 77.6128698, 20.7364778 ], [ 77.6104691, 20.7175603 ], [ 77.5982229, 20.7183701 ], [ 77.5983246, 20.7200176 ], [ 77.5936253, 20.722848 ], [ 77.5907711, 20.7264109 ], [ 77.5778859, 20.7269157 ], [ 77.5773973, 20.7191695 ], [ 77.5759393, 20.7183451 ], [ 77.5730449, 20.7053724 ], [ 77.5652785, 20.7074895 ], [ 77.5634349, 20.7010507 ], [ 77.5497386, 20.703901 ], [ 77.5455972, 20.7026232 ], [ 77.5265672, 20.701459 ], [ 77.5235121, 20.6973121 ], [ 77.5395613, 20.6965349 ], [ 77.54281, 20.6845613 ], [ 77.5432439, 20.6782762 ], [ 77.5380991, 20.6775717 ], [ 77.5138513, 20.6816818 ], [ 77.5134079, 20.6782541 ], [ 77.5152982, 20.673287 ], [ 77.5108422, 20.6644117 ], [ 77.5041689, 20.6648593 ], [ 77.502986, 20.6716282 ], [ 77.501272, 20.6718871 ], [ 77.5008662, 20.6749 ], [ 77.4930753, 20.6828854 ], [ 77.4810121, 20.682045 ], [ 77.4837742, 20.6632087 ], [ 77.4856457, 20.6622549 ], [ 77.4846827, 20.6571062 ], [ 77.4785913, 20.6551544 ], [ 77.4693015, 20.6569132 ], [ 77.4691001, 20.6580799 ], [ 77.4635899, 20.6601882 ], [ 77.4613614, 20.6658699 ], [ 77.4538216, 20.6646832 ], [ 77.4526151, 20.6568593 ], [ 77.4308869, 20.6622577 ], [ 77.4303329, 20.6605646 ], [ 77.4325494, 20.6575434 ], [ 77.4384218, 20.6531646 ], [ 77.4385184, 20.6429854 ], [ 77.4425958, 20.6422909 ], [ 77.4453193, 20.6392962 ], [ 77.4517563, 20.6381555 ], [ 77.4513133, 20.6344128 ], [ 77.4647831, 20.6282792 ], [ 77.4670713, 20.610911 ], [ 77.4597674, 20.6097237 ], [ 77.431034, 20.6122954 ], [ 77.4108683, 20.6069199 ], [ 77.4140563, 20.6039463 ], [ 77.4143598, 20.6020285 ], [ 77.4128021, 20.5940258 ], [ 77.4098536, 20.5944725 ], [ 77.4092593, 20.5870738 ], [ 77.3994438, 20.5853167 ], [ 77.3956785, 20.5798101 ], [ 77.3656875, 20.5833338 ], [ 77.3657052, 20.577746 ], [ 77.3620835, 20.5676356 ], [ 77.3498454, 20.5699483 ], [ 77.339443, 20.5752645 ], [ 77.3353797, 20.548649 ], [ 77.3411993, 20.5474344 ], [ 77.3372393, 20.5377993 ], [ 77.3363372, 20.525784 ], [ 77.3486496, 20.5215358 ], [ 77.3644096, 20.5181902 ], [ 77.3670813, 20.5194156 ], [ 77.3683279, 20.5254883 ], [ 77.3818344, 20.5245305 ], [ 77.3956662, 20.5254405 ], [ 77.388981, 20.5016967 ], [ 77.3872412, 20.4975675 ], [ 77.3840379, 20.4953353 ], [ 77.3832144, 20.486876 ], [ 77.3816332, 20.4831458 ], [ 77.3679285, 20.4800251 ], [ 77.3701954, 20.4876209 ], [ 77.3698774, 20.4956964 ], [ 77.3680527, 20.4965299 ], [ 77.3633332, 20.4974176 ], [ 77.3403694, 20.4963955 ], [ 77.3274765, 20.4979742 ], [ 77.324827, 20.4870321 ], [ 77.33923, 20.4837753 ], [ 77.3441231, 20.480538 ], [ 77.343427, 20.4716359 ], [ 77.3332097, 20.4725679 ], [ 77.3322268, 20.470058 ], [ 77.3263109, 20.4648135 ], [ 77.3246052, 20.4521247 ], [ 77.3254766, 20.450316 ], [ 77.3180779, 20.4505624 ], [ 77.3138349, 20.4523138 ], [ 77.3140527, 20.4497028 ], [ 77.3030655, 20.4461069 ], [ 77.2980343, 20.4458669 ], [ 77.2961482, 20.4394438 ], [ 77.2955825, 20.4285833 ], [ 77.2966578, 20.4251102 ], [ 77.2951566, 20.4215761 ], [ 77.28456, 20.4183325 ], [ 77.2818322, 20.4189324 ], [ 77.2777075, 20.4236341 ], [ 77.2777649, 20.4305933 ], [ 77.2733799, 20.4326713 ], [ 77.2712649, 20.4415886 ], [ 77.2671644, 20.4484858 ], [ 77.2663021, 20.4586036 ], [ 77.2542265, 20.457958 ], [ 77.2468149, 20.4597405 ], [ 77.2457091, 20.4603504 ], [ 77.2467897, 20.4723685 ], [ 77.2402168, 20.473742 ], [ 77.2295718, 20.4733946 ], [ 77.2257086, 20.4556603 ], [ 77.2251718, 20.4474121 ], [ 77.2125211, 20.4478946 ], [ 77.2095456, 20.4449601 ], [ 77.2064042, 20.4480037 ], [ 77.2016754, 20.4495592 ], [ 77.1957969, 20.4491361 ], [ 77.189825, 20.4468958 ], [ 77.1855506, 20.4473845 ], [ 77.1823278, 20.4373163 ], [ 77.1828621, 20.4317289 ], [ 77.1886367, 20.4299643 ], [ 77.1909436, 20.4238183 ], [ 77.1972068, 20.4237584 ], [ 77.1972442, 20.42222 ], [ 77.196993, 20.4151752 ], [ 77.1950942, 20.4091907 ], [ 77.1914431, 20.4022917 ], [ 77.1895264, 20.4024261 ], [ 77.1850666, 20.3984085 ], [ 77.1804074, 20.397534 ], [ 77.1743349, 20.4009228 ], [ 77.1712618, 20.4011779 ], [ 77.1694788, 20.3991814 ], [ 77.15152, 20.3991385 ], [ 77.1520968, 20.3925642 ], [ 77.1455891, 20.3863752 ], [ 77.1440355, 20.3805286 ], [ 77.1420568, 20.380152 ], [ 77.1381503, 20.3851371 ], [ 77.1364838, 20.3914088 ], [ 77.1319131, 20.3903959 ], [ 77.132642, 20.3952061 ], [ 77.1303963, 20.3988949 ], [ 77.1272718, 20.3990055 ], [ 77.1211111, 20.4027715 ], [ 77.1202115, 20.4111011 ], [ 77.1158929, 20.4079985 ], [ 77.1132402, 20.4116226 ], [ 77.104935, 20.4109717 ], [ 77.1029435, 20.4152125 ], [ 77.0851669, 20.4193564 ], [ 77.0852218, 20.4223171 ], [ 77.0796115, 20.423858 ], [ 77.0731361, 20.4014759 ], [ 77.0745035, 20.3936113 ], [ 77.0811901, 20.3904479 ], [ 77.080824, 20.3882376 ], [ 77.0780587, 20.3861574 ], [ 77.0733049, 20.3865235 ], [ 77.072685, 20.3854274 ], [ 77.0687345, 20.3852781 ], [ 77.0682899, 20.3828597 ], [ 77.0624579, 20.3813573 ], [ 77.0453342, 20.3865507 ], [ 77.0455627, 20.3934017 ], [ 77.0498208, 20.4017952 ], [ 77.0509454, 20.4074218 ], [ 77.046838, 20.4158478 ], [ 77.047105, 20.4193072 ], [ 77.0596589, 20.4394351 ], [ 77.0590242, 20.4453718 ], [ 77.0573242, 20.4470477 ], [ 77.0447875, 20.449663 ], [ 77.0223142, 20.4499191 ], [ 77.0214113, 20.443194 ], [ 77.0141165, 20.433239 ], [ 77.0131911, 20.4212198 ], [ 77.0144812, 20.412715 ], [ 77.0035061, 20.4147502 ], [ 77.0018242, 20.4113596 ], [ 76.9935798, 20.4090414 ], [ 76.9910117, 20.4043439 ], [ 76.9957604, 20.398028 ], [ 76.9953054, 20.3935457 ], [ 76.9893491, 20.3944786 ], [ 76.9863383, 20.3891643 ], [ 76.9811242, 20.3877811 ], [ 76.9810373, 20.380086 ], [ 76.9766805, 20.3812467 ], [ 76.9744645, 20.380373 ], [ 76.9735695, 20.3774919 ], [ 76.9779901, 20.3728293 ], [ 76.9779851, 20.3703485 ], [ 76.9646605, 20.3676398 ], [ 76.9570673, 20.3634481 ], [ 76.9533094, 20.3634675 ], [ 76.949084, 20.3655692 ], [ 76.9430763, 20.3653742 ], [ 76.9404137, 20.3689917 ], [ 76.9361724, 20.3706121 ], [ 76.9332676, 20.3667654 ], [ 76.9319924, 20.3570392 ], [ 76.9305789, 20.357209 ], [ 76.9297889, 20.3558162 ], [ 76.919469, 20.3596361 ], [ 76.9167084, 20.3513478 ], [ 76.9047779, 20.3444825 ], [ 76.8967323, 20.3344275 ], [ 76.8962193, 20.3287621 ], [ 76.8936384, 20.3225445 ], [ 76.8917075, 20.3207765 ], [ 76.8925908, 20.3182958 ], [ 76.8915488, 20.317021 ], [ 76.9023851, 20.3131863 ], [ 76.9088331, 20.3131114 ], [ 76.8932847, 20.3041275 ], [ 76.880811, 20.2941647 ], [ 76.8776391, 20.2880351 ], [ 76.8821227, 20.2849617 ], [ 76.8802089, 20.2797047 ], [ 76.8728377, 20.2752295 ], [ 76.8686966, 20.2778622 ], [ 76.8658426, 20.2820461 ], [ 76.8658385, 20.2906114 ], [ 76.8620629, 20.2967281 ], [ 76.85825, 20.299371 ], [ 76.852184, 20.3002149 ], [ 76.8502483, 20.2976156 ], [ 76.8377579, 20.2960466 ], [ 76.8367873, 20.2942777 ], [ 76.8380096, 20.2890773 ], [ 76.8354105, 20.2876756 ], [ 76.8323138, 20.282763 ], [ 76.8116695, 20.2779652 ], [ 76.8059334, 20.2882823 ], [ 76.8043551, 20.2867333 ], [ 76.7911253, 20.2868582 ], [ 76.7860487, 20.2894421 ], [ 76.7886217, 20.3098829 ], [ 76.7923456, 20.3141653 ], [ 76.7847104, 20.3180107 ], [ 76.7680129, 20.3216871 ], [ 76.7655934, 20.316349 ], [ 76.7536993, 20.3266873 ], [ 76.7444845, 20.3275909 ], [ 76.7426428, 20.3287899 ], [ 76.7424805, 20.3302012 ], [ 76.7450442, 20.3303253 ], [ 76.7451466, 20.3373909 ], [ 76.7350898, 20.3399174 ], [ 76.7269491, 20.3373022 ], [ 76.728379, 20.3429186 ], [ 76.6999446, 20.3519567 ], [ 76.7045649, 20.3624369 ], [ 76.7049219, 20.3744924 ], [ 76.7096304, 20.3802581 ], [ 76.7087625, 20.3845916 ], [ 76.7145958, 20.3856134 ], [ 76.7233716, 20.3895925 ], [ 76.7268404, 20.39872 ], [ 76.7265316, 20.4070676 ], [ 76.7222441, 20.4116106 ], [ 76.7228276, 20.4154314 ], [ 76.71995, 20.4157091 ], [ 76.7191672, 20.4183313 ], [ 76.7127428, 20.4185882 ], [ 76.7130285, 20.4316026 ], [ 76.7142171, 20.4352044 ], [ 76.7134407, 20.4384123 ], [ 76.707653, 20.4420677 ], [ 76.7079979, 20.4434578 ], [ 76.7020403, 20.4496637 ], [ 76.6988358, 20.4554406 ], [ 76.6930725, 20.4591287 ], [ 76.6996494, 20.4712334 ], [ 76.7064574, 20.4709868 ], [ 76.711377, 20.4732601 ], [ 76.7060481, 20.4794272 ], [ 76.705747, 20.487339 ], [ 76.7107234, 20.5059542 ], [ 76.7156781, 20.5154382 ], [ 76.7172752, 20.5137718 ], [ 76.7220647, 20.5141285 ], [ 76.7260185, 20.5166021 ], [ 76.7257836, 20.5124359 ], [ 76.7312709, 20.5135371 ], [ 76.7354309, 20.5113834 ], [ 76.7378691, 20.4966644 ], [ 76.73739, 20.4949731 ], [ 76.7336249, 20.4931256 ], [ 76.7352624, 20.4930806 ], [ 76.7451381, 20.4967096 ], [ 76.7454798, 20.4953564 ], [ 76.7466948, 20.4954642 ], [ 76.7472437, 20.4979583 ], [ 76.7521029, 20.5028128 ], [ 76.7524043, 20.5112426 ], [ 76.7601999, 20.5101041 ], [ 76.7704399, 20.5178627 ], [ 76.7704022, 20.5366894 ], [ 76.771969, 20.5451449 ], [ 76.7776697, 20.5557681 ], [ 76.7801868, 20.5662336 ], [ 76.7831363, 20.5725179 ], [ 76.7710095, 20.5738915 ], [ 76.7690103, 20.5744037 ], [ 76.7687601, 20.5757175 ], [ 76.7735999, 20.580286 ], [ 76.77674, 20.5871855 ], [ 76.7878083, 20.5872757 ], [ 76.786375, 20.5911684 ], [ 76.7888797, 20.5952282 ], [ 76.7817776, 20.6033108 ], [ 76.7607581, 20.6029798 ], [ 76.7634835, 20.6126248 ], [ 76.7705885, 20.6263138 ], [ 76.7499448, 20.6301389 ], [ 76.7532336, 20.6364137 ], [ 76.7526566, 20.6387899 ], [ 76.7562282, 20.644649 ], [ 76.7556201, 20.6460844 ], [ 76.7601023, 20.6488733 ], [ 76.7591193, 20.6516959 ], [ 76.7558954, 20.6560041 ], [ 76.7536046, 20.6545725 ], [ 76.7324015, 20.6559482 ], [ 76.7359837, 20.6648598 ], [ 76.7383363, 20.664217 ], [ 76.7388319, 20.6663994 ], [ 76.7408327, 20.6795085 ], [ 76.7382073, 20.6797194 ], [ 76.7393798, 20.6872077 ], [ 76.7228315, 20.6899624 ], [ 76.7257206, 20.7002447 ], [ 76.7327408, 20.6963344 ], [ 76.7358303, 20.7163044 ], [ 76.7373546, 20.7154043 ], [ 76.7512266, 20.7154433 ], [ 76.7511623, 20.7170299 ], [ 76.7633721, 20.7203407 ], [ 76.7632182, 20.7264365 ], [ 76.757066, 20.7284561 ], [ 76.7540137, 20.7386465 ], [ 76.7577125, 20.7474349 ], [ 76.7578241, 20.7524465 ], [ 76.7637716, 20.7563008 ], [ 76.7709464, 20.7640183 ], [ 76.7729407, 20.7765683 ], [ 76.7647033, 20.7930661 ], [ 76.762493, 20.7948435 ], [ 76.7444967, 20.7969335 ], [ 76.7444642, 20.8029545 ], [ 76.7470804, 20.81746 ], [ 76.7454855, 20.8175571 ], [ 76.7453845, 20.8238228 ], [ 76.7541967, 20.8248948 ], [ 76.7510183, 20.8351753 ], [ 76.7553124, 20.8389933 ], [ 76.7553782, 20.8462624 ], [ 76.7578515, 20.8460574 ], [ 76.7584072, 20.8485954 ], [ 76.7607324, 20.8492667 ], [ 76.7604091, 20.8538115 ], [ 76.7634474, 20.8544737 ], [ 76.7643941, 20.8571 ], [ 76.7545213, 20.8646243 ], [ 76.7534108, 20.873857 ], [ 76.7500181, 20.871394 ], [ 76.7462254, 20.8714384 ], [ 76.7456536, 20.8730509 ], [ 76.7473689, 20.8765918 ], [ 76.744605, 20.8806705 ], [ 76.7445849, 20.8872759 ], [ 76.7420306, 20.8883373 ], [ 76.7366942, 20.8877487 ], [ 76.7340476, 20.8890922 ], [ 76.7300629, 20.8840842 ], [ 76.726709, 20.8836079 ], [ 76.7217139, 20.8900875 ], [ 76.7178258, 20.8914283 ], [ 76.7178795, 20.8984248 ], [ 76.7142775, 20.8987893 ], [ 76.7069762, 20.9026134 ], [ 76.707392, 20.9074877 ], [ 76.695749, 20.9065503 ], [ 76.69866, 20.9121084 ], [ 76.6911173, 20.9178376 ], [ 76.6991398, 20.92057 ], [ 76.7119047, 20.9209687 ], [ 76.7189162, 20.9174024 ], [ 76.7262984, 20.9202905 ], [ 76.7320641, 20.9203254 ], [ 76.7356665, 20.9249124 ], [ 76.7444837, 20.928618 ], [ 76.7464939, 20.9281434 ], [ 76.7497913, 20.9233179 ], [ 76.7536169, 20.9210715 ], [ 76.7670985, 20.923421 ], [ 76.774442, 20.9212207 ], [ 76.7771806, 20.9160258 ], [ 76.7801404, 20.9151293 ], [ 76.7805318, 20.9138701 ], [ 76.7759262, 20.9114798 ], [ 76.7752572, 20.9089643 ], [ 76.7841354, 20.9080559 ], [ 76.7902192, 20.9155963 ], [ 76.790308, 20.9171511 ], [ 76.7877154, 20.9173582 ], [ 76.7869551, 20.9203319 ], [ 76.7881152, 20.9279176 ], [ 76.7858218, 20.927979 ], [ 76.7839535, 20.9304057 ], [ 76.7813751, 20.9298847 ], [ 76.7795118, 20.9311507 ], [ 76.7770674, 20.9288463 ], [ 76.7757962, 20.9314368 ], [ 76.7824019, 20.9408328 ], [ 76.7866052, 20.940048 ], [ 76.7890713, 20.9538816 ], [ 76.7891302, 20.9625346 ], [ 76.8005855, 20.9601841 ], [ 76.8091613, 20.956578 ], [ 76.810062, 20.9589831 ], [ 76.8090651, 20.9600075 ], [ 76.8113507, 20.9601802 ], [ 76.8112196, 20.9614389 ], [ 76.8082107, 20.9627706 ], [ 76.8077533, 20.9669212 ], [ 76.8117273, 20.9676236 ], [ 76.8118997, 20.9687744 ], [ 76.8078854, 20.9692111 ], [ 76.8061722, 20.9717845 ], [ 76.7839456, 20.9727577 ], [ 76.7841539, 20.9891787 ], [ 76.7758514, 20.9901149 ], [ 76.7757299, 20.9956719 ], [ 76.7785009, 21.0000647 ], [ 76.7961843, 21.0040365 ], [ 76.7948559, 21.0065278 ], [ 76.7973467, 21.0107496 ], [ 76.7966454, 21.0122529 ], [ 76.7979424, 21.0136864 ], [ 76.7968468, 21.0160115 ], [ 76.7984993, 21.0189978 ], [ 76.7949737, 21.0210085 ], [ 76.7932281, 21.0238289 ], [ 76.793785, 21.0270981 ], [ 76.7781034, 21.0283682 ], [ 76.7772333, 21.0240527 ], [ 76.7719067, 21.0240402 ], [ 76.7734855, 21.0310821 ], [ 76.771557, 21.0330411 ], [ 76.7713666, 21.0368743 ], [ 76.7635707, 21.0373764 ], [ 76.7696646, 21.0436679 ], [ 76.7750599, 21.0465433 ], [ 76.773883, 21.0478142 ], [ 76.7749877, 21.0522415 ], [ 76.7813391, 21.0512782 ], [ 76.7849634, 21.0719464 ], [ 76.7756767, 21.0743779 ], [ 76.7740389, 21.0768769 ], [ 76.7732865, 21.0845342 ], [ 76.776175, 21.0885499 ], [ 76.7829406, 21.0910829 ], [ 76.7833664, 21.0965793 ], [ 76.7888636, 21.1044615 ], [ 76.7891235, 21.1094636 ], [ 76.7873865, 21.1118388 ], [ 76.7876413, 21.1149601 ], [ 76.7906829, 21.1208918 ], [ 76.7904903, 21.1227107 ], [ 76.7845597, 21.1252209 ], [ 76.7817899, 21.1359067 ], [ 76.7777304, 21.1379559 ], [ 76.7756947, 21.1405197 ], [ 76.7787957, 21.1453436 ], [ 76.7791957, 21.1490154 ], [ 76.7777498, 21.1498428 ], [ 76.7760173, 21.1477066 ], [ 76.7735747, 21.1474203 ], [ 76.7717719, 21.1491773 ], [ 76.7720037, 21.1535001 ], [ 76.7757491, 21.1597687 ], [ 76.7757248, 21.1646025 ], [ 76.7781329, 21.1646774 ], [ 76.7757051, 21.1707533 ], [ 76.7716306, 21.1763148 ], [ 76.771247, 21.1827849 ], [ 76.7729116, 21.1849447 ], [ 76.7817167, 21.1886095 ], [ 76.7867625, 21.1871974 ], [ 76.7900912, 21.1829674 ], [ 76.8154306, 21.1872208 ], [ 76.8329663, 21.1853194 ], [ 76.8477646, 21.1927861 ], [ 76.8543807, 21.1870293 ], [ 76.8572791, 21.1893745 ], [ 76.871501, 21.1913689 ], [ 76.8728347, 21.1905402 ], [ 76.8832009, 21.1939182 ], [ 76.8892271, 21.1944854 ], [ 76.889511, 21.1966337 ], [ 76.895883, 21.1984294 ], [ 76.9021672, 21.1983735 ], [ 76.9095511, 21.2004291 ], [ 76.9195353, 21.2000648 ], [ 76.9241424, 21.1986255 ], [ 76.9413624, 21.1995186 ], [ 76.9535857, 21.1954353 ], [ 76.9638931, 21.1951368 ], [ 76.9664534, 21.1974401 ], [ 76.9736097, 21.1971922 ], [ 76.9720588, 21.2003611 ], [ 76.978932, 21.1972889 ], [ 76.9827427, 21.1970865 ], [ 76.9840503, 21.1991972 ], [ 76.9982134, 21.1958104 ], [ 76.9981971, 21.2024562 ], [ 77.0042266, 21.2032458 ], [ 77.0038137, 21.2050148 ], [ 77.0061107, 21.2073555 ], [ 77.0062313, 21.2136032 ], [ 77.0037608, 21.2182749 ], [ 77.005832, 21.2231027 ], [ 77.0061269, 21.2290602 ], [ 77.0125605, 21.2336275 ], [ 77.0136467, 21.2374585 ], [ 77.0204124, 21.2364401 ], [ 77.0244618, 21.2454307 ], [ 77.0331167, 21.2480313 ], [ 77.0456627, 21.2432401 ] ] ] } }
]
}
