{
"type": "FeatureCollection",
"name": "2706",
"crs": { "type": "name", "properties": { "name": "urn:ogc:def:crs:OGC:1.3:CRS84" } },
"features": [
{ "type": "Feature", "properties": { "code": "2706", "name": "Washim", "type": "district" }, "geometry": { "type": "MultiPolygon", "coordinates": [ [ [ [ 77.5778859, 20.7269157 ], [ 77.5907711, 20.7264109 ], [ 77.5936253, 20.722848 ], [ 77.5983246, 20.7200176 ], [ 77.5982229, 20.7183701 ], [ 77.6213061, 20.7166639 ], [ 77.6340184, 20.7128849 ], [ 77.6348732, 20.7115756 ], [ 77.63183, 20.7084773 ], [ 77.6313915, 20.7014549 ], [ 77.6379336, 20.6943821 ], [ 77.6369945, 20.6858747 ], [ 77.6324246, 20.6714175 ], [ 77.6361973, 20.6700465 ], [ 77.6346658, 20.658229 ], [ 77.6435597, 20.659403 ], [ 77.6476014, 20.661542 ], [ 77.6537946, 20.6618515 ], [ 77.6548522, 20.6593629 ], [ 77.6482768, 20.6486909 ], [ 77.6597158, 20.6461918 ], [ 77.6586399, 20.636467 ], [ 77.6540691, 20.6322956 ], [ 77.6528794, 20.6254167 ], [ 77.6502727, 20.6255204 ], [ 77.6480859, 20.6219681 ], [ 77.6463826, 20.608513 ], [ 77.647091, 20.60466 ], [ 77.6448561, 20.6049312 ], [ 77.6382203, 20.585591 ], [ 77.6343914, 20.5786984 ], [ 77.6325308, 20.5790336 ], [ 77.6280728, 20.5666031 ], [ 77.6504043, 20.5639828 ], [ 77.6492479, 20.5538796 ], [ 77.6429333, 20.5316928 ], [ 77.653639, 20.5312566 ], [ 77.6557172, 20.5337474 ], [ 77.6687941, 20.5399841 ], [ 77.6907119, 20.534008 ], [ 77.6896536, 20.524125 ], [ 77.6857525, 20.5193925 ], [ 77.6817222, 20.5204191 ], [ 77.6671925, 20.5171403 ], [ 77.6649127, 20.5125337 ], [ 77.6622537, 20.5004424 ], [ 77.6579218, 20.5001769 ], [ 77.6533629, 20.4977801 ], [ 77.6529025, 20.4952501 ], [ 77.6557623, 20.4948807 ], [ 77.6540313, 20.4806391 ], [ 77.6483747, 20.471881 ], [ 77.6492464, 20.4596516 ], [ 77.6428591, 20.4503356 ], [ 77.6347993, 20.4525198 ], [ 77.6327071, 20.4549842 ], [ 77.6296901, 20.4555309 ], [ 77.6251762, 20.458629 ], [ 77.6135783, 20.4610281 ], [ 77.6123687, 20.4556385 ], [ 77.6055209, 20.455913 ], [ 77.603532, 20.4513058 ], [ 77.596462, 20.4480699 ], [ 77.6015467, 20.4461991 ], [ 77.6037715, 20.4418269 ], [ 77.6040043, 20.4369512 ], [ 77.6036988, 20.4356174 ], [ 77.5930805, 20.4288336 ], [ 77.5901914, 20.4292251 ], [ 77.5922708, 20.4213932 ], [ 77.5950875, 20.4196171 ], [ 77.5960814, 20.4173578 ], [ 77.5957604, 20.4123395 ], [ 77.5844496, 20.4174324 ], [ 77.5814201, 20.4152671 ], [ 77.5809324, 20.4077696 ], [ 77.5765921, 20.4022211 ], [ 77.5738655, 20.4006699 ], [ 77.5719316, 20.3878745 ], [ 77.5756981, 20.3740543 ], [ 77.576316, 20.3727614 ], [ 77.5788875, 20.3722526 ], [ 77.574902, 20.3659856 ], [ 77.5688031, 20.3598658 ], [ 77.5689593, 20.3526318 ], [ 77.5673616, 20.3462006 ], [ 77.5674713, 20.3296293 ], [ 77.5721642, 20.3287722 ], [ 77.575193, 20.3309349 ], [ 77.5790178, 20.3264616 ], [ 77.5843571, 20.3269611 ], [ 77.5832623, 20.3213263 ], [ 77.5879152, 20.306464 ], [ 77.5925715, 20.3050972 ], [ 77.5947987, 20.3030492 ], [ 77.5937779, 20.299115 ], [ 77.594327, 20.2807285 ], [ 77.5974514, 20.2807222 ], [ 77.5984957, 20.2819961 ], [ 77.6102569, 20.2788317 ], [ 77.6094874, 20.2716651 ], [ 77.6103518, 20.2641215 ], [ 77.633508, 20.2614105 ], [ 77.6435931, 20.2505905 ], [ 77.6575859, 20.249355 ], [ 77.6654339, 20.2473988 ], [ 77.6653789, 20.2414814 ], [ 77.6526904, 20.2146746 ], [ 77.6521713, 20.2105208 ], [ 77.6577912, 20.2072707 ], [ 77.6574553, 20.2053739 ], [ 77.6546505, 20.1991129 ], [ 77.6512014, 20.196934 ], [ 77.6442528, 20.186948 ], [ 77.6495444, 20.1857536 ], [ 77.6489995, 20.1751552 ], [ 77.6522806, 20.1741189 ], [ 77.6526241, 20.1716853 ], [ 77.6630056, 20.1735953 ], [ 77.6681819, 20.1723484 ], [ 77.6682559, 20.1709241 ], [ 77.6720553, 20.1700529 ], [ 77.6716771, 20.1687063 ], [ 77.6751798, 20.1670653 ], [ 77.6762251, 20.1678223 ], [ 77.679465, 20.166688 ], [ 77.6775178, 20.1614157 ], [ 77.6771047, 20.1548967 ], [ 77.6753962, 20.153356 ], [ 77.6737749, 20.1476904 ], [ 77.6757764, 20.1439861 ], [ 77.6819989, 20.1443066 ], [ 77.6821253, 20.1409904 ], [ 77.6774844, 20.1305587 ], [ 77.6703517, 20.1198546 ], [ 77.6712237, 20.1128043 ], [ 77.6689342, 20.1024369 ], [ 77.6666902, 20.1004134 ], [ 77.66636, 20.0982976 ], [ 77.6597328, 20.0993081 ], [ 77.6597858, 20.0960705 ], [ 77.6567204, 20.0977152 ], [ 77.6552716, 20.0800036 ], [ 77.6494941, 20.076847 ], [ 77.6416136, 20.0751412 ], [ 77.6404757, 20.0737186 ], [ 77.6402304, 20.0607098 ], [ 77.6372029, 20.0584592 ], [ 77.6374284, 20.0547537 ], [ 77.6299872, 20.0452924 ], [ 77.6270622, 20.0457682 ], [ 77.6241622, 20.0415305 ], [ 77.6152329, 20.0403593 ], [ 77.6139853, 20.0373603 ], [ 77.611475, 20.038517 ], [ 77.6075935, 20.0359428 ], [ 77.6038228, 20.0362847 ], [ 77.6010321, 20.0346259 ], [ 77.5961867, 20.0378506 ], [ 77.5955646, 20.0361527 ], [ 77.5900619, 20.0320745 ], [ 77.584616, 20.0335256 ], [ 77.5806723, 20.028832 ], [ 77.5720846, 20.0358095 ], [ 77.5683572, 20.0427727 ], [ 77.5658243, 20.0425475 ], [ 77.5601927, 20.0482935 ], [ 77.5549045, 20.0474562 ], [ 77.5523413, 20.0555995 ], [ 77.5537038, 20.0571128 ], [ 77.5515823, 20.0591507 ], [ 77.5501983, 20.06551 ], [ 77.5437528, 20.0670491 ], [ 77.540091, 20.0699375 ], [ 77.5365831, 20.076361 ], [ 77.5363926, 20.0797363 ], [ 77.5263197, 20.0902727 ], [ 77.5242986, 20.0955515 ], [ 77.5248234, 20.0980883 ], [ 77.5195374, 20.0935392 ], [ 77.498688, 20.0850896 ], [ 77.4944113, 20.0787582 ], [ 77.485611, 20.0773279 ], [ 77.4792676, 20.0844334 ], [ 77.4766774, 20.0803574 ], [ 77.472259, 20.0779771 ], [ 77.4643309, 20.0695522 ], [ 77.4594785, 20.069363 ], [ 77.4461382, 20.070397 ], [ 77.4421061, 20.0735246 ], [ 77.4354357, 20.0740371 ], [ 77.4212153, 20.0786749 ], [ 77.4183659, 20.0784133 ], [ 77.407792, 20.0836744 ], [ 77.4056196, 20.0830002 ], [ 77.3834518, 20.0864954 ], [ 77.364844, 20.0983314 ], [ 77.3682262, 20.0940722 ], [ 77.3691614, 20.0890511 ], [ 77.3644979, 20.0821977 ], [ 77.356195, 20.0772378 ], [ 77.3537586, 20.0707764 ], [ 77.3521335, 20.0704171 ], [ 77.3532354, 20.0671004 ], [ 77.3524342, 20.0643152 ], [ 77.3536639, 20.064498 ], [ 77.3537879, 20.062663 ], [ 77.3630837, 20.0562247 ], [ 77.3725973, 20.0468861 ], [ 77.3604728, 20.0261624 ], [ 77.3541125, 20.0202044 ], [ 77.3553395, 20.0141036 ], [ 77.3538847, 20.0128958 ], [ 77.349744, 20.0137173 ], [ 77.3479119, 20.009845 ], [ 77.3408349, 20.0084086 ], [ 77.3415481, 20.0057365 ], [ 77.3373434, 19.9970317 ], [ 77.3364018, 19.9904161 ], [ 77.3372091, 19.9746387 ], [ 77.334691, 19.9734843 ], [ 77.3316892, 19.9735318 ], [ 77.3308799, 19.9749027 ], [ 77.3246448, 19.9736131 ], [ 77.3212498, 19.965111 ], [ 77.3219359, 19.9592495 ], [ 77.3175586, 19.962453 ], [ 77.3038055, 19.9653322 ], [ 77.3032192, 19.9532687 ], [ 77.2990693, 19.9438654 ], [ 77.2926164, 19.9397575 ], [ 77.2843977, 19.937083 ], [ 77.2835543, 19.9126998 ], [ 77.2796623, 19.9177563 ], [ 77.2711568, 19.9195784 ], [ 77.2690931, 19.9175666 ], [ 77.2695745, 19.9023475 ], [ 77.2662892, 19.8976388 ], [ 77.2636561, 19.8975972 ], [ 77.2558054, 19.9016202 ], [ 77.250126, 19.8948759 ], [ 77.2390805, 19.8896876 ], [ 77.2365244, 19.8894346 ], [ 77.2355101, 19.8906586 ], [ 77.233922, 19.897101 ], [ 77.2456243, 19.9054992 ], [ 77.2379871, 19.9126768 ], [ 77.2367835, 19.9275713 ], [ 77.2382215, 19.9345309 ], [ 77.2352588, 19.9386748 ], [ 77.2253682, 19.9371727 ], [ 77.2163498, 19.938841 ], [ 77.2107343, 19.9379998 ], [ 77.2054921, 19.942114 ], [ 77.2038625, 19.948577 ], [ 77.2072931, 19.9552636 ], [ 77.2083854, 19.9689822 ], [ 77.2129337, 19.9706424 ], [ 77.214887, 19.9733195 ], [ 77.2109472, 19.9800511 ], [ 77.2039119, 19.9866968 ], [ 77.2029424, 19.9901914 ], [ 77.1990148, 19.9912648 ], [ 77.1944197, 19.988783 ], [ 77.193343, 19.9857127 ], [ 77.1778587, 19.9797582 ], [ 77.1757943, 19.976959 ], [ 77.1729826, 19.9676014 ], [ 77.1694836, 19.9645085 ], [ 77.1540943, 19.9659089 ], [ 77.136169, 19.9526756 ], [ 77.1355226, 19.943932 ], [ 77.1336147, 19.9418851 ], [ 77.125032, 19.9423666 ], [ 77.1207337, 19.939912 ], [ 77.1140793, 19.9399462 ], [ 77.1082133, 19.9360834 ], [ 77.1048415, 19.9319429 ], [ 77.1022957, 19.9314675 ], [ 77.0929969, 19.9352313 ], [ 77.0930966, 19.9437052 ], [ 77.0825795, 19.9555424 ], [ 77.0846718, 19.9639979 ], [ 77.0707924, 19.9722012 ], [ 77.0693581, 19.9756716 ], [ 77.0704206, 19.981608 ], [ 77.0627725, 19.985212 ], [ 77.0616282, 19.9938876 ], [ 77.0552924, 19.9968074 ], [ 77.0470707, 19.9972153 ], [ 77.0420592, 19.9990346 ], [ 77.0375469, 20.0047337 ], [ 77.0366934, 20.0083088 ], [ 77.0341352, 20.0093271 ], [ 77.0254866, 20.0096799 ], [ 77.0197208, 20.0029412 ], [ 77.0175605, 20.0019416 ], [ 77.0124508, 20.0023999 ], [ 77.0059277, 20.006889 ], [ 76.9949549, 20.0176295 ], [ 76.9919802, 20.0168268 ], [ 76.9920207, 20.0115116 ], [ 76.9883392, 19.9982329 ], [ 76.9724003, 19.9964146 ], [ 76.9618918, 19.9872825 ], [ 76.9437823, 19.9848411 ], [ 76.9430083, 19.983276 ], [ 76.9337673, 19.9788622 ], [ 76.9223472, 19.9758667 ], [ 76.9181048, 19.9721462 ], [ 76.9004479, 19.9640121 ], [ 76.8995632, 19.9527301 ], [ 76.8983476, 19.953096 ], [ 76.895381, 19.9491335 ], [ 76.8890108, 19.9527892 ], [ 76.8731513, 19.9543049 ], [ 76.872311, 19.958283 ], [ 76.8598351, 19.9615371 ], [ 76.8372847, 19.9639087 ], [ 76.8330598, 19.9571753 ], [ 76.8304853, 19.9472701 ], [ 76.8213587, 19.9291991 ], [ 76.8052911, 19.9299151 ], [ 76.7952419, 19.93297 ], [ 76.7807158, 19.9337109 ], [ 76.7722891, 19.9357755 ], [ 76.7706868, 19.9189193 ], [ 76.7654014, 19.9044058 ], [ 76.7613983, 19.9049329 ], [ 76.7471484, 19.9123063 ], [ 76.7425533, 19.901879 ], [ 76.7436681, 19.8855805 ], [ 76.7402662, 19.8733112 ], [ 76.7213176, 19.8694477 ], [ 76.706627, 19.8720165 ], [ 76.6987323, 19.8753391 ], [ 76.6934465, 19.8741264 ], [ 76.6930499, 19.8705868 ], [ 76.6892854, 19.863828 ], [ 76.6919454, 19.8596147 ], [ 76.6885391, 19.8583412 ], [ 76.6849253, 19.8502571 ], [ 76.6812031, 19.8469912 ], [ 76.6657174, 19.8510379 ], [ 76.6616572, 19.8532482 ], [ 76.655065, 19.8574321 ], [ 76.654529, 19.860131 ], [ 76.6471283, 19.8670014 ], [ 76.6526264, 19.8735946 ], [ 76.6530083, 19.8788145 ], [ 76.6587871, 19.8857048 ], [ 76.6596458, 19.8923389 ], [ 76.6544486, 19.9004067 ], [ 76.6332394, 19.8993118 ], [ 76.6243083, 19.8895364 ], [ 76.6110197, 19.8931066 ], [ 76.6106505, 19.8997861 ], [ 76.6127499, 19.9017069 ], [ 76.613498, 19.9064427 ], [ 76.6106727, 19.9181297 ], [ 76.608057, 19.9214727 ], [ 76.6056725, 19.922127 ], [ 76.6067404, 19.9247974 ], [ 76.6223271, 19.9230737 ], [ 76.628493, 19.9256455 ], [ 76.6364529, 19.9336833 ], [ 76.6368992, 19.9383097 ], [ 76.6345099, 19.9563817 ], [ 76.6366379, 19.9594347 ], [ 76.6453605, 19.964889 ], [ 76.6590629, 19.9643842 ], [ 76.6608134, 19.9765881 ], [ 76.6607232, 19.9787213 ], [ 76.6455004, 19.9846605 ], [ 76.6583575, 20.0018716 ], [ 76.6584277, 20.0218193 ], [ 76.6612576, 20.0325126 ], [ 76.6630997, 20.0475591 ], [ 76.6240288, 20.0512525 ], [ 76.6304611, 20.0822081 ], [ 76.6340894, 20.0806758 ], [ 76.6328279, 20.0743955 ], [ 76.6375513, 20.0717047 ], [ 76.6484581, 20.0695637 ], [ 76.649404, 20.0807094 ], [ 76.6518983, 20.0913888 ], [ 76.6582466, 20.097609 ], [ 76.6602378, 20.0972245 ], [ 76.6578543, 20.1061874 ], [ 76.6582834, 20.1134592 ], [ 76.6627373, 20.1177054 ], [ 76.6667527, 20.1194221 ], [ 76.6689038, 20.1258698 ], [ 76.6819468, 20.1229597 ], [ 76.6957877, 20.1216574 ], [ 76.7080022, 20.1227283 ], [ 76.7220985, 20.1271878 ], [ 76.7321819, 20.125038 ], [ 76.7437742, 20.128327 ], [ 76.7494547, 20.1283111 ], [ 76.7570679, 20.1309407 ], [ 76.7587457, 20.1329066 ], [ 76.760166, 20.1395048 ], [ 76.7598701, 20.1458439 ], [ 76.7621719, 20.1613282 ], [ 76.7482918, 20.165428 ], [ 76.7503385, 20.177533 ], [ 76.7493201, 20.1869941 ], [ 76.7468733, 20.1884005 ], [ 76.7451754, 20.1961322 ], [ 76.7452097, 20.2022081 ], [ 76.7467821, 20.206724 ], [ 76.750605, 20.2070076 ], [ 76.7505385, 20.2086171 ], [ 76.7524136, 20.2088742 ], [ 76.768276, 20.209358 ], [ 76.7734929, 20.2078386 ], [ 76.7729476, 20.2059952 ], [ 76.7847033, 20.2032169 ], [ 76.7892151, 20.2059209 ], [ 76.7948514, 20.2182879 ], [ 76.801522, 20.2210048 ], [ 76.8109265, 20.21933 ], [ 76.8126245, 20.2252409 ], [ 76.8213122, 20.2347091 ], [ 76.8242671, 20.2419698 ], [ 76.8247034, 20.2492426 ], [ 76.8234869, 20.2558776 ], [ 76.8207958, 20.2613625 ], [ 76.8260763, 20.2697343 ], [ 76.8201118, 20.2798864 ], [ 76.8323138, 20.282763 ], [ 76.8354105, 20.2876756 ], [ 76.8380096, 20.2890773 ], [ 76.8367873, 20.2942777 ], [ 76.8377579, 20.2960466 ], [ 76.8502483, 20.2976156 ], [ 76.852184, 20.3002149 ], [ 76.85825, 20.299371 ], [ 76.8620629, 20.2967281 ], [ 76.8658385, 20.2906114 ], [ 76.8658426, 20.2820461 ], [ 76.8686966, 20.2778622 ], [ 76.8728377, 20.2752295 ], [ 76.8802089, 20.2797047 ], [ 76.8821227, 20.2849617 ], [ 76.8776391, 20.2880351 ], [ 76.880811, 20.2941647 ], [ 76.8932847, 20.3041275 ], [ 76.9088331, 20.3131114 ], [ 76.9023851, 20.3131863 ], [ 76.8915488, 20.317021 ], [ 76.8925908, 20.3182958 ], [ 76.8917075, 20.3207765 ], [ 76.8936384, 20.3225445 ], [ 76.8962193, 20.3287621 ], [ 76.8967323, 20.3344275 ], [ 76.9047779, 20.3444825 ], [ 76.9167084, 20.3513478 ], [ 76.919469, 20.3596361 ], [ 76.9297889, 20.3558162 ], [ 76.9305789, 20.357209 ], [ 76.9319924, 20.3570392 ], [ 76.9332676, 20.3667654 ], [ 76.9361724, 20.3706121 ], [ 76.9404137, 20.3689917 ], [ 76.9430763, 20.3653742 ], [ 76.949084, 20.3655692 ], [ 76.9533094, 20.3634675 ], [ 76.9570673, 20.3634481 ], [ 76.9646605, 20.3676398 ], [ 76.9779851, 20.3703485 ], [ 76.9779901, 20.3728293 ], [ 76.9735695, 20.3774919 ], [ 76.9744645, 20.380373 ], [ 76.9766805, 20.3812467 ], [ 76.9810373, 20.380086 ], [ 76.9811242, 20.3877811 ], [ 76.9863383, 20.3891643 ], [ 76.9893491, 20.3944786 ], [ 76.9953054, 20.3935457 ], [ 76.9957604, 20.398028 ], [ 76.9910117, 20.4043439 ], [ 76.9935798, 20.4090414 ], [ 77.0018242, 20.4113596 ], [ 77.0035061, 20.4147502 ], [ 77.0144812, 20.412715 ], [ 77.0131911, 20.4212198 ], [ 77.0141165, 20.433239 ], [ 77.0214113, 20.443194 ], [ 77.0223142, 20.4499191 ], [ 77.0447875, 20.449663 ], [ 77.0573242, 20.4470477 ], [ 77.0590242, 20.4453718 ], [ 77.0596589, 20.4394351 ], [ 77.047105, 20.4193072 ], [ 77.046838, 20.4158478 ], [ 77.0509454, 20.4074218 ], [ 77.0498208, 20.4017952 ], [ 77.0455627, 20.3934017 ], [ 77.0453342, 20.3865507 ], [ 77.0624579, 20.3813573 ], [ 77.0682899, 20.3828597 ], [ 77.0687345, 20.3852781 ], [ 77.072685, 20.3854274 ], [ 77.0733049, 20.3865235 ], [ 77.0780587, 20.3861574 ], [ 77.080824, 20.3882376 ], [ 77.0811901, 20.3904479 ], [ 77.0745035, 20.3936113 ], [ 77.0731361, 20.4014759 ], [ 77.0796115, 20.423858 ], [ 77.0852218, 20.4223171 ], [ 77.0851669, 20.4193564 ], [ 77.1029435, 20.4152125 ], [ 77.104935, 20.4109717 ], [ 77.1132402, 20.4116226 ], [ 77.1158929, 20.4079985 ], [ 77.1202115, 20.4111011 ], [ 77.1211111, 20.4027715 ], [ 77.1272718, 20.3990055 ], [ 77.1303963, 20.3988949 ], [ 77.132642, 20.3952061 ], [ 77.1319131, 20.3903959 ], [ 77.1364838, 20.3914088 ], [ 77.1381503, 20.3851371 ], [ 77.1420568, 20.380152 ], [ 77.1440355, 20.3805286 ], [ 77.1455891, 20.3863752 ], [ 77.1520968, 20.3925642 ], [ 77.15152, 20.3991385 ], [ 77.1694788, 20.3991814 ], [ 77.1712618, 20.4011779 ], [ 77.1743349, 20.4009228 ], [ 77.1804074, 20.397534 ], [ 77.1850666, 20.3984085 ], [ 77.1895264, 20.4024261 ], [ 77.1914431, 20.4022917 ], [ 77.1950942, 20.4091907 ], [ 77.196993, 20.4151752 ], [ 77.1972442, 20.42222 ], [ 77.1972068, 20.4237584 ], [ 77.1909436, 20.4238183 ], [ 77.1886367, 20.4299643 ], [ 77.1828621, 20.4317289 ], [ 77.1823278, 20.4373163 ], [ 77.1855506, 20.4473845 ], [ 77.189825, 20.4468958 ], [ 77.1957969, 20.4491361 ], [ 77.2016754, 20.4495592 ], [ 77.2064042, 20.4480037 ], [ 77.2095456, 20.4449601 ], [ 77.2125211, 20.4478946 ], [ 77.2251718, 20.4474121 ], [ 77.2257086, 20.4556603 ], [ 77.2295718, 20.4733946 ], [ 77.2402168, 20.473742 ], [ 77.2467897, 20.4723685 ], [ 77.2457091, 20.4603504 ], [ 77.2468149, 20.4597405 ], [ 77.2542265, 20.457958 ], [ 77.2663021, 20.4586036 ], [ 77.2671644, 20.4484858 ], [ 77.2712649, 20.4415886 ], [ 77.2733799, 20.4326713 ], [ 77.2777649, 20.4305933 ], [ 77.2777075, 20.4236341 ], [ 77.2818322, 20.4189324 ], [ 77.28456, 20.4183325 ], [ 77.2951566, 20.4215761 ], [ 77.2966578, 20.4251102 ], [ 77.2955825, 20.4285833 ], [ 77.2961482, 20.4394438 ], [ 77.2980343, 20.4458669 ], [ 77.3030655, 20.4461069 ], [ 77.3140527, 20.4497028 ], [ 77.3138349, 20.4523138 ], [ 77.3180779, 20.4505624 ], [ 77.3254766, 20.450316 ], [ 77.3246052, 20.4521247 ], [ 77.3263109, 20.4648135 ], [ 77.3322268, 20.470058 ], [ 77.3332097, 20.4725679 ], [ 77.343427, 20.4716359 ], [ 77.3441231, 20.480538 ], [ 77.33923, 20.4837753 ], [ 77.324827, 20.4870321 ], [ 77.3274765, 20.4979742 ], [ 77.3403694, 20.4963955 ], [ 77.3633332, 20.4974176 ], [ 77.3680527, 20.4965299 ], [ 77.3698774, 20.4956964 ], [ 77.3701954, 20.4876209 ], [ 77.3679285, 20.4800251 ], [ 77.3816332, 20.4831458 ], [ 77.3832144, 20.486876 ], [ 77.3840379, 20.4953353 ], [ 77.3872412, 20.4975675 ], [ 77.388981, 20.5016967 ], [ 77.3956662, 20.5254405 ], [ 77.3818344, 20.5245305 ], [ 77.3683279, 20.5254883 ], [ 77.3670813, 20.5194156 ], [ 77.3644096, 20.5181902 ], [ 77.3486496, 20.5215358 ], [ 77.3363372, 20.525784 ], [ 77.3372393, 20.5377993 ], [ 77.3411993, 20.5474344 ], [ 77.3353797, 20.548649 ], [ 77.339443, 20.5752645 ], [ 77.3498454, 20.5699483 ], [ 77.3620835, 20.5676356 ], [ 77.3657052, 20.577746 ], [ 77.3656875, 20.5833338 ], [ 77.3956785, 20.5798101 ], [ 77.3994438, 20.5853167 ], [ 77.4092593, 20.5870738 ], [ 77.4098536, 20.5944725 ], [ 77.4128021, 20.5940258 ], [ 77.4143598, 20.6020285 ], [ 77.4140563, 20.6039463 ], [ 77.4108683, 20.6069199 ], [ 77.431034, 20.6122954 ], [ 77.4597674, 20.6097237 ], [ 77.4670713, 20.610911 ], [ 77.4647831, 20.6282792 ], [ 77.4513133, 20.6344128 ], [ 77.4517563, 20.6381555 ], [ 77.4453193, 20.6392962 ], [ 77.4425958, 20.6422909 ], [ 77.4385184, 20.6429854 ], [ 77.4384218, 20.6531646 ], [ 77.4325494, 20.6575434 ], [ 77.4303329, 20.6605646 ], [ 77.4308869, 20.6622577 ], [ 77.4526151, 20.6568593 ], [ 77.4538216, 20.6646832 ], [ 77.4613614, 20.6658699 ], [ 77.4635899, 20.6601882 ], [ 77.4691001, 20.6580799 ], [ 77.4693015, 20.6569132 ], [ 77.4785913, 20.6551544 ], [ 77.4846827, 20.6571062 ], [ 77.4856457, 20.6622549 ], [ 77.4837742, 20.6632087 ], [ 77.4810121, 20.682045 ], [ 77.4930753, 20.6828854 ], [ 77.5008662, 20.6749 ], [ 77.501272, 20.6718871 ], [ 77.502986, 20.6716282 ], [ 77.5041689, 20.6648593 ], [ 77.5108422, 20.6644117 ], [ 77.5152982, 20.673287 ], [ 77.5134079, 20.6782541 ], [ 77.5138513, 20.6816818 ], [ 77.5380991, 20.6775717 ], [ 77.5432439, 20.6782762 ], [ 77.54281, 20.6845613 ], [ 77.5395613, 20.6965349 ], [ 77.5235121, 20.6973121 ], [ 77.5262382, 20.7011842 ], [ 77.5497386, 20.703901 ], [ 77.5634349, 20.7010507 ], [ 77.5652785, 20.7074895 ], [ 77.5730449, 20.7053724 ], [ 77.5759393, 20.7183451 ], [ 77.5773973, 20.7191695 ], [ 77.5778859, 20.7269157 ] ] ], [ [ [ 77.6339096, 20.7557153 ], [ 77.6314669, 20.7380712 ], [ 77.6289579, 20.7385523 ], [ 77.6255619, 20.7372579 ], [ 77.62311, 20.7301059 ], [ 77.612129, 20.7307497 ], [ 77.6128698, 20.7364778 ], [ 77.6146414, 20.7365704 ], [ 77.6198172, 20.7570334 ], [ 77.6339096, 20.7557153 ] ] ] ] } }
]
}
