{
"type": "FeatureCollection",
"name": "2709",
"crs": { "type": "name", "properties": { "name": "urn:ogc:def:crs:OGC:1.3:CRS84" } },
"features": [
{ "type": "Feature", "properties": { "code": "2709", "name": "Nagpur", "type": "district" }, "geometry": { "type": "Polygon", "coordinates": [ [ [ 79.2306442, 21.72223 ], [ 79.2419333, 21.7201818 ], [ 79.2449577, 21.7214751 ], [ 79.2480956, 21.7196987 ], [ 79.2517057, 21.7197355 ], [ 79.2691589, 21.7148648 ], [ 79.2779088, 21.7093704 ], [ 79.280506, 21.7017244 ], [ 79.2857995, 21.6954675 ], [ 79.2885983, 21.6952758 ], [ 79.2905883, 21.6925442 ], [ 79.2966924, 21.6933077 ], [ 79.3114099, 21.6882676 ], [ 79.3182563, 21.6885127 ], [ 79.322236, 21.6852336 ], [ 79.3245507, 21.6879662 ], [ 79.3428949, 21.683961 ], [ 79.3542704, 21.6848344 ], [ 79.3523681, 21.6780574 ], [ 79.357003, 21.6792549 ], [ 79.3746532, 21.6784111 ], [ 79.3838009, 21.6756376 ], [ 79.3875112, 21.676229 ], [ 79.3924871, 21.6741197 ], [ 79.3960867, 21.6765126 ], [ 79.4004397, 21.6767738 ], [ 79.4027065, 21.6822149 ], [ 79.4101233, 21.6847468 ], [ 79.4156618, 21.6911632 ], [ 79.4221978, 21.6918223 ], [ 79.4279869, 21.6897526 ], [ 79.4352488, 21.6828279 ], [ 79.4494952, 21.6820618 ], [ 79.4572924, 21.6849355 ], [ 79.4607346, 21.6875533 ], [ 79.4807172, 21.6778429 ], [ 79.496327, 21.6740146 ], [ 79.4962121, 21.6654116 ], [ 79.5013519, 21.6597891 ], [ 79.5013441, 21.6517105 ], [ 79.5067638, 21.645668 ], [ 79.5042656, 21.6411009 ], [ 79.5065663, 21.6389574 ], [ 79.5077679, 21.6343478 ], [ 79.5161017, 21.6313775 ], [ 79.517231, 21.6257472 ], [ 79.5166167, 21.6208472 ], [ 79.5071315, 21.621324 ], [ 79.5047479, 21.618464 ], [ 79.503713, 21.6145932 ], [ 79.5043919, 21.6112428 ], [ 79.5102432, 21.6067224 ], [ 79.5109981, 21.6048804 ], [ 79.510083, 21.5956633 ], [ 79.5120284, 21.5839734 ], [ 79.5182353, 21.5803603 ], [ 79.5279351, 21.579698 ], [ 79.5320564, 21.5750176 ], [ 79.5400683, 21.5706369 ], [ 79.5433146, 21.5668227 ], [ 79.543927, 21.5595211 ], [ 79.5375612, 21.5489871 ], [ 79.5377029, 21.5461559 ], [ 79.5401907, 21.5427207 ], [ 79.5374869, 21.5389835 ], [ 79.5376193, 21.5360595 ], [ 79.5359102, 21.5358925 ], [ 79.5316735, 21.539879 ], [ 79.5275191, 21.5392041 ], [ 79.5269964, 21.5400213 ], [ 79.519619, 21.535865 ], [ 79.5138906, 21.534234 ], [ 79.5120224, 21.5313223 ], [ 79.5081975, 21.5289144 ], [ 79.4998348, 21.5167912 ], [ 79.4959072, 21.5145172 ], [ 79.4923483, 21.5083168 ], [ 79.4828747, 21.501439 ], [ 79.4802919, 21.5014849 ], [ 79.4814689, 21.4992356 ], [ 79.4784941, 21.4932004 ], [ 79.4751096, 21.4895726 ], [ 79.4724686, 21.4838804 ], [ 79.4691128, 21.4836047 ], [ 79.4598579, 21.4678727 ], [ 79.4584241, 21.4679826 ], [ 79.4576012, 21.4624895 ], [ 79.4525261, 21.4590335 ], [ 79.4490673, 21.4593758 ], [ 79.4483381, 21.4561889 ], [ 79.4500799, 21.4516885 ], [ 79.4487758, 21.450363 ], [ 79.4495415, 21.4476912 ], [ 79.4481311, 21.4438419 ], [ 79.4484112, 21.4346999 ], [ 79.4548586, 21.4309984 ], [ 79.4568446, 21.4280328 ], [ 79.4669086, 21.4246209 ], [ 79.4747546, 21.4288195 ], [ 79.4802427, 21.4288485 ], [ 79.4821574, 21.4270394 ], [ 79.4855618, 21.419192 ], [ 79.4853287, 21.4127837 ], [ 79.488099, 21.4028571 ], [ 79.4837602, 21.3988415 ], [ 79.4995339, 21.398463 ], [ 79.502253, 21.391385 ], [ 79.5071904, 21.3858345 ], [ 79.5086071, 21.3813786 ], [ 79.5108344, 21.3802409 ], [ 79.5134565, 21.3767272 ], [ 79.5129753, 21.3746755 ], [ 79.5171298, 21.3709764 ], [ 79.5174509, 21.3662558 ], [ 79.5227228, 21.3641491 ], [ 79.524717, 21.3598996 ], [ 79.5236139, 21.3575643 ], [ 79.5240553, 21.3535403 ], [ 79.5264536, 21.3490547 ], [ 79.5337888, 21.3483813 ], [ 79.5340125, 21.3458199 ], [ 79.5356442, 21.3464838 ], [ 79.5351433, 21.3448304 ], [ 79.5363033, 21.3453459 ], [ 79.5370398, 21.3443045 ], [ 79.5338245, 21.3398289 ], [ 79.5393061, 21.3409045 ], [ 79.5389113, 21.3376482 ], [ 79.5414181, 21.3370742 ], [ 79.5442581, 21.3317499 ], [ 79.5487528, 21.3290682 ], [ 79.5498006, 21.3302335 ], [ 79.5508075, 21.3289621 ], [ 79.5536717, 21.3302153 ], [ 79.5551792, 21.3285599 ], [ 79.5536775, 21.326332 ], [ 79.556486, 21.3242837 ], [ 79.5548995, 21.3232078 ], [ 79.5551566, 21.3179606 ], [ 79.5540166, 21.3169537 ], [ 79.5523561, 21.318221 ], [ 79.551233, 21.3176531 ], [ 79.5539433, 21.3148694 ], [ 79.5523449, 21.3130923 ], [ 79.55372, 21.3100939 ], [ 79.5566781, 21.3085289 ], [ 79.5535507, 21.3057255 ], [ 79.5574936, 21.3042459 ], [ 79.5561918, 21.3016598 ], [ 79.5599212, 21.3029024 ], [ 79.5612193, 21.2999724 ], [ 79.5608329, 21.2973464 ], [ 79.5642204, 21.2995656 ], [ 79.5645907, 21.2976133 ], [ 79.5662054, 21.2975552 ], [ 79.5656278, 21.2962704 ], [ 79.5688538, 21.2935327 ], [ 79.5681467, 21.2915833 ], [ 79.570678, 21.2919734 ], [ 79.5719317, 21.2837593 ], [ 79.5750507, 21.2834709 ], [ 79.5736121, 21.2802762 ], [ 79.5761289, 21.2761365 ], [ 79.5737515, 21.2716072 ], [ 79.569834, 21.2718512 ], [ 79.5673654, 21.2622761 ], [ 79.5688581, 21.2476225 ], [ 79.563274, 21.2459445 ], [ 79.560526, 21.2413904 ], [ 79.5595142, 21.2332735 ], [ 79.5612649, 21.2312076 ], [ 79.5632003, 21.2311707 ], [ 79.5631541, 21.2269281 ], [ 79.5600301, 21.2250975 ], [ 79.5587946, 21.2186056 ], [ 79.5578553, 21.2187312 ], [ 79.5552866, 21.2129979 ], [ 79.5497118, 21.2083653 ], [ 79.5494379, 21.2065803 ], [ 79.556951, 21.2030023 ], [ 79.5583904, 21.1985199 ], [ 79.5569781, 21.1976759 ], [ 79.558235, 21.1964689 ], [ 79.5573396, 21.1919198 ], [ 79.5592389, 21.191353 ], [ 79.5603789, 21.1892787 ], [ 79.559465, 21.1857538 ], [ 79.5563361, 21.1834514 ], [ 79.5508817, 21.1731816 ], [ 79.5509315, 21.1712911 ], [ 79.5535904, 21.1693874 ], [ 79.5577167, 21.1696472 ], [ 79.5573603, 21.1673879 ], [ 79.5593777, 21.1660659 ], [ 79.5577091, 21.1640859 ], [ 79.560027, 21.161317 ], [ 79.556383, 21.1597381 ], [ 79.5564053, 21.1585751 ], [ 79.558022, 21.1588033 ], [ 79.557096, 21.1561161 ], [ 79.5495435, 21.1597227 ], [ 79.5466184, 21.1589497 ], [ 79.5451261, 21.1600754 ], [ 79.5440557, 21.158851 ], [ 79.5447003, 21.1579738 ], [ 79.5437221, 21.1587398 ], [ 79.5417233, 21.1566818 ], [ 79.5409598, 21.1589732 ], [ 79.5358155, 21.1582311 ], [ 79.5320679, 21.1591261 ], [ 79.5282335, 21.1627496 ], [ 79.5226463, 21.1641149 ], [ 79.5249705, 21.1708731 ], [ 79.5272769, 21.1707687 ], [ 79.5296038, 21.1728466 ], [ 79.5303394, 21.1745394 ], [ 79.5289375, 21.1763743 ], [ 79.5255534, 21.1767996 ], [ 79.5247629, 21.1782867 ], [ 79.5228275, 21.1775918 ], [ 79.521119, 21.1795177 ], [ 79.5194452, 21.1790867 ], [ 79.5189994, 21.1768754 ], [ 79.5165165, 21.1752617 ], [ 79.5159281, 21.1774827 ], [ 79.515028, 21.1760523 ], [ 79.5130011, 21.1763506 ], [ 79.5104591, 21.1805276 ], [ 79.507689, 21.1811311 ], [ 79.5074967, 21.1828364 ], [ 79.498282, 21.1836867 ], [ 79.4958422, 21.1790658 ], [ 79.4970988, 21.1783242 ], [ 79.4970346, 21.1759084 ], [ 79.4997771, 21.1751773 ], [ 79.4994463, 21.1681815 ], [ 79.5063444, 21.1653158 ], [ 79.5079862, 21.162685 ], [ 79.5040609, 21.1470851 ], [ 79.4973957, 21.1426216 ], [ 79.4937164, 21.1427679 ], [ 79.4937224, 21.1377653 ], [ 79.4962176, 21.1381429 ], [ 79.4982289, 21.1363767 ], [ 79.5011689, 21.1370656 ], [ 79.5005806, 21.1343983 ], [ 79.5054964, 21.1355327 ], [ 79.5099291, 21.1326945 ], [ 79.50897, 21.1265896 ], [ 79.5106831, 21.1252648 ], [ 79.5102305, 21.1239932 ], [ 79.5125872, 21.1237394 ], [ 79.5140736, 21.125086 ], [ 79.5171735, 21.1211793 ], [ 79.5247471, 21.1198832 ], [ 79.5164465, 21.1047287 ], [ 79.5250946, 21.1024787 ], [ 79.5285248, 21.097713 ], [ 79.5321482, 21.0957569 ], [ 79.5307489, 21.0936151 ], [ 79.5195954, 21.0888586 ], [ 79.5264236, 21.0789169 ], [ 79.5299915, 21.077759 ], [ 79.5332886, 21.0783772 ], [ 79.5392166, 21.0814659 ], [ 79.5426658, 21.0856313 ], [ 79.5506878, 21.0886753 ], [ 79.5536463, 21.0873255 ], [ 79.5614517, 21.0777587 ], [ 79.5647806, 21.0709529 ], [ 79.572072, 21.0660882 ], [ 79.5763617, 21.0656554 ], [ 79.5790559, 21.06671 ], [ 79.5848086, 21.0757221 ], [ 79.587602, 21.0775845 ], [ 79.5923415, 21.0768069 ], [ 79.5966445, 21.0739375 ], [ 79.6133333, 21.0318306 ], [ 79.6217004, 21.016621 ], [ 79.631725, 21.0035366 ], [ 79.637083, 20.9903551 ], [ 79.6512312, 20.9783563 ], [ 79.6548539, 20.972229 ], [ 79.6569687, 20.9627733 ], [ 79.65409, 20.9439516 ], [ 79.6462793, 20.9247541 ], [ 79.6328969, 20.9117617 ], [ 79.6203529, 20.9094033 ], [ 79.6144285, 20.9062054 ], [ 79.6123451, 20.903622 ], [ 79.610323, 20.8970378 ], [ 79.6107554, 20.8858171 ], [ 79.6079789, 20.8754489 ], [ 79.6129961, 20.8660086 ], [ 79.6085986, 20.8641136 ], [ 79.6076542, 20.8665299 ], [ 79.6058323, 20.8673568 ], [ 79.5998423, 20.863605 ], [ 79.598237, 20.8654905 ], [ 79.5980502, 20.8641895 ], [ 79.5959817, 20.8641663 ], [ 79.5884542, 20.850763 ], [ 79.582738, 20.8448879 ], [ 79.5796372, 20.8433557 ], [ 79.5645926, 20.845852 ], [ 79.5650686, 20.8507865 ], [ 79.5563554, 20.8561475 ], [ 79.5494566, 20.8497085 ], [ 79.5415333, 20.8522764 ], [ 79.5376016, 20.8515598 ], [ 79.5396193, 20.8479508 ], [ 79.5388714, 20.8435824 ], [ 79.5412019, 20.8397803 ], [ 79.5428964, 20.8393979 ], [ 79.5471655, 20.834398 ], [ 79.5465748, 20.8326925 ], [ 79.5480043, 20.8315526 ], [ 79.5463809, 20.8303967 ], [ 79.5466451, 20.8289791 ], [ 79.5485127, 20.826595 ], [ 79.5517714, 20.8261868 ], [ 79.5517828, 20.8212568 ], [ 79.5503811, 20.8204608 ], [ 79.553458, 20.8175355 ], [ 79.5537341, 20.8144873 ], [ 79.5560997, 20.8137818 ], [ 79.5562113, 20.8100493 ], [ 79.5594738, 20.8080908 ], [ 79.5596644, 20.8054176 ], [ 79.5580396, 20.8045515 ], [ 79.5595684, 20.8026558 ], [ 79.5574701, 20.8006849 ], [ 79.5517036, 20.7994392 ], [ 79.5498212, 20.7947761 ], [ 79.5446495, 20.7912459 ], [ 79.5460679, 20.7857511 ], [ 79.5413191, 20.7819337 ], [ 79.5362789, 20.7809641 ], [ 79.5353815, 20.77729 ], [ 79.5315147, 20.7748304 ], [ 79.5364796, 20.7645489 ], [ 79.534865, 20.759269 ], [ 79.5313587, 20.7566426 ], [ 79.5318632, 20.7475597 ], [ 79.53011, 20.7412952 ], [ 79.5286535, 20.7406476 ], [ 79.5293495, 20.7365239 ], [ 79.5233527, 20.7327892 ], [ 79.5217982, 20.7282948 ], [ 79.5227898, 20.7265049 ], [ 79.5213818, 20.7227979 ], [ 79.5194278, 20.7214118 ], [ 79.5170497, 20.7101658 ], [ 79.5142915, 20.7088034 ], [ 79.5057796, 20.7092267 ], [ 79.5063849, 20.7062233 ], [ 79.5055005, 20.7052564 ], [ 79.5064165, 20.7049699 ], [ 79.5044919, 20.7019205 ], [ 79.5004229, 20.7047554 ], [ 79.4948313, 20.7049865 ], [ 79.4948173, 20.7080447 ], [ 79.4934806, 20.7090507 ], [ 79.4898675, 20.7089043 ], [ 79.4882357, 20.7023789 ], [ 79.4867597, 20.7024583 ], [ 79.4827575, 20.6952396 ], [ 79.4809742, 20.6953062 ], [ 79.480565, 20.6918654 ], [ 79.4774573, 20.6919253 ], [ 79.4771605, 20.6906577 ], [ 79.4736772, 20.6911456 ], [ 79.4714507, 20.6836954 ], [ 79.4696626, 20.6842574 ], [ 79.4696564, 20.6816018 ], [ 79.4675235, 20.6808715 ], [ 79.4675989, 20.679862 ], [ 79.4639417, 20.6797339 ], [ 79.463847, 20.6774016 ], [ 79.4610857, 20.6774234 ], [ 79.4613319, 20.6759554 ], [ 79.4586877, 20.6758004 ], [ 79.4574881, 20.6734483 ], [ 79.4539472, 20.6722292 ], [ 79.4530898, 20.6697505 ], [ 79.4495437, 20.669972 ], [ 79.4489238, 20.6676879 ], [ 79.4435692, 20.6696459 ], [ 79.4428756, 20.6659396 ], [ 79.4364839, 20.6640927 ], [ 79.4361357, 20.6618651 ], [ 79.4280008, 20.6648803 ], [ 79.4238582, 20.6630298 ], [ 79.4239633, 20.6612981 ], [ 79.4195, 20.6602831 ], [ 79.4123278, 20.6616268 ], [ 79.407177, 20.661349 ], [ 79.4026358, 20.6593024 ], [ 79.3975887, 20.6602551 ], [ 79.3976068, 20.6626693 ], [ 79.3880335, 20.6666762 ], [ 79.388324, 20.6714228 ], [ 79.3900915, 20.6733957 ], [ 79.3881072, 20.6813776 ], [ 79.3800228, 20.681891 ], [ 79.3795062, 20.6843319 ], [ 79.3769024, 20.6822435 ], [ 79.3725261, 20.6818652 ], [ 79.3702291, 20.6797158 ], [ 79.3692834, 20.6759471 ], [ 79.3575676, 20.6742734 ], [ 79.3487091, 20.6760499 ], [ 79.3480287, 20.6697798 ], [ 79.3492403, 20.666681 ], [ 79.3564943, 20.6620354 ], [ 79.3546401, 20.6548041 ], [ 79.3459203, 20.649007 ], [ 79.3456443, 20.6474217 ], [ 79.3436059, 20.6471095 ], [ 79.3439107, 20.6451881 ], [ 79.3406097, 20.6452082 ], [ 79.3441218, 20.6423435 ], [ 79.3471032, 20.6432777 ], [ 79.3471962, 20.6355568 ], [ 79.3444063, 20.63301 ], [ 79.3421227, 20.6333722 ], [ 79.3396726, 20.6302272 ], [ 79.3392835, 20.6264083 ], [ 79.3379473, 20.6266333 ], [ 79.3373971, 20.6214369 ], [ 79.3341171, 20.6197687 ], [ 79.3312047, 20.6097747 ], [ 79.3304028, 20.5945603 ], [ 79.327281, 20.5936544 ], [ 79.3247031, 20.5907104 ], [ 79.3211799, 20.5838061 ], [ 79.3140415, 20.583602 ], [ 79.3080648, 20.5852831 ], [ 79.3071818, 20.5873524 ], [ 79.2973149, 20.589179 ], [ 79.2966703, 20.5926888 ], [ 79.2941407, 20.5930061 ], [ 79.2880913, 20.5917222 ], [ 79.2832156, 20.5883962 ], [ 79.2768461, 20.5881473 ], [ 79.2746268, 20.5902522 ], [ 79.2674952, 20.5890315 ], [ 79.2641951, 20.5871677 ], [ 79.2587301, 20.5894129 ], [ 79.253894, 20.5888754 ], [ 79.2491093, 20.5912172 ], [ 79.2455682, 20.5893102 ], [ 79.2321935, 20.5861383 ], [ 79.2223753, 20.5848886 ], [ 79.2206584, 20.5831343 ], [ 79.2197802, 20.5907074 ], [ 79.2169977, 20.5913211 ], [ 79.2108117, 20.5959498 ], [ 79.2110316, 20.5982773 ], [ 79.209244, 20.5982812 ], [ 79.2081973, 20.6000732 ], [ 79.2039741, 20.601711 ], [ 79.1926036, 20.6026944 ], [ 79.1912472, 20.5996558 ], [ 79.1888983, 20.5991568 ], [ 79.1877226, 20.6011111 ], [ 79.1876269, 20.6077019 ], [ 79.1859267, 20.6089417 ], [ 79.1865833, 20.6144145 ], [ 79.1836722, 20.6146039 ], [ 79.1840469, 20.6212658 ], [ 79.1792307, 20.6190615 ], [ 79.174202, 20.621861 ], [ 79.1718729, 20.6256472 ], [ 79.1686387, 20.6269991 ], [ 79.1700828, 20.6353324 ], [ 79.1693936, 20.6414509 ], [ 79.1707058, 20.6455905 ], [ 79.1577095, 20.6517045 ], [ 79.1499924, 20.6521348 ], [ 79.1474201, 20.6538818 ], [ 79.1482086, 20.6610431 ], [ 79.1437149, 20.6635954 ], [ 79.1445163, 20.6690495 ], [ 79.1425317, 20.673585 ], [ 79.1426893, 20.6790568 ], [ 79.1276722, 20.6808004 ], [ 79.1233527, 20.6839242 ], [ 79.120764, 20.6842103 ], [ 79.1200542, 20.6831071 ], [ 79.1140513, 20.6848111 ], [ 79.1113685, 20.6882697 ], [ 79.1052142, 20.6879403 ], [ 79.1064183, 20.6965115 ], [ 79.1091426, 20.7023195 ], [ 79.1038794, 20.7114828 ], [ 79.1033236, 20.7157148 ], [ 79.101179, 20.715874 ], [ 79.0973971, 20.7125 ], [ 79.0899914, 20.7112259 ], [ 79.0879717, 20.7155354 ], [ 79.0857566, 20.716806 ], [ 79.0822937, 20.7163238 ], [ 79.07296, 20.7192279 ], [ 79.0725141, 20.7266812 ], [ 79.0576669, 20.7271422 ], [ 79.0550245, 20.7274626 ], [ 79.0555178, 20.7293422 ], [ 79.0518261, 20.7291499 ], [ 79.0499693, 20.7333917 ], [ 79.0502553, 20.7376582 ], [ 79.0421065, 20.7378856 ], [ 79.0362681, 20.7417465 ], [ 79.0346781, 20.7381115 ], [ 79.0275689, 20.7390413 ], [ 79.0268914, 20.7379949 ], [ 79.0243882, 20.739214 ], [ 79.0155983, 20.7398298 ], [ 79.0159054, 20.744294 ], [ 79.0114393, 20.7462076 ], [ 79.0116596, 20.7477961 ], [ 78.997381, 20.744822 ], [ 78.9960774, 20.7560423 ], [ 78.9943026, 20.7544804 ], [ 78.9865902, 20.7535559 ], [ 78.9747482, 20.7552403 ], [ 78.9651156, 20.7589833 ], [ 78.9586574, 20.7600496 ], [ 78.9593072, 20.7623162 ], [ 78.9530098, 20.7682087 ], [ 78.9460089, 20.768165 ], [ 78.9424317, 20.7666575 ], [ 78.940749, 20.7708457 ], [ 78.9417, 20.7792825 ], [ 78.9409345, 20.7813395 ], [ 78.9444703, 20.7820567 ], [ 78.9453855, 20.7937375 ], [ 78.9354499, 20.7975524 ], [ 78.9244169, 20.7981259 ], [ 78.9247566, 20.7995769 ], [ 78.9229682, 20.8020197 ], [ 78.9118613, 20.8084955 ], [ 78.9122369, 20.8098387 ], [ 78.9137936, 20.8099391 ], [ 78.9141464, 20.8125696 ], [ 78.9151793, 20.8124527 ], [ 78.9167835, 20.8195405 ], [ 78.912657, 20.8196074 ], [ 78.9118805, 20.8224493 ], [ 78.9134731, 20.8302791 ], [ 78.9124377, 20.8305494 ], [ 78.9128525, 20.8359919 ], [ 78.9096913, 20.836082 ], [ 78.9077842, 20.8388684 ], [ 78.8994748, 20.8414048 ], [ 78.8836055, 20.8436018 ], [ 78.8814308, 20.8353916 ], [ 78.8780393, 20.8297892 ], [ 78.8719823, 20.8304627 ], [ 78.8683177, 20.8328952 ], [ 78.865685, 20.8400387 ], [ 78.8606444, 20.8416217 ], [ 78.8597312, 20.8523826 ], [ 78.8576975, 20.8549156 ], [ 78.8586324, 20.8667733 ], [ 78.8609501, 20.8698153 ], [ 78.8600383, 20.8745202 ], [ 78.8474288, 20.8786203 ], [ 78.850968, 20.8862405 ], [ 78.8479816, 20.8866653 ], [ 78.8399568, 20.8929394 ], [ 78.8301061, 20.8947602 ], [ 78.8245864, 20.892925 ], [ 78.817193, 20.8807254 ], [ 78.8054357, 20.8864824 ], [ 78.7856343, 20.8901013 ], [ 78.7730243, 20.9040901 ], [ 78.7751262, 20.9094287 ], [ 78.7822872, 20.9112408 ], [ 78.7755633, 20.9131549 ], [ 78.7696247, 20.9122352 ], [ 78.7690225, 20.9173694 ], [ 78.7672123, 20.9180757 ], [ 78.7664624, 20.9204443 ], [ 78.7576945, 20.9209215 ], [ 78.7527728, 20.9234143 ], [ 78.7484373, 20.9305816 ], [ 78.7424083, 20.934536 ], [ 78.7428608, 20.9361921 ], [ 78.7396322, 20.9395474 ], [ 78.7484766, 20.9445831 ], [ 78.7422136, 20.9438356 ], [ 78.7332085, 20.9463043 ], [ 78.7309419, 20.9580938 ], [ 78.7318335, 20.959591 ], [ 78.7301502, 20.9632662 ], [ 78.7243506, 20.9688463 ], [ 78.7257645, 20.973412 ], [ 78.7233916, 20.9793979 ], [ 78.7254112, 20.9830004 ], [ 78.7237953, 20.9885116 ], [ 78.7249429, 20.9922621 ], [ 78.7294365, 20.994575 ], [ 78.7269513, 20.9999978 ], [ 78.7265731, 21.0041686 ], [ 78.7254457, 21.0044508 ], [ 78.7251583, 21.0024856 ], [ 78.7203308, 21.0054982 ], [ 78.7160005, 21.0041019 ], [ 78.7121362, 21.0085365 ], [ 78.7103615, 21.0139501 ], [ 78.707345, 21.013534 ], [ 78.6921635, 21.0178045 ], [ 78.6862632, 21.0208852 ], [ 78.6825546, 21.0294125 ], [ 78.6780216, 21.030076 ], [ 78.6792222, 21.033323 ], [ 78.6765389, 21.0326904 ], [ 78.6756437, 21.0360807 ], [ 78.6660696, 21.0334773 ], [ 78.661366, 21.0345076 ], [ 78.6558982, 21.033198 ], [ 78.6491695, 21.0355764 ], [ 78.6506331, 21.0449075 ], [ 78.6496326, 21.0518898 ], [ 78.6489199, 21.0535104 ], [ 78.6452406, 21.0548677 ], [ 78.6435882, 21.0582037 ], [ 78.6293004, 21.0577311 ], [ 78.6266949, 21.0663054 ], [ 78.6213876, 21.0681318 ], [ 78.6176209, 21.0654072 ], [ 78.6150568, 21.0654829 ], [ 78.614959, 21.0685946 ], [ 78.6114451, 21.0700048 ], [ 78.6070434, 21.069617 ], [ 78.6073757, 21.0739659 ], [ 78.6100417, 21.0793117 ], [ 78.6106264, 21.0883658 ], [ 78.5972114, 21.0896403 ], [ 78.5980447, 21.096487 ], [ 78.5944743, 21.0975706 ], [ 78.5953915, 21.1026254 ], [ 78.5973699, 21.105868 ], [ 78.5992825, 21.1058105 ], [ 78.5993267, 21.1080685 ], [ 78.5901825, 21.109612 ], [ 78.5881529, 21.1115391 ], [ 78.5881781, 21.1148995 ], [ 78.5847248, 21.116636 ], [ 78.577945, 21.1142053 ], [ 78.5740913, 21.1141549 ], [ 78.5549242, 21.1168216 ], [ 78.5526543, 21.1190754 ], [ 78.5528379, 21.1257512 ], [ 78.5468779, 21.127672 ], [ 78.5451026, 21.1326995 ], [ 78.540265, 21.1368266 ], [ 78.5302813, 21.140325 ], [ 78.5289021, 21.1444876 ], [ 78.5296355, 21.145781 ], [ 78.5277501, 21.1477745 ], [ 78.5280979, 21.1508729 ], [ 78.5233908, 21.1521826 ], [ 78.5242409, 21.1545734 ], [ 78.5185031, 21.1628249 ], [ 78.5203325, 21.1686619 ], [ 78.5198015, 21.174413 ], [ 78.5105818, 21.1826954 ], [ 78.509872, 21.1868964 ], [ 78.5029632, 21.1871991 ], [ 78.5020175, 21.1908011 ], [ 78.4916799, 21.2005658 ], [ 78.4911852, 21.2025241 ], [ 78.4862366, 21.207172 ], [ 78.485552, 21.2102963 ], [ 78.4783943, 21.2130542 ], [ 78.4772866, 21.2196276 ], [ 78.4750194, 21.2190172 ], [ 78.4722889, 21.2159786 ], [ 78.470406, 21.2159808 ], [ 78.4694924, 21.2189311 ], [ 78.4637782, 21.2212991 ], [ 78.4632402, 21.2240483 ], [ 78.4549382, 21.2249592 ], [ 78.450343, 21.2287856 ], [ 78.4452816, 21.2360034 ], [ 78.4407507, 21.2346802 ], [ 78.4301022, 21.225989 ], [ 78.4165939, 21.2290001 ], [ 78.4135112, 21.2326122 ], [ 78.4119305, 21.2392109 ], [ 78.4006874, 21.2394459 ], [ 78.3963266, 21.2412077 ], [ 78.3825008, 21.2431266 ], [ 78.3753607, 21.2420522 ], [ 78.3621589, 21.2492817 ], [ 78.3583525, 21.2526835 ], [ 78.3420606, 21.2532207 ], [ 78.3376434, 21.2503591 ], [ 78.3313952, 21.2500077 ], [ 78.324579, 21.255782 ], [ 78.3244535, 21.2629408 ], [ 78.3293695, 21.2678816 ], [ 78.3277851, 21.2712669 ], [ 78.3243079, 21.2731945 ], [ 78.3210009, 21.2731944 ], [ 78.3109281, 21.2680872 ], [ 78.3065979, 21.2712162 ], [ 78.3034499, 21.275495 ], [ 78.3032323, 21.2795398 ], [ 78.3091515, 21.2863205 ], [ 78.3126458, 21.2945773 ], [ 78.2941617, 21.2931313 ], [ 78.2893239, 21.2969555 ], [ 78.2856726, 21.3022722 ], [ 78.2774439, 21.3064548 ], [ 78.2750979, 21.3111218 ], [ 78.2699278, 21.3150836 ], [ 78.2668338, 21.3226958 ], [ 78.2641675, 21.3228819 ], [ 78.2572846, 21.3299611 ], [ 78.2556836, 21.3297739 ], [ 78.2553926, 21.3268075 ], [ 78.2537406, 21.3255256 ], [ 78.2495982, 21.3312374 ], [ 78.2511304, 21.3387506 ], [ 78.2621973, 21.3441361 ], [ 78.2691326, 21.3458825 ], [ 78.272245, 21.3516524 ], [ 78.2774936, 21.3522069 ], [ 78.2866991, 21.3504123 ], [ 78.2975354, 21.3555135 ], [ 78.3071023, 21.3573346 ], [ 78.3087875, 21.3619061 ], [ 78.3167021, 21.3667783 ], [ 78.3222217, 21.3688309 ], [ 78.3272971, 21.3683786 ], [ 78.3299083, 21.3721226 ], [ 78.3385112, 21.3748889 ], [ 78.3429607, 21.3800392 ], [ 78.3446758, 21.3852987 ], [ 78.3468333, 21.3842427 ], [ 78.3471153, 21.3799285 ], [ 78.3499341, 21.3818593 ], [ 78.354298, 21.3800616 ], [ 78.3582823, 21.3828592 ], [ 78.3623801, 21.3826504 ], [ 78.3644958, 21.3850302 ], [ 78.3634206, 21.3922191 ], [ 78.3713112, 21.3956984 ], [ 78.374155, 21.3950998 ], [ 78.3764028, 21.3897988 ], [ 78.3801996, 21.3876394 ], [ 78.3821036, 21.3869276 ], [ 78.3865393, 21.3907089 ], [ 78.38914, 21.3913876 ], [ 78.3949846, 21.3851307 ], [ 78.4069138, 21.3817046 ], [ 78.4082249, 21.3819341 ], [ 78.4059145, 21.3853445 ], [ 78.4068028, 21.3876699 ], [ 78.4104526, 21.3891761 ], [ 78.4131981, 21.3874852 ], [ 78.4195592, 21.3910129 ], [ 78.4204565, 21.3942278 ], [ 78.4168656, 21.3929394 ], [ 78.4159185, 21.393639 ], [ 78.4190829, 21.3955851 ], [ 78.4207842, 21.3994368 ], [ 78.4238475, 21.3968498 ], [ 78.4323071, 21.4014191 ], [ 78.4385124, 21.4021707 ], [ 78.4406934, 21.4006559 ], [ 78.4475902, 21.4028329 ], [ 78.449195, 21.4106412 ], [ 78.448094, 21.4128765 ], [ 78.4452767, 21.4131173 ], [ 78.443672, 21.4161942 ], [ 78.4446702, 21.4214338 ], [ 78.4417963, 21.4220671 ], [ 78.4414102, 21.4354686 ], [ 78.4385237, 21.4397958 ], [ 78.4388914, 21.4415061 ], [ 78.442125, 21.4431377 ], [ 78.4428396, 21.446538 ], [ 78.4406155, 21.4481908 ], [ 78.4413537, 21.4523892 ], [ 78.4387053, 21.4564601 ], [ 78.4400617, 21.462773 ], [ 78.4364639, 21.4658582 ], [ 78.438469, 21.4710002 ], [ 78.4282169, 21.4758417 ], [ 78.4295956, 21.4828811 ], [ 78.4289441, 21.4858676 ], [ 78.4331157, 21.4911682 ], [ 78.4301648, 21.4956646 ], [ 78.4303951, 21.4974495 ], [ 78.4365007, 21.4995042 ], [ 78.4395506, 21.5023024 ], [ 78.4480949, 21.5000049 ], [ 78.4496546, 21.4955182 ], [ 78.4529969, 21.4968288 ], [ 78.4570933, 21.4960678 ], [ 78.4606828, 21.5034783 ], [ 78.4622277, 21.5038351 ], [ 78.4696633, 21.5008739 ], [ 78.475225, 21.500968 ], [ 78.4757038, 21.5057085 ], [ 78.486852, 21.5055327 ], [ 78.4869011, 21.507191 ], [ 78.4950337, 21.5172494 ], [ 78.5006718, 21.5171808 ], [ 78.5047207, 21.5267932 ], [ 78.509258, 21.5260243 ], [ 78.5116449, 21.5286901 ], [ 78.5307606, 21.5232605 ], [ 78.5406684, 21.5237173 ], [ 78.5497347, 21.5182756 ], [ 78.5507092, 21.5190076 ], [ 78.555975, 21.5176168 ], [ 78.5565309, 21.515551 ], [ 78.5600162, 21.5132764 ], [ 78.5701452, 21.5142554 ], [ 78.5670198, 21.5097025 ], [ 78.5678514, 21.5057921 ], [ 78.5731512, 21.5015625 ], [ 78.5717198, 21.4988987 ], [ 78.5763626, 21.4978704 ], [ 78.5784344, 21.4947699 ], [ 78.5824905, 21.4923008 ], [ 78.5818975, 21.4899518 ], [ 78.5841566, 21.4900069 ], [ 78.5853352, 21.4867217 ], [ 78.5947514, 21.488477 ], [ 78.6009792, 21.485401 ], [ 78.6030127, 21.4880854 ], [ 78.6087732, 21.4890602 ], [ 78.6191841, 21.4815712 ], [ 78.6199701, 21.4782561 ], [ 78.628684, 21.4756802 ], [ 78.6434278, 21.4855173 ], [ 78.6593061, 21.4813803 ], [ 78.6671221, 21.4770857 ], [ 78.6709363, 21.4800935 ], [ 78.6889102, 21.4819708 ], [ 78.6901364, 21.4801954 ], [ 78.6884944, 21.4779448 ], [ 78.6933483, 21.4790902 ], [ 78.7016681, 21.4763157 ], [ 78.699841, 21.4738056 ], [ 78.7073751, 21.4739103 ], [ 78.7075581, 21.4706347 ], [ 78.7116262, 21.469875 ], [ 78.7284659, 21.462293 ], [ 78.7309957, 21.4638067 ], [ 78.7334265, 21.469693 ], [ 78.7410538, 21.4709911 ], [ 78.7455883, 21.4701869 ], [ 78.7449501, 21.4810065 ], [ 78.7508485, 21.4929839 ], [ 78.7566282, 21.490238 ], [ 78.7668733, 21.4890351 ], [ 78.7665981, 21.4828031 ], [ 78.7688069, 21.4774985 ], [ 78.771596, 21.476719 ], [ 78.7718987, 21.471675 ], [ 78.7761629, 21.4652922 ], [ 78.7787702, 21.4693581 ], [ 78.7787949, 21.4758608 ], [ 78.7801486, 21.4788736 ], [ 78.7865551, 21.4793357 ], [ 78.7869791, 21.4808914 ], [ 78.7886919, 21.4808923 ], [ 78.7899818, 21.4863931 ], [ 78.7959941, 21.4855381 ], [ 78.7998573, 21.4883939 ], [ 78.8002569, 21.4901552 ], [ 78.8024527, 21.4894021 ], [ 78.8151563, 21.4906399 ], [ 78.8155725, 21.4876957 ], [ 78.8197897, 21.4872592 ], [ 78.8242423, 21.4895185 ], [ 78.8297523, 21.4901703 ], [ 78.8410484, 21.4870028 ], [ 78.8442521, 21.4873558 ], [ 78.8484396, 21.4900344 ], [ 78.8519089, 21.4897187 ], [ 78.8561931, 21.4928397 ], [ 78.8558648, 21.4946189 ], [ 78.8633101, 21.4927003 ], [ 78.8680339, 21.4940779 ], [ 78.8676335, 21.4913097 ], [ 78.8715177, 21.4896887 ], [ 78.8814137, 21.4864101 ], [ 78.8908366, 21.4852625 ], [ 78.8951808, 21.4982765 ], [ 78.8992586, 21.5004616 ], [ 78.917406, 21.4922432 ], [ 78.9194402, 21.489304 ], [ 78.9230626, 21.4874465 ], [ 78.9366924, 21.4857667 ], [ 78.9392384, 21.4935418 ], [ 78.9402533, 21.5078659 ], [ 78.9412972, 21.511302 ], [ 78.9446663, 21.5126601 ], [ 78.9443927, 21.5158752 ], [ 78.9354304, 21.5228347 ], [ 78.9318002, 21.5236652 ], [ 78.9274272, 21.5222487 ], [ 78.9273622, 21.5288958 ], [ 78.925931, 21.5326869 ], [ 78.9298712, 21.5403606 ], [ 78.9255454, 21.5408214 ], [ 78.918598, 21.5471286 ], [ 78.9125502, 21.548861 ], [ 78.9133764, 21.5507831 ], [ 78.9067975, 21.5532591 ], [ 78.9127404, 21.5552989 ], [ 78.9181677, 21.5611411 ], [ 78.9279185, 21.5595758 ], [ 78.9318633, 21.5617601 ], [ 78.9319416, 21.5645192 ], [ 78.9227612, 21.5686858 ], [ 78.9184007, 21.5686296 ], [ 78.9137507, 21.5709854 ], [ 78.9152904, 21.5772359 ], [ 78.9150504, 21.5829891 ], [ 78.9165188, 21.5849305 ], [ 78.9162975, 21.5875948 ], [ 78.9143232, 21.5888687 ], [ 78.9157094, 21.588662 ], [ 78.9167619, 21.5909183 ], [ 78.9274941, 21.59025 ], [ 78.9299682, 21.5928381 ], [ 78.9434921, 21.591957 ], [ 78.9474243, 21.5967166 ], [ 78.9520032, 21.5971684 ], [ 78.9651205, 21.6048889 ], [ 78.9699327, 21.6105175 ], [ 78.9742592, 21.6127978 ], [ 78.9755219, 21.6176379 ], [ 78.987145, 21.615965 ], [ 78.995956, 21.6169569 ], [ 78.9980123, 21.6185735 ], [ 79.0028122, 21.609265 ], [ 79.0029115, 21.6064227 ], [ 79.0082289, 21.603701 ], [ 79.012369, 21.5994462 ], [ 79.0192094, 21.6025874 ], [ 79.024844, 21.6016948 ], [ 79.0418812, 21.6047338 ], [ 79.0476929, 21.6024413 ], [ 79.0529419, 21.6041606 ], [ 79.0553702, 21.6014845 ], [ 79.0582504, 21.6015124 ], [ 79.0764653, 21.6053959 ], [ 79.0885099, 21.6039532 ], [ 79.0896529, 21.5975702 ], [ 79.0939582, 21.5981122 ], [ 79.0933605, 21.6016051 ], [ 79.1029564, 21.6014872 ], [ 79.1072064, 21.6050267 ], [ 79.1069352, 21.6072145 ], [ 79.1040673, 21.6073489 ], [ 79.1020708, 21.6092296 ], [ 79.1005273, 21.6176034 ], [ 79.1121056, 21.6239133 ], [ 79.1186247, 21.6238205 ], [ 79.1228864, 21.6249257 ], [ 79.1238988, 21.6265932 ], [ 79.1303444, 21.625807 ], [ 79.1345247, 21.6332086 ], [ 79.1433004, 21.6369641 ], [ 79.1452764, 21.6466939 ], [ 79.1482369, 21.6508749 ], [ 79.1483129, 21.6611749 ], [ 79.2089895, 21.6500622 ], [ 79.2240204, 21.6488038 ], [ 79.2241115, 21.6554295 ], [ 79.230305, 21.6557175 ], [ 79.2313058, 21.6569866 ], [ 79.2311805, 21.670351 ], [ 79.22906, 21.6739788 ], [ 79.2218186, 21.6770375 ], [ 79.2208593, 21.6928692 ], [ 79.2267876, 21.7036829 ], [ 79.233938, 21.7085774 ], [ 79.2373684, 21.713406 ], [ 79.2352193, 21.7175178 ], [ 79.2308561, 21.7187503 ], [ 79.2306442, 21.72223 ] ] ] } }
]
}
