{
"type": "FeatureCollection",
"name": "2712",
"crs": { "type": "name", "properties": { "name": "urn:ogc:def:crs:OGC:1.3:CRS84" } },
"features": [
{ "type": "Feature", "properties": { "code": "2712", "name": "Gadchiroli", "type": "district" }, "geometry": { "type": "Polygon", "coordinates": [ [ [ 80.5224756, 20.8344319 ], [ 80.5322798, 20.8303841 ], [ 80.5509491, 20.8260506 ], [ 80.5546716, 20.8222834 ], [ 80.5617358, 20.8234636 ], [ 80.5590066, 20.8163438 ], [ 80.5585908, 20.8115791 ], [ 80.5491748, 20.7960622 ], [ 80.5521885, 20.7808711 ], [ 80.5511348, 20.7751125 ], [ 80.55242, 20.7685872 ], [ 80.5516635, 20.7640345 ], [ 80.5583622, 20.7518842 ], [ 80.5627599, 20.7473246 ], [ 80.5628442, 20.7340007 ], [ 80.5600429, 20.7283996 ], [ 80.5600825, 20.7258028 ], [ 80.5633927, 20.7189258 ], [ 80.5651527, 20.7107882 ], [ 80.56729, 20.7073701 ], [ 80.5748508, 20.7040531 ], [ 80.5818027, 20.6974116 ], [ 80.5866572, 20.6884751 ], [ 80.5876517, 20.6840675 ], [ 80.5836848, 20.6766193 ], [ 80.5801252, 20.6729196 ], [ 80.5569676, 20.670234 ], [ 80.5524675, 20.6680915 ], [ 80.5480366, 20.6621824 ], [ 80.544909, 20.660284 ], [ 80.5307829, 20.6601054 ], [ 80.5212936, 20.6572773 ], [ 80.5179268, 20.6550623 ], [ 80.4956501, 20.6368484 ], [ 80.4942023, 20.6266707 ], [ 80.4941495, 20.6125042 ], [ 80.4967497, 20.6023961 ], [ 80.502842, 20.5938209 ], [ 80.5044138, 20.5833534 ], [ 80.5108213, 20.5831499 ], [ 80.5209282, 20.5804781 ], [ 80.5259491, 20.5808153 ], [ 80.5388381, 20.5849952 ], [ 80.5449719, 20.5901824 ], [ 80.5578309, 20.5943432 ], [ 80.5643933, 20.6036175 ], [ 80.5807674, 20.6083645 ], [ 80.587531, 20.6076028 ], [ 80.6014077, 20.608793 ], [ 80.6050245, 20.6074251 ], [ 80.6123064, 20.6005067 ], [ 80.628293, 20.6000917 ], [ 80.6318616, 20.5984024 ], [ 80.6240578, 20.5920482 ], [ 80.6232281, 20.5892301 ], [ 80.6173483, 20.5857524 ], [ 80.617708, 20.5843162 ], [ 80.6217318, 20.5825279 ], [ 80.6255542, 20.5781335 ], [ 80.6247915, 20.5764399 ], [ 80.621075, 20.5744256 ], [ 80.6209552, 20.5700629 ], [ 80.6258658, 20.5684551 ], [ 80.626585, 20.5638124 ], [ 80.6240627, 20.5590342 ], [ 80.6243072, 20.5557734 ], [ 80.6184333, 20.55529 ], [ 80.6177382, 20.5521196 ], [ 80.615269, 20.5498974 ], [ 80.6179685, 20.5465781 ], [ 80.6178729, 20.5429335 ], [ 80.6213156, 20.5327989 ], [ 80.6179551, 20.5254508 ], [ 80.6208843, 20.5258935 ], [ 80.6201653, 20.522172 ], [ 80.6180752, 20.5206003 ], [ 80.6189501, 20.518978 ], [ 80.6173227, 20.5151716 ], [ 80.618852, 20.5143362 ], [ 80.6172223, 20.5106598 ], [ 80.619295, 20.505854 ], [ 80.6147116, 20.4925599 ], [ 80.6163462, 20.4883598 ], [ 80.6125954, 20.46193 ], [ 80.6021742, 20.4499606 ], [ 80.6026635, 20.4462076 ], [ 80.6080496, 20.4438777 ], [ 80.6128894, 20.4387114 ], [ 80.613642, 20.434981 ], [ 80.6081331, 20.4241458 ], [ 80.6045305, 20.4224292 ], [ 80.6000948, 20.4180116 ], [ 80.5989175, 20.410582 ], [ 80.5914815, 20.3930708 ], [ 80.5947329, 20.3857997 ], [ 80.5972883, 20.3859585 ], [ 80.5965845, 20.3838356 ], [ 80.603803, 20.3812397 ], [ 80.6107485, 20.375062 ], [ 80.6094846, 20.3698545 ], [ 80.6159028, 20.3599098 ], [ 80.6146818, 20.3570825 ], [ 80.6151084, 20.3517938 ], [ 80.618815, 20.3491338 ], [ 80.6185374, 20.3447348 ], [ 80.6215782, 20.3395636 ], [ 80.6257967, 20.3369215 ], [ 80.6263521, 20.3326264 ], [ 80.6223685, 20.3254092 ], [ 80.6148516, 20.3223874 ], [ 80.6105238, 20.3184037 ], [ 80.6010538, 20.3173187 ], [ 80.5880839, 20.3179172 ], [ 80.5591988, 20.3085101 ], [ 80.5495759, 20.3089579 ], [ 80.5460443, 20.3060342 ], [ 80.5461778, 20.2976608 ], [ 80.5434991, 20.2935271 ], [ 80.5321951, 20.2808574 ], [ 80.5225597, 20.2735399 ], [ 80.5195615, 20.2694237 ], [ 80.518817, 20.2661669 ], [ 80.5104587, 20.2685825 ], [ 80.4899113, 20.2782616 ], [ 80.479132, 20.2782966 ], [ 80.4669389, 20.2761225 ], [ 80.4472091, 20.2624635 ], [ 80.4368953, 20.2611664 ], [ 80.4220531, 20.2534861 ], [ 80.4167807, 20.248817 ], [ 80.3981354, 20.2442725 ], [ 80.3968818, 20.2454424 ], [ 80.3952595, 20.245009 ], [ 80.3951914, 20.2370104 ], [ 80.3991909, 20.2311565 ], [ 80.4048349, 20.2187308 ], [ 80.4118813, 20.212849 ], [ 80.4220513, 20.206799 ], [ 80.4210051, 20.196172 ], [ 80.4121065, 20.1944669 ], [ 80.4006865, 20.1897176 ], [ 80.3979635, 20.1829749 ], [ 80.3965894, 20.1738969 ], [ 80.3920305, 20.1704333 ], [ 80.3885383, 20.165199 ], [ 80.3952571, 20.1546116 ], [ 80.4018177, 20.1472443 ], [ 80.4052368, 20.1452385 ], [ 80.4259285, 20.1399312 ], [ 80.4295856, 20.1360956 ], [ 80.4333785, 20.1353303 ], [ 80.4380266, 20.1368272 ], [ 80.4468012, 20.135999 ], [ 80.4554484, 20.1379283 ], [ 80.4546534, 20.1452545 ], [ 80.456645, 20.1493049 ], [ 80.4601467, 20.1509382 ], [ 80.4661582, 20.1504203 ], [ 80.4768872, 20.1457398 ], [ 80.485083, 20.143874 ], [ 80.4969541, 20.1455283 ], [ 80.5033855, 20.1439047 ], [ 80.5055945, 20.1444392 ], [ 80.5099345, 20.1412986 ], [ 80.5124108, 20.1358443 ], [ 80.5309777, 20.1314153 ], [ 80.5403406, 20.1228478 ], [ 80.5520725, 20.1179615 ], [ 80.551933, 20.1093259 ], [ 80.5477178, 20.1054219 ], [ 80.544003, 20.0956374 ], [ 80.5505678, 20.0843173 ], [ 80.5549057, 20.0796851 ], [ 80.5568117, 20.0718767 ], [ 80.5543671, 20.0654262 ], [ 80.5510946, 20.0616355 ], [ 80.5493148, 20.0552483 ], [ 80.5509844, 20.041636 ], [ 80.5468422, 20.0289789 ], [ 80.5458712, 20.0211558 ], [ 80.5469671, 20.0179495 ], [ 80.5425649, 20.0107707 ], [ 80.5498518, 20.0008103 ], [ 80.5496005, 19.9859715 ], [ 80.5437802, 19.9775416 ], [ 80.5376393, 19.9737937 ], [ 80.5378048, 19.9695639 ], [ 80.5358023, 19.9655289 ], [ 80.5393905, 19.9625553 ], [ 80.5372086, 19.9593096 ], [ 80.5389018, 19.9518919 ], [ 80.534947, 19.9511001 ], [ 80.5316397, 19.9485653 ], [ 80.5298944, 19.9394673 ], [ 80.5256103, 19.9373085 ], [ 80.5236194, 19.9337854 ], [ 80.5096544, 19.9310474 ], [ 80.5047441, 19.9285459 ], [ 80.5000194, 19.9286126 ], [ 80.4959264, 19.9310577 ], [ 80.4887472, 19.9306074 ], [ 80.480733, 19.934371 ], [ 80.4784247, 19.9384447 ], [ 80.479978, 19.9409183 ], [ 80.4791239, 19.9440014 ], [ 80.4731643, 19.9509451 ], [ 80.4660318, 19.9481848 ], [ 80.4640238, 19.9505363 ], [ 80.4619146, 19.9501245 ], [ 80.4588451, 19.9536513 ], [ 80.4521556, 19.957604 ], [ 80.4304487, 19.9408248 ], [ 80.4241983, 19.9394382 ], [ 80.419516, 19.9403432 ], [ 80.4112528, 19.9384939 ], [ 80.4125737, 19.9246368 ], [ 80.4079537, 19.9127142 ], [ 80.4138831, 19.9074511 ], [ 80.4237138, 19.9025919 ], [ 80.4332355, 19.9028328 ], [ 80.4504639, 19.8964233 ], [ 80.4571679, 19.8989656 ], [ 80.4603533, 19.9011357 ], [ 80.4620348, 19.9043817 ], [ 80.4686237, 19.9075644 ], [ 80.4741427, 19.9038102 ], [ 80.4914266, 19.9020133 ], [ 80.4995845, 19.8908421 ], [ 80.5024142, 19.878431 ], [ 80.5058245, 19.8706498 ], [ 80.4995164, 19.8696831 ], [ 80.4862872, 19.8635936 ], [ 80.4825344, 19.8588081 ], [ 80.4841692, 19.8542277 ], [ 80.4834186, 19.851442 ], [ 80.4810171, 19.849271 ], [ 80.4810201, 19.8454757 ], [ 80.4786898, 19.8393218 ], [ 80.4719028, 19.8355594 ], [ 80.4690793, 19.8270217 ], [ 80.4600749, 19.8229944 ], [ 80.4407211, 19.8103338 ], [ 80.4296752, 19.8071442 ], [ 80.421585, 19.8133998 ], [ 80.4130602, 19.8163904 ], [ 80.4060836, 19.815919 ], [ 80.4016243, 19.817038 ], [ 80.4076883, 19.8060044 ], [ 80.4016982, 19.7962007 ], [ 80.4048777, 19.7937183 ], [ 80.4241623, 19.7991611 ], [ 80.4394886, 19.7960585 ], [ 80.4492968, 19.7897712 ], [ 80.4642583, 19.7957751 ], [ 80.4680305, 19.7888249 ], [ 80.4742271, 19.7862096 ], [ 80.4808301, 19.781293 ], [ 80.482663, 19.7727365 ], [ 80.489029, 19.7704104 ], [ 80.4913051, 19.7752919 ], [ 80.4899931, 19.7901463 ], [ 80.4859546, 19.7964816 ], [ 80.4849679, 19.8024772 ], [ 80.4836468, 19.8031696 ], [ 80.4805036, 19.8020944 ], [ 80.4756525, 19.8036182 ], [ 80.4688777, 19.8104467 ], [ 80.4805813, 19.8275058 ], [ 80.500369, 19.8277121 ], [ 80.5040352, 19.8308504 ], [ 80.5119185, 19.8303458 ], [ 80.5202064, 19.8317181 ], [ 80.5463022, 19.8182657 ], [ 80.546619, 19.8110469 ], [ 80.5452154, 19.806079 ], [ 80.5475574, 19.7948972 ], [ 80.5424401, 19.783448 ], [ 80.5426119, 19.7799232 ], [ 80.543741, 19.775805 ], [ 80.552607, 19.7655605 ], [ 80.5621525, 19.7609664 ], [ 80.5714584, 19.7592265 ], [ 80.5738176, 19.7548134 ], [ 80.5820633, 19.7508178 ], [ 80.5841965, 19.7473748 ], [ 80.5814104, 19.7459953 ], [ 80.5848865, 19.744081 ], [ 80.5864669, 19.741136 ], [ 80.5901032, 19.7422214 ], [ 80.5943768, 19.7391695 ], [ 80.5959917, 19.740435 ], [ 80.5972373, 19.7395713 ], [ 80.5989686, 19.7403122 ], [ 80.6057189, 19.7367343 ], [ 80.6110578, 19.7381713 ], [ 80.6139746, 19.7350304 ], [ 80.6211041, 19.7330312 ], [ 80.6267605, 19.7257847 ], [ 80.6401314, 19.7253056 ], [ 80.6501996, 19.7114329 ], [ 80.6564076, 19.7070921 ], [ 80.6634421, 19.7059321 ], [ 80.6722163, 19.7007159 ], [ 80.6742501, 19.6844131 ], [ 80.667345, 19.6577117 ], [ 80.667871, 19.6495862 ], [ 80.6660992, 19.6442603 ], [ 80.6663712, 19.6379859 ], [ 80.6626174, 19.6224818 ], [ 80.6651082, 19.6160649 ], [ 80.6653321, 19.6118792 ], [ 80.6702714, 19.6093192 ], [ 80.688468, 19.6131711 ], [ 80.7056734, 19.6139815 ], [ 80.7146477, 19.6167048 ], [ 80.7303383, 19.6101795 ], [ 80.7330782, 19.6063032 ], [ 80.7408459, 19.6062309 ], [ 80.7458784, 19.6015384 ], [ 80.7575215, 19.5966735 ], [ 80.7599952, 19.591647 ], [ 80.7653221, 19.5903853 ], [ 80.7694283, 19.5866697 ], [ 80.7670331, 19.5749137 ], [ 80.7751089, 19.5625119 ], [ 80.7811338, 19.5637469 ], [ 80.7862726, 19.5607677 ], [ 80.7894424, 19.5604177 ], [ 80.7969955, 19.5624843 ], [ 80.8029219, 19.5655724 ], [ 80.806328, 19.5689563 ], [ 80.8107861, 19.5688969 ], [ 80.8161538, 19.5711969 ], [ 80.8239595, 19.5667214 ], [ 80.8317928, 19.567446 ], [ 80.8355933, 19.5663568 ], [ 80.8394597, 19.5594121 ], [ 80.8406501, 19.5542524 ], [ 80.8394006, 19.5492105 ], [ 80.8416622, 19.5457194 ], [ 80.8436967, 19.5384537 ], [ 80.8496749, 19.5344977 ], [ 80.849898, 19.5289057 ], [ 80.8534297, 19.5267831 ], [ 80.8562074, 19.5230028 ], [ 80.864483, 19.5200446 ], [ 80.8685106, 19.5217724 ], [ 80.873139, 19.5187007 ], [ 80.8836868, 19.5261709 ], [ 80.8912036, 19.5205143 ], [ 80.8949649, 19.5196248 ], [ 80.8947126, 19.5096214 ], [ 80.8932103, 19.5072692 ], [ 80.8942777, 19.5036862 ], [ 80.8929402, 19.5022997 ], [ 80.8950151, 19.5007885 ], [ 80.8976843, 19.4804487 ], [ 80.8934312, 19.4665797 ], [ 80.8800084, 19.450298 ], [ 80.8736309, 19.444988 ], [ 80.8645588, 19.4444623 ], [ 80.8564828, 19.4460444 ], [ 80.8534538, 19.4447466 ], [ 80.850489, 19.4466902 ], [ 80.8475941, 19.445392 ], [ 80.8454442, 19.4468905 ], [ 80.8424112, 19.4468885 ], [ 80.8301267, 19.4431873 ], [ 80.8279536, 19.4401411 ], [ 80.8230612, 19.4398451 ], [ 80.8125271, 19.4327561 ], [ 80.8071841, 19.4335515 ], [ 80.7958498, 19.4322648 ], [ 80.7957465, 19.4299347 ], [ 80.7993234, 19.4227203 ], [ 80.802832, 19.4215826 ], [ 80.8042898, 19.4194606 ], [ 80.8044731, 19.411953 ], [ 80.8122273, 19.4063642 ], [ 80.8166481, 19.3971513 ], [ 80.8173306, 19.3839068 ], [ 80.820671, 19.3811642 ], [ 80.8283933, 19.3800784 ], [ 80.8418513, 19.3719149 ], [ 80.8490536, 19.3697379 ], [ 80.8528527, 19.3638999 ], [ 80.8460777, 19.3552533 ], [ 80.830357, 19.3481838 ], [ 80.8100738, 19.3362119 ], [ 80.8060941, 19.3275114 ], [ 80.7988311, 19.3266167 ], [ 80.7956724, 19.3234044 ], [ 80.7902212, 19.3235965 ], [ 80.7742124, 19.3135782 ], [ 80.7686124, 19.3036197 ], [ 80.7630401, 19.2971941 ], [ 80.7597362, 19.2958431 ], [ 80.7594903, 19.2912495 ], [ 80.7552923, 19.2890817 ], [ 80.7509574, 19.2877586 ], [ 80.7431276, 19.2890203 ], [ 80.7422947, 19.2870803 ], [ 80.7383164, 19.285456 ], [ 80.7265632, 19.2871761 ], [ 80.721695, 19.2846643 ], [ 80.7172025, 19.2849439 ], [ 80.7137204, 19.2822651 ], [ 80.7107596, 19.2817564 ], [ 80.7054134, 19.2819714 ], [ 80.7041741, 19.2830947 ], [ 80.7018544, 19.2820977 ], [ 80.6993085, 19.2847412 ], [ 80.6956996, 19.2843316 ], [ 80.6896992, 19.2869752 ], [ 80.6886489, 19.2951722 ], [ 80.6931536, 19.3155464 ], [ 80.6861324, 19.3267339 ], [ 80.6798969, 19.3303321 ], [ 80.67313, 19.3300127 ], [ 80.6638925, 19.3254657 ], [ 80.6540502, 19.322811 ], [ 80.6483579, 19.3157173 ], [ 80.6469866, 19.3164937 ], [ 80.6364936, 19.3133303 ], [ 80.6353706, 19.3106564 ], [ 80.631512, 19.3071695 ], [ 80.6232909, 19.3057242 ], [ 80.6149793, 19.3098253 ], [ 80.6125435, 19.309518 ], [ 80.6078944, 19.3182308 ], [ 80.6068235, 19.3219662 ], [ 80.6076557, 19.3261264 ], [ 80.6045102, 19.3290575 ], [ 80.5900311, 19.351771 ], [ 80.5908389, 19.3576972 ], [ 80.5882234, 19.3702583 ], [ 80.5917965, 19.3759141 ], [ 80.580958, 19.3978865 ], [ 80.5759251, 19.402357 ], [ 80.5624785, 19.3991007 ], [ 80.5520964, 19.3885364 ], [ 80.5441734, 19.3838761 ], [ 80.5426042, 19.3808898 ], [ 80.5384268, 19.3777893 ], [ 80.5203309, 19.3477696 ], [ 80.5068105, 19.3424178 ], [ 80.4957445, 19.3432316 ], [ 80.4883438, 19.3417684 ], [ 80.482498, 19.3381358 ], [ 80.4770492, 19.3299227 ], [ 80.4713394, 19.313832 ], [ 80.4630302, 19.3009178 ], [ 80.4573626, 19.2883408 ], [ 80.454735, 19.2749944 ], [ 80.4484097, 19.2666317 ], [ 80.4376998, 19.2578683 ], [ 80.4298699, 19.2540766 ], [ 80.3955019, 19.2464684 ], [ 80.3890286, 19.2379681 ], [ 80.3863128, 19.2330041 ], [ 80.3839341, 19.2150222 ], [ 80.3858262, 19.2102839 ], [ 80.3917974, 19.202627 ], [ 80.394345, 19.1963707 ], [ 80.3938449, 19.1877976 ], [ 80.3876592, 19.1805077 ], [ 80.3478866, 19.1601165 ], [ 80.3477833, 19.1523608 ], [ 80.3406835, 19.1462075 ], [ 80.3330789, 19.1455238 ], [ 80.3274307, 19.1351108 ], [ 80.3300025, 19.1327174 ], [ 80.3312346, 19.1279477 ], [ 80.3306806, 19.12049 ], [ 80.3362141, 19.1118456 ], [ 80.339619, 19.100111 ], [ 80.3301266, 19.0950996 ], [ 80.3279219, 19.0950494 ], [ 80.3311439, 19.0813496 ], [ 80.328925, 19.0759109 ], [ 80.3296677, 19.0701067 ], [ 80.3199586, 19.0658806 ], [ 80.3072642, 19.0558531 ], [ 80.3002827, 19.0523949 ], [ 80.2973392, 19.0490059 ], [ 80.2963806, 19.0468825 ], [ 80.2982357, 19.0412776 ], [ 80.3028755, 19.0349056 ], [ 80.3051621, 19.0273497 ], [ 80.3031268, 19.0221633 ], [ 80.2915258, 19.0092171 ], [ 80.2870487, 19.006821 ], [ 80.2840638, 19.0027451 ], [ 80.2740106, 18.9946929 ], [ 80.2732048, 18.9923707 ], [ 80.2729553, 18.9809559 ], [ 80.2743096, 18.9711861 ], [ 80.2722904, 18.9577512 ], [ 80.2691248, 18.9486746 ], [ 80.2702506, 18.9398759 ], [ 80.2761998, 18.9297654 ], [ 80.29979, 18.9111162 ], [ 80.3028063, 18.9054348 ], [ 80.3161059, 18.8887622 ], [ 80.3261925, 18.8808963 ], [ 80.3431763, 18.8550979 ], [ 80.3492601, 18.8477991 ], [ 80.3522359, 18.8399352 ], [ 80.3543107, 18.8264562 ], [ 80.3514136, 18.8162922 ], [ 80.3500382, 18.8146839 ], [ 80.3418038, 18.812397 ], [ 80.3229954, 18.7989677 ], [ 80.3140116, 18.7999271 ], [ 80.3059871, 18.7979413 ], [ 80.2999365, 18.7944472 ], [ 80.29149, 18.7834714 ], [ 80.2884483, 18.7773763 ], [ 80.2883742, 18.7737807 ], [ 80.2759205, 18.7661088 ], [ 80.2727102, 18.7657637 ], [ 80.2621656, 18.7700988 ], [ 80.2567073, 18.7699825 ], [ 80.2476967, 18.7641968 ], [ 80.2451175, 18.7608601 ], [ 80.2447505, 18.7566074 ], [ 80.2597374, 18.7423211 ], [ 80.2694056, 18.7264443 ], [ 80.272418, 18.7235052 ], [ 80.2661392, 18.7205519 ], [ 80.2650121, 18.7175048 ], [ 80.2522325, 18.7068067 ], [ 80.2386414, 18.7057327 ], [ 80.2346208, 18.7026333 ], [ 80.2303981, 18.701806 ], [ 80.226278, 18.7055953 ], [ 80.2193343, 18.7079174 ], [ 80.2127717, 18.7057177 ], [ 80.2004283, 18.6925598 ], [ 80.1992235, 18.6900013 ], [ 80.1993714, 18.6832072 ], [ 80.196569, 18.6807955 ], [ 80.1904692, 18.6804615 ], [ 80.1787045, 18.6832677 ], [ 80.17416, 18.6881803 ], [ 80.1686228, 18.6997094 ], [ 80.1651175, 18.7009237 ], [ 80.157708, 18.7009798 ], [ 80.1558409, 18.7006109 ], [ 80.1529196, 18.6958719 ], [ 80.1484639, 18.6930864 ], [ 80.1400168, 18.6930002 ], [ 80.1285558, 18.6874333 ], [ 80.1243771, 18.681359 ], [ 80.1181219, 18.6805168 ], [ 80.1122491, 18.682878 ], [ 80.1041543, 18.6915683 ], [ 80.099043, 18.6944817 ], [ 80.0885066, 18.7072776 ], [ 80.0820736, 18.7072471 ], [ 80.0745856, 18.7105166 ], [ 80.069256, 18.7195723 ], [ 80.0646206, 18.7232626 ], [ 80.0569399, 18.7233192 ], [ 80.052797, 18.7250588 ], [ 80.0494794, 18.7286748 ], [ 80.0482178, 18.732941 ], [ 80.041414, 18.7429911 ], [ 80.0386831, 18.7529728 ], [ 80.0345528, 18.7549876 ], [ 80.024984, 18.7549396 ], [ 80.0230817, 18.7571985 ], [ 80.0232319, 18.7617024 ], [ 80.0195327, 18.7657506 ], [ 80.0185443, 18.770383 ], [ 80.000993, 18.7760662 ], [ 79.9995824, 18.7750601 ], [ 79.9980947, 18.7759217 ], [ 79.9958271, 18.7708214 ], [ 79.9930508, 18.769934 ], [ 79.9846492, 18.7715401 ], [ 79.9732259, 18.7717563 ], [ 79.9641541, 18.773825 ], [ 79.9591514, 18.7773039 ], [ 79.9494873, 18.7891494 ], [ 79.9241167, 18.8069011 ], [ 79.9205237, 18.8110829 ], [ 79.914278, 18.8235409 ], [ 79.914268, 18.8271803 ], [ 79.9191052, 18.833815 ], [ 79.9282533, 18.8409128 ], [ 79.9413782, 18.8460376 ], [ 79.9476423, 18.8501822 ], [ 79.9546005, 18.857237 ], [ 79.9585129, 18.8594239 ], [ 79.961605, 18.8666266 ], [ 79.9612627, 18.8754601 ], [ 79.9586737, 18.8886104 ], [ 79.9536137, 18.9045045 ], [ 79.9574158, 18.9227921 ], [ 79.9570465, 18.9428753 ], [ 79.9449851, 18.9800309 ], [ 79.9442214, 18.9865141 ], [ 79.941623, 18.9920892 ], [ 79.9409586, 19.0002254 ], [ 79.9423965, 19.0006571 ], [ 79.9425589, 19.0069804 ], [ 79.9402693, 19.0238249 ], [ 79.9403787, 19.0320131 ], [ 79.9370665, 19.0426944 ], [ 79.9328071, 19.0473981 ], [ 79.9289171, 19.0491943 ], [ 79.9206281, 19.0497141 ], [ 79.907559, 19.0448146 ], [ 79.8992193, 19.0402437 ], [ 79.8770366, 19.0387986 ], [ 79.8711028, 19.0410169 ], [ 79.8685944, 19.0442387 ], [ 79.8659975, 19.0542028 ], [ 79.8633804, 19.0686948 ], [ 79.8633983, 19.0778234 ], [ 79.858965, 19.0927627 ], [ 79.8584296, 19.1024162 ], [ 79.8594116, 19.1086241 ], [ 79.8614614, 19.1122609 ], [ 79.8737516, 19.1240518 ], [ 79.9253236, 19.1515927 ], [ 79.941741, 19.1642789 ], [ 79.9458951, 19.1694926 ], [ 79.9464994, 19.1742491 ], [ 79.9448241, 19.1800789 ], [ 79.9329117, 19.1973651 ], [ 79.9254534, 19.2106389 ], [ 79.9242223, 19.2154626 ], [ 79.9245055, 19.2257165 ], [ 79.930744, 19.2502657 ], [ 79.9363552, 19.2641269 ], [ 79.9505663, 19.2890442 ], [ 79.9548183, 19.2937642 ], [ 79.9622693, 19.2973544 ], [ 79.9658724, 19.3030387 ], [ 79.965569, 19.3130657 ], [ 79.9590851, 19.330861 ], [ 79.9590805, 19.3359402 ], [ 79.9679656, 19.3566311 ], [ 79.967575, 19.3603187 ], [ 79.9702333, 19.3710297 ], [ 79.9695288, 19.3746893 ], [ 79.9714164, 19.3768114 ], [ 79.9718269, 19.3815573 ], [ 79.9740379, 19.3855039 ], [ 79.9796717, 19.3886598 ], [ 79.9769811, 19.3949467 ], [ 79.9779371, 19.4003574 ], [ 79.9747005, 19.4043585 ], [ 79.9746921, 19.4109948 ], [ 79.972394, 19.4162124 ], [ 79.9679212, 19.4232124 ], [ 79.9524779, 19.440947 ], [ 79.9476087, 19.4496789 ], [ 79.9482154, 19.4606004 ], [ 79.9464435, 19.4678233 ], [ 79.9448195, 19.4698144 ], [ 79.9324109, 19.4765444 ], [ 79.9145034, 19.4960383 ], [ 79.901694, 19.5009357 ], [ 79.8808537, 19.5035687 ], [ 79.8709535, 19.5090562 ], [ 79.8645839, 19.5105137 ], [ 79.8553185, 19.5210264 ], [ 79.8481731, 19.5265345 ], [ 79.8451846, 19.5332061 ], [ 79.8313451, 19.5398623 ], [ 79.8266999, 19.5462079 ], [ 79.824111, 19.5567937 ], [ 79.8212516, 19.5602108 ], [ 79.8211519, 19.5642186 ], [ 79.8178935, 19.5686183 ], [ 79.8163269, 19.5740298 ], [ 79.8045335, 19.5799034 ], [ 79.8080771, 19.5798722 ], [ 79.8093048, 19.5820398 ], [ 79.8073119, 19.5823563 ], [ 79.7934835, 19.6063721 ], [ 79.7859245, 19.6429972 ], [ 79.7857394, 19.6750306 ], [ 79.784024, 19.6855837 ], [ 79.7856346, 19.7055307 ], [ 79.7836331, 19.7205856 ], [ 79.7788982, 19.7284949 ], [ 79.7691847, 19.737539 ], [ 79.7655161, 19.7448779 ], [ 79.7620088, 19.7472925 ], [ 79.7533522, 19.7582358 ], [ 79.7495213, 19.7762044 ], [ 79.7434818, 19.7902327 ], [ 79.7409239, 19.8222932 ], [ 79.742784, 19.831295 ], [ 79.7458321, 19.8350018 ], [ 79.7459927, 19.8373763 ], [ 79.7581411, 19.8473108 ], [ 79.765181, 19.858378 ], [ 79.7808438, 19.8684724 ], [ 79.7878218, 19.8779722 ], [ 79.8005961, 19.8882472 ], [ 79.8031524, 19.8929263 ], [ 79.8032434, 19.9002002 ], [ 79.8006053, 19.908694 ], [ 79.7936002, 19.9193581 ], [ 79.7851323, 19.9399404 ], [ 79.774572, 19.9538774 ], [ 79.770385, 19.9637016 ], [ 79.7699858, 19.968587 ], [ 79.7714524, 19.9747905 ], [ 79.7790308, 19.9975428 ], [ 79.7879068, 20.0100832 ], [ 79.8142184, 20.0273224 ], [ 79.8278029, 20.0300015 ], [ 79.8401362, 20.0307963 ], [ 79.8524312, 20.0296473 ], [ 79.8608499, 20.0232775 ], [ 79.8716322, 19.9889618 ], [ 79.8771315, 19.9813176 ], [ 79.8879541, 19.9734155 ], [ 79.8945862, 19.9704006 ], [ 79.9057971, 19.9675539 ], [ 79.9125805, 19.9673845 ], [ 79.9205359, 19.9691923 ], [ 79.9380041, 19.9792148 ], [ 79.9451357, 19.9857137 ], [ 79.9522196, 19.989896 ], [ 79.9814963, 20.0274519 ], [ 79.9890705, 20.0425832 ], [ 79.9892328, 20.0478335 ], [ 79.9842804, 20.0595825 ], [ 79.9807303, 20.0854449 ], [ 79.9716092, 20.1120689 ], [ 79.9680235, 20.1178455 ], [ 79.9641863, 20.1217377 ], [ 79.9578599, 20.1244008 ], [ 79.9315413, 20.1292863 ], [ 79.9187379, 20.1378161 ], [ 79.9123886, 20.1447422 ], [ 79.9118069, 20.1480499 ], [ 79.9157845, 20.1638291 ], [ 79.9302976, 20.1877102 ], [ 79.9344109, 20.1922128 ], [ 79.9432176, 20.197617 ], [ 79.9583737, 20.2034912 ], [ 79.9833514, 20.2083365 ], [ 79.9897836, 20.2128824 ], [ 79.99214, 20.2231201 ], [ 79.9905958, 20.2318295 ], [ 79.9790575, 20.2512261 ], [ 79.9479989, 20.2803251 ], [ 79.9437069, 20.2879335 ], [ 79.9437403, 20.3062834 ], [ 79.9482763, 20.3230685 ], [ 79.9695346, 20.3440883 ], [ 79.972101, 20.3537036 ], [ 79.9693487, 20.3665326 ], [ 79.9600254, 20.3765822 ], [ 79.9582344, 20.381585 ], [ 79.9591951, 20.3909861 ], [ 79.9650942, 20.4033339 ], [ 79.9651561, 20.4107483 ], [ 79.9625621, 20.4171334 ], [ 79.9458349, 20.432012 ], [ 79.9416317, 20.4371467 ], [ 79.9401292, 20.4411877 ], [ 79.9439018, 20.4700612 ], [ 79.9430259, 20.4768338 ], [ 79.9481067, 20.4882083 ], [ 79.9492848, 20.4938843 ], [ 79.9488003, 20.5081988 ], [ 79.9493043, 20.5149765 ], [ 79.9526242, 20.5265248 ], [ 79.9519391, 20.5295992 ], [ 79.9497161, 20.5349545 ], [ 79.9460732, 20.5394914 ], [ 79.9314738, 20.5466576 ], [ 79.9258176, 20.5532887 ], [ 79.9268268, 20.5587385 ], [ 79.9330971, 20.5700621 ], [ 79.9363545, 20.578897 ], [ 79.939245, 20.6003747 ], [ 79.9408309, 20.6316317 ], [ 79.9398957, 20.6339583 ], [ 79.9319588, 20.6373841 ], [ 79.9321435, 20.6399053 ], [ 79.9297447, 20.6405549 ], [ 79.9331123, 20.6452149 ], [ 79.9344436, 20.6447404 ], [ 79.9372119, 20.6497999 ], [ 79.9350692, 20.6643541 ], [ 79.9310812, 20.6684843 ], [ 79.9335661, 20.6716562 ], [ 79.9347258, 20.6785273 ], [ 79.9469408, 20.6820494 ], [ 79.9505643, 20.6863689 ], [ 79.9647606, 20.6942431 ], [ 79.9732486, 20.6856551 ], [ 79.9802622, 20.6830526 ], [ 79.9813822, 20.6784245 ], [ 79.9872965, 20.6738591 ], [ 79.9897041, 20.6730477 ], [ 79.9964331, 20.6752269 ], [ 80.0003451, 20.6741084 ], [ 80.0027834, 20.6708018 ], [ 80.0064227, 20.6690244 ], [ 80.0065186, 20.6704458 ], [ 80.0091256, 20.6722657 ], [ 80.0090852, 20.6738674 ], [ 80.0113371, 20.6733896 ], [ 80.0142158, 20.6748552 ], [ 80.0153308, 20.672042 ], [ 80.014391, 20.670787 ], [ 80.0164181, 20.6671406 ], [ 80.0284144, 20.6853443 ], [ 80.0322478, 20.7000594 ], [ 80.0460412, 20.709329 ], [ 80.052512, 20.7090765 ], [ 80.0548845, 20.7118737 ], [ 80.0569486, 20.7110856 ], [ 80.0587764, 20.7121056 ], [ 80.0674302, 20.7088873 ], [ 80.0727318, 20.7054596 ], [ 80.0788156, 20.6970034 ], [ 80.0932487, 20.6910335 ], [ 80.1027284, 20.6909307 ], [ 80.1128979, 20.6950861 ], [ 80.1160656, 20.6941254 ], [ 80.120756, 20.6886902 ], [ 80.1243249, 20.690434 ], [ 80.1327641, 20.69028 ], [ 80.1347435, 20.6881102 ], [ 80.1354469, 20.6845689 ], [ 80.1398659, 20.6854002 ], [ 80.1416492, 20.6875957 ], [ 80.1419412, 20.6912222 ], [ 80.1541224, 20.6910553 ], [ 80.1539575, 20.693721 ], [ 80.1551879, 20.6946646 ], [ 80.1568633, 20.6934459 ], [ 80.1626302, 20.6938383 ], [ 80.1645004, 20.6913644 ], [ 80.1637128, 20.689336 ], [ 80.165782, 20.6879298 ], [ 80.1663722, 20.6857922 ], [ 80.1701045, 20.6841719 ], [ 80.1707078, 20.682628 ], [ 80.1730796, 20.6830295 ], [ 80.178838, 20.6773936 ], [ 80.1847789, 20.6793891 ], [ 80.1866316, 20.6766457 ], [ 80.1878211, 20.6775154 ], [ 80.1899532, 20.675501 ], [ 80.1947324, 20.6770019 ], [ 80.1952457, 20.6743311 ], [ 80.197923, 20.6739523 ], [ 80.20174, 20.6701913 ], [ 80.2021164, 20.6673144 ], [ 80.2049894, 20.6678049 ], [ 80.2076549, 20.665555 ], [ 80.2117992, 20.6653328 ], [ 80.2137848, 20.6630891 ], [ 80.2184914, 20.6626291 ], [ 80.242615, 20.6546568 ], [ 80.249126, 20.6585972 ], [ 80.2523358, 20.6640038 ], [ 80.2521627, 20.6657075 ], [ 80.2501192, 20.6663659 ], [ 80.2489497, 20.6755267 ], [ 80.2508083, 20.6789697 ], [ 80.2679298, 20.6782917 ], [ 80.2735358, 20.6809779 ], [ 80.2811476, 20.7091902 ], [ 80.2819687, 20.71011 ], [ 80.2944054, 20.7109254 ], [ 80.2984193, 20.7102783 ], [ 80.3040672, 20.7190582 ], [ 80.304418, 20.7223043 ], [ 80.3090657, 20.728237 ], [ 80.3077655, 20.7321638 ], [ 80.3110415, 20.7373451 ], [ 80.311878, 20.7414573 ], [ 80.3212786, 20.7531404 ], [ 80.3223576, 20.7604722 ], [ 80.3212423, 20.7653969 ], [ 80.3181752, 20.768659 ], [ 80.3169096, 20.7761842 ], [ 80.3186885, 20.7784624 ], [ 80.3199389, 20.784897 ], [ 80.3230023, 20.7896369 ], [ 80.3210486, 20.7985662 ], [ 80.3246312, 20.7981374 ], [ 80.3302371, 20.8086617 ], [ 80.3316411, 20.8195463 ], [ 80.3358419, 20.8212293 ], [ 80.3406237, 20.8213152 ], [ 80.3566122, 20.8092924 ], [ 80.3607449, 20.8089642 ], [ 80.3645001, 20.812269 ], [ 80.3673969, 20.8121897 ], [ 80.3813682, 20.8065589 ], [ 80.3915725, 20.8071531 ], [ 80.3915864, 20.8062069 ], [ 80.4037931, 20.8088498 ], [ 80.4142006, 20.824694 ], [ 80.4284836, 20.8246265 ], [ 80.4616889, 20.8203232 ], [ 80.4688898, 20.8225867 ], [ 80.4696052, 20.8217034 ], [ 80.4735306, 20.8239861 ], [ 80.4872343, 20.8248566 ], [ 80.5042561, 20.8296811 ], [ 80.5120454, 20.8333612 ], [ 80.5224756, 20.8344319 ] ] ] } }
]
}
