{
"type": "FeatureCollection",
"name": "2715",
"crs": { "type": "name", "properties": { "name": "urn:ogc:def:crs:OGC:1.3:CRS84" } },
"features": [
{ "type": "Feature", "properties": { "code": "2715", "name": "Nanded", "type": "district" }, "geometry": { "type": "Polygon", "coordinates": [ [ [ 78.2566856, 19.9081932 ], [ 78.2544823, 19.8994389 ], [ 78.244021, 19.8890012 ], [ 78.2411678, 19.8839521 ], [ 78.2422462, 19.8755351 ], [ 78.2439195, 19.8719132 ], [ 78.2474543, 19.8678126 ], [ 78.2520209, 19.8657061 ], [ 78.2647978, 19.8679853 ], [ 78.2690163, 19.8697816 ], [ 78.2756874, 19.8753609 ], [ 78.2793389, 19.8820205 ], [ 78.2807185, 19.9004804 ], [ 78.2832045, 19.9057312 ], [ 78.3070279, 19.9142976 ], [ 78.2987494, 19.8749707 ], [ 78.2918842, 19.8617245 ], [ 78.2853133, 19.856617 ], [ 78.2860751, 19.8479371 ], [ 78.3014643, 19.8404183 ], [ 78.3157563, 19.8425577 ], [ 78.3364145, 19.8379232 ], [ 78.3367733, 19.8335688 ], [ 78.3340246, 19.8145917 ], [ 78.3447994, 19.8133727 ], [ 78.3523754, 19.807401 ], [ 78.3574417, 19.8054341 ], [ 78.3645553, 19.7825052 ], [ 78.3634343, 19.7753097 ], [ 78.358058, 19.7651013 ], [ 78.3555452, 19.7520065 ], [ 78.3492887, 19.7379757 ], [ 78.3446354, 19.7381054 ], [ 78.3412346, 19.7357562 ], [ 78.3408183, 19.733333 ], [ 78.3428548, 19.7297834 ], [ 78.3398169, 19.726955 ], [ 78.3392857, 19.724156 ], [ 78.3434955, 19.7154696 ], [ 78.3431341, 19.71325 ], [ 78.3337118, 19.7094504 ], [ 78.3220476, 19.7075776 ], [ 78.3186538, 19.7055259 ], [ 78.3157321, 19.7025944 ], [ 78.3134517, 19.693107 ], [ 78.3118213, 19.6910505 ], [ 78.303409, 19.6912043 ], [ 78.3001861, 19.6879851 ], [ 78.2878488, 19.6880352 ], [ 78.2761859, 19.6924153 ], [ 78.2710827, 19.6787053 ], [ 78.2697176, 19.6760103 ], [ 78.2657917, 19.6730901 ], [ 78.262649, 19.6650642 ], [ 78.2690534, 19.6639525 ], [ 78.2716188, 19.6619117 ], [ 78.2710477, 19.6585388 ], [ 78.2790097, 19.6576413 ], [ 78.2808828, 19.6509264 ], [ 78.2840859, 19.6503725 ], [ 78.286703, 19.647312 ], [ 78.2904625, 19.646001 ], [ 78.2920824, 19.6422262 ], [ 78.2921986, 19.6274136 ], [ 78.2938994, 19.6194418 ], [ 78.2975456, 19.6142069 ], [ 78.3055669, 19.6070665 ], [ 78.3045089, 19.6054309 ], [ 78.3054559, 19.6025562 ], [ 78.3038186, 19.5847821 ], [ 78.300902, 19.5790694 ], [ 78.304246, 19.5726892 ], [ 78.3036889, 19.5693206 ], [ 78.2972856, 19.5678967 ], [ 78.2981485, 19.564037 ], [ 78.2935629, 19.5589842 ], [ 78.2752515, 19.5624617 ], [ 78.2754528, 19.5561216 ], [ 78.2743108, 19.5539746 ], [ 78.283935, 19.5414116 ], [ 78.2849056, 19.5423109 ], [ 78.2932297, 19.5422336 ], [ 78.2927322, 19.5390867 ], [ 78.2941094, 19.5347942 ], [ 78.2924386, 19.5293105 ], [ 78.2903962, 19.5276239 ], [ 78.2915145, 19.5239067 ], [ 78.2959975, 19.5173708 ], [ 78.2970126, 19.5130835 ], [ 78.2949549, 19.5131709 ], [ 78.2986635, 19.4968128 ], [ 78.3092235, 19.4810839 ], [ 78.304341, 19.456137 ], [ 78.2986534, 19.4519483 ], [ 78.2869701, 19.4485286 ], [ 78.2745478, 19.4552404 ], [ 78.2704394, 19.4561551 ], [ 78.2686811, 19.4484667 ], [ 78.2637404, 19.4489303 ], [ 78.2626469, 19.443059 ], [ 78.2583068, 19.441795 ], [ 78.2533823, 19.4367687 ], [ 78.246481, 19.4351979 ], [ 78.2467207, 19.4321711 ], [ 78.2445089, 19.4288025 ], [ 78.2374286, 19.4287329 ], [ 78.2356101, 19.4267545 ], [ 78.2296026, 19.4297749 ], [ 78.2250114, 19.4300877 ], [ 78.2199613, 19.4330186 ], [ 78.2115869, 19.4284785 ], [ 78.20253, 19.4197049 ], [ 78.1991852, 19.414843 ], [ 78.1988125, 19.4101572 ], [ 78.1950652, 19.4067537 ], [ 78.1924442, 19.4066941 ], [ 78.1838184, 19.4122 ], [ 78.17619, 19.4122625 ], [ 78.187673, 19.394593 ], [ 78.1767886, 19.3674 ], [ 78.1792264, 19.3628435 ], [ 78.1720615, 19.3597187 ], [ 78.1721482, 19.3492989 ], [ 78.1762256, 19.3349262 ], [ 78.1832384, 19.3299808 ], [ 78.1895099, 19.3289689 ], [ 78.1922773, 19.3258289 ], [ 78.1902065, 19.3207768 ], [ 78.1937389, 19.3148861 ], [ 78.1831114, 19.2851834 ], [ 78.1766665, 19.2785486 ], [ 78.1781653, 19.2725051 ], [ 78.1767056, 19.2629436 ], [ 78.1796405, 19.2588572 ], [ 78.1779831, 19.2539129 ], [ 78.1817714, 19.2476184 ], [ 78.1770206, 19.2421576 ], [ 78.175321, 19.2375786 ], [ 78.1649459, 19.2345538 ], [ 78.1583991, 19.2357788 ], [ 78.1553971, 19.2343824 ], [ 78.1509921, 19.2294982 ], [ 78.1445469, 19.2294007 ], [ 78.1370892, 19.2343947 ], [ 78.1342819, 19.238893 ], [ 78.117038, 19.2486373 ], [ 78.1152195, 19.2488294 ], [ 78.1131722, 19.2444221 ], [ 78.0953093, 19.2437404 ], [ 78.0891496, 19.2393682 ], [ 78.0823508, 19.2432161 ], [ 78.0832291, 19.2486762 ], [ 78.0790969, 19.2548343 ], [ 78.0722963, 19.2492488 ], [ 78.0644225, 19.2477737 ], [ 78.0588617, 19.2423282 ], [ 78.0556753, 19.2371217 ], [ 78.0416136, 19.2434281 ], [ 78.0359407, 19.2506334 ], [ 78.0418443, 19.2616555 ], [ 78.0425063, 19.2706038 ], [ 78.0148197, 19.2790374 ], [ 78.0142414, 19.2859619 ], [ 78.0159612, 19.2875711 ], [ 78.0134969, 19.2947177 ], [ 77.9986799, 19.2997976 ], [ 77.9946653, 19.3053862 ], [ 77.9848483, 19.3098775 ], [ 77.9829034, 19.3149977 ], [ 77.9776335, 19.3227069 ], [ 77.9741103, 19.3226205 ], [ 77.965876, 19.327459 ], [ 77.9618598, 19.3356114 ], [ 77.9451219, 19.342453 ], [ 77.942294, 19.3422749 ], [ 77.9382442, 19.3341131 ], [ 77.9319773, 19.3346707 ], [ 77.9280143, 19.3322078 ], [ 77.9233051, 19.3257761 ], [ 77.9176021, 19.3232832 ], [ 77.9115459, 19.316257 ], [ 77.903322, 19.3173637 ], [ 77.8943199, 19.32047 ], [ 77.890031, 19.3132975 ], [ 77.8781808, 19.309284 ], [ 77.872827, 19.3053086 ], [ 77.8634588, 19.3041963 ], [ 77.8642715, 19.2972209 ], [ 77.8663957, 19.2917246 ], [ 77.8649465, 19.2881306 ], [ 77.8660622, 19.2865052 ], [ 77.8655755, 19.2838215 ], [ 77.8843629, 19.2789298 ], [ 77.8941896, 19.2798119 ], [ 77.9034585, 19.2779596 ], [ 77.9074813, 19.2679881 ], [ 77.902847, 19.2564628 ], [ 77.8909226, 19.259281 ], [ 77.8900071, 19.260891 ], [ 77.8821532, 19.2604706 ], [ 77.8748017, 19.2587601 ], [ 77.8746046, 19.253637 ], [ 77.8713581, 19.2542747 ], [ 77.8694675, 19.2481692 ], [ 77.8700159, 19.244184 ], [ 77.8688416, 19.2410222 ], [ 77.8669023, 19.2399374 ], [ 77.8681389, 19.2367374 ], [ 77.866122, 19.2326125 ], [ 77.8660065, 19.2264019 ], [ 77.858186, 19.2141769 ], [ 77.854814, 19.2027692 ], [ 77.8512283, 19.1997491 ], [ 77.8514919, 19.1960991 ], [ 77.847721, 19.189595 ], [ 77.8540142, 19.1874911 ], [ 77.8604942, 19.1803543 ], [ 77.8559281, 19.17711 ], [ 77.8553846, 19.1747866 ], [ 77.8567131, 19.1707521 ], [ 77.8545251, 19.1701968 ], [ 77.8526462, 19.1668184 ], [ 77.8525311, 19.1546779 ], [ 77.8432247, 19.1415795 ], [ 77.8379468, 19.137653 ], [ 77.8356554, 19.1380808 ], [ 77.8340629, 19.1343082 ], [ 77.83688, 19.1340089 ], [ 77.8379091, 19.1272202 ], [ 77.8415592, 19.1181064 ], [ 77.8476647, 19.1160049 ], [ 77.8483671, 19.1101334 ], [ 77.8471288, 19.1086187 ], [ 77.8462069, 19.1013136 ], [ 77.8510794, 19.0920293 ], [ 77.850395, 19.0885569 ], [ 77.8490848, 19.0884911 ], [ 77.8485798, 19.0865021 ], [ 77.842298, 19.0880145 ], [ 77.83127, 19.0860806 ], [ 77.8295321, 19.0870661 ], [ 77.8264078, 19.0966382 ], [ 77.823585, 19.0977322 ], [ 77.8181405, 19.1049809 ], [ 77.8099343, 19.104734 ], [ 77.8045286, 19.1005566 ], [ 77.8031212, 19.0961716 ], [ 77.8045785, 19.0918045 ], [ 77.8025698, 19.0790612 ], [ 77.8016692, 19.076182 ], [ 77.7978641, 19.0751633 ], [ 77.7967978, 19.0725891 ], [ 77.7967737, 19.0709086 ], [ 77.8000982, 19.0668449 ], [ 77.7986007, 19.0614514 ], [ 77.8003494, 19.0511216 ], [ 77.7933093, 19.0525733 ], [ 77.7890959, 19.0556729 ], [ 77.7752312, 19.0560217 ], [ 77.764812, 19.0626553 ], [ 77.7649492, 19.0471428 ], [ 77.7617902, 19.0330018 ], [ 77.765555, 19.0243055 ], [ 77.7699222, 19.0224051 ], [ 77.770339, 19.0099579 ], [ 77.7722369, 19.003627 ], [ 77.7753511, 19.0006266 ], [ 77.7714972, 18.9791591 ], [ 77.7876263, 18.9726465 ], [ 77.7896741, 18.9745784 ], [ 77.7911405, 18.9828175 ], [ 77.8052173, 18.981856 ], [ 77.8208082, 18.9788528 ], [ 77.8217578, 18.9785078 ], [ 77.8194963, 18.9668938 ], [ 77.8162119, 18.9575165 ], [ 77.8198433, 18.9544406 ], [ 77.8162398, 18.9472702 ], [ 77.8324535, 18.9416286 ], [ 77.8356172, 18.9472467 ], [ 77.8419425, 18.9498726 ], [ 77.8586536, 18.9486633 ], [ 77.8514616, 18.9264068 ], [ 77.847914, 18.926896 ], [ 77.8432542, 18.9086934 ], [ 77.8579394, 18.9023516 ], [ 77.8681784, 18.9043245 ], [ 77.8731718, 18.9039339 ], [ 77.8739377, 18.9076744 ], [ 77.8853844, 18.9042002 ], [ 77.8848056, 18.9003039 ], [ 77.8915841, 18.881414 ], [ 77.9039063, 18.8812459 ], [ 77.9025941, 18.871772 ], [ 77.903232, 18.8666255 ], [ 77.9124251, 18.8650694 ], [ 77.9124266, 18.8631722 ], [ 77.9142638, 18.8634608 ], [ 77.9141492, 18.8613679 ], [ 77.9251428, 18.8606913 ], [ 77.9300608, 18.8587263 ], [ 77.9293504, 18.8535862 ], [ 77.9374523, 18.8515914 ], [ 77.9347756, 18.8451448 ], [ 77.9489009, 18.8432892 ], [ 77.9482754, 18.8290971 ], [ 77.9430941, 18.8248072 ], [ 77.934498, 18.8222654 ], [ 77.9122582, 18.8268912 ], [ 77.9066722, 18.8266974 ], [ 77.8934736, 18.8206967 ], [ 77.8879405, 18.82011 ], [ 77.8819899, 18.8174039 ], [ 77.8714148, 18.8181648 ], [ 77.8598824, 18.8090472 ], [ 77.8536773, 18.8090702 ], [ 77.8399548, 18.8048215 ], [ 77.838508, 18.7968302 ], [ 77.8321933, 18.7882452 ], [ 77.8267918, 18.7698409 ], [ 77.8167121, 18.7506425 ], [ 77.812341, 18.7385118 ], [ 77.8042503, 18.7272423 ], [ 77.804184, 18.7131774 ], [ 77.8010604, 18.7076217 ], [ 77.7962182, 18.7039601 ], [ 77.7950056, 18.6970368 ], [ 77.7897645, 18.69515 ], [ 77.7901219, 18.688173 ], [ 77.7872883, 18.68264 ], [ 77.7770061, 18.6853561 ], [ 77.7719051, 18.689055 ], [ 77.7732401, 18.7013562 ], [ 77.7703276, 18.7018435 ], [ 77.768152, 18.7058594 ], [ 77.7599833, 18.7068441 ], [ 77.7535038, 18.700992 ], [ 77.750593, 18.6952485 ], [ 77.7524399, 18.6893445 ], [ 77.7492486, 18.6826666 ], [ 77.7436891, 18.6816248 ], [ 77.7431337, 18.6782727 ], [ 77.7382243, 18.6764984 ], [ 77.7299742, 18.6669369 ], [ 77.7315717, 18.6643384 ], [ 77.7346554, 18.663433 ], [ 77.7357088, 18.660987 ], [ 77.7336242, 18.6578075 ], [ 77.730204, 18.656082 ], [ 77.7305043, 18.6451454 ], [ 77.7347113, 18.6410122 ], [ 77.7456566, 18.6212884 ], [ 77.7455733, 18.6059415 ], [ 77.7475954, 18.6032002 ], [ 77.750343, 18.5892121 ], [ 77.7460671, 18.5845974 ], [ 77.7434678, 18.5776183 ], [ 77.7403807, 18.5752177 ], [ 77.7396063, 18.568362 ], [ 77.7370442, 18.5638442 ], [ 77.7384996, 18.5567887 ], [ 77.7232514, 18.553329 ], [ 77.7109715, 18.5563033 ], [ 77.7015614, 18.5551711 ], [ 77.6883277, 18.5449523 ], [ 77.6806853, 18.5452532 ], [ 77.6645983, 18.5358002 ], [ 77.6616637, 18.531857 ], [ 77.6558604, 18.530899 ], [ 77.6513515, 18.5322634 ], [ 77.648326, 18.5373361 ], [ 77.6458969, 18.5388368 ], [ 77.6492233, 18.5411926 ], [ 77.6520745, 18.551794 ], [ 77.6477108, 18.5529904 ], [ 77.6479131, 18.5549314 ], [ 77.6396194, 18.554941 ], [ 77.6340001, 18.5439178 ], [ 77.627629, 18.5481249 ], [ 77.6292523, 18.5536753 ], [ 77.6264743, 18.5518943 ], [ 77.6151852, 18.5508457 ], [ 77.6160351, 18.5489661 ], [ 77.6131894, 18.5491004 ], [ 77.6124963, 18.5444793 ], [ 77.6105644, 18.5445403 ], [ 77.6100684, 18.5498821 ], [ 77.6037998, 18.5502621 ], [ 77.5963694, 18.5489414 ], [ 77.5953035, 18.5355417 ], [ 77.5920578, 18.5323219 ], [ 77.5906911, 18.5266657 ], [ 77.5925093, 18.5266191 ], [ 77.596567, 18.5302 ], [ 77.6004366, 18.5272958 ], [ 77.5988257, 18.5242065 ], [ 77.6002815, 18.5222965 ], [ 77.5970677, 18.5158834 ], [ 77.5877528, 18.5128566 ], [ 77.5859069, 18.5039961 ], [ 77.5942871, 18.4979062 ], [ 77.5943972, 18.4961963 ], [ 77.6047069, 18.4963668 ], [ 77.6036754, 18.4929392 ], [ 77.6062256, 18.4891969 ], [ 77.6036102, 18.4836783 ], [ 77.6031261, 18.4768475 ], [ 77.594283, 18.4769101 ], [ 77.5922504, 18.4847153 ], [ 77.5763693, 18.4867846 ], [ 77.572861, 18.4698149 ], [ 77.5610678, 18.4702552 ], [ 77.560245, 18.4686218 ], [ 77.5485634, 18.4685813 ], [ 77.5507619, 18.4604095 ], [ 77.5640378, 18.4610217 ], [ 77.5641138, 18.4600355 ], [ 77.5836043, 18.4562058 ], [ 77.5830005, 18.4499409 ], [ 77.5860967, 18.4494025 ], [ 77.5852973, 18.4467923 ], [ 77.574304, 18.4417987 ], [ 77.5690689, 18.4428662 ], [ 77.5682945, 18.4394689 ], [ 77.5641809, 18.4373026 ], [ 77.5602008, 18.4372836 ], [ 77.5479807, 18.4432282 ], [ 77.5413659, 18.4445893 ], [ 77.5359243, 18.4447714 ], [ 77.5321158, 18.4429559 ], [ 77.5284883, 18.4433734 ], [ 77.527516, 18.4421112 ], [ 77.5281666, 18.428913 ], [ 77.5373127, 18.4262792 ], [ 77.5369007, 18.4242459 ], [ 77.5564683, 18.4194283 ], [ 77.5567561, 18.4171433 ], [ 77.5526804, 18.4016907 ], [ 77.551602, 18.3888977 ], [ 77.545917, 18.3886866 ], [ 77.5431861, 18.386089 ], [ 77.5406413, 18.386864 ], [ 77.5386, 18.3858822 ], [ 77.5356113, 18.3807485 ], [ 77.5254719, 18.3727051 ], [ 77.5240457, 18.3642004 ], [ 77.5202063, 18.3571752 ], [ 77.5223412, 18.3464671 ], [ 77.5244671, 18.3432385 ], [ 77.5302305, 18.3391674 ], [ 77.5580236, 18.3314164 ], [ 77.563866, 18.3222972 ], [ 77.5704795, 18.3181125 ], [ 77.5713961, 18.3088291 ], [ 77.5648208, 18.3060586 ], [ 77.5532599, 18.2980907 ], [ 77.5512623, 18.2916932 ], [ 77.5400325, 18.294662 ], [ 77.5327177, 18.2986991 ], [ 77.5237275, 18.3082102 ], [ 77.5125365, 18.3095583 ], [ 77.5099852, 18.3075652 ], [ 77.5088202, 18.3042823 ], [ 77.511086, 18.2953012 ], [ 77.5102316, 18.2924791 ], [ 77.5120464, 18.2907399 ], [ 77.5115575, 18.2820493 ], [ 77.5096156, 18.281813 ], [ 77.5052206, 18.2770237 ], [ 77.4986633, 18.2767469 ], [ 77.4962801, 18.2747141 ], [ 77.4926671, 18.2672035 ], [ 77.4813795, 18.2723562 ], [ 77.4797325, 18.2681778 ], [ 77.4757489, 18.2646629 ], [ 77.4650375, 18.262536 ], [ 77.4523339, 18.2669779 ], [ 77.4513199, 18.267814 ], [ 77.4517795, 18.2697225 ], [ 77.447578, 18.2699952 ], [ 77.4455805, 18.2766211 ], [ 77.4458578, 18.2838085 ], [ 77.4404801, 18.2826573 ], [ 77.4365116, 18.2932287 ], [ 77.4376648, 18.3103138 ], [ 77.4283078, 18.3123647 ], [ 77.4255626, 18.3078801 ], [ 77.4170321, 18.306432 ], [ 77.4089952, 18.3014687 ], [ 77.4014212, 18.3044853 ], [ 77.3948539, 18.3035892 ], [ 77.3881072, 18.30656 ], [ 77.3851181, 18.3093115 ], [ 77.3759612, 18.3091128 ], [ 77.3657897, 18.3071248 ], [ 77.3579562, 18.3166743 ], [ 77.3567244, 18.3202021 ], [ 77.3716047, 18.3252085 ], [ 77.3756182, 18.3320525 ], [ 77.38094, 18.331022 ], [ 77.3809805, 18.338911 ], [ 77.3824278, 18.3422528 ], [ 77.3841593, 18.3424673 ], [ 77.3854861, 18.3408115 ], [ 77.3891809, 18.3437477 ], [ 77.3941951, 18.3419968 ], [ 77.3945647, 18.3476616 ], [ 77.4001486, 18.3474464 ], [ 77.398929, 18.3597857 ], [ 77.3948698, 18.3684547 ], [ 77.3964571, 18.3704654 ], [ 77.4017473, 18.3719156 ], [ 77.402594, 18.3739274 ], [ 77.409836, 18.3774114 ], [ 77.4132871, 18.3850699 ], [ 77.4140943, 18.3931075 ], [ 77.4035736, 18.3996463 ], [ 77.4008313, 18.3998771 ], [ 77.4001643, 18.4019981 ], [ 77.3955669, 18.4019896 ], [ 77.3929002, 18.4013296 ], [ 77.3921996, 18.3997243 ], [ 77.3884304, 18.3995349 ], [ 77.3728282, 18.4013132 ], [ 77.372331, 18.4067272 ], [ 77.3704994, 18.4077887 ], [ 77.3683885, 18.4125254 ], [ 77.3706456, 18.4187914 ], [ 77.3672642, 18.4186942 ], [ 77.3654035, 18.4277179 ], [ 77.3621493, 18.4298884 ], [ 77.3644586, 18.4345191 ], [ 77.3620281, 18.4355784 ], [ 77.3618385, 18.4372792 ], [ 77.3674989, 18.4469562 ], [ 77.3656359, 18.4515641 ], [ 77.3534851, 18.4476666 ], [ 77.3511721, 18.4424285 ], [ 77.3479578, 18.4394708 ], [ 77.3475044, 18.4339592 ], [ 77.3452183, 18.4336111 ], [ 77.3356755, 18.4424497 ], [ 77.3360318, 18.450155 ], [ 77.3274516, 18.451716 ], [ 77.3264151, 18.4588467 ], [ 77.3198851, 18.4580272 ], [ 77.316878, 18.4479858 ], [ 77.3169323, 18.4424633 ], [ 77.3006571, 18.4381809 ], [ 77.3003203, 18.4363854 ], [ 77.2871739, 18.4305744 ], [ 77.279038, 18.4297979 ], [ 77.2732463, 18.4230229 ], [ 77.2657983, 18.4223487 ], [ 77.2640781, 18.4274396 ], [ 77.2662894, 18.4294708 ], [ 77.2665896, 18.4340162 ], [ 77.265449, 18.4371582 ], [ 77.2632766, 18.4380776 ], [ 77.2636268, 18.4436524 ], [ 77.2612108, 18.4435767 ], [ 77.2545892, 18.4498365 ], [ 77.2546745, 18.4546663 ], [ 77.2581616, 18.4556494 ], [ 77.2800354, 18.453597 ], [ 77.2848534, 18.4561202 ], [ 77.2887957, 18.4552521 ], [ 77.2947439, 18.4595158 ], [ 77.2961281, 18.4634667 ], [ 77.2995287, 18.4648796 ], [ 77.3004336, 18.4713887 ], [ 77.2999474, 18.4741774 ], [ 77.2962899, 18.4771016 ], [ 77.2891485, 18.4765038 ], [ 77.2868211, 18.4743584 ], [ 77.2839662, 18.4744662 ], [ 77.2805089, 18.4747768 ], [ 77.2750304, 18.4777265 ], [ 77.264541, 18.4797202 ], [ 77.2646413, 18.4816283 ], [ 77.2615036, 18.4851004 ], [ 77.2508619, 18.486607 ], [ 77.2456809, 18.4951887 ], [ 77.2458615, 18.4996557 ], [ 77.2602445, 18.5153022 ], [ 77.2650355, 18.5179201 ], [ 77.2667427, 18.5223452 ], [ 77.2748349, 18.5196848 ], [ 77.2783989, 18.5197231 ], [ 77.2817059, 18.5215784 ], [ 77.2859581, 18.530847 ], [ 77.2865548, 18.5398625 ], [ 77.2943583, 18.5490463 ], [ 77.2815798, 18.5557915 ], [ 77.2752755, 18.5614929 ], [ 77.2615187, 18.5658627 ], [ 77.2654882, 18.5814571 ], [ 77.2699306, 18.5831082 ], [ 77.269892, 18.5856353 ], [ 77.2672719, 18.5866981 ], [ 77.2665827, 18.5937211 ], [ 77.2681563, 18.6114648 ], [ 77.253566, 18.6166219 ], [ 77.2108986, 18.6242066 ], [ 77.2111345, 18.6332773 ], [ 77.2080688, 18.6340068 ], [ 77.2084511, 18.6377802 ], [ 77.20244, 18.6396114 ], [ 77.2028633, 18.6413032 ], [ 77.1988608, 18.6424904 ], [ 77.198684, 18.6466867 ], [ 77.1970864, 18.6472415 ], [ 77.1700783, 18.6484755 ], [ 77.1581499, 18.646165 ], [ 77.1538877, 18.6472315 ], [ 77.1547591, 18.6568142 ], [ 77.1573716, 18.664478 ], [ 77.1565483, 18.6758505 ], [ 77.1582487, 18.6822394 ], [ 77.1776114, 18.6794625 ], [ 77.1933281, 18.688657 ], [ 77.1938974, 18.6913507 ], [ 77.1921885, 18.6909284 ], [ 77.1870983, 18.6933924 ], [ 77.1834204, 18.7010266 ], [ 77.1796879, 18.7017078 ], [ 77.1765824, 18.7038993 ], [ 77.1659828, 18.7041525 ], [ 77.157608, 18.7005521 ], [ 77.1510302, 18.7005744 ], [ 77.1467812, 18.7064718 ], [ 77.1450099, 18.7129664 ], [ 77.1413215, 18.7133182 ], [ 77.1350965, 18.711276 ], [ 77.1384214, 18.6972729 ], [ 77.133202, 18.697486 ], [ 77.1202369, 18.6940176 ], [ 77.1157989, 18.6950639 ], [ 77.1022423, 18.6946672 ], [ 77.0965046, 18.6914597 ], [ 77.0680653, 18.6879292 ], [ 77.0667383, 18.6821494 ], [ 77.0634219, 18.6812775 ], [ 77.0458061, 18.6838592 ], [ 77.0454837, 18.6891401 ], [ 77.0429369, 18.6944957 ], [ 77.0436212, 18.6990983 ], [ 77.0512511, 18.7174398 ], [ 77.0564366, 18.7170972 ], [ 77.0583607, 18.7257518 ], [ 77.0538118, 18.7395196 ], [ 77.0537596, 18.7481151 ], [ 77.0578357, 18.7648372 ], [ 77.055717, 18.7707239 ], [ 77.0530271, 18.7745607 ], [ 77.0416468, 18.7722031 ], [ 77.0341349, 18.7690134 ], [ 77.0279287, 18.7699469 ], [ 77.0160114, 18.7660183 ], [ 77.0075312, 18.7662174 ], [ 77.0059928, 18.78652 ], [ 77.002597, 18.7936689 ], [ 77.0024749, 18.7970478 ], [ 77.00053, 18.7984497 ], [ 76.9993172, 18.8020292 ], [ 76.996676, 18.8027792 ], [ 76.994968, 18.8177831 ], [ 76.9907731, 18.8242419 ], [ 76.9905136, 18.8289097 ], [ 76.9921872, 18.8325276 ], [ 77.0057594, 18.8400977 ], [ 77.0083696, 18.8430909 ], [ 77.0195356, 18.8436713 ], [ 77.0202676, 18.8510463 ], [ 77.0148844, 18.8796211 ], [ 77.0050507, 18.8800052 ], [ 77.0015966, 18.8815077 ], [ 76.9869995, 18.8796689 ], [ 76.9796917, 18.8801572 ], [ 76.9714172, 18.8770632 ], [ 76.9524398, 18.8739373 ], [ 76.951337, 18.8821222 ], [ 76.9543584, 18.8920279 ], [ 76.9376964, 18.8948843 ], [ 76.9331748, 18.8941786 ], [ 76.9308362, 18.8970852 ], [ 76.9296471, 18.9013872 ], [ 76.9474834, 18.9081461 ], [ 76.9459212, 18.9114552 ], [ 76.9475979, 18.9184205 ], [ 76.9478955, 18.9275863 ], [ 76.9509665, 18.9267261 ], [ 76.9529742, 18.9322982 ], [ 76.9550576, 18.9319802 ], [ 76.955815, 18.9337771 ], [ 76.9602858, 18.9330521 ], [ 76.9599489, 18.9296262 ], [ 76.9634922, 18.9291304 ], [ 76.9646748, 18.9301834 ], [ 76.9738786, 18.9245391 ], [ 76.9739802, 18.9163284 ], [ 76.9751494, 18.9129726 ], [ 76.9779788, 18.9124306 ], [ 76.9829118, 18.914414 ], [ 76.985763, 18.9296223 ], [ 76.9886726, 18.9357688 ], [ 76.9944169, 18.9320499 ], [ 77.0060525, 18.9292602 ], [ 77.0093785, 18.9336261 ], [ 77.0189893, 18.9318533 ], [ 77.0197751, 18.9329861 ], [ 77.0227885, 18.9325821 ], [ 77.0237482, 18.9385062 ], [ 77.0249405, 18.9398993 ], [ 77.0280706, 18.9402483 ], [ 77.0326175, 18.9536288 ], [ 77.0357887, 18.9526575 ], [ 77.037178, 18.9681201 ], [ 77.0562834, 18.9883058 ], [ 77.0556809, 18.9993367 ], [ 77.0411899, 19.0051383 ], [ 77.0432581, 19.031294 ], [ 77.0566367, 19.0306508 ], [ 77.0643739, 19.0317563 ], [ 77.0666364, 19.0449874 ], [ 77.0612355, 19.0613327 ], [ 77.0621606, 19.0691454 ], [ 77.0672709, 19.0784052 ], [ 77.0739361, 19.0841161 ], [ 77.077102, 19.0929072 ], [ 77.0781489, 19.092898 ], [ 77.082671, 19.1004384 ], [ 77.0839783, 19.1095068 ], [ 77.100307, 19.1089169 ], [ 77.1037306, 19.0997762 ], [ 77.1022, 19.0949825 ], [ 77.0885657, 19.0901242 ], [ 77.0863807, 19.0859743 ], [ 77.0851555, 19.078805 ], [ 77.086354, 19.073271 ], [ 77.0898291, 19.0688891 ], [ 77.0938564, 19.0663575 ], [ 77.1005012, 19.0685729 ], [ 77.1173779, 19.0777756 ], [ 77.1222232, 19.0789497 ], [ 77.1266839, 19.0776722 ], [ 77.1324258, 19.0717563 ], [ 77.1346815, 19.070867 ], [ 77.1410724, 19.0714369 ], [ 77.1427823, 19.0722557 ], [ 77.1443546, 19.0757106 ], [ 77.155485, 19.0827773 ], [ 77.163134, 19.0960876 ], [ 77.1615699, 19.1144342 ], [ 77.1641499, 19.1204865 ], [ 77.1668705, 19.1229444 ], [ 77.1709291, 19.123568 ], [ 77.174209, 19.1210624 ], [ 77.1751983, 19.1215448 ], [ 77.1791117, 19.1261327 ], [ 77.1800117, 19.1315297 ], [ 77.1876424, 19.1307719 ], [ 77.1914924, 19.1365518 ], [ 77.1925332, 19.1418511 ], [ 77.1911405, 19.1560227 ], [ 77.1917766, 19.163873 ], [ 77.1771104, 19.1675519 ], [ 77.1788205, 19.1748305 ], [ 77.1786966, 19.187307 ], [ 77.1812277, 19.1959201 ], [ 77.1800827, 19.2036899 ], [ 77.1760046, 19.2111256 ], [ 77.1767964, 19.2183338 ], [ 77.1789321, 19.2229444 ], [ 77.1790515, 19.228916 ], [ 77.1845031, 19.2331029 ], [ 77.1918893, 19.2362994 ], [ 77.193299, 19.2443998 ], [ 77.2030895, 19.2447784 ], [ 77.202269, 19.2551131 ], [ 77.2060669, 19.2571763 ], [ 77.2149886, 19.2669037 ], [ 77.2201811, 19.2757397 ], [ 77.2310136, 19.2762971 ], [ 77.2354515, 19.2752008 ], [ 77.2377698, 19.3126322 ], [ 77.2413497, 19.3228609 ], [ 77.2477416, 19.3215145 ], [ 77.2641385, 19.3150148 ], [ 77.2807252, 19.3160223 ], [ 77.2811221, 19.3263191 ], [ 77.289124, 19.3259089 ], [ 77.2983842, 19.3290197 ], [ 77.3016619, 19.3332196 ], [ 77.3107439, 19.330765 ], [ 77.3126519, 19.3420062 ], [ 77.3116751, 19.3550338 ], [ 77.3310467, 19.3570124 ], [ 77.3381825, 19.3559697 ], [ 77.340798, 19.3541395 ], [ 77.3500167, 19.3522186 ], [ 77.3492048, 19.3467547 ], [ 77.3623252, 19.3395373 ], [ 77.3786643, 19.3381926 ], [ 77.3814123, 19.3410616 ], [ 77.3853178, 19.3398776 ], [ 77.3896359, 19.352314 ], [ 77.4000102, 19.3575594 ], [ 77.4076507, 19.3661025 ], [ 77.4091233, 19.3658819 ], [ 77.4136082, 19.3688479 ], [ 77.4171699, 19.376663 ], [ 77.4165287, 19.3806186 ], [ 77.4239013, 19.3786691 ], [ 77.4352196, 19.3797221 ], [ 77.4472799, 19.3863417 ], [ 77.4486639, 19.3918399 ], [ 77.4477388, 19.3936117 ], [ 77.4359583, 19.4071124 ], [ 77.4447026, 19.4209534 ], [ 77.4481516, 19.4405115 ], [ 77.45956, 19.4401631 ], [ 77.4700804, 19.4380249 ], [ 77.473729, 19.4588066 ], [ 77.486542, 19.4581563 ], [ 77.4851016, 19.4764675 ], [ 77.4882275, 19.4823825 ], [ 77.4882757, 19.4836175 ], [ 77.4864348, 19.4838472 ], [ 77.4865643, 19.4871061 ], [ 77.488843, 19.4869534 ], [ 77.4871963, 19.4907453 ], [ 77.4893091, 19.4912889 ], [ 77.4895806, 19.4932389 ], [ 77.4880101, 19.4933592 ], [ 77.4876675, 19.4954097 ], [ 77.4844406, 19.4952285 ], [ 77.4871502, 19.4979548 ], [ 77.484646, 19.4979799 ], [ 77.4751798, 19.4913093 ], [ 77.4700251, 19.4908978 ], [ 77.4694088, 19.5008893 ], [ 77.4677678, 19.5019539 ], [ 77.4698318, 19.5284047 ], [ 77.4675929, 19.5286938 ], [ 77.4657972, 19.5331367 ], [ 77.4643949, 19.5443701 ], [ 77.4662536, 19.5640723 ], [ 77.452881, 19.5620444 ], [ 77.4525221, 19.567927 ], [ 77.450896, 19.5690529 ], [ 77.4565433, 19.5803381 ], [ 77.472517, 19.5935262 ], [ 77.4768706, 19.5995195 ], [ 77.4793668, 19.5995771 ], [ 77.46843, 19.6075249 ], [ 77.463144, 19.6096492 ], [ 77.4626093, 19.6114307 ], [ 77.4641283, 19.6167724 ], [ 77.4665088, 19.6424004 ], [ 77.4631839, 19.6427458 ], [ 77.461646, 19.6450921 ], [ 77.462448, 19.6491264 ], [ 77.4663628, 19.6562848 ], [ 77.466519, 19.6642444 ], [ 77.4618403, 19.6651888 ], [ 77.4624409, 19.669645 ], [ 77.453748, 19.6731978 ], [ 77.4537424, 19.6746178 ], [ 77.4495975, 19.6737214 ], [ 77.4496893, 19.6756514 ], [ 77.4557565, 19.6770512 ], [ 77.4590338, 19.6823562 ], [ 77.4630438, 19.6809408 ], [ 77.4754851, 19.6834804 ], [ 77.4786232, 19.6824406 ], [ 77.4791383, 19.6790058 ], [ 77.4828002, 19.6771887 ], [ 77.4888066, 19.6796727 ], [ 77.499742, 19.6789812 ], [ 77.5041152, 19.6736893 ], [ 77.5101415, 19.6742066 ], [ 77.5169189, 19.670875 ], [ 77.5280598, 19.6682996 ], [ 77.5370858, 19.6695726 ], [ 77.5383377, 19.6689161 ], [ 77.5412779, 19.6604783 ], [ 77.5519417, 19.6615706 ], [ 77.5525941, 19.6602663 ], [ 77.5510865, 19.6598416 ], [ 77.550722, 19.6582857 ], [ 77.5523577, 19.652374 ], [ 77.5546572, 19.6509304 ], [ 77.5661628, 19.6495838 ], [ 77.5718528, 19.6505034 ], [ 77.5769076, 19.657129 ], [ 77.5790686, 19.6572668 ], [ 77.581447, 19.6555526 ], [ 77.5828442, 19.6505998 ], [ 77.5857982, 19.6500171 ], [ 77.5914972, 19.6516858 ], [ 77.5937733, 19.6506788 ], [ 77.5954852, 19.64795 ], [ 77.5955288, 19.6441289 ], [ 77.5980548, 19.6422987 ], [ 77.6021408, 19.6436922 ], [ 77.6049432, 19.648249 ], [ 77.6063984, 19.6486193 ], [ 77.6075754, 19.6476449 ], [ 77.6054954, 19.6424502 ], [ 77.6059173, 19.6407407 ], [ 77.6094777, 19.6383039 ], [ 77.6145395, 19.6391025 ], [ 77.6165185, 19.6382048 ], [ 77.6156523, 19.6356161 ], [ 77.6124498, 19.6329075 ], [ 77.6129706, 19.6289533 ], [ 77.6159517, 19.6270287 ], [ 77.6241997, 19.626935 ], [ 77.6265252, 19.6235285 ], [ 77.627917, 19.6185658 ], [ 77.6267156, 19.6079881 ], [ 77.6274796, 19.6064459 ], [ 77.6289692, 19.6059532 ], [ 77.6383123, 19.6103989 ], [ 77.642576, 19.6093029 ], [ 77.6438354, 19.6076541 ], [ 77.6430151, 19.6032642 ], [ 77.6378514, 19.6000762 ], [ 77.6376626, 19.5947228 ], [ 77.640652, 19.5868442 ], [ 77.6412405, 19.5791841 ], [ 77.6487065, 19.5581771 ], [ 77.6479032, 19.5562828 ], [ 77.6423383, 19.5553441 ], [ 77.6338868, 19.5581829 ], [ 77.6312486, 19.556195 ], [ 77.6311741, 19.5536502 ], [ 77.6383557, 19.5481726 ], [ 77.6413363, 19.5476521 ], [ 77.6512874, 19.5495599 ], [ 77.6628162, 19.5455894 ], [ 77.6741711, 19.5390359 ], [ 77.6939784, 19.5399991 ], [ 77.6977748, 19.5389539 ], [ 77.7062412, 19.5332124 ], [ 77.7041783, 19.5254261 ], [ 77.7057625, 19.5221425 ], [ 77.7115553, 19.5255283 ], [ 77.7172778, 19.5263676 ], [ 77.7281788, 19.532269 ], [ 77.7451381, 19.5257068 ], [ 77.7499369, 19.5185557 ], [ 77.7508131, 19.5134684 ], [ 77.746957, 19.5044634 ], [ 77.7354859, 19.4986066 ], [ 77.7341809, 19.496739 ], [ 77.7336229, 19.4943543 ], [ 77.7395338, 19.4844384 ], [ 77.7363211, 19.4810453 ], [ 77.7295851, 19.480481 ], [ 77.7264951, 19.4762921 ], [ 77.7234876, 19.474457 ], [ 77.7191113, 19.4746421 ], [ 77.7147352, 19.4785932 ], [ 77.7119237, 19.4779174 ], [ 77.7097767, 19.4684931 ], [ 77.6953877, 19.4572619 ], [ 77.6946285, 19.4529405 ], [ 77.6964672, 19.4469398 ], [ 77.694669, 19.4423579 ], [ 77.6963341, 19.4396591 ], [ 77.7054581, 19.4366372 ], [ 77.7159756, 19.4366165 ], [ 77.7271504, 19.4344627 ], [ 77.734183, 19.4351822 ], [ 77.7382441, 19.4379327 ], [ 77.7408287, 19.4377823 ], [ 77.7438746, 19.43207 ], [ 77.7472524, 19.4305526 ], [ 77.7508419, 19.4308971 ], [ 77.7745903, 19.4399558 ], [ 77.7867244, 19.449559 ], [ 77.7987028, 19.4500386 ], [ 77.8002508, 19.4606774 ], [ 77.8037698, 19.4640759 ], [ 77.8068009, 19.4645384 ], [ 77.8128038, 19.4582673 ], [ 77.8161668, 19.4508874 ], [ 77.8165456, 19.4447738 ], [ 77.8184663, 19.4411736 ], [ 77.8259978, 19.438066 ], [ 77.8312182, 19.4390412 ], [ 77.8336657, 19.4418975 ], [ 77.8343959, 19.445896 ], [ 77.8376084, 19.4494772 ], [ 77.8455098, 19.4512548 ], [ 77.8463881, 19.4531047 ], [ 77.8430662, 19.459378 ], [ 77.8327301, 19.4664353 ], [ 77.8248409, 19.4775958 ], [ 77.8249105, 19.4798981 ], [ 77.8275256, 19.4827135 ], [ 77.8298072, 19.4839674 ], [ 77.838063, 19.48383 ], [ 77.8420094, 19.4878558 ], [ 77.8436181, 19.4948869 ], [ 77.8412678, 19.5057344 ], [ 77.8424654, 19.5109584 ], [ 77.8522472, 19.5198222 ], [ 77.8564761, 19.5224164 ], [ 77.85936, 19.5224286 ], [ 77.8666066, 19.5167283 ], [ 77.8768624, 19.5153708 ], [ 77.878191, 19.5122395 ], [ 77.8773397, 19.5040647 ], [ 77.8806617, 19.5020781 ], [ 77.8873193, 19.5059638 ], [ 77.8883008, 19.5171573 ], [ 77.8897363, 19.5198822 ], [ 77.8967154, 19.5223432 ], [ 77.9003677, 19.5260134 ], [ 77.903123, 19.5327532 ], [ 77.9064328, 19.5342845 ], [ 77.9100478, 19.5329712 ], [ 77.9144048, 19.5176548 ], [ 77.9351747, 19.504696 ], [ 77.9366325, 19.4986566 ], [ 77.9389742, 19.4974383 ], [ 77.9466427, 19.5071726 ], [ 77.9537657, 19.5119228 ], [ 77.9708956, 19.5089549 ], [ 77.9726099, 19.5073876 ], [ 77.97316, 19.4978306 ], [ 77.9753232, 19.4929489 ], [ 77.98229, 19.483326 ], [ 77.9875103, 19.4793197 ], [ 77.9885501, 19.4752415 ], [ 77.9830395, 19.4664711 ], [ 77.9830091, 19.4639878 ], [ 77.9850854, 19.46076 ], [ 77.993678, 19.4541972 ], [ 78.0068191, 19.4527701 ], [ 78.0132482, 19.4542234 ], [ 78.0150185, 19.4557833 ], [ 78.0165694, 19.4607912 ], [ 78.0153142, 19.4809229 ], [ 78.0188451, 19.4880802 ], [ 78.0237257, 19.4897103 ], [ 78.0309147, 19.488225 ], [ 78.0439034, 19.4744546 ], [ 78.0629933, 19.4597774 ], [ 78.067539, 19.4585889 ], [ 78.0740971, 19.4666307 ], [ 78.0865265, 19.4752543 ], [ 78.0954713, 19.4839273 ], [ 78.1036753, 19.481021 ], [ 78.1109237, 19.4818612 ], [ 78.1153354, 19.4898332 ], [ 78.1188107, 19.4928412 ], [ 78.1229607, 19.5102761 ], [ 78.1345157, 19.5186497 ], [ 78.134375, 19.5297614 ], [ 78.120656, 19.5419638 ], [ 78.11935, 19.544583 ], [ 78.1198721, 19.5471701 ], [ 78.1230959, 19.5500347 ], [ 78.1286117, 19.5511271 ], [ 78.1384296, 19.5487441 ], [ 78.1437319, 19.5458651 ], [ 78.151401, 19.5451851 ], [ 78.1591631, 19.5466924 ], [ 78.1728527, 19.5544713 ], [ 78.1837343, 19.5555155 ], [ 78.1881679, 19.5583465 ], [ 78.1893674, 19.5662163 ], [ 78.1848581, 19.5762289 ], [ 78.1857193, 19.5793729 ], [ 78.1901101, 19.5830841 ], [ 78.1916554, 19.5871714 ], [ 78.1897956, 19.5967595 ], [ 78.1936033, 19.6045959 ], [ 78.1964948, 19.6157311 ], [ 78.1797489, 19.6491633 ], [ 78.1371056, 19.6624948 ], [ 78.1345303, 19.664294 ], [ 78.1303109, 19.6645067 ], [ 78.1272578, 19.6549683 ], [ 78.1237028, 19.6507996 ], [ 78.1201882, 19.6504628 ], [ 78.1089503, 19.6563575 ], [ 78.1053389, 19.6559754 ], [ 78.0982412, 19.6490449 ], [ 78.096202, 19.6383324 ], [ 78.0933459, 19.6365759 ], [ 78.0873384, 19.6369913 ], [ 78.080166, 19.6409307 ], [ 78.0757155, 19.6519688 ], [ 78.0705021, 19.6594079 ], [ 78.0653337, 19.6620517 ], [ 78.0558638, 19.6626124 ], [ 78.0548939, 19.6660857 ], [ 78.056238, 19.6748302 ], [ 78.0496933, 19.6894339 ], [ 78.0357089, 19.6928816 ], [ 78.0276253, 19.6912709 ], [ 78.016391, 19.6852272 ], [ 78.000458, 19.6726279 ], [ 77.9898491, 19.6731663 ], [ 77.984929, 19.6763685 ], [ 77.980996, 19.6809696 ], [ 77.9826378, 19.6919854 ], [ 77.9801519, 19.6998911 ], [ 77.9778222, 19.7017814 ], [ 77.9694835, 19.7027463 ], [ 77.9631854, 19.7066006 ], [ 77.9571141, 19.717939 ], [ 77.9472809, 19.7300187 ], [ 77.9302268, 19.7385221 ], [ 77.9252142, 19.7372468 ], [ 77.914188, 19.7290292 ], [ 77.9041219, 19.7331531 ], [ 77.8976568, 19.7332168 ], [ 77.8943281, 19.7271015 ], [ 77.8898468, 19.7259145 ], [ 77.8796405, 19.7349985 ], [ 77.876499, 19.7440538 ], [ 77.8744258, 19.7444765 ], [ 77.8666252, 19.7415205 ], [ 77.8604204, 19.7451839 ], [ 77.8579909, 19.7513977 ], [ 77.8637487, 19.767551 ], [ 77.863419, 19.774072 ], [ 77.8614449, 19.7786108 ], [ 77.8518209, 19.7851368 ], [ 77.8485415, 19.7993988 ], [ 77.8567637, 19.8089547 ], [ 77.869911, 19.8207361 ], [ 77.8703915, 19.8335741 ], [ 77.8740922, 19.8463396 ], [ 77.8799367, 19.8503536 ], [ 77.8961719, 19.8752874 ], [ 77.9035581, 19.881284 ], [ 77.9177077, 19.8841947 ], [ 77.9250776, 19.8905945 ], [ 77.9360573, 19.8918164 ], [ 77.9398427, 19.8944907 ], [ 77.9430976, 19.9008034 ], [ 77.9525487, 19.9088667 ], [ 77.967504, 19.9054894 ], [ 77.978816, 19.9086545 ], [ 77.9989053, 19.9114019 ], [ 78.0145793, 19.907705 ], [ 78.0201284, 19.9094048 ], [ 78.0254825, 19.91656 ], [ 78.0331062, 19.9198512 ], [ 78.0489669, 19.9235321 ], [ 78.0548196, 19.9234165 ], [ 78.0579248, 19.92085 ], [ 78.0591457, 19.9124864 ], [ 78.0749557, 19.8957068 ], [ 78.0802778, 19.8938471 ], [ 78.1018728, 19.8905987 ], [ 78.1271311, 19.8942864 ], [ 78.1309388, 19.8977743 ], [ 78.1368705, 19.9073419 ], [ 78.1424301, 19.9105483 ], [ 78.1478752, 19.9102168 ], [ 78.1570186, 19.9069314 ], [ 78.1789182, 19.9040282 ], [ 78.1888619, 19.8963015 ], [ 78.2042882, 19.8984244 ], [ 78.2165439, 19.9089168 ], [ 78.232267, 19.91005 ], [ 78.2346153, 19.9112789 ], [ 78.2459, 19.9225654 ], [ 78.250671, 19.924349 ], [ 78.2526109, 19.9240309 ], [ 78.2548076, 19.9197142 ], [ 78.2566856, 19.9081932 ] ] ] } }
]
}
