{
"type": "FeatureCollection",
"name": "2716",
"crs": { "type": "name", "properties": { "name": "urn:ogc:def:crs:OGC:1.3:CRS84" } },
"features": [
{ "type": "Feature", "properties": { "code": "2716", "name": "Hingoli", "type": "district" }, "geometry": { "type": "Polygon", "coordinates": [ [ [ 77.011871, 20.0026561 ], [ 77.0175605, 20.0019416 ], [ 77.0197208, 20.0029412 ], [ 77.0254866, 20.0096799 ], [ 77.0341352, 20.0093271 ], [ 77.0366934, 20.0083088 ], [ 77.0375469, 20.0047337 ], [ 77.0420592, 19.9990346 ], [ 77.0470707, 19.9972153 ], [ 77.0552924, 19.9968074 ], [ 77.0616282, 19.9938876 ], [ 77.0627725, 19.985212 ], [ 77.0704206, 19.981608 ], [ 77.0693581, 19.9756716 ], [ 77.0707924, 19.9722012 ], [ 77.0846718, 19.9639979 ], [ 77.0825795, 19.9555424 ], [ 77.0930966, 19.9437052 ], [ 77.0929969, 19.9352313 ], [ 77.1026085, 19.931429 ], [ 77.1048415, 19.9319429 ], [ 77.1082133, 19.9360834 ], [ 77.1140793, 19.9399462 ], [ 77.1207337, 19.939912 ], [ 77.125032, 19.9423666 ], [ 77.1336147, 19.9418851 ], [ 77.1355226, 19.943932 ], [ 77.136169, 19.9526756 ], [ 77.1540943, 19.9659089 ], [ 77.1694836, 19.9645085 ], [ 77.1729826, 19.9676014 ], [ 77.1757943, 19.976959 ], [ 77.1778587, 19.9797582 ], [ 77.193343, 19.9857127 ], [ 77.1944197, 19.988783 ], [ 77.1974365, 19.9906046 ], [ 77.2020913, 19.990627 ], [ 77.2036561, 19.9896272 ], [ 77.2039119, 19.9866968 ], [ 77.2120899, 19.9785788 ], [ 77.214887, 19.9733195 ], [ 77.2129337, 19.9706424 ], [ 77.2083854, 19.9689822 ], [ 77.2072931, 19.9552636 ], [ 77.2038625, 19.948577 ], [ 77.2054921, 19.942114 ], [ 77.2107343, 19.9379998 ], [ 77.2163498, 19.938841 ], [ 77.2253682, 19.9371727 ], [ 77.2352588, 19.9386748 ], [ 77.2382215, 19.9345309 ], [ 77.2367835, 19.9275713 ], [ 77.2379871, 19.9126768 ], [ 77.2456243, 19.9054992 ], [ 77.2340785, 19.8974573 ], [ 77.2340498, 19.8947581 ], [ 77.2365244, 19.8894346 ], [ 77.250126, 19.8948759 ], [ 77.2558054, 19.9016202 ], [ 77.2636561, 19.8975972 ], [ 77.2662892, 19.8976388 ], [ 77.2695745, 19.9023475 ], [ 77.2690931, 19.9175666 ], [ 77.2711568, 19.9195784 ], [ 77.2796623, 19.9177563 ], [ 77.2831903, 19.913091 ], [ 77.2826667, 19.9087395 ], [ 77.2837941, 19.9060437 ], [ 77.292233, 19.9033569 ], [ 77.2979279, 19.9061951 ], [ 77.3066173, 19.9143904 ], [ 77.3126753, 19.9145762 ], [ 77.3104473, 19.9039393 ], [ 77.3129352, 19.8963431 ], [ 77.3122176, 19.8940893 ], [ 77.2970213, 19.8959386 ], [ 77.2935399, 19.8952786 ], [ 77.2919519, 19.8911423 ], [ 77.2952816, 19.8843281 ], [ 77.3077157, 19.8826457 ], [ 77.3190318, 19.8896493 ], [ 77.3254531, 19.8873611 ], [ 77.3325222, 19.8781142 ], [ 77.3454894, 19.8771105 ], [ 77.3465014, 19.874258 ], [ 77.3435329, 19.869212 ], [ 77.3448653, 19.8639079 ], [ 77.3514948, 19.8613969 ], [ 77.3619988, 19.8614458 ], [ 77.3640333, 19.8588936 ], [ 77.3635737, 19.8554453 ], [ 77.3551549, 19.8524292 ], [ 77.3517432, 19.8498265 ], [ 77.3521797, 19.847527 ], [ 77.3586079, 19.8417814 ], [ 77.3608353, 19.836334 ], [ 77.3577112, 19.8352483 ], [ 77.3436233, 19.836908 ], [ 77.3414958, 19.836232 ], [ 77.3402198, 19.8343381 ], [ 77.3403467, 19.8312496 ], [ 77.3440305, 19.8253615 ], [ 77.3477458, 19.8248611 ], [ 77.3504454, 19.8196538 ], [ 77.3537666, 19.8173547 ], [ 77.3567711, 19.817697 ], [ 77.3670258, 19.8260942 ], [ 77.3765024, 19.8228853 ], [ 77.3866429, 19.8237463 ], [ 77.3894643, 19.8185599 ], [ 77.3906536, 19.8127691 ], [ 77.3841921, 19.8099125 ], [ 77.3789279, 19.7944569 ], [ 77.3776467, 19.7868492 ], [ 77.3810388, 19.7839875 ], [ 77.4008581, 19.7812837 ], [ 77.4041638, 19.7780432 ], [ 77.404512, 19.7729857 ], [ 77.4020785, 19.7673792 ], [ 77.4002936, 19.7664692 ], [ 77.3932049, 19.7681499 ], [ 77.3831838, 19.766093 ], [ 77.3826292, 19.7618459 ], [ 77.3764924, 19.7481429 ], [ 77.3775677, 19.7437574 ], [ 77.381409, 19.7389792 ], [ 77.3804424, 19.7294109 ], [ 77.3843997, 19.7258154 ], [ 77.3933795, 19.7280734 ], [ 77.4010196, 19.7387711 ], [ 77.4091032, 19.7456162 ], [ 77.413414, 19.7432096 ], [ 77.4123938, 19.7395065 ], [ 77.4144214, 19.7368089 ], [ 77.4196258, 19.733938 ], [ 77.4318502, 19.7304687 ], [ 77.4334308, 19.7268883 ], [ 77.438701, 19.7251773 ], [ 77.4411206, 19.7141919 ], [ 77.4455106, 19.7121221 ], [ 77.4469141, 19.7050591 ], [ 77.4494091, 19.7008059 ], [ 77.4424681, 19.6936445 ], [ 77.4436426, 19.6897817 ], [ 77.4513583, 19.688006 ], [ 77.4590338, 19.6823562 ], [ 77.4557565, 19.6770512 ], [ 77.4496893, 19.6756514 ], [ 77.4495975, 19.6737214 ], [ 77.4537424, 19.6746178 ], [ 77.453748, 19.6731978 ], [ 77.4624409, 19.669645 ], [ 77.4618403, 19.6651888 ], [ 77.466519, 19.6642444 ], [ 77.4663628, 19.6562848 ], [ 77.462448, 19.6491264 ], [ 77.461646, 19.6450921 ], [ 77.4631839, 19.6427458 ], [ 77.4665088, 19.6424004 ], [ 77.4641283, 19.6167724 ], [ 77.4626093, 19.6114307 ], [ 77.463144, 19.6096492 ], [ 77.46843, 19.6075249 ], [ 77.4793668, 19.5995771 ], [ 77.4768706, 19.5995195 ], [ 77.472517, 19.5935262 ], [ 77.4565433, 19.5803381 ], [ 77.450896, 19.5690529 ], [ 77.4525221, 19.567927 ], [ 77.452881, 19.5620444 ], [ 77.4662536, 19.5640723 ], [ 77.4643949, 19.5443701 ], [ 77.4657972, 19.5331367 ], [ 77.4675929, 19.5286938 ], [ 77.4698318, 19.5284047 ], [ 77.4677678, 19.5019539 ], [ 77.4694088, 19.5008893 ], [ 77.4700251, 19.4908978 ], [ 77.4751798, 19.4913093 ], [ 77.484646, 19.4979799 ], [ 77.4871502, 19.4979548 ], [ 77.4844406, 19.4952285 ], [ 77.4876675, 19.4954097 ], [ 77.4880101, 19.4933592 ], [ 77.4895806, 19.4932389 ], [ 77.4893091, 19.4912889 ], [ 77.4871963, 19.4907453 ], [ 77.488843, 19.4869534 ], [ 77.4865643, 19.4871061 ], [ 77.4864348, 19.4838472 ], [ 77.4882757, 19.4836175 ], [ 77.4882275, 19.4823825 ], [ 77.4851016, 19.4764675 ], [ 77.486542, 19.4581563 ], [ 77.473729, 19.4588066 ], [ 77.4700804, 19.4380249 ], [ 77.45956, 19.4401631 ], [ 77.4481516, 19.4405115 ], [ 77.4447026, 19.4209534 ], [ 77.4359583, 19.4071124 ], [ 77.4477388, 19.3936117 ], [ 77.4486639, 19.3918399 ], [ 77.4472799, 19.3863417 ], [ 77.4352196, 19.3797221 ], [ 77.4239013, 19.3786691 ], [ 77.4165287, 19.3806186 ], [ 77.4171699, 19.376663 ], [ 77.4136082, 19.3688479 ], [ 77.4091233, 19.3658819 ], [ 77.4076507, 19.3661025 ], [ 77.4000102, 19.3575594 ], [ 77.3896359, 19.352314 ], [ 77.3853178, 19.3398776 ], [ 77.3814123, 19.3410616 ], [ 77.3786643, 19.3381926 ], [ 77.3623252, 19.3395373 ], [ 77.3492048, 19.3467547 ], [ 77.3500167, 19.3522186 ], [ 77.340798, 19.3541395 ], [ 77.3381825, 19.3559697 ], [ 77.3310467, 19.3570124 ], [ 77.3116751, 19.3550338 ], [ 77.3126519, 19.3420062 ], [ 77.3107439, 19.330765 ], [ 77.3016619, 19.3332196 ], [ 77.2983842, 19.3290197 ], [ 77.289124, 19.3259089 ], [ 77.2811221, 19.3263191 ], [ 77.2807252, 19.3160223 ], [ 77.2641385, 19.3150148 ], [ 77.2477416, 19.3215145 ], [ 77.2413497, 19.3228609 ], [ 77.2377698, 19.3126322 ], [ 77.2354515, 19.2752008 ], [ 77.2310136, 19.2762971 ], [ 77.2201811, 19.2757397 ], [ 77.2149886, 19.2669037 ], [ 77.2060669, 19.2571763 ], [ 77.202269, 19.2551131 ], [ 77.2030895, 19.2447784 ], [ 77.193299, 19.2443998 ], [ 77.1918893, 19.2362994 ], [ 77.1832291, 19.2323309 ], [ 77.1790515, 19.228916 ], [ 77.1788838, 19.226266 ], [ 77.1750149, 19.226898 ], [ 77.1630128, 19.2324549 ], [ 77.1616297, 19.2298005 ], [ 77.157865, 19.2286708 ], [ 77.1544105, 19.2217806 ], [ 77.1434186, 19.2248283 ], [ 77.1434062, 19.2257618 ], [ 77.1403837, 19.2257764 ], [ 77.1372168, 19.2285972 ], [ 77.1301362, 19.2317263 ], [ 77.1258568, 19.237132 ], [ 77.1114487, 19.2386074 ], [ 77.1035279, 19.2369246 ], [ 77.1015716, 19.2354068 ], [ 77.0981359, 19.2358826 ], [ 77.0884549, 19.2402426 ], [ 77.0874991, 19.2531698 ], [ 77.0783544, 19.2573026 ], [ 77.0733849, 19.2573094 ], [ 77.0512154, 19.2522725 ], [ 77.0405057, 19.2456857 ], [ 77.0292581, 19.2462697 ], [ 77.0246284, 19.2476639 ], [ 77.0187333, 19.2525406 ], [ 77.0116725, 19.2538585 ], [ 77.0097912, 19.269678 ], [ 77.0104867, 19.2740239 ], [ 77.0220464, 19.2777342 ], [ 77.0220886, 19.2851868 ], [ 77.005356, 19.2824436 ], [ 77.0023608, 19.282961 ], [ 77.0004733, 19.2728205 ], [ 76.9952264, 19.275103 ], [ 76.9938302, 19.2801405 ], [ 76.9893443, 19.2809655 ], [ 76.9900298, 19.2878246 ], [ 76.9858817, 19.2885071 ], [ 76.9843329, 19.3030518 ], [ 76.9866035, 19.3082425 ], [ 76.983644, 19.3094414 ], [ 76.9843556, 19.3153442 ], [ 76.9802224, 19.3197019 ], [ 76.9792761, 19.3185486 ], [ 76.9690777, 19.3204498 ], [ 76.9562084, 19.3204177 ], [ 76.9440874, 19.3148879 ], [ 76.9392638, 19.3144742 ], [ 76.9365085, 19.3078048 ], [ 76.9229141, 19.3102481 ], [ 76.9227059, 19.2983041 ], [ 76.900679, 19.2982338 ], [ 76.8981421, 19.3035853 ], [ 76.8911611, 19.3080298 ], [ 76.8910862, 19.3110187 ], [ 76.8944441, 19.3165828 ], [ 76.8887143, 19.3178512 ], [ 76.8892949, 19.3227303 ], [ 76.8983556, 19.320622 ], [ 76.9009454, 19.3251739 ], [ 76.8995415, 19.3332427 ], [ 76.9086215, 19.3319985 ], [ 76.9093967, 19.3366257 ], [ 76.9136628, 19.3356804 ], [ 76.9160567, 19.338587 ], [ 76.9088384, 19.3405411 ], [ 76.9066008, 19.3389502 ], [ 76.9052773, 19.3409333 ], [ 76.9024713, 19.3404154 ], [ 76.9005877, 19.3429794 ], [ 76.9004765, 19.3386737 ], [ 76.8895083, 19.3501947 ], [ 76.8885811, 19.3551178 ], [ 76.8934106, 19.3655653 ], [ 76.8921451, 19.379127 ], [ 76.9005805, 19.3873972 ], [ 76.9045258, 19.3982296 ], [ 76.9096181, 19.403552 ], [ 76.9101525, 19.4102275 ], [ 76.9113762, 19.4119021 ], [ 76.9197001, 19.4152995 ], [ 76.9195681, 19.4193037 ], [ 76.9159978, 19.4240142 ], [ 76.9168142, 19.4252147 ], [ 76.9218743, 19.4262967 ], [ 76.9253034, 19.4347109 ], [ 76.9252454, 19.4373958 ], [ 76.9207419, 19.4430586 ], [ 76.9007195, 19.4458779 ], [ 76.9000505, 19.4383219 ], [ 76.8958748, 19.4289433 ], [ 76.8887512, 19.4327652 ], [ 76.8871418, 19.4314325 ], [ 76.8807035, 19.4319383 ], [ 76.8806902, 19.4340625 ], [ 76.8650553, 19.4390139 ], [ 76.8661769, 19.4439417 ], [ 76.8699424, 19.4445145 ], [ 76.8701663, 19.4457212 ], [ 76.8677231, 19.4468229 ], [ 76.8679583, 19.4481023 ], [ 76.8732181, 19.4486352 ], [ 76.8737819, 19.4541634 ], [ 76.8793189, 19.4528684 ], [ 76.8808462, 19.4568151 ], [ 76.8864427, 19.4568755 ], [ 76.8875989, 19.4620597 ], [ 76.866065, 19.4682458 ], [ 76.8659224, 19.4773654 ], [ 76.8603836, 19.4817306 ], [ 76.8560864, 19.4915106 ], [ 76.8604784, 19.5045073 ], [ 76.8554842, 19.5051507 ], [ 76.8552686, 19.5070358 ], [ 76.8569929, 19.5354931 ], [ 76.8826318, 19.5337483 ], [ 76.8823941, 19.5370373 ], [ 76.8812001, 19.537268 ], [ 76.8851902, 19.5497329 ], [ 76.8818134, 19.5505941 ], [ 76.8886991, 19.5596737 ], [ 76.8906824, 19.568058 ], [ 76.8903519, 19.5772711 ], [ 76.892692, 19.582529 ], [ 76.9033783, 19.5845762 ], [ 76.9044619, 19.5902933 ], [ 76.9161781, 19.5980342 ], [ 76.9246603, 19.5982313 ], [ 76.926302, 19.611217 ], [ 76.9300323, 19.6110721 ], [ 76.9261975, 19.6164482 ], [ 76.9146659, 19.6175632 ], [ 76.9136548, 19.6201134 ], [ 76.9151239, 19.6286536 ], [ 76.9149845, 19.6372561 ], [ 76.9108188, 19.6437391 ], [ 76.9079739, 19.6452719 ], [ 76.8969333, 19.6429502 ], [ 76.8841077, 19.6264611 ], [ 76.8769892, 19.6209393 ], [ 76.8715182, 19.6214675 ], [ 76.8671354, 19.6240425 ], [ 76.8668145, 19.6267976 ], [ 76.8700275, 19.632166 ], [ 76.8745086, 19.6351057 ], [ 76.8753296, 19.6370022 ], [ 76.8716586, 19.6421422 ], [ 76.8703162, 19.6465896 ], [ 76.8682492, 19.6472738 ], [ 76.8567144, 19.6456448 ], [ 76.8514264, 19.6475917 ], [ 76.8503265, 19.6510682 ], [ 76.8496302, 19.6622453 ], [ 76.8520856, 19.6656451 ], [ 76.8618867, 19.6714703 ], [ 76.8635737, 19.6761401 ], [ 76.8589142, 19.6851942 ], [ 76.8542611, 19.6909081 ], [ 76.8513183, 19.7043434 ], [ 76.8496366, 19.7067322 ], [ 76.846545, 19.7062614 ], [ 76.8402666, 19.7025214 ], [ 76.8192221, 19.7068505 ], [ 76.8134095, 19.7004728 ], [ 76.8213115, 19.691422 ], [ 76.8240419, 19.685818 ], [ 76.82544, 19.6776607 ], [ 76.8231958, 19.672631 ], [ 76.8211379, 19.6707091 ], [ 76.818939, 19.6705761 ], [ 76.8129478, 19.6805429 ], [ 76.8071613, 19.6830223 ], [ 76.7979214, 19.6720954 ], [ 76.7910478, 19.670441 ], [ 76.785901, 19.6762123 ], [ 76.7869423, 19.6880382 ], [ 76.7828934, 19.7036638 ], [ 76.7896235, 19.722327 ], [ 76.7839438, 19.7313132 ], [ 76.7802823, 19.7331025 ], [ 76.7783634, 19.732586 ], [ 76.7672308, 19.719151 ], [ 76.7670526, 19.7147765 ], [ 76.7720583, 19.7032061 ], [ 76.7721272, 19.6956979 ], [ 76.7708667, 19.6928895 ], [ 76.7623276, 19.6854539 ], [ 76.7606912, 19.6854167 ], [ 76.7487917, 19.6969258 ], [ 76.7478855, 19.7061177 ], [ 76.7437367, 19.7113098 ], [ 76.7421342, 19.7127116 ], [ 76.7323496, 19.7142413 ], [ 76.7319522, 19.7203969 ], [ 76.7386281, 19.7258861 ], [ 76.7388961, 19.7294431 ], [ 76.7358432, 19.7339532 ], [ 76.7251836, 19.7376045 ], [ 76.7199263, 19.7411023 ], [ 76.7196997, 19.7431581 ], [ 76.7236227, 19.7467761 ], [ 76.7238509, 19.7496251 ], [ 76.7168782, 19.76888 ], [ 76.7083233, 19.7700573 ], [ 76.7005991, 19.7653349 ], [ 76.6962391, 19.7563375 ], [ 76.6911819, 19.7550437 ], [ 76.6860539, 19.7576314 ], [ 76.6853254, 19.7622621 ], [ 76.6866097, 19.7679074 ], [ 76.6693172, 19.7754846 ], [ 76.6587567, 19.7771583 ], [ 76.6492681, 19.7738348 ], [ 76.6419911, 19.7736976 ], [ 76.6405206, 19.776566 ], [ 76.6407038, 19.7864882 ], [ 76.6394971, 19.7895289 ], [ 76.6322846, 19.8031051 ], [ 76.6273842, 19.8040564 ], [ 76.6240366, 19.8020564 ], [ 76.6228809, 19.7989775 ], [ 76.6231802, 19.7965992 ], [ 76.6280367, 19.790838 ], [ 76.6286835, 19.7859481 ], [ 76.6273116, 19.7840124 ], [ 76.6243404, 19.7822526 ], [ 76.6154754, 19.7812734 ], [ 76.6101344, 19.7765174 ], [ 76.6050526, 19.7750764 ], [ 76.596315, 19.7771547 ], [ 76.5923812, 19.7804149 ], [ 76.5928496, 19.7844331 ], [ 76.5946814, 19.7858315 ], [ 76.6057371, 19.7877917 ], [ 76.6086703, 19.7891408 ], [ 76.6099834, 19.7918161 ], [ 76.6095265, 19.7934859 ], [ 76.5998537, 19.7970217 ], [ 76.5970506, 19.7995678 ], [ 76.5973371, 19.803758 ], [ 76.6053928, 19.8104722 ], [ 76.5941301, 19.8303692 ], [ 76.5906815, 19.8302201 ], [ 76.5826769, 19.8263776 ], [ 76.5699824, 19.8267191 ], [ 76.5666704, 19.8170645 ], [ 76.5632632, 19.8153294 ], [ 76.5579528, 19.8196945 ], [ 76.5543128, 19.8207516 ], [ 76.5437768, 19.8203673 ], [ 76.539542, 19.8181027 ], [ 76.5355787, 19.8226433 ], [ 76.5310513, 19.8231065 ], [ 76.5218225, 19.821378 ], [ 76.5127705, 19.8241325 ], [ 76.5153513, 19.8269204 ], [ 76.5130504, 19.8269861 ], [ 76.5120108, 19.8293995 ], [ 76.5126042, 19.8318219 ], [ 76.5172317, 19.8327252 ], [ 76.5184093, 19.8363623 ], [ 76.5210471, 19.8368742 ], [ 76.5197664, 19.8399398 ], [ 76.5227747, 19.8418952 ], [ 76.5210868, 19.8445659 ], [ 76.5213282, 19.8483487 ], [ 76.5190224, 19.8499974 ], [ 76.5340975, 19.8502674 ], [ 76.5366306, 19.8467621 ], [ 76.539592, 19.8453898 ], [ 76.540548, 19.8465695 ], [ 76.5465938, 19.8438622 ], [ 76.5640908, 19.8395353 ], [ 76.5674592, 19.8398949 ], [ 76.5696494, 19.8453687 ], [ 76.5770157, 19.8441556 ], [ 76.5916944, 19.8445104 ], [ 76.5998897, 19.8416659 ], [ 76.6016976, 19.8429818 ], [ 76.6108275, 19.8374935 ], [ 76.6194101, 19.8413188 ], [ 76.6189256, 19.8447749 ], [ 76.6244234, 19.848588 ], [ 76.6317274, 19.8628341 ], [ 76.633213, 19.8689882 ], [ 76.6464743, 19.8675679 ], [ 76.654529, 19.860131 ], [ 76.655065, 19.8574321 ], [ 76.6616572, 19.8532482 ], [ 76.6657174, 19.8510379 ], [ 76.6812031, 19.8469912 ], [ 76.6849253, 19.8502571 ], [ 76.6885391, 19.8583412 ], [ 76.6919454, 19.8596147 ], [ 76.6892854, 19.863828 ], [ 76.6930499, 19.8705868 ], [ 76.6934465, 19.8741264 ], [ 76.6987323, 19.8753391 ], [ 76.706627, 19.8720165 ], [ 76.7213176, 19.8694477 ], [ 76.7402662, 19.8733112 ], [ 76.7436681, 19.8855805 ], [ 76.7425533, 19.901879 ], [ 76.7471484, 19.9123063 ], [ 76.7613983, 19.9049329 ], [ 76.7654014, 19.9044058 ], [ 76.7706868, 19.9189193 ], [ 76.7722891, 19.9357755 ], [ 76.7807158, 19.9337109 ], [ 76.7952419, 19.93297 ], [ 76.8052911, 19.9299151 ], [ 76.8213587, 19.9291991 ], [ 76.8304853, 19.9472701 ], [ 76.8330598, 19.9571753 ], [ 76.8372847, 19.9639087 ], [ 76.8598351, 19.9615371 ], [ 76.872311, 19.958283 ], [ 76.8731513, 19.9543049 ], [ 76.8890108, 19.9527892 ], [ 76.895381, 19.9491335 ], [ 76.8983476, 19.953096 ], [ 76.8995632, 19.9527301 ], [ 76.9004479, 19.9640121 ], [ 76.9181048, 19.9721462 ], [ 76.9223472, 19.9758667 ], [ 76.9337673, 19.9788622 ], [ 76.9430083, 19.983276 ], [ 76.9437823, 19.9848411 ], [ 76.9618918, 19.9872825 ], [ 76.9724003, 19.9964146 ], [ 76.9883392, 19.9982329 ], [ 76.9920207, 20.0115116 ], [ 76.9921684, 20.0171046 ], [ 76.9958107, 20.0172482 ], [ 77.0059277, 20.006889 ], [ 77.011871, 20.0026561 ] ] ] } }
]
}
