{
"type": "FeatureCollection",
"name": "2717",
"crs": { "type": "name", "properties": { "name": "urn:ogc:def:crs:OGC:1.3:CRS84" } },
"features": [
{ "type": "Feature", "properties": { "code": "2717", "name": "Parbhani", "type": "district" }, "geometry": { "type": "Polygon", "coordinates": [ [ [ 76.5959605, 19.8267972 ], [ 76.6053928, 19.8104722 ], [ 76.5973371, 19.803758 ], [ 76.596705, 19.8004084 ], [ 76.5998537, 19.7970217 ], [ 76.6095265, 19.7934859 ], [ 76.6099834, 19.7918161 ], [ 76.6086703, 19.7891408 ], [ 76.6057371, 19.7877917 ], [ 76.5946814, 19.7858315 ], [ 76.5928496, 19.7844331 ], [ 76.5923812, 19.7804149 ], [ 76.596315, 19.7771547 ], [ 76.6050526, 19.7750764 ], [ 76.6101344, 19.7765174 ], [ 76.6154754, 19.7812734 ], [ 76.6243404, 19.7822526 ], [ 76.6273116, 19.7840124 ], [ 76.6286835, 19.7859481 ], [ 76.6280367, 19.790838 ], [ 76.6231802, 19.7965992 ], [ 76.6228809, 19.7989775 ], [ 76.6240366, 19.8020564 ], [ 76.6273842, 19.8040564 ], [ 76.6322846, 19.8031051 ], [ 76.6394971, 19.7895289 ], [ 76.6407038, 19.7864882 ], [ 76.6405206, 19.776566 ], [ 76.6419911, 19.7736976 ], [ 76.6492681, 19.7738348 ], [ 76.6587567, 19.7771583 ], [ 76.6693172, 19.7754846 ], [ 76.6866097, 19.7679074 ], [ 76.6853254, 19.7622621 ], [ 76.6860539, 19.7576314 ], [ 76.6911819, 19.7550437 ], [ 76.6962391, 19.7563375 ], [ 76.7005991, 19.7653349 ], [ 76.7083233, 19.7700573 ], [ 76.7168782, 19.76888 ], [ 76.7238509, 19.7496251 ], [ 76.7236227, 19.7467761 ], [ 76.7196997, 19.7431581 ], [ 76.7199263, 19.7411023 ], [ 76.7251836, 19.7376045 ], [ 76.7358432, 19.7339532 ], [ 76.7388961, 19.7294431 ], [ 76.7386281, 19.7258861 ], [ 76.7319522, 19.7203969 ], [ 76.7323496, 19.7142413 ], [ 76.7421342, 19.7127116 ], [ 76.7437367, 19.7113098 ], [ 76.7478855, 19.7061177 ], [ 76.7487917, 19.6969258 ], [ 76.7606912, 19.6854167 ], [ 76.7623276, 19.6854539 ], [ 76.7708667, 19.6928895 ], [ 76.7721272, 19.6956979 ], [ 76.7720583, 19.7032061 ], [ 76.7670526, 19.7147765 ], [ 76.7672308, 19.719151 ], [ 76.7738253, 19.7258814 ], [ 76.7770083, 19.7314199 ], [ 76.7813541, 19.732846 ], [ 76.7839438, 19.7313132 ], [ 76.7896235, 19.722327 ], [ 76.7828934, 19.7036638 ], [ 76.7869423, 19.6880382 ], [ 76.785901, 19.6762123 ], [ 76.7910478, 19.670441 ], [ 76.7979214, 19.6720954 ], [ 76.8071613, 19.6830223 ], [ 76.8129478, 19.6805429 ], [ 76.818939, 19.6705761 ], [ 76.8211379, 19.6707091 ], [ 76.8231958, 19.672631 ], [ 76.82544, 19.6776607 ], [ 76.8240419, 19.685818 ], [ 76.8213115, 19.691422 ], [ 76.8134095, 19.7004728 ], [ 76.8192221, 19.7068505 ], [ 76.8402666, 19.7025214 ], [ 76.846545, 19.7062614 ], [ 76.8496366, 19.7067322 ], [ 76.8513183, 19.7043434 ], [ 76.8542611, 19.6909081 ], [ 76.8589142, 19.6851942 ], [ 76.8635737, 19.6761401 ], [ 76.8618867, 19.6714703 ], [ 76.8520856, 19.6656451 ], [ 76.8496302, 19.6622453 ], [ 76.8503265, 19.6510682 ], [ 76.8514264, 19.6475917 ], [ 76.8567144, 19.6456448 ], [ 76.8682492, 19.6472738 ], [ 76.8703162, 19.6465896 ], [ 76.8716586, 19.6421422 ], [ 76.8753296, 19.6370022 ], [ 76.8745086, 19.6351057 ], [ 76.8700275, 19.632166 ], [ 76.8668145, 19.6267976 ], [ 76.8671354, 19.6240425 ], [ 76.8715182, 19.6214675 ], [ 76.8769892, 19.6209393 ], [ 76.8841077, 19.6264611 ], [ 76.8981181, 19.6434965 ], [ 76.9079739, 19.6452719 ], [ 76.9108188, 19.6437391 ], [ 76.914146, 19.6394787 ], [ 76.9151239, 19.6286536 ], [ 76.9136548, 19.6201134 ], [ 76.9146659, 19.6175632 ], [ 76.9261975, 19.6164482 ], [ 76.9300323, 19.6110721 ], [ 76.926302, 19.611217 ], [ 76.9246603, 19.5982313 ], [ 76.9161781, 19.5980342 ], [ 76.9044619, 19.5902933 ], [ 76.9033783, 19.5845762 ], [ 76.892692, 19.582529 ], [ 76.8903519, 19.5772711 ], [ 76.8906824, 19.568058 ], [ 76.8886991, 19.5596737 ], [ 76.8818134, 19.5505941 ], [ 76.8851902, 19.5497329 ], [ 76.8812001, 19.537268 ], [ 76.8823941, 19.5370373 ], [ 76.8826318, 19.5337483 ], [ 76.8569929, 19.5354931 ], [ 76.8572848, 19.5296234 ], [ 76.8557176, 19.5237366 ], [ 76.8554842, 19.5051507 ], [ 76.8604784, 19.5045073 ], [ 76.8560864, 19.4915106 ], [ 76.8603836, 19.4817306 ], [ 76.8659224, 19.4773654 ], [ 76.866065, 19.4682458 ], [ 76.8875989, 19.4620597 ], [ 76.8864427, 19.4568755 ], [ 76.8808462, 19.4568151 ], [ 76.8793189, 19.4528684 ], [ 76.8737819, 19.4541634 ], [ 76.8732181, 19.4486352 ], [ 76.8679583, 19.4481023 ], [ 76.8677231, 19.4468229 ], [ 76.8701663, 19.4457212 ], [ 76.8699424, 19.4445145 ], [ 76.8661769, 19.4439417 ], [ 76.8650553, 19.4390139 ], [ 76.8806902, 19.4340625 ], [ 76.8807035, 19.4319383 ], [ 76.8871418, 19.4314325 ], [ 76.8887512, 19.4327652 ], [ 76.8958748, 19.4289433 ], [ 76.9000505, 19.4383219 ], [ 76.9007195, 19.4458779 ], [ 76.9207419, 19.4430586 ], [ 76.9252454, 19.4373958 ], [ 76.9253034, 19.4347109 ], [ 76.9218743, 19.4262967 ], [ 76.9168142, 19.4252147 ], [ 76.9159978, 19.4240142 ], [ 76.9195681, 19.4193037 ], [ 76.9197001, 19.4152995 ], [ 76.9113762, 19.4119021 ], [ 76.9101525, 19.4102275 ], [ 76.9096181, 19.403552 ], [ 76.9045258, 19.3982296 ], [ 76.9005805, 19.3873972 ], [ 76.8921451, 19.379127 ], [ 76.8934106, 19.3655653 ], [ 76.8885811, 19.3551178 ], [ 76.8895083, 19.3501947 ], [ 76.9004765, 19.3386737 ], [ 76.9005877, 19.3429794 ], [ 76.9024713, 19.3404154 ], [ 76.9052773, 19.3409333 ], [ 76.9066008, 19.3389502 ], [ 76.9088384, 19.3405411 ], [ 76.9160567, 19.338587 ], [ 76.9136628, 19.3356804 ], [ 76.9093967, 19.3366257 ], [ 76.9086215, 19.3319985 ], [ 76.8995415, 19.3332427 ], [ 76.9009454, 19.3251739 ], [ 76.8983556, 19.320622 ], [ 76.8892949, 19.3227303 ], [ 76.8887143, 19.3178512 ], [ 76.8944441, 19.3165828 ], [ 76.8910862, 19.3110187 ], [ 76.8911611, 19.3080298 ], [ 76.8981421, 19.3035853 ], [ 76.900679, 19.2982338 ], [ 76.9227059, 19.2983041 ], [ 76.9229141, 19.3102481 ], [ 76.9365085, 19.3078048 ], [ 76.9392638, 19.3144742 ], [ 76.9440874, 19.3148879 ], [ 76.9562084, 19.3204177 ], [ 76.9690777, 19.3204498 ], [ 76.9792761, 19.3185486 ], [ 76.9802224, 19.3197019 ], [ 76.9843556, 19.3153442 ], [ 76.983644, 19.3094414 ], [ 76.9866035, 19.3082425 ], [ 76.9843329, 19.3030518 ], [ 76.9858817, 19.2885071 ], [ 76.9900298, 19.2878246 ], [ 76.9893443, 19.2809655 ], [ 76.9938302, 19.2801405 ], [ 76.9952264, 19.275103 ], [ 77.0004733, 19.2728205 ], [ 77.0023608, 19.282961 ], [ 77.005356, 19.2824436 ], [ 77.0220886, 19.2851868 ], [ 77.0220464, 19.2777342 ], [ 77.0104867, 19.2740239 ], [ 77.0097912, 19.269678 ], [ 77.0116725, 19.2538585 ], [ 77.0187333, 19.2525406 ], [ 77.0246284, 19.2476639 ], [ 77.0292581, 19.2462697 ], [ 77.0405057, 19.2456857 ], [ 77.0512154, 19.2522725 ], [ 77.0733849, 19.2573094 ], [ 77.0783544, 19.2573026 ], [ 77.0874991, 19.2531698 ], [ 77.0884549, 19.2402426 ], [ 77.0981359, 19.2358826 ], [ 77.1015716, 19.2354068 ], [ 77.1035279, 19.2369246 ], [ 77.1114487, 19.2386074 ], [ 77.1258568, 19.237132 ], [ 77.1301362, 19.2317263 ], [ 77.1372168, 19.2285972 ], [ 77.1403837, 19.2257764 ], [ 77.1434062, 19.2257618 ], [ 77.1434186, 19.2248283 ], [ 77.1544105, 19.2217806 ], [ 77.157865, 19.2286708 ], [ 77.1616297, 19.2298005 ], [ 77.1630128, 19.2324549 ], [ 77.1750149, 19.226898 ], [ 77.1788838, 19.226266 ], [ 77.1760046, 19.2111256 ], [ 77.1800827, 19.2036899 ], [ 77.1812277, 19.1959201 ], [ 77.1786966, 19.187307 ], [ 77.1788205, 19.1748305 ], [ 77.1771104, 19.1675519 ], [ 77.1917766, 19.163873 ], [ 77.1911405, 19.1560227 ], [ 77.1925679, 19.1422629 ], [ 77.1914924, 19.1365518 ], [ 77.1872292, 19.1305522 ], [ 77.1800117, 19.1315297 ], [ 77.1791117, 19.1261327 ], [ 77.1751983, 19.1215448 ], [ 77.174209, 19.1210624 ], [ 77.1709291, 19.123568 ], [ 77.1668705, 19.1229444 ], [ 77.1641499, 19.1204865 ], [ 77.1615699, 19.1144342 ], [ 77.1634458, 19.1011378 ], [ 77.1624262, 19.0941821 ], [ 77.155485, 19.0827773 ], [ 77.1443546, 19.0757106 ], [ 77.1427823, 19.0722557 ], [ 77.1346815, 19.070867 ], [ 77.1307714, 19.0728782 ], [ 77.1266839, 19.0776722 ], [ 77.1222232, 19.0789497 ], [ 77.1173779, 19.0777756 ], [ 77.0951262, 19.0665545 ], [ 77.0898291, 19.0688891 ], [ 77.0872541, 19.0713843 ], [ 77.0855099, 19.0761447 ], [ 77.0863807, 19.0859743 ], [ 77.0885657, 19.0901242 ], [ 77.1022, 19.0949825 ], [ 77.1037306, 19.0997762 ], [ 77.100307, 19.1089169 ], [ 77.0839783, 19.1095068 ], [ 77.082671, 19.1004384 ], [ 77.0781489, 19.092898 ], [ 77.077102, 19.0929072 ], [ 77.0739361, 19.0841161 ], [ 77.0672709, 19.0784052 ], [ 77.0621606, 19.0691454 ], [ 77.0612355, 19.0613327 ], [ 77.0666364, 19.0449874 ], [ 77.0643739, 19.0317563 ], [ 77.0566367, 19.0306508 ], [ 77.0432581, 19.031294 ], [ 77.0411899, 19.0051383 ], [ 77.0556809, 18.9993367 ], [ 77.0562834, 18.9883058 ], [ 77.037178, 18.9681201 ], [ 77.0357887, 18.9526575 ], [ 77.0326175, 18.9536288 ], [ 77.0280706, 18.9402483 ], [ 77.0249405, 18.9398993 ], [ 77.0237482, 18.9385062 ], [ 77.0227885, 18.9325821 ], [ 77.0197751, 18.9329861 ], [ 77.0189893, 18.9318533 ], [ 77.0093785, 18.9336261 ], [ 77.0060525, 18.9292602 ], [ 76.9944169, 18.9320499 ], [ 76.9886726, 18.9357688 ], [ 76.985763, 18.9296223 ], [ 76.9829118, 18.914414 ], [ 76.9779788, 18.9124306 ], [ 76.9751494, 18.9129726 ], [ 76.9739802, 18.9163284 ], [ 76.9738786, 18.9245391 ], [ 76.9646748, 18.9301834 ], [ 76.9634922, 18.9291304 ], [ 76.9599489, 18.9296262 ], [ 76.9602858, 18.9330521 ], [ 76.955815, 18.9337771 ], [ 76.9550576, 18.9319802 ], [ 76.9529742, 18.9322982 ], [ 76.9509665, 18.9267261 ], [ 76.9478955, 18.9275863 ], [ 76.9475979, 18.9184205 ], [ 76.9459212, 18.9114552 ], [ 76.9474834, 18.9081461 ], [ 76.9296471, 18.9013872 ], [ 76.9308362, 18.8970852 ], [ 76.9331748, 18.8941786 ], [ 76.9376964, 18.8948843 ], [ 76.9543584, 18.8920279 ], [ 76.951337, 18.8821222 ], [ 76.9524398, 18.8739373 ], [ 76.9714172, 18.8770632 ], [ 76.9796917, 18.8801572 ], [ 76.9869995, 18.8796689 ], [ 77.0015966, 18.8815077 ], [ 77.0050507, 18.8800052 ], [ 77.0148844, 18.8796211 ], [ 77.0202676, 18.8510463 ], [ 77.0195356, 18.8436713 ], [ 77.0083696, 18.8430909 ], [ 77.0057594, 18.8400977 ], [ 76.9921872, 18.8325276 ], [ 76.9900997, 18.8286858 ], [ 76.9744274, 18.8305049 ], [ 76.9693025, 18.8285186 ], [ 76.9576498, 18.8316985 ], [ 76.9558241, 18.8341464 ], [ 76.9371713, 18.8321542 ], [ 76.9356638, 18.834605 ], [ 76.9287544, 18.8337015 ], [ 76.915572, 18.836824 ], [ 76.9132156, 18.836418 ], [ 76.906821, 18.8391665 ], [ 76.8976391, 18.8386538 ], [ 76.881481, 18.8338426 ], [ 76.8808429, 18.8317859 ], [ 76.8669415, 18.8301926 ], [ 76.8644282, 18.8247386 ], [ 76.8649588, 18.8212549 ], [ 76.8635829, 18.8180008 ], [ 76.8623067, 18.8176016 ], [ 76.8623538, 18.8212365 ], [ 76.8602012, 18.8233196 ], [ 76.8580771, 18.8200425 ], [ 76.8533837, 18.818862 ], [ 76.8535173, 18.8069721 ], [ 76.8456784, 18.8078224 ], [ 76.8441208, 18.8129168 ], [ 76.839155, 18.8138102 ], [ 76.8284143, 18.8121397 ], [ 76.823962, 18.8077905 ], [ 76.8199683, 18.8073069 ], [ 76.8145259, 18.8041929 ], [ 76.8115679, 18.7999068 ], [ 76.8066598, 18.7991726 ], [ 76.8015954, 18.8024391 ], [ 76.794812, 18.799892 ], [ 76.7910399, 18.8003828 ], [ 76.7890086, 18.7995119 ], [ 76.78785, 18.7972349 ], [ 76.7834011, 18.7967902 ], [ 76.7790734, 18.7889374 ], [ 76.7798681, 18.7813027 ], [ 76.7773469, 18.776082 ], [ 76.7722307, 18.7756373 ], [ 76.7703579, 18.7739921 ], [ 76.7520363, 18.7749011 ], [ 76.75223, 18.7738511 ], [ 76.7478897, 18.7736257 ], [ 76.742821, 18.7756959 ], [ 76.7371102, 18.7598705 ], [ 76.7328369, 18.7598535 ], [ 76.7348213, 18.7539873 ], [ 76.7326853, 18.7517732 ], [ 76.7295877, 18.751393 ], [ 76.729053, 18.7499324 ], [ 76.7249317, 18.7496947 ], [ 76.7063186, 18.7537644 ], [ 76.6991596, 18.7574145 ], [ 76.6977779, 18.7562261 ], [ 76.6979317, 18.7594892 ], [ 76.696341, 18.7581714 ], [ 76.6830343, 18.7593236 ], [ 76.6801948, 18.7520685 ], [ 76.6778517, 18.7535344 ], [ 76.6760138, 18.7562946 ], [ 76.6743037, 18.7566794 ], [ 76.6703159, 18.7632533 ], [ 76.6745963, 18.7663828 ], [ 76.6806991, 18.7744439 ], [ 76.6817779, 18.779282 ], [ 76.680709, 18.7818365 ], [ 76.6740614, 18.7868593 ], [ 76.6725898, 18.7895283 ], [ 76.6744494, 18.7936646 ], [ 76.6727324, 18.7955282 ], [ 76.6722578, 18.7985935 ], [ 76.6699334, 18.8005865 ], [ 76.6691402, 18.8040929 ], [ 76.6711993, 18.8135071 ], [ 76.6691406, 18.8153822 ], [ 76.6671195, 18.8149611 ], [ 76.6662564, 18.8179373 ], [ 76.6643153, 18.8182272 ], [ 76.6638091, 18.8203075 ], [ 76.6573786, 18.8193382 ], [ 76.6508316, 18.8223235 ], [ 76.6499974, 18.8213125 ], [ 76.6428678, 18.8219092 ], [ 76.6439679, 18.8227238 ], [ 76.6439567, 18.8254163 ], [ 76.6424775, 18.8329281 ], [ 76.6390949, 18.8339578 ], [ 76.6381886, 18.8390163 ], [ 76.6419324, 18.8449729 ], [ 76.6420761, 18.8478685 ], [ 76.6337999, 18.8455869 ], [ 76.6284539, 18.8467913 ], [ 76.62033, 18.8564015 ], [ 76.6192757, 18.8621364 ], [ 76.620717, 18.8679302 ], [ 76.6106988, 18.8690477 ], [ 76.586849, 18.8681481 ], [ 76.5852787, 18.8719446 ], [ 76.5818342, 18.8724839 ], [ 76.5807856, 18.8784584 ], [ 76.5838803, 18.8902966 ], [ 76.5846058, 18.904132 ], [ 76.5823944, 18.930886 ], [ 76.5854247, 18.9337214 ], [ 76.5830134, 18.9356769 ], [ 76.5847161, 18.9392596 ], [ 76.5831858, 18.9393353 ], [ 76.5832189, 18.9427787 ], [ 76.5635525, 18.9487989 ], [ 76.5368565, 18.9490287 ], [ 76.5328166, 18.923227 ], [ 76.5336738, 18.9185444 ], [ 76.5356005, 18.9188748 ], [ 76.5356313, 18.9179015 ], [ 76.5201903, 18.9182927 ], [ 76.5128815, 18.9200915 ], [ 76.5102006, 18.9244378 ], [ 76.5058034, 18.9330985 ], [ 76.5025993, 18.9493804 ], [ 76.4959216, 18.9511759 ], [ 76.4805524, 18.9522627 ], [ 76.4787957, 18.9541334 ], [ 76.4779925, 18.9533376 ], [ 76.4729575, 18.9634363 ], [ 76.4773596, 18.975297 ], [ 76.4693642, 18.9764687 ], [ 76.4687442, 18.9830221 ], [ 76.4716893, 18.9880465 ], [ 76.4776966, 18.989288 ], [ 76.4797517, 19.0011718 ], [ 76.4725104, 19.0017819 ], [ 76.4596918, 19.0073328 ], [ 76.4599495, 19.0098527 ], [ 76.4560293, 19.0083214 ], [ 76.4547309, 19.0121146 ], [ 76.4553645, 19.0198655 ], [ 76.4538576, 19.0199617 ], [ 76.4533784, 19.0246082 ], [ 76.4522353, 19.025037 ], [ 76.4515006, 19.0229383 ], [ 76.4483131, 19.0244942 ], [ 76.4491551, 19.0347228 ], [ 76.4421402, 19.0372891 ], [ 76.4410001, 19.0406059 ], [ 76.438305, 19.0423696 ], [ 76.4382147, 19.0487586 ], [ 76.4438131, 19.0477234 ], [ 76.4486527, 19.0501942 ], [ 76.4508676, 19.0490064 ], [ 76.4516949, 19.0508648 ], [ 76.4420131, 19.0592441 ], [ 76.4368757, 19.0688893 ], [ 76.4329494, 19.0728573 ], [ 76.4330006, 19.0765242 ], [ 76.4374035, 19.0877128 ], [ 76.435211, 19.0930483 ], [ 76.4320965, 19.0959248 ], [ 76.4298065, 19.0978489 ], [ 76.4249997, 19.0983143 ], [ 76.4199299, 19.0915037 ], [ 76.414351, 19.0905085 ], [ 76.4115959, 19.0913368 ], [ 76.4052632, 19.096299 ], [ 76.4014145, 19.1035465 ], [ 76.392565, 19.1135259 ], [ 76.3888363, 19.125184 ], [ 76.3786986, 19.1308044 ], [ 76.3757471, 19.1307757 ], [ 76.3691961, 19.1275935 ], [ 76.362939, 19.1198511 ], [ 76.3588314, 19.1082987 ], [ 76.3552629, 19.1040533 ], [ 76.3484839, 19.0997909 ], [ 76.3359647, 19.0991912 ], [ 76.3277413, 19.1024643 ], [ 76.3220419, 19.1073154 ], [ 76.3196119, 19.11113 ], [ 76.318978, 19.1155926 ], [ 76.3289201, 19.121692 ], [ 76.3293247, 19.1291167 ], [ 76.332853, 19.1364501 ], [ 76.3406176, 19.1407613 ], [ 76.3525282, 19.14492 ], [ 76.3560159, 19.1474288 ], [ 76.3606274, 19.1559863 ], [ 76.3606529, 19.1596444 ], [ 76.3542501, 19.1672 ], [ 76.357592, 19.178386 ], [ 76.3575869, 19.1825892 ], [ 76.3507027, 19.1938309 ], [ 76.3513803, 19.1963972 ], [ 76.3581867, 19.2018059 ], [ 76.3597414, 19.2044065 ], [ 76.360822, 19.2107382 ], [ 76.3634372, 19.2157167 ], [ 76.3637246, 19.2339116 ], [ 76.3591965, 19.2408383 ], [ 76.3399461, 19.2518393 ], [ 76.3315535, 19.2502819 ], [ 76.3209428, 19.2542239 ], [ 76.3134815, 19.261291 ], [ 76.3062651, 19.2650375 ], [ 76.2976795, 19.262754 ], [ 76.2845642, 19.2658994 ], [ 76.2778817, 19.2640228 ], [ 76.2782485, 19.2630777 ], [ 76.2594603, 19.2537113 ], [ 76.2551039, 19.2431663 ], [ 76.2501221, 19.2411913 ], [ 76.2454284, 19.2419443 ], [ 76.240526, 19.2454505 ], [ 76.2328774, 19.2451764 ], [ 76.2246523, 19.243076 ], [ 76.2220148, 19.2447953 ], [ 76.2219476, 19.2465867 ], [ 76.2261239, 19.2544132 ], [ 76.2253851, 19.2574807 ], [ 76.2231596, 19.2593957 ], [ 76.2135233, 19.261216 ], [ 76.2125938, 19.2631377 ], [ 76.2133861, 19.2695027 ], [ 76.2074172, 19.2767631 ], [ 76.2084817, 19.2806869 ], [ 76.2106243, 19.281076 ], [ 76.2116916, 19.2800017 ], [ 76.2124482, 19.2810195 ], [ 76.2162576, 19.2894642 ], [ 76.2179592, 19.2898479 ], [ 76.2186891, 19.2930047 ], [ 76.2145051, 19.2959023 ], [ 76.2077658, 19.2978409 ], [ 76.2070799, 19.2998467 ], [ 76.208155, 19.3097061 ], [ 76.2111784, 19.3189974 ], [ 76.2302085, 19.3134691 ], [ 76.2323284, 19.3171872 ], [ 76.2368242, 19.3179281 ], [ 76.2358084, 19.3261746 ], [ 76.2377504, 19.3345537 ], [ 76.2392261, 19.3362841 ], [ 76.2418385, 19.3373761 ], [ 76.2540768, 19.3344207 ], [ 76.2630669, 19.3339206 ], [ 76.2754851, 19.3443798 ], [ 76.2762067, 19.346553 ], [ 76.2617374, 19.353178 ], [ 76.2574214, 19.3566445 ], [ 76.2601196, 19.3608427 ], [ 76.2617544, 19.3669349 ], [ 76.2827994, 19.3656178 ], [ 76.2838773, 19.3744644 ], [ 76.2876417, 19.381577 ], [ 76.2900208, 19.3941327 ], [ 76.2901109, 19.3967435 ], [ 76.2843871, 19.3973827 ], [ 76.2845079, 19.4027409 ], [ 76.2873229, 19.4139044 ], [ 76.2888353, 19.4330742 ], [ 76.3014013, 19.4317815 ], [ 76.3132299, 19.4667001 ], [ 76.3168997, 19.4645781 ], [ 76.3226425, 19.4571682 ], [ 76.3266318, 19.4556687 ], [ 76.332997, 19.4562961 ], [ 76.3359302, 19.4536516 ], [ 76.3396221, 19.4545574 ], [ 76.3433358, 19.4724786 ], [ 76.3642173, 19.4708003 ], [ 76.3672114, 19.4836204 ], [ 76.3761299, 19.5071534 ], [ 76.3683685, 19.5093488 ], [ 76.3722527, 19.5271691 ], [ 76.3757231, 19.5369527 ], [ 76.3919997, 19.5314425 ], [ 76.3958754, 19.5410903 ], [ 76.4121831, 19.5382678 ], [ 76.412716, 19.5345483 ], [ 76.4149467, 19.5343165 ], [ 76.4228811, 19.5349547 ], [ 76.4238719, 19.5366496 ], [ 76.4270013, 19.5378179 ], [ 76.436327, 19.539448 ], [ 76.4383124, 19.5402501 ], [ 76.4385515, 19.5417369 ], [ 76.4421424, 19.5415643 ], [ 76.4454603, 19.5525071 ], [ 76.4445734, 19.566343 ], [ 76.4479129, 19.5846844 ], [ 76.4364969, 19.5869682 ], [ 76.4377731, 19.6001798 ], [ 76.4323694, 19.6021552 ], [ 76.4416122, 19.6133937 ], [ 76.4508753, 19.614284 ], [ 76.456139, 19.6369927 ], [ 76.4536809, 19.6408169 ], [ 76.4446591, 19.6406621 ], [ 76.4494022, 19.6596781 ], [ 76.4525601, 19.6665183 ], [ 76.4616978, 19.6642984 ], [ 76.4654568, 19.6656188 ], [ 76.4686844, 19.6708565 ], [ 76.470168, 19.6791768 ], [ 76.4786886, 19.6774589 ], [ 76.4815169, 19.678054 ], [ 76.4817273, 19.6791872 ], [ 76.4871307, 19.6810643 ], [ 76.4879382, 19.6841847 ], [ 76.4883818, 19.7018523 ], [ 76.4869527, 19.7045024 ], [ 76.4866823, 19.7096889 ], [ 76.4844458, 19.7134294 ], [ 76.4839004, 19.7214359 ], [ 76.4673424, 19.7248147 ], [ 76.4593886, 19.7251916 ], [ 76.460111, 19.7297466 ], [ 76.4583309, 19.7374641 ], [ 76.4595434, 19.7472533 ], [ 76.473097, 19.7468719 ], [ 76.4836653, 19.7448587 ], [ 76.4880289, 19.7545239 ], [ 76.4871221, 19.758801 ], [ 76.4886601, 19.7635667 ], [ 76.4963796, 19.7609413 ], [ 76.4978301, 19.763661 ], [ 76.4994398, 19.7639459 ], [ 76.5015566, 19.7621897 ], [ 76.5074437, 19.7621643 ], [ 76.5101473, 19.7608231 ], [ 76.5125839, 19.7705096 ], [ 76.5127235, 19.771408 ], [ 76.4973644, 19.7729369 ], [ 76.4930624, 19.7747231 ], [ 76.4900131, 19.778233 ], [ 76.4866599, 19.7792487 ], [ 76.4873733, 19.7811165 ], [ 76.4820568, 19.7866629 ], [ 76.4840448, 19.7997497 ], [ 76.4914538, 19.7999639 ], [ 76.4953108, 19.7986023 ], [ 76.5046671, 19.8000838 ], [ 76.5114465, 19.7989697 ], [ 76.5144895, 19.8082174 ], [ 76.5138527, 19.8147338 ], [ 76.5110336, 19.8188685 ], [ 76.5127705, 19.8241325 ], [ 76.5218225, 19.821378 ], [ 76.5310513, 19.8231065 ], [ 76.5355787, 19.8226433 ], [ 76.539542, 19.8181027 ], [ 76.5437768, 19.8203673 ], [ 76.5543128, 19.8207516 ], [ 76.5579528, 19.8196945 ], [ 76.5632632, 19.8153294 ], [ 76.5666704, 19.8170645 ], [ 76.5699824, 19.8267191 ], [ 76.5826769, 19.8263776 ], [ 76.5928502, 19.8304864 ], [ 76.5955459, 19.8294744 ], [ 76.5959605, 19.8267972 ] ] ] } }
]
}
