{
"type": "FeatureCollection",
"name": "2718",
"crs": { "type": "name", "properties": { "name": "urn:ogc:def:crs:OGC:1.3:CRS84" } },
"features": [
{ "type": "Feature", "properties": { "code": "2718", "name": "Jalna", "type": "district" }, "geometry": { "type": "MultiPolygon", "coordinates": [ [ [ [ 75.5812752, 19.9666706 ], [ 75.5929372, 19.9604577 ], [ 75.596245, 19.9601993 ], [ 75.5954734, 19.9510916 ], [ 75.5925586, 19.9499568 ], [ 75.5921467, 19.9427064 ], [ 75.5728655, 19.9355421 ], [ 75.5681093, 19.9356349 ], [ 75.5620712, 19.9398028 ], [ 75.5627908, 19.941721 ], [ 75.5618754, 19.9437508 ], [ 75.5635174, 19.9463732 ], [ 75.5641953, 19.9516681 ], [ 75.5618858, 19.9561939 ], [ 75.5588014, 19.9572626 ], [ 75.5582645, 19.960535 ], [ 75.562449, 19.962418 ], [ 75.5616252, 19.9648539 ], [ 75.5678366, 19.9670641 ], [ 75.5759236, 19.9675544 ], [ 75.5812752, 19.9666706 ] ] ], [ [ [ 75.8794207, 20.560537 ], [ 75.904145, 20.5580013 ], [ 75.9122497, 20.5547795 ], [ 75.9183064, 20.554316 ], [ 75.9262234, 20.5458546 ], [ 75.9318142, 20.548919 ], [ 75.9347721, 20.5433026 ], [ 75.9398778, 20.5420241 ], [ 75.9405764, 20.5355405 ], [ 75.9500135, 20.531662 ], [ 75.9557476, 20.530091 ], [ 75.9607544, 20.5306803 ], [ 75.9612112, 20.5322733 ], [ 75.9651915, 20.5324266 ], [ 75.9672564, 20.535263 ], [ 75.9694123, 20.5352151 ], [ 75.97147, 20.5380506 ], [ 75.9705562, 20.5343248 ], [ 75.9726694, 20.5318201 ], [ 75.9695539, 20.5230985 ], [ 75.9669966, 20.5229642 ], [ 75.9600244, 20.5260075 ], [ 75.9572555, 20.5242878 ], [ 75.9564552, 20.5221177 ], [ 75.9492942, 20.5186091 ], [ 75.949438, 20.5139125 ], [ 75.9477032, 20.5094231 ], [ 75.9408989, 20.5021486 ], [ 75.9411942, 20.4919477 ], [ 75.9456638, 20.4854337 ], [ 75.9453271, 20.4832914 ], [ 75.948371, 20.4782524 ], [ 75.9486593, 20.4724738 ], [ 75.9548725, 20.4730154 ], [ 75.9524346, 20.465294 ], [ 75.9570258, 20.4645433 ], [ 75.9551151, 20.4510391 ], [ 75.9479664, 20.4461206 ], [ 75.9459343, 20.4428033 ], [ 75.9449434, 20.4431302 ], [ 75.9429944, 20.4310663 ], [ 75.9403225, 20.4313784 ], [ 75.9414314, 20.4248024 ], [ 75.9438666, 20.4232375 ], [ 75.9438781, 20.414972 ], [ 75.9462107, 20.4146769 ], [ 75.9475296, 20.4130177 ], [ 75.9496497, 20.393264 ], [ 75.9525893, 20.387037 ], [ 75.96213, 20.3829153 ], [ 75.9668332, 20.3729515 ], [ 75.9662071, 20.370936 ], [ 75.9596138, 20.3718622 ], [ 75.9578135, 20.3655596 ], [ 75.9497822, 20.3685357 ], [ 75.9416431, 20.3689084 ], [ 75.9413572, 20.3641648 ], [ 75.9397924, 20.3626989 ], [ 75.9412741, 20.3620528 ], [ 75.9419655, 20.3583458 ], [ 75.9406807, 20.3421408 ], [ 75.933879, 20.3387747 ], [ 75.928853, 20.3257571 ], [ 75.9231073, 20.3206312 ], [ 75.924174, 20.3129453 ], [ 75.9288748, 20.3022138 ], [ 75.9333555, 20.3006627 ], [ 75.9399708, 20.3011752 ], [ 75.9492625, 20.2986326 ], [ 75.9517063, 20.3023001 ], [ 75.9646114, 20.3114798 ], [ 75.9670235, 20.3159902 ], [ 75.9700077, 20.315831 ], [ 75.9719197, 20.3145747 ], [ 75.976414, 20.3144299 ], [ 75.9752528, 20.307751 ], [ 75.9861366, 20.307882 ], [ 75.9911862, 20.3087096 ], [ 75.9914093, 20.3106415 ], [ 75.9950533, 20.3105438 ], [ 76.0043822, 20.3064343 ], [ 76.0018693, 20.2976422 ], [ 76.0014713, 20.2907402 ], [ 76.0157292, 20.2896442 ], [ 76.0200221, 20.28825 ], [ 76.0283491, 20.2890569 ], [ 76.0320786, 20.3082531 ], [ 76.0355002, 20.3140243 ], [ 76.0383454, 20.3225925 ], [ 76.0411797, 20.3247731 ], [ 76.045679, 20.3324535 ], [ 76.0468266, 20.3371243 ], [ 76.0522625, 20.3422105 ], [ 76.0613767, 20.3431626 ], [ 76.065432, 20.3451057 ], [ 76.069186, 20.3491007 ], [ 76.0714645, 20.349039 ], [ 76.0760819, 20.358097 ], [ 76.0857717, 20.3652372 ], [ 76.0866451, 20.3597005 ], [ 76.0918993, 20.3595108 ], [ 76.093032, 20.3580821 ], [ 76.0923031, 20.3541134 ], [ 76.0897373, 20.3515675 ], [ 76.0914921, 20.3511804 ], [ 76.0942601, 20.3472334 ], [ 76.0965404, 20.3473834 ], [ 76.099706, 20.3503466 ], [ 76.0986582, 20.3543977 ], [ 76.1082096, 20.3540119 ], [ 76.1082152, 20.3503973 ], [ 76.1097861, 20.3504693 ], [ 76.1147179, 20.3460315 ], [ 76.1210401, 20.3466232 ], [ 76.1209601, 20.3419166 ], [ 76.1261274, 20.3449295 ], [ 76.1280098, 20.3388462 ], [ 76.123741, 20.3330964 ], [ 76.1254063, 20.3265008 ], [ 76.1247223, 20.3249583 ], [ 76.1296307, 20.3223906 ], [ 76.1292218, 20.317276 ], [ 76.1345594, 20.3190249 ], [ 76.1365487, 20.3183768 ], [ 76.1476391, 20.3105671 ], [ 76.1464814, 20.3057802 ], [ 76.1429217, 20.3050919 ], [ 76.1409139, 20.3005252 ], [ 76.1550532, 20.302752 ], [ 76.1685152, 20.2949116 ], [ 76.1703467, 20.2965727 ], [ 76.1722962, 20.3021754 ], [ 76.181777, 20.300373 ], [ 76.1938218, 20.3001537 ], [ 76.1871747, 20.2888557 ], [ 76.1853809, 20.2803856 ], [ 76.1807318, 20.2711284 ], [ 76.1778194, 20.2660389 ], [ 76.1734396, 20.2655323 ], [ 76.1732669, 20.2604819 ], [ 76.1697826, 20.2583214 ], [ 76.1685261, 20.2556179 ], [ 76.1663851, 20.2384342 ], [ 76.1628945, 20.2389893 ], [ 76.1499341, 20.2370984 ], [ 76.1447014, 20.23215 ], [ 76.1392785, 20.2312619 ], [ 76.1363774, 20.2257424 ], [ 76.1329266, 20.2224448 ], [ 76.13753, 20.2178758 ], [ 76.1393677, 20.2127517 ], [ 76.1480026, 20.2087616 ], [ 76.1498542, 20.2059492 ], [ 76.1451428, 20.199584 ], [ 76.1319661, 20.1987487 ], [ 76.1336065, 20.1848538 ], [ 76.1276302, 20.1795894 ], [ 76.1263845, 20.1740879 ], [ 76.1235325, 20.1737017 ], [ 76.1251278, 20.1706393 ], [ 76.1238837, 20.1677727 ], [ 76.1212825, 20.1683575 ], [ 76.1202982, 20.1673496 ], [ 76.1209756, 20.1644043 ], [ 76.118852, 20.1623558 ], [ 76.1194222, 20.1608555 ], [ 76.1088128, 20.1624333 ], [ 76.1054126, 20.1531424 ], [ 76.1079842, 20.1523641 ], [ 76.1084131, 20.1484424 ], [ 76.105724, 20.1325751 ], [ 76.0984553, 20.1304931 ], [ 76.0992585, 20.1159423 ], [ 76.0956271, 20.105866 ], [ 76.0947264, 20.096295 ], [ 76.0926626, 20.0963862 ], [ 76.0916361, 20.0942383 ], [ 76.0882953, 20.0955944 ], [ 76.0871183, 20.0964079 ], [ 76.0865621, 20.1002935 ], [ 76.0844728, 20.099655 ], [ 76.0842378, 20.0979873 ], [ 76.0817118, 20.0981797 ], [ 76.0807369, 20.1002335 ], [ 76.0720335, 20.1002747 ], [ 76.0671559, 20.0980446 ], [ 76.0580699, 20.0988509 ], [ 76.0544615, 20.0963488 ], [ 76.0518962, 20.0851922 ], [ 76.0581814, 20.0868559 ], [ 76.0622779, 20.0844919 ], [ 76.0649466, 20.0818779 ], [ 76.0695306, 20.0728016 ], [ 76.0633557, 20.0685599 ], [ 76.0555886, 20.0659928 ], [ 76.0521984, 20.0620646 ], [ 76.0449393, 20.0629022 ], [ 76.0411156, 20.0616057 ], [ 76.0351882, 20.0619005 ], [ 76.0187978, 20.0584012 ], [ 76.0212675, 20.0499104 ], [ 76.0233193, 20.0242983 ], [ 76.0108801, 20.0219707 ], [ 76.0073522, 20.0167997 ], [ 76.006181, 20.0124231 ], [ 76.00365, 20.0138013 ], [ 75.9993446, 20.0127124 ], [ 75.9970901, 20.0102169 ], [ 75.9899052, 20.0077897 ], [ 75.9860913, 20.0047326 ], [ 75.9766452, 20.0040662 ], [ 75.9733344, 20.0022608 ], [ 75.9656484, 20.0027899 ], [ 75.9624992, 19.9949054 ], [ 75.9676276, 19.9863086 ], [ 75.971784, 19.9826695 ], [ 75.9880929, 19.9806749 ], [ 75.9893642, 19.974042 ], [ 75.9940656, 19.9761235 ], [ 76.0002903, 19.9709832 ], [ 76.0085518, 19.9742441 ], [ 76.0114579, 19.9737135 ], [ 76.0125543, 19.9693531 ], [ 76.0112638, 19.9537565 ], [ 76.0270421, 19.9504386 ], [ 76.0258506, 19.9481987 ], [ 76.0266524, 19.9478551 ], [ 76.0276, 19.9493439 ], [ 76.0304723, 19.9500719 ], [ 76.0325911, 19.9472055 ], [ 76.0354703, 19.9496418 ], [ 76.0409023, 19.949671 ], [ 76.0402207, 19.946599 ], [ 76.0412365, 19.9459627 ], [ 76.0426446, 19.9470766 ], [ 76.0481407, 19.9459679 ], [ 76.052332, 19.9402451 ], [ 76.047826, 19.9356214 ], [ 76.0574933, 19.9298083 ], [ 76.0586955, 19.9193538 ], [ 76.0714524, 19.9141967 ], [ 76.0811168, 19.9125369 ], [ 76.08001, 19.8984687 ], [ 76.0809115, 19.8805452 ], [ 76.0928243, 19.8720538 ], [ 76.0967792, 19.8623948 ], [ 76.0975497, 19.8569585 ], [ 76.1052022, 19.8601173 ], [ 76.1160579, 19.8610054 ], [ 76.1184827, 19.8600936 ], [ 76.1207422, 19.8645071 ], [ 76.1293314, 19.8650198 ], [ 76.1357344, 19.8519522 ], [ 76.1353254, 19.8467728 ], [ 76.1399319, 19.8440662 ], [ 76.1442915, 19.8448868 ], [ 76.1476049, 19.8436402 ], [ 76.1483926, 19.855949 ], [ 76.1639838, 19.8527231 ], [ 76.1641911, 19.8548618 ], [ 76.1658634, 19.8546861 ], [ 76.1724288, 19.8509387 ], [ 76.1792924, 19.8496957 ], [ 76.1817336, 19.8480852 ], [ 76.1859498, 19.8548907 ], [ 76.1942667, 19.858805 ], [ 76.1968255, 19.8653994 ], [ 76.2075364, 19.8639424 ], [ 76.2144672, 19.8679464 ], [ 76.2252627, 19.8667989 ], [ 76.2295321, 19.865175 ], [ 76.2416777, 19.8721846 ], [ 76.2491212, 19.8709448 ], [ 76.2493054, 19.8719563 ], [ 76.2543511, 19.8733443 ], [ 76.2554322, 19.8762915 ], [ 76.2591941, 19.8752448 ], [ 76.2698065, 19.8761592 ], [ 76.2917562, 19.8724887 ], [ 76.2930702, 19.8707953 ], [ 76.3001361, 19.8775975 ], [ 76.3050176, 19.8784164 ], [ 76.3089875, 19.8771306 ], [ 76.3154152, 19.8772395 ], [ 76.3266589, 19.8859781 ], [ 76.3364622, 19.883684 ], [ 76.3397602, 19.8867618 ], [ 76.3423011, 19.8944433 ], [ 76.3465984, 19.8927157 ], [ 76.351658, 19.8965239 ], [ 76.3548416, 19.8968675 ], [ 76.3538561, 19.8990319 ], [ 76.3548497, 19.9101657 ], [ 76.3623191, 19.921173 ], [ 76.3645848, 19.9227766 ], [ 76.3660225, 19.9285008 ], [ 76.3839296, 19.9169643 ], [ 76.3860555, 19.9146849 ], [ 76.3873855, 19.9086112 ], [ 76.3928169, 19.9049176 ], [ 76.4021636, 19.9098013 ], [ 76.4020425, 19.9128625 ], [ 76.4052853, 19.9197977 ], [ 76.4214397, 19.9204923 ], [ 76.4236737, 19.9192587 ], [ 76.4362819, 19.9187779 ], [ 76.4411194, 19.9172872 ], [ 76.4465589, 19.9224353 ], [ 76.4500948, 19.9219172 ], [ 76.4534827, 19.9233559 ], [ 76.4577308, 19.9203007 ], [ 76.462472, 19.9195173 ], [ 76.4935694, 19.9201592 ], [ 76.4905842, 19.9069243 ], [ 76.490813, 19.8979675 ], [ 76.4927616, 19.893795 ], [ 76.4958045, 19.8939435 ], [ 76.4996376, 19.8894446 ], [ 76.5018906, 19.8887839 ], [ 76.5064893, 19.8780058 ], [ 76.5122359, 19.8767283 ], [ 76.514472, 19.8786943 ], [ 76.5181681, 19.8782586 ], [ 76.5186971, 19.8759267 ], [ 76.5169767, 19.8742202 ], [ 76.5185234, 19.8728113 ], [ 76.5345083, 19.8655295 ], [ 76.5311725, 19.8617626 ], [ 76.5340112, 19.8576431 ], [ 76.5341045, 19.8502676 ], [ 76.5190224, 19.8499974 ], [ 76.5213282, 19.8483487 ], [ 76.5210868, 19.8445659 ], [ 76.5227747, 19.8418952 ], [ 76.5197664, 19.8399398 ], [ 76.5210471, 19.8368742 ], [ 76.5184093, 19.8363623 ], [ 76.5172317, 19.8327252 ], [ 76.5126042, 19.8318219 ], [ 76.5120108, 19.8293995 ], [ 76.5130504, 19.8269861 ], [ 76.5153513, 19.8269204 ], [ 76.5142468, 19.8249345 ], [ 76.5129509, 19.8250663 ], [ 76.5110336, 19.8188685 ], [ 76.5138527, 19.8147338 ], [ 76.5144895, 19.8082174 ], [ 76.5114465, 19.7989697 ], [ 76.5036128, 19.8000624 ], [ 76.4953108, 19.7986023 ], [ 76.4844619, 19.8001709 ], [ 76.4834504, 19.7976349 ], [ 76.4820568, 19.7866629 ], [ 76.4873733, 19.7811165 ], [ 76.4866599, 19.7792487 ], [ 76.4900131, 19.778233 ], [ 76.4930624, 19.7747231 ], [ 76.4973644, 19.7729369 ], [ 76.5127235, 19.771408 ], [ 76.5101473, 19.7608231 ], [ 76.5074437, 19.7621643 ], [ 76.5015566, 19.7621897 ], [ 76.4994398, 19.7639459 ], [ 76.4978301, 19.763661 ], [ 76.4963796, 19.7609413 ], [ 76.4886601, 19.7635667 ], [ 76.4871221, 19.758801 ], [ 76.4880289, 19.7545239 ], [ 76.4836653, 19.7448587 ], [ 76.473097, 19.7468719 ], [ 76.4595434, 19.7472533 ], [ 76.4583309, 19.7374641 ], [ 76.460111, 19.7297466 ], [ 76.4593886, 19.7251916 ], [ 76.4673424, 19.7248147 ], [ 76.4839004, 19.7214359 ], [ 76.4844458, 19.7134294 ], [ 76.4866823, 19.7096889 ], [ 76.4869527, 19.7045024 ], [ 76.4883818, 19.7018523 ], [ 76.4879382, 19.6841847 ], [ 76.4871307, 19.6810643 ], [ 76.4817273, 19.6791872 ], [ 76.4815169, 19.678054 ], [ 76.4786886, 19.6774589 ], [ 76.470168, 19.6791768 ], [ 76.4686844, 19.6708565 ], [ 76.4654568, 19.6656188 ], [ 76.4616978, 19.6642984 ], [ 76.4525601, 19.6665183 ], [ 76.4494022, 19.6596781 ], [ 76.4446591, 19.6406621 ], [ 76.4536809, 19.6408169 ], [ 76.456139, 19.6369927 ], [ 76.4508753, 19.614284 ], [ 76.4416122, 19.6133937 ], [ 76.4323694, 19.6021552 ], [ 76.4377731, 19.6001798 ], [ 76.4364969, 19.5869682 ], [ 76.4479129, 19.5846844 ], [ 76.4445734, 19.566343 ], [ 76.4454603, 19.5525071 ], [ 76.4421424, 19.5415643 ], [ 76.4385515, 19.5417369 ], [ 76.4383124, 19.5402501 ], [ 76.436327, 19.539448 ], [ 76.4270013, 19.5378179 ], [ 76.4238719, 19.5366496 ], [ 76.4228811, 19.5349547 ], [ 76.4149467, 19.5343165 ], [ 76.412716, 19.5345483 ], [ 76.4121831, 19.5382678 ], [ 76.3958754, 19.5410903 ], [ 76.3919997, 19.5314425 ], [ 76.3757231, 19.5369527 ], [ 76.3722527, 19.5271691 ], [ 76.3683685, 19.5093488 ], [ 76.3761299, 19.5071534 ], [ 76.3672114, 19.4836204 ], [ 76.3642173, 19.4708003 ], [ 76.3433358, 19.4724786 ], [ 76.3396221, 19.4545574 ], [ 76.3359302, 19.4536516 ], [ 76.332997, 19.4562961 ], [ 76.3266318, 19.4556687 ], [ 76.3226425, 19.4571682 ], [ 76.3168997, 19.4645781 ], [ 76.3132299, 19.4667001 ], [ 76.3014013, 19.4317815 ], [ 76.2888353, 19.4330742 ], [ 76.2873229, 19.4139044 ], [ 76.2845079, 19.4027409 ], [ 76.2843871, 19.3973827 ], [ 76.2901109, 19.3967435 ], [ 76.2900208, 19.3941327 ], [ 76.2876417, 19.381577 ], [ 76.2838773, 19.3744644 ], [ 76.2827994, 19.3656178 ], [ 76.2617544, 19.3669349 ], [ 76.2601196, 19.3608427 ], [ 76.2574214, 19.3566445 ], [ 76.2617374, 19.353178 ], [ 76.2762067, 19.346553 ], [ 76.2754851, 19.3443798 ], [ 76.2630669, 19.3339206 ], [ 76.2540768, 19.3344207 ], [ 76.2418385, 19.3373761 ], [ 76.2392261, 19.3362841 ], [ 76.2377504, 19.3345537 ], [ 76.2358084, 19.3261746 ], [ 76.2368242, 19.3179281 ], [ 76.2323284, 19.3171872 ], [ 76.2302085, 19.3134691 ], [ 76.2111784, 19.3189974 ], [ 76.208155, 19.3097061 ], [ 76.2070799, 19.2998467 ], [ 76.2077658, 19.2978409 ], [ 76.2145051, 19.2959023 ], [ 76.2186891, 19.2930047 ], [ 76.2179592, 19.2898479 ], [ 76.2162576, 19.2894642 ], [ 76.2124482, 19.2810195 ], [ 76.2116916, 19.2800017 ], [ 76.2106243, 19.281076 ], [ 76.2084817, 19.2806869 ], [ 76.207601, 19.276989 ], [ 76.1952941, 19.2858825 ], [ 76.179627, 19.288405 ], [ 76.1762654, 19.2874289 ], [ 76.171187, 19.2835672 ], [ 76.1662315, 19.2826153 ], [ 76.1626778, 19.2834265 ], [ 76.1602898, 19.2858155 ], [ 76.1603617, 19.295391 ], [ 76.1575443, 19.2964586 ], [ 76.1517424, 19.295791 ], [ 76.1440111, 19.2912492 ], [ 76.1395027, 19.2911677 ], [ 76.1336112, 19.2931831 ], [ 76.1289479, 19.3021026 ], [ 76.125676, 19.3033471 ], [ 76.1216081, 19.3025168 ], [ 76.1154954, 19.2962088 ], [ 76.1134656, 19.2961949 ], [ 76.1116729, 19.2989425 ], [ 76.1111811, 19.3035514 ], [ 76.1089214, 19.3060626 ], [ 76.1027009, 19.3080674 ], [ 76.0983948, 19.3066686 ], [ 76.0963403, 19.3042596 ], [ 76.0908373, 19.2850087 ], [ 76.0879341, 19.2809353 ], [ 76.0710721, 19.2789546 ], [ 76.0562314, 19.2849947 ], [ 76.0396682, 19.2836398 ], [ 76.0322622, 19.2881389 ], [ 76.0251245, 19.2994394 ], [ 76.0251452, 19.3146275 ], [ 76.0218127, 19.3230334 ], [ 76.0209332, 19.3294579 ], [ 76.0236926, 19.3332527 ], [ 76.0202009, 19.3376435 ], [ 76.0149042, 19.3378974 ], [ 76.0100217, 19.3357549 ], [ 76.0034232, 19.3268658 ], [ 75.9768351, 19.3052623 ], [ 75.9604207, 19.3017275 ], [ 75.942853, 19.2918937 ], [ 75.9351578, 19.2933796 ], [ 75.9330314, 19.2954196 ], [ 75.9229028, 19.2994899 ], [ 75.9182247, 19.303437 ], [ 75.9090462, 19.3137218 ], [ 75.9064945, 19.3183312 ], [ 75.9034335, 19.3379008 ], [ 75.9052223, 19.3469846 ], [ 75.9098661, 19.3578887 ], [ 75.9155079, 19.3614257 ], [ 75.9176263, 19.3654337 ], [ 75.917916, 19.3731435 ], [ 75.9250276, 19.3827004 ], [ 75.9186612, 19.3885833 ], [ 75.9120325, 19.3921685 ], [ 75.9037502, 19.3905951 ], [ 75.8931444, 19.3795714 ], [ 75.8901335, 19.3787165 ], [ 75.8799285, 19.3837623 ], [ 75.8731443, 19.383292 ], [ 75.8578772, 19.3756164 ], [ 75.8458341, 19.3718891 ], [ 75.8404808, 19.3714849 ], [ 75.8352909, 19.3718176 ], [ 75.8244717, 19.3776495 ], [ 75.8193586, 19.3826659 ], [ 75.8074723, 19.3899491 ], [ 75.8005408, 19.3927586 ], [ 75.7930489, 19.3982707 ], [ 75.7889675, 19.4001781 ], [ 75.7854, 19.3995416 ], [ 75.7793321, 19.3961608 ], [ 75.7643266, 19.3925884 ], [ 75.7564116, 19.3876551 ], [ 75.7561981, 19.3845824 ], [ 75.761018, 19.3783281 ], [ 75.7614001, 19.3757976 ], [ 75.7533503, 19.3584532 ], [ 75.7509323, 19.3560832 ], [ 75.7467584, 19.3580397 ], [ 75.7411865, 19.3585426 ], [ 75.7366954, 19.3571972 ], [ 75.7245529, 19.3575261 ], [ 75.7142444, 19.3542199 ], [ 75.6998457, 19.3590197 ], [ 75.6958814, 19.3588106 ], [ 75.6871301, 19.3552568 ], [ 75.6796646, 19.3556519 ], [ 75.6755154, 19.3582641 ], [ 75.6744383, 19.3641347 ], [ 75.6753155, 19.3653637 ], [ 75.6724434, 19.3676021 ], [ 75.6557387, 19.3671562 ], [ 75.6507606, 19.3685709 ], [ 75.6420654, 19.3804634 ], [ 75.6401083, 19.3814479 ], [ 75.6257261, 19.3733732 ], [ 75.6198212, 19.3746737 ], [ 75.6061282, 19.3835383 ], [ 75.6108005, 19.4043423 ], [ 75.612759, 19.4251469 ], [ 75.6032737, 19.427541 ], [ 75.6047843, 19.4519853 ], [ 75.608605, 19.4522736 ], [ 75.6096369, 19.4540282 ], [ 75.6127479, 19.4612227 ], [ 75.6139005, 19.4676486 ], [ 75.6264636, 19.4605944 ], [ 75.6293728, 19.460277 ], [ 75.6315413, 19.4646361 ], [ 75.6305617, 19.4652267 ], [ 75.6310104, 19.4673452 ], [ 75.6343503, 19.4752882 ], [ 75.6358692, 19.4754406 ], [ 75.6370592, 19.4782841 ], [ 75.6415605, 19.4962195 ], [ 75.6422148, 19.5020922 ], [ 75.6399301, 19.5208866 ], [ 75.6427387, 19.5388592 ], [ 75.6465635, 19.5388669 ], [ 75.6479858, 19.5461318 ], [ 75.6548958, 19.5604464 ], [ 75.656042, 19.5681506 ], [ 75.6522812, 19.5713262 ], [ 75.6526404, 19.5754541 ], [ 75.6501967, 19.5781655 ], [ 75.6528118, 19.5857418 ], [ 75.6508644, 19.5857357 ], [ 75.6492089, 19.5954358 ], [ 75.6394042, 19.5944736 ], [ 75.6313827, 19.5961404 ], [ 75.6244384, 19.5957589 ], [ 75.6104911, 19.597818 ], [ 75.6088578, 19.6016255 ], [ 75.5979954, 19.6007143 ], [ 75.5916581, 19.6099599 ], [ 75.5935816, 19.6101636 ], [ 75.5937497, 19.6180054 ], [ 75.5921925, 19.61801 ], [ 75.5904635, 19.6219445 ], [ 75.5888201, 19.6220285 ], [ 75.5851458, 19.6383009 ], [ 75.6038645, 19.6434903 ], [ 75.6051327, 19.6578329 ], [ 75.6254079, 19.6559361 ], [ 75.6279371, 19.6567032 ], [ 75.6292382, 19.660322 ], [ 75.6313833, 19.6678287 ], [ 75.6313975, 19.6762686 ], [ 75.6302122, 19.6833787 ], [ 75.6256753, 19.6954256 ], [ 75.6251948, 19.7042387 ], [ 75.6285901, 19.7039434 ], [ 75.6296308, 19.7077538 ], [ 75.6319567, 19.7348648 ], [ 75.6252382, 19.736373 ], [ 75.6263411, 19.7426623 ], [ 75.6261614, 19.7455174 ], [ 75.6247751, 19.7458506 ], [ 75.6258563, 19.7549545 ], [ 75.6227177, 19.7550003 ], [ 75.6225356, 19.757472 ], [ 75.623587, 19.772 ], [ 75.6360972, 19.7723692 ], [ 75.6340141, 19.7781177 ], [ 75.6405522, 19.7801916 ], [ 75.6444229, 19.7800565 ], [ 75.6449466, 19.7931352 ], [ 75.6411714, 19.793214 ], [ 75.6394709, 19.7998808 ], [ 75.6334536, 19.8069471 ], [ 75.6335959, 19.8114586 ], [ 75.6535846, 19.8133587 ], [ 75.654192, 19.8147039 ], [ 75.6554813, 19.814426 ], [ 75.6584987, 19.8225185 ], [ 75.6600025, 19.8292087 ], [ 75.6577151, 19.8296568 ], [ 75.6581067, 19.8339422 ], [ 75.6567052, 19.8336412 ], [ 75.6559095, 19.8409496 ], [ 75.6448927, 19.8421012 ], [ 75.648112, 19.8542772 ], [ 75.6467141, 19.8584786 ], [ 75.647968, 19.8627252 ], [ 75.6477843, 19.8702316 ], [ 75.649416, 19.8764271 ], [ 75.6525732, 19.8767302 ], [ 75.6545061, 19.9016605 ], [ 75.6559265, 19.902184 ], [ 75.6567798, 19.9125096 ], [ 75.6636705, 19.9121758 ], [ 75.6710378, 19.9143847 ], [ 75.6728924, 19.9169883 ], [ 75.6775355, 19.9165442 ], [ 75.6797227, 19.9182341 ], [ 75.6805976, 19.9245249 ], [ 75.6790281, 19.9257055 ], [ 75.6771919, 19.930827 ], [ 75.6741685, 19.9330956 ], [ 75.6735276, 19.9398002 ], [ 75.6687099, 19.9421368 ], [ 75.6692058, 19.9440233 ], [ 75.6654095, 19.9459333 ], [ 75.6636491, 19.9454282 ], [ 75.6637068, 19.9478149 ], [ 75.6619375, 19.9494719 ], [ 75.6583036, 19.9479338 ], [ 75.6586458, 19.9461779 ], [ 75.6574668, 19.945377 ], [ 75.6541607, 19.946348 ], [ 75.6511039, 19.9497268 ], [ 75.6524999, 19.9508225 ], [ 75.6516463, 19.951368 ], [ 75.6523349, 19.953525 ], [ 75.6548548, 19.9577667 ], [ 75.6557635, 19.9658384 ], [ 75.6506856, 19.9685986 ], [ 75.6480587, 19.9713481 ], [ 75.6485904, 19.9726422 ], [ 75.6439271, 19.9755545 ], [ 75.6425496, 19.9829222 ], [ 75.6458054, 19.9961825 ], [ 75.6444744, 20.0069788 ], [ 75.6397413, 20.0077504 ], [ 75.639078, 20.010203 ], [ 75.6334299, 20.0115973 ], [ 75.6325409, 20.0068632 ], [ 75.6301806, 20.0038466 ], [ 75.6225009, 19.9999274 ], [ 75.6073634, 20.001351 ], [ 75.5995675, 19.9995101 ], [ 75.5980859, 20.00526 ], [ 75.5924469, 20.0063826 ], [ 75.5919982, 20.0162551 ], [ 75.5905527, 20.0166647 ], [ 75.5884156, 20.0239317 ], [ 75.591229, 20.0285723 ], [ 75.5935325, 20.0299591 ], [ 75.5934131, 20.0317929 ], [ 75.5948689, 20.0321959 ], [ 75.6006218, 20.0494188 ], [ 75.6043244, 20.0533766 ], [ 75.5971952, 20.058416 ], [ 75.5983674, 20.0618301 ], [ 75.5908092, 20.0609624 ], [ 75.5886705, 20.0635816 ], [ 75.5898469, 20.0656367 ], [ 75.5875567, 20.0664473 ], [ 75.585361, 20.0864332 ], [ 75.5863587, 20.0978988 ], [ 75.6034511, 20.0996561 ], [ 75.6162494, 20.0989526 ], [ 75.624158, 20.1002746 ], [ 75.6257583, 20.1080973 ], [ 75.6324013, 20.1191666 ], [ 75.6335468, 20.1348311 ], [ 75.6374057, 20.1393046 ], [ 75.6412039, 20.1579422 ], [ 75.6408275, 20.1665496 ], [ 75.6460064, 20.1881374 ], [ 75.6508815, 20.1883362 ], [ 75.6704364, 20.1836739 ], [ 75.6736003, 20.1837539 ], [ 75.6770171, 20.1873914 ], [ 75.6811407, 20.1988412 ], [ 75.6803082, 20.2027848 ], [ 75.681646, 20.2109175 ], [ 75.6796589, 20.2214965 ], [ 75.6802327, 20.2287632 ], [ 75.6739583, 20.2314942 ], [ 75.6743476, 20.2340292 ], [ 75.6799881, 20.2585181 ], [ 75.682251, 20.259021 ], [ 75.686103, 20.2640207 ], [ 75.6900199, 20.265399 ], [ 75.6950978, 20.2823356 ], [ 75.6921934, 20.2863501 ], [ 75.6910552, 20.2913891 ], [ 75.6841243, 20.3014671 ], [ 75.6819485, 20.3023047 ], [ 75.6817797, 20.3063278 ], [ 75.6866969, 20.3084627 ], [ 75.6972531, 20.3095667 ], [ 75.7077664, 20.3128253 ], [ 75.7164309, 20.3304087 ], [ 75.729824, 20.3273333 ], [ 75.7314428, 20.3282574 ], [ 75.7336335, 20.3334549 ], [ 75.7424569, 20.3349271 ], [ 75.7432168, 20.3262021 ], [ 75.7545297, 20.3257897 ], [ 75.7606278, 20.328316 ], [ 75.7641485, 20.3362236 ], [ 75.7705454, 20.3363855 ], [ 75.7659974, 20.3498639 ], [ 75.7581281, 20.3591429 ], [ 75.7573776, 20.3684274 ], [ 75.745601, 20.3705814 ], [ 75.746508, 20.3794194 ], [ 75.7505526, 20.3889815 ], [ 75.7486122, 20.3988709 ], [ 75.7491771, 20.4022278 ], [ 75.7424632, 20.4043417 ], [ 75.7393282, 20.403409 ], [ 75.7370487, 20.4059557 ], [ 75.7326262, 20.4071314 ], [ 75.733262, 20.4113889 ], [ 75.7374527, 20.4192454 ], [ 75.7413721, 20.4214444 ], [ 75.7456675, 20.4211244 ], [ 75.7553533, 20.4233894 ], [ 75.7580939, 20.4291474 ], [ 75.7581749, 20.4352072 ], [ 75.7639761, 20.4519843 ], [ 75.7690665, 20.4527802 ], [ 75.7710987, 20.4552492 ], [ 75.7764472, 20.4551282 ], [ 75.7859011, 20.4538088 ], [ 75.7863923, 20.4520983 ], [ 75.7922137, 20.4516621 ], [ 75.7945668, 20.4502352 ], [ 75.7956332, 20.4596717 ], [ 75.7967676, 20.4612534 ], [ 75.8039614, 20.4634723 ], [ 75.811194, 20.4632404 ], [ 75.8142729, 20.4687968 ], [ 75.8197122, 20.4720839 ], [ 75.8267958, 20.4710425 ], [ 75.8264712, 20.4688035 ], [ 75.8330851, 20.4660368 ], [ 75.8360596, 20.4596313 ], [ 75.8409721, 20.4575728 ], [ 75.8460716, 20.4578962 ], [ 75.8515622, 20.4607401 ], [ 75.8551227, 20.460218 ], [ 75.8643961, 20.4473216 ], [ 75.8645509, 20.4426609 ], [ 75.8624109, 20.4422361 ], [ 75.8626614, 20.4398981 ], [ 75.8726035, 20.440151 ], [ 75.8775984, 20.4374083 ], [ 75.8818198, 20.4449439 ], [ 75.8940554, 20.4453789 ], [ 75.891325, 20.4461817 ], [ 75.8912876, 20.4482975 ], [ 75.888771, 20.4478257 ], [ 75.8883523, 20.4489214 ], [ 75.8694867, 20.4550599 ], [ 75.8708983, 20.4612777 ], [ 75.864286, 20.4653046 ], [ 75.8615926, 20.4654125 ], [ 75.8615078, 20.4765798 ], [ 75.8585485, 20.4769376 ], [ 75.8588102, 20.4814056 ], [ 75.8542564, 20.4802152 ], [ 75.8539375, 20.4817145 ], [ 75.8492035, 20.483057 ], [ 75.8474566, 20.4882832 ], [ 75.8482134, 20.4916842 ], [ 75.8494423, 20.4918766 ], [ 75.8499047, 20.5009006 ], [ 75.8529446, 20.5006579 ], [ 75.8529118, 20.5031538 ], [ 75.858969, 20.5034801 ], [ 75.8600927, 20.5128546 ], [ 75.8624022, 20.519863 ], [ 75.8604036, 20.5200997 ], [ 75.8605922, 20.5237994 ], [ 75.8717559, 20.5280703 ], [ 75.8723939, 20.5263516 ], [ 75.8743668, 20.5264075 ], [ 75.8794653, 20.5228015 ], [ 75.8823722, 20.5242271 ], [ 75.8840085, 20.5283203 ], [ 75.8604706, 20.5607469 ], [ 75.8659015, 20.5592163 ], [ 75.8765739, 20.5525438 ], [ 75.8773078, 20.5580171 ], [ 75.8794207, 20.560537 ] ] ] ] } }
]
}
