{
"type": "FeatureCollection",
"name": "2724",
"crs": { "type": "name", "properties": { "name": "urn:ogc:def:crs:OGC:1.3:CRS84" } },
"features": [
{ "type": "Feature", "properties": { "code": "2724", "name": "Raigarh (Maharashtra)", "type": "district" }, "geometry": { "type": "Polygon", "coordinates": [ [ [ 73.4674448, 19.1354826 ], [ 73.4777539, 19.1331483 ], [ 73.4813116, 19.1291456 ], [ 73.4854599, 19.1267689 ], [ 73.4865255, 19.1232725 ], [ 73.4902325, 19.1254717 ], [ 73.4905103, 19.1279462 ], [ 73.5128324, 19.1285816 ], [ 73.5196962, 19.1310495 ], [ 73.5220685, 19.1303359 ], [ 73.5230854, 19.1312178 ], [ 73.5248323, 19.1299338 ], [ 73.5219894, 19.1221248 ], [ 73.5246107, 19.1185762 ], [ 73.5211394, 19.1143075 ], [ 73.5175874, 19.102917 ], [ 73.5193153, 19.0996853 ], [ 73.5123704, 19.0958763 ], [ 73.5122227, 19.09264 ], [ 73.5135199, 19.0848444 ], [ 73.5160717, 19.0840537 ], [ 73.5281896, 19.085808 ], [ 73.5206675, 19.0706893 ], [ 73.5248882, 19.0548748 ], [ 73.5169012, 19.0578373 ], [ 73.5169891, 19.0491818 ], [ 73.5149697, 19.0469061 ], [ 73.5153092, 19.0459731 ], [ 73.5394155, 19.0481972 ], [ 73.5371868, 19.0448113 ], [ 73.5335479, 19.0297295 ], [ 73.5349736, 19.0283507 ], [ 73.5382657, 19.0291899 ], [ 73.5420921, 19.0266263 ], [ 73.5436768, 19.0238692 ], [ 73.5394515, 19.0160501 ], [ 73.5440516, 19.0139489 ], [ 73.5444696, 19.0150312 ], [ 73.5485421, 19.0107212 ], [ 73.5543298, 19.0127802 ], [ 73.5547776, 19.0098551 ], [ 73.5430142, 19.0016849 ], [ 73.5414682, 18.9961753 ], [ 73.533825, 18.9957069 ], [ 73.5336269, 18.9911857 ], [ 73.5290672, 18.9877311 ], [ 73.5257882, 18.9877718 ], [ 73.5239575, 18.9859493 ], [ 73.5221105, 18.9824112 ], [ 73.5219901, 18.9778491 ], [ 73.5172637, 18.9801367 ], [ 73.5151949, 18.9751268 ], [ 73.5105466, 18.9734472 ], [ 73.512448, 18.9719342 ], [ 73.5095909, 18.9677439 ], [ 73.5030794, 18.9693225 ], [ 73.4932629, 18.9687922 ], [ 73.4942819, 18.9729917 ], [ 73.4876858, 18.9799959 ], [ 73.4847574, 18.9806443 ], [ 73.4804198, 18.9799097 ], [ 73.4794048, 18.9698734 ], [ 73.466682, 18.9683256 ], [ 73.4633653, 18.9656297 ], [ 73.4620946, 18.9671474 ], [ 73.4608351, 18.9640298 ], [ 73.4591173, 18.9640701 ], [ 73.4600467, 18.9623656 ], [ 73.4561026, 18.9455912 ], [ 73.4621015, 18.9272354 ], [ 73.4529495, 18.9238228 ], [ 73.4479644, 18.924023 ], [ 73.4415211, 18.9290002 ], [ 73.4362629, 18.9179982 ], [ 73.4316248, 18.9155118 ], [ 73.4365871, 18.9056052 ], [ 73.4400336, 18.9046086 ], [ 73.4363548, 18.9029644 ], [ 73.4350179, 18.900968 ], [ 73.4366889, 18.8848378 ], [ 73.4344312, 18.8844939 ], [ 73.4359644, 18.8802305 ], [ 73.4301954, 18.8690579 ], [ 73.425783, 18.8642955 ], [ 73.4249414, 18.8611014 ], [ 73.4123415, 18.8568369 ], [ 73.4016632, 18.8422261 ], [ 73.3903293, 18.854114 ], [ 73.389046, 18.8534491 ], [ 73.3867193, 18.8473203 ], [ 73.3864048, 18.8395927 ], [ 73.3829614, 18.8272023 ], [ 73.3839076, 18.8185952 ], [ 73.3784924, 18.8186449 ], [ 73.380232, 18.8136446 ], [ 73.3791991, 18.8095454 ], [ 73.3814178, 18.8077844 ], [ 73.3815172, 18.8039647 ], [ 73.3805166, 18.7997537 ], [ 73.3787304, 18.7978015 ], [ 73.378514, 18.7928994 ], [ 73.3737477, 18.7882882 ], [ 73.3706276, 18.7944985 ], [ 73.368885, 18.7948298 ], [ 73.3642827, 18.7800327 ], [ 73.3639952, 18.7743926 ], [ 73.3594579, 18.7667441 ], [ 73.3510448, 18.7575315 ], [ 73.3572109, 18.7530436 ], [ 73.3554321, 18.7429304 ], [ 73.357761, 18.7410773 ], [ 73.358058, 18.7377899 ], [ 73.3538076, 18.7328656 ], [ 73.3532828, 18.7283299 ], [ 73.3546179, 18.7213381 ], [ 73.3496198, 18.72084 ], [ 73.345029, 18.7182867 ], [ 73.3442738, 18.7161492 ], [ 73.3426259, 18.7154487 ], [ 73.3444598, 18.7146248 ], [ 73.3435352, 18.7125776 ], [ 73.3456224, 18.7109257 ], [ 73.3389612, 18.7076917 ], [ 73.3392651, 18.7061076 ], [ 73.3295505, 18.7012568 ], [ 73.3331137, 18.6943085 ], [ 73.3385859, 18.6984318 ], [ 73.340629, 18.6970363 ], [ 73.341173, 18.6945407 ], [ 73.3461405, 18.6966521 ], [ 73.3471242, 18.6930368 ], [ 73.3583169, 18.7134326 ], [ 73.3578744, 18.6996439 ], [ 73.3655157, 18.6994591 ], [ 73.3683334, 18.7027137 ], [ 73.3822425, 18.6933389 ], [ 73.3856412, 18.6946051 ], [ 73.3831698, 18.6831865 ], [ 73.3851619, 18.6772057 ], [ 73.3876127, 18.6771815 ], [ 73.3826555, 18.6753243 ], [ 73.3883182, 18.6658565 ], [ 73.3862806, 18.6552008 ], [ 73.3775204, 18.6517165 ], [ 73.3758802, 18.6504168 ], [ 73.3753968, 18.6452713 ], [ 73.3706661, 18.6449787 ], [ 73.3686698, 18.642928 ], [ 73.3682221, 18.6381317 ], [ 73.3629786, 18.6341841 ], [ 73.346874, 18.6106948 ], [ 73.3433787, 18.6111013 ], [ 73.3415201, 18.6053782 ], [ 73.3385342, 18.6042209 ], [ 73.3345118, 18.6099583 ], [ 73.3330636, 18.6041234 ], [ 73.3346244, 18.5961473 ], [ 73.3322489, 18.5973914 ], [ 73.3308672, 18.5929335 ], [ 73.3284627, 18.5938051 ], [ 73.3300568, 18.5863389 ], [ 73.3320146, 18.5830679 ], [ 73.3281285, 18.5765154 ], [ 73.3229189, 18.5721414 ], [ 73.3235296, 18.5568763 ], [ 73.3357232, 18.5503268 ], [ 73.3383346, 18.5533826 ], [ 73.3417872, 18.5528715 ], [ 73.342025, 18.5546568 ], [ 73.3482592, 18.5539216 ], [ 73.3568192, 18.5577289 ], [ 73.346618, 18.5491561 ], [ 73.3489468, 18.5458474 ], [ 73.3414402, 18.5412993 ], [ 73.3430289, 18.5325765 ], [ 73.3556742, 18.5337644 ], [ 73.3735119, 18.5126956 ], [ 73.3789518, 18.5094187 ], [ 73.3817791, 18.5058388 ], [ 73.3892273, 18.5022465 ], [ 73.3973264, 18.5054642 ], [ 73.3972094, 18.5042755 ], [ 73.3802852, 18.4942335 ], [ 73.3765295, 18.495212 ], [ 73.3752403, 18.4940928 ], [ 73.3753809, 18.4884252 ], [ 73.3774186, 18.4890187 ], [ 73.3787768, 18.4820147 ], [ 73.3769811, 18.4812071 ], [ 73.3664957, 18.4822426 ], [ 73.3614351, 18.4861656 ], [ 73.3613043, 18.4722489 ], [ 73.3742983, 18.4645312 ], [ 73.3744456, 18.4678242 ], [ 73.3769802, 18.468516 ], [ 73.3770962, 18.4801649 ], [ 73.3824382, 18.4765883 ], [ 73.3800056, 18.4813232 ], [ 73.3899044, 18.4825485 ], [ 73.3898644, 18.489536 ], [ 73.3935851, 18.4928827 ], [ 73.3970463, 18.4897298 ], [ 73.4021921, 18.4994058 ], [ 73.4084068, 18.4995335 ], [ 73.4069942, 18.4889897 ], [ 73.4094166, 18.4768788 ], [ 73.4038045, 18.4766993 ], [ 73.4065146, 18.4643107 ], [ 73.4022854, 18.4627197 ], [ 73.4025837, 18.4550296 ], [ 73.4011823, 18.4548648 ], [ 73.4018692, 18.4458029 ], [ 73.3959852, 18.4478936 ], [ 73.3938244, 18.4445291 ], [ 73.3947682, 18.4266962 ], [ 73.3977542, 18.4178017 ], [ 73.3968562, 18.4153546 ], [ 73.3993171, 18.4026408 ], [ 73.3987675, 18.4006163 ], [ 73.4041955, 18.3975798 ], [ 73.4048157, 18.4008187 ], [ 73.4102733, 18.3988524 ], [ 73.4126855, 18.4055473 ], [ 73.4204805, 18.403235 ], [ 73.4200962, 18.3995655 ], [ 73.4244967, 18.3869296 ], [ 73.4226224, 18.373066 ], [ 73.4342016, 18.364665 ], [ 73.4406168, 18.3579314 ], [ 73.4386704, 18.35724 ], [ 73.4381481, 18.3547218 ], [ 73.4331452, 18.3500752 ], [ 73.4339419, 18.3483787 ], [ 73.4314863, 18.3460888 ], [ 73.4271365, 18.3304047 ], [ 73.4219107, 18.3284281 ], [ 73.420445, 18.3196686 ], [ 73.4263617, 18.3193324 ], [ 73.4244908, 18.3152141 ], [ 73.4203832, 18.311337 ], [ 73.4228131, 18.3056517 ], [ 73.4243247, 18.3042958 ], [ 73.4259215, 18.3048237 ], [ 73.4253257, 18.2992393 ], [ 73.4270057, 18.2988392 ], [ 73.4300738, 18.303155 ], [ 73.4316449, 18.302055 ], [ 73.4339361, 18.3043299 ], [ 73.4391771, 18.3049574 ], [ 73.4429621, 18.3037633 ], [ 73.4459529, 18.304306 ], [ 73.4511312, 18.2981778 ], [ 73.4543, 18.2973125 ], [ 73.456661, 18.2992714 ], [ 73.464559, 18.2986465 ], [ 73.4696077, 18.3015248 ], [ 73.4758273, 18.299998 ], [ 73.4759314, 18.2952235 ], [ 73.4730364, 18.2904308 ], [ 73.4732937, 18.2872116 ], [ 73.4757815, 18.2859583 ], [ 73.4736105, 18.2815606 ], [ 73.4742975, 18.2779747 ], [ 73.4779145, 18.2736968 ], [ 73.4819501, 18.2712249 ], [ 73.4848402, 18.2764024 ], [ 73.487086, 18.2743415 ], [ 73.4915072, 18.2770913 ], [ 73.4932179, 18.2758615 ], [ 73.4989836, 18.2821968 ], [ 73.5034563, 18.2797029 ], [ 73.5028798, 18.2773876 ], [ 73.5046245, 18.2718483 ], [ 73.5148998, 18.2719936 ], [ 73.51445, 18.2696439 ], [ 73.5075201, 18.2606761 ], [ 73.50333, 18.259468 ], [ 73.5052961, 18.2567103 ], [ 73.5007651, 18.2568447 ], [ 73.5048019, 18.2559779 ], [ 73.5052809, 18.2541843 ], [ 73.5084612, 18.2562518 ], [ 73.5079017, 18.2528481 ], [ 73.5139874, 18.2508291 ], [ 73.5153606, 18.2517806 ], [ 73.5165266, 18.2474444 ], [ 73.5233147, 18.2462343 ], [ 73.526578, 18.2530675 ], [ 73.531284, 18.2568438 ], [ 73.5448799, 18.2486189 ], [ 73.5441641, 18.2463933 ], [ 73.5465168, 18.2425379 ], [ 73.5404307, 18.2383021 ], [ 73.5353461, 18.2294277 ], [ 73.5310795, 18.2279931 ], [ 73.5346107, 18.2206635 ], [ 73.5303469, 18.2187971 ], [ 73.5277641, 18.2139497 ], [ 73.522061, 18.2116057 ], [ 73.5247215, 18.209107 ], [ 73.5308174, 18.210734 ], [ 73.5341342, 18.2082559 ], [ 73.5311034, 18.2007826 ], [ 73.5244522, 18.1954789 ], [ 73.5205073, 18.1877206 ], [ 73.5287895, 18.1877705 ], [ 73.535045, 18.190168 ], [ 73.5353938, 18.1888802 ], [ 73.537164, 18.1893906 ], [ 73.5398467, 18.1975324 ], [ 73.5395891, 18.2029096 ], [ 73.5423742, 18.2060918 ], [ 73.5574128, 18.1982253 ], [ 73.5562189, 18.2032284 ], [ 73.5598465, 18.2087556 ], [ 73.5598172, 18.2138424 ], [ 73.5626664, 18.2045511 ], [ 73.5633092, 18.1926083 ], [ 73.5657856, 18.1934649 ], [ 73.5683315, 18.1870246 ], [ 73.5779371, 18.1836945 ], [ 73.5822536, 18.1781567 ], [ 73.5835245, 18.1787869 ], [ 73.5874221, 18.1767087 ], [ 73.5877828, 18.178052 ], [ 73.5939176, 18.1768073 ], [ 73.5964924, 18.1799363 ], [ 73.5961964, 18.1853921 ], [ 73.597392, 18.1888419 ], [ 73.6008246, 18.1865844 ], [ 73.6097991, 18.1848323 ], [ 73.6233568, 18.1765524 ], [ 73.6313004, 18.1744086 ], [ 73.6323551, 18.1760548 ], [ 73.6364995, 18.1745614 ], [ 73.6380499, 18.1754401 ], [ 73.6449509, 18.172624 ], [ 73.6492174, 18.1719997 ], [ 73.6524271, 18.1729608 ], [ 73.6562719, 18.1713569 ], [ 73.6626267, 18.1659228 ], [ 73.6633285, 18.1637349 ], [ 73.66216, 18.1611011 ], [ 73.665365, 18.1603863 ], [ 73.6662754, 18.1560796 ], [ 73.6610509, 18.15162 ], [ 73.6616355, 18.1546024 ], [ 73.6561074, 18.1556748 ], [ 73.6542316, 18.1582606 ], [ 73.649549, 18.1568803 ], [ 73.65082, 18.1521155 ], [ 73.6492572, 18.1523545 ], [ 73.6484741, 18.1495237 ], [ 73.6464612, 18.1486953 ], [ 73.6430583, 18.1419636 ], [ 73.6419751, 18.1423437 ], [ 73.6411704, 18.1407139 ], [ 73.6366316, 18.1468626 ], [ 73.6336987, 18.1469083 ], [ 73.6337154, 18.1438641 ], [ 73.6312824, 18.1415459 ], [ 73.6284524, 18.1412398 ], [ 73.6292858, 18.1362086 ], [ 73.6279988, 18.1336425 ], [ 73.6192361, 18.1267004 ], [ 73.6267924, 18.1230255 ], [ 73.618619, 18.1228494 ], [ 73.6123823, 18.1245346 ], [ 73.6101074, 18.1221742 ], [ 73.6074942, 18.1225298 ], [ 73.6066718, 18.1264003 ], [ 73.6100123, 18.1334553 ], [ 73.609224, 18.1409364 ], [ 73.608239, 18.1412486 ], [ 73.6064329, 18.1388763 ], [ 73.6094263, 18.1338274 ], [ 73.6078566, 18.1295314 ], [ 73.6040188, 18.1220636 ], [ 73.6011319, 18.1215947 ], [ 73.6021116, 18.119376 ], [ 73.6008082, 18.1149653 ], [ 73.5968487, 18.1129333 ], [ 73.5950154, 18.1094411 ], [ 73.599678, 18.1027176 ], [ 73.609393, 18.0967844 ], [ 73.6092234, 18.0935039 ], [ 73.6066442, 18.0888802 ], [ 73.6006026, 18.0845279 ], [ 73.6026982, 18.0810018 ], [ 73.6055241, 18.0827381 ], [ 73.6067729, 18.080335 ], [ 73.6129865, 18.0797907 ], [ 73.6209077, 18.0771192 ], [ 73.6194698, 18.0726745 ], [ 73.6147126, 18.0686838 ], [ 73.6127556, 18.0619057 ], [ 73.6137544, 18.0586036 ], [ 73.6254435, 18.0506608 ], [ 73.6299945, 18.0491533 ], [ 73.6301421, 18.0451024 ], [ 73.638482, 18.0460213 ], [ 73.6448977, 18.0442633 ], [ 73.6484654, 18.0413189 ], [ 73.6510382, 18.0367309 ], [ 73.6555018, 18.0360098 ], [ 73.659843, 18.0318325 ], [ 73.6565057, 18.0267537 ], [ 73.6504405, 18.0221495 ], [ 73.6563513, 18.0157234 ], [ 73.6575416, 18.0125952 ], [ 73.6568415, 18.0109023 ], [ 73.6505361, 18.005531 ], [ 73.6495427, 18.0067093 ], [ 73.6424231, 18.001552 ], [ 73.6378653, 17.9921503 ], [ 73.6342239, 17.9932615 ], [ 73.6315905, 17.9922223 ], [ 73.63015, 17.98924 ], [ 73.6273713, 17.9886843 ], [ 73.6266929, 17.9853318 ], [ 73.637666, 17.9802178 ], [ 73.6371875, 17.9786653 ], [ 73.6393067, 17.9762154 ], [ 73.6385661, 17.971701 ], [ 73.6174765, 17.9578464 ], [ 73.6156567, 17.9530029 ], [ 73.6107241, 17.947772 ], [ 73.5976228, 17.9403407 ], [ 73.5903949, 17.9396528 ], [ 73.5842735, 17.9473002 ], [ 73.5831598, 17.9480344 ], [ 73.581263, 17.9459962 ], [ 73.5792205, 17.9470348 ], [ 73.5762961, 17.9428321 ], [ 73.5774332, 17.9334769 ], [ 73.564814, 17.9213251 ], [ 73.5633884, 17.9170399 ], [ 73.551907, 17.9091748 ], [ 73.5490472, 17.9083506 ], [ 73.5474694, 17.9094351 ], [ 73.5428822, 17.9059668 ], [ 73.5403336, 17.9068902 ], [ 73.5325064, 17.8994808 ], [ 73.5348717, 17.8968281 ], [ 73.5353445, 17.8923787 ], [ 73.5410874, 17.8921585 ], [ 73.5436306, 17.8937526 ], [ 73.5469283, 17.8929472 ], [ 73.557092, 17.8948802 ], [ 73.5604193, 17.8936912 ], [ 73.5622559, 17.8923436 ], [ 73.564414, 17.8861128 ], [ 73.5699951, 17.8804049 ], [ 73.5707829, 17.8783079 ], [ 73.5539723, 17.8653923 ], [ 73.5497615, 17.865334 ], [ 73.5406623, 17.8717316 ], [ 73.5370579, 17.8788258 ], [ 73.5331109, 17.883113 ], [ 73.5326579, 17.8792563 ], [ 73.526216, 17.8768985 ], [ 73.5224293, 17.8720534 ], [ 73.5213447, 17.8685085 ], [ 73.5222152, 17.8656115 ], [ 73.5177568, 17.8628104 ], [ 73.5156228, 17.8581596 ], [ 73.5102508, 17.8522008 ], [ 73.4997322, 17.8522221 ], [ 73.4891211, 17.8670474 ], [ 73.4785493, 17.8651848 ], [ 73.4611926, 17.8670142 ], [ 73.4566235, 17.8591139 ], [ 73.450217, 17.8557634 ], [ 73.4504388, 17.8517514 ], [ 73.4446812, 17.8506209 ], [ 73.4407079, 17.8545819 ], [ 73.4383811, 17.8593452 ], [ 73.4392512, 17.8636005 ], [ 73.4425369, 17.8665749 ], [ 73.443021, 17.8704185 ], [ 73.442343, 17.8766965 ], [ 73.4381607, 17.8784413 ], [ 73.4391991, 17.8824468 ], [ 73.4368066, 17.8877873 ], [ 73.4381753, 17.8922541 ], [ 73.4369533, 17.8952159 ], [ 73.4375254, 17.8990083 ], [ 73.4370835, 17.9022916 ], [ 73.4346151, 17.9048816 ], [ 73.4262919, 17.9087665 ], [ 73.425558, 17.9038622 ], [ 73.4230809, 17.90127 ], [ 73.4228548, 17.8969532 ], [ 73.4188653, 17.8935665 ], [ 73.4138184, 17.8937335 ], [ 73.4113322, 17.8903312 ], [ 73.4076476, 17.8886439 ], [ 73.4073456, 17.8854389 ], [ 73.4050028, 17.8828145 ], [ 73.3989782, 17.8837534 ], [ 73.3914506, 17.8809891 ], [ 73.387374, 17.8828662 ], [ 73.3828963, 17.8819516 ], [ 73.3708297, 17.887888 ], [ 73.370214, 17.8923469 ], [ 73.3688286, 17.8937853 ], [ 73.3684616, 17.9079611 ], [ 73.3759409, 17.9130001 ], [ 73.3739818, 17.9252716 ], [ 73.3712048, 17.9278772 ], [ 73.3691198, 17.9335441 ], [ 73.3640009, 17.9335976 ], [ 73.3607535, 17.937525 ], [ 73.3590342, 17.9475149 ], [ 73.3613399, 17.9544271 ], [ 73.3558924, 17.9581843 ], [ 73.3506086, 17.9591184 ], [ 73.3407754, 17.9723036 ], [ 73.3426437, 17.9753215 ], [ 73.3421952, 17.9809589 ], [ 73.3440924, 17.9823123 ], [ 73.3480762, 17.989708 ], [ 73.355792, 17.9928686 ], [ 73.3592183, 18.0054737 ], [ 73.3586388, 18.0072965 ], [ 73.3548819, 18.0118997 ], [ 73.3542531, 18.0152078 ], [ 73.3485556, 18.0179877 ], [ 73.3454008, 18.0261977 ], [ 73.3425788, 18.0222296 ], [ 73.3419732, 18.0185484 ], [ 73.3343031, 18.0115908 ], [ 73.332168, 18.0135741 ], [ 73.3280087, 18.0247731 ], [ 73.3267592, 18.0252449 ], [ 73.317475, 18.0258578 ], [ 73.3150339, 18.0288465 ], [ 73.307278, 18.0225361 ], [ 73.3005655, 18.0242689 ], [ 73.2900769, 18.0361622 ], [ 73.2908462, 18.0385627 ], [ 73.289823, 18.0421997 ], [ 73.2911414, 18.0428465 ], [ 73.2906298, 18.0510238 ], [ 73.2935516, 18.054731 ], [ 73.2946114, 18.058364 ], [ 73.2868574, 18.071303 ], [ 73.281621, 18.0681374 ], [ 73.2755916, 18.0670669 ], [ 73.2614463, 18.0707753 ], [ 73.2541922, 18.0631264 ], [ 73.2445172, 18.0637085 ], [ 73.2424139, 18.06299 ], [ 73.2404234, 18.0600825 ], [ 73.2301948, 18.0564766 ], [ 73.2153103, 18.058852 ], [ 73.2111521, 18.0618344 ], [ 73.2088999, 18.0673894 ], [ 73.2053198, 18.0694055 ], [ 73.201571, 18.0690542 ], [ 73.1936912, 18.0593662 ], [ 73.1913784, 18.0583477 ], [ 73.1860447, 18.0582711 ], [ 73.1792639, 18.0610733 ], [ 73.1741302, 18.0597642 ], [ 73.1692872, 18.0516526 ], [ 73.1605562, 18.0451392 ], [ 73.1513288, 18.0332827 ], [ 73.1498612, 18.0305019 ], [ 73.150618, 18.0243788 ], [ 73.1493734, 18.0217971 ], [ 73.1459866, 18.0190027 ], [ 73.1373938, 18.0182166 ], [ 73.1322019, 18.0140228 ], [ 73.1233798, 17.9963798 ], [ 73.1177318, 17.9811086 ], [ 73.1144181, 17.9795016 ], [ 73.1025848, 17.9821147 ], [ 73.0922578, 17.9897099 ], [ 73.0724211, 17.990109 ], [ 73.041372, 17.9859858 ], [ 73.036683, 17.9827126 ], [ 73.0306589, 17.9897976 ], [ 73.0272777, 17.9881648 ], [ 73.0193887, 17.9898382 ], [ 73.0181562, 17.9928482 ], [ 73.0211118, 17.9933161 ], [ 73.0152812, 18.0076689 ], [ 73.0124878, 18.0103774 ], [ 73.008531, 18.0106566 ], [ 73.0052061, 18.021189 ], [ 73.0075804, 18.0216705 ], [ 73.0101418, 18.0242913 ], [ 73.021295, 18.0274533 ], [ 73.0189254, 18.0316088 ], [ 73.0144408, 18.0336016 ], [ 73.0084549, 18.049858 ], [ 73.0060631, 18.0520597 ], [ 73.0008611, 18.0550229 ], [ 72.9981047, 18.050756 ], [ 72.9954234, 18.0501258 ], [ 72.9903756, 18.0557662 ], [ 72.9914279, 18.0615472 ], [ 72.9947935, 18.0676262 ], [ 72.9991601, 18.0695497 ], [ 72.9959151, 18.0838684 ], [ 72.9968332, 18.0842139 ], [ 72.987911, 18.1026233 ], [ 72.9838184, 18.1034177 ], [ 72.9797896, 18.1080685 ], [ 72.9791882, 18.1143635 ], [ 72.9773965, 18.1151241 ], [ 72.9767589, 18.1203852 ], [ 72.9748229, 18.1241347 ], [ 72.9729694, 18.1250631 ], [ 72.9710284, 18.1328896 ], [ 72.981343, 18.1370335 ], [ 72.9866946, 18.1573156 ], [ 72.9886589, 18.1579 ], [ 72.9806244, 18.1871987 ], [ 72.9799885, 18.1924732 ], [ 72.9809326, 18.196286 ], [ 72.9785211, 18.1971216 ], [ 72.9755044, 18.2016189 ], [ 72.9682037, 18.2066414 ], [ 72.9649919, 18.2122363 ], [ 72.9619599, 18.2134093 ], [ 72.9563954, 18.2196364 ], [ 72.9516186, 18.2197199 ], [ 72.9495965, 18.2223888 ], [ 72.9450826, 18.224074 ], [ 72.9422549, 18.2219269 ], [ 72.9424099, 18.2204615 ], [ 72.9383868, 18.2189387 ], [ 72.9387274, 18.2173249 ], [ 72.9337995, 18.2185244 ], [ 72.9317784, 18.2204203 ], [ 72.9317186, 18.2234001 ], [ 72.9338691, 18.2239886 ], [ 72.9350091, 18.2286143 ], [ 72.9378316, 18.2302975 ], [ 72.9382559, 18.2327192 ], [ 72.9424894, 18.2340942 ], [ 72.9405436, 18.2429592 ], [ 72.9431254, 18.2473349 ], [ 72.9418133, 18.2550779 ], [ 72.9393972, 18.260342 ], [ 72.9401906, 18.2640705 ], [ 72.9352833, 18.2725718 ], [ 72.9377984, 18.2751841 ], [ 72.9374375, 18.2789529 ], [ 72.9358759, 18.2804744 ], [ 72.9380481, 18.2837221 ], [ 72.9402841, 18.2834108 ], [ 72.9417517, 18.2850478 ], [ 72.948309, 18.2849988 ], [ 72.9509145, 18.2838674 ], [ 72.9508952, 18.2799776 ], [ 72.9544744, 18.2779581 ], [ 72.9643053, 18.2801674 ], [ 72.9714597, 18.2730944 ], [ 72.9730208, 18.2661642 ], [ 72.9811524, 18.27053 ], [ 72.9818209, 18.2725373 ], [ 72.9806453, 18.2766488 ], [ 72.9854079, 18.2784882 ], [ 72.9864814, 18.2822788 ], [ 72.9793889, 18.2978845 ], [ 72.9757194, 18.2979657 ], [ 72.9730605, 18.3009801 ], [ 72.970069, 18.2998485 ], [ 72.9680828, 18.3059074 ], [ 72.9684101, 18.3094128 ], [ 72.9641976, 18.314484 ], [ 72.9604493, 18.311842 ], [ 72.9559108, 18.3158593 ], [ 72.9600008, 18.3209663 ], [ 72.9565559, 18.3254269 ], [ 72.9536986, 18.3320657 ], [ 72.9538671, 18.3349637 ], [ 72.94908, 18.3387807 ], [ 72.9458633, 18.3390668 ], [ 72.9460009, 18.3413684 ], [ 72.9422117, 18.3441099 ], [ 72.9351497, 18.3441597 ], [ 72.9355885, 18.349609 ], [ 72.9366018, 18.3495529 ], [ 72.9335305, 18.3516342 ], [ 72.9316194, 18.3501429 ], [ 72.9275993, 18.3497306 ], [ 72.9241059, 18.3510764 ], [ 72.9238924, 18.3500404 ], [ 72.9212433, 18.3499946 ], [ 72.9220927, 18.3474811 ], [ 72.9188288, 18.3486112 ], [ 72.9152236, 18.3551377 ], [ 72.9156925, 18.3590085 ], [ 72.9129787, 18.361628 ], [ 72.9119196, 18.3654477 ], [ 72.9130528, 18.3680835 ], [ 72.9147611, 18.3708749 ], [ 72.919471, 18.3726993 ], [ 72.9250776, 18.3773688 ], [ 72.9259459, 18.3834385 ], [ 72.9229267, 18.393082 ], [ 72.9189825, 18.3945052 ], [ 72.9132552, 18.3940122 ], [ 72.9133997, 18.3977029 ], [ 72.9088613, 18.400708 ], [ 72.9093515, 18.4037596 ], [ 72.9070355, 18.4029893 ], [ 72.9061735, 18.411327 ], [ 72.9079802, 18.4139166 ], [ 72.9095767, 18.422189 ], [ 72.9047313, 18.4291806 ], [ 72.9075105, 18.4322073 ], [ 72.9070989, 18.4372598 ], [ 72.9017604, 18.4514417 ], [ 72.8972848, 18.45822 ], [ 72.894824, 18.4575174 ], [ 72.8956431, 18.4637349 ], [ 72.8937325, 18.4717912 ], [ 72.9003137, 18.4759277 ], [ 72.9018891, 18.4757726 ], [ 72.9018899, 18.4926603 ], [ 72.9035258, 18.4933583 ], [ 72.905653, 18.5026859 ], [ 72.9110922, 18.5025591 ], [ 72.9116226, 18.5186825 ], [ 72.9088551, 18.5306139 ], [ 72.9053162, 18.538556 ], [ 72.9069888, 18.5410313 ], [ 72.9217394, 18.5471773 ], [ 72.921158, 18.5505529 ], [ 72.9096542, 18.5734087 ], [ 72.9015518, 18.5836245 ], [ 72.8915106, 18.6062157 ], [ 72.8835343, 18.6171221 ], [ 72.8809528, 18.6184515 ], [ 72.8812479, 18.6158834 ], [ 72.8801615, 18.6154548 ], [ 72.8779564, 18.617953 ], [ 72.8781284, 18.6246621 ], [ 72.8764666, 18.6244158 ], [ 72.8755746, 18.6223978 ], [ 72.8740503, 18.6280297 ], [ 72.8752712, 18.6297981 ], [ 72.8784608, 18.6295382 ], [ 72.8781392, 18.6308143 ], [ 72.8701415, 18.6331566 ], [ 72.86742, 18.6319194 ], [ 72.8644022, 18.6325698 ], [ 72.8612499, 18.6296994 ], [ 72.8601473, 18.6345179 ], [ 72.8627182, 18.6383606 ], [ 72.8640565, 18.6454277 ], [ 72.8621123, 18.6458738 ], [ 72.8607059, 18.6494304 ], [ 72.8607087, 18.6608514 ], [ 72.8619016, 18.6643517 ], [ 72.8591895, 18.6841902 ], [ 72.8571701, 18.6913032 ], [ 72.8540917, 18.6933601 ], [ 72.8540233, 18.6960239 ], [ 72.8510523, 18.6988324 ], [ 72.8577998, 18.7062023 ], [ 72.8622465, 18.7207791 ], [ 72.8625385, 18.7334563 ], [ 72.8604313, 18.7422298 ], [ 72.8643024, 18.7584717 ], [ 72.8586466, 18.7707006 ], [ 72.8616755, 18.779556 ], [ 72.8607991, 18.7917625 ], [ 72.8652373, 18.8014002 ], [ 72.8658072, 18.8076211 ], [ 72.869215, 18.8107913 ], [ 72.8703677, 18.811342 ], [ 72.8716544, 18.8100749 ], [ 72.8723843, 18.8057049 ], [ 72.8743669, 18.8045678 ], [ 72.8780195, 18.8040182 ], [ 72.8829823, 18.8057924 ], [ 72.8864232, 18.8049868 ], [ 72.8880448, 18.8041571 ], [ 72.8895548, 18.8005282 ], [ 72.8963259, 18.8019216 ], [ 72.8990359, 18.8059015 ], [ 72.9085634, 18.8001357 ], [ 72.9144893, 18.8003246 ], [ 72.915546, 18.8063294 ], [ 72.9239855, 18.8126597 ], [ 72.9248841, 18.8179647 ], [ 72.9273886, 18.8208943 ], [ 72.930228, 18.8228473 ], [ 72.9370056, 18.8241098 ], [ 72.9364261, 18.8216879 ], [ 72.9416397, 18.8254512 ], [ 72.9451516, 18.8263825 ], [ 72.9466139, 18.8248132 ], [ 72.9460604, 18.8198707 ], [ 72.9470955, 18.8174049 ], [ 72.9446571, 18.8173935 ], [ 72.9461077, 18.812729 ], [ 72.9471916, 18.8128375 ], [ 72.9479527, 18.8162291 ], [ 72.9495032, 18.8154207 ], [ 72.9533851, 18.8073144 ], [ 72.9569794, 18.8030067 ], [ 72.9571325, 18.7992302 ], [ 72.9586946, 18.8003688 ], [ 72.9650203, 18.7950649 ], [ 72.9877256, 18.7833554 ], [ 72.9927884, 18.7795408 ], [ 72.9959432, 18.7730178 ], [ 72.9966721, 18.7795407 ], [ 72.9940019, 18.7871127 ], [ 72.9782722, 18.8075959 ], [ 72.9784592, 18.808772 ], [ 72.9876851, 18.8047638 ], [ 72.99783, 18.8026033 ], [ 72.9989146, 18.8028171 ], [ 72.9992919, 18.8092005 ], [ 72.9874031, 18.8125591 ], [ 72.9849293, 18.814985 ], [ 72.9827134, 18.8234135 ], [ 72.9774645, 18.8303833 ], [ 72.9750876, 18.8395015 ], [ 72.981353, 18.8567466 ], [ 72.989435, 18.8669315 ], [ 72.9953866, 18.8715107 ], [ 72.9936804, 18.8722671 ], [ 72.9838375, 18.8654464 ], [ 72.9766826, 18.8648278 ], [ 72.9734094, 18.8628008 ], [ 72.9694241, 18.8546699 ], [ 72.9692028, 18.8480804 ], [ 72.9638776, 18.8418392 ], [ 72.9564696, 18.8412991 ], [ 72.9503439, 18.8449023 ], [ 72.9424838, 18.8423672 ], [ 72.9302831, 18.8460492 ], [ 72.9257018, 18.8485664 ], [ 72.9183479, 18.8554076 ], [ 72.9159938, 18.8615082 ], [ 72.9192665, 18.8630732 ], [ 72.9198779, 18.8652245 ], [ 72.9154892, 18.8690263 ], [ 72.9138439, 18.8758109 ], [ 72.9123359, 18.8773211 ], [ 72.9051124, 18.8801402 ], [ 72.9021857, 18.8828842 ], [ 72.9017484, 18.8913579 ], [ 72.9039718, 18.8970974 ], [ 72.904073, 18.9044352 ], [ 72.9154221, 18.9075883 ], [ 72.9210106, 18.9136385 ], [ 72.9277651, 18.9144322 ], [ 72.9326256, 18.9108127 ], [ 72.9370608, 18.909332 ], [ 72.937081, 18.914297 ], [ 72.9393548, 18.9215799 ], [ 72.9418572, 18.9230934 ], [ 72.9386564, 18.9286715 ], [ 72.9444751, 18.9355506 ], [ 72.9407865, 18.9415515 ], [ 72.9408106, 18.9444897 ], [ 72.9456, 18.9499696 ], [ 72.9494758, 18.9521139 ], [ 72.9514021, 18.9518032 ], [ 72.9591713, 18.9571623 ], [ 72.954925, 18.9572402 ], [ 72.9506464, 18.9595069 ], [ 72.9482077, 18.9674647 ], [ 72.9471488, 18.9867732 ], [ 72.9821267, 18.9881645 ], [ 72.9981483, 18.9870007 ], [ 73.0208583, 18.9952369 ], [ 73.0246316, 18.9978171 ], [ 73.0249358, 18.9997533 ], [ 73.0297422, 18.9997227 ], [ 73.0436935, 19.0073939 ], [ 73.0448417, 19.0124848 ], [ 73.049634, 19.0159729 ], [ 73.0465471, 19.0205714 ], [ 73.0465447, 19.0259037 ], [ 73.0487913, 19.0276529 ], [ 73.0475239, 19.03291 ], [ 73.0495579, 19.0399914 ], [ 73.0486319, 19.0420061 ], [ 73.0493492, 19.0434884 ], [ 73.0432316, 19.0545343 ], [ 73.0451653, 19.0560392 ], [ 73.0461684, 19.0594804 ], [ 73.0445414, 19.0622773 ], [ 73.0434946, 19.0692849 ], [ 73.0448399, 19.0806107 ], [ 73.0472619, 19.0845629 ], [ 73.0469176, 19.086547 ], [ 73.0485756, 19.0878735 ], [ 73.0470861, 19.0908647 ], [ 73.0475258, 19.0998181 ], [ 73.0569555, 19.1022879 ], [ 73.0649591, 19.110701 ], [ 73.0748161, 19.1102577 ], [ 73.0778208, 19.1144499 ], [ 73.0814724, 19.1117746 ], [ 73.0839711, 19.1156928 ], [ 73.0862763, 19.114442 ], [ 73.0910808, 19.1151035 ], [ 73.0959532, 19.1139073 ], [ 73.0986887, 19.1088762 ], [ 73.098641, 19.1064231 ], [ 73.0996648, 19.1061658 ], [ 73.1062356, 19.1090373 ], [ 73.106253, 19.1101932 ], [ 73.1110312, 19.1111193 ], [ 73.114342, 19.1107061 ], [ 73.1155992, 19.1074357 ], [ 73.1176339, 19.1068113 ], [ 73.1198372, 19.1098973 ], [ 73.1227459, 19.110514 ], [ 73.1303469, 19.1086692 ], [ 73.1335843, 19.117159 ], [ 73.136862, 19.1194219 ], [ 73.140558, 19.1257484 ], [ 73.1421172, 19.1253922 ], [ 73.1434113, 19.1274492 ], [ 73.1458354, 19.122243 ], [ 73.152676, 19.1135332 ], [ 73.1821459, 19.1058244 ], [ 73.1794078, 19.1159384 ], [ 73.1940778, 19.1274558 ], [ 73.1979204, 19.1229546 ], [ 73.2018758, 19.1151737 ], [ 73.2087289, 19.1084824 ], [ 73.212827, 19.099391 ], [ 73.2181741, 19.0954023 ], [ 73.2213846, 19.0955122 ], [ 73.2247189, 19.0903095 ], [ 73.2305064, 19.0879592 ], [ 73.2348625, 19.0685567 ], [ 73.2380788, 19.0701467 ], [ 73.2434474, 19.0646385 ], [ 73.249462, 19.0619805 ], [ 73.2568382, 19.0621073 ], [ 73.2619142, 19.0659604 ], [ 73.2640727, 19.066267 ], [ 73.2642242, 19.0722265 ], [ 73.2729212, 19.0793587 ], [ 73.276712, 19.0852577 ], [ 73.2793789, 19.0867753 ], [ 73.2843078, 19.0876332 ], [ 73.2907318, 19.0845171 ], [ 73.2977828, 19.0834405 ], [ 73.29763, 19.0723181 ], [ 73.3012408, 19.0725322 ], [ 73.3058792, 19.0784402 ], [ 73.311442, 19.0793513 ], [ 73.3139553, 19.0769048 ], [ 73.3169278, 19.0800358 ], [ 73.3187874, 19.0801564 ], [ 73.3220067, 19.086989 ], [ 73.3092825, 19.0996022 ], [ 73.3075397, 19.1067001 ], [ 73.3162296, 19.1076336 ], [ 73.3214473, 19.1167212 ], [ 73.3263364, 19.1196746 ], [ 73.3333826, 19.120121 ], [ 73.334351, 19.1232948 ], [ 73.3415378, 19.1242797 ], [ 73.3485911, 19.1286938 ], [ 73.3583857, 19.1307724 ], [ 73.372291, 19.1266911 ], [ 73.3731728, 19.1282845 ], [ 73.3798451, 19.1297462 ], [ 73.3856552, 19.1328042 ], [ 73.3910458, 19.1330013 ], [ 73.3955305, 19.1316023 ], [ 73.4045491, 19.134691 ], [ 73.4133543, 19.1300012 ], [ 73.4237896, 19.130019 ], [ 73.4306348, 19.1263807 ], [ 73.4336012, 19.1283435 ], [ 73.4358293, 19.1280266 ], [ 73.4367269, 19.129525 ], [ 73.4461709, 19.1340366 ], [ 73.4572572, 19.1313973 ], [ 73.4674448, 19.1354826 ] ] ] } }
]
}
