{
"type": "FeatureCollection",
"name": "2729",
"crs": { "type": "name", "properties": { "name": "urn:ogc:def:crs:OGC:1.3:CRS84" } },
"features": [
{ "type": "Feature", "properties": { "code": "2729", "name": "Dharashiv", "type": "district" }, "geometry": { "type": "MultiPolygon", "coordinates": [ [ [ [ 75.6025336, 18.1496143 ], [ 75.6045041, 18.1439266 ], [ 75.6011374, 18.1476892 ], [ 75.5935763, 18.1460879 ], [ 75.5883744, 18.1528395 ], [ 75.5916473, 18.1556613 ], [ 75.6023669, 18.1591803 ], [ 75.6044547, 18.1497198 ], [ 75.6025336, 18.1496143 ] ] ], [ [ [ 75.6117672, 18.1610175 ], [ 75.6115737, 18.1578109 ], [ 75.6141062, 18.1579135 ], [ 75.6144053, 18.150605 ], [ 75.6095943, 18.1502795 ], [ 75.6106153, 18.1467691 ], [ 75.6071615, 18.1457484 ], [ 75.6064324, 18.1496949 ], [ 75.6090338, 18.1498574 ], [ 75.6087915, 18.152465 ], [ 75.6057235, 18.1523566 ], [ 75.6054279, 18.1539982 ], [ 75.6075903, 18.1538066 ], [ 75.6076201, 18.1551882 ], [ 75.6050927, 18.1552136 ], [ 75.6046103, 18.1599132 ], [ 75.6117672, 18.1610175 ] ] ], [ [ [ 75.585246, 18.6981706 ], [ 75.6061228, 18.6867605 ], [ 75.6067575, 18.6832672 ], [ 75.6128209, 18.6725834 ], [ 75.6128315, 18.66883 ], [ 75.6160392, 18.663787 ], [ 75.6220933, 18.6620744 ], [ 75.6231238, 18.6600941 ], [ 75.6306888, 18.6569424 ], [ 75.6329466, 18.6547311 ], [ 75.637469, 18.6542176 ], [ 75.6397814, 18.6506178 ], [ 75.6475853, 18.6478894 ], [ 75.6567779, 18.6477319 ], [ 75.6606549, 18.6455583 ], [ 75.6665735, 18.6514386 ], [ 75.6673725, 18.653316 ], [ 75.6638556, 18.6639995 ], [ 75.6642901, 18.675052 ], [ 75.6662339, 18.6753806 ], [ 75.6665094, 18.6832605 ], [ 75.669706, 18.6912582 ], [ 75.6714111, 18.6903079 ], [ 75.7011946, 18.6891724 ], [ 75.7067587, 18.6833455 ], [ 75.7296836, 18.6759552 ], [ 75.7297984, 18.6740683 ], [ 75.7319134, 18.6799092 ], [ 75.7426141, 18.6797678 ], [ 75.7431818, 18.682262 ], [ 75.7454157, 18.6801334 ], [ 75.7530443, 18.6786631 ], [ 75.7560304, 18.6805591 ], [ 75.7590358, 18.6785678 ], [ 75.7586028, 18.6768708 ], [ 75.7621071, 18.6738276 ], [ 75.7714172, 18.6691546 ], [ 75.7732565, 18.6735879 ], [ 75.7769168, 18.6728039 ], [ 75.7771491, 18.6710069 ], [ 75.7797149, 18.6709083 ], [ 75.7786313, 18.6652566 ], [ 75.7813981, 18.6643719 ], [ 75.7834809, 18.6601955 ], [ 75.7880771, 18.6556762 ], [ 75.7934028, 18.6542337 ], [ 75.7962128, 18.6620575 ], [ 75.7978125, 18.6728964 ], [ 75.7997473, 18.6730022 ], [ 75.8068035, 18.6719374 ], [ 75.8079113, 18.6686896 ], [ 75.8207409, 18.6685177 ], [ 75.8207662, 18.66709 ], [ 75.822101, 18.6670862 ], [ 75.8227808, 18.6626121 ], [ 75.8285344, 18.6617269 ], [ 75.8294733, 18.66392 ], [ 75.8349667, 18.6593518 ], [ 75.8436731, 18.6589101 ], [ 75.8475171, 18.6557497 ], [ 75.8533553, 18.659568 ], [ 75.8574825, 18.6597377 ], [ 75.8556407, 18.6493831 ], [ 75.8636727, 18.6502503 ], [ 75.8716666, 18.6538196 ], [ 75.8734877, 18.6533448 ], [ 75.8730279, 18.6482504 ], [ 75.8824747, 18.6469833 ], [ 75.8997699, 18.6494743 ], [ 75.9064369, 18.6492061 ], [ 75.914502, 18.646817 ], [ 75.9207964, 18.6430741 ], [ 75.927751, 18.6433695 ], [ 75.9374511, 18.6413909 ], [ 75.9446794, 18.6347595 ], [ 75.9463324, 18.6251008 ], [ 75.9436725, 18.6229349 ], [ 75.9428645, 18.6203824 ], [ 75.9437085, 18.609691 ], [ 75.9480864, 18.6050595 ], [ 75.9569143, 18.6046636 ], [ 75.9642309, 18.6098569 ], [ 75.9728906, 18.6129419 ], [ 75.9754219, 18.6117375 ], [ 75.9801868, 18.6161085 ], [ 75.9861077, 18.6188051 ], [ 75.9891427, 18.6193523 ], [ 75.9939798, 18.6171996 ], [ 75.9966171, 18.6111481 ], [ 75.9966392, 18.6069547 ], [ 75.9893414, 18.6028963 ], [ 75.9830399, 18.5942173 ], [ 75.9825724, 18.5908341 ], [ 75.9885536, 18.585817 ], [ 75.9953307, 18.5828678 ], [ 76.0032779, 18.5835933 ], [ 76.0078612, 18.5854953 ], [ 76.0048822, 18.6010009 ], [ 76.0062912, 18.6024891 ], [ 76.0056521, 18.6038771 ], [ 76.007564, 18.6040349 ], [ 76.0073413, 18.6066976 ], [ 76.0122479, 18.6077685 ], [ 76.0125077, 18.6057309 ], [ 76.026486, 18.6031227 ], [ 76.0318989, 18.6004179 ], [ 76.0358404, 18.5923473 ], [ 76.0395963, 18.5923532 ], [ 76.0435331, 18.5905745 ], [ 76.0482708, 18.577082 ], [ 76.0535196, 18.574595 ], [ 76.0602393, 18.5738293 ], [ 76.0792083, 18.576346 ], [ 76.0855236, 18.5806683 ], [ 76.1016828, 18.5879394 ], [ 76.1190519, 18.5839295 ], [ 76.1243188, 18.5842623 ], [ 76.1347642, 18.5876593 ], [ 76.1428787, 18.5833359 ], [ 76.1518209, 18.5813141 ], [ 76.1559607, 18.5780974 ], [ 76.1555376, 18.5751178 ], [ 76.157675, 18.5682472 ], [ 76.1569587, 18.5601406 ], [ 76.1577437, 18.5570836 ], [ 76.1603395, 18.5549512 ], [ 76.1704813, 18.5610012 ], [ 76.1661962, 18.5735256 ], [ 76.1684629, 18.5846421 ], [ 76.1774135, 18.5845017 ], [ 76.1955154, 18.5805849 ], [ 76.2010459, 18.5815473 ], [ 76.2015911, 18.5768191 ], [ 76.2114155, 18.5769297 ], [ 76.2196936, 18.5745608 ], [ 76.2332804, 18.5751474 ], [ 76.2418053, 18.5721461 ], [ 76.2546712, 18.5754019 ], [ 76.2554204, 18.5698964 ], [ 76.2543992, 18.5638133 ], [ 76.2759643, 18.5579443 ], [ 76.2761955, 18.543871 ], [ 76.273743, 18.5366899 ], [ 76.2643007, 18.5300569 ], [ 76.2621793, 18.5272589 ], [ 76.2529656, 18.5220236 ], [ 76.2553524, 18.5012498 ], [ 76.2530994, 18.4956333 ], [ 76.2617605, 18.4928917 ], [ 76.2554336, 18.4876345 ], [ 76.2540591, 18.482746 ], [ 76.2574927, 18.4825213 ], [ 76.2588091, 18.4784046 ], [ 76.2673413, 18.4755964 ], [ 76.2697372, 18.4685649 ], [ 76.2619325, 18.465814 ], [ 76.2662712, 18.4430181 ], [ 76.2669514, 18.4226774 ], [ 76.260446, 18.4281503 ], [ 76.2467632, 18.4300928 ], [ 76.2368963, 18.4344057 ], [ 76.2298891, 18.4352575 ], [ 76.2256902, 18.434024 ], [ 76.2205961, 18.4288359 ], [ 76.220651, 18.4231719 ], [ 76.2140703, 18.407116 ], [ 76.2075106, 18.4005302 ], [ 76.2037475, 18.3944922 ], [ 76.2094145, 18.3890707 ], [ 76.2155879, 18.3862287 ], [ 76.2220832, 18.3802779 ], [ 76.2456103, 18.3771276 ], [ 76.2576894, 18.3640214 ], [ 76.2749711, 18.3811516 ], [ 76.2885143, 18.389439 ], [ 76.2900155, 18.3864867 ], [ 76.2884721, 18.3798935 ], [ 76.289367, 18.3752655 ], [ 76.2864648, 18.3632006 ], [ 76.2841529, 18.3400123 ], [ 76.2951819, 18.338188 ], [ 76.3123725, 18.3307426 ], [ 76.3168351, 18.3299715 ], [ 76.3169011, 18.3168336 ], [ 76.3141967, 18.2986743 ], [ 76.3145376, 18.2824636 ], [ 76.3100849, 18.2809405 ], [ 76.307898, 18.2737502 ], [ 76.3061265, 18.2736752 ], [ 76.3073608, 18.2687509 ], [ 76.3063107, 18.2687523 ], [ 76.3033693, 18.26266 ], [ 76.2942666, 18.2611259 ], [ 76.2887034, 18.2556672 ], [ 76.286799, 18.2501373 ], [ 76.2838184, 18.2492805 ], [ 76.2838106, 18.2416594 ], [ 76.285788, 18.2321517 ], [ 76.3013926, 18.2318095 ], [ 76.2982916, 18.2126415 ], [ 76.2952189, 18.2127756 ], [ 76.2926827, 18.1976385 ], [ 76.2801031, 18.1833779 ], [ 76.2823146, 18.1626752 ], [ 76.2816508, 18.1524452 ], [ 76.2811495, 18.1488935 ], [ 76.2787853, 18.1481488 ], [ 76.2785096, 18.1449558 ], [ 76.2760311, 18.1450366 ], [ 76.2750058, 18.1404749 ], [ 76.2774598, 18.1384651 ], [ 76.2837409, 18.1274647 ], [ 76.2793687, 18.1110279 ], [ 76.2945985, 18.1068891 ], [ 76.2943968, 18.1049342 ], [ 76.2965553, 18.1047048 ], [ 76.2948126, 18.1001494 ], [ 76.3032847, 18.099535 ], [ 76.304625, 18.0967855 ], [ 76.3045559, 18.0981329 ], [ 76.3061262, 18.0981408 ], [ 76.3076524, 18.0925537 ], [ 76.3187318, 18.0964818 ], [ 76.3271692, 18.0967546 ], [ 76.3299775, 18.0761128 ], [ 76.3321979, 18.0766807 ], [ 76.3405094, 18.0612802 ], [ 76.3489352, 18.0621191 ], [ 76.3493228, 18.0646062 ], [ 76.3525569, 18.0662768 ], [ 76.35392, 18.076365 ], [ 76.3529244, 18.0820178 ], [ 76.371876, 18.0899364 ], [ 76.3803221, 18.0879056 ], [ 76.3820894, 18.0842114 ], [ 76.3825917, 18.0777787 ], [ 76.3878225, 18.0766964 ], [ 76.3907626, 18.0739508 ], [ 76.3922342, 18.0700668 ], [ 76.3985855, 18.066045 ], [ 76.3965754, 18.0595844 ], [ 76.3848837, 18.0605581 ], [ 76.3832411, 18.0503322 ], [ 76.3836635, 18.045077 ], [ 76.4042035, 18.0439952 ], [ 76.4049403, 18.0462472 ], [ 76.409535, 18.0436201 ], [ 76.4171825, 18.0419826 ], [ 76.4201241, 18.0358566 ], [ 76.4273847, 18.0338345 ], [ 76.4354175, 18.034137 ], [ 76.4496702, 18.0317883 ], [ 76.4550528, 18.0285955 ], [ 76.4616545, 18.0270661 ], [ 76.4614711, 18.0299766 ], [ 76.4655843, 18.0317734 ], [ 76.4798805, 18.0267696 ], [ 76.4832654, 18.0271768 ], [ 76.4887674, 18.0245517 ], [ 76.4951916, 18.0272304 ], [ 76.4968515, 18.0425147 ], [ 76.4992864, 18.0518529 ], [ 76.5113688, 18.0504068 ], [ 76.5102188, 18.0341884 ], [ 76.5103453, 18.0232193 ], [ 76.5111909, 18.0231705 ], [ 76.5314306, 18.0288083 ], [ 76.5317917, 18.0313892 ], [ 76.5395916, 18.0318363 ], [ 76.5495808, 18.0309003 ], [ 76.5509228, 18.026637 ], [ 76.5529954, 18.0264423 ], [ 76.5570551, 18.027318 ], [ 76.5631656, 18.031276 ], [ 76.5709215, 18.028713 ], [ 76.5745299, 18.0257182 ], [ 76.5759229, 18.0225663 ], [ 76.5790836, 18.0377538 ], [ 76.5889181, 18.0369263 ], [ 76.5941985, 18.0333857 ], [ 76.5980671, 18.0330287 ], [ 76.5998033, 18.0337145 ], [ 76.6030492, 18.0383822 ], [ 76.6109294, 18.0389419 ], [ 76.6103329, 18.0261515 ], [ 76.6048566, 18.0131888 ], [ 76.6037066, 18.0072913 ], [ 76.6154317, 18.0048486 ], [ 76.6171583, 18.0013278 ], [ 76.6299107, 17.9995618 ], [ 76.6402455, 18.0010963 ], [ 76.6488253, 17.9998422 ], [ 76.6620607, 18.0005656 ], [ 76.678445, 17.9961281 ], [ 76.6892373, 17.9701956 ], [ 76.6753734, 17.9694041 ], [ 76.6755618, 17.9671036 ], [ 76.6730657, 17.9671205 ], [ 76.6748514, 17.9518919 ], [ 76.6734733, 17.9467944 ], [ 76.6811145, 17.9458928 ], [ 76.6764081, 17.9368192 ], [ 76.6734684, 17.9188692 ], [ 76.6904176, 17.9189803 ], [ 76.7071352, 17.9163906 ], [ 76.7238695, 17.918332 ], [ 76.7256672, 17.9125147 ], [ 76.735624, 17.91144 ], [ 76.7378696, 17.9097899 ], [ 76.73911, 17.9085593 ], [ 76.7412465, 17.8953987 ], [ 76.7388426, 17.8831046 ], [ 76.7384821, 17.8566816 ], [ 76.751494, 17.8581307 ], [ 76.758732, 17.8560233 ], [ 76.7655966, 17.8512793 ], [ 76.7676299, 17.8520037 ], [ 76.7740742, 17.8463822 ], [ 76.7742205, 17.8419731 ], [ 76.7793064, 17.8362812 ], [ 76.7869989, 17.8331994 ], [ 76.7889381, 17.8271941 ], [ 76.7903937, 17.8263341 ], [ 76.7839488, 17.8178743 ], [ 76.7828632, 17.8179171 ], [ 76.7815094, 17.809391 ], [ 76.7825908, 17.806638 ], [ 76.7787276, 17.8004803 ], [ 76.775444, 17.7982943 ], [ 76.7665099, 17.7984687 ], [ 76.7659022, 17.7922381 ], [ 76.7644635, 17.7889634 ], [ 76.7620995, 17.7887817 ], [ 76.7620385, 17.787017 ], [ 76.7509107, 17.787053 ], [ 76.7507363, 17.78455 ], [ 76.7425251, 17.784224 ], [ 76.7443373, 17.78034 ], [ 76.7406458, 17.7794643 ], [ 76.7298699, 17.7827435 ], [ 76.7301638, 17.7838455 ], [ 76.7209401, 17.7880576 ], [ 76.7140914, 17.78094 ], [ 76.7119119, 17.7732673 ], [ 76.721072, 17.7694979 ], [ 76.7184011, 17.7559434 ], [ 76.7187871, 17.7514795 ], [ 76.7248073, 17.7511023 ], [ 76.7240358, 17.7479581 ], [ 76.7282708, 17.7375607 ], [ 76.7091094, 17.7317001 ], [ 76.6996459, 17.7272491 ], [ 76.7043275, 17.7230133 ], [ 76.703655, 17.7159954 ], [ 76.7013074, 17.7090708 ], [ 76.6925397, 17.7067236 ], [ 76.6921408, 17.7007792 ], [ 76.6941775, 17.6956803 ], [ 76.6908277, 17.685747 ], [ 76.6909674, 17.6812609 ], [ 76.6878584, 17.6797881 ], [ 76.6843563, 17.6858884 ], [ 76.6797233, 17.6863527 ], [ 76.6769998, 17.6890212 ], [ 76.6726122, 17.6905404 ], [ 76.6641888, 17.6875602 ], [ 76.6597292, 17.7082846 ], [ 76.655599, 17.7178542 ], [ 76.6527923, 17.722133 ], [ 76.6332595, 17.7282202 ], [ 76.6280974, 17.7506493 ], [ 76.631885, 17.7546414 ], [ 76.6224307, 17.7604981 ], [ 76.6182908, 17.7677201 ], [ 76.6136293, 17.7708537 ], [ 76.6110393, 17.769364 ], [ 76.6069644, 17.7593595 ], [ 76.6052959, 17.758645 ], [ 76.5997887, 17.732708 ], [ 76.6010768, 17.7258606 ], [ 76.5943801, 17.7224497 ], [ 76.5884678, 17.7101851 ], [ 76.5883371, 17.7075782 ], [ 76.5822, 17.7052703 ], [ 76.5702954, 17.7054057 ], [ 76.5678014, 17.7424764 ], [ 76.5669727, 17.7461945 ], [ 76.5639572, 17.7508334 ], [ 76.5651725, 17.7534321 ], [ 76.5709451, 17.7577265 ], [ 76.5727077, 17.7605395 ], [ 76.5612624, 17.7646192 ], [ 76.5466299, 17.760697 ], [ 76.5430562, 17.7616285 ], [ 76.5306876, 17.7582603 ], [ 76.5269629, 17.7598331 ], [ 76.5231575, 17.7597609 ], [ 76.5273588, 17.7378437 ], [ 76.5239022, 17.7151521 ], [ 76.5117265, 17.7179735 ], [ 76.5006884, 17.7184186 ], [ 76.4949537, 17.7159749 ], [ 76.4872276, 17.7147636 ], [ 76.4844877, 17.6785118 ], [ 76.4850163, 17.6709759 ], [ 76.4897487, 17.6604992 ], [ 76.4866716, 17.6584118 ], [ 76.4589151, 17.6581229 ], [ 76.4528603, 17.6557902 ], [ 76.4544828, 17.6497863 ], [ 76.4419579, 17.6490871 ], [ 76.4450047, 17.6409513 ], [ 76.4353901, 17.6462614 ], [ 76.4313754, 17.6461786 ], [ 76.4291316, 17.6445563 ], [ 76.4141806, 17.6471486 ], [ 76.4034916, 17.6570375 ], [ 76.378231, 17.6608136 ], [ 76.3797775, 17.6616747 ], [ 76.3803584, 17.6640378 ], [ 76.3785155, 17.6866648 ], [ 76.3715702, 17.6846035 ], [ 76.3631944, 17.6866065 ], [ 76.3598057, 17.6894149 ], [ 76.3562542, 17.6978521 ], [ 76.3535595, 17.6963298 ], [ 76.3453823, 17.6965926 ], [ 76.3385634, 17.6927466 ], [ 76.3363296, 17.6941213 ], [ 76.3203764, 17.6959675 ], [ 76.3202591, 17.69711 ], [ 76.3163024, 17.6982524 ], [ 76.3152818, 17.7149006 ], [ 76.3027039, 17.7207257 ], [ 76.3032006, 17.7223562 ], [ 76.2946301, 17.7297893 ], [ 76.2876728, 17.7283325 ], [ 76.2842065, 17.7296763 ], [ 76.2802108, 17.7267201 ], [ 76.2758169, 17.7289778 ], [ 76.2678857, 17.7295437 ], [ 76.2665318, 17.7268249 ], [ 76.2636636, 17.7263288 ], [ 76.2630376, 17.722755 ], [ 76.2544242, 17.7169772 ], [ 76.2535066, 17.7140961 ], [ 76.2507521, 17.7116401 ], [ 76.2501198, 17.7052408 ], [ 76.2384761, 17.7059353 ], [ 76.2401455, 17.6973718 ], [ 76.222648, 17.6991082 ], [ 76.2219293, 17.6876508 ], [ 76.2045401, 17.6892126 ], [ 76.1879603, 17.6832114 ], [ 76.1802822, 17.6863011 ], [ 76.1690131, 17.6934501 ], [ 76.164701, 17.6937746 ], [ 76.1656649, 17.7003099 ], [ 76.1458934, 17.6998127 ], [ 76.1466902, 17.7030953 ], [ 76.1444525, 17.7120293 ], [ 76.147106, 17.7164822 ], [ 76.1496945, 17.7186817 ], [ 76.1652755, 17.7144105 ], [ 76.1693684, 17.7169627 ], [ 76.1751707, 17.7297063 ], [ 76.1704054, 17.7323296 ], [ 76.1474012, 17.7341263 ], [ 76.1440667, 17.756139 ], [ 76.1334477, 17.7558463 ], [ 76.1298857, 17.7607729 ], [ 76.1293257, 17.7677446 ], [ 76.1133137, 17.767874 ], [ 76.1133399, 17.7653003 ], [ 76.1026555, 17.7650404 ], [ 76.097242, 17.7774672 ], [ 76.0847335, 17.7777642 ], [ 76.0833306, 17.775669 ], [ 76.0776774, 17.7754857 ], [ 76.0756086, 17.7734176 ], [ 76.069592, 17.7712689 ], [ 76.0593544, 17.7694441 ], [ 76.0535079, 17.7635099 ], [ 76.0488055, 17.7650335 ], [ 76.0295427, 17.7656116 ], [ 76.0139658, 17.754495 ], [ 76.0070803, 17.7508908 ], [ 76.0026523, 17.7503473 ], [ 76.0017251, 17.7551057 ], [ 75.9994883, 17.7562547 ], [ 76.0011084, 17.7584283 ], [ 76.0032378, 17.7680208 ], [ 76.0048997, 17.7861291 ], [ 76.0112582, 17.7876941 ], [ 76.0078061, 17.8007852 ], [ 76.014019, 17.8119686 ], [ 76.015757, 17.8222064 ], [ 76.0175197, 17.8267581 ], [ 76.0195606, 17.8283747 ], [ 76.0082366, 17.8301838 ], [ 75.9958189, 17.8384522 ], [ 75.9805759, 17.8437458 ], [ 75.9748759, 17.8414311 ], [ 75.9743169, 17.8347448 ], [ 75.9772856, 17.8273274 ], [ 75.9774397, 17.8201116 ], [ 75.9659818, 17.8181564 ], [ 75.9621806, 17.8311349 ], [ 75.9466131, 17.843778 ], [ 75.9430281, 17.8441888 ], [ 75.9410868, 17.8520167 ], [ 75.9318102, 17.8517661 ], [ 75.9247412, 17.8331467 ], [ 75.9109845, 17.8327983 ], [ 75.9109163, 17.8345103 ], [ 75.9036407, 17.8360912 ], [ 75.8980391, 17.8405704 ], [ 75.8892354, 17.8447243 ], [ 75.8812197, 17.8466243 ], [ 75.8750145, 17.8464251 ], [ 75.8724476, 17.8565038 ], [ 75.8639926, 17.8664804 ], [ 75.8561377, 17.8686638 ], [ 75.852169, 17.8802381 ], [ 75.8447205, 17.8915746 ], [ 75.8421872, 17.9027106 ], [ 75.8459456, 17.9030617 ], [ 75.8497614, 17.9137303 ], [ 75.8512567, 17.922115 ], [ 75.8491931, 17.9279828 ], [ 75.8462796, 17.9314519 ], [ 75.8380858, 17.9323635 ], [ 75.8370993, 17.9485081 ], [ 75.8384701, 17.96011 ], [ 75.8392292, 17.963361 ], [ 75.8422858, 17.9671739 ], [ 75.845026, 17.9771262 ], [ 75.8447532, 17.9806855 ], [ 75.8396022, 17.9812583 ], [ 75.8426273, 17.9875272 ], [ 75.8439998, 17.9941992 ], [ 75.8531157, 18.0093461 ], [ 75.8559048, 18.0111188 ], [ 75.8680754, 18.0115745 ], [ 75.8720112, 18.0109194 ], [ 75.8755251, 18.0076855 ], [ 75.8840318, 18.0040007 ], [ 75.8889951, 18.0031348 ], [ 75.8939288, 18.0052808 ], [ 75.9071052, 18.0015169 ], [ 75.9085632, 18.0032749 ], [ 75.9103493, 17.9993737 ], [ 75.9086862, 17.988136 ], [ 75.910482, 17.9874489 ], [ 75.9103302, 17.9851233 ], [ 75.9145483, 17.9794004 ], [ 75.9145877, 17.9775242 ], [ 75.91781, 17.9757802 ], [ 75.9243614, 17.9738782 ], [ 75.9301688, 17.9738054 ], [ 75.9522603, 17.978971 ], [ 75.9641595, 17.9747702 ], [ 75.9689519, 17.9716817 ], [ 75.9739873, 17.9711131 ], [ 75.9768083, 17.9726484 ], [ 75.9797144, 17.9724463 ], [ 75.9832949, 17.9935559 ], [ 75.9963872, 17.9950271 ], [ 75.9958482, 17.9997938 ], [ 76.0040762, 18.0286316 ], [ 76.0065888, 18.0323699 ], [ 76.0187243, 18.042159 ], [ 76.0153043, 18.0473159 ], [ 76.0138298, 18.0530649 ], [ 76.0054162, 18.0511044 ], [ 76.0026282, 18.0568799 ], [ 75.999741, 18.056753 ], [ 75.9896835, 18.0521517 ], [ 75.9844397, 18.0537925 ], [ 75.987604, 18.059613 ], [ 75.9933769, 18.0652704 ], [ 75.9941776, 18.0693096 ], [ 75.9902556, 18.069099 ], [ 75.9866597, 18.088337 ], [ 75.9557248, 18.0858086 ], [ 75.9553239, 18.1003854 ], [ 75.9461728, 18.1041922 ], [ 75.9449713, 18.1071271 ], [ 75.945548, 18.1103556 ], [ 75.9440695, 18.1197626 ], [ 75.9410693, 18.1260184 ], [ 75.9378848, 18.1265681 ], [ 75.9435229, 18.1290688 ], [ 75.9450171, 18.1362963 ], [ 75.9472601, 18.1357797 ], [ 75.9498556, 18.1392792 ], [ 75.9552902, 18.1524572 ], [ 75.9571225, 18.1608905 ], [ 75.950799, 18.1728192 ], [ 75.9417864, 18.1801417 ], [ 75.938208, 18.1803897 ], [ 75.9379182, 18.1833858 ], [ 75.9340577, 18.1839536 ], [ 75.9338789, 18.1910478 ], [ 75.923431, 18.1933633 ], [ 75.9326329, 18.2180515 ], [ 75.9337202, 18.223923 ], [ 75.9410796, 18.2391456 ], [ 75.9433654, 18.2389265 ], [ 75.9434052, 18.2441154 ], [ 75.942059, 18.248904 ], [ 75.9351954, 18.2525769 ], [ 75.9287502, 18.258774 ], [ 75.9277211, 18.2649508 ], [ 75.9301734, 18.278622 ], [ 75.9281746, 18.2788103 ], [ 75.9264465, 18.2835388 ], [ 75.925172, 18.2941932 ], [ 75.9230366, 18.2998091 ], [ 75.9243209, 18.3034344 ], [ 75.9200754, 18.3122547 ], [ 75.905614, 18.3271043 ], [ 75.903337, 18.3276618 ], [ 75.9021961, 18.339026 ], [ 75.895211, 18.3586562 ], [ 75.8896459, 18.3609878 ], [ 75.8879306, 18.363316 ], [ 75.8786446, 18.3652941 ], [ 75.8649274, 18.3629029 ], [ 75.8583166, 18.3588566 ], [ 75.8568191, 18.3623787 ], [ 75.8497933, 18.3610791 ], [ 75.8401962, 18.3640714 ], [ 75.8352214, 18.3692929 ], [ 75.8266237, 18.3752854 ], [ 75.826215, 18.3773813 ], [ 75.8238198, 18.3795237 ], [ 75.8181555, 18.378284 ], [ 75.8109216, 18.3806303 ], [ 75.7972869, 18.3804644 ], [ 75.7948762, 18.3841331 ], [ 75.7956401, 18.3884023 ], [ 75.7892915, 18.3903039 ], [ 75.7801513, 18.3960019 ], [ 75.7813424, 18.3996384 ], [ 75.7830282, 18.4003867 ], [ 75.7771034, 18.4032464 ], [ 75.7763629, 18.4048339 ], [ 75.7729398, 18.4050368 ], [ 75.77078, 18.4085944 ], [ 75.7672449, 18.4319298 ], [ 75.764183, 18.4329185 ], [ 75.7641938, 18.4381421 ], [ 75.7624065, 18.4404927 ], [ 75.7674494, 18.4467014 ], [ 75.7679914, 18.4509926 ], [ 75.7629952, 18.4502273 ], [ 75.7591019, 18.4441912 ], [ 75.7578377, 18.439682 ], [ 75.7503877, 18.435469 ], [ 75.7409562, 18.4339033 ], [ 75.7361919, 18.4351639 ], [ 75.7326964, 18.4332264 ], [ 75.7274723, 18.4325064 ], [ 75.7236513, 18.4335421 ], [ 75.7156632, 18.4117485 ], [ 75.7064444, 18.3962939 ], [ 75.7077247, 18.392708 ], [ 75.7122521, 18.3907538 ], [ 75.710781, 18.390328 ], [ 75.7205003, 18.3888948 ], [ 75.7251802, 18.3868116 ], [ 75.7239327, 18.379671 ], [ 75.7295083, 18.3614903 ], [ 75.7282005, 18.3572648 ], [ 75.72142, 18.3518669 ], [ 75.7189463, 18.3468434 ], [ 75.7180423, 18.3373368 ], [ 75.7052078, 18.3388894 ], [ 75.6971084, 18.3314733 ], [ 75.6955759, 18.3287753 ], [ 75.6965418, 18.3271261 ], [ 75.6824687, 18.3239434 ], [ 75.6816383, 18.3239779 ], [ 75.6824776, 18.3256698 ], [ 75.678471, 18.3282775 ], [ 75.6533799, 18.3331166 ], [ 75.6498748, 18.3301177 ], [ 75.6479917, 18.3303804 ], [ 75.6414796, 18.3201761 ], [ 75.6421, 18.3170954 ], [ 75.6360293, 18.3103112 ], [ 75.6288981, 18.2992411 ], [ 75.6256354, 18.2864124 ], [ 75.6235589, 18.28466 ], [ 75.6212489, 18.2845485 ], [ 75.6138134, 18.2714118 ], [ 75.6296974, 18.2658876 ], [ 75.6292307, 18.2488468 ], [ 75.6277539, 18.2418253 ], [ 75.6269859, 18.2411681 ], [ 75.6152694, 18.2444478 ], [ 75.6085087, 18.2481921 ], [ 75.5875744, 18.2543923 ], [ 75.5859253, 18.2489456 ], [ 75.5834179, 18.2458895 ], [ 75.5744189, 18.2378476 ], [ 75.5684765, 18.2357899 ], [ 75.5664145, 18.2259603 ], [ 75.5624281, 18.2174887 ], [ 75.5612131, 18.2031225 ], [ 75.5485669, 18.2044932 ], [ 75.5533075, 18.189226 ], [ 75.5440696, 18.1772863 ], [ 75.5426082, 18.1665572 ], [ 75.5424384, 18.1492357 ], [ 75.5339941, 18.1404142 ], [ 75.5311336, 18.1338212 ], [ 75.5255711, 18.1309508 ], [ 75.5246152, 18.1347674 ], [ 75.5145182, 18.1396049 ], [ 75.5176911, 18.1448971 ], [ 75.516551, 18.1460875 ], [ 75.4997852, 18.1570606 ], [ 75.493731, 18.1561082 ], [ 75.4875168, 18.1517535 ], [ 75.4859814, 18.1532207 ], [ 75.4856816, 18.1564527 ], [ 75.488929, 18.162532 ], [ 75.4855198, 18.1675692 ], [ 75.4865103, 18.1738242 ], [ 75.4760552, 18.1741169 ], [ 75.460995, 18.170085 ], [ 75.4589172, 18.1679391 ], [ 75.4592689, 18.165305 ], [ 75.4660066, 18.1647564 ], [ 75.463988, 18.1599657 ], [ 75.4618661, 18.1592609 ], [ 75.4460495, 18.1722755 ], [ 75.437438, 18.1751851 ], [ 75.4319408, 18.1741035 ], [ 75.4288573, 18.1749055 ], [ 75.4254679, 18.1820854 ], [ 75.4260116, 18.1843777 ], [ 75.430847, 18.1978628 ], [ 75.4383679, 18.2053664 ], [ 75.4350443, 18.2099666 ], [ 75.4257247, 18.2150412 ], [ 75.4250915, 18.227123 ], [ 75.4275144, 18.231 ], [ 75.422837, 18.2385964 ], [ 75.4197256, 18.2380577 ], [ 75.4197436, 18.2397884 ], [ 75.4289656, 18.2477959 ], [ 75.4282802, 18.2574054 ], [ 75.4293186, 18.2613321 ], [ 75.3944034, 18.2638282 ], [ 75.3951345, 18.2792059 ], [ 75.3965006, 18.2816573 ], [ 75.3932471, 18.286206 ], [ 75.4005219, 18.2967256 ], [ 75.3946583, 18.301833 ], [ 75.3915384, 18.3072786 ], [ 75.3959351, 18.313253 ], [ 75.4024872, 18.3165871 ], [ 75.3981484, 18.3233139 ], [ 75.3996603, 18.3251085 ], [ 75.40313, 18.3258229 ], [ 75.4032564, 18.328617 ], [ 75.4010008, 18.3295677 ], [ 75.3898323, 18.3256459 ], [ 75.3869708, 18.3277546 ], [ 75.3841907, 18.3318468 ], [ 75.3821604, 18.3433225 ], [ 75.3780831, 18.3474409 ], [ 75.3686793, 18.3521044 ], [ 75.3633026, 18.3569558 ], [ 75.3593663, 18.3612183 ], [ 75.3602173, 18.3654303 ], [ 75.3583113, 18.3684391 ], [ 75.3551651, 18.3697382 ], [ 75.3501546, 18.3696338 ], [ 75.3447875, 18.3769853 ], [ 75.3363369, 18.3807365 ], [ 75.3352448, 18.3822985 ], [ 75.3358719, 18.3869127 ], [ 75.3334471, 18.3893341 ], [ 75.3309696, 18.3891101 ], [ 75.3298442, 18.3854752 ], [ 75.3277922, 18.3847042 ], [ 75.3251866, 18.3863001 ], [ 75.3245476, 18.391146 ], [ 75.3227961, 18.3932587 ], [ 75.3139551, 18.3950642 ], [ 75.3066229, 18.3891997 ], [ 75.303774, 18.3913638 ], [ 75.2992551, 18.399331 ], [ 75.29726, 18.4007003 ], [ 75.2894205, 18.4015182 ], [ 75.2857286, 18.4053487 ], [ 75.2839697, 18.4114265 ], [ 75.2851408, 18.4180459 ], [ 75.2969062, 18.4260945 ], [ 75.3012106, 18.4307584 ], [ 75.2995965, 18.4439073 ], [ 75.2963813, 18.4456299 ], [ 75.2965878, 18.4570453 ], [ 75.2981749, 18.4637339 ], [ 75.3004478, 18.4641535 ], [ 75.3031805, 18.4787327 ], [ 75.3002949, 18.4899125 ], [ 75.2986985, 18.490142 ], [ 75.2990047, 18.4921173 ], [ 75.2963482, 18.4942048 ], [ 75.2963682, 18.4962326 ], [ 75.3034493, 18.5080081 ], [ 75.3100175, 18.5084806 ], [ 75.3131199, 18.5202831 ], [ 75.318009, 18.5230647 ], [ 75.3297279, 18.5236447 ], [ 75.3296217, 18.5378046 ], [ 75.338149, 18.5477266 ], [ 75.3395002, 18.5547964 ], [ 75.3426774, 18.5609026 ], [ 75.3498386, 18.559365 ], [ 75.3550758, 18.5552817 ], [ 75.3658498, 18.5526682 ], [ 75.3656626, 18.5511403 ], [ 75.3732305, 18.5516967 ], [ 75.3820314, 18.5473838 ], [ 75.3944942, 18.5437263 ], [ 75.399118, 18.5411109 ], [ 75.4100726, 18.5311747 ], [ 75.4148315, 18.5305898 ], [ 75.4262028, 18.5450539 ], [ 75.434693, 18.5525941 ], [ 75.4392529, 18.5633732 ], [ 75.4413206, 18.5761182 ], [ 75.4461192, 18.5856692 ], [ 75.4533727, 18.5935484 ], [ 75.4523814, 18.5969531 ], [ 75.4588903, 18.5947675 ], [ 75.4592422, 18.5988137 ], [ 75.4622741, 18.6014705 ], [ 75.4607829, 18.6018992 ], [ 75.4616434, 18.6056869 ], [ 75.4691934, 18.6084015 ], [ 75.4819128, 18.6180241 ], [ 75.4861357, 18.6193362 ], [ 75.4857111, 18.621681 ], [ 75.4882029, 18.6263025 ], [ 75.4900512, 18.6266704 ], [ 75.4924163, 18.6230502 ], [ 75.4958817, 18.6244292 ], [ 75.4973375, 18.6211633 ], [ 75.49921, 18.6206893 ], [ 75.5000954, 18.6233009 ], [ 75.5067839, 18.6233214 ], [ 75.5084525, 18.6264593 ], [ 75.5184159, 18.6327276 ], [ 75.5191992, 18.6367786 ], [ 75.520244, 18.6371969 ], [ 75.5195598, 18.6381338 ], [ 75.5208158, 18.6388468 ], [ 75.5221744, 18.6377976 ], [ 75.529863, 18.6402482 ], [ 75.5400896, 18.6390601 ], [ 75.5419644, 18.642314 ], [ 75.546075, 18.6444847 ], [ 75.545946, 18.6492699 ], [ 75.5475409, 18.6533338 ], [ 75.5471017, 18.6562236 ], [ 75.5403297, 18.6565283 ], [ 75.5400257, 18.6575977 ], [ 75.5394499, 18.6642132 ], [ 75.5408415, 18.6725318 ], [ 75.5444137, 18.6815264 ], [ 75.5656837, 18.6858129 ], [ 75.5811951, 18.6838788 ], [ 75.5829402, 18.6977321 ], [ 75.585246, 18.6981706 ] ] ] ] } }
]
}
