{
"type": "FeatureCollection",
"name": "2730",
"crs": { "type": "name", "properties": { "name": "urn:ogc:def:crs:OGC:1.3:CRS84" } },
"features": [
{ "type": "Feature", "properties": { "code": "2730", "name": "Solapur", "type": "district" }, "geometry": { "type": "Polygon", "coordinates": [ [ [ 75.2302972, 18.5406912 ], [ 75.2331355, 18.5422478 ], [ 75.2392611, 18.5404705 ], [ 75.2414112, 18.5370058 ], [ 75.2408861, 18.5312993 ], [ 75.2434205, 18.5261399 ], [ 75.2529573, 18.5176784 ], [ 75.2593666, 18.5084082 ], [ 75.2664566, 18.5082576 ], [ 75.2679326, 18.5125703 ], [ 75.27977, 18.515811 ], [ 75.2806364, 18.5193237 ], [ 75.2839617, 18.5188704 ], [ 75.2887065, 18.520685 ], [ 75.2928555, 18.5202012 ], [ 75.3000047, 18.5216766 ], [ 75.3129787, 18.5198498 ], [ 75.3100175, 18.5084806 ], [ 75.3034493, 18.5080081 ], [ 75.2963682, 18.4962326 ], [ 75.2963482, 18.4942048 ], [ 75.2990047, 18.4921173 ], [ 75.2986985, 18.490142 ], [ 75.3002949, 18.4899125 ], [ 75.3031805, 18.4787327 ], [ 75.3004478, 18.4641535 ], [ 75.2981749, 18.4637339 ], [ 75.2965878, 18.4570453 ], [ 75.2963813, 18.4456299 ], [ 75.2995965, 18.4439073 ], [ 75.3012106, 18.4307584 ], [ 75.2969062, 18.4260945 ], [ 75.2851408, 18.4180459 ], [ 75.2839697, 18.4114265 ], [ 75.2857286, 18.4053487 ], [ 75.2894205, 18.4015182 ], [ 75.29726, 18.4007003 ], [ 75.2992551, 18.399331 ], [ 75.303774, 18.3913638 ], [ 75.3066229, 18.3891997 ], [ 75.3139551, 18.3950642 ], [ 75.3227961, 18.3932587 ], [ 75.3245476, 18.391146 ], [ 75.3251866, 18.3863001 ], [ 75.3277922, 18.3847042 ], [ 75.3298442, 18.3854752 ], [ 75.3309696, 18.3891101 ], [ 75.3334471, 18.3893341 ], [ 75.3358719, 18.3869127 ], [ 75.3352448, 18.3822985 ], [ 75.3363369, 18.3807365 ], [ 75.3447875, 18.3769853 ], [ 75.3501546, 18.3696338 ], [ 75.3551651, 18.3697382 ], [ 75.3583113, 18.3684391 ], [ 75.3602173, 18.3654303 ], [ 75.3593663, 18.3612183 ], [ 75.3633026, 18.3569558 ], [ 75.3686793, 18.3521044 ], [ 75.3780831, 18.3474409 ], [ 75.3821604, 18.3433225 ], [ 75.3841907, 18.3318468 ], [ 75.3869708, 18.3277546 ], [ 75.3898323, 18.3256459 ], [ 75.4010008, 18.3295677 ], [ 75.4032564, 18.328617 ], [ 75.40313, 18.3258229 ], [ 75.3996603, 18.3251085 ], [ 75.3981484, 18.3233139 ], [ 75.4024872, 18.3165871 ], [ 75.3959351, 18.313253 ], [ 75.3915384, 18.3072786 ], [ 75.3946583, 18.301833 ], [ 75.4005219, 18.2967256 ], [ 75.3932471, 18.286206 ], [ 75.3965006, 18.2816573 ], [ 75.3951345, 18.2792059 ], [ 75.3944034, 18.2638282 ], [ 75.4293186, 18.2613321 ], [ 75.4282802, 18.2574054 ], [ 75.4289656, 18.2477959 ], [ 75.4197436, 18.2397884 ], [ 75.4197256, 18.2380577 ], [ 75.422837, 18.2385964 ], [ 75.4275144, 18.231 ], [ 75.4250915, 18.227123 ], [ 75.4257247, 18.2150412 ], [ 75.4350443, 18.2099666 ], [ 75.4383679, 18.2053664 ], [ 75.430847, 18.1978628 ], [ 75.4260116, 18.1843777 ], [ 75.4254679, 18.1820854 ], [ 75.4288573, 18.1749055 ], [ 75.4319408, 18.1741035 ], [ 75.437438, 18.1751851 ], [ 75.4460495, 18.1722755 ], [ 75.4618661, 18.1592609 ], [ 75.463988, 18.1599657 ], [ 75.4660066, 18.1647564 ], [ 75.4592689, 18.165305 ], [ 75.4589172, 18.1679391 ], [ 75.460995, 18.170085 ], [ 75.4760552, 18.1741169 ], [ 75.4865103, 18.1738242 ], [ 75.4855198, 18.1675692 ], [ 75.488929, 18.162532 ], [ 75.4856816, 18.1564527 ], [ 75.4859814, 18.1532207 ], [ 75.4890039, 18.1519471 ], [ 75.4917332, 18.1548797 ], [ 75.496156, 18.1569078 ], [ 75.5026003, 18.1558396 ], [ 75.5176911, 18.1448971 ], [ 75.5145182, 18.1396049 ], [ 75.5246152, 18.1347674 ], [ 75.5255711, 18.1309508 ], [ 75.5311336, 18.1338212 ], [ 75.5339941, 18.1404142 ], [ 75.5424384, 18.1492357 ], [ 75.5426082, 18.1665572 ], [ 75.5440696, 18.1772863 ], [ 75.5533075, 18.189226 ], [ 75.5485669, 18.2044932 ], [ 75.5612131, 18.2031225 ], [ 75.5624281, 18.2174887 ], [ 75.5664145, 18.2259603 ], [ 75.5684765, 18.2357899 ], [ 75.5744189, 18.2378476 ], [ 75.5834179, 18.2458895 ], [ 75.5859253, 18.2489456 ], [ 75.5875744, 18.2543923 ], [ 75.6041952, 18.2496848 ], [ 75.622358, 18.2424274 ], [ 75.6269859, 18.2411681 ], [ 75.6285869, 18.2428845 ], [ 75.6296974, 18.2658876 ], [ 75.6138134, 18.2714118 ], [ 75.6212489, 18.2845485 ], [ 75.6235589, 18.28466 ], [ 75.6256354, 18.2864124 ], [ 75.6288981, 18.2992411 ], [ 75.6360293, 18.3103112 ], [ 75.6421, 18.3170954 ], [ 75.6414796, 18.3201761 ], [ 75.6446537, 18.3237324 ], [ 75.6472764, 18.3296811 ], [ 75.6498748, 18.3301177 ], [ 75.6533799, 18.3331166 ], [ 75.678471, 18.3282775 ], [ 75.6824776, 18.3256698 ], [ 75.6816383, 18.3239779 ], [ 75.6824687, 18.3239434 ], [ 75.6965418, 18.3271261 ], [ 75.6955759, 18.3287753 ], [ 75.6971084, 18.3314733 ], [ 75.7052078, 18.3388894 ], [ 75.7180423, 18.3373368 ], [ 75.7189463, 18.3468434 ], [ 75.72142, 18.3518669 ], [ 75.7282005, 18.3572648 ], [ 75.7295083, 18.3614903 ], [ 75.7239327, 18.379671 ], [ 75.7251802, 18.3868116 ], [ 75.7205003, 18.3888948 ], [ 75.7153587, 18.3889293 ], [ 75.710781, 18.390328 ], [ 75.7122521, 18.3907538 ], [ 75.7077247, 18.392708 ], [ 75.7064444, 18.3962939 ], [ 75.7156632, 18.4117485 ], [ 75.7236513, 18.4335421 ], [ 75.7274723, 18.4325064 ], [ 75.7326964, 18.4332264 ], [ 75.7361919, 18.4351639 ], [ 75.7409562, 18.4339033 ], [ 75.7503877, 18.435469 ], [ 75.7578377, 18.439682 ], [ 75.7591019, 18.4441912 ], [ 75.7629952, 18.4502273 ], [ 75.7679914, 18.4509926 ], [ 75.7674494, 18.4467014 ], [ 75.7624065, 18.4404927 ], [ 75.7641938, 18.4381421 ], [ 75.764183, 18.4329185 ], [ 75.7672449, 18.4319298 ], [ 75.77078, 18.4085944 ], [ 75.7729398, 18.4050368 ], [ 75.7763629, 18.4048339 ], [ 75.7771034, 18.4032464 ], [ 75.7830282, 18.4003867 ], [ 75.7813424, 18.3996384 ], [ 75.7801513, 18.3960019 ], [ 75.7892915, 18.3903039 ], [ 75.7956401, 18.3884023 ], [ 75.7948762, 18.3841331 ], [ 75.7972869, 18.3804644 ], [ 75.8109216, 18.3806303 ], [ 75.8181555, 18.378284 ], [ 75.8238198, 18.3795237 ], [ 75.826215, 18.3773813 ], [ 75.8266237, 18.3752854 ], [ 75.8352214, 18.3692929 ], [ 75.8401962, 18.3640714 ], [ 75.8497933, 18.3610791 ], [ 75.8568191, 18.3623787 ], [ 75.8583166, 18.3588566 ], [ 75.8649274, 18.3629029 ], [ 75.8786446, 18.3652941 ], [ 75.8879306, 18.363316 ], [ 75.8896459, 18.3609878 ], [ 75.895211, 18.3586562 ], [ 75.9021961, 18.339026 ], [ 75.903337, 18.3276618 ], [ 75.905614, 18.3271043 ], [ 75.9200754, 18.3122547 ], [ 75.9243209, 18.3034344 ], [ 75.9230366, 18.2998091 ], [ 75.925172, 18.2941932 ], [ 75.9264465, 18.2835388 ], [ 75.9281746, 18.2788103 ], [ 75.9301734, 18.278622 ], [ 75.9277211, 18.2649508 ], [ 75.9287502, 18.258774 ], [ 75.9351954, 18.2525769 ], [ 75.942059, 18.248904 ], [ 75.9434052, 18.2441154 ], [ 75.9433654, 18.2389265 ], [ 75.9410796, 18.2391456 ], [ 75.9337202, 18.223923 ], [ 75.9326329, 18.2180515 ], [ 75.923431, 18.1933633 ], [ 75.9338789, 18.1910478 ], [ 75.9340577, 18.1839536 ], [ 75.9379182, 18.1833858 ], [ 75.938208, 18.1803897 ], [ 75.9417864, 18.1801417 ], [ 75.950799, 18.1728192 ], [ 75.9571225, 18.1608905 ], [ 75.9552902, 18.1524572 ], [ 75.9498556, 18.1392792 ], [ 75.9472601, 18.1357797 ], [ 75.9450171, 18.1362963 ], [ 75.9435229, 18.1290688 ], [ 75.9378848, 18.1265681 ], [ 75.9410693, 18.1260184 ], [ 75.9440695, 18.1197626 ], [ 75.945548, 18.1103556 ], [ 75.9449713, 18.1071271 ], [ 75.9461728, 18.1041922 ], [ 75.9553239, 18.1003854 ], [ 75.9557248, 18.0858086 ], [ 75.9866597, 18.088337 ], [ 75.9902556, 18.069099 ], [ 75.9941776, 18.0693096 ], [ 75.9933769, 18.0652704 ], [ 75.987604, 18.059613 ], [ 75.9844397, 18.0537925 ], [ 75.9896835, 18.0521517 ], [ 75.999741, 18.056753 ], [ 76.0026282, 18.0568799 ], [ 76.0054162, 18.0511044 ], [ 76.0138298, 18.0530649 ], [ 76.0153043, 18.0473159 ], [ 76.0187243, 18.042159 ], [ 76.0065888, 18.0323699 ], [ 76.0040762, 18.0286316 ], [ 75.9958482, 17.9997938 ], [ 75.9963872, 17.9950271 ], [ 75.9832949, 17.9935559 ], [ 75.9797144, 17.9724463 ], [ 75.9768083, 17.9726484 ], [ 75.9739873, 17.9711131 ], [ 75.9689519, 17.9716817 ], [ 75.9641595, 17.9747702 ], [ 75.9522603, 17.978971 ], [ 75.9301688, 17.9738054 ], [ 75.9243614, 17.9738782 ], [ 75.91781, 17.9757802 ], [ 75.9145877, 17.9775242 ], [ 75.9145483, 17.9794004 ], [ 75.9103302, 17.9851233 ], [ 75.910482, 17.9874489 ], [ 75.9086862, 17.988136 ], [ 75.9103493, 17.9993737 ], [ 75.9085632, 18.0032749 ], [ 75.9071052, 18.0015169 ], [ 75.8939288, 18.0052808 ], [ 75.8889951, 18.0031348 ], [ 75.8840318, 18.0040007 ], [ 75.8755251, 18.0076855 ], [ 75.8720112, 18.0109194 ], [ 75.8680754, 18.0115745 ], [ 75.8559048, 18.0111188 ], [ 75.8531157, 18.0093461 ], [ 75.8439998, 17.9941992 ], [ 75.8426273, 17.9875272 ], [ 75.8396022, 17.9812583 ], [ 75.8447532, 17.9806855 ], [ 75.8448563, 17.9746439 ], [ 75.8422858, 17.9671739 ], [ 75.8392292, 17.963361 ], [ 75.8370993, 17.9485081 ], [ 75.8380858, 17.9323635 ], [ 75.8462796, 17.9314519 ], [ 75.8491931, 17.9279828 ], [ 75.8512567, 17.922115 ], [ 75.8497614, 17.9137303 ], [ 75.8459456, 17.9030617 ], [ 75.8421872, 17.9027106 ], [ 75.8447205, 17.8915746 ], [ 75.852169, 17.8802381 ], [ 75.8561377, 17.8686638 ], [ 75.8639926, 17.8664804 ], [ 75.8724476, 17.8565038 ], [ 75.8750145, 17.8464251 ], [ 75.8812197, 17.8466243 ], [ 75.8892354, 17.8447243 ], [ 75.8980391, 17.8405704 ], [ 75.9036407, 17.8360912 ], [ 75.9109163, 17.8345103 ], [ 75.9109845, 17.8327983 ], [ 75.9247412, 17.8331467 ], [ 75.9318102, 17.8517661 ], [ 75.9393271, 17.8524362 ], [ 75.9410868, 17.8520167 ], [ 75.9430281, 17.8441888 ], [ 75.9466131, 17.843778 ], [ 75.9621806, 17.8311349 ], [ 75.9659818, 17.8181564 ], [ 75.9774397, 17.8201116 ], [ 75.9772856, 17.8273274 ], [ 75.9743169, 17.8347448 ], [ 75.9748759, 17.8414311 ], [ 75.9805759, 17.8437458 ], [ 75.9958189, 17.8384522 ], [ 76.0082366, 17.8301838 ], [ 76.0195606, 17.8283747 ], [ 76.0175197, 17.8267581 ], [ 76.015757, 17.8222064 ], [ 76.014019, 17.8119686 ], [ 76.0078061, 17.8007852 ], [ 76.0112582, 17.7876941 ], [ 76.0048997, 17.7861291 ], [ 76.0032378, 17.7680208 ], [ 76.0011084, 17.7584283 ], [ 75.9994883, 17.7562547 ], [ 76.0017251, 17.7551057 ], [ 76.0026523, 17.7503473 ], [ 76.0070803, 17.7508908 ], [ 76.0139658, 17.754495 ], [ 76.0295427, 17.7656116 ], [ 76.0488055, 17.7650335 ], [ 76.0535079, 17.7635099 ], [ 76.0593544, 17.7694441 ], [ 76.069592, 17.7712689 ], [ 76.0756086, 17.7734176 ], [ 76.0776774, 17.7754857 ], [ 76.0833306, 17.775669 ], [ 76.0847335, 17.7777642 ], [ 76.097242, 17.7774672 ], [ 76.1026555, 17.7650404 ], [ 76.1133399, 17.7653003 ], [ 76.1133137, 17.767874 ], [ 76.1293257, 17.7677446 ], [ 76.1298857, 17.7607729 ], [ 76.1334477, 17.7558463 ], [ 76.1440667, 17.756139 ], [ 76.1474012, 17.7341263 ], [ 76.1704054, 17.7323296 ], [ 76.1751707, 17.7297063 ], [ 76.1693684, 17.7169627 ], [ 76.1652755, 17.7144105 ], [ 76.1496945, 17.7186817 ], [ 76.147106, 17.7164822 ], [ 76.1444525, 17.7120293 ], [ 76.1466902, 17.7030953 ], [ 76.1458934, 17.6998127 ], [ 76.1656649, 17.7003099 ], [ 76.164701, 17.6937746 ], [ 76.1690131, 17.6934501 ], [ 76.1802822, 17.6863011 ], [ 76.1879603, 17.6832114 ], [ 76.2045401, 17.6892126 ], [ 76.2219293, 17.6876508 ], [ 76.222648, 17.6991082 ], [ 76.2401455, 17.6973718 ], [ 76.2384761, 17.7059353 ], [ 76.2501198, 17.7052408 ], [ 76.2507521, 17.7116401 ], [ 76.2535066, 17.7140961 ], [ 76.2544242, 17.7169772 ], [ 76.2630376, 17.722755 ], [ 76.2636636, 17.7263288 ], [ 76.2665318, 17.7268249 ], [ 76.2678857, 17.7295437 ], [ 76.2758169, 17.7289778 ], [ 76.2802108, 17.7267201 ], [ 76.2842065, 17.7296763 ], [ 76.2876728, 17.7283325 ], [ 76.2946301, 17.7297893 ], [ 76.3032006, 17.7223562 ], [ 76.3027039, 17.7207257 ], [ 76.3152818, 17.7149006 ], [ 76.3163598, 17.6981203 ], [ 76.3202591, 17.69711 ], [ 76.3203764, 17.6959675 ], [ 76.3363296, 17.6941213 ], [ 76.3385634, 17.6927466 ], [ 76.3453823, 17.6965926 ], [ 76.3535595, 17.6963298 ], [ 76.3562542, 17.6978521 ], [ 76.3598057, 17.6894149 ], [ 76.3631944, 17.6866065 ], [ 76.3715702, 17.6846035 ], [ 76.3785155, 17.6866648 ], [ 76.3803584, 17.6640378 ], [ 76.3797775, 17.6616747 ], [ 76.378231, 17.6608136 ], [ 76.4034916, 17.6570375 ], [ 76.4128025, 17.6477417 ], [ 76.4291316, 17.6445563 ], [ 76.4283809, 17.640155 ], [ 76.4272408, 17.6395854 ], [ 76.4284918, 17.6337939 ], [ 76.4267895, 17.6258147 ], [ 76.4192881, 17.6062308 ], [ 76.4196849, 17.6037101 ], [ 76.3930537, 17.6031459 ], [ 76.3918633, 17.6006467 ], [ 76.3817006, 17.6022493 ], [ 76.377638, 17.5978733 ], [ 76.3500305, 17.5940996 ], [ 76.3367431, 17.5973012 ], [ 76.3315623, 17.5959775 ], [ 76.3312865, 17.5974186 ], [ 76.3311148, 17.5962188 ], [ 76.333127, 17.5649868 ], [ 76.3350297, 17.5651806 ], [ 76.3385321, 17.5568038 ], [ 76.3406781, 17.5479731 ], [ 76.3406925, 17.5424746 ], [ 76.3487525, 17.5394268 ], [ 76.3627404, 17.5373726 ], [ 76.3671576, 17.5198956 ], [ 76.366073, 17.5156751 ], [ 76.3645997, 17.5149692 ], [ 76.3465719, 17.5125794 ], [ 76.343329, 17.5006561 ], [ 76.3457646, 17.4925298 ], [ 76.3623059, 17.495917 ], [ 76.3746884, 17.4956497 ], [ 76.3755161, 17.4902199 ], [ 76.3682441, 17.4832012 ], [ 76.3503613, 17.474175 ], [ 76.3332134, 17.4717622 ], [ 76.3306873, 17.4701936 ], [ 76.3310345, 17.4559912 ], [ 76.3334309, 17.4554828 ], [ 76.3332625, 17.433901 ], [ 76.3534836, 17.437301 ], [ 76.3715104, 17.4364236 ], [ 76.3700042, 17.4169372 ], [ 76.3710702, 17.4134321 ], [ 76.3693661, 17.4012508 ], [ 76.3684727, 17.4013851 ], [ 76.3658582, 17.3914718 ], [ 76.3634265, 17.3776681 ], [ 76.3829785, 17.3739671 ], [ 76.4091205, 17.3713878 ], [ 76.4121887, 17.3510677 ], [ 76.4031596, 17.3499717 ], [ 76.3966078, 17.3471039 ], [ 76.3850993, 17.3237612 ], [ 76.3831599, 17.3145257 ], [ 76.3540117, 17.3143165 ], [ 76.3542858, 17.324401 ], [ 76.3470251, 17.344198 ], [ 76.3452992, 17.3544481 ], [ 76.3380309, 17.3541125 ], [ 76.3292035, 17.3508069 ], [ 76.3143441, 17.3483898 ], [ 76.3120282, 17.3460143 ], [ 76.3188572, 17.3381415 ], [ 76.3176634, 17.3323757 ], [ 76.2763604, 17.3345742 ], [ 76.2720091, 17.3605919 ], [ 76.2700408, 17.3605104 ], [ 76.2670211, 17.3634751 ], [ 76.2650427, 17.3617063 ], [ 76.2507275, 17.3604328 ], [ 76.2490536, 17.3665887 ], [ 76.250428, 17.3696808 ], [ 76.2445817, 17.3715393 ], [ 76.2439834, 17.3787853 ], [ 76.2420871, 17.3788371 ], [ 76.2285304, 17.3758436 ], [ 76.2292843, 17.3652061 ], [ 76.2123576, 17.3619872 ], [ 76.196392, 17.3636667 ], [ 76.180424, 17.3583873 ], [ 76.1703147, 17.3526242 ], [ 76.1731844, 17.3342052 ], [ 76.177259, 17.3229851 ], [ 76.1792563, 17.3185744 ], [ 76.1832482, 17.3194347 ], [ 76.1832697, 17.3151292 ], [ 76.1818697, 17.3141963 ], [ 76.1810696, 17.3090537 ], [ 76.176315, 17.3007875 ], [ 76.1650794, 17.303335 ], [ 76.1626178, 17.3452201 ], [ 76.1395725, 17.354405 ], [ 76.133002, 17.358319 ], [ 76.1189533, 17.3705043 ], [ 76.1092599, 17.3664531 ], [ 76.0997398, 17.3646507 ], [ 76.0893787, 17.353133 ], [ 76.0931489, 17.3492141 ], [ 76.088119, 17.3421657 ], [ 76.0874966, 17.3365082 ], [ 76.07913, 17.3316024 ], [ 76.0734034, 17.3365102 ], [ 76.0721361, 17.3353147 ], [ 76.0646331, 17.3512146 ], [ 76.0605352, 17.3553077 ], [ 76.0527744, 17.3557936 ], [ 76.0377506, 17.3518813 ], [ 76.0285318, 17.3511369 ], [ 76.0143324, 17.3535333 ], [ 76.0101908, 17.3523847 ], [ 75.9982723, 17.3379682 ], [ 75.9839034, 17.3362167 ], [ 75.9687071, 17.3364679 ], [ 75.9485738, 17.3297291 ], [ 75.933945, 17.3227401 ], [ 75.9308194, 17.3225728 ], [ 75.9250972, 17.3257462 ], [ 75.9100775, 17.3445187 ], [ 75.9067794, 17.3467907 ], [ 75.8945023, 17.3508305 ], [ 75.8905819, 17.3565223 ], [ 75.8901785, 17.3611736 ], [ 75.8952368, 17.3781789 ], [ 75.8940641, 17.4011958 ], [ 75.8918977, 17.4075521 ], [ 75.8841884, 17.4179596 ], [ 75.8784773, 17.4181274 ], [ 75.8765061, 17.4161434 ], [ 75.8745225, 17.4123622 ], [ 75.8752029, 17.398086 ], [ 75.8608781, 17.385595 ], [ 75.8583351, 17.3865284 ], [ 75.8564136, 17.3894318 ], [ 75.854057, 17.4044931 ], [ 75.8510841, 17.4105253 ], [ 75.8302628, 17.4218117 ], [ 75.8214407, 17.4212226 ], [ 75.8189777, 17.4180971 ], [ 75.818321, 17.4066173 ], [ 75.8135752, 17.3957202 ], [ 75.8151022, 17.378471 ], [ 75.8136601, 17.37276 ], [ 75.8104902, 17.3696533 ], [ 75.8060841, 17.3680221 ], [ 75.7929405, 17.3696974 ], [ 75.7802804, 17.3756372 ], [ 75.7720346, 17.3857447 ], [ 75.7690517, 17.3937613 ], [ 75.7679037, 17.4023543 ], [ 75.7658676, 17.4053042 ], [ 75.7629261, 17.4065978 ], [ 75.7530927, 17.4071327 ], [ 75.7335948, 17.420093 ], [ 75.7280717, 17.4194186 ], [ 75.7199803, 17.411518 ], [ 75.7124407, 17.4079339 ], [ 75.7044992, 17.4074761 ], [ 75.6907294, 17.4094736 ], [ 75.683496, 17.4169238 ], [ 75.6780945, 17.4340558 ], [ 75.6784981, 17.4510887 ], [ 75.6758759, 17.4559431 ], [ 75.6689537, 17.4585947 ], [ 75.6588376, 17.4580579 ], [ 75.6487895, 17.4703271 ], [ 75.6329797, 17.4772144 ], [ 75.6282336, 17.4671718 ], [ 75.6274384, 17.4625008 ], [ 75.6216124, 17.4592462 ], [ 75.6205858, 17.4524863 ], [ 75.6154066, 17.4386134 ], [ 75.6133532, 17.4247419 ], [ 75.6095768, 17.4237366 ], [ 75.6066011, 17.4203724 ], [ 75.6120804, 17.4074004 ], [ 75.6135163, 17.3919151 ], [ 75.6061228, 17.3944785 ], [ 75.6010751, 17.3903071 ], [ 75.5936046, 17.3873016 ], [ 75.5741668, 17.3832555 ], [ 75.5771776, 17.3759071 ], [ 75.5808454, 17.351223 ], [ 75.5862883, 17.35059 ], [ 75.5951365, 17.3462133 ], [ 75.6100252, 17.3450403 ], [ 75.6105689, 17.3368742 ], [ 75.6123092, 17.3364513 ], [ 75.6120806, 17.3254209 ], [ 75.603453, 17.3046685 ], [ 75.5930043, 17.303289 ], [ 75.5795921, 17.2927271 ], [ 75.5658925, 17.2870338 ], [ 75.5555856, 17.2807194 ], [ 75.5475289, 17.2795412 ], [ 75.5423675, 17.2769349 ], [ 75.5365183, 17.2685093 ], [ 75.5311876, 17.2643016 ], [ 75.5319974, 17.2610196 ], [ 75.5251981, 17.2568297 ], [ 75.5189075, 17.2483123 ], [ 75.5149933, 17.2403325 ], [ 75.5042675, 17.2395764 ], [ 75.4672099, 17.2444342 ], [ 75.4657912, 17.2518427 ], [ 75.4540373, 17.2524829 ], [ 75.444825, 17.2547532 ], [ 75.4349083, 17.2643728 ], [ 75.4284539, 17.2679408 ], [ 75.4209115, 17.2658839 ], [ 75.4083308, 17.239342 ], [ 75.4095743, 17.2297468 ], [ 75.4022281, 17.2115107 ], [ 75.4088497, 17.1908038 ], [ 75.4063154, 17.1906215 ], [ 75.4067588, 17.1847242 ], [ 75.3977411, 17.1866302 ], [ 75.3890888, 17.1906491 ], [ 75.3749141, 17.1917243 ], [ 75.3699501, 17.1905026 ], [ 75.3705514, 17.2171866 ], [ 75.3656493, 17.2361938 ], [ 75.3510946, 17.2375719 ], [ 75.3442741, 17.236701 ], [ 75.3347782, 17.2395508 ], [ 75.330244, 17.2181031 ], [ 75.3170151, 17.2204184 ], [ 75.2871816, 17.2156576 ], [ 75.2827684, 17.207006 ], [ 75.2828286, 17.1958752 ], [ 75.2865952, 17.1904069 ], [ 75.2925021, 17.1859909 ], [ 75.2933692, 17.1835225 ], [ 75.2970149, 17.1821632 ], [ 75.2984148, 17.1791604 ], [ 75.299885, 17.1786975 ], [ 75.3045096, 17.1693786 ], [ 75.3021015, 17.1656667 ], [ 75.3006237, 17.1559029 ], [ 75.2962253, 17.1459809 ], [ 75.2905661, 17.1457327 ], [ 75.2820773, 17.1485003 ], [ 75.2702742, 17.1483752 ], [ 75.2689311, 17.1671671 ], [ 75.2699495, 17.1795734 ], [ 75.2663227, 17.1790936 ], [ 75.2682506, 17.1833371 ], [ 75.2586843, 17.1830479 ], [ 75.2470845, 17.1787358 ], [ 75.2353875, 17.1787493 ], [ 75.231966, 17.1798808 ], [ 75.230026, 17.1789583 ], [ 75.2289917, 17.1811548 ], [ 75.222237, 17.1836461 ], [ 75.216297, 17.1953459 ], [ 75.2168438, 17.2046729 ], [ 75.2201481, 17.2088805 ], [ 75.2276266, 17.213602 ], [ 75.2319113, 17.2128168 ], [ 75.2384389, 17.2156934 ], [ 75.2401863, 17.2182336 ], [ 75.2387764, 17.2262932 ], [ 75.2399597, 17.2288127 ], [ 75.2393492, 17.239837 ], [ 75.2472945, 17.2554592 ], [ 75.2470187, 17.2564811 ], [ 75.2446829, 17.256394 ], [ 75.2252701, 17.254358 ], [ 75.2219044, 17.256689 ], [ 75.2195634, 17.256734 ], [ 75.2149023, 17.2609123 ], [ 75.2038437, 17.2640359 ], [ 75.204506, 17.2703637 ], [ 75.1936461, 17.268209 ], [ 75.1941896, 17.2654457 ], [ 75.1920008, 17.2638971 ], [ 75.1921174, 17.2583565 ], [ 75.1891034, 17.2548147 ], [ 75.189974, 17.2509652 ], [ 75.1824036, 17.2420595 ], [ 75.1797321, 17.2356989 ], [ 75.176571, 17.240155 ], [ 75.1641668, 17.240106 ], [ 75.1429776, 17.2440139 ], [ 75.1337261, 17.2406387 ], [ 75.1283843, 17.2434139 ], [ 75.1247644, 17.2434448 ], [ 75.1218279, 17.2420838 ], [ 75.1163719, 17.2420706 ], [ 75.1141871, 17.239662 ], [ 75.1127663, 17.2428696 ], [ 75.1114884, 17.2430397 ], [ 75.1114688, 17.2417911 ], [ 75.1056173, 17.2437041 ], [ 75.1029633, 17.2426916 ], [ 75.0991846, 17.2440513 ], [ 75.0985511, 17.2458105 ], [ 75.1000243, 17.2471324 ], [ 75.096734, 17.2491643 ], [ 75.094809, 17.2481402 ], [ 75.0951599, 17.2500538 ], [ 75.0936287, 17.2500263 ], [ 75.0937807, 17.2516091 ], [ 75.0873861, 17.2507608 ], [ 75.0864444, 17.2487515 ], [ 75.0795969, 17.2476001 ], [ 75.0763623, 17.2409547 ], [ 75.0751379, 17.2339677 ], [ 75.0787712, 17.2252128 ], [ 75.0777056, 17.2215919 ], [ 75.0545919, 17.2245779 ], [ 75.0347357, 17.2237157 ], [ 75.0162053, 17.2246814 ], [ 75.0088103, 17.209281 ], [ 74.9888502, 17.2041289 ], [ 74.9851387, 17.204861 ], [ 74.9818925, 17.2015623 ], [ 74.9817002, 17.1977175 ], [ 74.9793064, 17.1955174 ], [ 74.9792234, 17.1938988 ], [ 74.976715, 17.1928637 ], [ 74.9640187, 17.1951299 ], [ 74.9649627, 17.1980365 ], [ 74.9590745, 17.1988091 ], [ 74.9582923, 17.2013613 ], [ 74.9562699, 17.1991359 ], [ 74.9535123, 17.1988096 ], [ 74.9523815, 17.202871 ], [ 74.9478882, 17.2019885 ], [ 74.9436297, 17.2046996 ], [ 74.9475495, 17.2012305 ], [ 74.9472727, 17.1970051 ], [ 74.9418755, 17.1988142 ], [ 74.9395645, 17.1958873 ], [ 74.9410893, 17.1943236 ], [ 74.9396656, 17.1922861 ], [ 74.9419404, 17.1912648 ], [ 74.9439033, 17.1944092 ], [ 74.9459581, 17.1892985 ], [ 74.9495852, 17.1929308 ], [ 74.9498343, 17.1895166 ], [ 74.9519055, 17.1858042 ], [ 74.9464732, 17.1849705 ], [ 74.9500131, 17.1738802 ], [ 74.9435363, 17.1715226 ], [ 74.940977, 17.1690488 ], [ 74.934789, 17.1700113 ], [ 74.929592, 17.1675455 ], [ 74.9233105, 17.1676568 ], [ 74.920925, 17.1659054 ], [ 74.9192201, 17.1673187 ], [ 74.918607, 17.1736906 ], [ 74.9114486, 17.1729191 ], [ 74.9114269, 17.1741011 ], [ 74.9089671, 17.1751507 ], [ 74.9055337, 17.1749819 ], [ 74.9050943, 17.177492 ], [ 74.903265, 17.1760238 ], [ 74.9003892, 17.1768173 ], [ 74.8978575, 17.1809466 ], [ 74.9002701, 17.1825051 ], [ 74.8994342, 17.183962 ], [ 74.8954948, 17.1785303 ], [ 74.8955871, 17.1763714 ], [ 74.8919476, 17.1804134 ], [ 74.8865339, 17.1812619 ], [ 74.8935507, 17.1832952 ], [ 74.8938978, 17.1846021 ], [ 74.8860379, 17.1897926 ], [ 74.8897378, 17.1916404 ], [ 74.8947605, 17.1911479 ], [ 74.8945446, 17.1952683 ], [ 74.8929883, 17.1944582 ], [ 74.8887765, 17.1964814 ], [ 74.8857399, 17.1958017 ], [ 74.879969, 17.1886881 ], [ 74.8764994, 17.191026 ], [ 74.8778178, 17.1920562 ], [ 74.8767164, 17.1941213 ], [ 74.8745936, 17.1944977 ], [ 74.8712702, 17.19017 ], [ 74.8701523, 17.1947207 ], [ 74.8709791, 17.1978872 ], [ 74.8624921, 17.1964529 ], [ 74.8671733, 17.2028621 ], [ 74.8693934, 17.2024179 ], [ 74.8710658, 17.2088705 ], [ 74.8688241, 17.2100883 ], [ 74.8675313, 17.2051389 ], [ 74.8650576, 17.2054897 ], [ 74.864798, 17.2079192 ], [ 74.8629658, 17.2070276 ], [ 74.8621822, 17.2082827 ], [ 74.8651915, 17.2104409 ], [ 74.8624563, 17.2112926 ], [ 74.8580966, 17.2047912 ], [ 74.8541162, 17.2028519 ], [ 74.85836, 17.2082608 ], [ 74.8592644, 17.211057 ], [ 74.8573548, 17.2116904 ], [ 74.8543079, 17.2076389 ], [ 74.8483302, 17.2037002 ], [ 74.8500689, 17.2076769 ], [ 74.8532969, 17.2088898 ], [ 74.8573443, 17.2154178 ], [ 74.8629215, 17.216836 ], [ 74.8637657, 17.218204 ], [ 74.8659578, 17.2163212 ], [ 74.8670776, 17.2176533 ], [ 74.8770571, 17.2121002 ], [ 74.8768258, 17.2143109 ], [ 74.8746723, 17.2157284 ], [ 74.8762939, 17.2176941 ], [ 74.8723328, 17.2198862 ], [ 74.8746877, 17.2217578 ], [ 74.8777798, 17.2219709 ], [ 74.8824292, 17.2182388 ], [ 74.8852248, 17.2208033 ], [ 74.8861601, 17.2234989 ], [ 74.885546, 17.2351632 ], [ 74.8915934, 17.2348354 ], [ 74.8944695, 17.2366104 ], [ 74.8945478, 17.2382089 ], [ 74.8927256, 17.2397157 ], [ 74.8980644, 17.241526 ], [ 74.8995116, 17.2636725 ], [ 74.9090245, 17.2759735 ], [ 74.9105674, 17.277184 ], [ 74.9352446, 17.2755202 ], [ 74.9363774, 17.276159 ], [ 74.9366828, 17.2853893 ], [ 74.9597743, 17.293087 ], [ 74.9704384, 17.3269176 ], [ 74.9674886, 17.3307767 ], [ 74.9667368, 17.3388659 ], [ 74.9679748, 17.3414201 ], [ 74.9833587, 17.3554921 ], [ 75.0083196, 17.3682051 ], [ 75.0065017, 17.3723978 ], [ 75.0062002, 17.3784769 ], [ 75.0014589, 17.3891792 ], [ 74.9979187, 17.3926263 ], [ 74.9944279, 17.3926227 ], [ 74.998329, 17.4043887 ], [ 74.9977695, 17.4066393 ], [ 75.0003626, 17.408822 ], [ 75.0031093, 17.4087702 ], [ 75.0047443, 17.413477 ], [ 75.0079776, 17.4116849 ], [ 75.0225228, 17.4086364 ], [ 75.0257458, 17.4120976 ], [ 75.0351419, 17.4180834 ], [ 75.0325867, 17.4449461 ], [ 75.0351528, 17.4523818 ], [ 75.0387949, 17.4577288 ], [ 75.0416037, 17.4684164 ], [ 75.0390454, 17.4865829 ], [ 75.035795, 17.492044 ], [ 75.0317336, 17.4956855 ], [ 75.0271197, 17.4952592 ], [ 75.0181872, 17.4888685 ], [ 75.0093779, 17.4856297 ], [ 75.0092429, 17.4842453 ], [ 75.0065568, 17.4827361 ], [ 74.9900701, 17.4756911 ], [ 74.9802583, 17.4657884 ], [ 74.9734044, 17.4661308 ], [ 74.9686881, 17.4713676 ], [ 74.9695578, 17.4756042 ], [ 74.9666428, 17.4787557 ], [ 74.965698, 17.4847875 ], [ 74.9625279, 17.4873914 ], [ 74.9605774, 17.4919984 ], [ 74.9584245, 17.4941329 ], [ 74.9478538, 17.498436 ], [ 74.9442491, 17.5025597 ], [ 74.9447325, 17.5050105 ], [ 74.943092, 17.5073994 ], [ 74.9370898, 17.5093014 ], [ 74.9403222, 17.5186745 ], [ 74.9431497, 17.5218891 ], [ 74.948555, 17.5206805 ], [ 74.9589688, 17.52233 ], [ 74.9698116, 17.5314056 ], [ 74.9818091, 17.5384614 ], [ 74.9836739, 17.5382691 ], [ 74.9851208, 17.5448934 ], [ 74.9743019, 17.5513466 ], [ 74.9624686, 17.5620745 ], [ 74.9607632, 17.5689482 ], [ 74.9630065, 17.577473 ], [ 74.9618606, 17.591464 ], [ 74.9596897, 17.5919572 ], [ 74.956795, 17.5894399 ], [ 74.9545286, 17.5898647 ], [ 74.9530776, 17.5878455 ], [ 74.9506233, 17.5880968 ], [ 74.9476817, 17.5904623 ], [ 74.9443717, 17.5906431 ], [ 74.934612, 17.5836527 ], [ 74.9204761, 17.5767973 ], [ 74.91544, 17.5800348 ], [ 74.9148998, 17.593096 ], [ 74.9170901, 17.595435 ], [ 74.9174467, 17.5982015 ], [ 74.9151946, 17.5994762 ], [ 74.9149223, 17.6014558 ], [ 74.9166906, 17.6021482 ], [ 74.9162458, 17.6047501 ], [ 74.9187446, 17.6125135 ], [ 74.9228599, 17.6188195 ], [ 74.9191291, 17.6184732 ], [ 74.9165773, 17.6218125 ], [ 74.9100907, 17.6204142 ], [ 74.9083797, 17.6219437 ], [ 74.9090352, 17.6298517 ], [ 74.9053223, 17.6300139 ], [ 74.9031625, 17.6325222 ], [ 74.9027665, 17.6364972 ], [ 74.8991059, 17.6403006 ], [ 74.8986075, 17.6487986 ], [ 74.8932067, 17.6549029 ], [ 74.8934349, 17.6573093 ], [ 74.8910018, 17.6590382 ], [ 74.8919414, 17.6613528 ], [ 74.8871364, 17.6695978 ], [ 74.8877341, 17.6725545 ], [ 74.8849927, 17.6784412 ], [ 74.8857389, 17.6827049 ], [ 74.883511, 17.6847997 ], [ 74.8809512, 17.6811633 ], [ 74.8742519, 17.6817258 ], [ 74.8706874, 17.6919393 ], [ 74.8671422, 17.6918402 ], [ 74.8641014, 17.6941972 ], [ 74.8653421, 17.6984515 ], [ 74.864604, 17.7050928 ], [ 74.8686184, 17.7119185 ], [ 74.8678377, 17.7165364 ], [ 74.8710031, 17.7194273 ], [ 74.8722087, 17.7245993 ], [ 74.8718375, 17.7270224 ], [ 74.8681191, 17.7284885 ], [ 74.867512, 17.73106 ], [ 74.8634576, 17.7292505 ], [ 74.8596086, 17.7310525 ], [ 74.8570036, 17.7278343 ], [ 74.8554972, 17.7292787 ], [ 74.8552248, 17.7271583 ], [ 74.8502102, 17.7246088 ], [ 74.8487432, 17.7248967 ], [ 74.8495856, 17.7278972 ], [ 74.8470276, 17.7316386 ], [ 74.8445288, 17.7302102 ], [ 74.8439422, 17.7316463 ], [ 74.8401068, 17.7274314 ], [ 74.8385241, 17.7272046 ], [ 74.8260539, 17.7380602 ], [ 74.8266582, 17.7398427 ], [ 74.8230708, 17.741903 ], [ 74.8235898, 17.744295 ], [ 74.8220199, 17.7467277 ], [ 74.820066, 17.7473241 ], [ 74.8184951, 17.7505847 ], [ 74.8155263, 17.7513619 ], [ 74.8147236, 17.7535395 ], [ 74.8123149, 17.7529249 ], [ 74.8070828, 17.7550337 ], [ 74.7994445, 17.7615662 ], [ 74.7982751, 17.7601086 ], [ 74.7917573, 17.7620696 ], [ 74.7877703, 17.7607059 ], [ 74.7863892, 17.7613672 ], [ 74.7851954, 17.7643737 ], [ 74.7858115, 17.7672928 ], [ 74.7828152, 17.7691106 ], [ 74.7834433, 17.7713091 ], [ 74.7816202, 17.7714189 ], [ 74.7819352, 17.7740868 ], [ 74.7791696, 17.7764999 ], [ 74.7781429, 17.7742577 ], [ 74.7739231, 17.7742054 ], [ 74.7763887, 17.7727977 ], [ 74.7750029, 17.7720217 ], [ 74.7751082, 17.7704509 ], [ 74.771497, 17.7726531 ], [ 74.7722377, 17.7683488 ], [ 74.767549, 17.7694887 ], [ 74.7681042, 17.7665202 ], [ 74.7666274, 17.7659418 ], [ 74.7669108, 17.7626717 ], [ 74.7643238, 17.7610291 ], [ 74.7632301, 17.7618431 ], [ 74.7633031, 17.7652798 ], [ 74.7608766, 17.7641012 ], [ 74.762127, 17.762843 ], [ 74.7596019, 17.7625796 ], [ 74.7587018, 17.7653597 ], [ 74.7610547, 17.7661538 ], [ 74.7598398, 17.7677417 ], [ 74.760775, 17.7689488 ], [ 74.7582407, 17.7685187 ], [ 74.7585352, 17.7662023 ], [ 74.7567711, 17.7646628 ], [ 74.7577534, 17.7625032 ], [ 74.7568111, 17.7621095 ], [ 74.7546888, 17.763921 ], [ 74.7554573, 17.7695958 ], [ 74.7544174, 17.7701976 ], [ 74.7522343, 17.7680923 ], [ 74.7501235, 17.7678793 ], [ 74.7492075, 17.7655699 ], [ 74.7478112, 17.7663175 ], [ 74.748135, 17.7678493 ], [ 74.7451613, 17.7660178 ], [ 74.7450187, 17.7690554 ], [ 74.7403818, 17.7669677 ], [ 74.7391536, 17.7680548 ], [ 74.7376143, 17.7673818 ], [ 74.741904, 17.7713578 ], [ 74.743673, 17.7712489 ], [ 74.7434129, 17.7732314 ], [ 74.7406678, 17.7754283 ], [ 74.7452218, 17.7743856 ], [ 74.7474575, 17.7716119 ], [ 74.751408, 17.7723956 ], [ 74.750803, 17.7744708 ], [ 74.7465143, 17.7782915 ], [ 74.7483153, 17.7797678 ], [ 74.7459136, 17.7841294 ], [ 74.7488121, 17.7838433 ], [ 74.7507057, 17.7863665 ], [ 74.7501129, 17.7811431 ], [ 74.7520398, 17.7802872 ], [ 74.7515174, 17.7783199 ], [ 74.7535237, 17.7776282 ], [ 74.7561369, 17.7742254 ], [ 74.7559175, 17.7809516 ], [ 74.7529823, 17.7870906 ], [ 74.7487962, 17.7898708 ], [ 74.7483872, 17.7915509 ], [ 74.7466341, 17.7901256 ], [ 74.7447242, 17.7912193 ], [ 74.7409358, 17.7889148 ], [ 74.7393968, 17.7903572 ], [ 74.735425, 17.7907657 ], [ 74.7354074, 17.7929793 ], [ 74.733582, 17.795023 ], [ 74.7327344, 17.7935246 ], [ 74.7307693, 17.794471 ], [ 74.7284087, 17.7924742 ], [ 74.7271582, 17.7941834 ], [ 74.7280654, 17.7964202 ], [ 74.7258, 17.7977718 ], [ 74.7268136, 17.7936157 ], [ 74.7239764, 17.7944832 ], [ 74.7248929, 17.7926401 ], [ 74.7229386, 17.7925702 ], [ 74.7238214, 17.791103 ], [ 74.72136, 17.79057 ], [ 74.7194169, 17.7922872 ], [ 74.7190597, 17.7910227 ], [ 74.7152228, 17.7898422 ], [ 74.7149544, 17.7868394 ], [ 74.713241, 17.789171 ], [ 74.7122839, 17.7888029 ], [ 74.7122203, 17.7919923 ], [ 74.7147676, 17.7929838 ], [ 74.7132825, 17.7962245 ], [ 74.7111047, 17.7935462 ], [ 74.7099174, 17.7939521 ], [ 74.7081868, 17.7888288 ], [ 74.7055546, 17.7889104 ], [ 74.7058353, 17.7922622 ], [ 74.7048273, 17.7900194 ], [ 74.7029853, 17.7910854 ], [ 74.6994051, 17.7901656 ], [ 74.7012429, 17.7931853 ], [ 74.7062135, 17.7954823 ], [ 74.7065782, 17.7966974 ], [ 74.699606, 17.7934415 ], [ 74.6993391, 17.7948779 ], [ 74.6969459, 17.7950279 ], [ 74.6941131, 17.7973312 ], [ 74.6966072, 17.7991497 ], [ 74.7022455, 17.7990283 ], [ 74.7010773, 17.800539 ], [ 74.6975003, 17.8003722 ], [ 74.6989141, 17.8030131 ], [ 74.7002074, 17.8029422 ], [ 74.6977676, 17.8041709 ], [ 74.7020152, 17.8068283 ], [ 74.7038722, 17.8105762 ], [ 74.6987397, 17.8065378 ], [ 74.6977317, 17.8071178 ], [ 74.6969726, 17.8047786 ], [ 74.6958494, 17.807479 ], [ 74.697599, 17.8098528 ], [ 74.6983638, 17.8137456 ], [ 74.6969382, 17.8120582 ], [ 74.6947148, 17.8120704 ], [ 74.6956461, 17.8077593 ], [ 74.6932165, 17.8056926 ], [ 74.6906819, 17.8070703 ], [ 74.6923142, 17.8094464 ], [ 74.688799, 17.8117252 ], [ 74.6888641, 17.8090146 ], [ 74.6879906, 17.8089379 ], [ 74.6845366, 17.8127668 ], [ 74.6900623, 17.8167415 ], [ 74.6837119, 17.8169637 ], [ 74.6841679, 17.8177975 ], [ 74.6824707, 17.8188328 ], [ 74.6852764, 17.8195398 ], [ 74.6857655, 17.8210568 ], [ 74.6897463, 17.8202346 ], [ 74.6879101, 17.8221691 ], [ 74.6897465, 17.8233748 ], [ 74.6947164, 17.8214189 ], [ 74.6921468, 17.8240439 ], [ 74.6881699, 17.8236017 ], [ 74.6868143, 17.8257832 ], [ 74.683505, 17.8268251 ], [ 74.6911222, 17.82824 ], [ 74.689733, 17.8303469 ], [ 74.6840289, 17.8289938 ], [ 74.6848298, 17.8325085 ], [ 74.6815762, 17.8319677 ], [ 74.6826639, 17.8348486 ], [ 74.6776206, 17.8351425 ], [ 74.6800247, 17.8378695 ], [ 74.6826768, 17.8379813 ], [ 74.6803079, 17.8410175 ], [ 74.6779096, 17.8404392 ], [ 74.6789302, 17.8498366 ], [ 74.672777, 17.8536005 ], [ 74.6729614, 17.8567921 ], [ 74.6666767, 17.8569875 ], [ 74.6642233, 17.8599553 ], [ 74.6654877, 17.8642232 ], [ 74.6627574, 17.8617958 ], [ 74.6535912, 17.863574 ], [ 74.6524885, 17.8621923 ], [ 74.652703, 17.8579375 ], [ 74.6474065, 17.8552587 ], [ 74.6485837, 17.8505108 ], [ 74.6435902, 17.8486429 ], [ 74.6446732, 17.848119 ], [ 74.6442911, 17.8464865 ], [ 74.6455679, 17.8463992 ], [ 74.6439958, 17.845735 ], [ 74.6452754, 17.8450677 ], [ 74.6487479, 17.84668 ], [ 74.6519621, 17.8443965 ], [ 74.6489976, 17.8441578 ], [ 74.6501095, 17.8429845 ], [ 74.6475123, 17.8431758 ], [ 74.6465699, 17.8419315 ], [ 74.6454351, 17.8430701 ], [ 74.6365195, 17.8411128 ], [ 74.6466281, 17.8404061 ], [ 74.6484945, 17.8387759 ], [ 74.6460414, 17.8372061 ], [ 74.6458367, 17.83864 ], [ 74.6437066, 17.8388157 ], [ 74.6429533, 17.8363777 ], [ 74.642304, 17.8377179 ], [ 74.6403326, 17.8379708 ], [ 74.640332, 17.8366653 ], [ 74.6360582, 17.8371459 ], [ 74.6379239, 17.8341774 ], [ 74.6393339, 17.8348393 ], [ 74.6431479, 17.8309712 ], [ 74.6402674, 17.8313451 ], [ 74.6361321, 17.8297217 ], [ 74.6362607, 17.8315505 ], [ 74.6340101, 17.8327757 ], [ 74.6327388, 17.837461 ], [ 74.6320944, 17.8361047 ], [ 74.6306345, 17.8362103 ], [ 74.6293136, 17.8400928 ], [ 74.6275117, 17.839372 ], [ 74.6291312, 17.83859 ], [ 74.6279731, 17.8374955 ], [ 74.630305, 17.835112 ], [ 74.6294497, 17.8339632 ], [ 74.6273305, 17.8344343 ], [ 74.6274631, 17.8315331 ], [ 74.62517, 17.8323378 ], [ 74.625654, 17.8355171 ], [ 74.6240316, 17.8374892 ], [ 74.6208451, 17.8352146 ], [ 74.6188743, 17.8291428 ], [ 74.6180529, 17.8310602 ], [ 74.6156362, 17.8308981 ], [ 74.6174483, 17.8344863 ], [ 74.6138234, 17.8324743 ], [ 74.6127019, 17.8332077 ], [ 74.6180238, 17.837109 ], [ 74.6152949, 17.8378826 ], [ 74.6166267, 17.8389377 ], [ 74.6154096, 17.8397047 ], [ 74.6207643, 17.8396304 ], [ 74.6193385, 17.8407606 ], [ 74.6204367, 17.8420283 ], [ 74.6183736, 17.8440002 ], [ 74.6211473, 17.8452043 ], [ 74.6173028, 17.8449163 ], [ 74.6173168, 17.8460684 ], [ 74.6142593, 17.843864 ], [ 74.6115438, 17.8457766 ], [ 74.6105352, 17.8432284 ], [ 74.6100005, 17.8454703 ], [ 74.607063, 17.8452365 ], [ 74.6089043, 17.8480471 ], [ 74.6080946, 17.8491455 ], [ 74.6095008, 17.8502758 ], [ 74.6089735, 17.8516357 ], [ 74.6122768, 17.8533346 ], [ 74.6107148, 17.8568816 ], [ 74.6085992, 17.8568257 ], [ 74.6085399, 17.8584281 ], [ 74.6114742, 17.8601233 ], [ 74.6119129, 17.8621848 ], [ 74.6190558, 17.8623724 ], [ 74.6261977, 17.8652818 ], [ 74.6286869, 17.8702869 ], [ 74.6316823, 17.8704514 ], [ 74.636072, 17.8735446 ], [ 74.6346492, 17.8810515 ], [ 74.6320113, 17.8849104 ], [ 74.633019, 17.8880298 ], [ 74.6322437, 17.8943879 ], [ 74.6350925, 17.8994607 ], [ 74.6350033, 17.901554 ], [ 74.6372964, 17.9009576 ], [ 74.6407316, 17.907646 ], [ 74.6407866, 17.911535 ], [ 74.6424549, 17.912271 ], [ 74.6427214, 17.9152445 ], [ 74.6468939, 17.9164889 ], [ 74.6490375, 17.9156572 ], [ 74.6531977, 17.9194369 ], [ 74.6521128, 17.9206939 ], [ 74.655667, 17.92638 ], [ 74.6555934, 17.9368979 ], [ 74.6588623, 17.9422657 ], [ 74.6673003, 17.9782044 ], [ 74.6674323, 17.9899341 ], [ 74.6660856, 17.9948163 ], [ 74.6641382, 17.9963796 ], [ 74.6650972, 17.9975462 ], [ 74.6639326, 17.997936 ], [ 74.6632737, 18.0008052 ], [ 74.6616949, 18.001173 ], [ 74.6623271, 18.003849 ], [ 74.6634535, 18.0054833 ], [ 74.670768, 18.0078365 ], [ 74.6868118, 18.020524 ], [ 74.6898004, 18.0198868 ], [ 74.6923691, 18.0214317 ], [ 74.6930894, 18.0237249 ], [ 74.6962564, 18.0230325 ], [ 74.7058456, 18.0274959 ], [ 74.7084146, 18.0271806 ], [ 74.7112383, 18.0292994 ], [ 74.7152459, 18.028346 ], [ 74.7241431, 18.0310903 ], [ 74.7327043, 18.0270509 ], [ 74.741887, 18.0267332 ], [ 74.743622, 18.0250089 ], [ 74.7453733, 18.0181982 ], [ 74.749418, 18.0161193 ], [ 74.7579078, 18.0218372 ], [ 74.7637304, 18.0236559 ], [ 74.7681023, 18.0233181 ], [ 74.7730834, 18.0175171 ], [ 74.7742032, 18.0107614 ], [ 74.7903144, 18.0084065 ], [ 74.7993354, 17.997881 ], [ 74.8026239, 17.9966641 ], [ 74.8124503, 18.0002863 ], [ 74.8117248, 18.0096723 ], [ 74.8160544, 18.0149943 ], [ 74.8188293, 18.015104 ], [ 74.8230601, 18.011717 ], [ 74.8277664, 18.0020906 ], [ 74.829202, 17.9958812 ], [ 74.8322369, 17.9931772 ], [ 74.836052, 17.992086 ], [ 74.8450753, 17.9965837 ], [ 74.8620873, 17.992538 ], [ 74.8627746, 17.9884706 ], [ 74.8590828, 17.9788996 ], [ 74.8585193, 17.9702468 ], [ 74.8503215, 17.963383 ], [ 74.8431179, 17.9525201 ], [ 74.8434055, 17.9486255 ], [ 74.8458763, 17.9458508 ], [ 74.8543474, 17.9463743 ], [ 74.8597616, 17.9507649 ], [ 74.865778, 17.9523963 ], [ 74.8686134, 17.9521754 ], [ 74.8712421, 17.9501226 ], [ 74.8735042, 17.9432169 ], [ 74.8836415, 17.9422996 ], [ 74.8937981, 17.9364983 ], [ 74.8966154, 17.9371093 ], [ 74.9029391, 17.943662 ], [ 74.9128757, 17.9454903 ], [ 74.9185865, 17.9450447 ], [ 74.9269462, 17.9412374 ], [ 74.9371045, 17.9415739 ], [ 74.9428347, 17.936718 ], [ 74.9427252, 17.9328395 ], [ 74.9401389, 17.9260777 ], [ 74.9412023, 17.9242618 ], [ 74.95257, 17.9233098 ], [ 74.9634989, 17.9173624 ], [ 74.9830455, 17.9179848 ], [ 75.0052971, 17.9126548 ], [ 75.0122595, 17.9095243 ], [ 75.018992, 17.9089901 ], [ 75.0199251, 17.9080081 ], [ 75.0201967, 17.8973402 ], [ 75.024033, 17.8950371 ], [ 75.0275867, 17.8958329 ], [ 75.0318671, 17.9012835 ], [ 75.0385969, 17.9061256 ], [ 75.0506498, 17.9035628 ], [ 75.0541052, 17.9050405 ], [ 75.0528436, 17.9095164 ], [ 75.0450069, 17.9190849 ], [ 75.046121, 17.923319 ], [ 75.0510013, 17.9272665 ], [ 75.0559378, 17.9280295 ], [ 75.0671714, 17.9187808 ], [ 75.0709083, 17.916926 ], [ 75.0739799, 17.9173025 ], [ 75.0781525, 17.9203316 ], [ 75.0826436, 17.9214073 ], [ 75.0878581, 17.9268556 ], [ 75.0869471, 17.9295948 ], [ 75.0801458, 17.9356477 ], [ 75.0798588, 17.9387035 ], [ 75.0819225, 17.9408119 ], [ 75.0935081, 17.9461778 ], [ 75.0968875, 17.9465458 ], [ 75.1009181, 17.9446503 ], [ 75.1062024, 17.9383217 ], [ 75.1099188, 17.937612 ], [ 75.1120555, 17.9384069 ], [ 75.114986, 17.9447034 ], [ 75.1183653, 17.948598 ], [ 75.1271591, 17.9523811 ], [ 75.1295504, 17.9564484 ], [ 75.1288105, 17.960737 ], [ 75.1170231, 17.9651776 ], [ 75.1153013, 17.9681594 ], [ 75.1157439, 17.9703848 ], [ 75.1197451, 17.9735093 ], [ 75.1309386, 17.9705316 ], [ 75.1360599, 17.9718992 ], [ 75.1327559, 17.972925 ], [ 75.1291405, 17.9786387 ], [ 75.1276218, 17.988507 ], [ 75.1247392, 17.9961642 ], [ 75.1201996, 18.0004186 ], [ 75.1172824, 18.0013638 ], [ 75.1117068, 18.0012811 ], [ 75.1086361, 17.9989488 ], [ 75.1052804, 17.9828073 ], [ 75.1037299, 17.9786421 ], [ 75.1003591, 17.9760579 ], [ 75.0965381, 17.9760732 ], [ 75.0809381, 17.9821429 ], [ 75.0734555, 17.9814468 ], [ 75.0689459, 17.9796132 ], [ 75.0653307, 17.9723149 ], [ 75.0633775, 17.9643326 ], [ 75.058046, 17.9559586 ], [ 75.0531256, 17.9521038 ], [ 75.0384694, 17.9497543 ], [ 75.0295723, 17.9590249 ], [ 75.0221519, 17.9631057 ], [ 75.0201415, 17.966695 ], [ 75.0277659, 17.9894913 ], [ 75.0380117, 17.9999099 ], [ 75.0468758, 18.012724 ], [ 75.0475827, 18.0169872 ], [ 75.051586, 18.0241582 ], [ 75.0806237, 18.039091 ], [ 75.0841049, 18.045524 ], [ 75.0853945, 18.0569896 ], [ 75.0877583, 18.0616929 ], [ 75.0947253, 18.0696306 ], [ 75.0982099, 18.0716285 ], [ 75.1132995, 18.0748276 ], [ 75.1223756, 18.0737003 ], [ 75.1287263, 18.0745722 ], [ 75.1307758, 18.0785336 ], [ 75.1316277, 18.0873547 ], [ 75.1358242, 18.0927415 ], [ 75.1416595, 18.0975062 ], [ 75.1557476, 18.1016428 ], [ 75.1623626, 18.1085381 ], [ 75.1627571, 18.1133125 ], [ 75.1609236, 18.1172905 ], [ 75.1520526, 18.1219189 ], [ 75.1384659, 18.1219205 ], [ 75.1207597, 18.1172603 ], [ 75.1103063, 18.1172744 ], [ 75.0958418, 18.1186446 ], [ 75.0921563, 18.1228158 ], [ 75.0907283, 18.1303902 ], [ 75.0918827, 18.1489094 ], [ 75.0953944, 18.1568121 ], [ 75.1007437, 18.1634243 ], [ 75.1103372, 18.1870466 ], [ 75.1119308, 18.2050347 ], [ 75.1086289, 18.2158388 ], [ 75.1061142, 18.2199944 ], [ 75.1024567, 18.2212652 ], [ 75.0957431, 18.221012 ], [ 75.0825149, 18.2184132 ], [ 75.0762973, 18.2148493 ], [ 75.0696393, 18.2075153 ], [ 75.0580882, 18.1995765 ], [ 75.0527075, 18.1973539 ], [ 75.0380038, 18.196303 ], [ 75.0265362, 18.1903988 ], [ 75.0227454, 18.1897199 ], [ 75.0182792, 18.1926022 ], [ 75.0101768, 18.204088 ], [ 75.0084304, 18.2093252 ], [ 75.0131597, 18.2209207 ], [ 75.023549, 18.2360526 ], [ 75.0440725, 18.2542051 ], [ 75.043898, 18.2600783 ], [ 75.0418219, 18.2623411 ], [ 75.0360372, 18.2615628 ], [ 74.991371, 18.2405711 ], [ 74.9848782, 18.2422105 ], [ 74.9631011, 18.2516525 ], [ 74.958159, 18.2550706 ], [ 74.9530248, 18.2637083 ], [ 74.9487678, 18.2664605 ], [ 74.9252339, 18.2598663 ], [ 74.8921042, 18.2594883 ], [ 74.8851534, 18.2564634 ], [ 74.8764155, 18.2491896 ], [ 74.8618878, 18.2492275 ], [ 74.8424833, 18.2453344 ], [ 74.832507, 18.2491408 ], [ 74.8170334, 18.2678827 ], [ 74.8058344, 18.2728983 ], [ 74.7991665, 18.2775706 ], [ 74.7953125, 18.2847514 ], [ 74.7963506, 18.2945956 ], [ 74.7978808, 18.2985944 ], [ 74.8029766, 18.3021914 ], [ 74.8248777, 18.2980314 ], [ 74.8329301, 18.2953183 ], [ 74.837045, 18.2958475 ], [ 74.8420654, 18.2984904 ], [ 74.8440425, 18.3009716 ], [ 74.8444171, 18.3082136 ], [ 74.8425514, 18.3121494 ], [ 74.8341328, 18.3205066 ], [ 74.8329162, 18.3263046 ], [ 74.8334044, 18.335029 ], [ 74.8463104, 18.3328447 ], [ 74.8491586, 18.3303475 ], [ 74.8516946, 18.3299437 ], [ 74.8552001, 18.3318838 ], [ 74.8549274, 18.3349043 ], [ 74.8599516, 18.3339671 ], [ 74.8616095, 18.3356341 ], [ 74.8644891, 18.336072 ], [ 74.8651726, 18.3479488 ], [ 74.8673465, 18.3527156 ], [ 74.8738633, 18.3552215 ], [ 74.8853076, 18.3569954 ], [ 74.9080522, 18.3567776 ], [ 74.9108365, 18.3721416 ], [ 74.9146828, 18.3786251 ], [ 74.9224108, 18.3781093 ], [ 74.9360431, 18.3851775 ], [ 74.9497264, 18.3882862 ], [ 74.958883, 18.3891812 ], [ 74.9648246, 18.385171 ], [ 74.9662157, 18.3855416 ], [ 74.9707566, 18.3897763 ], [ 74.9703886, 18.3925467 ], [ 74.9791, 18.3997955 ], [ 74.9987007, 18.4043004 ], [ 75.0053872, 18.4033397 ], [ 75.0050663, 18.4054334 ], [ 75.0107212, 18.4249546 ], [ 75.0154443, 18.4367143 ], [ 75.0215994, 18.4370141 ], [ 75.050168, 18.4296797 ], [ 75.0551542, 18.4248989 ], [ 75.0582607, 18.4193358 ], [ 75.0709725, 18.4216804 ], [ 75.0744998, 18.4235475 ], [ 75.0794427, 18.4234141 ], [ 75.0805399, 18.428426 ], [ 75.0902275, 18.4313395 ], [ 75.0911403, 18.4377392 ], [ 75.0893559, 18.4417732 ], [ 75.0905186, 18.4513447 ], [ 75.1047232, 18.4895928 ], [ 75.1062869, 18.4910603 ], [ 75.1113722, 18.4908779 ], [ 75.1154167, 18.4929521 ], [ 75.1217778, 18.4924704 ], [ 75.1255098, 18.5076489 ], [ 75.1297197, 18.5153829 ], [ 75.1329849, 18.5258308 ], [ 75.1345895, 18.5264963 ], [ 75.1455754, 18.522526 ], [ 75.1522159, 18.5227503 ], [ 75.1582523, 18.5198758 ], [ 75.1682555, 18.5220584 ], [ 75.1803523, 18.5267866 ], [ 75.1819844, 18.5305263 ], [ 75.1942818, 18.5321288 ], [ 75.2016273, 18.5313185 ], [ 75.2134994, 18.5540712 ], [ 75.2195652, 18.5506288 ], [ 75.222712, 18.5443398 ], [ 75.2302972, 18.5406912 ] ], [ [ 75.6045041, 18.1439266 ], [ 75.6025336, 18.1496143 ], [ 75.6044547, 18.1497198 ], [ 75.6023669, 18.1591803 ], [ 75.5916473, 18.1556613 ], [ 75.5883744, 18.1528395 ], [ 75.5935763, 18.1460879 ], [ 75.6011374, 18.1476892 ], [ 75.6036626, 18.1437387 ], [ 75.6045041, 18.1439266 ] ], [ [ 75.60501, 18.1559889 ], [ 75.6076201, 18.1551882 ], [ 75.6075903, 18.1538066 ], [ 75.6054279, 18.1539982 ], [ 75.6057235, 18.1523566 ], [ 75.6087915, 18.152465 ], [ 75.6090338, 18.1498574 ], [ 75.6064324, 18.1496949 ], [ 75.6071615, 18.1457484 ], [ 75.6106153, 18.1467691 ], [ 75.6095943, 18.1502795 ], [ 75.6144053, 18.150605 ], [ 75.6141062, 18.1579135 ], [ 75.6115737, 18.1578109 ], [ 75.6117672, 18.1610175 ], [ 75.6046103, 18.1599132 ], [ 75.60501, 18.1559889 ] ] ] } }
]
}
