{
"type": "FeatureCollection",
"name": "2731",
"crs": { "type": "name", "properties": { "name": "urn:ogc:def:crs:OGC:1.3:CRS84" } },
"features": [
{ "type": "Feature", "properties": { "code": "2731", "name": "Satara", "type": "district" }, "geometry": { "type": "MultiPolygon", "coordinates": [ [ [ [ 73.8527107, 18.1781595 ], [ 73.8610127, 18.174762 ], [ 73.866733, 18.1754652 ], [ 73.8631757, 18.165611 ], [ 73.8584953, 18.1627133 ], [ 73.847041, 18.1688006 ], [ 73.8473304, 18.175628 ], [ 73.8527107, 18.1781595 ] ] ], [ [ [ 73.8966415, 18.180044 ], [ 73.9004776, 18.1622074 ], [ 73.9019737, 18.1595849 ], [ 73.9048813, 18.1591536 ], [ 73.908319, 18.1632433 ], [ 73.9221027, 18.1717391 ], [ 73.9349824, 18.1720532 ], [ 73.9378245, 18.1738714 ], [ 73.9384566, 18.1731874 ], [ 73.9413233, 18.1783717 ], [ 73.9451891, 18.1790526 ], [ 73.9483211, 18.1750493 ], [ 73.949533, 18.1752644 ], [ 73.9492951, 18.1740801 ], [ 73.9515339, 18.1723501 ], [ 73.952079, 18.1732308 ], [ 73.9612706, 18.1655487 ], [ 73.9625354, 18.1626785 ], [ 73.9618234, 18.1616791 ], [ 73.9639721, 18.1624206 ], [ 73.9677362, 18.1588266 ], [ 73.968005, 18.1598204 ], [ 73.9791872, 18.1550585 ], [ 73.9794474, 18.153868 ], [ 73.980998, 18.1543557 ], [ 73.9801588, 18.1523654 ], [ 73.98134, 18.1514908 ], [ 73.9877923, 18.1513706 ], [ 73.9877632, 18.1497842 ], [ 73.9907819, 18.1514159 ], [ 73.9934715, 18.1509221 ], [ 73.9951224, 18.1525655 ], [ 73.9932135, 18.1546823 ], [ 73.9945253, 18.154515 ], [ 74.0011686, 18.160191 ], [ 74.0043285, 18.161191 ], [ 74.0057787, 18.1603979 ], [ 74.0089319, 18.1485786 ], [ 74.011624, 18.148321 ], [ 74.0132655, 18.1444775 ], [ 74.0281307, 18.1322777 ], [ 74.0433377, 18.135521 ], [ 74.047241, 18.1405784 ], [ 74.0531185, 18.1416225 ], [ 74.0679743, 18.1366073 ], [ 74.0757201, 18.1224194 ], [ 74.0803362, 18.1208221 ], [ 74.1008712, 18.123121 ], [ 74.1056759, 18.125438 ], [ 74.1123357, 18.1311767 ], [ 74.1179995, 18.1333209 ], [ 74.1217749, 18.1318454 ], [ 74.1309747, 18.1232626 ], [ 74.1345978, 18.118097 ], [ 74.1374924, 18.1168331 ], [ 74.1459321, 18.1222654 ], [ 74.1510369, 18.1195883 ], [ 74.1575405, 18.1104281 ], [ 74.16252, 18.1080409 ], [ 74.1756173, 18.1092354 ], [ 74.1851993, 18.1129066 ], [ 74.1896906, 18.1111518 ], [ 74.1959583, 18.1050556 ], [ 74.2043732, 18.1036842 ], [ 74.2101442, 18.0972494 ], [ 74.2155104, 18.0963287 ], [ 74.2246076, 18.0987721 ], [ 74.2357872, 18.0995975 ], [ 74.2419759, 18.0967326 ], [ 74.2493729, 18.089848 ], [ 74.2584092, 18.0850141 ], [ 74.2628259, 18.0810322 ], [ 74.2796353, 18.0747673 ], [ 74.2947279, 18.0740736 ], [ 74.2987138, 18.0681543 ], [ 74.3022877, 18.0672487 ], [ 74.3058417, 18.0679046 ], [ 74.3103423, 18.0720792 ], [ 74.3187843, 18.0725134 ], [ 74.3212763, 18.0751156 ], [ 74.3252549, 18.0834163 ], [ 74.3274806, 18.0852328 ], [ 74.3550393, 18.0969812 ], [ 74.3590702, 18.0948944 ], [ 74.3589085, 18.0892889 ], [ 74.3601897, 18.0872023 ], [ 74.3684482, 18.0846325 ], [ 74.3724545, 18.0741272 ], [ 74.3829526, 18.069634 ], [ 74.3950528, 18.0735733 ], [ 74.4021586, 18.0702463 ], [ 74.4106409, 18.0706344 ], [ 74.4218838, 18.066792 ], [ 74.4365215, 18.0646601 ], [ 74.4402724, 18.062184 ], [ 74.4434989, 18.0572405 ], [ 74.4528907, 18.0527935 ], [ 74.4563898, 18.0479448 ], [ 74.4598412, 18.0464123 ], [ 74.473728, 18.048722 ], [ 74.4861221, 18.0560768 ], [ 74.4947726, 18.0574862 ], [ 74.5006081, 18.0601379 ], [ 74.5084735, 18.0593957 ], [ 74.51582, 18.0609729 ], [ 74.5335015, 18.0579232 ], [ 74.5422631, 18.061885 ], [ 74.5474076, 18.0683756 ], [ 74.5577487, 18.070164 ], [ 74.5610687, 18.0691808 ], [ 74.5626566, 18.0673127 ], [ 74.5694123, 18.0552109 ], [ 74.57841, 18.0539584 ], [ 74.5797129, 18.0484713 ], [ 74.5824853, 18.0460246 ], [ 74.5851603, 18.0462079 ], [ 74.586376, 18.0531402 ], [ 74.5904338, 18.0559585 ], [ 74.6001035, 18.0520435 ], [ 74.605513, 18.0472665 ], [ 74.6102864, 18.0463997 ], [ 74.619854, 18.0484166 ], [ 74.6240141, 18.0514757 ], [ 74.6263203, 18.0559498 ], [ 74.6294928, 18.0569197 ], [ 74.6358581, 18.05162 ], [ 74.6381593, 18.0449646 ], [ 74.6418042, 18.044301 ], [ 74.645173, 18.0496931 ], [ 74.6499389, 18.0527784 ], [ 74.653747, 18.0587485 ], [ 74.6540122, 18.0679605 ], [ 74.6579579, 18.0695355 ], [ 74.6663635, 18.0693475 ], [ 74.6734167, 18.0621117 ], [ 74.6773719, 18.0604533 ], [ 74.6840875, 18.060095 ], [ 74.6861782, 18.0567588 ], [ 74.6864612, 18.0481853 ], [ 74.690943, 18.0388108 ], [ 74.6956466, 18.037037 ], [ 74.7019943, 18.0381283 ], [ 74.7071661, 18.0311343 ], [ 74.7112383, 18.0292994 ], [ 74.7084146, 18.0271806 ], [ 74.7058456, 18.0274959 ], [ 74.6962564, 18.0230325 ], [ 74.6930894, 18.0237249 ], [ 74.6923691, 18.0214317 ], [ 74.6898004, 18.0198868 ], [ 74.6868118, 18.020524 ], [ 74.670768, 18.0078365 ], [ 74.6634535, 18.0054833 ], [ 74.6623271, 18.003849 ], [ 74.6616949, 18.001173 ], [ 74.6632737, 18.0008052 ], [ 74.6639326, 17.997936 ], [ 74.6650972, 17.9975462 ], [ 74.6641382, 17.9963796 ], [ 74.6660856, 17.9948163 ], [ 74.6674323, 17.9899341 ], [ 74.6673607, 17.9788694 ], [ 74.6588623, 17.9422657 ], [ 74.6555934, 17.9368979 ], [ 74.6554331, 17.9255928 ], [ 74.6521128, 17.9206939 ], [ 74.6531977, 17.9194369 ], [ 74.6490375, 17.9156572 ], [ 74.6468939, 17.9164889 ], [ 74.6427214, 17.9152445 ], [ 74.6424549, 17.912271 ], [ 74.6407866, 17.911535 ], [ 74.6407316, 17.907646 ], [ 74.6372964, 17.9009576 ], [ 74.6350033, 17.901554 ], [ 74.6350925, 17.8994607 ], [ 74.6322437, 17.8943879 ], [ 74.633019, 17.8880298 ], [ 74.6320113, 17.8849104 ], [ 74.6346492, 17.8810515 ], [ 74.636072, 17.8735446 ], [ 74.6316823, 17.8704514 ], [ 74.6286869, 17.8702869 ], [ 74.6261977, 17.8652818 ], [ 74.6190558, 17.8623724 ], [ 74.6119129, 17.8621848 ], [ 74.6114742, 17.8601233 ], [ 74.6085399, 17.8584281 ], [ 74.6085992, 17.8568257 ], [ 74.6107148, 17.8568816 ], [ 74.6122768, 17.8533346 ], [ 74.6089735, 17.8516357 ], [ 74.6095008, 17.8502758 ], [ 74.6080946, 17.8491455 ], [ 74.6089043, 17.8480471 ], [ 74.607063, 17.8452365 ], [ 74.6100005, 17.8454703 ], [ 74.6105352, 17.8432284 ], [ 74.6115438, 17.8457766 ], [ 74.6142593, 17.843864 ], [ 74.6173168, 17.8460684 ], [ 74.6173028, 17.8449163 ], [ 74.6211473, 17.8452043 ], [ 74.6183736, 17.8440002 ], [ 74.6204367, 17.8420283 ], [ 74.6193385, 17.8407606 ], [ 74.6207643, 17.8396304 ], [ 74.6154096, 17.8397047 ], [ 74.6166267, 17.8389377 ], [ 74.6152949, 17.8378826 ], [ 74.6180238, 17.837109 ], [ 74.6127019, 17.8332077 ], [ 74.6138234, 17.8324743 ], [ 74.6174483, 17.8344863 ], [ 74.6156362, 17.8308981 ], [ 74.6180529, 17.8310602 ], [ 74.6188743, 17.8291428 ], [ 74.6208451, 17.8352146 ], [ 74.6240316, 17.8374892 ], [ 74.625654, 17.8355171 ], [ 74.62517, 17.8323378 ], [ 74.6274631, 17.8315331 ], [ 74.6273305, 17.8344343 ], [ 74.6300687, 17.8341845 ], [ 74.6279731, 17.8374955 ], [ 74.6291312, 17.83859 ], [ 74.6275117, 17.839372 ], [ 74.6293136, 17.8400928 ], [ 74.6306345, 17.8362103 ], [ 74.6320944, 17.8361047 ], [ 74.6327388, 17.837461 ], [ 74.6340101, 17.8327757 ], [ 74.6362607, 17.8315505 ], [ 74.6361321, 17.8297217 ], [ 74.6402674, 17.8313451 ], [ 74.6431479, 17.8309712 ], [ 74.6393339, 17.8348393 ], [ 74.6379239, 17.8341774 ], [ 74.6360582, 17.8371459 ], [ 74.640332, 17.8366653 ], [ 74.6403326, 17.8379708 ], [ 74.642304, 17.8377179 ], [ 74.6429533, 17.8363777 ], [ 74.6437066, 17.8388157 ], [ 74.6458367, 17.83864 ], [ 74.6460414, 17.8372061 ], [ 74.6484945, 17.8387759 ], [ 74.6466281, 17.8404061 ], [ 74.6365195, 17.8411128 ], [ 74.6454351, 17.8430701 ], [ 74.6465699, 17.8419315 ], [ 74.6475123, 17.8431758 ], [ 74.6501095, 17.8429845 ], [ 74.6489976, 17.8441578 ], [ 74.6519621, 17.8443965 ], [ 74.6487479, 17.84668 ], [ 74.6463706, 17.8450186 ], [ 74.6439958, 17.845735 ], [ 74.6455679, 17.8463992 ], [ 74.6442911, 17.8464865 ], [ 74.6446732, 17.848119 ], [ 74.6435902, 17.8486429 ], [ 74.6485837, 17.8505108 ], [ 74.6474065, 17.8552587 ], [ 74.652703, 17.8579375 ], [ 74.6524885, 17.8621923 ], [ 74.6535912, 17.863574 ], [ 74.6627574, 17.8617958 ], [ 74.6654877, 17.8642232 ], [ 74.6642233, 17.8599553 ], [ 74.6666767, 17.8569875 ], [ 74.6729614, 17.8567921 ], [ 74.672777, 17.8536005 ], [ 74.6789302, 17.8498366 ], [ 74.6779096, 17.8404392 ], [ 74.6803079, 17.8410175 ], [ 74.6826768, 17.8379813 ], [ 74.6800247, 17.8378695 ], [ 74.6776206, 17.8351425 ], [ 74.6826639, 17.8348486 ], [ 74.6815762, 17.8319677 ], [ 74.6848298, 17.8325085 ], [ 74.6840289, 17.8289938 ], [ 74.689733, 17.8303469 ], [ 74.6911222, 17.82824 ], [ 74.683505, 17.8268251 ], [ 74.6868143, 17.8257832 ], [ 74.6881699, 17.8236017 ], [ 74.6921468, 17.8240439 ], [ 74.6929209, 17.8235931 ], [ 74.6947164, 17.8214189 ], [ 74.6897465, 17.8233748 ], [ 74.6879101, 17.8221691 ], [ 74.6897463, 17.8202346 ], [ 74.6857655, 17.8210568 ], [ 74.6852764, 17.8195398 ], [ 74.6824707, 17.8188328 ], [ 74.6841679, 17.8177975 ], [ 74.6837119, 17.8169637 ], [ 74.6900623, 17.8167415 ], [ 74.6845366, 17.8127668 ], [ 74.6879906, 17.8089379 ], [ 74.6888641, 17.8090146 ], [ 74.688799, 17.8117252 ], [ 74.6923142, 17.8094464 ], [ 74.6906819, 17.8070703 ], [ 74.6932165, 17.8056926 ], [ 74.6956461, 17.8077593 ], [ 74.6947148, 17.8120704 ], [ 74.6969382, 17.8120582 ], [ 74.6983638, 17.8137456 ], [ 74.6958494, 17.807479 ], [ 74.6969726, 17.8047786 ], [ 74.6977317, 17.8071178 ], [ 74.6987397, 17.8065378 ], [ 74.7038722, 17.8105762 ], [ 74.7020152, 17.8068283 ], [ 74.6977676, 17.8041709 ], [ 74.7002074, 17.8029422 ], [ 74.6989141, 17.8030131 ], [ 74.6975003, 17.8003722 ], [ 74.7010773, 17.800539 ], [ 74.7022455, 17.7990283 ], [ 74.6966072, 17.7991497 ], [ 74.6941131, 17.7973312 ], [ 74.6969459, 17.7950279 ], [ 74.6993391, 17.7948779 ], [ 74.699606, 17.7934415 ], [ 74.7065782, 17.7966974 ], [ 74.7062135, 17.7954823 ], [ 74.7012429, 17.7931853 ], [ 74.6994051, 17.7901656 ], [ 74.7029853, 17.7910854 ], [ 74.7048273, 17.7900194 ], [ 74.7058353, 17.7922622 ], [ 74.7055546, 17.7889104 ], [ 74.7081868, 17.7888288 ], [ 74.7099174, 17.7939521 ], [ 74.7111047, 17.7935462 ], [ 74.7132825, 17.7962245 ], [ 74.7147676, 17.7929838 ], [ 74.7122203, 17.7919923 ], [ 74.7122839, 17.7888029 ], [ 74.713241, 17.789171 ], [ 74.7149544, 17.7868394 ], [ 74.7152228, 17.7898422 ], [ 74.7190597, 17.7910227 ], [ 74.7194169, 17.7922872 ], [ 74.72136, 17.79057 ], [ 74.7238214, 17.791103 ], [ 74.7229386, 17.7925702 ], [ 74.7248929, 17.7926401 ], [ 74.7239764, 17.7944832 ], [ 74.7268136, 17.7936157 ], [ 74.7258, 17.7977718 ], [ 74.7280654, 17.7964202 ], [ 74.7271582, 17.7941834 ], [ 74.7284087, 17.7924742 ], [ 74.7307693, 17.794471 ], [ 74.7327344, 17.7935246 ], [ 74.733582, 17.795023 ], [ 74.7354074, 17.7929793 ], [ 74.735425, 17.7907657 ], [ 74.7393968, 17.7903572 ], [ 74.7409358, 17.7889148 ], [ 74.7447242, 17.7912193 ], [ 74.7466341, 17.7901256 ], [ 74.7483872, 17.7915509 ], [ 74.7487962, 17.7898708 ], [ 74.7529823, 17.7870906 ], [ 74.7559175, 17.7809516 ], [ 74.7561369, 17.7742254 ], [ 74.7535237, 17.7776282 ], [ 74.7515174, 17.7783199 ], [ 74.7520398, 17.7802872 ], [ 74.7501129, 17.7811431 ], [ 74.7507057, 17.7863665 ], [ 74.7488121, 17.7838433 ], [ 74.7459136, 17.7841294 ], [ 74.7483153, 17.7797678 ], [ 74.7465143, 17.7782915 ], [ 74.750803, 17.7744708 ], [ 74.751408, 17.7723956 ], [ 74.7474575, 17.7716119 ], [ 74.7452218, 17.7743856 ], [ 74.7406678, 17.7754283 ], [ 74.7434129, 17.7732314 ], [ 74.743673, 17.7712489 ], [ 74.741904, 17.7713578 ], [ 74.7376143, 17.7673818 ], [ 74.7391536, 17.7680548 ], [ 74.7403818, 17.7669677 ], [ 74.7450187, 17.7690554 ], [ 74.7451613, 17.7660178 ], [ 74.748135, 17.7678493 ], [ 74.7478112, 17.7663175 ], [ 74.7492075, 17.7655699 ], [ 74.7501235, 17.7678793 ], [ 74.7522343, 17.7680923 ], [ 74.7544174, 17.7701976 ], [ 74.7554573, 17.7695958 ], [ 74.7546888, 17.763921 ], [ 74.7568111, 17.7621095 ], [ 74.7577534, 17.7625032 ], [ 74.7567711, 17.7646628 ], [ 74.7585352, 17.7662023 ], [ 74.7582407, 17.7685187 ], [ 74.760775, 17.7689488 ], [ 74.7598398, 17.7677417 ], [ 74.7610547, 17.7661538 ], [ 74.7587018, 17.7653597 ], [ 74.7596019, 17.7625796 ], [ 74.762127, 17.762843 ], [ 74.7608766, 17.7641012 ], [ 74.7633031, 17.7652798 ], [ 74.7632301, 17.7618431 ], [ 74.7643238, 17.7610291 ], [ 74.7669108, 17.7626717 ], [ 74.7666274, 17.7659418 ], [ 74.7681042, 17.7665202 ], [ 74.767549, 17.7694887 ], [ 74.7722377, 17.7683488 ], [ 74.771497, 17.7726531 ], [ 74.7751082, 17.7704509 ], [ 74.7750029, 17.7720217 ], [ 74.7763887, 17.7727977 ], [ 74.7739231, 17.7742054 ], [ 74.7781429, 17.7742577 ], [ 74.7791696, 17.7764999 ], [ 74.7819352, 17.7740868 ], [ 74.7816202, 17.7714189 ], [ 74.7834433, 17.7713091 ], [ 74.7828152, 17.7691106 ], [ 74.7858115, 17.7672928 ], [ 74.7851954, 17.7643737 ], [ 74.7863892, 17.7613672 ], [ 74.7877703, 17.7607059 ], [ 74.7917573, 17.7620696 ], [ 74.7982751, 17.7601086 ], [ 74.7994445, 17.7615662 ], [ 74.8070828, 17.7550337 ], [ 74.8123149, 17.7529249 ], [ 74.8147236, 17.7535395 ], [ 74.8155263, 17.7513619 ], [ 74.8184951, 17.7505847 ], [ 74.820066, 17.7473241 ], [ 74.8220199, 17.7467277 ], [ 74.8235898, 17.744295 ], [ 74.8230708, 17.741903 ], [ 74.8266582, 17.7398427 ], [ 74.8260539, 17.7380602 ], [ 74.8385241, 17.7272046 ], [ 74.8401068, 17.7274314 ], [ 74.8439422, 17.7316463 ], [ 74.8445288, 17.7302102 ], [ 74.8470276, 17.7316386 ], [ 74.8495856, 17.7278972 ], [ 74.8488948, 17.7246327 ], [ 74.8552248, 17.7271583 ], [ 74.8554972, 17.7292787 ], [ 74.8570036, 17.7278343 ], [ 74.8596086, 17.7310525 ], [ 74.8634576, 17.7292505 ], [ 74.867512, 17.73106 ], [ 74.8681191, 17.7284885 ], [ 74.8718375, 17.7270224 ], [ 74.8710031, 17.7194273 ], [ 74.8678377, 17.7165364 ], [ 74.8686184, 17.7119185 ], [ 74.864604, 17.7050928 ], [ 74.8653421, 17.6984515 ], [ 74.8641014, 17.6941972 ], [ 74.8671422, 17.6918402 ], [ 74.8706874, 17.6919393 ], [ 74.8742519, 17.6817258 ], [ 74.8809512, 17.6811633 ], [ 74.883511, 17.6847997 ], [ 74.8857389, 17.6827049 ], [ 74.8851899, 17.6773428 ], [ 74.8877341, 17.6725545 ], [ 74.8873017, 17.6692059 ], [ 74.8919414, 17.6613528 ], [ 74.8910018, 17.6590382 ], [ 74.8934349, 17.6573093 ], [ 74.8932067, 17.6549029 ], [ 74.8986075, 17.6487986 ], [ 74.8991059, 17.6403006 ], [ 74.9022706, 17.6373037 ], [ 74.9031625, 17.6325222 ], [ 74.9061081, 17.6292822 ], [ 74.9006574, 17.6263979 ], [ 74.8905528, 17.6176733 ], [ 74.8880374, 17.6111202 ], [ 74.8796225, 17.6042755 ], [ 74.8799902, 17.5945997 ], [ 74.8817158, 17.590388 ], [ 74.8791777, 17.5893068 ], [ 74.8814397, 17.5834438 ], [ 74.8807979, 17.5779042 ], [ 74.8763531, 17.5699013 ], [ 74.8732052, 17.5693077 ], [ 74.8726031, 17.566381 ], [ 74.8691648, 17.5636565 ], [ 74.8565476, 17.5597512 ], [ 74.8571643, 17.5487547 ], [ 74.8635675, 17.5281414 ], [ 74.8606761, 17.5273712 ], [ 74.8599981, 17.5254136 ], [ 74.8604042, 17.5116213 ], [ 74.8554611, 17.5059066 ], [ 74.849097, 17.5029502 ], [ 74.8433994, 17.4936688 ], [ 74.8343159, 17.4893657 ], [ 74.8313758, 17.485797 ], [ 74.8312909, 17.4834557 ], [ 74.8278804, 17.4775964 ], [ 74.824389, 17.4751691 ], [ 74.8217522, 17.4673594 ], [ 74.8209675, 17.4666646 ], [ 74.8180488, 17.4684437 ], [ 74.8167066, 17.4676685 ], [ 74.8148698, 17.4624851 ], [ 74.8070126, 17.4529196 ], [ 74.7765499, 17.4639226 ], [ 74.7617664, 17.4734761 ], [ 74.7551713, 17.4761614 ], [ 74.7416349, 17.4769946 ], [ 74.7313521, 17.479653 ], [ 74.7290223, 17.4775894 ], [ 74.7269826, 17.4775765 ], [ 74.7252413, 17.4740606 ], [ 74.7253511, 17.4786352 ], [ 74.7167986, 17.4852237 ], [ 74.7101904, 17.4866926 ], [ 74.7065979, 17.4861201 ], [ 74.6955757, 17.4889941 ], [ 74.684677, 17.4878645 ], [ 74.6866164, 17.4834616 ], [ 74.6923463, 17.4792984 ], [ 74.6939542, 17.4798938 ], [ 74.6947872, 17.4760326 ], [ 74.6931633, 17.4746161 ], [ 74.6962663, 17.4686118 ], [ 74.6937725, 17.4680916 ], [ 74.695053, 17.4639872 ], [ 74.6957639, 17.452051 ], [ 74.6946644, 17.4477111 ], [ 74.6960358, 17.4388228 ], [ 74.6919293, 17.4356451 ], [ 74.6932891, 17.4313351 ], [ 74.6925941, 17.4295522 ], [ 74.6840393, 17.4254271 ], [ 74.6825209, 17.4230356 ], [ 74.6836094, 17.4183039 ], [ 74.6867868, 17.4156702 ], [ 74.6874141, 17.4124888 ], [ 74.6859032, 17.4115561 ], [ 74.6867758, 17.4090489 ], [ 74.6894944, 17.40835 ], [ 74.687423, 17.4065027 ], [ 74.6924574, 17.4016409 ], [ 74.6883522, 17.402178 ], [ 74.6863997, 17.3998292 ], [ 74.6849239, 17.3941311 ], [ 74.6697297, 17.3895112 ], [ 74.6669942, 17.3906622 ], [ 74.6618614, 17.3972295 ], [ 74.6529303, 17.3997844 ], [ 74.6427527, 17.4006855 ], [ 74.637663, 17.3972947 ], [ 74.6323689, 17.3994496 ], [ 74.6313521, 17.4012341 ], [ 74.6224907, 17.3993508 ], [ 74.6252997, 17.4043673 ], [ 74.6240553, 17.413901 ], [ 74.6183633, 17.4205516 ], [ 74.6144211, 17.4308604 ], [ 74.6063702, 17.4387462 ], [ 74.6055025, 17.4459547 ], [ 74.5950844, 17.4490854 ], [ 74.5921083, 17.4489971 ], [ 74.5904288, 17.446115 ], [ 74.5884162, 17.446218 ], [ 74.5880033, 17.4368392 ], [ 74.584598, 17.4332685 ], [ 74.5835251, 17.4279368 ], [ 74.5837072, 17.4136389 ], [ 74.5761851, 17.4155692 ], [ 74.5720843, 17.4151746 ], [ 74.5699815, 17.4178628 ], [ 74.5643285, 17.4190707 ], [ 74.556176, 17.4174954 ], [ 74.5506011, 17.4210594 ], [ 74.5467686, 17.419999 ], [ 74.5450701, 17.4223832 ], [ 74.5274921, 17.4191805 ], [ 74.5271323, 17.4149894 ], [ 74.5224449, 17.4127175 ], [ 74.5217131, 17.4058775 ], [ 74.5176783, 17.4041905 ], [ 74.5141398, 17.3998141 ], [ 74.5043647, 17.39232 ], [ 74.5035063, 17.389053 ], [ 74.4981151, 17.3856079 ], [ 74.4979546, 17.3834421 ], [ 74.4887153, 17.3844037 ], [ 74.4751148, 17.3881137 ], [ 74.4683198, 17.3939194 ], [ 74.4548166, 17.3909038 ], [ 74.4314874, 17.3907178 ], [ 74.4215393, 17.3969971 ], [ 74.4173461, 17.4019261 ], [ 74.4045917, 17.406919 ], [ 74.3819997, 17.4099082 ], [ 74.3583267, 17.4093922 ], [ 74.3448425, 17.4104268 ], [ 74.3439462, 17.4105923 ], [ 74.3453267, 17.413689 ], [ 74.3443142, 17.4197193 ], [ 74.3292028, 17.4191506 ], [ 74.3095556, 17.4219079 ], [ 74.2964384, 17.4258525 ], [ 74.2923333, 17.4250203 ], [ 74.2910588, 17.4213617 ], [ 74.2863354, 17.4184224 ], [ 74.2839338, 17.4193951 ], [ 74.2818363, 17.417289 ], [ 74.2722075, 17.396517 ], [ 74.2604336, 17.3856535 ], [ 74.2599076, 17.3839292 ], [ 74.2620554, 17.3773079 ], [ 74.2566604, 17.3703518 ], [ 74.2566356, 17.369523 ], [ 74.2580886, 17.3699848 ], [ 74.2595202, 17.3630982 ], [ 74.2570991, 17.3613641 ], [ 74.2563945, 17.3644927 ], [ 74.2543469, 17.3632333 ], [ 74.2558394, 17.3576125 ], [ 74.2606689, 17.3549255 ], [ 74.2617978, 17.3564827 ], [ 74.2790209, 17.3605886 ], [ 74.286661, 17.3586079 ], [ 74.2883294, 17.3538811 ], [ 74.2791581, 17.3414309 ], [ 74.2790251, 17.3365508 ], [ 74.2830915, 17.3342794 ], [ 74.2903704, 17.3267566 ], [ 74.2901018, 17.325419 ], [ 74.2872237, 17.326084 ], [ 74.2932625, 17.3156087 ], [ 74.2932343, 17.3130448 ], [ 74.2910302, 17.3110375 ], [ 74.261522, 17.3066491 ], [ 74.2610726, 17.2999201 ], [ 74.2568174, 17.2965618 ], [ 74.2562233, 17.2933904 ], [ 74.2630877, 17.2894405 ], [ 74.2580622, 17.288299 ], [ 74.2570893, 17.2853287 ], [ 74.2607695, 17.2782108 ], [ 74.2595573, 17.2727727 ], [ 74.2632672, 17.2690947 ], [ 74.2649367, 17.2650329 ], [ 74.2652241, 17.2574535 ], [ 74.2706283, 17.2539382 ], [ 74.2751401, 17.2529226 ], [ 74.2768948, 17.2493773 ], [ 74.2745605, 17.2467933 ], [ 74.2803443, 17.2494168 ], [ 74.282255, 17.2473583 ], [ 74.2853951, 17.2487243 ], [ 74.2878159, 17.2474411 ], [ 74.2879149, 17.2437913 ], [ 74.2865027, 17.2434825 ], [ 74.2845947, 17.2339772 ], [ 74.2824244, 17.2319538 ], [ 74.2798132, 17.2327041 ], [ 74.2791597, 17.2309663 ], [ 74.2731898, 17.2284518 ], [ 74.2660601, 17.2223071 ], [ 74.2687649, 17.21406 ], [ 74.2765475, 17.2132064 ], [ 74.2853487, 17.2059035 ], [ 74.2851542, 17.2006578 ], [ 74.2871202, 17.1977872 ], [ 74.2866927, 17.1950482 ], [ 74.2822738, 17.1913337 ], [ 74.2817798, 17.1860175 ], [ 74.2779566, 17.1786952 ], [ 74.2760492, 17.1808311 ], [ 74.277477, 17.1858219 ], [ 74.2663701, 17.1873934 ], [ 74.2630792, 17.1871437 ], [ 74.2643336, 17.1849929 ], [ 74.2565878, 17.1861481 ], [ 74.2525359, 17.1833153 ], [ 74.2479528, 17.1828926 ], [ 74.2483857, 17.1793489 ], [ 74.2523892, 17.1757264 ], [ 74.2530322, 17.170971 ], [ 74.2465124, 17.1693156 ], [ 74.2472076, 17.1607533 ], [ 74.2386011, 17.1607185 ], [ 74.237675, 17.1572917 ], [ 74.2329003, 17.1572128 ], [ 74.2327523, 17.155834 ], [ 74.2337458, 17.153882 ], [ 74.2361269, 17.1537179 ], [ 74.2371852, 17.1551767 ], [ 74.237469, 17.1534408 ], [ 74.238878, 17.1532505 ], [ 74.2389126, 17.1547813 ], [ 74.2421457, 17.1551225 ], [ 74.2421869, 17.1537583 ], [ 74.2443734, 17.1535696 ], [ 74.2444713, 17.1550895 ], [ 74.2470157, 17.154807 ], [ 74.2469059, 17.1415394 ], [ 74.2211289, 17.1397804 ], [ 74.1991411, 17.1518763 ], [ 74.1927059, 17.1496158 ], [ 74.1774009, 17.149173 ], [ 74.1773357, 17.1459361 ], [ 74.1747415, 17.1425135 ], [ 74.1628232, 17.1410205 ], [ 74.1616256, 17.1386387 ], [ 74.1613104, 17.1308129 ], [ 74.1589635, 17.1282359 ], [ 74.1420621, 17.1193121 ], [ 74.1342049, 17.1187171 ], [ 74.1289859, 17.114536 ], [ 74.12581, 17.1159234 ], [ 74.1238661, 17.1197397 ], [ 74.1195337, 17.1222441 ], [ 74.1100768, 17.1233504 ], [ 74.1073764, 17.1203906 ], [ 74.1004369, 17.1172615 ], [ 74.0994214, 17.1153807 ], [ 74.1009049, 17.1126687 ], [ 74.0980279, 17.107528 ], [ 74.0990273, 17.1054427 ], [ 74.0970269, 17.1047497 ], [ 74.096346, 17.1018893 ], [ 74.0939705, 17.100945 ], [ 74.0779493, 17.1020326 ], [ 74.0757186, 17.0985406 ], [ 74.0738201, 17.0978664 ], [ 74.0681584, 17.1008392 ], [ 74.05127, 17.1051912 ], [ 74.0487294, 17.1000642 ], [ 74.0491253, 17.0970441 ], [ 74.0442529, 17.0997642 ], [ 74.0324714, 17.0901793 ], [ 74.0304202, 17.09038 ], [ 74.0290057, 17.0952681 ], [ 74.017119, 17.1018112 ], [ 74.0085571, 17.1102544 ], [ 74.0026569, 17.1134175 ], [ 73.9838716, 17.116904 ], [ 73.9854936, 17.1221814 ], [ 73.9846264, 17.126029 ], [ 73.9797583, 17.1291597 ], [ 73.9793884, 17.1319402 ], [ 73.9741083, 17.1311851 ], [ 73.9564928, 17.1353083 ], [ 73.9406821, 17.1334125 ], [ 73.9379674, 17.1342963 ], [ 73.9182379, 17.1449095 ], [ 73.9176132, 17.1485455 ], [ 73.9129316, 17.1494724 ], [ 73.9047678, 17.1548999 ], [ 73.9012578, 17.1595491 ], [ 73.8947131, 17.1570036 ], [ 73.8841181, 17.1552249 ], [ 73.8813694, 17.1621184 ], [ 73.8826288, 17.1630038 ], [ 73.8829421, 17.1660985 ], [ 73.8819426, 17.1713143 ], [ 73.8768366, 17.1764683 ], [ 73.8781631, 17.1772245 ], [ 73.8749704, 17.179402 ], [ 73.8700205, 17.1919607 ], [ 73.8651268, 17.1945471 ], [ 73.8505022, 17.1988088 ], [ 73.8436856, 17.2138112 ], [ 73.8346743, 17.226033 ], [ 73.8175392, 17.2334362 ], [ 73.8091253, 17.2318502 ], [ 73.8036483, 17.2376866 ], [ 73.8013168, 17.2431387 ], [ 73.7987049, 17.2449399 ], [ 73.796013, 17.2436752 ], [ 73.7897098, 17.2454063 ], [ 73.7844464, 17.2452215 ], [ 73.7755898, 17.2487706 ], [ 73.7656077, 17.2509634 ], [ 73.7655454, 17.2542963 ], [ 73.759398, 17.2551196 ], [ 73.7553428, 17.2677672 ], [ 73.7453555, 17.2785624 ], [ 73.7398565, 17.2765143 ], [ 73.7343653, 17.2770631 ], [ 73.7258648, 17.2704163 ], [ 73.7198901, 17.2631465 ], [ 73.7203793, 17.2615541 ], [ 73.7149286, 17.2608633 ], [ 73.7137542, 17.2620705 ], [ 73.7072214, 17.2601563 ], [ 73.7013584, 17.2648895 ], [ 73.6997171, 17.2627327 ], [ 73.6946856, 17.2616162 ], [ 73.6946407, 17.2605176 ], [ 73.6882762, 17.2677229 ], [ 73.6912747, 17.2776528 ], [ 73.6869155, 17.2831558 ], [ 73.6899565, 17.2843908 ], [ 73.6881035, 17.2902669 ], [ 73.6841008, 17.2900917 ], [ 73.6805402, 17.2948986 ], [ 73.6781429, 17.2947774 ], [ 73.6832959, 17.304004 ], [ 73.6849813, 17.3146545 ], [ 73.6837047, 17.3218679 ], [ 73.6791377, 17.3269966 ], [ 73.6795492, 17.3305889 ], [ 73.6825819, 17.3350605 ], [ 73.6856937, 17.345193 ], [ 73.6833699, 17.3486915 ], [ 73.6740234, 17.3477071 ], [ 73.6787855, 17.3497527 ], [ 73.6913618, 17.3593774 ], [ 73.6866437, 17.3685368 ], [ 73.6853332, 17.3664675 ], [ 73.6840098, 17.366836 ], [ 73.6802569, 17.374837 ], [ 73.6739786, 17.3765555 ], [ 73.6675659, 17.3724028 ], [ 73.6580986, 17.3771772 ], [ 73.6575014, 17.3752521 ], [ 73.6496293, 17.3842902 ], [ 73.6453847, 17.381776 ], [ 73.6456566, 17.3850021 ], [ 73.6407817, 17.3911963 ], [ 73.6442992, 17.3976382 ], [ 73.648884, 17.3978358 ], [ 73.654168, 17.3874008 ], [ 73.6600631, 17.3953804 ], [ 73.6665986, 17.3928472 ], [ 73.6683632, 17.3933445 ], [ 73.6710285, 17.397087 ], [ 73.6707844, 17.4004917 ], [ 73.6731393, 17.4060343 ], [ 73.6809541, 17.4149991 ], [ 73.6843822, 17.4165053 ], [ 73.6899751, 17.4221974 ], [ 73.7016725, 17.4206497 ], [ 73.7019749, 17.422326 ], [ 73.7040759, 17.423439 ], [ 73.7054356, 17.4291816 ], [ 73.7081238, 17.43383 ], [ 73.70336, 17.4379718 ], [ 73.7065868, 17.4448908 ], [ 73.7041681, 17.4476738 ], [ 73.7042226, 17.4504593 ], [ 73.6999076, 17.4534336 ], [ 73.7059549, 17.4659221 ], [ 73.7035082, 17.4674673 ], [ 73.7033519, 17.4703076 ], [ 73.7014631, 17.4712459 ], [ 73.7017305, 17.4726304 ], [ 73.6989116, 17.4766195 ], [ 73.6954048, 17.4782881 ], [ 73.6948708, 17.4803962 ], [ 73.6962554, 17.4834311 ], [ 73.6937388, 17.4874317 ], [ 73.7020472, 17.4899522 ], [ 73.7082452, 17.4941562 ], [ 73.710242, 17.4975139 ], [ 73.7097041, 17.4994721 ], [ 73.7043222, 17.504837 ], [ 73.7074946, 17.5103009 ], [ 73.7095067, 17.5110299 ], [ 73.7143359, 17.5166799 ], [ 73.7165262, 17.5181021 ], [ 73.7204972, 17.5175673 ], [ 73.7209712, 17.5249163 ], [ 73.7277852, 17.5251777 ], [ 73.7408033, 17.5339444 ], [ 73.7385214, 17.5357345 ], [ 73.7465258, 17.556886 ], [ 73.7383405, 17.5628633 ], [ 73.7321109, 17.5643162 ], [ 73.7154766, 17.5735568 ], [ 73.7174119, 17.5792228 ], [ 73.7234379, 17.5866678 ], [ 73.7277618, 17.5889934 ], [ 73.7237731, 17.5994078 ], [ 73.7127563, 17.6075749 ], [ 73.7206981, 17.6178523 ], [ 73.7194287, 17.6215873 ], [ 73.7155028, 17.624526 ], [ 73.7048868, 17.6271659 ], [ 73.6978419, 17.627682 ], [ 73.695097, 17.6263168 ], [ 73.6904667, 17.6286702 ], [ 73.6902081, 17.6316625 ], [ 73.6989168, 17.6433045 ], [ 73.6997084, 17.6479099 ], [ 73.6990742, 17.650263 ], [ 73.6968186, 17.6515881 ], [ 73.7013803, 17.6589431 ], [ 73.7007493, 17.660838 ], [ 73.6952875, 17.6631127 ], [ 73.6972497, 17.6664564 ], [ 73.693204, 17.6685266 ], [ 73.6925663, 17.673628 ], [ 73.6808657, 17.6780815 ], [ 73.6813845, 17.6820166 ], [ 73.6868314, 17.6857307 ], [ 73.680435, 17.6897836 ], [ 73.6733778, 17.6903041 ], [ 73.6665446, 17.6933684 ], [ 73.6627909, 17.6972332 ], [ 73.6575943, 17.6962546 ], [ 73.6548278, 17.6997056 ], [ 73.6542257, 17.705098 ], [ 73.651064, 17.7085672 ], [ 73.6352905, 17.6980595 ], [ 73.634486, 17.7016715 ], [ 73.6282403, 17.7056942 ], [ 73.6238222, 17.7062925 ], [ 73.615551, 17.7141631 ], [ 73.6126805, 17.7134648 ], [ 73.6039421, 17.7044635 ], [ 73.5933344, 17.7017273 ], [ 73.5890424, 17.7031937 ], [ 73.5872527, 17.7059173 ], [ 73.5799742, 17.7092869 ], [ 73.5826208, 17.7141408 ], [ 73.57277, 17.7213172 ], [ 73.5662848, 17.7243026 ], [ 73.5732398, 17.7315803 ], [ 73.5714821, 17.7356525 ], [ 73.5729716, 17.7400441 ], [ 73.5776833, 17.7437446 ], [ 73.5783222, 17.7509869 ], [ 73.5853372, 17.7614318 ], [ 73.5877872, 17.76324 ], [ 73.5893656, 17.7660959 ], [ 73.589036, 17.7682999 ], [ 73.5918538, 17.7729555 ], [ 73.5925826, 17.77733 ], [ 73.5915755, 17.7791459 ], [ 73.5892946, 17.7826881 ], [ 73.5825334, 17.7859984 ], [ 73.5818392, 17.7891944 ], [ 73.5833127, 17.7907332 ], [ 73.5860647, 17.7892327 ], [ 73.5916378, 17.7905823 ], [ 73.5931634, 17.789455 ], [ 73.5941972, 17.7910054 ], [ 73.5986192, 17.791455 ], [ 73.6020491, 17.7950341 ], [ 73.5963596, 17.7980601 ], [ 73.5962148, 17.801891 ], [ 73.594551, 17.8033055 ], [ 73.5936175, 17.8176411 ], [ 73.596933, 17.8232323 ], [ 73.5860788, 17.8303402 ], [ 73.5844425, 17.8338355 ], [ 73.5863139, 17.8418158 ], [ 73.5955641, 17.8467738 ], [ 73.5964659, 17.8461869 ], [ 73.5972632, 17.8500705 ], [ 73.5889173, 17.8518179 ], [ 73.5831901, 17.8586194 ], [ 73.5812301, 17.8599636 ], [ 73.5798007, 17.8591571 ], [ 73.574276, 17.8651784 ], [ 73.5747583, 17.870317 ], [ 73.5764039, 17.8708672 ], [ 73.5782414, 17.8751886 ], [ 73.5707829, 17.8783079 ], [ 73.564414, 17.8861128 ], [ 73.561677, 17.8930078 ], [ 73.557092, 17.8948802 ], [ 73.5469283, 17.8929472 ], [ 73.5436306, 17.8937526 ], [ 73.5410874, 17.8921585 ], [ 73.5353445, 17.8923787 ], [ 73.5348717, 17.8968281 ], [ 73.5325064, 17.8994808 ], [ 73.5403336, 17.9068902 ], [ 73.5428822, 17.9059668 ], [ 73.5474694, 17.9094351 ], [ 73.5490472, 17.9083506 ], [ 73.551907, 17.9091748 ], [ 73.5633884, 17.9170399 ], [ 73.564814, 17.9213251 ], [ 73.5774332, 17.9334769 ], [ 73.5762961, 17.9428321 ], [ 73.5792205, 17.9470348 ], [ 73.581263, 17.9459962 ], [ 73.5831598, 17.9480344 ], [ 73.5842735, 17.9473002 ], [ 73.5903949, 17.9396528 ], [ 73.5976228, 17.9403407 ], [ 73.6107241, 17.947772 ], [ 73.6156567, 17.9530029 ], [ 73.6174765, 17.9578464 ], [ 73.6385661, 17.971701 ], [ 73.6393067, 17.9762154 ], [ 73.6371875, 17.9786653 ], [ 73.637666, 17.9802178 ], [ 73.6266929, 17.9853318 ], [ 73.6273713, 17.9886843 ], [ 73.63015, 17.98924 ], [ 73.6315905, 17.9922223 ], [ 73.6342239, 17.9932615 ], [ 73.6378653, 17.9921503 ], [ 73.6424231, 18.001552 ], [ 73.6495427, 18.0067093 ], [ 73.6505361, 18.005531 ], [ 73.6568415, 18.0109023 ], [ 73.6575416, 18.0125952 ], [ 73.6563513, 18.0157234 ], [ 73.6504405, 18.0221495 ], [ 73.6584812, 18.029047 ], [ 73.6632019, 18.0250751 ], [ 73.6662925, 18.0247442 ], [ 73.6793449, 18.0332265 ], [ 73.6937939, 18.0390855 ], [ 73.7022908, 18.0443451 ], [ 73.7094125, 18.0425718 ], [ 73.7202282, 18.0427801 ], [ 73.7329499, 18.0374939 ], [ 73.7375755, 18.0369794 ], [ 73.7561891, 18.0386155 ], [ 73.7539842, 18.0358686 ], [ 73.7536484, 18.0324363 ], [ 73.7556737, 18.0281468 ], [ 73.761361, 18.0271909 ], [ 73.765985, 18.0234421 ], [ 73.7664724, 18.0250692 ], [ 73.7703768, 18.0250082 ], [ 73.7753325, 18.0278634 ], [ 73.7773975, 18.0249421 ], [ 73.7824013, 18.0263005 ], [ 73.787483, 18.0227499 ], [ 73.790708, 18.0226504 ], [ 73.7926473, 18.0205715 ], [ 73.7952355, 18.0241167 ], [ 73.7994964, 18.0241813 ], [ 73.8055268, 18.0307784 ], [ 73.8087311, 18.031925 ], [ 73.813361, 18.037987 ], [ 73.8135504, 18.0351108 ], [ 73.82055, 18.033666 ], [ 73.823428, 18.0343171 ], [ 73.824224, 18.0301948 ], [ 73.8267719, 18.0294149 ], [ 73.8344848, 18.030486 ], [ 73.8357164, 18.0319975 ], [ 73.8393265, 18.0304265 ], [ 73.8405463, 18.0310031 ], [ 73.8441961, 18.0347118 ], [ 73.8454058, 18.0398296 ], [ 73.8468421, 18.0395906 ], [ 73.847257, 18.0376927 ], [ 73.8504476, 18.0354664 ], [ 73.8504388, 18.033604 ], [ 73.852764, 18.032896 ], [ 73.8545239, 18.0303969 ], [ 73.8588239, 18.0317599 ], [ 73.8652669, 18.0423343 ], [ 73.8644282, 18.0465315 ], [ 73.8701791, 18.0479875 ], [ 73.8694373, 18.0515013 ], [ 73.8715864, 18.055346 ], [ 73.8701399, 18.0638396 ], [ 73.8713982, 18.0668315 ], [ 73.8679953, 18.0703503 ], [ 73.8692696, 18.0754882 ], [ 73.8801557, 18.0865519 ], [ 73.8735128, 18.0932255 ], [ 73.8741235, 18.094977 ], [ 73.8673424, 18.1047056 ], [ 73.8660609, 18.1097185 ], [ 73.8632073, 18.1129011 ], [ 73.8607685, 18.1195935 ], [ 73.8780073, 18.11562 ], [ 73.8804774, 18.1166686 ], [ 73.8877199, 18.1162584 ], [ 73.8917319, 18.1254701 ], [ 73.8968528, 18.1263536 ], [ 73.8975066, 18.1255257 ], [ 73.9015451, 18.1288004 ], [ 73.9016845, 18.1369431 ], [ 73.8959971, 18.1394945 ], [ 73.8905261, 18.1478695 ], [ 73.88864, 18.1541917 ], [ 73.880666, 18.1601626 ], [ 73.8780141, 18.1637399 ], [ 73.8741905, 18.1645046 ], [ 73.8728343, 18.166369 ], [ 73.8740673, 18.1671321 ], [ 73.874913, 18.173201 ], [ 73.8732093, 18.1746677 ], [ 73.8756352, 18.1751065 ], [ 73.8828894, 18.1727118 ], [ 73.8870426, 18.1756725 ], [ 73.8895441, 18.1801057 ], [ 73.8936637, 18.1826658 ], [ 73.8966415, 18.180044 ] ] ] ] } }
]
}
