{
"type": "FeatureCollection",
"name": "2734",
"crs": { "type": "name", "properties": { "name": "urn:ogc:def:crs:OGC:1.3:CRS84" } },
"features": [
{ "type": "Feature", "properties": { "code": "2734", "name": "Kolhapur", "type": "district" }, "geometry": { "type": "Polygon", "coordinates": [ [ [ 73.7758739, 17.1820775 ], [ 73.7923772, 17.1782626 ], [ 73.7991881, 17.1712395 ], [ 73.803403, 17.1701871 ], [ 73.8113578, 17.1718522 ], [ 73.8137571, 17.1698718 ], [ 73.8202177, 17.1702571 ], [ 73.8260228, 17.1650283 ], [ 73.8344459, 17.1609802 ], [ 73.8389297, 17.156465 ], [ 73.8465045, 17.1542255 ], [ 73.8533706, 17.1488121 ], [ 73.8561108, 17.141872 ], [ 73.8556024, 17.1401101 ], [ 73.8581331, 17.1373029 ], [ 73.8625256, 17.137571 ], [ 73.864105, 17.1335028 ], [ 73.8688354, 17.1329586 ], [ 73.8711967, 17.1299399 ], [ 73.875533, 17.1285424 ], [ 73.8753893, 17.126259 ], [ 73.8711699, 17.1233788 ], [ 73.8734702, 17.1170714 ], [ 73.8785127, 17.1151528 ], [ 73.8817362, 17.1111391 ], [ 73.889048, 17.1063231 ], [ 73.8956377, 17.1057722 ], [ 73.8998883, 17.1023859 ], [ 73.9035493, 17.0972567 ], [ 73.9027553, 17.0919023 ], [ 73.904254, 17.0847798 ], [ 73.908947, 17.0785237 ], [ 73.9146564, 17.0759654 ], [ 73.9138155, 17.0714333 ], [ 73.9157601, 17.0708077 ], [ 73.9206395, 17.0750243 ], [ 73.9297878, 17.0750308 ], [ 73.9337756, 17.0709104 ], [ 73.9382234, 17.0690103 ], [ 73.9380785, 17.0654394 ], [ 73.940257, 17.0629463 ], [ 73.9468999, 17.063497 ], [ 73.9485825, 17.0616697 ], [ 73.9474018, 17.0597114 ], [ 73.9481051, 17.0587112 ], [ 73.9513937, 17.0573234 ], [ 73.9550392, 17.0584769 ], [ 73.9579177, 17.057496 ], [ 73.9598001, 17.0554786 ], [ 73.9603618, 17.0511204 ], [ 73.9651126, 17.0483234 ], [ 73.9736733, 17.035731 ], [ 73.9781944, 17.0364481 ], [ 73.9792535, 17.0345088 ], [ 73.9798932, 17.0213077 ], [ 73.9787724, 17.0093117 ], [ 73.9770361, 17.007741 ], [ 73.9707896, 17.0086861 ], [ 73.969137, 17.0072996 ], [ 73.9724116, 17.0006441 ], [ 73.9719176, 16.9949499 ], [ 73.9734864, 16.9901492 ], [ 73.9813203, 16.9863564 ], [ 73.9847504, 16.9866788 ], [ 73.9882308, 16.9895279 ], [ 73.9891318, 16.9956327 ], [ 73.9908135, 16.9971724 ], [ 73.996414, 16.9958282 ], [ 73.9985399, 16.9914455 ], [ 74.004704, 16.9929246 ], [ 74.010367, 16.9878713 ], [ 74.018874, 16.9872237 ], [ 74.0233539, 16.9851517 ], [ 74.0235494, 16.9819288 ], [ 74.0222174, 16.9794949 ], [ 74.0229896, 16.9759165 ], [ 74.0207447, 16.9699677 ], [ 74.0214659, 16.967451 ], [ 74.0253151, 16.966253 ], [ 74.0261903, 16.9639886 ], [ 74.0253433, 16.9616317 ], [ 74.0208016, 16.9622188 ], [ 74.0198129, 16.9593688 ], [ 74.0226743, 16.9554086 ], [ 74.0271233, 16.953669 ], [ 74.0281338, 16.9512421 ], [ 74.0268413, 16.9470829 ], [ 74.0229619, 16.9423044 ], [ 74.0268513, 16.9399272 ], [ 74.0310866, 16.9412094 ], [ 74.0371475, 16.9382957 ], [ 74.0383257, 16.9355068 ], [ 74.0371853, 16.9307616 ], [ 74.0394472, 16.9279293 ], [ 74.0384196, 16.9238759 ], [ 74.0415823, 16.921785 ], [ 74.0445829, 16.9225606 ], [ 74.0490133, 16.9215914 ], [ 74.0531688, 16.9143339 ], [ 74.0647239, 16.9101845 ], [ 74.0655353, 16.9094757 ], [ 74.064517, 16.9038343 ], [ 74.0657068, 16.9023798 ], [ 74.0721266, 16.9031384 ], [ 74.0767921, 16.9066524 ], [ 74.0803584, 16.9072048 ], [ 74.0914744, 16.9182609 ], [ 74.0929751, 16.9181131 ], [ 74.098571, 16.9110086 ], [ 74.1005277, 16.9101953 ], [ 74.1065993, 16.9096431 ], [ 74.1207314, 16.9131773 ], [ 74.1236238, 16.9112638 ], [ 74.1224074, 16.9073872 ], [ 74.1229993, 16.9052994 ], [ 74.1251518, 16.9042649 ], [ 74.1244694, 16.9029676 ], [ 74.1292279, 16.8980078 ], [ 74.1350861, 16.8881025 ], [ 74.136309, 16.8869518 ], [ 74.1393031, 16.8873054 ], [ 74.1455899, 16.8827314 ], [ 74.156619, 16.8898738 ], [ 74.1608053, 16.8965748 ], [ 74.1636189, 16.8986614 ], [ 74.1751963, 16.9025366 ], [ 74.1816179, 16.9007341 ], [ 74.1872905, 16.8957089 ], [ 74.1918356, 16.8938898 ], [ 74.2004819, 16.8951016 ], [ 74.2097339, 16.8930194 ], [ 74.2124432, 16.8949202 ], [ 74.2162734, 16.9116504 ], [ 74.2231654, 16.9136865 ], [ 74.2247507, 16.9132977 ], [ 74.2308585, 16.9033339 ], [ 74.2321866, 16.8903784 ], [ 74.2364111, 16.8861237 ], [ 74.2469533, 16.8864195 ], [ 74.2488018, 16.8868296 ], [ 74.2524137, 16.8934705 ], [ 74.2545101, 16.9028886 ], [ 74.25723, 16.9065092 ], [ 74.2628063, 16.909495 ], [ 74.2680048, 16.9096574 ], [ 74.2733485, 16.9142791 ], [ 74.2818162, 16.9185158 ], [ 74.2837496, 16.9174478 ], [ 74.2841209, 16.9141811 ], [ 74.2909859, 16.8996201 ], [ 74.2926571, 16.8971838 ], [ 74.2950986, 16.8966326 ], [ 74.2955482, 16.8946411 ], [ 74.3044117, 16.8905247 ], [ 74.3118476, 16.8924255 ], [ 74.314383, 16.8913156 ], [ 74.3191254, 16.8880483 ], [ 74.3275653, 16.877208 ], [ 74.3314101, 16.877553 ], [ 74.3370859, 16.8813039 ], [ 74.3433561, 16.8769946 ], [ 74.3455541, 16.8735552 ], [ 74.3541997, 16.8727763 ], [ 74.3556176, 16.8711984 ], [ 74.3553714, 16.8625346 ], [ 74.3620295, 16.8534423 ], [ 74.3679969, 16.8573534 ], [ 74.3785326, 16.86868 ], [ 74.3880551, 16.8701905 ], [ 74.3903798, 16.8748188 ], [ 74.401529, 16.8830072 ], [ 74.4031213, 16.8817638 ], [ 74.4022236, 16.8785302 ], [ 74.4036027, 16.8764101 ], [ 74.4129412, 16.879626 ], [ 74.4156765, 16.8776746 ], [ 74.415862, 16.8711729 ], [ 74.4144106, 16.8649022 ], [ 74.4104225, 16.8619208 ], [ 74.4040555, 16.8513846 ], [ 74.4066553, 16.8478868 ], [ 74.4146402, 16.8439512 ], [ 74.4220911, 16.8438496 ], [ 74.4274091, 16.8462212 ], [ 74.4282623, 16.8479649 ], [ 74.4316634, 16.8477972 ], [ 74.4348999, 16.8505291 ], [ 74.4387908, 16.8516057 ], [ 74.4455865, 16.8513469 ], [ 74.4511068, 16.8540656 ], [ 74.4547254, 16.852601 ], [ 74.4584267, 16.8529742 ], [ 74.4656027, 16.8585169 ], [ 74.4682105, 16.8664159 ], [ 74.4725567, 16.8684775 ], [ 74.4825879, 16.8654848 ], [ 74.4863812, 16.8602983 ], [ 74.4925324, 16.8597947 ], [ 74.4950336, 16.8578143 ], [ 74.4967316, 16.8550508 ], [ 74.4940328, 16.8471661 ], [ 74.4954244, 16.83512 ], [ 74.4971298, 16.830409 ], [ 74.5005731, 16.8296305 ], [ 74.5022689, 16.8338815 ], [ 74.5133249, 16.8392218 ], [ 74.5145629, 16.8408624 ], [ 74.5129548, 16.8513493 ], [ 74.5169437, 16.8581379 ], [ 74.5179318, 16.8523886 ], [ 74.5221618, 16.8517376 ], [ 74.5287061, 16.8457963 ], [ 74.5345781, 16.8461783 ], [ 74.5478122, 16.8305478 ], [ 74.5544334, 16.8246049 ], [ 74.5573685, 16.8193272 ], [ 74.5578992, 16.8105636 ], [ 74.5605951, 16.8062186 ], [ 74.5736754, 16.8027787 ], [ 74.5919703, 16.8019531 ], [ 74.604657, 16.7993987 ], [ 74.6136137, 16.7936842 ], [ 74.6294332, 16.7879513 ], [ 74.6415424, 16.7727944 ], [ 74.6431807, 16.7663146 ], [ 74.6425781, 16.7567706 ], [ 74.6458331, 16.752363 ], [ 74.6510961, 16.7506581 ], [ 74.6603804, 16.7500588 ], [ 74.6708648, 16.746949 ], [ 74.675982, 16.7437449 ], [ 74.6939636, 16.7390836 ], [ 74.6978853, 16.7373891 ], [ 74.6999294, 16.7350203 ], [ 74.7004599, 16.730549 ], [ 74.688944, 16.7131475 ], [ 74.687725, 16.7086037 ], [ 74.6897843, 16.6972625 ], [ 74.6893987, 16.6864641 ], [ 74.680825, 16.6858917 ], [ 74.6810857, 16.6809091 ], [ 74.6888432, 16.6815387 ], [ 74.6895503, 16.6770257 ], [ 74.6790233, 16.6730954 ], [ 74.6795048, 16.6661705 ], [ 74.6651639, 16.6656715 ], [ 74.6591606, 16.647339 ], [ 74.6535464, 16.6388754 ], [ 74.6590502, 16.6316677 ], [ 74.6698052, 16.6293999 ], [ 74.6766037, 16.623588 ], [ 74.6875725, 16.6178854 ], [ 74.6898602, 16.6131428 ], [ 74.6884342, 16.6084715 ], [ 74.6866068, 16.606578 ], [ 74.683617, 16.6060276 ], [ 74.6738309, 16.6092019 ], [ 74.6650623, 16.6042719 ], [ 74.6599871, 16.6028991 ], [ 74.6540525, 16.6041719 ], [ 74.6444327, 16.610293 ], [ 74.639306, 16.6101217 ], [ 74.6361455, 16.6074205 ], [ 74.6333533, 16.6003588 ], [ 74.6330884, 16.5918013 ], [ 74.6356521, 16.5836124 ], [ 74.6331945, 16.5832149 ], [ 74.6283333, 16.5775106 ], [ 74.6228421, 16.5797539 ], [ 74.6187985, 16.584072 ], [ 74.6162898, 16.5748308 ], [ 74.6085362, 16.5690466 ], [ 74.6042798, 16.568983 ], [ 74.6010218, 16.564898 ], [ 74.5979603, 16.5643509 ], [ 74.5878777, 16.5661023 ], [ 74.5840278, 16.5623512 ], [ 74.5846419, 16.5591253 ], [ 74.5745951, 16.5589422 ], [ 74.5735218, 16.5569183 ], [ 74.5740215, 16.5542165 ], [ 74.5723807, 16.5534924 ], [ 74.5685367, 16.5538687 ], [ 74.5656635, 16.5584337 ], [ 74.5600799, 16.5630632 ], [ 74.5557815, 16.5629783 ], [ 74.5548461, 16.5645119 ], [ 74.5553867, 16.5723923 ], [ 74.5646603, 16.5796477 ], [ 74.5668942, 16.5853886 ], [ 74.5587733, 16.5946532 ], [ 74.5521263, 16.5952791 ], [ 74.5486077, 16.5941459 ], [ 74.5434927, 16.5953186 ], [ 74.5427041, 16.6266273 ], [ 74.5447297, 16.6289804 ], [ 74.544489, 16.6354687 ], [ 74.5242646, 16.633437 ], [ 74.5038491, 16.6335642 ], [ 74.50024, 16.633132 ], [ 74.4950137, 16.629753 ], [ 74.4890338, 16.6301448 ], [ 74.483537, 16.6354885 ], [ 74.4759966, 16.6458641 ], [ 74.4749559, 16.6546867 ], [ 74.4717122, 16.6640548 ], [ 74.4673781, 16.6630672 ], [ 74.4640831, 16.6582701 ], [ 74.4563979, 16.6550464 ], [ 74.4583451, 16.6486817 ], [ 74.4547824, 16.6472955 ], [ 74.4585012, 16.6355653 ], [ 74.4625916, 16.6280567 ], [ 74.4658091, 16.624721 ], [ 74.4657366, 16.6156613 ], [ 74.4641028, 16.6150947 ], [ 74.4667115, 16.6068224 ], [ 74.4634466, 16.6044897 ], [ 74.4354381, 16.60106 ], [ 74.4263386, 16.5957398 ], [ 74.4221453, 16.5845115 ], [ 74.420811, 16.5861222 ], [ 74.4086856, 16.5832259 ], [ 74.3966259, 16.5832675 ], [ 74.3955401, 16.5721718 ], [ 74.3934527, 16.5689882 ], [ 74.3921432, 16.5691217 ], [ 74.3912109, 16.5665525 ], [ 74.3929069, 16.5648835 ], [ 74.3869021, 16.5599382 ], [ 74.3885817, 16.550757 ], [ 74.3871499, 16.5361972 ], [ 74.3798326, 16.5285923 ], [ 74.3764277, 16.5291273 ], [ 74.3708059, 16.5347963 ], [ 74.3608231, 16.5389264 ], [ 74.3579255, 16.538342 ], [ 74.3577387, 16.5460786 ], [ 74.3561084, 16.5497554 ], [ 74.3566901, 16.5527644 ], [ 74.3590813, 16.5557516 ], [ 74.3562466, 16.5597473 ], [ 74.3539892, 16.5589206 ], [ 74.3551209, 16.5550632 ], [ 74.3502753, 16.5560313 ], [ 74.3457152, 16.5550004 ], [ 74.3444625, 16.5517341 ], [ 74.3396905, 16.5477574 ], [ 74.3348802, 16.5478803 ], [ 74.325173, 16.5562975 ], [ 74.3232577, 16.5565121 ], [ 74.317565, 16.5537072 ], [ 74.3157134, 16.5544547 ], [ 74.3151228, 16.5045975 ], [ 74.3061426, 16.5036929 ], [ 74.3042298, 16.5140464 ], [ 74.3010528, 16.5226429 ], [ 74.3026418, 16.5272475 ], [ 74.3013714, 16.5292695 ], [ 74.2915958, 16.5338824 ], [ 74.2890875, 16.5324399 ], [ 74.2888497, 16.5294332 ], [ 74.2868468, 16.5267676 ], [ 74.2831383, 16.5245893 ], [ 74.2807489, 16.5314466 ], [ 74.281089, 16.5410977 ], [ 74.2769217, 16.545418 ], [ 74.2723704, 16.5477488 ], [ 74.2702491, 16.5475063 ], [ 74.2641311, 16.5398305 ], [ 74.2697457, 16.5221727 ], [ 74.2761027, 16.5213082 ], [ 74.2782162, 16.5049145 ], [ 74.2657297, 16.5010999 ], [ 74.2525095, 16.5006175 ], [ 74.2473728, 16.4969132 ], [ 74.2566316, 16.4895374 ], [ 74.2607701, 16.4800966 ], [ 74.2743815, 16.4856265 ], [ 74.2745806, 16.4940256 ], [ 74.2796606, 16.5048253 ], [ 74.290895, 16.5049021 ], [ 74.2922161, 16.4994725 ], [ 74.2921824, 16.4857054 ], [ 74.2884539, 16.4772253 ], [ 74.2892752, 16.4629705 ], [ 74.2919517, 16.4617472 ], [ 74.2970473, 16.4645369 ], [ 74.3063991, 16.4552847 ], [ 74.3124563, 16.4532353 ], [ 74.3204438, 16.4539154 ], [ 74.324655, 16.4559294 ], [ 74.3275652, 16.4548457 ], [ 74.3312663, 16.4559491 ], [ 74.3325916, 16.4547588 ], [ 74.3297115, 16.447199 ], [ 74.3362339, 16.445671 ], [ 74.3326941, 16.4368506 ], [ 74.3367361, 16.4288067 ], [ 74.3312905, 16.424175 ], [ 74.3288533, 16.4190476 ], [ 74.3350543, 16.4014074 ], [ 74.3428815, 16.4035254 ], [ 74.344804, 16.4055321 ], [ 74.3636943, 16.4050913 ], [ 74.3629063, 16.3955238 ], [ 74.357971, 16.3895411 ], [ 74.3570097, 16.3834414 ], [ 74.3535763, 16.3818777 ], [ 74.3534099, 16.3664187 ], [ 74.3471607, 16.3686275 ], [ 74.3451201, 16.3731367 ], [ 74.3456413, 16.3768961 ], [ 74.3412099, 16.382775 ], [ 74.3406449, 16.3886682 ], [ 74.3358694, 16.3937416 ], [ 74.327493, 16.3914992 ], [ 74.3281447, 16.3853388 ], [ 74.3248407, 16.3782882 ], [ 74.3171926, 16.3810037 ], [ 74.3178355, 16.3787123 ], [ 74.3208387, 16.3758937 ], [ 74.3189819, 16.371637 ], [ 74.3247675, 16.3599361 ], [ 74.3242496, 16.3574329 ], [ 74.3178856, 16.3549584 ], [ 74.3176397, 16.3530528 ], [ 74.3270346, 16.3425095 ], [ 74.3264791, 16.3414222 ], [ 74.3187924, 16.3426605 ], [ 74.3153203, 16.34008 ], [ 74.3165639, 16.3361878 ], [ 74.3225048, 16.3343686 ], [ 74.3166066, 16.3265615 ], [ 74.3206409, 16.3237523 ], [ 74.32732, 16.3246825 ], [ 74.328745, 16.3237475 ], [ 74.3312935, 16.3206666 ], [ 74.3246143, 16.3166584 ], [ 74.3251565, 16.313682 ], [ 74.3291901, 16.31221 ], [ 74.3322355, 16.3140722 ], [ 74.3332181, 16.3134512 ], [ 74.332959, 16.3110609 ], [ 74.3347445, 16.309028 ], [ 74.331917, 16.3052524 ], [ 74.3331287, 16.3047434 ], [ 74.3359075, 16.3070922 ], [ 74.340421, 16.3024414 ], [ 74.3411654, 16.2998842 ], [ 74.3402815, 16.2981625 ], [ 74.3425482, 16.2980273 ], [ 74.342013, 16.2911772 ], [ 74.3399965, 16.2921258 ], [ 74.3383126, 16.290013 ], [ 74.3368878, 16.2907697 ], [ 74.334722, 16.2896056 ], [ 74.3318417, 16.2924337 ], [ 74.3279606, 16.2932461 ], [ 74.3246883, 16.2889033 ], [ 74.3257754, 16.2855867 ], [ 74.3231298, 16.2859927 ], [ 74.3208257, 16.2844755 ], [ 74.3224481, 16.2779074 ], [ 74.3245721, 16.2772325 ], [ 74.3249338, 16.2717563 ], [ 74.3284616, 16.2688744 ], [ 74.3341497, 16.2687989 ], [ 74.335056, 16.2703998 ], [ 74.3333272, 16.2759716 ], [ 74.3384343, 16.2714044 ], [ 74.342604, 16.2734159 ], [ 74.3420461, 16.2765078 ], [ 74.3437844, 16.2780768 ], [ 74.3504603, 16.2753667 ], [ 74.3537103, 16.2828219 ], [ 74.3430962, 16.2903505 ], [ 74.3455969, 16.2937625 ], [ 74.3510077, 16.2917888 ], [ 74.3510894, 16.2927557 ], [ 74.3547783, 16.2926409 ], [ 74.3617309, 16.2877094 ], [ 74.3641732, 16.2824567 ], [ 74.3673622, 16.2689578 ], [ 74.3705176, 16.2654155 ], [ 74.371161, 16.2628602 ], [ 74.3732028, 16.2616432 ], [ 74.3806359, 16.261968 ], [ 74.3802103, 16.2711519 ], [ 74.3826079, 16.277358 ], [ 74.3860641, 16.2772977 ], [ 74.4078643, 16.2832892 ], [ 74.4105144, 16.2830968 ], [ 74.4118077, 16.2816552 ], [ 74.4143948, 16.2826511 ], [ 74.4159498, 16.2801002 ], [ 74.415532, 16.2724146 ], [ 74.4176107, 16.2580007 ], [ 74.4289512, 16.257526 ], [ 74.4357715, 16.2588346 ], [ 74.4366026, 16.254081 ], [ 74.4355517, 16.2511467 ], [ 74.4548349, 16.253393 ], [ 74.456094, 16.2438646 ], [ 74.4686205, 16.2401854 ], [ 74.4767138, 16.2494294 ], [ 74.4780755, 16.2505131 ], [ 74.4804795, 16.2501257 ], [ 74.4815581, 16.2466799 ], [ 74.486044, 16.2431172 ], [ 74.490347, 16.2348893 ], [ 74.4952134, 16.2349047 ], [ 74.5031019, 16.2254057 ], [ 74.5031073, 16.2224682 ], [ 74.4962859, 16.2166694 ], [ 74.495926, 16.2143006 ], [ 74.5012551, 16.20553 ], [ 74.5043672, 16.2050344 ], [ 74.5079952, 16.2022583 ], [ 74.5058414, 16.201358 ], [ 74.5072276, 16.1965321 ], [ 74.5062396, 16.1902437 ], [ 74.5033121, 16.1880661 ], [ 74.4937865, 16.1864486 ], [ 74.4895522, 16.177416 ], [ 74.4898365, 16.1634156 ], [ 74.4883674, 16.1572623 ], [ 74.4798324, 16.1471251 ], [ 74.480072, 16.1449923 ], [ 74.4851054, 16.1423035 ], [ 74.4858676, 16.1340571 ], [ 74.4879478, 16.12975 ], [ 74.4874885, 16.1277327 ], [ 74.4908362, 16.1167174 ], [ 74.4912311, 16.1043051 ], [ 74.4887923, 16.1007065 ], [ 74.4850978, 16.0983699 ], [ 74.4843049, 16.0914682 ], [ 74.4815554, 16.0888895 ], [ 74.4727276, 16.090604 ], [ 74.472689, 16.0929875 ], [ 74.461054, 16.0997837 ], [ 74.4586813, 16.103795 ], [ 74.4428974, 16.1053389 ], [ 74.4276193, 16.1119651 ], [ 74.4099719, 16.1021204 ], [ 74.4069564, 16.0935082 ], [ 74.398291, 16.0924608 ], [ 74.3900352, 16.0894625 ], [ 74.3918157, 16.0825334 ], [ 74.3908589, 16.0804849 ], [ 74.3895362, 16.0797869 ], [ 74.3839958, 16.0827535 ], [ 74.3817268, 16.0793036 ], [ 74.3722185, 16.0782103 ], [ 74.3715149, 16.0682443 ], [ 74.3613282, 16.0538359 ], [ 74.3635531, 16.0530325 ], [ 74.3725223, 16.0559993 ], [ 74.3773352, 16.0551205 ], [ 74.374728, 16.0473216 ], [ 74.3690488, 16.0392199 ], [ 74.3734011, 16.0364435 ], [ 74.3779988, 16.0376997 ], [ 74.3809913, 16.0354833 ], [ 74.4020856, 16.0461127 ], [ 74.4055184, 16.051836 ], [ 74.4116166, 16.053464 ], [ 74.414986, 16.0557137 ], [ 74.4209087, 16.0555974 ], [ 74.4296944, 16.0591515 ], [ 74.4342176, 16.0584747 ], [ 74.4428487, 16.0528062 ], [ 74.4501199, 16.0540102 ], [ 74.4571384, 16.0482265 ], [ 74.4622135, 16.0498376 ], [ 74.4630156, 16.0416194 ], [ 74.4564949, 16.0410588 ], [ 74.463223, 16.0391917 ], [ 74.4572339, 16.0269748 ], [ 74.455354, 16.0195236 ], [ 74.4501079, 16.0110503 ], [ 74.4502554, 16.0085456 ], [ 74.4479489, 16.0065932 ], [ 74.4469145, 16.0031784 ], [ 74.4447735, 16.0030493 ], [ 74.4463395, 15.9971046 ], [ 74.4446443, 15.9924403 ], [ 74.4426135, 15.9916333 ], [ 74.443771, 15.9867731 ], [ 74.4414851, 15.9827036 ], [ 74.4378727, 15.979897 ], [ 74.438895, 15.9794478 ], [ 74.4389312, 15.9756843 ], [ 74.4360701, 15.9674654 ], [ 74.4309859, 15.9596163 ], [ 74.4308304, 15.9565824 ], [ 74.4273478, 15.9511214 ], [ 74.4227617, 15.9473944 ], [ 74.4125646, 15.9338728 ], [ 74.4078103, 15.9307761 ], [ 74.3974649, 15.9165012 ], [ 74.3868653, 15.9049813 ], [ 74.3877838, 15.9013106 ], [ 74.393418, 15.9000359 ], [ 74.3967387, 15.8803601 ], [ 74.3927926, 15.8783896 ], [ 74.3976499, 15.8699706 ], [ 74.4069396, 15.863415 ], [ 74.4061707, 15.8553765 ], [ 74.4016346, 15.8546095 ], [ 74.4023524, 15.8522737 ], [ 74.4010616, 15.8527995 ], [ 74.3975366, 15.8511463 ], [ 74.3914148, 15.8547642 ], [ 74.3881403, 15.8542526 ], [ 74.3869278, 15.8596454 ], [ 74.3828332, 15.8600449 ], [ 74.3800345, 15.8762884 ], [ 74.3767532, 15.8823822 ], [ 74.3693584, 15.8898463 ], [ 74.3661028, 15.8913136 ], [ 74.3686149, 15.8943596 ], [ 74.3646951, 15.8938618 ], [ 74.3651316, 15.8824994 ], [ 74.3629887, 15.8774202 ], [ 74.3633665, 15.8750711 ], [ 74.35772, 15.8730017 ], [ 74.3509029, 15.8655616 ], [ 74.3455193, 15.8622882 ], [ 74.3472058, 15.860173 ], [ 74.3466088, 15.8587872 ], [ 74.338209, 15.8549187 ], [ 74.3447866, 15.8505042 ], [ 74.3682221, 15.8505679 ], [ 74.3830854, 15.8491049 ], [ 74.3840528, 15.8401217 ], [ 74.3807432, 15.8367313 ], [ 74.381037, 15.8353841 ], [ 74.3799288, 15.8382661 ], [ 74.3765982, 15.8333529 ], [ 74.3773978, 15.8322245 ], [ 74.3748231, 15.8331312 ], [ 74.3725901, 15.8319189 ], [ 74.3723334, 15.8302212 ], [ 74.3707371, 15.8305666 ], [ 74.3664115, 15.8257579 ], [ 74.3653579, 15.8192694 ], [ 74.3613898, 15.8183282 ], [ 74.3605873, 15.8169578 ], [ 74.3703002, 15.810713 ], [ 74.3698053, 15.8073316 ], [ 74.3686859, 15.8069513 ], [ 74.3712089, 15.8036675 ], [ 74.3716712, 15.8003548 ], [ 74.3703873, 15.7985877 ], [ 74.3719739, 15.7982421 ], [ 74.3690704, 15.7884594 ], [ 74.360928, 15.7803485 ], [ 74.3585336, 15.7750203 ], [ 74.3531543, 15.7709365 ], [ 74.3502514, 15.770325 ], [ 74.3501407, 15.7688869 ], [ 74.3456844, 15.7645551 ], [ 74.3406863, 15.7646662 ], [ 74.3398973, 15.7663908 ], [ 74.3368059, 15.7679363 ], [ 74.3230697, 15.7726766 ], [ 74.3189938, 15.7662211 ], [ 74.3184161, 15.7582913 ], [ 74.3097429, 15.7548949 ], [ 74.3103402, 15.751573 ], [ 74.3078988, 15.7484807 ], [ 74.3013475, 15.7476425 ], [ 74.2960804, 15.7444172 ], [ 74.2854553, 15.7416336 ], [ 74.2842576, 15.7436581 ], [ 74.2728261, 15.7496692 ], [ 74.2683188, 15.7547367 ], [ 74.2638424, 15.7529598 ], [ 74.2555414, 15.7460373 ], [ 74.2538583, 15.7467695 ], [ 74.2540254, 15.7451502 ], [ 74.2492377, 15.7450734 ], [ 74.2453831, 15.7432367 ], [ 74.2382199, 15.7440612 ], [ 74.2365176, 15.7482216 ], [ 74.2336988, 15.7482963 ], [ 74.2324337, 15.7522142 ], [ 74.2276305, 15.7565808 ], [ 74.2265022, 15.7626285 ], [ 74.2275095, 15.7690668 ], [ 74.2293679, 15.773461 ], [ 74.2346456, 15.7791939 ], [ 74.2335013, 15.7869945 ], [ 74.2283398, 15.7883384 ], [ 74.2159044, 15.7838944 ], [ 74.2131096, 15.7800564 ], [ 74.1991814, 15.7853742 ], [ 74.1815594, 15.775098 ], [ 74.1724953, 15.7738101 ], [ 74.1536251, 15.7868202 ], [ 74.1526722, 15.7994857 ], [ 74.1581938, 15.8154059 ], [ 74.1588172, 15.8218258 ], [ 74.1584883, 15.8227242 ], [ 74.1444013, 15.8220365 ], [ 74.1409558, 15.8233886 ], [ 74.1457219, 15.8328842 ], [ 74.1237762, 15.8249145 ], [ 74.1089465, 15.8226836 ], [ 74.1036303, 15.8338402 ], [ 74.1028815, 15.8408612 ], [ 74.0841658, 15.8383993 ], [ 74.0842311, 15.8370931 ], [ 74.077704, 15.8342559 ], [ 74.0742073, 15.8344796 ], [ 74.0690151, 15.8279635 ], [ 74.0658284, 15.8261176 ], [ 74.0670162, 15.8212632 ], [ 74.0656152, 15.8183131 ], [ 74.0668011, 15.8151716 ], [ 74.0492519, 15.8052393 ], [ 74.0443192, 15.8051291 ], [ 74.042765, 15.8031682 ], [ 74.0345338, 15.8026991 ], [ 74.0325536, 15.8139536 ], [ 74.0304332, 15.8188431 ], [ 74.0340166, 15.8327327 ], [ 74.030367, 15.8346408 ], [ 74.0330478, 15.8359101 ], [ 74.0327221, 15.8370284 ], [ 74.0427057, 15.8391306 ], [ 74.0426308, 15.8408447 ], [ 74.0481778, 15.8425379 ], [ 74.0509628, 15.8469412 ], [ 74.067262, 15.8583684 ], [ 74.077432, 15.8633664 ], [ 74.0830434, 15.8681928 ], [ 74.0886755, 15.8681896 ], [ 74.0929691, 15.873076 ], [ 74.0872046, 15.8744642 ], [ 74.0928147, 15.890665 ], [ 74.0906795, 15.8978556 ], [ 74.0931076, 15.9001059 ], [ 74.0908669, 15.9032942 ], [ 74.0895122, 15.9033198 ], [ 74.0883178, 15.9108959 ], [ 74.0838684, 15.9201208 ], [ 74.0815318, 15.9330056 ], [ 74.0751136, 15.9422011 ], [ 74.0730739, 15.9487327 ], [ 74.0706574, 15.9482723 ], [ 74.0692007, 15.9453655 ], [ 74.064518, 15.9426837 ], [ 74.0596597, 15.9418244 ], [ 74.0505859, 15.9461251 ], [ 74.0515324, 15.9520645 ], [ 74.0505127, 15.9518219 ], [ 74.0455816, 15.9571154 ], [ 74.0474647, 15.9607255 ], [ 74.0535097, 15.9642414 ], [ 74.0559283, 15.9679061 ], [ 74.0571485, 15.9722507 ], [ 74.0553862, 15.9739716 ], [ 74.059481, 15.9780896 ], [ 74.0624473, 15.9842661 ], [ 74.0764903, 15.9964141 ], [ 74.0782745, 15.9999771 ], [ 74.0850019, 16.0046496 ], [ 74.0891428, 16.0052874 ], [ 74.0908869, 16.0076928 ], [ 74.0910362, 16.0147363 ], [ 74.0812388, 16.0189593 ], [ 74.0770517, 16.0233076 ], [ 74.0651756, 16.0387466 ], [ 74.0639816, 16.0444499 ], [ 74.0600448, 16.0510768 ], [ 74.0565967, 16.0504011 ], [ 74.0547143, 16.0460326 ], [ 74.0515747, 16.0428259 ], [ 74.0504508, 16.0330443 ], [ 74.0440147, 16.0311639 ], [ 74.0382687, 16.0343125 ], [ 74.0345203, 16.031132 ], [ 74.0323353, 16.0328484 ], [ 74.0249392, 16.032213 ], [ 74.0184522, 16.0390075 ], [ 74.0131705, 16.0371803 ], [ 74.000727, 16.0412838 ], [ 73.9999917, 16.0436564 ], [ 74.0027371, 16.0529032 ], [ 73.9992957, 16.0559608 ], [ 73.9996986, 16.0583237 ], [ 73.9967806, 16.0580092 ], [ 73.9970626, 16.0596312 ], [ 74.0004834, 16.0594101 ], [ 74.0088867, 16.0645096 ], [ 74.0071611, 16.0665298 ], [ 74.0091909, 16.0646472 ], [ 74.0113743, 16.0666322 ], [ 74.0086439, 16.0691269 ], [ 74.0043897, 16.07913 ], [ 73.9910103, 16.0794224 ], [ 73.9959524, 16.092734 ], [ 73.9823168, 16.0942249 ], [ 73.9747111, 16.0936229 ], [ 73.9672366, 16.0957046 ], [ 73.9624113, 16.0946488 ], [ 73.956786, 16.0973609 ], [ 73.9464261, 16.0982237 ], [ 73.9421233, 16.0998799 ], [ 73.9376316, 16.097112 ], [ 73.9368438, 16.0980758 ], [ 73.9264048, 16.0984856 ], [ 73.9181568, 16.0975441 ], [ 73.9153962, 16.0995016 ], [ 73.9104249, 16.0990156 ], [ 73.9052481, 16.1009005 ], [ 73.9016581, 16.099317 ], [ 73.9001873, 16.0969054 ], [ 73.8994648, 16.0925416 ], [ 73.9012194, 16.0904271 ], [ 73.9007539, 16.0888254 ], [ 73.8959025, 16.0889486 ], [ 73.8945024, 16.091176 ], [ 73.8851974, 16.0943815 ], [ 73.8847909, 16.0928581 ], [ 73.8772665, 16.0949013 ], [ 73.875409, 16.0970436 ], [ 73.8738508, 16.0970445 ], [ 73.8715415, 16.0937543 ], [ 73.8644367, 16.0954861 ], [ 73.864409, 16.0976158 ], [ 73.8734439, 16.106301 ], [ 73.8655711, 16.1058644 ], [ 73.8629182, 16.1071696 ], [ 73.8593446, 16.1060948 ], [ 73.8603098, 16.1050207 ], [ 73.8587104, 16.1036134 ], [ 73.8527143, 16.102744 ], [ 73.8536278, 16.0984494 ], [ 73.8524865, 16.0974076 ], [ 73.8502716, 16.0981058 ], [ 73.8473794, 16.09475 ], [ 73.8437767, 16.0939087 ], [ 73.8434456, 16.0872949 ], [ 73.8448499, 16.0843118 ], [ 73.8533749, 16.0816876 ], [ 73.8599521, 16.0699448 ], [ 73.8553973, 16.0748939 ], [ 73.8426575, 16.0788541 ], [ 73.8440211, 16.0846333 ], [ 73.8339368, 16.0939559 ], [ 73.8346494, 16.0994303 ], [ 73.8371713, 16.1005837 ], [ 73.8405592, 16.105699 ], [ 73.8439985, 16.1061372 ], [ 73.8456577, 16.1093948 ], [ 73.8459744, 16.1143892 ], [ 73.8492883, 16.1184181 ], [ 73.8478574, 16.1195776 ], [ 73.8488796, 16.1213449 ], [ 73.846118, 16.1239038 ], [ 73.8498816, 16.1283318 ], [ 73.8468177, 16.1316696 ], [ 73.853631, 16.134716 ], [ 73.8533418, 16.1379418 ], [ 73.8500633, 16.1410348 ], [ 73.8502003, 16.1456591 ], [ 73.8448683, 16.1530964 ], [ 73.8645686, 16.1391029 ], [ 73.8660712, 16.1393321 ], [ 73.8657186, 16.1441917 ], [ 73.8671557, 16.1469909 ], [ 73.8691226, 16.1456821 ], [ 73.8695385, 16.1427369 ], [ 73.8727121, 16.1445121 ], [ 73.8776012, 16.1436484 ], [ 73.8830723, 16.1456172 ], [ 73.885957, 16.143272 ], [ 73.8883469, 16.143617 ], [ 73.8895315, 16.1400834 ], [ 73.8968592, 16.1393909 ], [ 73.9060599, 16.1357844 ], [ 73.9112228, 16.1399324 ], [ 73.91252, 16.1393518 ], [ 73.913503, 16.140921 ], [ 73.9143343, 16.1400783 ], [ 73.9166973, 16.1453002 ], [ 73.9139426, 16.1495406 ], [ 73.9176195, 16.1509988 ], [ 73.9187796, 16.1536335 ], [ 73.9158662, 16.1564805 ], [ 73.9083347, 16.1597285 ], [ 73.9123445, 16.1612947 ], [ 73.9176199, 16.1674484 ], [ 73.9168894, 16.1683603 ], [ 73.9179655, 16.1698967 ], [ 73.9146533, 16.1718411 ], [ 73.9220402, 16.1735926 ], [ 73.9288583, 16.1694303 ], [ 73.9314905, 16.1697735 ], [ 73.9343294, 16.1736895 ], [ 73.9427288, 16.1745089 ], [ 73.9457816, 16.1793527 ], [ 73.9415254, 16.184756 ], [ 73.9375729, 16.1858318 ], [ 73.9408979, 16.1884702 ], [ 73.9404441, 16.1906878 ], [ 73.9512787, 16.1971432 ], [ 73.9564995, 16.2032715 ], [ 73.9537404, 16.2038911 ], [ 73.9562104, 16.2085653 ], [ 73.9450252, 16.2061344 ], [ 73.9378032, 16.2086726 ], [ 73.9356697, 16.204557 ], [ 73.932494, 16.206085 ], [ 73.9254885, 16.2021737 ], [ 73.9226348, 16.2021152 ], [ 73.9275997, 16.2062785 ], [ 73.9256846, 16.2081906 ], [ 73.9292844, 16.2103314 ], [ 73.9290109, 16.2125055 ], [ 73.925711, 16.213675 ], [ 73.9258872, 16.2172716 ], [ 73.9238926, 16.2189871 ], [ 73.9177954, 16.2181985 ], [ 73.9205149, 16.2198561 ], [ 73.929881, 16.2212718 ], [ 73.9312151, 16.2235919 ], [ 73.9353702, 16.2257154 ], [ 73.9350441, 16.228153 ], [ 73.9373046, 16.2302641 ], [ 73.9383535, 16.2359861 ], [ 73.946209, 16.2390022 ], [ 73.9428639, 16.2437882 ], [ 73.9357551, 16.243565 ], [ 73.9287917, 16.2385123 ], [ 73.9260017, 16.2393187 ], [ 73.9242891, 16.2350764 ], [ 73.9185158, 16.2344885 ], [ 73.9147833, 16.2310753 ], [ 73.913938, 16.2310403 ], [ 73.9136633, 16.23447 ], [ 73.9057475, 16.2351037 ], [ 73.900476, 16.2333663 ], [ 73.8976091, 16.2346724 ], [ 73.8893753, 16.2290454 ], [ 73.8927229, 16.2338557 ], [ 73.9002419, 16.2378488 ], [ 73.9073475, 16.2393616 ], [ 73.9174999, 16.2456538 ], [ 73.9075775, 16.2515176 ], [ 73.9067651, 16.2528156 ], [ 73.9089645, 16.2545621 ], [ 73.9049232, 16.2565206 ], [ 73.8918738, 16.256582 ], [ 73.890794, 16.257843 ], [ 73.8945156, 16.2621894 ], [ 73.8913028, 16.2690289 ], [ 73.8869668, 16.273005 ], [ 73.8840981, 16.2737618 ], [ 73.8846271, 16.2758682 ], [ 73.8818018, 16.2788319 ], [ 73.8827154, 16.2824937 ], [ 73.887632, 16.285227 ], [ 73.8897206, 16.2898513 ], [ 73.8887653, 16.2996392 ], [ 73.9007626, 16.3060125 ], [ 73.9016049, 16.3078495 ], [ 73.9036009, 16.31945 ], [ 73.9021955, 16.3286311 ], [ 73.8994024, 16.3298129 ], [ 73.8941955, 16.3286397 ], [ 73.8897601, 16.3226452 ], [ 73.8883866, 16.3236816 ], [ 73.8875609, 16.322736 ], [ 73.8868503, 16.3283389 ], [ 73.8731928, 16.3166197 ], [ 73.868134, 16.3149929 ], [ 73.8638129, 16.3085367 ], [ 73.8582857, 16.3128589 ], [ 73.8564043, 16.3172716 ], [ 73.8520977, 16.3133208 ], [ 73.8472621, 16.3009613 ], [ 73.8458912, 16.3003724 ], [ 73.8475303, 16.3084253 ], [ 73.8467458, 16.3142769 ], [ 73.8447303, 16.3157125 ], [ 73.8388847, 16.3164364 ], [ 73.8481147, 16.3244527 ], [ 73.8406816, 16.3385024 ], [ 73.8374647, 16.3425671 ], [ 73.8340084, 16.3428783 ], [ 73.8321306, 16.3450026 ], [ 73.8373229, 16.346052 ], [ 73.8393102, 16.3523839 ], [ 73.8424429, 16.3522355 ], [ 73.8434203, 16.3553103 ], [ 73.8478561, 16.3538428 ], [ 73.8500112, 16.3548924 ], [ 73.8527017, 16.3579032 ], [ 73.852408, 16.3601904 ], [ 73.854004, 16.3600336 ], [ 73.8540247, 16.362317 ], [ 73.855469, 16.362443 ], [ 73.8567501, 16.3663306 ], [ 73.8599258, 16.3668213 ], [ 73.8617981, 16.371907 ], [ 73.8632762, 16.3727861 ], [ 73.8560229, 16.3859033 ], [ 73.84533, 16.3887504 ], [ 73.8424323, 16.3915607 ], [ 73.8367472, 16.3921991 ], [ 73.8351575, 16.3943438 ], [ 73.8357649, 16.3983544 ], [ 73.8340446, 16.4014838 ], [ 73.8450692, 16.4129645 ], [ 73.849248, 16.4145065 ], [ 73.8509678, 16.4166268 ], [ 73.8510808, 16.4185293 ], [ 73.848876, 16.4210939 ], [ 73.8493995, 16.4226282 ], [ 73.8575288, 16.4254776 ], [ 73.8671704, 16.4337438 ], [ 73.8720871, 16.4421298 ], [ 73.8779671, 16.4424465 ], [ 73.8825617, 16.4456176 ], [ 73.8839602, 16.4498959 ], [ 73.8864154, 16.450839 ], [ 73.8875432, 16.4633949 ], [ 73.8853785, 16.4699259 ], [ 73.8609708, 16.4761331 ], [ 73.8612352, 16.4817213 ], [ 73.8542307, 16.4880584 ], [ 73.8516146, 16.4876303 ], [ 73.8519869, 16.4926897 ], [ 73.8500425, 16.4978059 ], [ 73.8470016, 16.5003777 ], [ 73.8462447, 16.5029821 ], [ 73.8397428, 16.5073972 ], [ 73.8416113, 16.5159704 ], [ 73.8457462, 16.5184038 ], [ 73.8461453, 16.5257308 ], [ 73.8471775, 16.5262318 ], [ 73.840951, 16.529188 ], [ 73.8390525, 16.5323269 ], [ 73.8354922, 16.532683 ], [ 73.8343086, 16.5317141 ], [ 73.8308112, 16.53371 ], [ 73.8269872, 16.5380448 ], [ 73.8259279, 16.5376888 ], [ 73.8243118, 16.5407677 ], [ 73.8148397, 16.5442764 ], [ 73.8170129, 16.5483428 ], [ 73.8217385, 16.5506328 ], [ 73.8309627, 16.549665 ], [ 73.8311813, 16.5583949 ], [ 73.8340106, 16.562202 ], [ 73.8358744, 16.5609152 ], [ 73.8391901, 16.5665163 ], [ 73.8437633, 16.5695001 ], [ 73.8465404, 16.574299 ], [ 73.8447897, 16.5772603 ], [ 73.8444771, 16.5832123 ], [ 73.8407345, 16.5860245 ], [ 73.8418326, 16.5891456 ], [ 73.8470875, 16.5929446 ], [ 73.8473203, 16.5964357 ], [ 73.8492352, 16.5968513 ], [ 73.8529764, 16.6017608 ], [ 73.8590651, 16.6040622 ], [ 73.8623792, 16.6140364 ], [ 73.8614373, 16.6169983 ], [ 73.8535962, 16.6250325 ], [ 73.8529686, 16.6323937 ], [ 73.8479332, 16.642884 ], [ 73.8520121, 16.6477682 ], [ 73.8490567, 16.6500602 ], [ 73.8564709, 16.6559003 ], [ 73.8532055, 16.6589291 ], [ 73.8568092, 16.6592533 ], [ 73.863492, 16.668407 ], [ 73.8630778, 16.6706011 ], [ 73.8612699, 16.6718014 ], [ 73.8502908, 16.6734437 ], [ 73.8510548, 16.6751039 ], [ 73.8559299, 16.6766883 ], [ 73.8595818, 16.6811761 ], [ 73.8491188, 16.690198 ], [ 73.8423124, 16.6941431 ], [ 73.8361487, 16.6940133 ], [ 73.832066, 16.6962319 ], [ 73.8253, 16.6972617 ], [ 73.8241899, 16.7006416 ], [ 73.8208206, 16.7007909 ], [ 73.8199134, 16.7058924 ], [ 73.8167125, 16.70908 ], [ 73.8108764, 16.7082306 ], [ 73.8179009, 16.7147617 ], [ 73.8240845, 16.7139553 ], [ 73.8258879, 16.7152242 ], [ 73.829394, 16.7243546 ], [ 73.8294717, 16.7279954 ], [ 73.8372427, 16.735885 ], [ 73.8375656, 16.738031 ], [ 73.8349065, 16.7403886 ], [ 73.8348313, 16.7424 ], [ 73.8274178, 16.7431642 ], [ 73.8300147, 16.7503993 ], [ 73.8274745, 16.7502002 ], [ 73.8287226, 16.754003 ], [ 73.8240562, 16.7575929 ], [ 73.8183809, 16.7657596 ], [ 73.8128882, 16.7686697 ], [ 73.8117067, 16.7675067 ], [ 73.808886, 16.7679652 ], [ 73.8079732, 16.7663518 ], [ 73.8054193, 16.7669783 ], [ 73.8022563, 16.7656914 ], [ 73.797577, 16.7609081 ], [ 73.7929621, 16.7616435 ], [ 73.7861367, 16.7678161 ], [ 73.786759, 16.7699952 ], [ 73.7849427, 16.7758661 ], [ 73.7797968, 16.7794096 ], [ 73.7741849, 16.7775507 ], [ 73.7704717, 16.7705216 ], [ 73.762745, 16.7689543 ], [ 73.7608398, 16.7700134 ], [ 73.7607573, 16.7736225 ], [ 73.7554345, 16.7768501 ], [ 73.7564654, 16.7792544 ], [ 73.7542955, 16.7833514 ], [ 73.7599707, 16.7915643 ], [ 73.7588543, 16.7940585 ], [ 73.7604504, 16.802538 ], [ 73.7552348, 16.8059308 ], [ 73.7503327, 16.8057207 ], [ 73.7517027, 16.8103684 ], [ 73.7484881, 16.8138978 ], [ 73.7354688, 16.8224593 ], [ 73.7329793, 16.8161634 ], [ 73.7275515, 16.8168267 ], [ 73.7290455, 16.8208097 ], [ 73.7163549, 16.824975 ], [ 73.7114199, 16.8279197 ], [ 73.7118259, 16.8304671 ], [ 73.7169481, 16.8367139 ], [ 73.7237957, 16.8390855 ], [ 73.7275245, 16.8346036 ], [ 73.7324935, 16.837162 ], [ 73.735087, 16.8425389 ], [ 73.7378232, 16.8450938 ], [ 73.7649253, 16.8290245 ], [ 73.7627294, 16.8346964 ], [ 73.7663424, 16.8368888 ], [ 73.7658379, 16.8441916 ], [ 73.7626154, 16.8473389 ], [ 73.7640286, 16.8488802 ], [ 73.7618362, 16.8514985 ], [ 73.7666755, 16.8546801 ], [ 73.7641894, 16.8620591 ], [ 73.7671425, 16.865929 ], [ 73.7615222, 16.8726039 ], [ 73.7466723, 16.884401 ], [ 73.74868, 16.895094 ], [ 73.7473758, 16.9042569 ], [ 73.739643, 16.8961953 ], [ 73.7357647, 16.9017501 ], [ 73.738715, 16.9073793 ], [ 73.7365251, 16.9147236 ], [ 73.7424259, 16.9178132 ], [ 73.7476398, 16.9051708 ], [ 73.7540723, 16.9066172 ], [ 73.7592573, 16.9035908 ], [ 73.7647786, 16.9098162 ], [ 73.7705152, 16.9080106 ], [ 73.7770347, 16.9106934 ], [ 73.7782411, 16.9091185 ], [ 73.7804295, 16.9107073 ], [ 73.7836952, 16.9065484 ], [ 73.7852658, 16.9078801 ], [ 73.7883748, 16.906894 ], [ 73.7903227, 16.9210833 ], [ 73.7922112, 16.923282 ], [ 73.7877624, 16.9240758 ], [ 73.7910468, 16.9306364 ], [ 73.79516, 16.9299173 ], [ 73.7899505, 16.9348712 ], [ 73.789568, 16.9396474 ], [ 73.7778638, 16.9473758 ], [ 73.7668692, 16.9600903 ], [ 73.762165, 16.9617369 ], [ 73.7651412, 16.9682682 ], [ 73.7721204, 16.9750396 ], [ 73.7758556, 16.9726826 ], [ 73.7837474, 16.9859364 ], [ 73.782398, 16.990317 ], [ 73.7859621, 16.9930656 ], [ 73.7971762, 16.9926744 ], [ 73.8067379, 16.9898864 ], [ 73.8092345, 16.9879493 ], [ 73.8195956, 16.9897981 ], [ 73.8218204, 16.98799 ], [ 73.8233598, 16.9892477 ], [ 73.8312171, 16.9894871 ], [ 73.8341276, 17.0013489 ], [ 73.8274239, 17.0116465 ], [ 73.8315601, 17.0231207 ], [ 73.8305475, 17.0276263 ], [ 73.8248406, 17.0376841 ], [ 73.8324164, 17.0481244 ], [ 73.8339955, 17.05311 ], [ 73.832549, 17.058229 ], [ 73.8172495, 17.065507 ], [ 73.8036023, 17.0625218 ], [ 73.8071105, 17.0862219 ], [ 73.79333, 17.0992842 ], [ 73.7899799, 17.0948859 ], [ 73.7844946, 17.0982112 ], [ 73.7802861, 17.1066019 ], [ 73.7783174, 17.1083453 ], [ 73.7686683, 17.1092909 ], [ 73.7596039, 17.1207294 ], [ 73.7498059, 17.1294928 ], [ 73.7447393, 17.1312551 ], [ 73.7364861, 17.121439 ], [ 73.7220308, 17.1274864 ], [ 73.7167828, 17.1312466 ], [ 73.7098047, 17.1410753 ], [ 73.6943243, 17.1389126 ], [ 73.689315, 17.1418094 ], [ 73.6886155, 17.1567975 ], [ 73.7069833, 17.1634449 ], [ 73.7079129, 17.1697368 ], [ 73.713177, 17.1736877 ], [ 73.7199719, 17.1690969 ], [ 73.7291222, 17.1690183 ], [ 73.7374898, 17.173349 ], [ 73.7374808, 17.1756961 ], [ 73.7425717, 17.1764798 ], [ 73.7435205, 17.1643359 ], [ 73.744724, 17.1636102 ], [ 73.7428776, 17.1625552 ], [ 73.7423632, 17.1600689 ], [ 73.7472357, 17.1550855 ], [ 73.749586, 17.1556548 ], [ 73.7517581, 17.1535665 ], [ 73.7546002, 17.1531642 ], [ 73.7596115, 17.1537964 ], [ 73.7731879, 17.149629 ], [ 73.7770953, 17.1540738 ], [ 73.7707491, 17.16352 ], [ 73.7681232, 17.1755347 ], [ 73.7688306, 17.1767287 ], [ 73.7734791, 17.1775265 ], [ 73.7758739, 17.1820775 ] ], [ [ 74.2911674, 15.8321379 ], [ 74.2781893, 15.8292847 ], [ 74.2616613, 15.829591 ], [ 74.263682, 15.8243334 ], [ 74.2689936, 15.8165678 ], [ 74.2661882, 15.809782 ], [ 74.2679439, 15.8002733 ], [ 74.2664748, 15.7977955 ], [ 74.2708098, 15.7951629 ], [ 74.2723914, 15.7964151 ], [ 74.2748576, 15.7960921 ], [ 74.2855959, 15.788097 ], [ 74.2898235, 15.7877287 ], [ 74.2891477, 15.7914245 ], [ 74.2932985, 15.7952734 ], [ 74.2967265, 15.7941401 ], [ 74.2978747, 15.7909658 ], [ 74.3017661, 15.7875174 ], [ 74.3094356, 15.7911849 ], [ 74.3134143, 15.7964323 ], [ 74.3129061, 15.7982009 ], [ 74.3035883, 15.8064413 ], [ 74.2911674, 15.8321379 ] ] ] } }
]
}
