{
"type": "FeatureCollection",
"name": "2735",
"crs": { "type": "name", "properties": { "name": "urn:ogc:def:crs:OGC:1.3:CRS84" } },
"features": [
{ "type": "Feature", "properties": { "code": "2735", "name": "Sangli", "type": "district" }, "geometry": { "type": "Polygon", "coordinates": [ [ [ 74.9090343, 17.6208987 ], [ 74.9165773, 17.6218125 ], [ 74.9191291, 17.6184732 ], [ 74.9228599, 17.6188195 ], [ 74.9187446, 17.6125135 ], [ 74.9162458, 17.6047501 ], [ 74.9166906, 17.6021482 ], [ 74.9149223, 17.6014558 ], [ 74.9151946, 17.5994762 ], [ 74.9174467, 17.5982015 ], [ 74.9170901, 17.595435 ], [ 74.9148998, 17.593096 ], [ 74.91544, 17.5800348 ], [ 74.9204761, 17.5767973 ], [ 74.934612, 17.5836527 ], [ 74.9443717, 17.5906431 ], [ 74.9476817, 17.5904623 ], [ 74.9506233, 17.5880968 ], [ 74.9530776, 17.5878455 ], [ 74.9545286, 17.5898647 ], [ 74.956795, 17.5894399 ], [ 74.9596897, 17.5919572 ], [ 74.9618606, 17.591464 ], [ 74.9630065, 17.577473 ], [ 74.9607632, 17.5689482 ], [ 74.9624686, 17.5620745 ], [ 74.9743019, 17.5513466 ], [ 74.9851208, 17.5448934 ], [ 74.9836739, 17.5382691 ], [ 74.9818091, 17.5384614 ], [ 74.9698116, 17.5314056 ], [ 74.9589688, 17.52233 ], [ 74.948555, 17.5206805 ], [ 74.9431497, 17.5218891 ], [ 74.9403222, 17.5186745 ], [ 74.9367944, 17.5103153 ], [ 74.943092, 17.5073994 ], [ 74.9447325, 17.5050105 ], [ 74.9442491, 17.5025597 ], [ 74.9478538, 17.498436 ], [ 74.9584245, 17.4941329 ], [ 74.9605774, 17.4919984 ], [ 74.9625279, 17.4873914 ], [ 74.965698, 17.4847875 ], [ 74.9666428, 17.4787557 ], [ 74.9695578, 17.4756042 ], [ 74.9686881, 17.4713676 ], [ 74.9734044, 17.4661308 ], [ 74.9802583, 17.4657884 ], [ 74.9900701, 17.4756911 ], [ 75.0065568, 17.4827361 ], [ 75.0092429, 17.4842453 ], [ 75.0093779, 17.4856297 ], [ 75.0181872, 17.4888685 ], [ 75.0271197, 17.4952592 ], [ 75.0317336, 17.4956855 ], [ 75.0380737, 17.4889637 ], [ 75.0417944, 17.4701134 ], [ 75.0387949, 17.4577288 ], [ 75.0351528, 17.4523818 ], [ 75.0325867, 17.4449461 ], [ 75.0351419, 17.4180834 ], [ 75.0257458, 17.4120976 ], [ 75.0225228, 17.4086364 ], [ 75.0079776, 17.4116849 ], [ 75.0047443, 17.413477 ], [ 75.0031093, 17.4087702 ], [ 75.0003626, 17.408822 ], [ 74.9977695, 17.4066393 ], [ 74.998329, 17.4043887 ], [ 74.9944279, 17.3926227 ], [ 74.9979187, 17.3926263 ], [ 75.0014589, 17.3891792 ], [ 75.0062002, 17.3784769 ], [ 75.0065017, 17.3723978 ], [ 75.0083196, 17.3682051 ], [ 74.9833587, 17.3554921 ], [ 74.9679748, 17.3414201 ], [ 74.9667368, 17.3388659 ], [ 74.9674886, 17.3307767 ], [ 74.9704384, 17.3269176 ], [ 74.9597743, 17.293087 ], [ 74.9366828, 17.2853893 ], [ 74.9363774, 17.276159 ], [ 74.9352446, 17.2755202 ], [ 74.9105674, 17.277184 ], [ 74.9090245, 17.2759735 ], [ 74.8995116, 17.2636725 ], [ 74.8980644, 17.241526 ], [ 74.8927256, 17.2397157 ], [ 74.8945478, 17.2382089 ], [ 74.8944695, 17.2366104 ], [ 74.8915934, 17.2348354 ], [ 74.885546, 17.2351632 ], [ 74.8861601, 17.2234989 ], [ 74.8852248, 17.2208033 ], [ 74.8824292, 17.2182388 ], [ 74.8777798, 17.2219709 ], [ 74.8746877, 17.2217578 ], [ 74.8723328, 17.2198862 ], [ 74.8762939, 17.2176941 ], [ 74.8746723, 17.2157284 ], [ 74.8768258, 17.2143109 ], [ 74.8770571, 17.2121002 ], [ 74.8670776, 17.2176533 ], [ 74.8659578, 17.2163212 ], [ 74.8637657, 17.218204 ], [ 74.8629215, 17.216836 ], [ 74.8573443, 17.2154178 ], [ 74.8532969, 17.2088898 ], [ 74.8500689, 17.2076769 ], [ 74.8483302, 17.2037002 ], [ 74.8543079, 17.2076389 ], [ 74.8573548, 17.2116904 ], [ 74.8592644, 17.211057 ], [ 74.85836, 17.2082608 ], [ 74.8541162, 17.2028519 ], [ 74.8580966, 17.2047912 ], [ 74.8624563, 17.2112926 ], [ 74.8651915, 17.2104409 ], [ 74.8621822, 17.2082827 ], [ 74.8629658, 17.2070276 ], [ 74.864798, 17.2079192 ], [ 74.8650576, 17.2054897 ], [ 74.8675313, 17.2051389 ], [ 74.8688241, 17.2100883 ], [ 74.8710658, 17.2088705 ], [ 74.8693934, 17.2024179 ], [ 74.8671733, 17.2028621 ], [ 74.8624921, 17.1964529 ], [ 74.8709791, 17.1978872 ], [ 74.8701523, 17.1947207 ], [ 74.8712702, 17.19017 ], [ 74.8745936, 17.1944977 ], [ 74.8767164, 17.1941213 ], [ 74.8778178, 17.1920562 ], [ 74.8764994, 17.191026 ], [ 74.879969, 17.1886881 ], [ 74.8857399, 17.1958017 ], [ 74.8887765, 17.1964814 ], [ 74.8929883, 17.1944582 ], [ 74.8945446, 17.1952683 ], [ 74.8947605, 17.1911479 ], [ 74.8897378, 17.1916404 ], [ 74.8860379, 17.1897926 ], [ 74.8938978, 17.1846021 ], [ 74.8935507, 17.1832952 ], [ 74.8865339, 17.1812619 ], [ 74.8919476, 17.1804134 ], [ 74.8955871, 17.1763714 ], [ 74.8954948, 17.1785303 ], [ 74.8994342, 17.183962 ], [ 74.9002701, 17.1825051 ], [ 74.8978575, 17.1809466 ], [ 74.9003892, 17.1768173 ], [ 74.903265, 17.1760238 ], [ 74.9050943, 17.177492 ], [ 74.9055337, 17.1749819 ], [ 74.9089671, 17.1751507 ], [ 74.9114269, 17.1741011 ], [ 74.9114486, 17.1729191 ], [ 74.918607, 17.1736906 ], [ 74.9192201, 17.1673187 ], [ 74.920925, 17.1659054 ], [ 74.9233105, 17.1676568 ], [ 74.929592, 17.1675455 ], [ 74.934789, 17.1700113 ], [ 74.940977, 17.1690488 ], [ 74.9435363, 17.1715226 ], [ 74.9500131, 17.1738802 ], [ 74.9464732, 17.1849705 ], [ 74.9519055, 17.1858042 ], [ 74.9498343, 17.1895166 ], [ 74.9495852, 17.1929308 ], [ 74.9459581, 17.1892985 ], [ 74.9439033, 17.1944092 ], [ 74.9419404, 17.1912648 ], [ 74.9396656, 17.1922861 ], [ 74.9410893, 17.1943236 ], [ 74.9395645, 17.1958873 ], [ 74.9418755, 17.1988142 ], [ 74.9472727, 17.1970051 ], [ 74.9475495, 17.2012305 ], [ 74.9436297, 17.2046996 ], [ 74.9478882, 17.2019885 ], [ 74.9523815, 17.202871 ], [ 74.9535123, 17.1988096 ], [ 74.9562699, 17.1991359 ], [ 74.9582923, 17.2013613 ], [ 74.9590745, 17.1988091 ], [ 74.9649627, 17.1980365 ], [ 74.9640187, 17.1951299 ], [ 74.976715, 17.1928637 ], [ 74.9792234, 17.1938988 ], [ 74.9793064, 17.1955174 ], [ 74.9817002, 17.1977175 ], [ 74.9818925, 17.2015623 ], [ 74.9851387, 17.204861 ], [ 74.9888502, 17.2041289 ], [ 75.0088103, 17.209281 ], [ 75.0162053, 17.2246814 ], [ 75.0347357, 17.2237157 ], [ 75.0545919, 17.2245779 ], [ 75.0777056, 17.2215919 ], [ 75.0787712, 17.2252128 ], [ 75.0751379, 17.2339677 ], [ 75.0763623, 17.2409547 ], [ 75.0795969, 17.2476001 ], [ 75.0864444, 17.2487515 ], [ 75.0873861, 17.2507608 ], [ 75.0937807, 17.2516091 ], [ 75.0936287, 17.2500263 ], [ 75.0951599, 17.2500538 ], [ 75.094809, 17.2481402 ], [ 75.096734, 17.2491643 ], [ 75.1000243, 17.2471324 ], [ 75.0985511, 17.2458105 ], [ 75.0991846, 17.2440513 ], [ 75.1029633, 17.2426916 ], [ 75.1056173, 17.2437041 ], [ 75.1114688, 17.2417911 ], [ 75.1114884, 17.2430397 ], [ 75.1127663, 17.2428696 ], [ 75.1141871, 17.239662 ], [ 75.1163719, 17.2420706 ], [ 75.1218279, 17.2420838 ], [ 75.1247644, 17.2434448 ], [ 75.1283843, 17.2434139 ], [ 75.1337261, 17.2406387 ], [ 75.1429776, 17.2440139 ], [ 75.1641668, 17.240106 ], [ 75.176571, 17.240155 ], [ 75.1797321, 17.2356989 ], [ 75.1824036, 17.2420595 ], [ 75.189974, 17.2509652 ], [ 75.1891034, 17.2548147 ], [ 75.1921174, 17.2583565 ], [ 75.1920008, 17.2638971 ], [ 75.1941896, 17.2654457 ], [ 75.1936461, 17.268209 ], [ 75.204506, 17.2703637 ], [ 75.2038437, 17.2640359 ], [ 75.2149023, 17.2609123 ], [ 75.2195634, 17.256734 ], [ 75.2219044, 17.256689 ], [ 75.2252701, 17.254358 ], [ 75.2446829, 17.256394 ], [ 75.2470187, 17.2564811 ], [ 75.2472945, 17.2554592 ], [ 75.2393492, 17.239837 ], [ 75.2399597, 17.2288127 ], [ 75.2387764, 17.2262932 ], [ 75.2401863, 17.2182336 ], [ 75.2384389, 17.2156934 ], [ 75.2319113, 17.2128168 ], [ 75.2276266, 17.213602 ], [ 75.2201481, 17.2088805 ], [ 75.2168438, 17.2046729 ], [ 75.216297, 17.1953459 ], [ 75.222237, 17.1836461 ], [ 75.2289917, 17.1811548 ], [ 75.230026, 17.1789583 ], [ 75.231966, 17.1798808 ], [ 75.2353875, 17.1787493 ], [ 75.2470845, 17.1787358 ], [ 75.2586843, 17.1830479 ], [ 75.2682506, 17.1833371 ], [ 75.2663227, 17.1790936 ], [ 75.2699495, 17.1795734 ], [ 75.2689311, 17.1671671 ], [ 75.2702742, 17.1483752 ], [ 75.2820773, 17.1485003 ], [ 75.2905661, 17.1457327 ], [ 75.2962253, 17.1459809 ], [ 75.3006237, 17.1559029 ], [ 75.3021015, 17.1656667 ], [ 75.3045096, 17.1693786 ], [ 75.299885, 17.1786975 ], [ 75.2984148, 17.1791604 ], [ 75.2970149, 17.1821632 ], [ 75.2933692, 17.1835225 ], [ 75.2925021, 17.1859909 ], [ 75.2865952, 17.1904069 ], [ 75.2828286, 17.1958752 ], [ 75.2827684, 17.207006 ], [ 75.2871816, 17.2156576 ], [ 75.3170151, 17.2204184 ], [ 75.330244, 17.2181031 ], [ 75.3347782, 17.2395508 ], [ 75.3442741, 17.236701 ], [ 75.3510946, 17.2375719 ], [ 75.3656493, 17.2361938 ], [ 75.3705514, 17.2171866 ], [ 75.3699501, 17.1905026 ], [ 75.3749141, 17.1917243 ], [ 75.3890888, 17.1906491 ], [ 75.3977411, 17.1866302 ], [ 75.4067588, 17.1847242 ], [ 75.4063154, 17.1906215 ], [ 75.4088497, 17.1908038 ], [ 75.4022281, 17.2115107 ], [ 75.4095743, 17.2297468 ], [ 75.4083308, 17.239342 ], [ 75.4209115, 17.2658839 ], [ 75.4284539, 17.2679408 ], [ 75.4349083, 17.2643728 ], [ 75.444825, 17.2547532 ], [ 75.4540373, 17.2524829 ], [ 75.4657912, 17.2518427 ], [ 75.4672099, 17.2444342 ], [ 75.5042675, 17.2395764 ], [ 75.5149933, 17.2403325 ], [ 75.5189075, 17.2483123 ], [ 75.5251981, 17.2568297 ], [ 75.5319974, 17.2610196 ], [ 75.5311876, 17.2643016 ], [ 75.5365183, 17.2685093 ], [ 75.5423675, 17.2769349 ], [ 75.5475289, 17.2795412 ], [ 75.5555856, 17.2807194 ], [ 75.5658925, 17.2870338 ], [ 75.5795921, 17.2927271 ], [ 75.5930043, 17.303289 ], [ 75.6038389, 17.3053882 ], [ 75.6224076, 17.2951032 ], [ 75.6254727, 17.2853197 ], [ 75.6301911, 17.2806315 ], [ 75.6278489, 17.2743396 ], [ 75.6541686, 17.2738152 ], [ 75.6577161, 17.2632077 ], [ 75.6585568, 17.2386699 ], [ 75.6619116, 17.2145889 ], [ 75.6553902, 17.2055331 ], [ 75.6425914, 17.1976481 ], [ 75.6398473, 17.1943197 ], [ 75.6399302, 17.1888651 ], [ 75.6284345, 17.1886579 ], [ 75.6288639, 17.1834021 ], [ 75.6272329, 17.1831613 ], [ 75.6253766, 17.1740003 ], [ 75.6282599, 17.1626941 ], [ 75.63244, 17.1575052 ], [ 75.6345783, 17.1569968 ], [ 75.6452025, 17.1442148 ], [ 75.6475699, 17.1345077 ], [ 75.6495316, 17.1343765 ], [ 75.6503469, 17.1156923 ], [ 75.6722887, 17.1159958 ], [ 75.6723439, 17.1014028 ], [ 75.675786, 17.0952914 ], [ 75.6733656, 17.0911987 ], [ 75.6787384, 17.0771509 ], [ 75.6788758, 17.0730033 ], [ 75.6772215, 17.0721845 ], [ 75.6767154, 17.0654159 ], [ 75.6607992, 17.0641908 ], [ 75.6544429, 17.0590026 ], [ 75.6503072, 17.057255 ], [ 75.6409985, 17.0375814 ], [ 75.6465023, 17.0332888 ], [ 75.649994, 17.0322381 ], [ 75.669694, 17.0381603 ], [ 75.6682495, 17.0150193 ], [ 75.6690889, 17.0095659 ], [ 75.6672333, 17.0057598 ], [ 75.6657236, 16.9937482 ], [ 75.6660752, 16.9797716 ], [ 75.6688218, 16.979832 ], [ 75.6718374, 16.9759255 ], [ 75.672552, 16.9701288 ], [ 75.6770822, 16.9690027 ], [ 75.675134, 16.9655458 ], [ 75.6717057, 16.9641411 ], [ 75.6699053, 16.9618239 ], [ 75.6553985, 16.9615259 ], [ 75.6485367, 16.9587096 ], [ 75.64598, 16.954011 ], [ 75.6420577, 16.9545511 ], [ 75.638206, 16.9577548 ], [ 75.6369343, 16.9685445 ], [ 75.633932, 16.9702592 ], [ 75.607863, 16.9709971 ], [ 75.6082446, 16.9816466 ], [ 75.6061302, 16.9943629 ], [ 75.6068535, 17.0045711 ], [ 75.5730972, 17.0096065 ], [ 75.567219, 17.0090463 ], [ 75.566115, 16.9818285 ], [ 75.5676521, 16.9657459 ], [ 75.563886, 16.9678073 ], [ 75.5391731, 16.9654803 ], [ 75.5293142, 16.9693998 ], [ 75.5096613, 16.9502502 ], [ 75.5079011, 16.9497544 ], [ 75.5073559, 16.9508295 ], [ 75.4890777, 16.9444227 ], [ 75.4891679, 16.9591146 ], [ 75.4875232, 16.9663889 ], [ 75.4837694, 16.972085 ], [ 75.4832365, 16.9759946 ], [ 75.4785649, 16.9785733 ], [ 75.4688874, 16.9795365 ], [ 75.4661825, 16.9813117 ], [ 75.4655522, 16.988365 ], [ 75.4416035, 16.9822311 ], [ 75.4353553, 16.9734502 ], [ 75.427878, 16.9664946 ], [ 75.4115088, 16.9742456 ], [ 75.3921351, 16.9800907 ], [ 75.3685432, 16.9719514 ], [ 75.3611306, 16.9655675 ], [ 75.35839, 16.9649021 ], [ 75.3585319, 16.962856 ], [ 75.3500509, 16.9578165 ], [ 75.3412679, 16.956145 ], [ 75.3255473, 16.9558245 ], [ 75.3171038, 16.9569548 ], [ 75.2800699, 16.9565195 ], [ 75.2809993, 16.9528535 ], [ 75.2795642, 16.9446371 ], [ 75.2793827, 16.9233283 ], [ 75.2829014, 16.9097163 ], [ 75.2899356, 16.9040258 ], [ 75.2820299, 16.8802905 ], [ 75.2729885, 16.869201 ], [ 75.2647197, 16.8627998 ], [ 75.2587968, 16.8644128 ], [ 75.2509598, 16.8644961 ], [ 75.2376609, 16.8679409 ], [ 75.2276397, 16.8431755 ], [ 75.2142022, 16.8416992 ], [ 75.1818475, 16.8434023 ], [ 75.1833645, 16.8541714 ], [ 75.1889874, 16.8752803 ], [ 75.176576, 16.867707 ], [ 75.1555535, 16.8685557 ], [ 75.1364832, 16.8744879 ], [ 75.1324591, 16.8894226 ], [ 75.1344497, 16.8944966 ], [ 75.1203228, 16.9025305 ], [ 75.1173904, 16.9134437 ], [ 75.1046417, 16.9126757 ], [ 75.0963086, 16.9137433 ], [ 75.0917976, 16.9260463 ], [ 75.0921367, 16.9401079 ], [ 75.0893337, 16.9515822 ], [ 75.0850806, 16.9515746 ], [ 75.0781199, 16.9488257 ], [ 75.0743523, 16.9500154 ], [ 75.0725885, 16.9466464 ], [ 75.0620358, 16.9415215 ], [ 75.0509109, 16.9413833 ], [ 75.0482665, 16.9425399 ], [ 75.0445393, 16.9417296 ], [ 75.0413852, 16.9400631 ], [ 75.0406614, 16.9364435 ], [ 75.0378708, 16.9357058 ], [ 75.0357666, 16.9328401 ], [ 75.0335997, 16.9337179 ], [ 75.0290613, 16.931488 ], [ 75.0264346, 16.931925 ], [ 75.027096, 16.9294546 ], [ 75.0252348, 16.9280023 ], [ 75.0247735, 16.9396394 ], [ 75.0265857, 16.9441363 ], [ 75.0044957, 16.9462698 ], [ 75.0000457, 16.948908 ], [ 75.0001621, 16.9499025 ], [ 74.9929089, 16.9520704 ], [ 74.9682574, 16.9501587 ], [ 74.966075, 16.9477055 ], [ 74.9643551, 16.9476332 ], [ 74.9675129, 16.9416076 ], [ 74.9606363, 16.9399514 ], [ 74.9601556, 16.9372557 ], [ 74.960502, 16.9334787 ], [ 74.9656759, 16.9298583 ], [ 74.9645444, 16.9267763 ], [ 74.9582589, 16.928244 ], [ 74.9504176, 16.9329471 ], [ 74.947603, 16.9393488 ], [ 74.9411669, 16.9407784 ], [ 74.9367109, 16.9441981 ], [ 74.9317072, 16.9447552 ], [ 74.930556, 16.941665 ], [ 74.9265411, 16.9393246 ], [ 74.9231647, 16.9393066 ], [ 74.9217757, 16.9298617 ], [ 74.9342155, 16.9242284 ], [ 74.932656, 16.9189057 ], [ 74.9382664, 16.9172922 ], [ 74.9443548, 16.9108368 ], [ 74.9548577, 16.9101698 ], [ 74.9553499, 16.9053431 ], [ 74.958838, 16.9058502 ], [ 74.9636393, 16.9110998 ], [ 74.9635786, 16.9097113 ], [ 74.9603608, 16.8809472 ], [ 74.9445815, 16.8811566 ], [ 74.9442696, 16.8826906 ], [ 74.9359132, 16.8788784 ], [ 74.9352214, 16.8710651 ], [ 74.9255483, 16.8720298 ], [ 74.9254203, 16.8677224 ], [ 74.9240181, 16.8671345 ], [ 74.9266916, 16.863829 ], [ 74.9109746, 16.8640409 ], [ 74.9015157, 16.8625502 ], [ 74.903248, 16.8591809 ], [ 74.9042363, 16.8593896 ], [ 74.9053945, 16.8538134 ], [ 74.907607, 16.8501736 ], [ 74.9102931, 16.8351416 ], [ 74.9087253, 16.8237023 ], [ 74.9102233, 16.8165926 ], [ 74.9108167, 16.7895423 ], [ 74.9201436, 16.7724992 ], [ 74.8898658, 16.7712574 ], [ 74.869359, 16.7740659 ], [ 74.8656819, 16.7633603 ], [ 74.859812, 16.7659001 ], [ 74.8498204, 16.7727556 ], [ 74.8445128, 16.7618155 ], [ 74.7987214, 16.753583 ], [ 74.7957493, 16.7477469 ], [ 74.7833655, 16.7513209 ], [ 74.7747693, 16.7516443 ], [ 74.7719696, 16.7506823 ], [ 74.7693718, 16.7448141 ], [ 74.7650516, 16.7418612 ], [ 74.7603477, 16.7412729 ], [ 74.7529944, 16.7330888 ], [ 74.7527644, 16.7308573 ], [ 74.7369804, 16.7235379 ], [ 74.7320917, 16.718324 ], [ 74.7305475, 16.719852 ], [ 74.730043, 16.718752 ], [ 74.7273245, 16.7190884 ], [ 74.7271772, 16.7168421 ], [ 74.7056856, 16.7149085 ], [ 74.6922338, 16.7153333 ], [ 74.6912472, 16.7155015 ], [ 74.7004599, 16.730549 ], [ 74.6999294, 16.7350203 ], [ 74.6978853, 16.7373891 ], [ 74.675982, 16.7437449 ], [ 74.6708648, 16.746949 ], [ 74.6633095, 16.7493126 ], [ 74.6458331, 16.752363 ], [ 74.6425781, 16.7567706 ], [ 74.6431807, 16.7663146 ], [ 74.6415424, 16.7727944 ], [ 74.6294332, 16.7879513 ], [ 74.6136137, 16.7936842 ], [ 74.604657, 16.7993987 ], [ 74.5919703, 16.8019531 ], [ 74.5736754, 16.8027787 ], [ 74.5605951, 16.8062186 ], [ 74.5578992, 16.8105636 ], [ 74.5573685, 16.8193272 ], [ 74.5544334, 16.8246049 ], [ 74.5478122, 16.8305478 ], [ 74.5345781, 16.8461783 ], [ 74.5287061, 16.8457963 ], [ 74.5221618, 16.8517376 ], [ 74.5179318, 16.8523886 ], [ 74.5169437, 16.8581379 ], [ 74.5129548, 16.8513493 ], [ 74.5145629, 16.8408624 ], [ 74.5133249, 16.8392218 ], [ 74.5022689, 16.8338815 ], [ 74.5005731, 16.8296305 ], [ 74.4971298, 16.830409 ], [ 74.4954244, 16.83512 ], [ 74.4940328, 16.8471661 ], [ 74.4967316, 16.8550508 ], [ 74.4950336, 16.8578143 ], [ 74.4925324, 16.8597947 ], [ 74.4863812, 16.8602983 ], [ 74.4825879, 16.8654848 ], [ 74.4725567, 16.8684775 ], [ 74.4682105, 16.8664159 ], [ 74.4656027, 16.8585169 ], [ 74.4584267, 16.8529742 ], [ 74.4547254, 16.852601 ], [ 74.4511068, 16.8540656 ], [ 74.4455865, 16.8513469 ], [ 74.4387908, 16.8516057 ], [ 74.4348999, 16.8505291 ], [ 74.4316634, 16.8477972 ], [ 74.4282623, 16.8479649 ], [ 74.4274091, 16.8462212 ], [ 74.4220911, 16.8438496 ], [ 74.4146402, 16.8439512 ], [ 74.4066553, 16.8478868 ], [ 74.4040555, 16.8513846 ], [ 74.4104225, 16.8619208 ], [ 74.4144106, 16.8649022 ], [ 74.415862, 16.8711729 ], [ 74.4156765, 16.8776746 ], [ 74.4129412, 16.879626 ], [ 74.4036027, 16.8764101 ], [ 74.4022236, 16.8785302 ], [ 74.4031213, 16.8817638 ], [ 74.401529, 16.8830072 ], [ 74.3903798, 16.8748188 ], [ 74.3880551, 16.8701905 ], [ 74.3785326, 16.86868 ], [ 74.3679969, 16.8573534 ], [ 74.3620295, 16.8534423 ], [ 74.3553714, 16.8625346 ], [ 74.3556176, 16.8711984 ], [ 74.3541997, 16.8727763 ], [ 74.3455541, 16.8735552 ], [ 74.3433561, 16.8769946 ], [ 74.3370859, 16.8813039 ], [ 74.3314101, 16.877553 ], [ 74.3275653, 16.877208 ], [ 74.3191254, 16.8880483 ], [ 74.314383, 16.8913156 ], [ 74.3118476, 16.8924255 ], [ 74.3044117, 16.8905247 ], [ 74.2955482, 16.8946411 ], [ 74.2950986, 16.8966326 ], [ 74.2926571, 16.8971838 ], [ 74.2909859, 16.8996201 ], [ 74.2841209, 16.9141811 ], [ 74.2837496, 16.9174478 ], [ 74.2818162, 16.9185158 ], [ 74.2733485, 16.9142791 ], [ 74.2680048, 16.9096574 ], [ 74.2628063, 16.909495 ], [ 74.25723, 16.9065092 ], [ 74.2545101, 16.9028886 ], [ 74.2524137, 16.8934705 ], [ 74.2488018, 16.8868296 ], [ 74.2469533, 16.8864195 ], [ 74.2364111, 16.8861237 ], [ 74.2321866, 16.8903784 ], [ 74.2308585, 16.9033339 ], [ 74.2247507, 16.9132977 ], [ 74.2231654, 16.9136865 ], [ 74.2162734, 16.9116504 ], [ 74.2124432, 16.8949202 ], [ 74.2097339, 16.8930194 ], [ 74.2004819, 16.8951016 ], [ 74.1918356, 16.8938898 ], [ 74.1872905, 16.8957089 ], [ 74.1816179, 16.9007341 ], [ 74.1751963, 16.9025366 ], [ 74.1636189, 16.8986614 ], [ 74.1608053, 16.8965748 ], [ 74.156619, 16.8898738 ], [ 74.1455899, 16.8827314 ], [ 74.1393031, 16.8873054 ], [ 74.136309, 16.8869518 ], [ 74.1350861, 16.8881025 ], [ 74.1292279, 16.8980078 ], [ 74.1244694, 16.9029676 ], [ 74.1251518, 16.9042649 ], [ 74.1229993, 16.9052994 ], [ 74.1224074, 16.9073872 ], [ 74.1236238, 16.9112638 ], [ 74.1207314, 16.9131773 ], [ 74.1065993, 16.9096431 ], [ 74.1005277, 16.9101953 ], [ 74.098571, 16.9110086 ], [ 74.0929751, 16.9181131 ], [ 74.0914744, 16.9182609 ], [ 74.0803584, 16.9072048 ], [ 74.0767921, 16.9066524 ], [ 74.0721266, 16.9031384 ], [ 74.0657068, 16.9023798 ], [ 74.064517, 16.9038343 ], [ 74.0655353, 16.9094757 ], [ 74.0647239, 16.9101845 ], [ 74.0531688, 16.9143339 ], [ 74.0490133, 16.9215914 ], [ 74.0445829, 16.9225606 ], [ 74.0415823, 16.921785 ], [ 74.0384196, 16.9238759 ], [ 74.0394472, 16.9279293 ], [ 74.0371853, 16.9307616 ], [ 74.0383257, 16.9355068 ], [ 74.0371475, 16.9382957 ], [ 74.0310866, 16.9412094 ], [ 74.0268513, 16.9399272 ], [ 74.0229619, 16.9423044 ], [ 74.0268413, 16.9470829 ], [ 74.0281338, 16.9512421 ], [ 74.0271233, 16.953669 ], [ 74.0226743, 16.9554086 ], [ 74.0198129, 16.9593688 ], [ 74.0208016, 16.9622188 ], [ 74.0253433, 16.9616317 ], [ 74.0261903, 16.9639886 ], [ 74.0253151, 16.966253 ], [ 74.0214659, 16.967451 ], [ 74.0207447, 16.9699677 ], [ 74.0229896, 16.9759165 ], [ 74.0222174, 16.9794949 ], [ 74.0235494, 16.9819288 ], [ 74.0233539, 16.9851517 ], [ 74.018874, 16.9872237 ], [ 74.010367, 16.9878713 ], [ 74.004704, 16.9929246 ], [ 73.9985399, 16.9914455 ], [ 73.996414, 16.9958282 ], [ 73.9908135, 16.9971724 ], [ 73.9891318, 16.9956327 ], [ 73.9882308, 16.9895279 ], [ 73.9847504, 16.9866788 ], [ 73.9813203, 16.9863564 ], [ 73.9793004, 16.9879908 ], [ 73.9750469, 16.9886182 ], [ 73.9723032, 16.9929658 ], [ 73.9721418, 17.0017058 ], [ 73.9691034, 17.0069401 ], [ 73.9707896, 17.0086861 ], [ 73.9770361, 17.007741 ], [ 73.9788755, 17.0096101 ], [ 73.9798932, 17.0213077 ], [ 73.9792535, 17.0345088 ], [ 73.9781944, 17.0364481 ], [ 73.9736733, 17.035731 ], [ 73.9651126, 17.0483234 ], [ 73.9603618, 17.0511204 ], [ 73.9598001, 17.0554786 ], [ 73.9579177, 17.057496 ], [ 73.9550392, 17.0584769 ], [ 73.9513937, 17.0573234 ], [ 73.9481051, 17.0587112 ], [ 73.9474018, 17.0597114 ], [ 73.9485825, 17.0616697 ], [ 73.9468999, 17.063497 ], [ 73.940257, 17.0629463 ], [ 73.9380785, 17.0654394 ], [ 73.9382234, 17.0690103 ], [ 73.9337756, 17.0709104 ], [ 73.9304391, 17.0748159 ], [ 73.9206395, 17.0750243 ], [ 73.9157601, 17.0708077 ], [ 73.9138155, 17.0714333 ], [ 73.9146564, 17.0759654 ], [ 73.908947, 17.0785237 ], [ 73.904254, 17.0847798 ], [ 73.9027553, 17.0919023 ], [ 73.9035493, 17.0972567 ], [ 73.8998883, 17.1023859 ], [ 73.8956377, 17.1057722 ], [ 73.889048, 17.1063231 ], [ 73.8817362, 17.1111391 ], [ 73.8785127, 17.1151528 ], [ 73.8734702, 17.1170714 ], [ 73.8711699, 17.1233788 ], [ 73.8753893, 17.126259 ], [ 73.875533, 17.1285424 ], [ 73.8711967, 17.1299399 ], [ 73.8688354, 17.1329586 ], [ 73.864105, 17.1335028 ], [ 73.8625256, 17.137571 ], [ 73.8581331, 17.1373029 ], [ 73.8556024, 17.1401101 ], [ 73.8561108, 17.141872 ], [ 73.8533706, 17.1488121 ], [ 73.8465045, 17.1542255 ], [ 73.8389297, 17.156465 ], [ 73.8344459, 17.1609802 ], [ 73.8260228, 17.1650283 ], [ 73.8202177, 17.1702571 ], [ 73.8137571, 17.1698718 ], [ 73.8113578, 17.1718522 ], [ 73.803403, 17.1701871 ], [ 73.7991881, 17.1712395 ], [ 73.7923772, 17.1782626 ], [ 73.7758739, 17.1820775 ], [ 73.7734791, 17.1775265 ], [ 73.7688306, 17.1767287 ], [ 73.7678058, 17.1743288 ], [ 73.7707491, 17.16352 ], [ 73.7770953, 17.1540738 ], [ 73.7731879, 17.149629 ], [ 73.7596115, 17.1537964 ], [ 73.7546002, 17.1531642 ], [ 73.7517581, 17.1535665 ], [ 73.749586, 17.1556548 ], [ 73.7472357, 17.1550855 ], [ 73.7423632, 17.1600689 ], [ 73.7428776, 17.1625552 ], [ 73.744724, 17.1636102 ], [ 73.7435205, 17.1643359 ], [ 73.7425717, 17.1764798 ], [ 73.7374808, 17.1756961 ], [ 73.7374898, 17.173349 ], [ 73.7291222, 17.1690183 ], [ 73.7199719, 17.1690969 ], [ 73.713177, 17.1736877 ], [ 73.7086822, 17.1706003 ], [ 73.6989794, 17.1780591 ], [ 73.6933853, 17.1802497 ], [ 73.6959182, 17.182118 ], [ 73.698062, 17.1806723 ], [ 73.7010743, 17.1846197 ], [ 73.7014364, 17.1874877 ], [ 73.7025839, 17.1859297 ], [ 73.7057794, 17.1898653 ], [ 73.7079068, 17.1929238 ], [ 73.7089004, 17.1976952 ], [ 73.7130607, 17.1999365 ], [ 73.7149616, 17.2035309 ], [ 73.7151884, 17.2092179 ], [ 73.7105648, 17.2121504 ], [ 73.7105493, 17.2161916 ], [ 73.706596, 17.2197528 ], [ 73.7056202, 17.2247607 ], [ 73.6928191, 17.2306469 ], [ 73.6908549, 17.2377236 ], [ 73.6911121, 17.2435468 ], [ 73.6944823, 17.2530205 ], [ 73.6946856, 17.2616162 ], [ 73.6997171, 17.2627327 ], [ 73.7013584, 17.2648895 ], [ 73.7072214, 17.2601563 ], [ 73.7137542, 17.2620705 ], [ 73.7149286, 17.2608633 ], [ 73.7203793, 17.2615541 ], [ 73.7198901, 17.2631465 ], [ 73.7258648, 17.2704163 ], [ 73.7343653, 17.2770631 ], [ 73.7398565, 17.2765143 ], [ 73.7453555, 17.2785624 ], [ 73.7553428, 17.2677672 ], [ 73.759398, 17.2551196 ], [ 73.7655454, 17.2542963 ], [ 73.7656077, 17.2509634 ], [ 73.7755898, 17.2487706 ], [ 73.7844464, 17.2452215 ], [ 73.7897098, 17.2454063 ], [ 73.796013, 17.2436752 ], [ 73.7987049, 17.2449399 ], [ 73.8013168, 17.2431387 ], [ 73.8036483, 17.2376866 ], [ 73.8091253, 17.2318502 ], [ 73.8175392, 17.2334362 ], [ 73.8346743, 17.226033 ], [ 73.8436856, 17.2138112 ], [ 73.8505022, 17.1988088 ], [ 73.8651268, 17.1945471 ], [ 73.8700205, 17.1919607 ], [ 73.8749704, 17.179402 ], [ 73.8781631, 17.1772245 ], [ 73.8768366, 17.1764683 ], [ 73.8819426, 17.1713143 ], [ 73.8829421, 17.1660985 ], [ 73.8826288, 17.1630038 ], [ 73.8813694, 17.1621184 ], [ 73.8839986, 17.1552958 ], [ 73.8947131, 17.1570036 ], [ 73.9012578, 17.1595491 ], [ 73.9047678, 17.1548999 ], [ 73.9129316, 17.1494724 ], [ 73.9176132, 17.1485455 ], [ 73.9182379, 17.1449095 ], [ 73.9379674, 17.1342963 ], [ 73.9406821, 17.1334125 ], [ 73.9564928, 17.1353083 ], [ 73.9741083, 17.1311851 ], [ 73.9793884, 17.1319402 ], [ 73.9797583, 17.1291597 ], [ 73.9846264, 17.126029 ], [ 73.9854936, 17.1221814 ], [ 73.9838716, 17.116904 ], [ 74.0026569, 17.1134175 ], [ 74.0085571, 17.1102544 ], [ 74.017119, 17.1018112 ], [ 74.0290057, 17.0952681 ], [ 74.0304202, 17.09038 ], [ 74.0324714, 17.0901793 ], [ 74.0442529, 17.0997642 ], [ 74.0491253, 17.0970441 ], [ 74.0487294, 17.1000642 ], [ 74.05127, 17.1051912 ], [ 74.0681584, 17.1008392 ], [ 74.0743034, 17.097827 ], [ 74.0779493, 17.1020326 ], [ 74.0934116, 17.1008442 ], [ 74.096346, 17.1018893 ], [ 74.0970269, 17.1047497 ], [ 74.0990273, 17.1054427 ], [ 74.0980279, 17.107528 ], [ 74.1009049, 17.1126687 ], [ 74.0994214, 17.1153807 ], [ 74.1004369, 17.1172615 ], [ 74.1073764, 17.1203906 ], [ 74.1111594, 17.1239413 ], [ 74.1139006, 17.1223835 ], [ 74.1195337, 17.1222441 ], [ 74.1238661, 17.1197397 ], [ 74.12581, 17.1159234 ], [ 74.1289859, 17.114536 ], [ 74.1342049, 17.1187171 ], [ 74.1420621, 17.1193121 ], [ 74.1589635, 17.1282359 ], [ 74.1613104, 17.1308129 ], [ 74.1616256, 17.1386387 ], [ 74.1628232, 17.1410205 ], [ 74.1747415, 17.1425135 ], [ 74.1773357, 17.1459361 ], [ 74.1774009, 17.149173 ], [ 74.1927059, 17.1496158 ], [ 74.1991411, 17.1518763 ], [ 74.2211289, 17.1397804 ], [ 74.2469059, 17.1415394 ], [ 74.2470157, 17.154807 ], [ 74.2444713, 17.1550895 ], [ 74.2443734, 17.1535696 ], [ 74.2421869, 17.1537583 ], [ 74.2421457, 17.1551225 ], [ 74.2389126, 17.1547813 ], [ 74.238878, 17.1532505 ], [ 74.237469, 17.1534408 ], [ 74.2371852, 17.1551767 ], [ 74.2361269, 17.1537179 ], [ 74.2337458, 17.153882 ], [ 74.2327523, 17.155834 ], [ 74.2329003, 17.1572128 ], [ 74.237675, 17.1572917 ], [ 74.2386011, 17.1607185 ], [ 74.2472076, 17.1607533 ], [ 74.2465124, 17.1693156 ], [ 74.2530322, 17.170971 ], [ 74.2523892, 17.1757264 ], [ 74.2483857, 17.1793489 ], [ 74.2479528, 17.1828926 ], [ 74.2525359, 17.1833153 ], [ 74.2565878, 17.1861481 ], [ 74.2643336, 17.1849929 ], [ 74.2630792, 17.1871437 ], [ 74.2663701, 17.1873934 ], [ 74.277477, 17.1858219 ], [ 74.2760492, 17.1808311 ], [ 74.2779566, 17.1786952 ], [ 74.2817798, 17.1860175 ], [ 74.2822738, 17.1913337 ], [ 74.2866927, 17.1950482 ], [ 74.2871202, 17.1977872 ], [ 74.2853265, 17.2000757 ], [ 74.2853487, 17.2059035 ], [ 74.2839178, 17.2079375 ], [ 74.2765475, 17.2132064 ], [ 74.2687649, 17.21406 ], [ 74.2660601, 17.2223071 ], [ 74.2731898, 17.2284518 ], [ 74.2791597, 17.2309663 ], [ 74.2798132, 17.2327041 ], [ 74.2824244, 17.2319538 ], [ 74.2845947, 17.2339772 ], [ 74.2865027, 17.2434825 ], [ 74.2879149, 17.2437913 ], [ 74.2878159, 17.2474411 ], [ 74.2853951, 17.2487243 ], [ 74.282255, 17.2473583 ], [ 74.2803443, 17.2494168 ], [ 74.2745605, 17.2467933 ], [ 74.2768948, 17.2493773 ], [ 74.2751401, 17.2529226 ], [ 74.2706283, 17.2539382 ], [ 74.2652241, 17.2574535 ], [ 74.2649367, 17.2650329 ], [ 74.2632672, 17.2690947 ], [ 74.2595573, 17.2727727 ], [ 74.2607695, 17.2782108 ], [ 74.2570893, 17.2853287 ], [ 74.2580622, 17.288299 ], [ 74.2630877, 17.2894405 ], [ 74.2562233, 17.2933904 ], [ 74.2568174, 17.2965618 ], [ 74.2610726, 17.2999201 ], [ 74.261522, 17.3066491 ], [ 74.2910302, 17.3110375 ], [ 74.2932343, 17.3130448 ], [ 74.2932625, 17.3156087 ], [ 74.2872237, 17.326084 ], [ 74.2901018, 17.325419 ], [ 74.2903704, 17.3267566 ], [ 74.2830915, 17.3342794 ], [ 74.2790251, 17.3365508 ], [ 74.2791581, 17.3414309 ], [ 74.287535, 17.3518104 ], [ 74.2881228, 17.355456 ], [ 74.286661, 17.3586079 ], [ 74.2790209, 17.3605886 ], [ 74.2617978, 17.3564827 ], [ 74.260296, 17.3549899 ], [ 74.2558394, 17.3576125 ], [ 74.2543469, 17.3632333 ], [ 74.2563945, 17.3644927 ], [ 74.2570991, 17.3613641 ], [ 74.2595202, 17.3630982 ], [ 74.2580886, 17.3699848 ], [ 74.2566356, 17.369523 ], [ 74.2566604, 17.3703518 ], [ 74.2620554, 17.3773079 ], [ 74.2599076, 17.3839292 ], [ 74.2604336, 17.3856535 ], [ 74.2722075, 17.396517 ], [ 74.2811908, 17.4160949 ], [ 74.2839338, 17.4193951 ], [ 74.2863354, 17.4184224 ], [ 74.2911833, 17.4214675 ], [ 74.2923333, 17.4250203 ], [ 74.2964384, 17.4258525 ], [ 74.3095556, 17.4219079 ], [ 74.3292028, 17.4191506 ], [ 74.3443142, 17.4197193 ], [ 74.3453267, 17.413689 ], [ 74.3439462, 17.4105923 ], [ 74.3930551, 17.4091517 ], [ 74.4045917, 17.406919 ], [ 74.4173461, 17.4019261 ], [ 74.4215393, 17.3969971 ], [ 74.4314874, 17.3907178 ], [ 74.4548166, 17.3909038 ], [ 74.4683198, 17.3939194 ], [ 74.4751148, 17.3881137 ], [ 74.4887153, 17.3844037 ], [ 74.4979546, 17.3834421 ], [ 74.4981151, 17.3856079 ], [ 74.5035063, 17.389053 ], [ 74.5043647, 17.39232 ], [ 74.5141398, 17.3998141 ], [ 74.5176783, 17.4041905 ], [ 74.5217131, 17.4058775 ], [ 74.5224449, 17.4127175 ], [ 74.5271323, 17.4149894 ], [ 74.5274921, 17.4191805 ], [ 74.5450701, 17.4223832 ], [ 74.5467686, 17.419999 ], [ 74.5506011, 17.4210594 ], [ 74.556176, 17.4174954 ], [ 74.5643285, 17.4190707 ], [ 74.5699815, 17.4178628 ], [ 74.5720843, 17.4151746 ], [ 74.5761851, 17.4155692 ], [ 74.5837072, 17.4136389 ], [ 74.5835251, 17.4279368 ], [ 74.584598, 17.4332685 ], [ 74.5880033, 17.4368392 ], [ 74.5884162, 17.446218 ], [ 74.5904288, 17.446115 ], [ 74.5921083, 17.4489971 ], [ 74.5950844, 17.4490854 ], [ 74.6055025, 17.4459547 ], [ 74.6063702, 17.4387462 ], [ 74.6144211, 17.4308604 ], [ 74.6183633, 17.4205516 ], [ 74.6240553, 17.413901 ], [ 74.6252997, 17.4043673 ], [ 74.6224907, 17.3993508 ], [ 74.6313521, 17.4012341 ], [ 74.6323689, 17.3994496 ], [ 74.637663, 17.3972947 ], [ 74.6427527, 17.4006855 ], [ 74.6529303, 17.3997844 ], [ 74.6618614, 17.3972295 ], [ 74.6669942, 17.3906622 ], [ 74.6697297, 17.3895112 ], [ 74.6762324, 17.3911663 ], [ 74.6774117, 17.3926174 ], [ 74.6808605, 17.3926181 ], [ 74.6849239, 17.3941311 ], [ 74.6863997, 17.3998292 ], [ 74.6883522, 17.402178 ], [ 74.6924574, 17.4016409 ], [ 74.687423, 17.4065027 ], [ 74.6894944, 17.40835 ], [ 74.6867758, 17.4090489 ], [ 74.6859032, 17.4115561 ], [ 74.6874141, 17.4124888 ], [ 74.6867868, 17.4156702 ], [ 74.6836094, 17.4183039 ], [ 74.6825209, 17.4230356 ], [ 74.6840393, 17.4254271 ], [ 74.6925941, 17.4295522 ], [ 74.6932891, 17.4313351 ], [ 74.6919293, 17.4356451 ], [ 74.6960358, 17.4388228 ], [ 74.6946644, 17.4477111 ], [ 74.6957639, 17.452051 ], [ 74.695053, 17.4639872 ], [ 74.6937725, 17.4680916 ], [ 74.6962663, 17.4686118 ], [ 74.6931633, 17.4746161 ], [ 74.6946942, 17.475529 ], [ 74.6946188, 17.4782843 ], [ 74.6939542, 17.4798938 ], [ 74.6923463, 17.4792984 ], [ 74.6866164, 17.4834616 ], [ 74.684677, 17.4878645 ], [ 74.6955757, 17.4889941 ], [ 74.7065979, 17.4861201 ], [ 74.7101904, 17.4866926 ], [ 74.7167986, 17.4852237 ], [ 74.7253511, 17.4786352 ], [ 74.7252413, 17.4740606 ], [ 74.7269826, 17.4775765 ], [ 74.7290223, 17.4775894 ], [ 74.7313521, 17.479653 ], [ 74.7416349, 17.4769946 ], [ 74.7551713, 17.4761614 ], [ 74.7617664, 17.4734761 ], [ 74.7765499, 17.4639226 ], [ 74.8070126, 17.4529196 ], [ 74.8148698, 17.4624851 ], [ 74.8167066, 17.4676685 ], [ 74.8180488, 17.4684437 ], [ 74.8209675, 17.4666646 ], [ 74.8217522, 17.4673594 ], [ 74.824389, 17.4751691 ], [ 74.8278804, 17.4775964 ], [ 74.8312909, 17.4834557 ], [ 74.8313758, 17.485797 ], [ 74.8343159, 17.4893657 ], [ 74.8433994, 17.4936688 ], [ 74.849097, 17.5029502 ], [ 74.8554611, 17.5059066 ], [ 74.8604042, 17.5116213 ], [ 74.8599981, 17.5254136 ], [ 74.8606761, 17.5273712 ], [ 74.8635675, 17.5281414 ], [ 74.8571643, 17.5487547 ], [ 74.8565476, 17.5597512 ], [ 74.8636665, 17.5612761 ], [ 74.8713316, 17.5652691 ], [ 74.8732052, 17.5693077 ], [ 74.8763531, 17.5699013 ], [ 74.8807979, 17.5779042 ], [ 74.8814397, 17.5834438 ], [ 74.8791777, 17.5893068 ], [ 74.8817158, 17.590388 ], [ 74.8799902, 17.5945997 ], [ 74.8796225, 17.6042755 ], [ 74.8880374, 17.6111202 ], [ 74.8905528, 17.6176733 ], [ 74.9006574, 17.6263979 ], [ 74.9067352, 17.6295882 ], [ 74.9090352, 17.6298517 ], [ 74.9081018, 17.6238111 ], [ 74.9090343, 17.6208987 ] ] ] } }
]
}
