{
"type": "FeatureCollection",
"name": "2811",
"crs": { "type": "name", "properties": { "name": "urn:ogc:def:crs:OGC:1.3:CRS84" } },
"features": [
{ "type": "Feature", "properties": { "code": "2811", "name": "Srikakulam", "type": "district" }, "geometry": { "type": "Polygon", "coordinates": [ [ [ 84.6741935, 19.1664589 ], [ 84.6807254, 19.1652816 ], [ 84.6843492, 19.1599896 ], [ 84.6924863, 19.1608574 ], [ 84.6962227, 19.1594525 ], [ 84.6969222, 19.1607574 ], [ 84.7033984, 19.1611681 ], [ 84.7047264, 19.1593016 ], [ 84.7099772, 19.1596652 ], [ 84.7120113, 19.158277 ], [ 84.7148543, 19.1523199 ], [ 84.7137298, 19.152193 ], [ 84.7128447, 19.1495311 ], [ 84.7118293, 19.1497623 ], [ 84.7105159, 19.1464584 ], [ 84.701175, 19.1470598 ], [ 84.7000478, 19.1443949 ], [ 84.7012612, 19.1446224 ], [ 84.7003574, 19.1429672 ], [ 84.7061243, 19.1410252 ], [ 84.6978354, 19.1264436 ], [ 84.7025234, 19.1258563 ], [ 84.7014435, 19.1221851 ], [ 84.7027955, 19.1178621 ], [ 84.7081983, 19.1157212 ], [ 84.7463435, 19.0890828 ], [ 84.7510947, 19.0844397 ], [ 84.7614638, 19.079123 ], [ 84.7356436, 19.0416307 ], [ 84.7198189, 19.0157217 ], [ 84.7115995, 19.0071102 ], [ 84.7076951, 18.9982414 ], [ 84.6869477, 18.9708654 ], [ 84.6763861, 18.9676783 ], [ 84.6774862, 18.9669477 ], [ 84.6843704, 18.9689189 ], [ 84.684477, 18.9674713 ], [ 84.6709991, 18.9524781 ], [ 84.6367341, 18.9222456 ], [ 84.6048959, 18.8911203 ], [ 84.5871042, 18.8674392 ], [ 84.5820704, 18.8588882 ], [ 84.5766929, 18.8459114 ], [ 84.5749115, 18.8376461 ], [ 84.5625939, 18.8248952 ], [ 84.5578383, 18.817752 ], [ 84.5540951, 18.8038444 ], [ 84.5540943, 18.7960511 ], [ 84.5514977, 18.7904887 ], [ 84.5309927, 18.7715376 ], [ 84.5117676, 18.7578825 ], [ 84.4930922, 18.7401445 ], [ 84.4864901, 18.7315292 ], [ 84.4696629, 18.7144278 ], [ 84.4532092, 18.6929127 ], [ 84.4436401, 18.6759688 ], [ 84.4416975, 18.6708625 ], [ 84.4411944, 18.663796 ], [ 84.4372168, 18.6579047 ], [ 84.4401843, 18.6602541 ], [ 84.4398514, 18.6594965 ], [ 84.3862623, 18.6114796 ], [ 84.3683918, 18.5931316 ], [ 84.3570988, 18.5734438 ], [ 84.3554178, 18.5663028 ], [ 84.3575083, 18.563591 ], [ 84.3551024, 18.5553686 ], [ 84.3229511, 18.5287407 ], [ 84.2829386, 18.4995261 ], [ 84.2312331, 18.4547811 ], [ 84.2163159, 18.4397972 ], [ 84.2149808, 18.4413026 ], [ 84.2139135, 18.4394547 ], [ 84.2152911, 18.4389473 ], [ 84.2104983, 18.4339056 ], [ 84.1758256, 18.4022224 ], [ 84.1474139, 18.373423 ], [ 84.1307267, 18.3452863 ], [ 84.1268951, 18.3438531 ], [ 84.1263794, 18.33391 ], [ 84.1291378, 18.3170645 ], [ 84.1272258, 18.3137298 ], [ 84.1004156, 18.2962938 ], [ 84.082524, 18.2879252 ], [ 84.0787924, 18.2877391 ], [ 84.0821703, 18.2866973 ], [ 84.0705665, 18.2764327 ], [ 84.0086185, 18.2484313 ], [ 83.9971584, 18.2411875 ], [ 83.9358786, 18.2090408 ], [ 83.9110705, 18.2039286 ], [ 83.8887532, 18.1957579 ], [ 83.8784628, 18.1902707 ], [ 83.8718409, 18.1819457 ], [ 83.860389, 18.1742838 ], [ 83.8099308, 18.1560323 ], [ 83.8035247, 18.159964 ], [ 83.8027943, 18.1612273 ], [ 83.8042781, 18.1633599 ], [ 83.8027213, 18.1627878 ], [ 83.8016827, 18.1644795 ], [ 83.8015388, 18.1624761 ], [ 83.7949747, 18.1683986 ], [ 83.7972303, 18.1635278 ], [ 83.8002983, 18.160972 ], [ 83.7983167, 18.160659 ], [ 83.805803, 18.1554542 ], [ 83.8052638, 18.1540388 ], [ 83.7768296, 18.1418564 ], [ 83.7301988, 18.1186917 ], [ 83.6937905, 18.0980801 ], [ 83.6634152, 18.0778315 ], [ 83.6624306, 18.0793763 ], [ 83.6657828, 18.0815099 ], [ 83.6632797, 18.0868851 ], [ 83.6544618, 18.0916529 ], [ 83.644786, 18.1062954 ], [ 83.6404333, 18.1078058 ], [ 83.6358122, 18.1052474 ], [ 83.630704, 18.1097608 ], [ 83.6235614, 18.1126991 ], [ 83.6209076, 18.1179041 ], [ 83.6215246, 18.1216151 ], [ 83.6228403, 18.1211213 ], [ 83.6244156, 18.1259346 ], [ 83.6240208, 18.1293393 ], [ 83.6196933, 18.1318946 ], [ 83.6181489, 18.1343381 ], [ 83.6186524, 18.1359715 ], [ 83.6117221, 18.1401312 ], [ 83.6115408, 18.1427011 ], [ 83.6074282, 18.1433213 ], [ 83.6074088, 18.1468651 ], [ 83.6050161, 18.1498106 ], [ 83.6061127, 18.1548981 ], [ 83.6040051, 18.157921 ], [ 83.604501, 18.1596578 ], [ 83.6023844, 18.1603528 ], [ 83.6029633, 18.1646518 ], [ 83.6071028, 18.1662912 ], [ 83.611688, 18.1656371 ], [ 83.6140269, 18.1791985 ], [ 83.6139892, 18.1839628 ], [ 83.6122698, 18.1855607 ], [ 83.6099718, 18.1927081 ], [ 83.6030768, 18.1932692 ], [ 83.6040318, 18.2018969 ], [ 83.6087904, 18.2028719 ], [ 83.6068047, 18.2049843 ], [ 83.6040463, 18.204604 ], [ 83.6035779, 18.2066763 ], [ 83.6072313, 18.2074323 ], [ 83.6086955, 18.213264 ], [ 83.6148012, 18.212095 ], [ 83.6253411, 18.2122981 ], [ 83.629278, 18.2183425 ], [ 83.6337235, 18.2182748 ], [ 83.6359535, 18.2196685 ], [ 83.6377445, 18.2178074 ], [ 83.6377179, 18.2149695 ], [ 83.6419068, 18.2148899 ], [ 83.6433068, 18.2134231 ], [ 83.6433059, 18.2105486 ], [ 83.6444382, 18.2111376 ], [ 83.6526981, 18.2072016 ], [ 83.6565752, 18.2121341 ], [ 83.6559596, 18.2185295 ], [ 83.6636754, 18.2256832 ], [ 83.6673641, 18.232964 ], [ 83.6673023, 18.2367388 ], [ 83.665399, 18.2377883 ], [ 83.6653358, 18.2452782 ], [ 83.667377, 18.2539074 ], [ 83.6666091, 18.2552702 ], [ 83.668734, 18.2600953 ], [ 83.6674418, 18.2602428 ], [ 83.6679892, 18.2686274 ], [ 83.6686146, 18.2710225 ], [ 83.6727216, 18.27253 ], [ 83.6742516, 18.2828478 ], [ 83.6822122, 18.2847815 ], [ 83.6902322, 18.2848431 ], [ 83.6973076, 18.2896276 ], [ 83.6994121, 18.2887058 ], [ 83.7033188, 18.2894971 ], [ 83.7041817, 18.2922095 ], [ 83.7091539, 18.2939202 ], [ 83.710006, 18.2956791 ], [ 83.7072389, 18.2971622 ], [ 83.7045436, 18.2961088 ], [ 83.7000078, 18.2979301 ], [ 83.6997785, 18.3006858 ], [ 83.6966281, 18.3024638 ], [ 83.6956436, 18.3067855 ], [ 83.6911675, 18.3041721 ], [ 83.6859286, 18.3058454 ], [ 83.6843993, 18.3089775 ], [ 83.681485, 18.308709 ], [ 83.6818857, 18.3118168 ], [ 83.6800651, 18.3133353 ], [ 83.6762719, 18.313143 ], [ 83.6720188, 18.3111451 ], [ 83.6692783, 18.3128443 ], [ 83.6682511, 18.3163168 ], [ 83.6657912, 18.3172344 ], [ 83.6630466, 18.3154717 ], [ 83.6596049, 18.3165303 ], [ 83.6570989, 18.3225011 ], [ 83.6529762, 18.3215495 ], [ 83.6508491, 18.3225705 ], [ 83.645133, 18.3208106 ], [ 83.6405954, 18.322007 ], [ 83.6313342, 18.3219527 ], [ 83.629263, 18.3235105 ], [ 83.6278933, 18.3218945 ], [ 83.625132, 18.3282437 ], [ 83.6244081, 18.3335779 ], [ 83.6148153, 18.3332386 ], [ 83.6061001, 18.3282673 ], [ 83.6061246, 18.3301109 ], [ 83.611465, 18.3362202 ], [ 83.59553, 18.3441833 ], [ 83.5949882, 18.3479195 ], [ 83.5907604, 18.3496074 ], [ 83.5887617, 18.3531025 ], [ 83.5857289, 18.3543572 ], [ 83.5881216, 18.3578251 ], [ 83.5913133, 18.3588321 ], [ 83.5914157, 18.3605208 ], [ 83.5883387, 18.3613786 ], [ 83.5896822, 18.3646311 ], [ 83.5933939, 18.3646995 ], [ 83.5941713, 18.3671648 ], [ 83.5961328, 18.3684922 ], [ 83.6003388, 18.3671932 ], [ 83.6012389, 18.3699323 ], [ 83.596149, 18.3707063 ], [ 83.5957402, 18.3720906 ], [ 83.6032274, 18.3750372 ], [ 83.6041075, 18.3776998 ], [ 83.6030014, 18.3822621 ], [ 83.6055777, 18.3814565 ], [ 83.6047819, 18.3820148 ], [ 83.6073947, 18.3897498 ], [ 83.6061601, 18.3909969 ], [ 83.6117448, 18.3879694 ], [ 83.6116503, 18.3850063 ], [ 83.6144432, 18.3826474 ], [ 83.6236884, 18.3821107 ], [ 83.6363402, 18.3788439 ], [ 83.6420677, 18.3797362 ], [ 83.6555693, 18.3883817 ], [ 83.6647479, 18.3860592 ], [ 83.6721648, 18.3872013 ], [ 83.6751574, 18.3898865 ], [ 83.6767557, 18.3868758 ], [ 83.6818021, 18.3874833 ], [ 83.6852295, 18.3904104 ], [ 83.6893559, 18.3903356 ], [ 83.6991617, 18.3890461 ], [ 83.7047048, 18.3867445 ], [ 83.7086697, 18.3915387 ], [ 83.7062118, 18.4050287 ], [ 83.7000713, 18.4116323 ], [ 83.7016829, 18.4186895 ], [ 83.6999083, 18.4253814 ], [ 83.7015076, 18.432258 ], [ 83.7007958, 18.4414105 ], [ 83.707757, 18.4455045 ], [ 83.712217, 18.4452027 ], [ 83.7166779, 18.4486877 ], [ 83.7227684, 18.4430507 ], [ 83.7251189, 18.4365497 ], [ 83.723877, 18.4310191 ], [ 83.716296, 18.4283718 ], [ 83.7157513, 18.4263465 ], [ 83.7177195, 18.4248302 ], [ 83.7249663, 18.4264566 ], [ 83.7314442, 18.4313887 ], [ 83.7318374, 18.4225256 ], [ 83.7373824, 18.4157357 ], [ 83.7389536, 18.407998 ], [ 83.7413852, 18.4081827 ], [ 83.7480741, 18.404177 ], [ 83.7521987, 18.3994237 ], [ 83.7577571, 18.3963567 ], [ 83.7595204, 18.3916707 ], [ 83.7617616, 18.3909588 ], [ 83.7630556, 18.3919062 ], [ 83.7618763, 18.3867678 ], [ 83.7657178, 18.3849379 ], [ 83.769664, 18.3797575 ], [ 83.7690298, 18.3760886 ], [ 83.7759468, 18.3790108 ], [ 83.7815864, 18.3766107 ], [ 83.7900738, 18.3758028 ], [ 83.7937594, 18.3712134 ], [ 83.7967154, 18.373048 ], [ 83.8005067, 18.3713717 ], [ 83.8037888, 18.3782084 ], [ 83.7968518, 18.3819712 ], [ 83.7981691, 18.3924308 ], [ 83.8037787, 18.3927285 ], [ 83.8044287, 18.3950504 ], [ 83.8027155, 18.393956 ], [ 83.8019282, 18.3958255 ], [ 83.8065261, 18.3964732 ], [ 83.8069461, 18.3975106 ], [ 83.8079609, 18.3973368 ], [ 83.8075548, 18.396001 ], [ 83.811726, 18.3963252 ], [ 83.8116472, 18.394469 ], [ 83.813687, 18.3930457 ], [ 83.8172672, 18.3931394 ], [ 83.8162842, 18.3887756 ], [ 83.8283, 18.3869444 ], [ 83.8325207, 18.3873985 ], [ 83.8316445, 18.3918137 ], [ 83.8260154, 18.395661 ], [ 83.8239122, 18.4003122 ], [ 83.8250289, 18.4058443 ], [ 83.8299868, 18.4087003 ], [ 83.8325309, 18.4118647 ], [ 83.8326441, 18.4173898 ], [ 83.8360023, 18.4169308 ], [ 83.8349693, 18.4207564 ], [ 83.8272085, 18.4268059 ], [ 83.8161275, 18.4308549 ], [ 83.8105462, 18.4376067 ], [ 83.810348, 18.4398827 ], [ 83.8171545, 18.4559236 ], [ 83.8167033, 18.4611409 ], [ 83.8192274, 18.4636551 ], [ 83.8198955, 18.4695282 ], [ 83.8173035, 18.4760018 ], [ 83.8117272, 18.4826777 ], [ 83.8052828, 18.4897452 ], [ 83.797904, 18.4942239 ], [ 83.7926517, 18.5001292 ], [ 83.789543, 18.5053644 ], [ 83.7877493, 18.5116367 ], [ 83.7917392, 18.5252219 ], [ 83.8026742, 18.5399201 ], [ 83.8026559, 18.5461199 ], [ 83.8001221, 18.5489649 ], [ 83.7973503, 18.5492154 ], [ 83.788139, 18.5420863 ], [ 83.783496, 18.5420626 ], [ 83.7811226, 18.5460074 ], [ 83.7772142, 18.56237 ], [ 83.7726524, 18.5657924 ], [ 83.7740308, 18.5691692 ], [ 83.771804, 18.5725604 ], [ 83.7710885, 18.5776501 ], [ 83.7742997, 18.5851966 ], [ 83.7741458, 18.5904312 ], [ 83.7788451, 18.5962786 ], [ 83.7782151, 18.5991121 ], [ 83.7810364, 18.5978085 ], [ 83.7829654, 18.6006481 ], [ 83.7876338, 18.5998492 ], [ 83.7897156, 18.6021849 ], [ 83.7887565, 18.6046034 ], [ 83.7935305, 18.6072548 ], [ 83.7948489, 18.6059107 ], [ 83.7934333, 18.6043058 ], [ 83.7920845, 18.5979465 ], [ 83.7857944, 18.5941752 ], [ 83.7866228, 18.5904664 ], [ 83.7981224, 18.5893095 ], [ 83.7993992, 18.5869177 ], [ 83.8072341, 18.5876104 ], [ 83.810061, 18.5863786 ], [ 83.8083746, 18.5771824 ], [ 83.8203565, 18.5707258 ], [ 83.8219896, 18.5728694 ], [ 83.8290313, 18.5729274 ], [ 83.8315884, 18.5706149 ], [ 83.8316511, 18.5662401 ], [ 83.8284385, 18.5676138 ], [ 83.8249116, 18.5630551 ], [ 83.8243775, 18.558956 ], [ 83.827171, 18.5557949 ], [ 83.8300019, 18.5551094 ], [ 83.8350929, 18.5469556 ], [ 83.836717, 18.546352 ], [ 83.8379344, 18.5424696 ], [ 83.8391713, 18.5419399 ], [ 83.8420733, 18.5454237 ], [ 83.8527203, 18.5342367 ], [ 83.8590075, 18.5338414 ], [ 83.8688697, 18.538665 ], [ 83.8688054, 18.540975 ], [ 83.8619685, 18.5403683 ], [ 83.8609246, 18.543846 ], [ 83.8638846, 18.5462713 ], [ 83.8679438, 18.5445808 ], [ 83.8700292, 18.5460077 ], [ 83.8700922, 18.5474616 ], [ 83.8674964, 18.5496758 ], [ 83.8682628, 18.5507121 ], [ 83.8751604, 18.5485025 ], [ 83.8808972, 18.5553302 ], [ 83.8828018, 18.5463127 ], [ 83.8857304, 18.5430809 ], [ 83.8940636, 18.5417337 ], [ 83.8998636, 18.5361111 ], [ 83.9052567, 18.5335177 ], [ 83.908197, 18.5350661 ], [ 83.9074806, 18.5388008 ], [ 83.9135071, 18.5399296 ], [ 83.9171693, 18.542108 ], [ 83.9152018, 18.5455464 ], [ 83.9151399, 18.5533782 ], [ 83.9094717, 18.5546205 ], [ 83.909806, 18.5566712 ], [ 83.9069951, 18.5573935 ], [ 83.9065812, 18.5613674 ], [ 83.903249, 18.5640004 ], [ 83.9067042, 18.5676056 ], [ 83.9138728, 18.5654402 ], [ 83.9139227, 18.5696462 ], [ 83.9166091, 18.5674843 ], [ 83.9205308, 18.5668615 ], [ 83.9234955, 18.5697648 ], [ 83.9244324, 18.5786061 ], [ 83.9173917, 18.5805167 ], [ 83.9155781, 18.582475 ], [ 83.908026, 18.5857303 ], [ 83.9100311, 18.58691 ], [ 83.907689, 18.5949674 ], [ 83.9051423, 18.5956675 ], [ 83.9044539, 18.6004026 ], [ 83.898346, 18.6045816 ], [ 83.8986759, 18.6072016 ], [ 83.8971163, 18.6090743 ], [ 83.8949797, 18.6088415 ], [ 83.8932219, 18.6102248 ], [ 83.8902502, 18.6170177 ], [ 83.8968076, 18.6207455 ], [ 83.8935721, 18.6270907 ], [ 83.8889302, 18.6288855 ], [ 83.8922291, 18.6318968 ], [ 83.8916632, 18.6344019 ], [ 83.884767, 18.6339575 ], [ 83.8813277, 18.6359681 ], [ 83.877163, 18.6415188 ], [ 83.8684749, 18.6478227 ], [ 83.8498365, 18.6676328 ], [ 83.8508183, 18.6679382 ], [ 83.84016, 18.6827746 ], [ 83.8399702, 18.6871872 ], [ 83.8430385, 18.6949918 ], [ 83.8392737, 18.6982898 ], [ 83.8379297, 18.7020335 ], [ 83.8396972, 18.7044683 ], [ 83.8397282, 18.7123743 ], [ 83.8370544, 18.7154429 ], [ 83.8387871, 18.7163918 ], [ 83.8376863, 18.7229916 ], [ 83.8464244, 18.7243285 ], [ 83.8541292, 18.7284325 ], [ 83.8592866, 18.7297118 ], [ 83.8613355, 18.7357835 ], [ 83.8672984, 18.7430496 ], [ 83.8696362, 18.7438714 ], [ 83.8728081, 18.7399904 ], [ 83.8756097, 18.7415774 ], [ 83.8777007, 18.7388293 ], [ 83.8826393, 18.7405858 ], [ 83.8832989, 18.7313183 ], [ 83.8847031, 18.7321771 ], [ 83.8861576, 18.7299179 ], [ 83.88721, 18.7309856 ], [ 83.889388, 18.7272555 ], [ 83.8906654, 18.7289974 ], [ 83.8846433, 18.7369219 ], [ 83.8853282, 18.7394954 ], [ 83.8810285, 18.7502432 ], [ 83.8745235, 18.7484119 ], [ 83.872096, 18.7509168 ], [ 83.8700143, 18.7510723 ], [ 83.8683122, 18.7540453 ], [ 83.8697013, 18.757842 ], [ 83.8679488, 18.7611858 ], [ 83.8702908, 18.7622781 ], [ 83.8669414, 18.7662106 ], [ 83.8652083, 18.7652444 ], [ 83.8635622, 18.7670882 ], [ 83.8621703, 18.7669245 ], [ 83.8603006, 18.7643762 ], [ 83.853143, 18.7693549 ], [ 83.8497206, 18.766108 ], [ 83.8486304, 18.768038 ], [ 83.8419232, 18.7689387 ], [ 83.8326444, 18.7741335 ], [ 83.8329187, 18.7793284 ], [ 83.8339814, 18.7801878 ], [ 83.8373915, 18.7788772 ], [ 83.8385371, 18.7809719 ], [ 83.8418258, 18.7816849 ], [ 83.843097, 18.7839086 ], [ 83.849289, 18.7868925 ], [ 83.8498483, 18.7890781 ], [ 83.8553872, 18.7880092 ], [ 83.8600915, 18.7894042 ], [ 83.8623, 18.7887926 ], [ 83.8758531, 18.7956254 ], [ 83.8808967, 18.794979 ], [ 83.8878321, 18.7964786 ], [ 83.8840488, 18.8024539 ], [ 83.8822675, 18.8022873 ], [ 83.8788097, 18.8054863 ], [ 83.8775871, 18.8047244 ], [ 83.8767656, 18.8057434 ], [ 83.8780991, 18.8117436 ], [ 83.8776853, 18.8165431 ], [ 83.8787879, 18.8169413 ], [ 83.8855533, 18.8111412 ], [ 83.8912, 18.815346 ], [ 83.8929036, 18.8156447 ], [ 83.893812, 18.8144569 ], [ 83.8958524, 18.8153621 ], [ 83.8996301, 18.8244026 ], [ 83.9047562, 18.8273992 ], [ 83.9119923, 18.825962 ], [ 83.9158049, 18.8279616 ], [ 83.9176731, 18.8242959 ], [ 83.9226299, 18.8235878 ], [ 83.9232781, 18.8218291 ], [ 83.9263435, 18.8224349 ], [ 83.9281101, 18.8188621 ], [ 83.9316483, 18.8158782 ], [ 83.9346272, 18.8162792 ], [ 83.93465, 18.8181528 ], [ 83.9375367, 18.8181597 ], [ 83.9381046, 18.8158533 ], [ 83.9423208, 18.8154577 ], [ 83.9417435, 18.80833 ], [ 83.9501615, 18.8051773 ], [ 83.9553895, 18.806486 ], [ 83.9587691, 18.8096467 ], [ 83.9609598, 18.8140834 ], [ 83.9628061, 18.8128902 ], [ 83.9655896, 18.8146779 ], [ 83.9778518, 18.814173 ], [ 83.9798058, 18.812521 ], [ 83.9848738, 18.8119395 ], [ 83.9868605, 18.8100486 ], [ 83.9884522, 18.810896 ], [ 83.9872136, 18.8114988 ], [ 83.9938502, 18.8136057 ], [ 83.9956742, 18.8112652 ], [ 83.9999009, 18.8105433 ], [ 84.0010708, 18.8113882 ], [ 84.0052181, 18.8087375 ], [ 84.0098965, 18.811688 ], [ 84.0157313, 18.8087526 ], [ 84.0174373, 18.812802 ], [ 84.0168764, 18.8161153 ], [ 84.0154659, 18.8170632 ], [ 84.0191742, 18.8164499 ], [ 84.0191152, 18.8179161 ], [ 84.0225212, 18.8158986 ], [ 84.0252219, 18.8170476 ], [ 84.0248276, 18.8154795 ], [ 84.0329638, 18.8115961 ], [ 84.0377829, 18.8130451 ], [ 84.0384833, 18.8164328 ], [ 84.040843, 18.8156081 ], [ 84.0456072, 18.8128804 ], [ 84.044257, 18.8060561 ], [ 84.0459855, 18.8050633 ], [ 84.0454517, 18.8036013 ], [ 84.0466859, 18.8016076 ], [ 84.0510954, 18.7990771 ], [ 84.0585132, 18.8000148 ], [ 84.0598768, 18.7991751 ], [ 84.0587303, 18.7985929 ], [ 84.0574202, 18.7934428 ], [ 84.0583993, 18.791735 ], [ 84.0613655, 18.7923371 ], [ 84.0616256, 18.7907295 ], [ 84.0587181, 18.7908508 ], [ 84.0587287, 18.7896908 ], [ 84.057265, 18.7893699 ], [ 84.0600181, 18.7851081 ], [ 84.0599119, 18.7824235 ], [ 84.0620106, 18.7813823 ], [ 84.0679899, 18.7823113 ], [ 84.0692231, 18.778146 ], [ 84.0718663, 18.7776819 ], [ 84.0737495, 18.7757523 ], [ 84.076417, 18.7644452 ], [ 84.0803396, 18.7653461 ], [ 84.0797144, 18.7645057 ], [ 84.0811745, 18.7641945 ], [ 84.0813957, 18.7653898 ], [ 84.0852297, 18.7664878 ], [ 84.0847511, 18.7642729 ], [ 84.0895899, 18.7639873 ], [ 84.0894625, 18.7567804 ], [ 84.0968807, 18.7605434 ], [ 84.1032737, 18.7602679 ], [ 84.1134922, 18.7668726 ], [ 84.1177091, 18.7655382 ], [ 84.1223839, 18.7679442 ], [ 84.1246793, 18.7639392 ], [ 84.1293048, 18.765333 ], [ 84.1325601, 18.7606023 ], [ 84.1373975, 18.7612362 ], [ 84.141995, 18.7642997 ], [ 84.1389096, 18.7688031 ], [ 84.1403875, 18.7772722 ], [ 84.146219, 18.7771628 ], [ 84.1517615, 18.7835406 ], [ 84.1541614, 18.7831619 ], [ 84.1565076, 18.7845792 ], [ 84.158427, 18.7828928 ], [ 84.1592635, 18.7878533 ], [ 84.1613615, 18.7876687 ], [ 84.1634956, 18.7893039 ], [ 84.1655881, 18.7877555 ], [ 84.1697185, 18.7882153 ], [ 84.1722864, 18.7828956 ], [ 84.1747923, 18.7821255 ], [ 84.1757743, 18.7800816 ], [ 84.1827059, 18.7819606 ], [ 84.1899385, 18.777704 ], [ 84.1946801, 18.7833193 ], [ 84.1934194, 18.7875937 ], [ 84.1953427, 18.7916768 ], [ 84.1975203, 18.7918449 ], [ 84.1981016, 18.7908107 ], [ 84.200112, 18.7922089 ], [ 84.2004532, 18.7904893 ], [ 84.207581, 18.789147 ], [ 84.2132604, 18.7905456 ], [ 84.2180837, 18.7901075 ], [ 84.2189144, 18.7911853 ], [ 84.2137724, 18.793998 ], [ 84.2143983, 18.7954249 ], [ 84.2191945, 18.7949187 ], [ 84.2218532, 18.7978342 ], [ 84.2239038, 18.7970926 ], [ 84.2263082, 18.7987671 ], [ 84.2322507, 18.7971534 ], [ 84.2338304, 18.7947705 ], [ 84.2367409, 18.7985519 ], [ 84.2408028, 18.7971446 ], [ 84.2412807, 18.7913773 ], [ 84.2435823, 18.7915152 ], [ 84.2424755, 18.7899141 ], [ 84.2431365, 18.7886237 ], [ 84.2490271, 18.7857896 ], [ 84.25322, 18.7879777 ], [ 84.2559218, 18.7879859 ], [ 84.2584618, 18.7842263 ], [ 84.2609667, 18.7832201 ], [ 84.2681169, 18.7845619 ], [ 84.2864894, 18.7923021 ], [ 84.2887711, 18.7984213 ], [ 84.2886615, 18.8046593 ], [ 84.3049869, 18.798259 ], [ 84.3059234, 18.7942272 ], [ 84.3089778, 18.7941402 ], [ 84.312593, 18.7903727 ], [ 84.3212584, 18.7864924 ], [ 84.3249316, 18.7904371 ], [ 84.3245395, 18.7948426 ], [ 84.3265917, 18.7987865 ], [ 84.3364485, 18.7984399 ], [ 84.3361321, 18.8010721 ], [ 84.3380998, 18.8004501 ], [ 84.3390053, 18.8022645 ], [ 84.3445454, 18.8017971 ], [ 84.3418345, 18.8089781 ], [ 84.3369152, 18.8115583 ], [ 84.3342409, 18.8151862 ], [ 84.3310527, 18.8150097 ], [ 84.3310552, 18.8178497 ], [ 84.334367, 18.8177074 ], [ 84.3340992, 18.8199567 ], [ 84.3393191, 18.8196881 ], [ 84.3426552, 18.8222189 ], [ 84.3494079, 18.8200577 ], [ 84.3512535, 18.8227026 ], [ 84.3520142, 18.8271065 ], [ 84.3506575, 18.8277509 ], [ 84.3511845, 18.8295193 ], [ 84.3522304, 18.8290466 ], [ 84.3521115, 18.8314875 ], [ 84.3596031, 18.8312147 ], [ 84.3638496, 18.8371219 ], [ 84.3612612, 18.8388957 ], [ 84.3612339, 18.8421643 ], [ 84.3449882, 18.8490491 ], [ 84.3416338, 18.8542567 ], [ 84.3330603, 18.8605137 ], [ 84.3309405, 18.8676893 ], [ 84.3256043, 18.8760918 ], [ 84.3305332, 18.8832151 ], [ 84.3370228, 18.8899831 ], [ 84.3560512, 18.8693528 ], [ 84.357788, 18.8693008 ], [ 84.3620603, 18.860882 ], [ 84.3644958, 18.8613274 ], [ 84.3665026, 18.8640199 ], [ 84.3699006, 18.8608395 ], [ 84.3742269, 18.8613884 ], [ 84.3773322, 18.8645114 ], [ 84.3789943, 18.8717004 ], [ 84.3842022, 18.8741397 ], [ 84.3809693, 18.877163 ], [ 84.3758074, 18.8789745 ], [ 84.3725914, 18.8780667 ], [ 84.3663687, 18.8850313 ], [ 84.3625502, 18.8871532 ], [ 84.3602665, 18.8945527 ], [ 84.3649534, 18.8896933 ], [ 84.3706792, 18.8866228 ], [ 84.3742667, 18.8865246 ], [ 84.382557, 18.8814175 ], [ 84.3833504, 18.8828646 ], [ 84.3814831, 18.8864277 ], [ 84.3881104, 18.8842408 ], [ 84.3913272, 18.8798973 ], [ 84.3921325, 18.8762964 ], [ 84.3953706, 18.8797689 ], [ 84.3951792, 18.8820239 ], [ 84.3976076, 18.8820352 ], [ 84.3983269, 18.8836797 ], [ 84.3975181, 18.8902832 ], [ 84.3959568, 18.8930742 ], [ 84.3903263, 18.8958173 ], [ 84.3851493, 18.8959206 ], [ 84.3850485, 18.8978336 ], [ 84.3806199, 18.9001371 ], [ 84.3781418, 18.9032943 ], [ 84.3789339, 18.9042175 ], [ 84.3855595, 18.9003557 ], [ 84.3889395, 18.9029588 ], [ 84.393534, 18.9043328 ], [ 84.3941197, 18.9008146 ], [ 84.4000873, 18.8953085 ], [ 84.4097107, 18.8951223 ], [ 84.4128765, 18.8971668 ], [ 84.4180181, 18.8972021 ], [ 84.4213447, 18.9011585 ], [ 84.4221903, 18.9054147 ], [ 84.4204744, 18.9108858 ], [ 84.4167595, 18.9146043 ], [ 84.4185728, 18.9173208 ], [ 84.4205269, 18.9176685 ], [ 84.4214997, 18.9139435 ], [ 84.4244299, 18.9103493 ], [ 84.4283926, 18.9090225 ], [ 84.4301924, 18.9113954 ], [ 84.4311082, 18.9166639 ], [ 84.4360804, 18.9203856 ], [ 84.4376529, 18.9196396 ], [ 84.4380246, 18.9204621 ], [ 84.438181, 18.9251465 ], [ 84.4394657, 18.9270832 ], [ 84.4385716, 18.9315726 ], [ 84.4375799, 18.9325117 ], [ 84.4276838, 18.9320902 ], [ 84.4310283, 18.9358527 ], [ 84.4281968, 18.9422657 ], [ 84.4242198, 18.9472539 ], [ 84.4260146, 18.9527469 ], [ 84.429923, 18.9553478 ], [ 84.4324284, 18.9590895 ], [ 84.4314723, 18.9628204 ], [ 84.4294118, 18.9648589 ], [ 84.4310729, 18.9691894 ], [ 84.4373433, 18.970369 ], [ 84.4416788, 18.9686499 ], [ 84.4460474, 18.9719296 ], [ 84.4450543, 18.9732435 ], [ 84.4477291, 18.9755651 ], [ 84.4505838, 18.9766565 ], [ 84.4524262, 18.9759775 ], [ 84.4446832, 18.9832624 ], [ 84.443296, 18.9904992 ], [ 84.4322188, 18.9950506 ], [ 84.432498, 19.0065548 ], [ 84.4282369, 19.007674 ], [ 84.4240705, 19.0131246 ], [ 84.4220113, 19.0127482 ], [ 84.4210854, 19.0219914 ], [ 84.4257333, 19.0192072 ], [ 84.4240982, 19.0159471 ], [ 84.4245799, 19.0139535 ], [ 84.4316034, 19.0134823 ], [ 84.4326227, 19.0107964 ], [ 84.435523, 19.0101909 ], [ 84.4371222, 19.0071292 ], [ 84.4405595, 19.0074116 ], [ 84.4416063, 19.0035295 ], [ 84.4448344, 19.0044455 ], [ 84.4496081, 19.0030034 ], [ 84.454377, 19.0000032 ], [ 84.455818, 18.9973274 ], [ 84.4603596, 18.9967803 ], [ 84.4605917, 18.9930582 ], [ 84.4647385, 18.9916071 ], [ 84.4648915, 18.9937314 ], [ 84.4667784, 18.9938791 ], [ 84.4702713, 18.9914164 ], [ 84.4743436, 18.9917566 ], [ 84.4760277, 18.9880409 ], [ 84.4788932, 18.9884592 ], [ 84.4829324, 19.0048689 ], [ 84.4826423, 19.0165689 ], [ 84.4850234, 19.0192427 ], [ 84.4887747, 19.0195061 ], [ 84.4943674, 19.0290012 ], [ 84.5004724, 19.0331658 ], [ 84.5053191, 19.0338635 ], [ 84.5117337, 19.0402401 ], [ 84.516379, 19.048426 ], [ 84.5241197, 19.0486971 ], [ 84.5261345, 19.0460374 ], [ 84.5360625, 19.0502884 ], [ 84.5432717, 19.0550535 ], [ 84.5566027, 19.0565809 ], [ 84.5623397, 19.0617504 ], [ 84.5662127, 19.0680781 ], [ 84.5728648, 19.07372 ], [ 84.5738783, 19.0732682 ], [ 84.5715764, 19.0695758 ], [ 84.5747022, 19.0675668 ], [ 84.5766297, 19.0676102 ], [ 84.5818453, 19.073111 ], [ 84.583095, 19.07273 ], [ 84.5833752, 19.0681457 ], [ 84.5804583, 19.0600246 ], [ 84.5818234, 19.0589092 ], [ 84.5815191, 19.0530212 ], [ 84.5830509, 19.0492391 ], [ 84.5786771, 19.0456595 ], [ 84.57729, 19.040471 ], [ 84.5832864, 19.0424823 ], [ 84.5812645, 19.0375157 ], [ 84.5822997, 19.0348786 ], [ 84.5816662, 19.0300883 ], [ 84.5847009, 19.0290623 ], [ 84.587783, 19.0250791 ], [ 84.5915408, 19.0229561 ], [ 84.5941479, 19.0222585 ], [ 84.594859, 19.0249727 ], [ 84.5966898, 19.0257688 ], [ 84.6009011, 19.0247894 ], [ 84.6019783, 19.0324395 ], [ 84.6037629, 19.0341425 ], [ 84.6058531, 19.0416972 ], [ 84.6117558, 19.0502903 ], [ 84.6142681, 19.0519395 ], [ 84.6128112, 19.0535282 ], [ 84.6134279, 19.0565663 ], [ 84.6176075, 19.0545341 ], [ 84.6207425, 19.0561415 ], [ 84.6209227, 19.0584919 ], [ 84.6224277, 19.0598525 ], [ 84.617046, 19.06093 ], [ 84.6183524, 19.0658672 ], [ 84.6229918, 19.0669269 ], [ 84.6278226, 19.0662079 ], [ 84.6291338, 19.0645042 ], [ 84.6306379, 19.0646049 ], [ 84.6298718, 19.0617004 ], [ 84.6310107, 19.0604191 ], [ 84.6371149, 19.0599781 ], [ 84.6416135, 19.0672744 ], [ 84.6539439, 19.0675356 ], [ 84.6546747, 19.0658966 ], [ 84.6579611, 19.065559 ], [ 84.6575799, 19.064308 ], [ 84.661131, 19.0630389 ], [ 84.6630824, 19.0746062 ], [ 84.6694785, 19.0743756 ], [ 84.6708523, 19.0763301 ], [ 84.6634717, 19.0823963 ], [ 84.6638788, 19.0875721 ], [ 84.6586777, 19.0919586 ], [ 84.6586633, 19.0943338 ], [ 84.6531896, 19.09309 ], [ 84.647041, 19.0962629 ], [ 84.644243, 19.092908 ], [ 84.6368401, 19.089738 ], [ 84.6367845, 19.0859485 ], [ 84.6343282, 19.0886671 ], [ 84.6311965, 19.0821015 ], [ 84.631931, 19.0865634 ], [ 84.6304183, 19.0843901 ], [ 84.6254948, 19.0849136 ], [ 84.6260018, 19.0876659 ], [ 84.6241116, 19.0883142 ], [ 84.6250137, 19.091663 ], [ 84.6226785, 19.0938637 ], [ 84.6249001, 19.0956353 ], [ 84.6254777, 19.0990929 ], [ 84.6196542, 19.1043959 ], [ 84.618666, 19.1000841 ], [ 84.6095452, 19.1007787 ], [ 84.6112822, 19.1068478 ], [ 84.6084124, 19.107533 ], [ 84.6055179, 19.1175382 ], [ 84.601864, 19.1231758 ], [ 84.6027633, 19.1230882 ], [ 84.60285, 19.1266207 ], [ 84.5960058, 19.1287891 ], [ 84.59553, 19.1324495 ], [ 84.6032771, 19.1319275 ], [ 84.6071982, 19.1291789 ], [ 84.6141581, 19.1278876 ], [ 84.6248325, 19.1279626 ], [ 84.6297776, 19.1266807 ], [ 84.6308556, 19.1267081 ], [ 84.6310224, 19.1296771 ], [ 84.6436266, 19.1297082 ], [ 84.644078, 19.1337239 ], [ 84.6542644, 19.1293745 ], [ 84.6555554, 19.130809 ], [ 84.6599452, 19.1315016 ], [ 84.6673184, 19.1298567 ], [ 84.6666919, 19.1318402 ], [ 84.6697421, 19.1379437 ], [ 84.6716554, 19.1482189 ], [ 84.6710154, 19.1562309 ], [ 84.6679317, 19.1541732 ], [ 84.6687393, 19.1629892 ], [ 84.6709061, 19.1660423 ], [ 84.6725238, 19.1645546 ], [ 84.6741935, 19.1664589 ] ], [ [ 84.3496781, 18.791919 ], [ 84.3501111, 18.7875725 ], [ 84.3517132, 18.7857711 ], [ 84.3532191, 18.7897972 ], [ 84.3517683, 18.7913345 ], [ 84.3496781, 18.791919 ] ], [ [ 84.3395916, 18.7894005 ], [ 84.3311132, 18.7895367 ], [ 84.3292729, 18.7871987 ], [ 84.3362953, 18.7828698 ], [ 84.3393616, 18.778692 ], [ 84.3395916, 18.7894005 ] ] ] } }
]
}
