{
"type": "FeatureCollection",
"name": "2813",
"crs": { "type": "name", "properties": { "name": "urn:ogc:def:crs:OGC:1.3:CRS84" } },
"features": [
{ "type": "Feature", "properties": { "code": "2813", "name": "Visakhapatnam", "type": "district" }, "geometry": { "type": "Polygon", "coordinates": [ [ [ 83.357851, 18.0646515 ], [ 83.366211, 18.0639129 ], [ 83.3642261, 18.0568066 ], [ 83.3698606, 18.0553027 ], [ 83.375961, 18.0514283 ], [ 83.3785823, 18.0526561 ], [ 83.3878933, 18.0505553 ], [ 83.3953077, 18.0509071 ], [ 83.4002059, 18.0536522 ], [ 83.4036968, 18.0577182 ], [ 83.4023161, 18.0519196 ], [ 83.4042912, 18.0483109 ], [ 83.4039779, 18.0440751 ], [ 83.4016169, 18.0403598 ], [ 83.4015553, 18.0371604 ], [ 83.3951319, 18.0277593 ], [ 83.3927831, 18.0171728 ], [ 83.4070719, 18.0153699 ], [ 83.4149781, 18.0158137 ], [ 83.4210096, 18.0137715 ], [ 83.4204409, 18.009699 ], [ 83.4215684, 18.0047032 ], [ 83.4239132, 18.001317 ], [ 83.424304, 17.9949063 ], [ 83.4204756, 17.9873224 ], [ 83.4146092, 17.9870329 ], [ 83.4126052, 17.9733005 ], [ 83.4139549, 17.9711932 ], [ 83.4070913, 17.9687914 ], [ 83.4064453, 17.9633944 ], [ 83.4117623, 17.959177 ], [ 83.4127114, 17.956175 ], [ 83.415194, 17.9557433 ], [ 83.4151477, 17.9526293 ], [ 83.421092, 17.945608 ], [ 83.421976, 17.9411398 ], [ 83.4288343, 17.9395435 ], [ 83.4306306, 17.9356353 ], [ 83.4341245, 17.9363734 ], [ 83.4401316, 17.9310336 ], [ 83.4384186, 17.9295383 ], [ 83.4431506, 17.9225846 ], [ 83.4505734, 17.9250826 ], [ 83.4450181, 17.9279219 ], [ 83.4462898, 17.9380622 ], [ 83.4427058, 17.9434367 ], [ 83.4378889, 17.9450444 ], [ 83.4372519, 17.9471613 ], [ 83.44377, 17.9472027 ], [ 83.4439552, 17.9458109 ], [ 83.450876, 17.9449741 ], [ 83.4515244, 17.9601778 ], [ 83.4604133, 17.9619082 ], [ 83.4625842, 17.9645994 ], [ 83.4663926, 17.9659479 ], [ 83.4733531, 17.9644906 ], [ 83.4739554, 17.9610594 ], [ 83.4752916, 17.9610444 ], [ 83.4744639, 17.9599955 ], [ 83.4757096, 17.953383 ], [ 83.4826406, 17.9487815 ], [ 83.4941617, 17.9515071 ], [ 83.4992979, 17.9508241 ], [ 83.5007607, 17.9525891 ], [ 83.5064909, 17.9529833 ], [ 83.5107315, 17.9550979 ], [ 83.5138324, 17.9525002 ], [ 83.5187144, 17.9536292 ], [ 83.520711, 17.9503992 ], [ 83.5250268, 17.9472778 ], [ 83.5145695, 17.9410966 ], [ 83.5130182, 17.937267 ], [ 83.4995413, 17.9312226 ], [ 83.4774774, 17.9171472 ], [ 83.4586529, 17.901089 ], [ 83.4553185, 17.8963431 ], [ 83.4563928, 17.890257 ], [ 83.4556356, 17.8876274 ], [ 83.447531, 17.880253 ], [ 83.4437173, 17.872783 ], [ 83.4214984, 17.8578303 ], [ 83.4167802, 17.8526054 ], [ 83.4115847, 17.8438426 ], [ 83.4099525, 17.8435982 ], [ 83.4108826, 17.8420168 ], [ 83.4070964, 17.841033 ], [ 83.4077022, 17.839551 ], [ 83.4112744, 17.8394752 ], [ 83.412312, 17.8359168 ], [ 83.4162485, 17.833684 ], [ 83.4161772, 17.8225546 ], [ 83.4114534, 17.8137129 ], [ 83.4108696, 17.8093582 ], [ 83.3982587, 17.8000945 ], [ 83.3962338, 17.7968804 ], [ 83.3908466, 17.7925546 ], [ 83.3853118, 17.7842746 ], [ 83.385127, 17.7823015 ], [ 83.3872204, 17.7796103 ], [ 83.3857998, 17.7773509 ], [ 83.3735501, 17.7683656 ], [ 83.3596649, 17.7610425 ], [ 83.354585, 17.7559836 ], [ 83.3507141, 17.7503389 ], [ 83.3505361, 17.746209 ], [ 83.3470518, 17.7431223 ], [ 83.3439528, 17.7376435 ], [ 83.3442245, 17.7310029 ], [ 83.3450197, 17.7289036 ], [ 83.3469591, 17.7279644 ], [ 83.3463996, 17.7261454 ], [ 83.3434553, 17.7228571 ], [ 83.3377548, 17.7194742 ], [ 83.3182064, 17.7099991 ], [ 83.3060205, 17.7009953 ], [ 83.305975, 17.6974874 ], [ 83.3043778, 17.6989416 ], [ 83.296911, 17.6933202 ], [ 83.297532, 17.6852735 ], [ 83.2954288, 17.6813269 ], [ 83.2960707, 17.6790444 ], [ 83.2948743, 17.6745208 ], [ 83.2851509, 17.6663333 ], [ 83.2822173, 17.6603403 ], [ 83.2604671, 17.6496089 ], [ 83.26106, 17.6471733 ], [ 83.2594145, 17.6431616 ], [ 83.2482792, 17.6376492 ], [ 83.2385287, 17.6299526 ], [ 83.21647, 17.5954971 ], [ 83.1487491, 17.5571977 ], [ 83.1127037, 17.5457508 ], [ 83.1234928, 17.5912937 ], [ 83.1239453, 17.5976316 ], [ 83.1266629, 17.6023726 ], [ 83.1281986, 17.6029822 ], [ 83.1285285, 17.611424 ], [ 83.1421025, 17.6320905 ], [ 83.1472565, 17.6411957 ], [ 83.1474223, 17.6443992 ], [ 83.1513792, 17.6482746 ], [ 83.1513941, 17.649373 ], [ 83.1446482, 17.6498862 ], [ 83.1442337, 17.6558819 ], [ 83.1467827, 17.6574598 ], [ 83.1503597, 17.6670548 ], [ 83.1524336, 17.6669747 ], [ 83.1529484, 17.6701648 ], [ 83.1515108, 17.670576 ], [ 83.1536883, 17.6732616 ], [ 83.1489987, 17.671742 ], [ 83.1464728, 17.6736406 ], [ 83.1417016, 17.6730667 ], [ 83.1406111, 17.6764982 ], [ 83.1415691, 17.6803881 ], [ 83.1379187, 17.6814505 ], [ 83.1372717, 17.6855953 ], [ 83.1269938, 17.6855503 ], [ 83.1259237, 17.6834882 ], [ 83.1233285, 17.6830499 ], [ 83.1225867, 17.6808346 ], [ 83.1153692, 17.682144 ], [ 83.1099668, 17.692274 ], [ 83.1131872, 17.6975017 ], [ 83.1179022, 17.6973671 ], [ 83.1197253, 17.6950706 ], [ 83.1221736, 17.6996792 ], [ 83.1210457, 17.7010494 ], [ 83.1205857, 17.7118062 ], [ 83.121986, 17.7135251 ], [ 83.1343447, 17.7113837 ], [ 83.1354814, 17.7148825 ], [ 83.1378338, 17.7161736 ], [ 83.1410432, 17.7141944 ], [ 83.1498823, 17.7186512 ], [ 83.1536522, 17.7295182 ], [ 83.1526509, 17.7325733 ], [ 83.1568283, 17.7365768 ], [ 83.1637663, 17.7579605 ], [ 83.1599732, 17.7659963 ], [ 83.1584994, 17.7655264 ], [ 83.1581597, 17.7679629 ], [ 83.156844, 17.7683726 ], [ 83.1577565, 17.7740712 ], [ 83.1635704, 17.7765395 ], [ 83.162993, 17.7823245 ], [ 83.1607379, 17.7868824 ], [ 83.1617005, 17.7962648 ], [ 83.1606955, 17.8101881 ], [ 83.1622164, 17.8196538 ], [ 83.1612614, 17.840398 ], [ 83.1640477, 17.8484781 ], [ 83.1852762, 17.845753 ], [ 83.1850555, 17.8523741 ], [ 83.1891687, 17.8528423 ], [ 83.2008377, 17.8473381 ], [ 83.2016208, 17.8486753 ], [ 83.2053748, 17.8473937 ], [ 83.2063264, 17.8530642 ], [ 83.2088547, 17.8583802 ], [ 83.2140261, 17.8616102 ], [ 83.2056488, 17.8630233 ], [ 83.210803, 17.8766144 ], [ 83.2111285, 17.8820619 ], [ 83.2154615, 17.882667 ], [ 83.2172328, 17.8813651 ], [ 83.2172481, 17.8757417 ], [ 83.2233686, 17.8731683 ], [ 83.2286014, 17.8736305 ], [ 83.230887, 17.875917 ], [ 83.2303863, 17.881103 ], [ 83.2318382, 17.885691 ], [ 83.234999, 17.890578 ], [ 83.2364376, 17.8908083 ], [ 83.2390726, 17.9040063 ], [ 83.2486449, 17.9084674 ], [ 83.2549524, 17.9141002 ], [ 83.2608892, 17.9155245 ], [ 83.2467433, 17.9284321 ], [ 83.243685, 17.925533 ], [ 83.2361669, 17.9245082 ], [ 83.2327009, 17.9275769 ], [ 83.2336443, 17.9362552 ], [ 83.224187, 17.9462347 ], [ 83.2330079, 17.9502176 ], [ 83.2427697, 17.9508745 ], [ 83.2521891, 17.9668231 ], [ 83.2502648, 17.9734158 ], [ 83.2567083, 17.9761625 ], [ 83.2609075, 17.9808636 ], [ 83.2656279, 17.9883287 ], [ 83.2663316, 17.996682 ], [ 83.2691412, 17.9969304 ], [ 83.2703181, 18.0006534 ], [ 83.2729499, 18.003693 ], [ 83.2731535, 18.0074014 ], [ 83.2802485, 18.0080145 ], [ 83.2828425, 18.0009615 ], [ 83.2874953, 18.000919 ], [ 83.2931877, 17.9966001 ], [ 83.2949102, 17.9968036 ], [ 83.2947574, 17.9978131 ], [ 83.2930838, 17.998052 ], [ 83.2873545, 18.0035905 ], [ 83.288885, 18.008278 ], [ 83.3048146, 18.0075454 ], [ 83.3079052, 18.003658 ], [ 83.3151815, 18.0053614 ], [ 83.3138127, 18.0105633 ], [ 83.3143763, 18.0159168 ], [ 83.3094816, 18.0198549 ], [ 83.3118279, 18.0230153 ], [ 83.3052837, 18.028414 ], [ 83.3054393, 18.0315201 ], [ 83.3072958, 18.0321557 ], [ 83.3096833, 18.0291292 ], [ 83.3178005, 18.0258356 ], [ 83.3206174, 18.0350786 ], [ 83.3258457, 18.0381964 ], [ 83.3340399, 18.0457588 ], [ 83.3410021, 18.0455626 ], [ 83.3448835, 18.0508945 ], [ 83.353257, 18.0486269 ], [ 83.3537688, 18.0519786 ], [ 83.3519241, 18.0563489 ], [ 83.354543, 18.0583616 ], [ 83.357851, 18.0646515 ] ] ] } }
]
}
