{
"type": "FeatureCollection",
"name": "2815",
"crs": { "type": "name", "properties": { "name": "urn:ogc:def:crs:OGC:1.3:CRS84" } },
"features": [
{ "type": "Feature", "properties": { "code": "2815", "name": "West Godavari", "type": "district" }, "geometry": { "type": "Polygon", "coordinates": [ [ [ 81.4896101, 16.9717167 ], [ 81.4944956, 16.9713955 ], [ 81.4938432, 16.9650358 ], [ 81.4961347, 16.9628544 ], [ 81.4992787, 16.9629482 ], [ 81.5026854, 16.9555519 ], [ 81.5107785, 16.9531801 ], [ 81.5183769, 16.9469303 ], [ 81.5241242, 16.9453154 ], [ 81.5292382, 16.9421025 ], [ 81.5366965, 16.9478231 ], [ 81.5394688, 16.9478503 ], [ 81.5424491, 16.9436888 ], [ 81.5449098, 16.9425551 ], [ 81.5468422, 16.9357306 ], [ 81.5504893, 16.9333159 ], [ 81.5490678, 16.9319436 ], [ 81.5526234, 16.9229674 ], [ 81.5530359, 16.918416 ], [ 81.5656228, 16.9134466 ], [ 81.5740149, 16.9008686 ], [ 81.5794481, 16.9022565 ], [ 81.5825232, 16.9010877 ], [ 81.5899639, 16.9010814 ], [ 81.5928902, 16.9044219 ], [ 81.601496, 16.9018857 ], [ 81.6069206, 16.9042272 ], [ 81.6084073, 16.9029441 ], [ 81.6091065, 16.8986488 ], [ 81.6144349, 16.8981144 ], [ 81.6165319, 16.896792 ], [ 81.6173994, 16.8940423 ], [ 81.6234693, 16.8917492 ], [ 81.6255827, 16.8867408 ], [ 81.6268437, 16.886309 ], [ 81.6273251, 16.8809656 ], [ 81.6291037, 16.8806804 ], [ 81.6289996, 16.8789126 ], [ 81.630122, 16.8788841 ], [ 81.6294874, 16.8755274 ], [ 81.630837, 16.8749866 ], [ 81.6295086, 16.8743108 ], [ 81.6303656, 16.8722214 ], [ 81.6295556, 16.8693992 ], [ 81.6315276, 16.8676432 ], [ 81.6306733, 16.8628224 ], [ 81.63325, 16.8625372 ], [ 81.6377166, 16.8593116 ], [ 81.6355199, 16.8578852 ], [ 81.6374481, 16.8567307 ], [ 81.6355772, 16.8556192 ], [ 81.6366645, 16.8535965 ], [ 81.6380814, 16.8533627 ], [ 81.6393292, 16.8563498 ], [ 81.6431697, 16.8561483 ], [ 81.6496001, 16.8523013 ], [ 81.6533874, 16.8526561 ], [ 81.656407, 16.8510524 ], [ 81.6544413, 16.8465769 ], [ 81.6524873, 16.8465151 ], [ 81.6537552, 16.8441023 ], [ 81.6523832, 16.8375432 ], [ 81.6485338, 16.8321282 ], [ 81.6420565, 16.8302094 ], [ 81.6400769, 16.8281035 ], [ 81.632221, 16.8019563 ], [ 81.6250268, 16.7951521 ], [ 81.6294867, 16.7942963 ], [ 81.6314146, 16.7899083 ], [ 81.6365943, 16.7885013 ], [ 81.6365466, 16.7851279 ], [ 81.6442003, 16.78534 ], [ 81.6459384, 16.7839151 ], [ 81.6452855, 16.7782113 ], [ 81.6567317, 16.7751644 ], [ 81.6684341, 16.7742094 ], [ 81.669946, 16.7663411 ], [ 81.6742031, 16.7662452 ], [ 81.6743422, 16.7683203 ], [ 81.6759385, 16.7675788 ], [ 81.6766293, 16.764545 ], [ 81.6803729, 16.7610147 ], [ 81.6821839, 16.767119 ], [ 81.6861655, 16.7664818 ], [ 81.6859423, 16.7613862 ], [ 81.6876991, 16.760802 ], [ 81.6899671, 16.766361 ], [ 81.6936657, 16.7639569 ], [ 81.6953682, 16.7644855 ], [ 81.6960944, 16.7665844 ], [ 81.7051225, 16.7644394 ], [ 81.7099883, 16.7656237 ], [ 81.7214046, 16.7641022 ], [ 81.7200745, 16.7699031 ], [ 81.725802, 16.7714711 ], [ 81.7270627, 16.759823 ], [ 81.7239682, 16.7581268 ], [ 81.7216686, 16.7445816 ], [ 81.7229949, 16.741978 ], [ 81.720466, 16.7285019 ], [ 81.7313521, 16.7273356 ], [ 81.7368688, 16.7239207 ], [ 81.7389794, 16.7269421 ], [ 81.7419591, 16.7273553 ], [ 81.7449955, 16.7302906 ], [ 81.7528293, 16.7274225 ], [ 81.7504317, 16.7171615 ], [ 81.7494744, 16.7046035 ], [ 81.7526539, 16.7042501 ], [ 81.7541519, 16.6977559 ], [ 81.7569844, 16.6981959 ], [ 81.7598206, 16.6918837 ], [ 81.7603061, 16.6804659 ], [ 81.7587247, 16.6738271 ], [ 81.7679232, 16.6736717 ], [ 81.7684912, 16.6807563 ], [ 81.7802479, 16.6818978 ], [ 81.7839093, 16.6842727 ], [ 81.7890727, 16.6845488 ], [ 81.7878765, 16.6925113 ], [ 81.7886256, 16.6944017 ], [ 81.8015296, 16.6943276 ], [ 81.8061188, 16.6893381 ], [ 81.8111637, 16.6788418 ], [ 81.8420138, 16.6469636 ], [ 81.8568358, 16.6120271 ], [ 81.8583676, 16.596062 ], [ 81.8552884, 16.5800042 ], [ 81.8540144, 16.5590413 ], [ 81.8516895, 16.5475328 ], [ 81.8448452, 16.5291695 ], [ 81.8455928, 16.5182707 ], [ 81.8485346, 16.5044122 ], [ 81.8464093, 16.4959188 ], [ 81.841822, 16.4934423 ], [ 81.819812, 16.490392 ], [ 81.8115037, 16.4837275 ], [ 81.8068662, 16.4834758 ], [ 81.8048491, 16.4804083 ], [ 81.7992123, 16.4771595 ], [ 81.7888934, 16.4631528 ], [ 81.785381, 16.463572 ], [ 81.7820912, 16.4506483 ], [ 81.7688526, 16.4398646 ], [ 81.7623782, 16.4291892 ], [ 81.7554765, 16.4234367 ], [ 81.7495209, 16.4227392 ], [ 81.7462574, 16.4201625 ], [ 81.7364257, 16.4222959 ], [ 81.7332949, 16.4259368 ], [ 81.7283675, 16.4406367 ], [ 81.7241262, 16.4458984 ], [ 81.7188019, 16.4473311 ], [ 81.7102601, 16.4428732 ], [ 81.699987, 16.4227872 ], [ 81.6977076, 16.4155229 ], [ 81.6982496, 16.4090364 ], [ 81.706689, 16.3924099 ], [ 81.710149, 16.3765606 ], [ 81.7171783, 16.3570858 ], [ 81.7174222, 16.3518154 ], [ 81.7132553, 16.3308171 ], [ 81.7135205, 16.326892 ], [ 81.7165598, 16.3268203 ], [ 81.7166635, 16.3229369 ], [ 81.7106521, 16.3164848 ], [ 81.7070634, 16.3178176 ], [ 81.6990804, 16.3244301 ], [ 81.6906399, 16.3274718 ], [ 81.6755137, 16.3286915 ], [ 81.6422998, 16.3342599 ], [ 81.6273229, 16.3379764 ], [ 81.5525415, 16.3471355 ], [ 81.554585, 16.3557366 ], [ 81.5516438, 16.3690527 ], [ 81.5467486, 16.3779734 ], [ 81.5344719, 16.3784949 ], [ 81.5227706, 16.3806684 ], [ 81.5127693, 16.3699703 ], [ 81.4948353, 16.3698653 ], [ 81.4883253, 16.3730571 ], [ 81.4852856, 16.376979 ], [ 81.4804525, 16.3877249 ], [ 81.472474, 16.3935101 ], [ 81.4699855, 16.3981755 ], [ 81.4628135, 16.3984614 ], [ 81.4566452, 16.4038307 ], [ 81.4527514, 16.4047709 ], [ 81.4501012, 16.4042129 ], [ 81.4423039, 16.3982234 ], [ 81.4377258, 16.3981578 ], [ 81.4339293, 16.401847 ], [ 81.4297194, 16.4093236 ], [ 81.4269103, 16.410833 ], [ 81.4258898, 16.4190462 ], [ 81.4226116, 16.4204445 ], [ 81.4156367, 16.4189957 ], [ 81.4120526, 16.4201555 ], [ 81.3998309, 16.4303071 ], [ 81.3992138, 16.4337017 ], [ 81.4013253, 16.4373652 ], [ 81.400962, 16.4389 ], [ 81.3914439, 16.4399533 ], [ 81.3891918, 16.4424819 ], [ 81.3844102, 16.4432527 ], [ 81.3883873, 16.444923 ], [ 81.3884582, 16.4460986 ], [ 81.382788, 16.4483159 ], [ 81.3732357, 16.4587396 ], [ 81.3785736, 16.4670529 ], [ 81.3727507, 16.4741234 ], [ 81.3689922, 16.475351 ], [ 81.367922, 16.4835278 ], [ 81.3719742, 16.494646 ], [ 81.3707716, 16.4993953 ], [ 81.3653532, 16.5007572 ], [ 81.3629059, 16.5070256 ], [ 81.3568969, 16.5072716 ], [ 81.3508073, 16.5051343 ], [ 81.3456681, 16.5070679 ], [ 81.3426851, 16.504538 ], [ 81.3384205, 16.5048851 ], [ 81.3326308, 16.5104346 ], [ 81.3348458, 16.5131621 ], [ 81.3390356, 16.5128562 ], [ 81.3377858, 16.5176958 ], [ 81.3395701, 16.5271593 ], [ 81.3436671, 16.5302681 ], [ 81.3426513, 16.5383632 ], [ 81.344902, 16.5493036 ], [ 81.3473802, 16.5531651 ], [ 81.3461454, 16.5593616 ], [ 81.3490059, 16.5648089 ], [ 81.3484358, 16.5707269 ], [ 81.3462762, 16.5745435 ], [ 81.347981, 16.5805654 ], [ 81.3464073, 16.584175 ], [ 81.3475739, 16.5873329 ], [ 81.3462486, 16.5910693 ], [ 81.3481438, 16.5922467 ], [ 81.3533331, 16.5916515 ], [ 81.3536202, 16.5940519 ], [ 81.3506318, 16.5971212 ], [ 81.3573861, 16.5961307 ], [ 81.3545393, 16.6102616 ], [ 81.3488705, 16.6085568 ], [ 81.348326, 16.6062524 ], [ 81.3453092, 16.603872 ], [ 81.342603, 16.6083059 ], [ 81.3368943, 16.6104089 ], [ 81.3276727, 16.619341 ], [ 81.3263397, 16.6258542 ], [ 81.3294978, 16.6317121 ], [ 81.3305356, 16.6375468 ], [ 81.3347833, 16.6369512 ], [ 81.3378229, 16.6468527 ], [ 81.3505123, 16.6488193 ], [ 81.3579387, 16.6466502 ], [ 81.3574124, 16.6485925 ], [ 81.3533113, 16.6505764 ], [ 81.3396103, 16.6501336 ], [ 81.3393548, 16.6529159 ], [ 81.3531566, 16.6549548 ], [ 81.3566768, 16.6542397 ], [ 81.3553786, 16.6620915 ], [ 81.3579429, 16.6637816 ], [ 81.3778472, 16.6662736 ], [ 81.3970538, 16.6669214 ], [ 81.4175314, 16.6644007 ], [ 81.4186862, 16.6655354 ], [ 81.4305675, 16.6628832 ], [ 81.4318096, 16.6606572 ], [ 81.4422365, 16.6639714 ], [ 81.4441253, 16.6635696 ], [ 81.4461781, 16.6660523 ], [ 81.4456346, 16.669121 ], [ 81.45331, 16.6728993 ], [ 81.4534281, 16.6769419 ], [ 81.4566445, 16.6754802 ], [ 81.4583194, 16.6764359 ], [ 81.459838, 16.675113 ], [ 81.4733299, 16.6793751 ], [ 81.4761319, 16.6747944 ], [ 81.4777706, 16.6759628 ], [ 81.4823806, 16.6745621 ], [ 81.4830568, 16.6727952 ], [ 81.4949611, 16.6729297 ], [ 81.4961231, 16.6707443 ], [ 81.5005063, 16.6699912 ], [ 81.4991505, 16.6644845 ], [ 81.5067932, 16.6625941 ], [ 81.5069778, 16.6665776 ], [ 81.5119795, 16.6657126 ], [ 81.5124489, 16.6684737 ], [ 81.51406, 16.6688278 ], [ 81.5135298, 16.6733891 ], [ 81.5143767, 16.6738418 ], [ 81.5325356, 16.6721759 ], [ 81.5325372, 16.6662242 ], [ 81.5404385, 16.665367 ], [ 81.5407036, 16.657813 ], [ 81.5394473, 16.6535771 ], [ 81.5439245, 16.65294 ], [ 81.5448111, 16.6476171 ], [ 81.5492366, 16.6443661 ], [ 81.5559765, 16.6440885 ], [ 81.5611626, 16.6488384 ], [ 81.5640407, 16.6562139 ], [ 81.559741, 16.658438 ], [ 81.553716, 16.6679246 ], [ 81.5563409, 16.6797199 ], [ 81.5657666, 16.6795507 ], [ 81.5717079, 16.6823067 ], [ 81.5712107, 16.6909971 ], [ 81.576286, 16.691487 ], [ 81.5792478, 16.6933669 ], [ 81.5845681, 16.703425 ], [ 81.5891857, 16.70171 ], [ 81.5928438, 16.7038439 ], [ 81.5993895, 16.7028784 ], [ 81.5992883, 16.7082969 ], [ 81.5957653, 16.7093961 ], [ 81.5961247, 16.7208588 ], [ 81.5937202, 16.7222641 ], [ 81.5833084, 16.7235522 ], [ 81.5688101, 16.7233995 ], [ 81.5668068, 16.7330425 ], [ 81.5701987, 16.7414282 ], [ 81.5673761, 16.7445901 ], [ 81.564623, 16.7588904 ], [ 81.5621313, 16.7581612 ], [ 81.5552523, 16.759516 ], [ 81.5537732, 16.7629197 ], [ 81.5469581, 16.7356874 ], [ 81.5447373, 16.736431 ], [ 81.5424869, 16.7342351 ], [ 81.5404986, 16.7372342 ], [ 81.5366473, 16.7367375 ], [ 81.5322046, 16.7380345 ], [ 81.5316226, 16.7362374 ], [ 81.5290105, 16.7375661 ], [ 81.5273848, 16.7507297 ], [ 81.5284157, 16.7548991 ], [ 81.5325885, 16.7575697 ], [ 81.5323932, 16.7659915 ], [ 81.5292852, 16.7748887 ], [ 81.5283608, 16.7688898 ], [ 81.5202904, 16.7594381 ], [ 81.5187909, 16.7372264 ], [ 81.5167058, 16.7370057 ], [ 81.5118397, 16.7289925 ], [ 81.5027036, 16.7256666 ], [ 81.4984095, 16.729533 ], [ 81.4944878, 16.7297846 ], [ 81.4902271, 16.734639 ], [ 81.4778437, 16.7361391 ], [ 81.4764295, 16.7348928 ], [ 81.4756526, 16.7305865 ], [ 81.4700199, 16.7314354 ], [ 81.4693264, 16.7259301 ], [ 81.4619646, 16.7272932 ], [ 81.4595711, 16.7244052 ], [ 81.4510057, 16.725321 ], [ 81.4493324, 16.7228593 ], [ 81.4465383, 16.7283802 ], [ 81.4481592, 16.7336371 ], [ 81.4432243, 16.7341656 ], [ 81.4421938, 16.7483481 ], [ 81.4405543, 16.7500422 ], [ 81.4416331, 16.7528142 ], [ 81.4398831, 16.7569194 ], [ 81.4630229, 16.7536952 ], [ 81.4658553, 16.7541074 ], [ 81.4675585, 16.7577368 ], [ 81.4698617, 16.757481 ], [ 81.4714045, 16.7590523 ], [ 81.4796527, 16.7573185 ], [ 81.4811525, 16.7559232 ], [ 81.4809332, 16.7589995 ], [ 81.4775934, 16.760444 ], [ 81.4753447, 16.7660758 ], [ 81.4763606, 16.7759526 ], [ 81.4724243, 16.7792721 ], [ 81.4789631, 16.7895305 ], [ 81.4813488, 16.7962941 ], [ 81.4829592, 16.7972454 ], [ 81.4902581, 16.7959679 ], [ 81.4912, 16.8002597 ], [ 81.4980102, 16.8137181 ], [ 81.4931125, 16.8145687 ], [ 81.4867436, 16.8179088 ], [ 81.4882382, 16.8247714 ], [ 81.4826215, 16.8312147 ], [ 81.4813731, 16.8341826 ], [ 81.4813861, 16.8396139 ], [ 81.4784894, 16.8416488 ], [ 81.4791107, 16.8475974 ], [ 81.4757351, 16.8572906 ], [ 81.4751513, 16.8645788 ], [ 81.4714291, 16.8631035 ], [ 81.4681432, 16.8653525 ], [ 81.4653024, 16.8655147 ], [ 81.4610974, 16.8690431 ], [ 81.4572134, 16.8700329 ], [ 81.4607274, 16.8788718 ], [ 81.4614589, 16.8901833 ], [ 81.4604771, 16.8988252 ], [ 81.4718704, 16.897349 ], [ 81.476035, 16.902648 ], [ 81.4806543, 16.9048789 ], [ 81.4867662, 16.9124435 ], [ 81.4884341, 16.9218556 ], [ 81.4866705, 16.9299224 ], [ 81.4878553, 16.9375867 ], [ 81.485524, 16.9439829 ], [ 81.4881165, 16.9503156 ], [ 81.4926301, 16.9546268 ], [ 81.4927613, 16.957344 ], [ 81.4887977, 16.9671395 ], [ 81.4896101, 16.9717167 ] ] ] } }
]
}
