{
"type": "FeatureCollection",
"name": "2822",
"crs": { "type": "name", "properties": { "name": "urn:ogc:def:crs:OGC:1.3:CRS84" } },
"features": [
{ "type": "Feature", "properties": { "code": "2822", "name": "Anantapur", "type": "district" }, "geometry": { "type": "Polygon", "coordinates": [ [ [ 77.6651514, 15.2328636 ], [ 77.6700304, 15.2327483 ], [ 77.6754281, 15.2302199 ], [ 77.6771686, 15.2280496 ], [ 77.6764974, 15.2208672 ], [ 77.6787967, 15.2170536 ], [ 77.6818179, 15.2142265 ], [ 77.6887362, 15.2134775 ], [ 77.6880229, 15.2092436 ], [ 77.6909659, 15.2069943 ], [ 77.6961027, 15.2073748 ], [ 77.6978104, 15.2058416 ], [ 77.6986461, 15.2004207 ], [ 77.6953235, 15.1949265 ], [ 77.6930461, 15.1879897 ], [ 77.6930468, 15.1839824 ], [ 77.6955216, 15.1818715 ], [ 77.7025601, 15.1801197 ], [ 77.7092659, 15.1841299 ], [ 77.7101101, 15.1870357 ], [ 77.7117302, 15.1867451 ], [ 77.7118985, 15.1840427 ], [ 77.7146027, 15.1825044 ], [ 77.7145482, 15.1804096 ], [ 77.7173123, 15.1792385 ], [ 77.7164629, 15.1723797 ], [ 77.7332526, 15.1686071 ], [ 77.7304041, 15.1641509 ], [ 77.729826, 15.1518321 ], [ 77.7351425, 15.1468906 ], [ 77.7430151, 15.1449811 ], [ 77.742226, 15.1437903 ], [ 77.7466001, 15.140971 ], [ 77.7480228, 15.1303565 ], [ 77.7541392, 15.1277724 ], [ 77.7740223, 15.1242042 ], [ 77.7740372, 15.1214184 ], [ 77.7707787, 15.1139136 ], [ 77.7793632, 15.110542 ], [ 77.7815879, 15.1133116 ], [ 77.78473, 15.1129993 ], [ 77.7873872, 15.1106953 ], [ 77.7869843, 15.107809 ], [ 77.7887132, 15.1069947 ], [ 77.7916953, 15.1061193 ], [ 77.7963304, 15.118915 ], [ 77.8039845, 15.1223328 ], [ 77.8111771, 15.1285802 ], [ 77.8097978, 15.1351975 ], [ 77.8156822, 15.1428527 ], [ 77.8388433, 15.1448697 ], [ 77.8427216, 15.1295729 ], [ 77.8543669, 15.1351105 ], [ 77.8754395, 15.1351615 ], [ 77.8756246, 15.1394785 ], [ 77.8795268, 15.1482876 ], [ 77.8812603, 15.1495981 ], [ 77.8806536, 15.1624309 ], [ 77.8851562, 15.1713108 ], [ 77.8837802, 15.1750205 ], [ 77.8846417, 15.1785589 ], [ 77.8971511, 15.1771037 ], [ 77.9046383, 15.1779107 ], [ 77.9066412, 15.1757372 ], [ 77.9162942, 15.1729521 ], [ 77.9192748, 15.1740108 ], [ 77.9181601, 15.1698361 ], [ 77.9230398, 15.1641429 ], [ 77.9210204, 15.1622231 ], [ 77.9235774, 15.1614674 ], [ 77.9234649, 15.1579293 ], [ 77.9205161, 15.155876 ], [ 77.9204318, 15.1530392 ], [ 77.9246625, 15.1524758 ], [ 77.9243811, 15.1483114 ], [ 77.9136899, 15.1443949 ], [ 77.9139658, 15.1417977 ], [ 77.909423, 15.1395212 ], [ 77.9087134, 15.1382371 ], [ 77.9113553, 15.1355921 ], [ 77.9085871, 15.1336359 ], [ 77.9147592, 15.1319886 ], [ 77.9149673, 15.128875 ], [ 77.9070619, 15.1306321 ], [ 77.9056994, 15.1290776 ], [ 77.9062913, 15.1226083 ], [ 77.911983, 15.1231351 ], [ 77.9174819, 15.1205975 ], [ 77.9202539, 15.1172122 ], [ 77.9245463, 15.1154285 ], [ 77.9258959, 15.1161867 ], [ 77.9327284, 15.112367 ], [ 77.9364664, 15.1145653 ], [ 77.9612585, 15.1086332 ], [ 77.9641243, 15.1153522 ], [ 77.9646971, 15.1226362 ], [ 77.9697678, 15.1291782 ], [ 77.9743982, 15.1388808 ], [ 77.9855098, 15.1365171 ], [ 77.9932346, 15.1331492 ], [ 77.9955806, 15.129871 ], [ 77.9969581, 15.1243696 ], [ 78.0020062, 15.1216797 ], [ 78.0064287, 15.1224557 ], [ 78.008193, 15.1180127 ], [ 78.0130031, 15.1145961 ], [ 78.0141171, 15.111882 ], [ 78.0136666, 15.1021167 ], [ 78.0065236, 15.0940905 ], [ 78.0056585, 15.0817876 ], [ 78.0034425, 15.0803322 ], [ 77.9986949, 15.0824766 ], [ 77.9975932, 15.0813075 ], [ 77.9959508, 15.076815 ], [ 77.9985368, 15.0721603 ], [ 77.9950518, 15.0639238 ], [ 78.0007425, 15.0588673 ], [ 78.0044751, 15.0529416 ], [ 78.0105662, 15.050793 ], [ 78.0093635, 15.046116 ], [ 78.0113241, 15.0270447 ], [ 78.0215862, 15.0168587 ], [ 78.0266178, 15.0163707 ], [ 78.0263171, 15.0113651 ], [ 78.0296375, 15.0062755 ], [ 78.032022, 15.0049739 ], [ 78.0339187, 14.999474 ], [ 78.0546684, 14.9920593 ], [ 78.0569669, 15.0007737 ], [ 78.0598984, 15.0030283 ], [ 78.063026, 14.9980264 ], [ 78.0651808, 14.9972146 ], [ 78.0655197, 14.994998 ], [ 78.0823198, 14.986264 ], [ 78.0853438, 14.9828255 ], [ 78.0885194, 14.9822242 ], [ 78.0872829, 14.9721609 ], [ 78.0983407, 14.9675659 ], [ 78.1168081, 14.9665048 ], [ 78.1205767, 14.9645305 ], [ 78.1249349, 14.9645842 ], [ 78.1257435, 14.962323 ], [ 78.1337811, 14.9612241 ], [ 78.1372547, 14.9452761 ], [ 78.1350918, 14.9397887 ], [ 78.1310844, 14.9341404 ], [ 78.1262313, 14.9331179 ], [ 78.1252279, 14.9369145 ], [ 78.1233876, 14.9367806 ], [ 78.12229, 14.9340457 ], [ 78.1130172, 14.9315665 ], [ 78.1094076, 14.9253841 ], [ 78.0941984, 14.8842287 ], [ 78.0950568, 14.88323 ], [ 78.0931766, 14.878356 ], [ 78.0940972, 14.8779776 ], [ 78.0890385, 14.8575826 ], [ 78.1043862, 14.8537467 ], [ 78.1085643, 14.8538891 ], [ 78.1135273, 14.850617 ], [ 78.1085169, 14.8404165 ], [ 78.1011926, 14.8170388 ], [ 78.0960108, 14.8180877 ], [ 78.0761772, 14.8270947 ], [ 78.0751805, 14.8161754 ], [ 78.0717667, 14.8121293 ], [ 78.0655392, 14.7971881 ], [ 78.0604884, 14.7909748 ], [ 78.0579631, 14.7899551 ], [ 78.0549502, 14.7836071 ], [ 78.0468344, 14.7746174 ], [ 78.0459836, 14.7719892 ], [ 78.0470579, 14.7704279 ], [ 78.0603127, 14.7647122 ], [ 78.0604016, 14.7631531 ], [ 78.0677647, 14.7576806 ], [ 78.0729316, 14.7566006 ], [ 78.0729582, 14.755181 ], [ 78.0762828, 14.7523432 ], [ 78.07759, 14.744969 ], [ 78.0633609, 14.7184043 ], [ 78.0661708, 14.7158367 ], [ 78.0781406, 14.7180234 ], [ 78.0872489, 14.7163599 ], [ 78.0937696, 14.7134907 ], [ 78.0953292, 14.7109174 ], [ 78.0950809, 14.7087801 ], [ 78.0977923, 14.7073956 ], [ 78.0964579, 14.7009364 ], [ 78.1063206, 14.6994209 ], [ 78.1067104, 14.7013835 ], [ 78.1092352, 14.7012177 ], [ 78.1094397, 14.6923025 ], [ 78.1163521, 14.6915489 ], [ 78.1165581, 14.6929667 ], [ 78.1189251, 14.6927719 ], [ 78.1192825, 14.6970719 ], [ 78.1345603, 14.6952953 ], [ 78.1332766, 14.6875933 ], [ 78.1346828, 14.6873152 ], [ 78.1295189, 14.6492856 ], [ 78.1193385, 14.6340672 ], [ 78.1239085, 14.6297778 ], [ 78.1217707, 14.6236716 ], [ 78.1124157, 14.6253834 ], [ 78.1130698, 14.6281537 ], [ 78.1044126, 14.6278111 ], [ 78.0880901, 14.6303603 ], [ 78.0862178, 14.6192917 ], [ 78.0842998, 14.614707 ], [ 78.0816426, 14.6121034 ], [ 78.0738749, 14.5875684 ], [ 78.0696821, 14.5807191 ], [ 78.0669133, 14.5797013 ], [ 78.0645332, 14.5723393 ], [ 78.058966, 14.572745 ], [ 78.0445886, 14.5669659 ], [ 78.0392193, 14.5660258 ], [ 78.0376748, 14.5625124 ], [ 78.0392482, 14.5595418 ], [ 78.0386887, 14.5556013 ], [ 78.0442403, 14.546618 ], [ 78.0434783, 14.5414 ], [ 78.0406024, 14.5336883 ], [ 78.0344739, 14.5330241 ], [ 78.0330928, 14.5306069 ], [ 78.0301934, 14.5330825 ], [ 78.025333, 14.5342236 ], [ 78.0220661, 14.5330184 ], [ 78.0141714, 14.5377545 ], [ 78.011962, 14.5362497 ], [ 77.9989578, 14.53936 ], [ 77.9876017, 14.5402194 ], [ 77.9828687, 14.5455799 ], [ 77.984915, 14.5497012 ], [ 77.984974, 14.5553271 ], [ 77.9828785, 14.5668644 ], [ 77.9805247, 14.5668611 ], [ 77.9805097, 14.5680479 ], [ 77.98597, 14.5672812 ], [ 77.9885331, 14.5698397 ], [ 77.9853157, 14.5720395 ], [ 77.9873781, 14.5844903 ], [ 77.9819435, 14.5953141 ], [ 77.9870316, 14.6035054 ], [ 77.9890076, 14.6110535 ], [ 77.9904041, 14.6118978 ], [ 77.9829286, 14.6206353 ], [ 77.9698902, 14.6226809 ], [ 77.9580718, 14.6328169 ], [ 77.9541763, 14.6327336 ], [ 77.9499193, 14.6351374 ], [ 77.9430977, 14.6332503 ], [ 77.9387557, 14.6361096 ], [ 77.9329613, 14.6377663 ], [ 77.9278394, 14.6373465 ], [ 77.9223669, 14.641399 ], [ 77.9132374, 14.6409252 ], [ 77.9062164, 14.6440176 ], [ 77.8979745, 14.6442052 ], [ 77.8954379, 14.6449697 ], [ 77.8936275, 14.6477328 ], [ 77.8844782, 14.6473253 ], [ 77.8785752, 14.6430643 ], [ 77.8754876, 14.6450969 ], [ 77.8742622, 14.6499745 ], [ 77.8698148, 14.6536768 ], [ 77.86071, 14.6425288 ], [ 77.8522371, 14.6398267 ], [ 77.8500061, 14.6371532 ], [ 77.8535774, 14.6340237 ], [ 77.8539259, 14.6294608 ], [ 77.8525766, 14.6258036 ], [ 77.8537471, 14.623693 ], [ 77.8535446, 14.6186574 ], [ 77.8562239, 14.6162311 ], [ 77.8556531, 14.6140987 ], [ 77.8532463, 14.612445 ], [ 77.849361, 14.6123236 ], [ 77.8489165, 14.6143212 ], [ 77.8399386, 14.6119785 ], [ 77.8410598, 14.6097362 ], [ 77.8465293, 14.6108545 ], [ 77.8498595, 14.6090605 ], [ 77.8527744, 14.6098615 ], [ 77.8551497, 14.6079469 ], [ 77.8536084, 14.6068558 ], [ 77.8550691, 14.6049162 ], [ 77.8519166, 14.5996174 ], [ 77.8457939, 14.5979124 ], [ 77.8248961, 14.6047921 ], [ 77.822798, 14.6019572 ], [ 77.8189431, 14.6027039 ], [ 77.8190722, 14.6013943 ], [ 77.8174195, 14.6003285 ], [ 77.8131975, 14.6066009 ], [ 77.8042955, 14.6151874 ], [ 77.7989425, 14.6112975 ], [ 77.7946098, 14.6119924 ], [ 77.7733448, 14.594733 ], [ 77.7606381, 14.5932067 ], [ 77.7580696, 14.5959588 ], [ 77.7502354, 14.593297 ], [ 77.7368304, 14.5923566 ], [ 77.735925, 14.5895731 ], [ 77.7339846, 14.5885301 ], [ 77.7382487, 14.5857419 ], [ 77.7359638, 14.5760574 ], [ 77.7284876, 14.5737838 ], [ 77.7279133, 14.5756846 ], [ 77.7227193, 14.5769048 ], [ 77.7205191, 14.5792 ], [ 77.7143401, 14.5754734 ], [ 77.7142125, 14.572641 ], [ 77.7115217, 14.5724923 ], [ 77.7099379, 14.561587 ], [ 77.7086177, 14.5577213 ], [ 77.7055371, 14.555252 ], [ 77.7040204, 14.545885 ], [ 77.7024443, 14.5434041 ], [ 77.6962763, 14.5399847 ], [ 77.6933445, 14.5368707 ], [ 77.6782465, 14.536673 ], [ 77.6684677, 14.540765 ], [ 77.6543276, 14.5355547 ], [ 77.6538131, 14.529642 ], [ 77.6495724, 14.517805 ], [ 77.6547367, 14.5185941 ], [ 77.6601434, 14.5167003 ], [ 77.6680785, 14.5122717 ], [ 77.6721053, 14.5084961 ], [ 77.6746576, 14.5085304 ], [ 77.67431, 14.5068617 ], [ 77.6769994, 14.5050801 ], [ 77.6765407, 14.497468 ], [ 77.6672112, 14.4866743 ], [ 77.6647436, 14.4867358 ], [ 77.6605117, 14.4831029 ], [ 77.6559597, 14.4821187 ], [ 77.65161, 14.4831788 ], [ 77.6445632, 14.4886197 ], [ 77.6361981, 14.4894285 ], [ 77.6306908, 14.4833025 ], [ 77.6276934, 14.4818762 ], [ 77.627547, 14.4801918 ], [ 77.6236819, 14.4783818 ], [ 77.616049, 14.477553 ], [ 77.6118328, 14.4617822 ], [ 77.6093516, 14.4595747 ], [ 77.6035387, 14.458732 ], [ 77.5849426, 14.4598299 ], [ 77.5805657, 14.4586473 ], [ 77.5806711, 14.4541579 ], [ 77.5731504, 14.4551752 ], [ 77.5712728, 14.4521218 ], [ 77.5685335, 14.4526374 ], [ 77.5712363, 14.4589951 ], [ 77.5708592, 14.4618069 ], [ 77.5532006, 14.4618124 ], [ 77.547608, 14.4592739 ], [ 77.5433241, 14.4614832 ], [ 77.5312813, 14.4747908 ], [ 77.5329659, 14.4800754 ], [ 77.5315282, 14.4841942 ], [ 77.517602, 14.488467 ], [ 77.5174775, 14.4866604 ], [ 77.5105719, 14.4816447 ], [ 77.503387, 14.4781435 ], [ 77.5032604, 14.4800993 ], [ 77.4987374, 14.477883 ], [ 77.4913851, 14.4733887 ], [ 77.4912703, 14.4715249 ], [ 77.4861481, 14.4748114 ], [ 77.4881328, 14.4816891 ], [ 77.4841971, 14.4899898 ], [ 77.4820112, 14.4910558 ], [ 77.4782104, 14.4964495 ], [ 77.4787408, 14.5007717 ], [ 77.4717589, 14.5146122 ], [ 77.478209, 14.532508 ], [ 77.4741622, 14.5529253 ], [ 77.4727468, 14.5556362 ], [ 77.469402, 14.5545525 ], [ 77.471345, 14.5641761 ], [ 77.469151, 14.5670974 ], [ 77.4619018, 14.5681143 ], [ 77.4555433, 14.5652231 ], [ 77.4553644, 14.5638684 ], [ 77.4518857, 14.5642476 ], [ 77.4472823, 14.5595502 ], [ 77.4268682, 14.5523159 ], [ 77.4156554, 14.5502795 ], [ 77.4129737, 14.5507692 ], [ 77.4073952, 14.5491542 ], [ 77.4011497, 14.5510293 ], [ 77.3982035, 14.5535951 ], [ 77.3901002, 14.5534255 ], [ 77.3863849, 14.5511231 ], [ 77.386226, 14.5482221 ], [ 77.3825376, 14.547774 ], [ 77.3805852, 14.5446655 ], [ 77.3769414, 14.5452309 ], [ 77.376307, 14.5436433 ], [ 77.3680323, 14.5425931 ], [ 77.3680656, 14.5416531 ], [ 77.3558749, 14.5384005 ], [ 77.357606, 14.5290071 ], [ 77.3668843, 14.5154893 ], [ 77.368025, 14.5114275 ], [ 77.3770092, 14.4975406 ], [ 77.3587298, 14.4830786 ], [ 77.3606092, 14.4719432 ], [ 77.3630955, 14.4651872 ], [ 77.3629798, 14.4614632 ], [ 77.3528185, 14.4600164 ], [ 77.3505183, 14.4590129 ], [ 77.3490718, 14.4557453 ], [ 77.3431821, 14.4542713 ], [ 77.3408589, 14.4522735 ], [ 77.3400935, 14.4536427 ], [ 77.3326272, 14.4518338 ], [ 77.3345856, 14.4451412 ], [ 77.3285025, 14.4391023 ], [ 77.3268563, 14.4390071 ], [ 77.3262913, 14.4358887 ], [ 77.3245013, 14.4356938 ], [ 77.3215192, 14.4183032 ], [ 77.3188459, 14.4099781 ], [ 77.3190673, 14.3961673 ], [ 77.3162201, 14.3806384 ], [ 77.3173328, 14.3807063 ], [ 77.3171622, 14.3770006 ], [ 77.3214921, 14.3774806 ], [ 77.3186561, 14.3724997 ], [ 77.322375, 14.3689123 ], [ 77.3252818, 14.3690485 ], [ 77.3260608, 14.3680047 ], [ 77.3250647, 14.3655234 ], [ 77.3271202, 14.3570276 ], [ 77.3320861, 14.351637 ], [ 77.3305659, 14.3507012 ], [ 77.3305617, 14.34827 ], [ 77.3282487, 14.3478265 ], [ 77.3258298, 14.3442061 ], [ 77.3259183, 14.3424345 ], [ 77.3290474, 14.341459 ], [ 77.3278849, 14.3368491 ], [ 77.3241627, 14.3374493 ], [ 77.3247796, 14.3349322 ], [ 77.3167333, 14.3339769 ], [ 77.3192416, 14.3313337 ], [ 77.3176264, 14.3216439 ], [ 77.3199493, 14.3187612 ], [ 77.3186708, 14.3154437 ], [ 77.3197148, 14.3112139 ], [ 77.3268111, 14.3083999 ], [ 77.3329984, 14.3084282 ], [ 77.3332958, 14.3044241 ], [ 77.3405397, 14.3039281 ], [ 77.3414948, 14.3017048 ], [ 77.3458975, 14.3022883 ], [ 77.3457254, 14.306663 ], [ 77.349192, 14.3077255 ], [ 77.3500645, 14.2975752 ], [ 77.356933, 14.2941365 ], [ 77.3554177, 14.2926044 ], [ 77.3579485, 14.2876107 ], [ 77.3565028, 14.2850392 ], [ 77.3559519, 14.2790103 ], [ 77.3570486, 14.2765811 ], [ 77.339062, 14.2768955 ], [ 77.3301551, 14.2798629 ], [ 77.3142607, 14.2805053 ], [ 77.3053366, 14.2834326 ], [ 77.3019293, 14.2821602 ], [ 77.3016926, 14.2832537 ], [ 77.2893346, 14.2813017 ], [ 77.2835369, 14.2827365 ], [ 77.2828911, 14.2860668 ], [ 77.2879521, 14.2987571 ], [ 77.2888335, 14.3054744 ], [ 77.2884974, 14.3271439 ], [ 77.2874427, 14.3271663 ], [ 77.2865667, 14.340099 ], [ 77.2848378, 14.3400983 ], [ 77.2838841, 14.3375265 ], [ 77.2771215, 14.3375373 ], [ 77.2693095, 14.3321109 ], [ 77.263571, 14.3327996 ], [ 77.2585848, 14.3309171 ], [ 77.2576766, 14.3301527 ], [ 77.2582768, 14.3274822 ], [ 77.2533552, 14.325261 ], [ 77.2538697, 14.3222326 ], [ 77.2473358, 14.3178076 ], [ 77.2382007, 14.31736 ], [ 77.2339521, 14.3180293 ], [ 77.2286689, 14.3211964 ], [ 77.213466, 14.3187846 ], [ 77.1974215, 14.3211758 ], [ 77.1840437, 14.3324726 ], [ 77.1810444, 14.3303764 ], [ 77.1810216, 14.3319084 ], [ 77.1779454, 14.3342208 ], [ 77.1786771, 14.3354835 ], [ 77.1693189, 14.3354401 ], [ 77.1669145, 14.342079 ], [ 77.1578898, 14.3420306 ], [ 77.1526564, 14.3391435 ], [ 77.1457826, 14.3405224 ], [ 77.13921, 14.3401386 ], [ 77.1356968, 14.3365111 ], [ 77.1369987, 14.3317603 ], [ 77.1363264, 14.3230248 ], [ 77.1305884, 14.3068419 ], [ 77.1253841, 14.2998779 ], [ 77.1156432, 14.2924797 ], [ 77.1155192, 14.274236 ], [ 77.1101862, 14.2681619 ], [ 77.1116877, 14.2653646 ], [ 77.1111922, 14.2615776 ], [ 77.1204824, 14.2629293 ], [ 77.1185597, 14.2568239 ], [ 77.1153304, 14.254528 ], [ 77.1183194, 14.2448146 ], [ 77.1156464, 14.2375793 ], [ 77.1166663, 14.2263809 ], [ 77.1148597, 14.2231405 ], [ 77.1077581, 14.2199088 ], [ 77.1008047, 14.2171378 ], [ 77.0811724, 14.2141521 ], [ 77.0758938, 14.2233565 ], [ 77.0677573, 14.2284025 ], [ 77.0618038, 14.2294583 ], [ 77.0600703, 14.2322823 ], [ 77.0602822, 14.236196 ], [ 77.0569403, 14.240669 ], [ 77.057727, 14.2438009 ], [ 77.0524631, 14.245503 ], [ 77.0360518, 14.2467445 ], [ 77.0361422, 14.2448694 ], [ 77.0305395, 14.2441889 ], [ 77.0303591, 14.242266 ], [ 77.0084843, 14.2379966 ], [ 77.0056639, 14.2357853 ], [ 76.9989354, 14.2408663 ], [ 76.9919366, 14.2414069 ], [ 76.9855966, 14.2473345 ], [ 76.9762045, 14.2461274 ], [ 76.9698327, 14.2433686 ], [ 76.9598303, 14.244963 ], [ 76.9519391, 14.2419015 ], [ 76.9464628, 14.2421833 ], [ 76.9400559, 14.2446074 ], [ 76.935797, 14.2593652 ], [ 76.9248974, 14.2737836 ], [ 76.9281839, 14.2793009 ], [ 76.9371137, 14.2803382 ], [ 76.9387733, 14.2830132 ], [ 76.9473841, 14.2861652 ], [ 76.9567245, 14.2943465 ], [ 76.9456497, 14.3131811 ], [ 76.9271688, 14.3145297 ], [ 76.9078684, 14.3229547 ], [ 76.9033746, 14.3227042 ], [ 76.8922842, 14.3412628 ], [ 76.8882193, 14.3458227 ], [ 76.8846415, 14.347542 ], [ 76.8820066, 14.3597102 ], [ 76.8837454, 14.364656 ], [ 76.8848179, 14.3957087 ], [ 76.8986347, 14.39795 ], [ 76.9046023, 14.4039192 ], [ 76.9158728, 14.4206414 ], [ 76.9314228, 14.4105197 ], [ 76.9427346, 14.3993691 ], [ 76.9467646, 14.4061457 ], [ 76.9477935, 14.4131566 ], [ 76.9447908, 14.4508963 ], [ 76.9459645, 14.45255 ], [ 76.9503701, 14.4523679 ], [ 76.9568021, 14.4519817 ], [ 76.9598, 14.4502134 ], [ 76.9683301, 14.4617885 ], [ 76.9684009, 14.4651056 ], [ 76.9716671, 14.4681365 ], [ 76.9754372, 14.4778646 ], [ 76.9748362, 14.4849364 ], [ 76.9500004, 14.4867576 ], [ 76.948747, 14.4891431 ], [ 76.9433912, 14.4894814 ], [ 76.9209062, 14.4905205 ], [ 76.9006881, 14.4892081 ], [ 76.8892547, 14.4831669 ], [ 76.8865088, 14.4835285 ], [ 76.8838651, 14.4792717 ], [ 76.8842746, 14.4770757 ], [ 76.8679616, 14.4740384 ], [ 76.8650951, 14.4782274 ], [ 76.8624644, 14.492756 ], [ 76.8613463, 14.495865 ], [ 76.8591986, 14.4974601 ], [ 76.8556025, 14.5095914 ], [ 76.8492333, 14.5125823 ], [ 76.8418984, 14.5193734 ], [ 76.8354918, 14.5212975 ], [ 76.8328228, 14.5291104 ], [ 76.8310086, 14.5303618 ], [ 76.8234618, 14.5268217 ], [ 76.8194112, 14.5299388 ], [ 76.8149715, 14.5301862 ], [ 76.8125448, 14.531731 ], [ 76.8062822, 14.5310649 ], [ 76.8051946, 14.5374635 ], [ 76.8028176, 14.5421987 ], [ 76.7978649, 14.5491653 ], [ 76.7913629, 14.5546536 ], [ 76.7833671, 14.5804361 ], [ 76.7818427, 14.596496 ], [ 76.7803251, 14.5970422 ], [ 76.780234, 14.5930564 ], [ 76.7690375, 14.6008783 ], [ 76.7650684, 14.6023384 ], [ 76.7669219, 14.618271 ], [ 76.7725274, 14.6391107 ], [ 76.7752709, 14.68096 ], [ 76.7862194, 14.6957803 ], [ 76.7865085, 14.7084298 ], [ 76.8029437, 14.7418842 ], [ 76.7941487, 14.7512661 ], [ 76.7895295, 14.760058 ], [ 76.7889846, 14.7722796 ], [ 76.7826869, 14.785938 ], [ 76.7839635, 14.7869689 ], [ 76.7884631, 14.7858151 ], [ 76.7886361, 14.7869718 ], [ 76.7938263, 14.7853969 ], [ 76.8029595, 14.7856015 ], [ 76.8176623, 14.7876021 ], [ 76.8203362, 14.7888802 ], [ 76.8190753, 14.7931172 ], [ 76.8323928, 14.7929101 ], [ 76.8325733, 14.7903887 ], [ 76.8367484, 14.7907748 ], [ 76.8373681, 14.8105641 ], [ 76.8514577, 14.8086035 ], [ 76.8539773, 14.8094442 ], [ 76.8545635, 14.8180924 ], [ 76.8460102, 14.8220607 ], [ 76.8453633, 14.8254804 ], [ 76.8467128, 14.8282645 ], [ 76.845497, 14.8340513 ], [ 76.841789, 14.8365524 ], [ 76.854064, 14.8432275 ], [ 76.8554134, 14.8487781 ], [ 76.8548902, 14.8589162 ], [ 76.8571935, 14.8691069 ], [ 76.8538809, 14.8691766 ], [ 76.8544927, 14.8723635 ], [ 76.8531605, 14.8720481 ], [ 76.8528361, 14.8752699 ], [ 76.8533565, 14.8832132 ], [ 76.8514488, 14.8833504 ], [ 76.8524746, 14.886975 ], [ 76.8455248, 14.8871841 ], [ 76.8454795, 14.889294 ], [ 76.847333, 14.895983 ], [ 76.8638437, 14.8955819 ], [ 76.8696215, 14.9377101 ], [ 76.8660907, 14.9575306 ], [ 76.8674588, 14.9698223 ], [ 76.8419375, 14.9664053 ], [ 76.8352747, 14.9600306 ], [ 76.8341147, 14.9564554 ], [ 76.8285035, 14.9564573 ], [ 76.8182792, 14.9694381 ], [ 76.7962696, 14.9691685 ], [ 76.777607, 14.9754469 ], [ 76.7665387, 14.9756168 ], [ 76.7605691, 14.9898576 ], [ 76.7678552, 14.9900977 ], [ 76.7695655, 14.9917619 ], [ 76.7723761, 14.9908353 ], [ 76.7750249, 14.9930627 ], [ 76.7787373, 15.0045642 ], [ 76.7836327, 15.0047833 ], [ 76.7871183, 15.0079298 ], [ 76.7901302, 15.0207147 ], [ 76.7857196, 15.0276765 ], [ 76.7857481, 15.0371524 ], [ 76.7835893, 15.0399848 ], [ 76.7834004, 15.0426153 ], [ 76.7803471, 15.0426856 ], [ 76.7766307, 15.0546769 ], [ 76.773606, 15.059122 ], [ 76.7752411, 15.0722544 ], [ 76.77989, 15.0760388 ], [ 76.7766938, 15.0784006 ], [ 76.7778698, 15.0798698 ], [ 76.7821453, 15.077329 ], [ 76.7852965, 15.0823057 ], [ 76.7860243, 15.0878146 ], [ 76.7898571, 15.0868176 ], [ 76.7923498, 15.0875685 ], [ 76.7939155, 15.0918486 ], [ 76.800235, 15.0958321 ], [ 76.8116149, 15.0863821 ], [ 76.8237652, 15.0800136 ], [ 76.8360159, 15.0792345 ], [ 76.8545932, 15.0651245 ], [ 76.8613982, 15.0619864 ], [ 76.8608719, 15.0598059 ], [ 76.8641087, 15.0580259 ], [ 76.8658851, 15.0596846 ], [ 76.8651878, 15.0552243 ], [ 76.8691731, 15.0534161 ], [ 76.8731264, 15.0431364 ], [ 76.8778416, 15.0354586 ], [ 76.8771703, 15.0302405 ], [ 76.8949768, 15.0370713 ], [ 76.9072196, 15.0325195 ], [ 76.9183659, 15.035523 ], [ 76.9222245, 15.0312835 ], [ 76.935862, 15.0294096 ], [ 76.9437486, 15.0308762 ], [ 76.9496026, 15.0303729 ], [ 76.9659185, 15.0180393 ], [ 76.9852222, 15.0151888 ], [ 76.986033, 15.0264863 ], [ 77.0030337, 15.0309131 ], [ 77.0040782, 15.0338329 ], [ 77.0359488, 15.0312769 ], [ 77.0403234, 15.0331043 ], [ 77.0495625, 15.0330761 ], [ 77.0504305, 15.0244725 ], [ 77.0441175, 15.0098427 ], [ 77.0481025, 15.008014 ], [ 77.0690202, 15.0047624 ], [ 77.0824513, 15.0060806 ], [ 77.0847476, 15.0307087 ], [ 77.0908529, 15.0293315 ], [ 77.0936556, 15.0361374 ], [ 77.1129292, 15.0340564 ], [ 77.1152719, 15.0463975 ], [ 77.1195035, 15.0456928 ], [ 77.1208145, 15.0539985 ], [ 77.1282129, 15.0723134 ], [ 77.1301199, 15.1007685 ], [ 77.1369572, 15.1023364 ], [ 77.1369386, 15.1042479 ], [ 77.142083, 15.1045684 ], [ 77.1501676, 15.1116081 ], [ 77.1563276, 15.1229316 ], [ 77.1573752, 15.1298814 ], [ 77.1564458, 15.1376991 ], [ 77.1581734, 15.1458956 ], [ 77.1645053, 15.1461884 ], [ 77.1645051, 15.1452259 ], [ 77.176512, 15.1419158 ], [ 77.1768194, 15.1436736 ], [ 77.1802527, 15.1429724 ], [ 77.1828831, 15.1499987 ], [ 77.1879702, 15.1571102 ], [ 77.2022033, 15.1595371 ], [ 77.2023606, 15.1572369 ], [ 77.2139583, 15.154291 ], [ 77.2132502, 15.1515595 ], [ 77.2202657, 15.1504224 ], [ 77.2201948, 15.1480861 ], [ 77.2294799, 15.1457096 ], [ 77.2298186, 15.1437572 ], [ 77.2466886, 15.1448739 ], [ 77.2641327, 15.1426676 ], [ 77.2711065, 15.1307209 ], [ 77.2826385, 15.1319512 ], [ 77.2918282, 15.1309017 ], [ 77.2997518, 15.154112 ], [ 77.3100388, 15.1543719 ], [ 77.3139958, 15.165201 ], [ 77.3163756, 15.1774129 ], [ 77.3308071, 15.1745637 ], [ 77.3342197, 15.1763881 ], [ 77.3514659, 15.1775286 ], [ 77.3514962, 15.1812015 ], [ 77.3500185, 15.181573 ], [ 77.3536062, 15.197959 ], [ 77.3545965, 15.2010088 ], [ 77.3572474, 15.2006774 ], [ 77.3621298, 15.2127044 ], [ 77.3630075, 15.2229033 ], [ 77.3836085, 15.220391 ], [ 77.3902964, 15.2172016 ], [ 77.3949798, 15.2170762 ], [ 77.3974231, 15.2190072 ], [ 77.3986596, 15.2173836 ], [ 77.4031163, 15.2192493 ], [ 77.406305, 15.2190835 ], [ 77.4071296, 15.2235733 ], [ 77.4089459, 15.2253957 ], [ 77.4135369, 15.2237216 ], [ 77.4259843, 15.2231215 ], [ 77.427993, 15.222422 ], [ 77.428531, 15.2207655 ], [ 77.4329757, 15.2204185 ], [ 77.4341493, 15.2101639 ], [ 77.4502238, 15.2050101 ], [ 77.4463759, 15.2135391 ], [ 77.4502878, 15.2148079 ], [ 77.4511443, 15.2218218 ], [ 77.459392, 15.2176984 ], [ 77.4671331, 15.2174299 ], [ 77.475427, 15.2123748 ], [ 77.4780415, 15.2089116 ], [ 77.4810379, 15.2079052 ], [ 77.483406, 15.2086989 ], [ 77.4856053, 15.213258 ], [ 77.4965323, 15.2154583 ], [ 77.4983037, 15.2199974 ], [ 77.5016463, 15.2213612 ], [ 77.5093863, 15.2233436 ], [ 77.5270412, 15.2239552 ], [ 77.5416078, 15.2089087 ], [ 77.566396, 15.2029863 ], [ 77.5729199, 15.1974007 ], [ 77.5755035, 15.1993995 ], [ 77.5747658, 15.1954046 ], [ 77.5821649, 15.1879041 ], [ 77.5955066, 15.1835564 ], [ 77.6114028, 15.18349 ], [ 77.6104031, 15.1955569 ], [ 77.6157137, 15.203192 ], [ 77.6146356, 15.2049456 ], [ 77.6154056, 15.2064442 ], [ 77.6182852, 15.2047649 ], [ 77.6204463, 15.2057443 ], [ 77.623353, 15.2047573 ], [ 77.625719, 15.2070193 ], [ 77.6344347, 15.2066314 ], [ 77.6376619, 15.2218814 ], [ 77.6484887, 15.2256917 ], [ 77.6497468, 15.2250167 ], [ 77.6487258, 15.2299464 ], [ 77.6516219, 15.2326405 ], [ 77.6565588, 15.2314136 ], [ 77.6633424, 15.2342775 ], [ 77.6651514, 15.2328636 ] ] ] } }
]
}
