{
"type": "FeatureCollection",
"name": "2825",
"crs": { "type": "name", "properties": { "name": "urn:ogc:def:crs:OGC:1.3:CRS84" } },
"features": [
{ "type": "Feature", "properties": { "code": "2825", "name": "Annamayya", "type": "district" }, "geometry": { "type": "Polygon", "coordinates": [ [ [ 78.5474021, 14.155059 ], [ 78.5550349, 14.1484472 ], [ 78.5548011, 14.1459616 ], [ 78.5644249, 14.1359358 ], [ 78.5621788, 14.1344534 ], [ 78.5468084, 14.1327579 ], [ 78.5470263, 14.1301322 ], [ 78.5434658, 14.126523 ], [ 78.5425651, 14.1220087 ], [ 78.5496664, 14.1223414 ], [ 78.5510466, 14.118378 ], [ 78.5480251, 14.1171599 ], [ 78.5489074, 14.1154427 ], [ 78.5566706, 14.1180552 ], [ 78.5590694, 14.1145663 ], [ 78.5650591, 14.1124514 ], [ 78.5761965, 14.1258307 ], [ 78.576074, 14.1304897 ], [ 78.5807838, 14.131547 ], [ 78.5812563, 14.1328056 ], [ 78.578524, 14.1334791 ], [ 78.5724992, 14.1387309 ], [ 78.5706306, 14.1375649 ], [ 78.5677894, 14.1383445 ], [ 78.5629684, 14.1431101 ], [ 78.5651497, 14.14887 ], [ 78.5648996, 14.1515613 ], [ 78.567491, 14.1511771 ], [ 78.5754805, 14.1594224 ], [ 78.5743182, 14.1643553 ], [ 78.5707843, 14.1644141 ], [ 78.5647611, 14.1603244 ], [ 78.5662938, 14.1676313 ], [ 78.5658453, 14.1713174 ], [ 78.5743766, 14.1722023 ], [ 78.5768409, 14.1750743 ], [ 78.5773988, 14.1726292 ], [ 78.579826, 14.1726833 ], [ 78.5881569, 14.1765985 ], [ 78.5901409, 14.1892751 ], [ 78.5980252, 14.1911292 ], [ 78.6003513, 14.1952347 ], [ 78.6057855, 14.1976222 ], [ 78.6081096, 14.2021479 ], [ 78.6266408, 14.2099659 ], [ 78.6263777, 14.2150434 ], [ 78.6240422, 14.2172617 ], [ 78.6237312, 14.2195327 ], [ 78.6196102, 14.2221797 ], [ 78.6164381, 14.2284804 ], [ 78.6182185, 14.234206 ], [ 78.6146512, 14.2347875 ], [ 78.6130976, 14.2381321 ], [ 78.6017038, 14.2472814 ], [ 78.5990252, 14.250826 ], [ 78.5935074, 14.2734601 ], [ 78.6001206, 14.2761062 ], [ 78.6019907, 14.2822582 ], [ 78.607343, 14.2829756 ], [ 78.6087068, 14.2794705 ], [ 78.6107262, 14.2786794 ], [ 78.6191514, 14.2824217 ], [ 78.6418999, 14.271005 ], [ 78.6495163, 14.2735092 ], [ 78.6511597, 14.2697576 ], [ 78.6592087, 14.2650631 ], [ 78.6549029, 14.2589716 ], [ 78.6521063, 14.2508255 ], [ 78.6532889, 14.2487945 ], [ 78.6681741, 14.245714 ], [ 78.673544, 14.2484689 ], [ 78.6753882, 14.2469777 ], [ 78.6773582, 14.2547688 ], [ 78.6835841, 14.2689647 ], [ 78.6766978, 14.288513 ], [ 78.6724773, 14.2932506 ], [ 78.6656091, 14.2964911 ], [ 78.6710194, 14.2980348 ], [ 78.6800584, 14.2977291 ], [ 78.6834568, 14.2987532 ], [ 78.701804, 14.2945075 ], [ 78.7153514, 14.2944739 ], [ 78.7162747, 14.2933605 ], [ 78.7313963, 14.2945962 ], [ 78.7332717, 14.2943316 ], [ 78.7331289, 14.2931776 ], [ 78.7482835, 14.2996477 ], [ 78.7442838, 14.3095066 ], [ 78.7474346, 14.3092028 ], [ 78.7495869, 14.3054004 ], [ 78.7525095, 14.3068083 ], [ 78.7548969, 14.3063218 ], [ 78.7632394, 14.3093523 ], [ 78.7625812, 14.3141302 ], [ 78.7695476, 14.3160189 ], [ 78.7836741, 14.3070517 ], [ 78.7942386, 14.3024042 ], [ 78.8018165, 14.3005442 ], [ 78.8140149, 14.2906373 ], [ 78.8267108, 14.2914984 ], [ 78.8383772, 14.2979432 ], [ 78.870995, 14.2972087 ], [ 78.8724783, 14.3097482 ], [ 78.8802622, 14.3201483 ], [ 78.8801338, 14.3228328 ], [ 78.8920977, 14.3204382 ], [ 78.902125, 14.3212788 ], [ 78.9112668, 14.2964774 ], [ 78.9191021, 14.289443 ], [ 78.9283641, 14.2760172 ], [ 78.9341216, 14.2718918 ], [ 78.9385924, 14.2704467 ], [ 78.9695968, 14.282282 ], [ 78.9859171, 14.2760151 ], [ 78.9901277, 14.2703264 ], [ 78.9935707, 14.2698854 ], [ 78.9954704, 14.274931 ], [ 78.998619, 14.2772637 ], [ 79.0063927, 14.2791864 ], [ 79.0262346, 14.2897929 ], [ 79.0320966, 14.2844674 ], [ 79.0400813, 14.2810916 ], [ 79.0456842, 14.2845304 ], [ 79.0503087, 14.2822701 ], [ 79.0580694, 14.2835307 ], [ 79.0629832, 14.281643 ], [ 79.0678234, 14.2777021 ], [ 79.0710177, 14.2776786 ], [ 79.0753631, 14.2819941 ], [ 79.0810521, 14.2955823 ], [ 79.0836208, 14.2975166 ], [ 79.0902545, 14.2956533 ], [ 79.0897415, 14.298055 ], [ 79.0947172, 14.3005253 ], [ 79.0951564, 14.304665 ], [ 79.1003207, 14.3054365 ], [ 79.1106984, 14.3038868 ], [ 79.1178034, 14.305602 ], [ 79.1275079, 14.3008145 ], [ 79.1367546, 14.2991748 ], [ 79.1345688, 14.2960998 ], [ 79.1398826, 14.2959897 ], [ 79.1459364, 14.2941028 ], [ 79.1489818, 14.303784 ], [ 79.1561888, 14.3151782 ], [ 79.1551587, 14.3263116 ], [ 79.1403122, 14.3302715 ], [ 79.1312541, 14.3373289 ], [ 79.1207682, 14.3589937 ], [ 79.1247969, 14.3639121 ], [ 79.1207626, 14.3698671 ], [ 79.1348329, 14.3693577 ], [ 79.1410295, 14.3706729 ], [ 79.1568201, 14.355746 ], [ 79.1651357, 14.3563777 ], [ 79.1825608, 14.3828149 ], [ 79.1952505, 14.3871395 ], [ 79.1981412, 14.3862712 ], [ 79.2059168, 14.3881459 ], [ 79.2063392, 14.3902554 ], [ 79.2026473, 14.3944871 ], [ 79.223042, 14.405691 ], [ 79.231615, 14.4133958 ], [ 79.2425586, 14.4406603 ], [ 79.2736352, 14.4472343 ], [ 79.284563, 14.4454848 ], [ 79.2802527, 14.4538424 ], [ 79.2823088, 14.459818 ], [ 79.2820733, 14.472549 ], [ 79.2929249, 14.4846488 ], [ 79.3052026, 14.4838181 ], [ 79.3113733, 14.4777989 ], [ 79.3141698, 14.4780859 ], [ 79.3164433, 14.4765569 ], [ 79.3175117, 14.4724621 ], [ 79.326673, 14.457222 ], [ 79.3246634, 14.4557368 ], [ 79.3269974, 14.435996 ], [ 79.3299756, 14.4257582 ], [ 79.3355971, 14.417217 ], [ 79.3416758, 14.4121416 ], [ 79.3430543, 14.4080032 ], [ 79.3486752, 14.4050228 ], [ 79.3497244, 14.3984276 ], [ 79.3559645, 14.3901335 ], [ 79.3590021, 14.3812838 ], [ 79.3642274, 14.3783733 ], [ 79.3649149, 14.371645 ], [ 79.3675186, 14.3680512 ], [ 79.3668186, 14.3606597 ], [ 79.3646431, 14.3574606 ], [ 79.365995, 14.3513371 ], [ 79.3895155, 14.3406257 ], [ 79.3968057, 14.3271053 ], [ 79.3994089, 14.3191889 ], [ 79.422368, 14.2782977 ], [ 79.4194277, 14.2768087 ], [ 79.4196354, 14.2649739 ], [ 79.4276597, 14.2502497 ], [ 79.4353643, 14.2430871 ], [ 79.4247426, 14.2212695 ], [ 79.4255195, 14.2129777 ], [ 79.4223732, 14.2060357 ], [ 79.424141, 14.1996026 ], [ 79.4287578, 14.193279 ], [ 79.4283018, 14.1806818 ], [ 79.43422, 14.1630856 ], [ 79.4379108, 14.1398726 ], [ 79.4408176, 14.1333458 ], [ 79.4447201, 14.1163047 ], [ 79.450502, 14.1072564 ], [ 79.4517527, 14.1028144 ], [ 79.4542139, 14.100702 ], [ 79.4531829, 14.0932741 ], [ 79.4500439, 14.088652 ], [ 79.4517383, 14.075542 ], [ 79.4499534, 14.0697334 ], [ 79.4463099, 14.0668898 ], [ 79.4462988, 14.0646114 ], [ 79.4425778, 14.0607141 ], [ 79.4434371, 14.0400556 ], [ 79.4367314, 14.0237349 ], [ 79.4396635, 14.0060028 ], [ 79.4427299, 13.9978185 ], [ 79.4522178, 13.9929074 ], [ 79.4549863, 13.9875421 ], [ 79.4498643, 13.9712256 ], [ 79.4520699, 13.9628246 ], [ 79.4510538, 13.9597594 ], [ 79.4523119, 13.9537493 ], [ 79.4564075, 13.952043 ], [ 79.4588436, 13.9463869 ], [ 79.4567898, 13.9435108 ], [ 79.4569215, 13.9324553 ], [ 79.4546194, 13.9302155 ], [ 79.4551919, 13.9233794 ], [ 79.4463142, 13.9123603 ], [ 79.4444259, 13.9071663 ], [ 79.4418645, 13.905038 ], [ 79.4446202, 13.8957679 ], [ 79.4430612, 13.8902793 ], [ 79.4339352, 13.8766593 ], [ 79.4337664, 13.8721538 ], [ 79.4344466, 13.8651968 ], [ 79.4377387, 13.8559074 ], [ 79.4543707, 13.8262697 ], [ 79.4567656, 13.8015957 ], [ 79.4636468, 13.7989362 ], [ 79.468706, 13.7989115 ], [ 79.468843, 13.7977397 ], [ 79.4669817, 13.7945713 ], [ 79.4552284, 13.7852929 ], [ 79.4463072, 13.7828076 ], [ 79.4348155, 13.7837709 ], [ 79.4298794, 13.7823898 ], [ 79.4258676, 13.7845975 ], [ 79.4182862, 13.7841382 ], [ 79.4166054, 13.7819871 ], [ 79.4167236, 13.7789415 ], [ 79.4177718, 13.7775097 ], [ 79.4203853, 13.777356 ], [ 79.4218049, 13.7721973 ], [ 79.4202282, 13.7671302 ], [ 79.4178587, 13.7649532 ], [ 79.4073165, 13.7624625 ], [ 79.3900271, 13.7611062 ], [ 79.3724471, 13.7563618 ], [ 79.3594148, 13.7480162 ], [ 79.3057606, 13.7241306 ], [ 79.2930322, 13.7597292 ], [ 79.2493384, 13.7613665 ], [ 79.2418686, 13.7605954 ], [ 79.2421601, 13.7517246 ], [ 79.224903, 13.7576623 ], [ 79.2211162, 13.7618145 ], [ 79.2209792, 13.766831 ], [ 79.2159441, 13.7747274 ], [ 79.2035412, 13.7799614 ], [ 79.1991956, 13.7840698 ], [ 79.1965573, 13.7901548 ], [ 79.1909223, 13.7933311 ], [ 79.1950174, 13.8028888 ], [ 79.197948, 13.8031375 ], [ 79.2037349, 13.8079372 ], [ 79.2104712, 13.8068172 ], [ 79.2123594, 13.8109328 ], [ 79.2158443, 13.8113067 ], [ 79.2160147, 13.8134468 ], [ 79.2077654, 13.8182457 ], [ 79.2056482, 13.8216676 ], [ 79.1986684, 13.8239022 ], [ 79.1959987, 13.8269092 ], [ 79.1865791, 13.8315553 ], [ 79.1773881, 13.8379607 ], [ 79.1742227, 13.8416875 ], [ 79.173786, 13.8447763 ], [ 79.171582, 13.8478854 ], [ 79.1632297, 13.8490436 ], [ 79.1590661, 13.8525559 ], [ 79.1567176, 13.853038 ], [ 79.1501944, 13.8586594 ], [ 79.1486139, 13.8618537 ], [ 79.148677, 13.8652493 ], [ 79.1313766, 13.8521648 ], [ 79.1267744, 13.8500555 ], [ 79.0995309, 13.8503001 ], [ 79.0906344, 13.8806417 ], [ 79.0817524, 13.8791941 ], [ 79.0235568, 13.8914934 ], [ 79.0240857, 13.8963111 ], [ 79.0014266, 13.9087222 ], [ 79.005781, 13.9010879 ], [ 79.0095218, 13.9013857 ], [ 79.0101432, 13.8956182 ], [ 79.0174585, 13.8949379 ], [ 79.0226506, 13.8923123 ], [ 79.0233411, 13.8909069 ], [ 79.0223737, 13.8897114 ], [ 79.0246466, 13.8870382 ], [ 79.0202153, 13.8850272 ], [ 79.0208283, 13.879097 ], [ 79.0283796, 13.8789513 ], [ 79.0300996, 13.8752978 ], [ 79.0347972, 13.8756742 ], [ 79.0373819, 13.8739657 ], [ 79.044757, 13.8617728 ], [ 79.0485689, 13.863675 ], [ 79.0450052, 13.8588051 ], [ 79.037733, 13.8575839 ], [ 79.0313977, 13.8598039 ], [ 79.022673, 13.8579619 ], [ 79.0209348, 13.8557704 ], [ 79.0232164, 13.8539025 ], [ 79.0229839, 13.8521968 ], [ 79.0251742, 13.8493603 ], [ 79.0189989, 13.8449913 ], [ 79.0106747, 13.8441188 ], [ 79.0123144, 13.8431949 ], [ 79.0123806, 13.8374055 ], [ 79.0143763, 13.8352412 ], [ 79.0156087, 13.8306038 ], [ 79.0137218, 13.8262107 ], [ 79.0208986, 13.8251633 ], [ 79.0231937, 13.8200135 ], [ 79.0256141, 13.8179198 ], [ 79.0326878, 13.8170068 ], [ 79.0367588, 13.8187527 ], [ 79.0385379, 13.8157867 ], [ 79.0421174, 13.813918 ], [ 79.0404169, 13.8105525 ], [ 79.0420468, 13.8051901 ], [ 79.0364528, 13.8030539 ], [ 79.0340479, 13.8036834 ], [ 79.0274463, 13.8021005 ], [ 79.0213317, 13.8028529 ], [ 79.0191603, 13.7906979 ], [ 79.0190255, 13.7839221 ], [ 79.023113, 13.7726702 ], [ 79.0362138, 13.7712391 ], [ 79.0366885, 13.7638666 ], [ 79.0346763, 13.7627181 ], [ 79.0386895, 13.7494409 ], [ 79.0366357, 13.7457884 ], [ 79.030878, 13.74225 ], [ 79.0245642, 13.7432903 ], [ 79.0158029, 13.7408376 ], [ 79.0119285, 13.7377505 ], [ 79.0094787, 13.7321019 ], [ 78.9985434, 13.7243499 ], [ 78.9932264, 13.7250664 ], [ 78.9818496, 13.7208128 ], [ 78.9775929, 13.7170444 ], [ 78.9803504, 13.6881228 ], [ 78.9832092, 13.6804743 ], [ 78.9844317, 13.6789466 ], [ 78.9880949, 13.6791901 ], [ 78.9943903, 13.6692886 ], [ 78.9926853, 13.6643234 ], [ 78.9867373, 13.665582 ], [ 78.9810323, 13.6603797 ], [ 78.9807051, 13.657824 ], [ 78.9752171, 13.6575627 ], [ 78.9779293, 13.652747 ], [ 78.9872151, 13.6555664 ], [ 78.988524, 13.6547986 ], [ 78.9886226, 13.6490871 ], [ 78.9913367, 13.6470323 ], [ 78.9919919, 13.6428794 ], [ 78.9957665, 13.6398969 ], [ 78.993514, 13.6358768 ], [ 78.9969057, 13.6315583 ], [ 78.9787118, 13.629434 ], [ 78.964316, 13.6243533 ], [ 78.9645377, 13.6207488 ], [ 78.9686207, 13.6203359 ], [ 78.973975, 13.6131626 ], [ 78.9716758, 13.6008315 ], [ 78.9692329, 13.5952552 ], [ 78.9578021, 13.5942269 ], [ 78.9536937, 13.5836358 ], [ 78.9504319, 13.5830965 ], [ 78.9461965, 13.5847958 ], [ 78.9439321, 13.590238 ], [ 78.9391377, 13.5901299 ], [ 78.9382742, 13.5924598 ], [ 78.9363693, 13.590873 ], [ 78.9362742, 13.5929826 ], [ 78.9334806, 13.5928171 ], [ 78.9340661, 13.5912037 ], [ 78.932746, 13.5881119 ], [ 78.9280943, 13.5821798 ], [ 78.9214267, 13.5800509 ], [ 78.9156836, 13.5813406 ], [ 78.9110981, 13.5799772 ], [ 78.9034105, 13.5858611 ], [ 78.9029327, 13.5895811 ], [ 78.897387, 13.5944554 ], [ 78.8922177, 13.5950032 ], [ 78.8791045, 13.5924076 ], [ 78.8710099, 13.5981833 ], [ 78.8729365, 13.6101149 ], [ 78.875671, 13.6130055 ], [ 78.8808162, 13.6229785 ], [ 78.886134, 13.6241583 ], [ 78.8865661, 13.6261546 ], [ 78.8850403, 13.6348828 ], [ 78.8821615, 13.6348831 ], [ 78.8835188, 13.6407639 ], [ 78.8810434, 13.6480161 ], [ 78.8804727, 13.6557305 ], [ 78.8823596, 13.6595638 ], [ 78.8785585, 13.6604111 ], [ 78.8624988, 13.6582254 ], [ 78.8624707, 13.6656095 ], [ 78.8550892, 13.6730491 ], [ 78.8524872, 13.6781127 ], [ 78.8519994, 13.6733547 ], [ 78.8538133, 13.6719635 ], [ 78.8519433, 13.6638954 ], [ 78.8517808, 13.649948 ], [ 78.8483531, 13.6486918 ], [ 78.8435849, 13.6407863 ], [ 78.8367261, 13.6370443 ], [ 78.823779, 13.6242965 ], [ 78.8188667, 13.6172344 ], [ 78.8191367, 13.612591 ], [ 78.8064853, 13.6110836 ], [ 78.8043335, 13.6136783 ], [ 78.8010222, 13.6134887 ], [ 78.798394, 13.615049 ], [ 78.7948546, 13.6118207 ], [ 78.7964643, 13.607256 ], [ 78.7958237, 13.6059719 ], [ 78.8007612, 13.6006932 ], [ 78.8003698, 13.5967268 ], [ 78.8037546, 13.5887421 ], [ 78.8010951, 13.5820415 ], [ 78.7910569, 13.5825653 ], [ 78.7876002, 13.581091 ], [ 78.7826331, 13.5828353 ], [ 78.7503563, 13.586522 ], [ 78.7389092, 13.5686078 ], [ 78.7385568, 13.5587762 ], [ 78.7413756, 13.5560163 ], [ 78.7384918, 13.5467374 ], [ 78.7412672, 13.5420657 ], [ 78.7374707, 13.5399641 ], [ 78.7392473, 13.5317232 ], [ 78.7350611, 13.5214574 ], [ 78.7309448, 13.5153539 ], [ 78.7303126, 13.5179198 ], [ 78.7207106, 13.5097136 ], [ 78.7107387, 13.5042332 ], [ 78.6926907, 13.5023745 ], [ 78.6920701, 13.4990313 ], [ 78.6838739, 13.486031 ], [ 78.6757128, 13.4821913 ], [ 78.677059, 13.4716517 ], [ 78.6715591, 13.4715217 ], [ 78.6736315, 13.4665319 ], [ 78.6695299, 13.460933 ], [ 78.6581243, 13.4614184 ], [ 78.6543429, 13.4654321 ], [ 78.6560985, 13.4716055 ], [ 78.6638991, 13.4781756 ], [ 78.6643166, 13.4895374 ], [ 78.6628635, 13.4993131 ], [ 78.6436165, 13.5085106 ], [ 78.6376317, 13.507531 ], [ 78.6275811, 13.5171385 ], [ 78.6253393, 13.5158759 ], [ 78.6115188, 13.5176901 ], [ 78.6009093, 13.5164147 ], [ 78.5871301, 13.5187112 ], [ 78.5850423, 13.5226234 ], [ 78.5812747, 13.5239762 ], [ 78.58226, 13.525743 ], [ 78.5816979, 13.5284989 ], [ 78.5840633, 13.5308252 ], [ 78.5825903, 13.5336857 ], [ 78.5832079, 13.5376769 ], [ 78.5843638, 13.5404486 ], [ 78.5862081, 13.5407772 ], [ 78.583877, 13.5420935 ], [ 78.5822717, 13.5418754 ], [ 78.5823215, 13.5400593 ], [ 78.5754309, 13.532323 ], [ 78.5759064, 13.5280165 ], [ 78.572696, 13.5208878 ], [ 78.5679387, 13.5156699 ], [ 78.5612548, 13.5115457 ], [ 78.5614944, 13.5063468 ], [ 78.560253, 13.5053141 ], [ 78.55847, 13.5058444 ], [ 78.5567362, 13.501784 ], [ 78.5520495, 13.4991971 ], [ 78.549096, 13.491825 ], [ 78.5451897, 13.489546 ], [ 78.5448912, 13.4845384 ], [ 78.5397008, 13.4834475 ], [ 78.5398249, 13.485278 ], [ 78.5373398, 13.4866871 ], [ 78.5395046, 13.4899418 ], [ 78.5298016, 13.490065 ], [ 78.5285835, 13.4874839 ], [ 78.5220731, 13.4843855 ], [ 78.5057152, 13.4855623 ], [ 78.4987198, 13.4832486 ], [ 78.4949273, 13.4770807 ], [ 78.4862759, 13.4675067 ], [ 78.4838156, 13.459287 ], [ 78.4763887, 13.4551323 ], [ 78.4865163, 13.4500659 ], [ 78.4833616, 13.4460135 ], [ 78.4898754, 13.4458321 ], [ 78.4925599, 13.4473101 ], [ 78.4978224, 13.4458029 ], [ 78.5000869, 13.4475241 ], [ 78.5115286, 13.4479408 ], [ 78.5092943, 13.4469364 ], [ 78.5076709, 13.4429767 ], [ 78.5025576, 13.4376006 ], [ 78.5035334, 13.4346002 ], [ 78.5006572, 13.4249091 ], [ 78.5020519, 13.4241821 ], [ 78.5053981, 13.426457 ], [ 78.5098169, 13.4258218 ], [ 78.5130748, 13.4194102 ], [ 78.5182836, 13.4173652 ], [ 78.5223319, 13.4078489 ], [ 78.5254031, 13.4050706 ], [ 78.5199223, 13.3964679 ], [ 78.5221069, 13.3941367 ], [ 78.5207165, 13.385391 ], [ 78.5240336, 13.379029 ], [ 78.5148352, 13.3757259 ], [ 78.5128376, 13.3732891 ], [ 78.5106497, 13.3730169 ], [ 78.5090723, 13.3703542 ], [ 78.5058871, 13.3708318 ], [ 78.498719, 13.3628578 ], [ 78.4973105, 13.3591883 ], [ 78.4945484, 13.3572371 ], [ 78.4978457, 13.3559776 ], [ 78.4987191, 13.3573953 ], [ 78.5030607, 13.3552474 ], [ 78.5043304, 13.354448 ], [ 78.5048766, 13.3513841 ], [ 78.5044254, 13.348984 ], [ 78.500793, 13.3489823 ], [ 78.5009301, 13.3427138 ], [ 78.497417, 13.3375066 ], [ 78.4956287, 13.327125 ], [ 78.4881129, 13.3262649 ], [ 78.4849503, 13.3277495 ], [ 78.4833471, 13.3211792 ], [ 78.4768975, 13.3226377 ], [ 78.4701539, 13.3198336 ], [ 78.4694791, 13.317086 ], [ 78.4666633, 13.315121 ], [ 78.4577193, 13.3138359 ], [ 78.4526326, 13.3100772 ], [ 78.4442057, 13.308111 ], [ 78.4400139, 13.3218085 ], [ 78.4412377, 13.324895 ], [ 78.4403847, 13.3284294 ], [ 78.4333978, 13.3305055 ], [ 78.4279475, 13.3312929 ], [ 78.421758, 13.328266 ], [ 78.418877, 13.3205744 ], [ 78.4011042, 13.3154695 ], [ 78.3992678, 13.3206896 ], [ 78.3921609, 13.3252954 ], [ 78.3871336, 13.3317922 ], [ 78.3771479, 13.331971 ], [ 78.3782509, 13.3371864 ], [ 78.3830278, 13.343586 ], [ 78.3876847, 13.3427995 ], [ 78.3884231, 13.339098 ], [ 78.3848692, 13.334886 ], [ 78.3944228, 13.333819 ], [ 78.4034919, 13.3360645 ], [ 78.4072905, 13.3375239 ], [ 78.4083991, 13.3456859 ], [ 78.4044761, 13.3478782 ], [ 78.4028237, 13.3471462 ], [ 78.4001284, 13.3490537 ], [ 78.3932052, 13.3507399 ], [ 78.3948577, 13.3543283 ], [ 78.3776366, 13.3631462 ], [ 78.3760622, 13.3611459 ], [ 78.370833, 13.3615145 ], [ 78.36967, 13.3582605 ], [ 78.3658112, 13.3586535 ], [ 78.3650771, 13.361799 ], [ 78.3690553, 13.3731882 ], [ 78.3723648, 13.3784625 ], [ 78.3787791, 13.3836452 ], [ 78.3816755, 13.3969832 ], [ 78.3810615, 13.4088196 ], [ 78.3792193, 13.4148259 ], [ 78.3807521, 13.4188663 ], [ 78.3774417, 13.4240275 ], [ 78.3775062, 13.4318777 ], [ 78.3756038, 13.4373778 ], [ 78.3764026, 13.4394523 ], [ 78.3789744, 13.4400714 ], [ 78.3783602, 13.4437186 ], [ 78.3757283, 13.4438858 ], [ 78.3728468, 13.4521382 ], [ 78.374563, 13.4619429 ], [ 78.3723569, 13.4633509 ], [ 78.3708236, 13.4695243 ], [ 78.3787892, 13.4820387 ], [ 78.3780546, 13.500166 ], [ 78.3748456, 13.5027 ], [ 78.3768461, 13.5052422 ], [ 78.3753163, 13.508954 ], [ 78.3855241, 13.5155625 ], [ 78.3841099, 13.524901 ], [ 78.3936353, 13.540625 ], [ 78.3931305, 13.5525603 ], [ 78.4066722, 13.5768552 ], [ 78.4015505, 13.5785031 ], [ 78.4020014, 13.587971 ], [ 78.3961689, 13.588175 ], [ 78.3934604, 13.5906603 ], [ 78.3841967, 13.5918334 ], [ 78.3653106, 13.5895082 ], [ 78.3649302, 13.5880847 ], [ 78.3612435, 13.5889892 ], [ 78.348627, 13.5868672 ], [ 78.346566, 13.5904996 ], [ 78.326171, 13.5948375 ], [ 78.3149586, 13.5914184 ], [ 78.3077348, 13.5922229 ], [ 78.2704751, 13.5881486 ], [ 78.261034, 13.5849554 ], [ 78.2586049, 13.5830058 ], [ 78.2580362, 13.5856939 ], [ 78.2492907, 13.5908786 ], [ 78.2436935, 13.5968413 ], [ 78.2421136, 13.5956519 ], [ 78.2363401, 13.5985818 ], [ 78.2343892, 13.597122 ], [ 78.2350855, 13.5910641 ], [ 78.232579, 13.5859832 ], [ 78.2262197, 13.5874412 ], [ 78.2192254, 13.5924627 ], [ 78.2162112, 13.5906234 ], [ 78.2140796, 13.5832302 ], [ 78.2078425, 13.5769925 ], [ 78.2029217, 13.5687833 ], [ 78.192972, 13.5648465 ], [ 78.1910869, 13.5675477 ], [ 78.1896054, 13.5752121 ], [ 78.1902557, 13.5901363 ], [ 78.199008, 13.5992379 ], [ 78.2033343, 13.6065092 ], [ 78.2037657, 13.618276 ], [ 78.2023224, 13.619427 ], [ 78.2041967, 13.6284215 ], [ 78.1956411, 13.628424 ], [ 78.1891715, 13.6305175 ], [ 78.1750548, 13.630612 ], [ 78.1682238, 13.6328517 ], [ 78.169037, 13.6539617 ], [ 78.1675782, 13.655825 ], [ 78.1560904, 13.6585925 ], [ 78.1470944, 13.6566933 ], [ 78.141821, 13.6584447 ], [ 78.1384758, 13.6578098 ], [ 78.1351898, 13.6593493 ], [ 78.1311165, 13.659359 ], [ 78.1296998, 13.6577138 ], [ 78.1236589, 13.6557317 ], [ 78.1142925, 13.6573621 ], [ 78.1100128, 13.6552644 ], [ 78.1084684, 13.6531091 ], [ 78.1022507, 13.6510592 ], [ 78.0989461, 13.6427989 ], [ 78.0871087, 13.6430662 ], [ 78.0868954, 13.6511683 ], [ 78.089743, 13.6590991 ], [ 78.078549, 13.6672727 ], [ 78.0770128, 13.673353 ], [ 78.0657166, 13.6761406 ], [ 78.0673096, 13.6797008 ], [ 78.0712399, 13.6823753 ], [ 78.0735854, 13.6877265 ], [ 78.070889, 13.6884571 ], [ 78.0696093, 13.6908043 ], [ 78.0690761, 13.6978085 ], [ 78.0726775, 13.6984828 ], [ 78.0801369, 13.6966371 ], [ 78.0858844, 13.6921932 ], [ 78.0921033, 13.6925598 ], [ 78.0924184, 13.6911744 ], [ 78.1132201, 13.6927353 ], [ 78.1147102, 13.7034186 ], [ 78.1205525, 13.7159282 ], [ 78.1158543, 13.7225318 ], [ 78.1110121, 13.7258027 ], [ 78.1043286, 13.7365442 ], [ 78.0983249, 13.7377943 ], [ 78.0915234, 13.7422769 ], [ 78.0998813, 13.7584591 ], [ 78.1066451, 13.7617861 ], [ 78.1138022, 13.7634316 ], [ 78.1191928, 13.7725067 ], [ 78.1221564, 13.7813195 ], [ 78.1265444, 13.7878974 ], [ 78.1288517, 13.7854608 ], [ 78.1378593, 13.781872 ], [ 78.1470335, 13.7813788 ], [ 78.1511817, 13.7855679 ], [ 78.1648781, 13.7836227 ], [ 78.182219, 13.7850022 ], [ 78.1831702, 13.7883853 ], [ 78.1859767, 13.7873497 ], [ 78.1893571, 13.7882346 ], [ 78.1958759, 13.7848388 ], [ 78.2025208, 13.7855056 ], [ 78.2057794, 13.7819976 ], [ 78.2088077, 13.7810023 ], [ 78.217427, 13.7819302 ], [ 78.2369983, 13.7787966 ], [ 78.237323, 13.7806249 ], [ 78.2419844, 13.7815311 ], [ 78.2487461, 13.7857765 ], [ 78.2511621, 13.7916311 ], [ 78.2577806, 13.79238 ], [ 78.2614178, 13.7913522 ], [ 78.2629673, 13.7983084 ], [ 78.2549696, 13.8062594 ], [ 78.2549019, 13.8206113 ], [ 78.2559771, 13.8237144 ], [ 78.2578044, 13.8228616 ], [ 78.2588255, 13.8237855 ], [ 78.2556933, 13.8271599 ], [ 78.2565602, 13.83441 ], [ 78.2464364, 13.8423813 ], [ 78.2408292, 13.8451173 ], [ 78.2421992, 13.8505001 ], [ 78.2532109, 13.8520779 ], [ 78.2574554, 13.853927 ], [ 78.2589859, 13.8581291 ], [ 78.2612573, 13.8568967 ], [ 78.2650012, 13.857642 ], [ 78.2656231, 13.8591177 ], [ 78.2639958, 13.8598461 ], [ 78.2631326, 13.8642303 ], [ 78.2687999, 13.8675224 ], [ 78.2678107, 13.8728186 ], [ 78.2747427, 13.8810106 ], [ 78.2733701, 13.8837804 ], [ 78.2742635, 13.886239 ], [ 78.2781825, 13.8895576 ], [ 78.2727381, 13.8949284 ], [ 78.2775097, 13.8951519 ], [ 78.279959, 13.8975148 ], [ 78.284753, 13.8936861 ], [ 78.2882386, 13.8935377 ], [ 78.2893469, 13.8920577 ], [ 78.2980686, 13.8937315 ], [ 78.2983033, 13.895524 ], [ 78.2969671, 13.8958534 ], [ 78.2985306, 13.8997584 ], [ 78.2980009, 13.9049224 ], [ 78.2993001, 13.9062695 ], [ 78.3013415, 13.907882 ], [ 78.306334, 13.9083275 ], [ 78.3099236, 13.9139202 ], [ 78.3181547, 13.9207817 ], [ 78.3255576, 13.9217355 ], [ 78.3313781, 13.9179763 ], [ 78.3364926, 13.9267606 ], [ 78.3356998, 13.9297713 ], [ 78.3372605, 13.9366515 ], [ 78.3467993, 13.9347585 ], [ 78.3483659, 13.939857 ], [ 78.352088, 13.9384487 ], [ 78.3703398, 13.9567472 ], [ 78.3755851, 13.9522577 ], [ 78.3723966, 13.9444236 ], [ 78.3788259, 13.9403331 ], [ 78.3874212, 13.9389372 ], [ 78.3930651, 13.9466244 ], [ 78.4043404, 13.9562526 ], [ 78.4130303, 13.9613524 ], [ 78.4204946, 13.9632844 ], [ 78.4245482, 13.970521 ], [ 78.4270629, 13.979189 ], [ 78.4345721, 13.9790642 ], [ 78.4424553, 13.9835264 ], [ 78.4456249, 13.9818488 ], [ 78.4532805, 13.9841612 ], [ 78.4603903, 13.987345 ], [ 78.4645781, 13.994605 ], [ 78.4654919, 13.993972 ], [ 78.4667537, 13.9950782 ], [ 78.4692619, 14.0070139 ], [ 78.4583344, 14.0080785 ], [ 78.4577948, 14.0092396 ], [ 78.4428544, 14.0151194 ], [ 78.4403427, 14.0184941 ], [ 78.4413866, 14.0281737 ], [ 78.4398032, 14.0429856 ], [ 78.4487163, 14.0520599 ], [ 78.4459476, 14.0565308 ], [ 78.4459344, 14.0690663 ], [ 78.4471928, 14.0705433 ], [ 78.446347, 14.0721805 ], [ 78.4448472, 14.0721207 ], [ 78.4454772, 14.0752596 ], [ 78.4429964, 14.0769079 ], [ 78.4424184, 14.0804149 ], [ 78.4443531, 14.0841317 ], [ 78.4460937, 14.084212 ], [ 78.448005, 14.0821061 ], [ 78.4490091, 14.0844395 ], [ 78.4512324, 14.0826168 ], [ 78.4543189, 14.0842382 ], [ 78.4584723, 14.0906709 ], [ 78.4612807, 14.1063986 ], [ 78.4594689, 14.1105536 ], [ 78.4539639, 14.1152785 ], [ 78.4489973, 14.1307091 ], [ 78.4434313, 14.1376981 ], [ 78.4442252, 14.1397616 ], [ 78.447493, 14.1427502 ], [ 78.4614974, 14.148226 ], [ 78.4669731, 14.1541698 ], [ 78.4766032, 14.1599014 ], [ 78.4781648, 14.1649165 ], [ 78.4901872, 14.1641008 ], [ 78.4987151, 14.1714101 ], [ 78.5087971, 14.167736 ], [ 78.5175298, 14.1705805 ], [ 78.5209392, 14.168814 ], [ 78.5247604, 14.169122 ], [ 78.5282991, 14.1540391 ], [ 78.5474021, 14.155059 ] ] ] } }
]
}
