{
"type": "FeatureCollection",
"name": "2829",
"crs": { "type": "name", "properties": { "name": "urn:ogc:def:crs:OGC:1.3:CRS84" } },
"features": [
{ "type": "Feature", "properties": { "code": "2829", "name": "Manyam", "type": "district" }, "geometry": { "type": "Polygon", "coordinates": [ [ [ 83.6373691, 19.153009 ], [ 83.6344095, 19.1518323 ], [ 83.6349356, 19.1496576 ], [ 83.6317029, 19.140841 ], [ 83.6370078, 19.1314776 ], [ 83.6421168, 19.1319235 ], [ 83.6467527, 19.1298115 ], [ 83.6527139, 19.1315632 ], [ 83.6549629, 19.1296208 ], [ 83.6543845, 19.1227444 ], [ 83.6496361, 19.1232593 ], [ 83.6470364, 19.118398 ], [ 83.6504545, 19.1173871 ], [ 83.6510529, 19.1093464 ], [ 83.6555708, 19.1088026 ], [ 83.6575843, 19.1025475 ], [ 83.6614302, 19.0989115 ], [ 83.6628225, 19.0989501 ], [ 83.6625432, 19.0951481 ], [ 83.6638921, 19.0921937 ], [ 83.6603818, 19.0844247 ], [ 83.6639287, 19.076084 ], [ 83.673557, 19.0730008 ], [ 83.6752187, 19.0712069 ], [ 83.6765897, 19.0652047 ], [ 83.6852525, 19.0585321 ], [ 83.6912008, 19.0472982 ], [ 83.6930214, 19.0386076 ], [ 83.697534, 19.0337605 ], [ 83.6986288, 19.0315864 ], [ 83.6980314, 19.0298749 ], [ 83.7006159, 19.0250018 ], [ 83.7046204, 19.0234126 ], [ 83.7096864, 19.0246431 ], [ 83.7147072, 19.0239599 ], [ 83.7244684, 19.0205429 ], [ 83.7300169, 19.0219554 ], [ 83.7238924, 19.0102488 ], [ 83.7212143, 19.0093084 ], [ 83.7180713, 19.0104337 ], [ 83.7103051, 19.0071752 ], [ 83.7088269, 19.0055852 ], [ 83.7094769, 19.0026365 ], [ 83.7132009, 18.9980291 ], [ 83.7141996, 18.9929867 ], [ 83.7181698, 18.9934205 ], [ 83.7330127, 18.9877118 ], [ 83.7324581, 18.9799094 ], [ 83.7343996, 18.9691762 ], [ 83.7387874, 18.9603572 ], [ 83.740541, 18.9500692 ], [ 83.7468119, 18.943579 ], [ 83.7476639, 18.9370786 ], [ 83.7538587, 18.925131 ], [ 83.7631688, 18.9272815 ], [ 83.7663614, 18.9226651 ], [ 83.769388, 18.914304 ], [ 83.7718367, 18.9146465 ], [ 83.7782434, 18.9113634 ], [ 83.7878908, 18.9158688 ], [ 83.7875709, 18.9191829 ], [ 83.7850477, 18.9237896 ], [ 83.784456, 18.9335953 ], [ 83.7788469, 18.9366635 ], [ 83.7762182, 18.9452491 ], [ 83.7725829, 18.9443239 ], [ 83.7696473, 18.954756 ], [ 83.7638995, 18.9529277 ], [ 83.7616289, 18.9504649 ], [ 83.7589552, 18.9506131 ], [ 83.7573569, 18.9593142 ], [ 83.7558698, 18.9597742 ], [ 83.7550575, 18.9623191 ], [ 83.7553051, 18.9713177 ], [ 83.7480702, 18.9740438 ], [ 83.7448535, 18.9879788 ], [ 83.7475321, 18.9959076 ], [ 83.7515502, 18.9986786 ], [ 83.7527313, 18.9977671 ], [ 83.7538371, 18.9992088 ], [ 83.7550287, 18.9986127 ], [ 83.758676, 19.0022293 ], [ 83.7606517, 19.0025971 ], [ 83.7628051, 18.9984927 ], [ 83.7648606, 19.0054011 ], [ 83.7716971, 19.0080841 ], [ 83.7788016, 19.0074628 ], [ 83.781983, 19.0083946 ], [ 83.7812825, 19.0139355 ], [ 83.7780614, 19.0154693 ], [ 83.7779058, 19.0175348 ], [ 83.780525, 19.0186241 ], [ 83.781982, 19.0177489 ], [ 83.794688, 19.017977 ], [ 83.7934806, 19.0082407 ], [ 83.7951243, 19.0036837 ], [ 83.7968619, 19.0009156 ], [ 83.8089263, 18.9922829 ], [ 83.8105222, 18.9852246 ], [ 83.817733, 18.9715334 ], [ 83.8217617, 18.9602291 ], [ 83.8190061, 18.9451974 ], [ 83.8197306, 18.9392569 ], [ 83.8289391, 18.9306046 ], [ 83.8261308, 18.918587 ], [ 83.8265774, 18.9162837 ], [ 83.8307085, 18.9147521 ], [ 83.8403172, 18.9185087 ], [ 83.8433967, 18.917162 ], [ 83.8457877, 18.9135828 ], [ 83.8488992, 18.8998968 ], [ 83.8436133, 18.8755427 ], [ 83.8484652, 18.8641679 ], [ 83.8533276, 18.8580688 ], [ 83.8660098, 18.8526951 ], [ 83.872538, 18.8475692 ], [ 83.8877254, 18.830961 ], [ 83.8908513, 18.8259579 ], [ 83.8929036, 18.8156447 ], [ 83.8855533, 18.8111412 ], [ 83.8781461, 18.8168519 ], [ 83.8765688, 18.8064189 ], [ 83.8775871, 18.8047244 ], [ 83.8788097, 18.8054863 ], [ 83.8822675, 18.8022873 ], [ 83.8840488, 18.8024539 ], [ 83.8878321, 18.7964786 ], [ 83.8808967, 18.794979 ], [ 83.8758531, 18.7956254 ], [ 83.8623, 18.7887926 ], [ 83.8600915, 18.7894042 ], [ 83.8553872, 18.7880092 ], [ 83.8498483, 18.7890781 ], [ 83.849289, 18.7868925 ], [ 83.843097, 18.7839086 ], [ 83.8418258, 18.7816849 ], [ 83.8385371, 18.7809719 ], [ 83.8373915, 18.7788772 ], [ 83.8339814, 18.7801878 ], [ 83.8325278, 18.7789281 ], [ 83.8326444, 18.7741335 ], [ 83.8419232, 18.7689387 ], [ 83.8486304, 18.768038 ], [ 83.8497206, 18.766108 ], [ 83.853143, 18.7693549 ], [ 83.8603006, 18.7643762 ], [ 83.8621703, 18.7669245 ], [ 83.8635622, 18.7670882 ], [ 83.8652083, 18.7652444 ], [ 83.8669414, 18.7662106 ], [ 83.8702908, 18.7622781 ], [ 83.8679488, 18.7611858 ], [ 83.8697013, 18.757842 ], [ 83.8683122, 18.7540453 ], [ 83.8700143, 18.7510723 ], [ 83.872096, 18.7509168 ], [ 83.8745235, 18.7484119 ], [ 83.8810285, 18.7502432 ], [ 83.8853282, 18.7394954 ], [ 83.8846433, 18.7369219 ], [ 83.8895565, 18.7309486 ], [ 83.8906424, 18.7276741 ], [ 83.889388, 18.7272555 ], [ 83.88721, 18.7309856 ], [ 83.8861576, 18.7299179 ], [ 83.8847031, 18.7321771 ], [ 83.8832989, 18.7313183 ], [ 83.8826393, 18.7405858 ], [ 83.8777007, 18.7388293 ], [ 83.8756097, 18.7415774 ], [ 83.8728081, 18.7399904 ], [ 83.8701317, 18.7437281 ], [ 83.8672984, 18.7430496 ], [ 83.8613355, 18.7357835 ], [ 83.8592866, 18.7297118 ], [ 83.8541292, 18.7284325 ], [ 83.8464244, 18.7243285 ], [ 83.8376863, 18.7229916 ], [ 83.8387871, 18.7163918 ], [ 83.8370544, 18.7154429 ], [ 83.8397282, 18.7123743 ], [ 83.8396972, 18.7044683 ], [ 83.8379297, 18.7020335 ], [ 83.8392737, 18.6982898 ], [ 83.8430385, 18.6949918 ], [ 83.8399702, 18.6871872 ], [ 83.8402897, 18.6820407 ], [ 83.8508183, 18.6679382 ], [ 83.8498365, 18.6676328 ], [ 83.8684749, 18.6478227 ], [ 83.8784424, 18.6404098 ], [ 83.8813277, 18.6359681 ], [ 83.884767, 18.6339575 ], [ 83.8916632, 18.6344019 ], [ 83.8922291, 18.6318968 ], [ 83.8889302, 18.6288855 ], [ 83.8935721, 18.6270907 ], [ 83.8968076, 18.6207455 ], [ 83.8902502, 18.6170177 ], [ 83.8932219, 18.6102248 ], [ 83.8949797, 18.6088415 ], [ 83.8971163, 18.6090743 ], [ 83.8986759, 18.6072016 ], [ 83.898346, 18.6045816 ], [ 83.9044539, 18.6004026 ], [ 83.9051423, 18.5956675 ], [ 83.907689, 18.5949674 ], [ 83.9100311, 18.58691 ], [ 83.908026, 18.5857303 ], [ 83.9155781, 18.582475 ], [ 83.9173917, 18.5805167 ], [ 83.9244324, 18.5786061 ], [ 83.9234955, 18.5697648 ], [ 83.9205308, 18.5668615 ], [ 83.9166091, 18.5674843 ], [ 83.9139227, 18.5696462 ], [ 83.9138728, 18.5654402 ], [ 83.9067042, 18.5676056 ], [ 83.903249, 18.5640004 ], [ 83.9065812, 18.5613674 ], [ 83.9069951, 18.5573935 ], [ 83.909806, 18.5566712 ], [ 83.9094717, 18.5546205 ], [ 83.9151399, 18.5533782 ], [ 83.9152018, 18.5455464 ], [ 83.9171693, 18.542108 ], [ 83.9135071, 18.5399296 ], [ 83.9074806, 18.5388008 ], [ 83.908197, 18.5350661 ], [ 83.9052567, 18.5335177 ], [ 83.8998636, 18.5361111 ], [ 83.8940636, 18.5417337 ], [ 83.8857304, 18.5430809 ], [ 83.8828018, 18.5463127 ], [ 83.8808972, 18.5553302 ], [ 83.8751604, 18.5485025 ], [ 83.8682628, 18.5507121 ], [ 83.8674964, 18.5496758 ], [ 83.8700922, 18.5474616 ], [ 83.8700292, 18.5460077 ], [ 83.8679438, 18.5445808 ], [ 83.8638846, 18.5462713 ], [ 83.8609246, 18.543846 ], [ 83.8619685, 18.5403683 ], [ 83.8688054, 18.540975 ], [ 83.8688697, 18.538665 ], [ 83.8590075, 18.5338414 ], [ 83.8527203, 18.5342367 ], [ 83.8420733, 18.5454237 ], [ 83.8391713, 18.5419399 ], [ 83.8379344, 18.5424696 ], [ 83.836717, 18.546352 ], [ 83.8350929, 18.5469556 ], [ 83.8300019, 18.5551094 ], [ 83.827171, 18.5557949 ], [ 83.8243775, 18.558956 ], [ 83.8249116, 18.5630551 ], [ 83.8284385, 18.5676138 ], [ 83.8316511, 18.5662401 ], [ 83.8315884, 18.5706149 ], [ 83.8290313, 18.5729274 ], [ 83.8219896, 18.5728694 ], [ 83.8203565, 18.5707258 ], [ 83.8083746, 18.5771824 ], [ 83.810061, 18.5863786 ], [ 83.8072341, 18.5876104 ], [ 83.7993992, 18.5869177 ], [ 83.7981224, 18.5893095 ], [ 83.7866228, 18.5904664 ], [ 83.7857944, 18.5941752 ], [ 83.7920845, 18.5979465 ], [ 83.7934333, 18.6043058 ], [ 83.7948489, 18.6059107 ], [ 83.7935305, 18.6072548 ], [ 83.7887565, 18.6046034 ], [ 83.7897156, 18.6021849 ], [ 83.7876338, 18.5998492 ], [ 83.7829654, 18.6006481 ], [ 83.7810364, 18.5978085 ], [ 83.7782151, 18.5991121 ], [ 83.7788451, 18.5962786 ], [ 83.7741458, 18.5904312 ], [ 83.7742997, 18.5851966 ], [ 83.7710885, 18.5776501 ], [ 83.771804, 18.5725604 ], [ 83.7740308, 18.5691692 ], [ 83.7726524, 18.5657924 ], [ 83.7678854, 18.5671708 ], [ 83.7626551, 18.566907 ], [ 83.7592542, 18.5692315 ], [ 83.7571117, 18.5779711 ], [ 83.7536504, 18.5826595 ], [ 83.7496014, 18.5844966 ], [ 83.7447143, 18.582099 ], [ 83.7364923, 18.5694585 ], [ 83.7307083, 18.5655107 ], [ 83.7220394, 18.5710451 ], [ 83.7117738, 18.5699926 ], [ 83.7011034, 18.5713991 ], [ 83.6907783, 18.5806033 ], [ 83.6852403, 18.5829854 ], [ 83.6787008, 18.5829377 ], [ 83.6693893, 18.5808434 ], [ 83.6625927, 18.5827601 ], [ 83.646745, 18.5913881 ], [ 83.6450321, 18.5980055 ], [ 83.6357934, 18.604882 ], [ 83.6350765, 18.6154155 ], [ 83.6293947, 18.6239972 ], [ 83.6219178, 18.628543 ], [ 83.6217938, 18.6347121 ], [ 83.6199983, 18.6398031 ], [ 83.6142503, 18.6458098 ], [ 83.6068884, 18.6469286 ], [ 83.6040713, 18.6489075 ], [ 83.6041635, 18.6585749 ], [ 83.5942949, 18.6594855 ], [ 83.5905618, 18.661107 ], [ 83.5859865, 18.6640328 ], [ 83.5835658, 18.6707272 ], [ 83.5769078, 18.6723724 ], [ 83.5730943, 18.6755354 ], [ 83.5721794, 18.6788466 ], [ 83.5732538, 18.691075 ], [ 83.5717115, 18.6951903 ], [ 83.5640289, 18.7013856 ], [ 83.5566174, 18.7019069 ], [ 83.5531005, 18.7037912 ], [ 83.546699, 18.7104014 ], [ 83.5383356, 18.7104205 ], [ 83.5411194, 18.695865 ], [ 83.5417241, 18.6853817 ], [ 83.5460789, 18.6855752 ], [ 83.5538958, 18.6822157 ], [ 83.5546638, 18.6788886 ], [ 83.5582764, 18.6761851 ], [ 83.5577819, 18.6730658 ], [ 83.5613869, 18.6670382 ], [ 83.5569673, 18.6573862 ], [ 83.5550228, 18.6579244 ], [ 83.5499626, 18.6486575 ], [ 83.5500258, 18.6420917 ], [ 83.5534799, 18.6408092 ], [ 83.5560488, 18.6380934 ], [ 83.5533033, 18.6295254 ], [ 83.5495939, 18.6287151 ], [ 83.5480274, 18.6252177 ], [ 83.5520506, 18.6142807 ], [ 83.5491832, 18.5957604 ], [ 83.5698994, 18.5945207 ], [ 83.5706771, 18.5924493 ], [ 83.5651625, 18.5870789 ], [ 83.5551535, 18.5848496 ], [ 83.5506043, 18.5802784 ], [ 83.5442791, 18.5833233 ], [ 83.5406613, 18.5761678 ], [ 83.5381731, 18.5633301 ], [ 83.533054, 18.5662266 ], [ 83.5318488, 18.5600127 ], [ 83.5266033, 18.5523105 ], [ 83.5311499, 18.5488666 ], [ 83.5342777, 18.5523016 ], [ 83.538372, 18.5511501 ], [ 83.5378644, 18.5434985 ], [ 83.539622, 18.540767 ], [ 83.542827, 18.5391154 ], [ 83.5369178, 18.5274125 ], [ 83.5295953, 18.5292872 ], [ 83.5281992, 18.5260084 ], [ 83.5208928, 18.5249456 ], [ 83.5155037, 18.5201279 ], [ 83.5147345, 18.5224612 ], [ 83.5165473, 18.5263578 ], [ 83.5160591, 18.5306302 ], [ 83.5141841, 18.5312982 ], [ 83.5156254, 18.5338309 ], [ 83.5145377, 18.5357846 ], [ 83.497601, 18.5452351 ], [ 83.4954316, 18.5529693 ], [ 83.4885468, 18.5612391 ], [ 83.4797417, 18.5644838 ], [ 83.4726844, 18.5693325 ], [ 83.4737355, 18.5766899 ], [ 83.4755023, 18.5794578 ], [ 83.48126, 18.5807605 ], [ 83.4858964, 18.5843333 ], [ 83.4909082, 18.6092947 ], [ 83.4853021, 18.6130054 ], [ 83.4746929, 18.6158817 ], [ 83.4735357, 18.6176825 ], [ 83.4651504, 18.6181779 ], [ 83.465861, 18.6262647 ], [ 83.4597654, 18.6333926 ], [ 83.4608188, 18.6365905 ], [ 83.4575491, 18.6378826 ], [ 83.4586724, 18.6425704 ], [ 83.4511139, 18.6495374 ], [ 83.4488752, 18.6494372 ], [ 83.4520917, 18.6352242 ], [ 83.4477822, 18.6370139 ], [ 83.4441317, 18.6363139 ], [ 83.4435477, 18.618656 ], [ 83.430978, 18.6087479 ], [ 83.4280565, 18.6072674 ], [ 83.4264862, 18.6094191 ], [ 83.4267506, 18.6121988 ], [ 83.4136981, 18.6174819 ], [ 83.4148512, 18.6242435 ], [ 83.4016732, 18.6202066 ], [ 83.3983532, 18.6181143 ], [ 83.3945663, 18.6132948 ], [ 83.3898161, 18.6125275 ], [ 83.3885887, 18.6077186 ], [ 83.3818704, 18.6103752 ], [ 83.3779343, 18.6149869 ], [ 83.3730378, 18.6152332 ], [ 83.3698432, 18.6048841 ], [ 83.3721258, 18.6041442 ], [ 83.3749967, 18.6050591 ], [ 83.3778872, 18.5973454 ], [ 83.3706288, 18.5961218 ], [ 83.3649402, 18.5969162 ], [ 83.3591512, 18.5928095 ], [ 83.3585828, 18.5966982 ], [ 83.3560672, 18.5973823 ], [ 83.3525593, 18.6050693 ], [ 83.3529717, 18.6063696 ], [ 83.3427036, 18.609673 ], [ 83.346341, 18.6179835 ], [ 83.3438955, 18.6221952 ], [ 83.3461266, 18.6250482 ], [ 83.3417712, 18.6266691 ], [ 83.3424243, 18.6324573 ], [ 83.3384492, 18.6331966 ], [ 83.3374486, 18.6373935 ], [ 83.339218, 18.6404334 ], [ 83.3393071, 18.6446042 ], [ 83.3243336, 18.6441945 ], [ 83.3158887, 18.6416488 ], [ 83.3086906, 18.635481 ], [ 83.3085821, 18.6312355 ], [ 83.3059943, 18.6318793 ], [ 83.2890877, 18.6195031 ], [ 83.2873952, 18.6204559 ], [ 83.2880617, 18.6263026 ], [ 83.2862304, 18.627822 ], [ 83.2778249, 18.6259519 ], [ 83.2743535, 18.6197889 ], [ 83.2673876, 18.6138019 ], [ 83.2568116, 18.5991275 ], [ 83.2567169, 18.5967838 ], [ 83.2524634, 18.5942088 ], [ 83.2486995, 18.5887041 ], [ 83.247377, 18.5902281 ], [ 83.2462828, 18.5891526 ], [ 83.2458388, 18.5903235 ], [ 83.2433904, 18.5889209 ], [ 83.2441223, 18.5869334 ], [ 83.248155, 18.5853721 ], [ 83.2555565, 18.5860815 ], [ 83.2562896, 18.57357 ], [ 83.2575987, 18.5723332 ], [ 83.2663062, 18.5726232 ], [ 83.2629484, 18.5676964 ], [ 83.2639554, 18.562528 ], [ 83.2624465, 18.5553317 ], [ 83.2602908, 18.5536469 ], [ 83.2645921, 18.543258 ], [ 83.2663499, 18.5416132 ], [ 83.2593901, 18.5402028 ], [ 83.25877, 18.5301775 ], [ 83.2571802, 18.5288135 ], [ 83.2472855, 18.5255076 ], [ 83.2289019, 18.5218584 ], [ 83.2250447, 18.5184273 ], [ 83.2237414, 18.5126625 ], [ 83.21773, 18.5018812 ], [ 83.2128655, 18.4880827 ], [ 83.2180344, 18.4755409 ], [ 83.2188173, 18.4708679 ], [ 83.2175787, 18.4674727 ], [ 83.2127863, 18.4666436 ], [ 83.2100434, 18.4675701 ], [ 83.2079806, 18.4700864 ], [ 83.2058995, 18.4783948 ], [ 83.1988598, 18.4763193 ], [ 83.195446, 18.4727594 ], [ 83.195953, 18.4672493 ], [ 83.1906955, 18.4590132 ], [ 83.1901137, 18.4539815 ], [ 83.1977214, 18.4438219 ], [ 83.2032064, 18.442791 ], [ 83.2058069, 18.4398486 ], [ 83.2066296, 18.4364721 ], [ 83.2049258, 18.429488 ], [ 83.2052473, 18.4240608 ], [ 83.2097213, 18.4216502 ], [ 83.2042919, 18.4150675 ], [ 83.2024482, 18.4095328 ], [ 83.2029292, 18.4066382 ], [ 83.1918234, 18.3957653 ], [ 83.1807026, 18.3911195 ], [ 83.1783523, 18.386671 ], [ 83.1850252, 18.386039 ], [ 83.1968832, 18.3872616 ], [ 83.1984684, 18.3869 ], [ 83.197793, 18.3847491 ], [ 83.1893581, 18.3780543 ], [ 83.1824303, 18.3752843 ], [ 83.1822808, 18.3721865 ], [ 83.1769076, 18.3736316 ], [ 83.1730207, 18.3730256 ], [ 83.1617684, 18.3617372 ], [ 83.1570804, 18.3463686 ], [ 83.1511178, 18.3411208 ], [ 83.1323915, 18.350001 ], [ 83.1225389, 18.3507923 ], [ 83.1118896, 18.34867 ], [ 83.1098879, 18.3502538 ], [ 83.1106599, 18.3527122 ], [ 83.105876, 18.3537808 ], [ 83.1045319, 18.3575838 ], [ 83.0938619, 18.3531132 ], [ 83.0915396, 18.3425478 ], [ 83.0880008, 18.3447453 ], [ 83.0791502, 18.3467123 ], [ 83.0774515, 18.352065 ], [ 83.0787412, 18.3539207 ], [ 83.0740201, 18.3631139 ], [ 83.0750133, 18.3709396 ], [ 83.0798357, 18.3786421 ], [ 83.0955165, 18.3939939 ], [ 83.1035817, 18.4131519 ], [ 83.0865911, 18.4121871 ], [ 83.0851824, 18.4073769 ], [ 83.077885, 18.4032106 ], [ 83.076844, 18.4054027 ], [ 83.0642538, 18.4094062 ], [ 83.0574357, 18.419372 ], [ 83.0655043, 18.4229926 ], [ 83.0673116, 18.4300914 ], [ 83.063398, 18.4320672 ], [ 83.0599828, 18.4369598 ], [ 83.0585645, 18.4366816 ], [ 83.0507967, 18.4341324 ], [ 83.045976, 18.4266684 ], [ 83.0425304, 18.4242258 ], [ 83.0431257, 18.4259619 ], [ 83.037759, 18.4345439 ], [ 83.0409372, 18.4407925 ], [ 83.0366767, 18.4427038 ], [ 83.0357183, 18.4457042 ], [ 83.0330966, 18.4477954 ], [ 83.0272472, 18.4473532 ], [ 83.0246143, 18.4484565 ], [ 83.0209477, 18.456242 ], [ 83.0307306, 18.4662731 ], [ 83.0376547, 18.4686152 ], [ 83.0551102, 18.4856085 ], [ 83.0561067, 18.4897757 ], [ 83.0552064, 18.4956572 ], [ 83.057971, 18.4968422 ], [ 83.060476, 18.5020453 ], [ 83.0640059, 18.5022822 ], [ 83.0750664, 18.5145686 ], [ 83.0770101, 18.5261461 ], [ 83.08192, 18.5308302 ], [ 83.0836415, 18.5310551 ], [ 83.0892721, 18.5389061 ], [ 83.0935262, 18.5398391 ], [ 83.0950392, 18.5466424 ], [ 83.0895145, 18.5529862 ], [ 83.0838062, 18.5516583 ], [ 83.0809415, 18.5540249 ], [ 83.0788469, 18.550394 ], [ 83.0712387, 18.549755 ], [ 83.0621557, 18.5422394 ], [ 83.0584041, 18.5421448 ], [ 83.0544699, 18.544045 ], [ 83.0453542, 18.5441837 ], [ 83.0454364, 18.5459217 ], [ 83.0431733, 18.5471476 ], [ 83.038433, 18.5558745 ], [ 83.0331465, 18.5697901 ], [ 83.0299963, 18.573338 ], [ 83.0309975, 18.5775008 ], [ 83.0376609, 18.5810242 ], [ 83.0400751, 18.5864814 ], [ 83.0426194, 18.5873301 ], [ 83.0479575, 18.5865315 ], [ 83.0504783, 18.5881977 ], [ 83.0530968, 18.5881286 ], [ 83.0527925, 18.6006838 ], [ 83.0467204, 18.5987535 ], [ 83.0444363, 18.5994739 ], [ 83.0275857, 18.5925738 ], [ 83.0237902, 18.5896472 ], [ 83.0188001, 18.5934677 ], [ 83.0135621, 18.5943639 ], [ 83.0126925, 18.5993643 ], [ 83.0150077, 18.6020856 ], [ 83.0152135, 18.6054382 ], [ 83.0004701, 18.6079849 ], [ 82.9995744, 18.6195316 ], [ 83.0057537, 18.6216881 ], [ 83.0089035, 18.6268532 ], [ 83.0157577, 18.6331666 ], [ 83.0196328, 18.6351216 ], [ 83.0131284, 18.6460542 ], [ 83.0170157, 18.650222 ], [ 83.0226426, 18.651223 ], [ 83.0249975, 18.6544135 ], [ 83.0442273, 18.6584419 ], [ 83.0580236, 18.6653147 ], [ 83.0627849, 18.6836317 ], [ 83.0750137, 18.7012563 ], [ 83.0713687, 18.7016353 ], [ 83.0727908, 18.70554 ], [ 83.0815952, 18.7146652 ], [ 83.0917358, 18.7225015 ], [ 83.0942012, 18.7260013 ], [ 83.0954578, 18.7314163 ], [ 83.1016938, 18.7327465 ], [ 83.1076074, 18.7470561 ], [ 83.11242, 18.7528099 ], [ 83.1192905, 18.7570364 ], [ 83.1222073, 18.7575001 ], [ 83.1236342, 18.7605235 ], [ 83.1211404, 18.7658362 ], [ 83.115147, 18.7680946 ], [ 83.1390297, 18.7853646 ], [ 83.1518143, 18.7760719 ], [ 83.1522788, 18.7726928 ], [ 83.1564798, 18.7682319 ], [ 83.1641532, 18.7668967 ], [ 83.1650517, 18.7689367 ], [ 83.1779074, 18.7708603 ], [ 83.1931871, 18.7531222 ], [ 83.2065479, 18.7514384 ], [ 83.2080062, 18.749118 ], [ 83.2073652, 18.7457564 ], [ 83.2126913, 18.7375776 ], [ 83.211375, 18.7322277 ], [ 83.2124521, 18.7304855 ], [ 83.214637, 18.7333681 ], [ 83.2174125, 18.7444543 ], [ 83.2199417, 18.7475404 ], [ 83.2253664, 18.7509128 ], [ 83.2277178, 18.7552386 ], [ 83.2281304, 18.7610189 ], [ 83.2238071, 18.7679351 ], [ 83.2223486, 18.7727667 ], [ 83.2246075, 18.7750882 ], [ 83.2345983, 18.7740612 ], [ 83.2380843, 18.7727188 ], [ 83.2432458, 18.7682763 ], [ 83.2511487, 18.7685967 ], [ 83.253387, 18.7675626 ], [ 83.2625525, 18.7697551 ], [ 83.2640922, 18.7678938 ], [ 83.2713546, 18.7646354 ], [ 83.2813737, 18.7746024 ], [ 83.275274, 18.782905 ], [ 83.2800522, 18.7926647 ], [ 83.2843379, 18.7978782 ], [ 83.2978662, 18.8016996 ], [ 83.309306, 18.809502 ], [ 83.3194035, 18.804766 ], [ 83.3306163, 18.8063467 ], [ 83.32814, 18.8121265 ], [ 83.3282457, 18.8180818 ], [ 83.3379642, 18.8243638 ], [ 83.3477672, 18.8271127 ], [ 83.3493408, 18.8301274 ], [ 83.358675, 18.8349319 ], [ 83.363938, 18.8422756 ], [ 83.3681509, 18.84406 ], [ 83.3704447, 18.8429109 ], [ 83.3717371, 18.8390245 ], [ 83.3751854, 18.8363522 ], [ 83.3783257, 18.8306629 ], [ 83.4041297, 18.8429893 ], [ 83.4058826, 18.8425152 ], [ 83.4043656, 18.8475607 ], [ 83.4048736, 18.8619052 ], [ 83.4122938, 18.8702988 ], [ 83.4147514, 18.8749632 ], [ 83.4102356, 18.8743173 ], [ 83.4070314, 18.8771496 ], [ 83.4020194, 18.8769751 ], [ 83.3974163, 18.8785292 ], [ 83.391834, 18.8822859 ], [ 83.3912728, 18.8871973 ], [ 83.3819154, 18.8917564 ], [ 83.3817252, 18.8937367 ], [ 83.378331, 18.896955 ], [ 83.3846487, 18.9038553 ], [ 83.3931775, 18.9073807 ], [ 83.3906091, 18.9096085 ], [ 83.3850344, 18.9133154 ], [ 83.3818113, 18.9138896 ], [ 83.3768426, 18.9098123 ], [ 83.3697171, 18.9078759 ], [ 83.362393, 18.9147565 ], [ 83.3598253, 18.9147124 ], [ 83.3617033, 18.915989 ], [ 83.3591391, 18.9168752 ], [ 83.3574918, 18.9239182 ], [ 83.3534333, 18.9306035 ], [ 83.352484, 18.9434631 ], [ 83.3609752, 18.9408309 ], [ 83.370147, 18.9417163 ], [ 83.3691871, 18.9298566 ], [ 83.3706043, 18.9260362 ], [ 83.3773508, 18.9256112 ], [ 83.3820154, 18.9272898 ], [ 83.3873778, 18.9329785 ], [ 83.3830254, 18.9369406 ], [ 83.3712754, 18.9426502 ], [ 83.368379, 18.953304 ], [ 83.3658436, 18.9569354 ], [ 83.3684013, 18.9605922 ], [ 83.3671254, 18.9630064 ], [ 83.3615363, 18.96315 ], [ 83.354736, 18.9672963 ], [ 83.3509174, 18.9667939 ], [ 83.3482836, 18.9603831 ], [ 83.3508639, 18.9473989 ], [ 83.3501701, 18.9432668 ], [ 83.3438472, 18.9411249 ], [ 83.3484377, 18.9262864 ], [ 83.3352219, 18.924927 ], [ 83.3334223, 18.9262095 ], [ 83.3339183, 18.9287818 ], [ 83.326498, 18.931982 ], [ 83.324861, 18.9374848 ], [ 83.3271097, 18.9446189 ], [ 83.3378352, 18.9462948 ], [ 83.3390171, 18.9527782 ], [ 83.3337409, 18.9549356 ], [ 83.3325166, 18.9576741 ], [ 83.3348224, 18.9685238 ], [ 83.3314839, 18.9690808 ], [ 83.3283037, 18.9670344 ], [ 83.3221415, 18.9700381 ], [ 83.318742, 18.9734089 ], [ 83.3176031, 18.9802874 ], [ 83.315232, 18.9831981 ], [ 83.315904, 18.9871729 ], [ 83.3103342, 18.9956782 ], [ 83.3106462, 18.9986729 ], [ 83.3166544, 19.0012622 ], [ 83.3223746, 18.9995104 ], [ 83.3272145, 19.002403 ], [ 83.3312593, 18.9989877 ], [ 83.335811, 18.9986394 ], [ 83.3387848, 18.9970051 ], [ 83.3364868, 19.0027792 ], [ 83.3369494, 19.0059697 ], [ 83.3400282, 19.0088479 ], [ 83.3429215, 19.0181366 ], [ 83.3479535, 19.017061 ], [ 83.3478407, 19.0178627 ], [ 83.3480179, 19.01692 ], [ 83.3504666, 19.0185236 ], [ 83.3536764, 19.017855 ], [ 83.3580517, 19.0193797 ], [ 83.3639248, 19.016681 ], [ 83.3674781, 19.016482 ], [ 83.3660548, 19.0128694 ], [ 83.3669547, 19.0117155 ], [ 83.3652856, 19.0101789 ], [ 83.3670305, 19.0093528 ], [ 83.3659249, 19.0083871 ], [ 83.3666189, 19.0060977 ], [ 83.3726129, 19.0022592 ], [ 83.3759694, 19.0029387 ], [ 83.376818, 19.0018529 ], [ 83.384635, 19.0013775 ], [ 83.3946937, 19.0059619 ], [ 83.3959794, 19.0095442 ], [ 83.3984661, 19.0084734 ], [ 83.4004733, 19.0093956 ], [ 83.4020094, 19.0062779 ], [ 83.4042179, 19.0066737 ], [ 83.4043021, 19.0046044 ], [ 83.4095536, 19.0043283 ], [ 83.411275, 19.0002553 ], [ 83.4140969, 19.0036775 ], [ 83.4158408, 19.0005028 ], [ 83.4170643, 19.0020583 ], [ 83.4196068, 19.0002638 ], [ 83.4199907, 18.9979287 ], [ 83.4188369, 18.9975962 ], [ 83.4153213, 18.9891797 ], [ 83.4196421, 18.9889336 ], [ 83.4263592, 18.9850074 ], [ 83.4291977, 18.980423 ], [ 83.4350979, 18.9758568 ], [ 83.4388838, 18.976385 ], [ 83.4403283, 18.9716156 ], [ 83.4458051, 18.9657982 ], [ 83.4435381, 18.9609525 ], [ 83.4458599, 18.9577609 ], [ 83.4618291, 18.9547814 ], [ 83.461297, 18.9560438 ], [ 83.4631651, 18.955599 ], [ 83.4626653, 18.957439 ], [ 83.4647361, 18.9627126 ], [ 83.465988, 18.9645835 ], [ 83.4678292, 18.9645544 ], [ 83.4698121, 18.9693235 ], [ 83.4685556, 18.9803672 ], [ 83.4653628, 18.9791815 ], [ 83.4641849, 18.9801049 ], [ 83.4678354, 18.9910831 ], [ 83.4659968, 18.9935505 ], [ 83.4552733, 18.9912638 ], [ 83.4553122, 18.996831 ], [ 83.450659, 19.004533 ], [ 83.4499722, 19.0095092 ], [ 83.4515666, 19.0097771 ], [ 83.4522488, 19.0125903 ], [ 83.4615217, 19.0123405 ], [ 83.4715914, 19.0072255 ], [ 83.4796802, 19.0084672 ], [ 83.4813688, 19.0097445 ], [ 83.4806796, 19.0108742 ], [ 83.4825082, 19.0150942 ], [ 83.4795847, 19.0177118 ], [ 83.4793984, 19.0221169 ], [ 83.4833475, 19.0335467 ], [ 83.4707234, 19.0429096 ], [ 83.4709269, 19.048637 ], [ 83.4678275, 19.0551447 ], [ 83.469517, 19.0576462 ], [ 83.4691977, 19.0610958 ], [ 83.4678225, 19.0631553 ], [ 83.4622943, 19.0637665 ], [ 83.4637347, 19.0696535 ], [ 83.4652033, 19.0710111 ], [ 83.4649515, 19.074523 ], [ 83.4630968, 19.0759657 ], [ 83.4662705, 19.0799014 ], [ 83.4703587, 19.0801447 ], [ 83.4729866, 19.0770479 ], [ 83.478372, 19.0792739 ], [ 83.4764986, 19.0854353 ], [ 83.47351, 19.0870337 ], [ 83.4729967, 19.0857265 ], [ 83.470995, 19.0868642 ], [ 83.4697145, 19.0857164 ], [ 83.4672599, 19.0876909 ], [ 83.4687287, 19.0919339 ], [ 83.4679767, 19.093118 ], [ 83.4736563, 19.0952724 ], [ 83.4833958, 19.0922559 ], [ 83.4863131, 19.0875399 ], [ 83.4818315, 19.0851337 ], [ 83.4824241, 19.0810278 ], [ 83.4808399, 19.0785048 ], [ 83.4867229, 19.0736526 ], [ 83.4888366, 19.0733531 ], [ 83.5006072, 19.0606496 ], [ 83.5017846, 19.0658945 ], [ 83.505548, 19.0660465 ], [ 83.5117148, 19.0703154 ], [ 83.5112003, 19.0667508 ], [ 83.5130417, 19.060684 ], [ 83.5167957, 19.0570796 ], [ 83.5147862, 19.0497738 ], [ 83.5131317, 19.0483785 ], [ 83.5193017, 19.039065 ], [ 83.514821, 19.0284563 ], [ 83.5084705, 19.0355371 ], [ 83.4964664, 19.0354694 ], [ 83.4974733, 19.0345392 ], [ 83.4954581, 19.0318526 ], [ 83.5009358, 19.0206616 ], [ 83.5037791, 19.0187266 ], [ 83.5162427, 19.0166066 ], [ 83.522493, 19.0120737 ], [ 83.5247375, 19.0145175 ], [ 83.5259085, 19.0128398 ], [ 83.5345666, 19.0130915 ], [ 83.5367052, 19.0094951 ], [ 83.538814, 19.0223754 ], [ 83.5414876, 19.0296083 ], [ 83.539842, 19.033469 ], [ 83.5417349, 19.0414846 ], [ 83.5468827, 19.0437165 ], [ 83.5516778, 19.0545502 ], [ 83.5575674, 19.0562024 ], [ 83.5554116, 19.0580609 ], [ 83.5556117, 19.0633636 ], [ 83.5485348, 19.0778698 ], [ 83.5490455, 19.0805177 ], [ 83.5544426, 19.086534 ], [ 83.5601738, 19.0870685 ], [ 83.5646888, 19.0792576 ], [ 83.5669997, 19.0717391 ], [ 83.5638104, 19.0706366 ], [ 83.5603493, 19.064499 ], [ 83.5634192, 19.0578505 ], [ 83.5670975, 19.0598989 ], [ 83.5749651, 19.0613966 ], [ 83.5797717, 19.0605437 ], [ 83.5844551, 19.0575659 ], [ 83.5840539, 19.0650757 ], [ 83.5870218, 19.0693596 ], [ 83.5847134, 19.0837096 ], [ 83.5855886, 19.0865554 ], [ 83.5929503, 19.0926738 ], [ 83.6011923, 19.0949144 ], [ 83.6030746, 19.0925896 ], [ 83.6106142, 19.0960633 ], [ 83.6089562, 19.1020964 ], [ 83.6034138, 19.1121308 ], [ 83.5978086, 19.1188065 ], [ 83.5988933, 19.1295281 ], [ 83.6016522, 19.1355258 ], [ 83.6047047, 19.1359927 ], [ 83.6079694, 19.1396894 ], [ 83.6159611, 19.1370519 ], [ 83.6187602, 19.1413239 ], [ 83.6208038, 19.1416786 ], [ 83.6222929, 19.1478203 ], [ 83.6274734, 19.1506495 ], [ 83.6277871, 19.1566545 ], [ 83.6260341, 19.1626664 ], [ 83.6339225, 19.1594562 ], [ 83.6373691, 19.153009 ] ] ] } }
]
}
