{
"type": "FeatureCollection",
"name": "2830",
"crs": { "type": "name", "properties": { "name": "urn:ogc:def:crs:OGC:1.3:CRS84" } },
"features": [
{ "type": "Feature", "properties": { "code": "2830", "name": "Asr", "type": "district" }, "geometry": { "type": "MultiPolygon", "coordinates": [ [ [ [ 82.3804237, 17.6642212 ], [ 82.3859062, 17.663106 ], [ 82.3860673, 17.6641708 ], [ 82.3927138, 17.6634914 ], [ 82.3905265, 17.6578744 ], [ 82.3855578, 17.6543421 ], [ 82.3807082, 17.6565911 ], [ 82.3783128, 17.6556221 ], [ 82.378354, 17.6619014 ], [ 82.3804237, 17.6642212 ] ] ], [ [ [ 82.4935039, 18.5436361 ], [ 82.4923367, 18.5417931 ], [ 82.4840043, 18.5433181 ], [ 82.4813379, 18.5406101 ], [ 82.4839458, 18.5354529 ], [ 82.4875919, 18.5326051 ], [ 82.4859436, 18.5287733 ], [ 82.4868374, 18.527524 ], [ 82.4940532, 18.524553 ], [ 82.5050999, 18.513451 ], [ 82.5109659, 18.5175966 ], [ 82.5152041, 18.5181004 ], [ 82.5259717, 18.5163241 ], [ 82.5321612, 18.5109882 ], [ 82.5310663, 18.5087383 ], [ 82.5269778, 18.5058799 ], [ 82.52966, 18.5013044 ], [ 82.526495, 18.496288 ], [ 82.5278891, 18.4938552 ], [ 82.5319914, 18.4924306 ], [ 82.5332662, 18.4882819 ], [ 82.5282953, 18.4830499 ], [ 82.5278527, 18.4806545 ], [ 82.5318947, 18.4804908 ], [ 82.5341902, 18.4777344 ], [ 82.5308436, 18.4730314 ], [ 82.524767, 18.4716978 ], [ 82.5236779, 18.4695563 ], [ 82.5194533, 18.4672184 ], [ 82.51942, 18.4655967 ], [ 82.5238897, 18.4634872 ], [ 82.5283367, 18.4642058 ], [ 82.5273922, 18.4596639 ], [ 82.5332537, 18.4586589 ], [ 82.5372635, 18.4464284 ], [ 82.5395579, 18.4436042 ], [ 82.5444663, 18.4493833 ], [ 82.5413372, 18.4541569 ], [ 82.5423719, 18.4576272 ], [ 82.5487597, 18.4530528 ], [ 82.5525788, 18.4550365 ], [ 82.5548226, 18.454485 ], [ 82.5565889, 18.4498172 ], [ 82.5613959, 18.4484901 ], [ 82.5609542, 18.4451778 ], [ 82.5565177, 18.4429688 ], [ 82.5581541, 18.439662 ], [ 82.5505802, 18.4332952 ], [ 82.5520051, 18.4285671 ], [ 82.5457382, 18.4275204 ], [ 82.5456216, 18.4224026 ], [ 82.5414142, 18.4219082 ], [ 82.5432986, 18.4140229 ], [ 82.5471914, 18.4142895 ], [ 82.5470865, 18.4126051 ], [ 82.5354086, 18.4070526 ], [ 82.5355286, 18.4061706 ], [ 82.5408827, 18.3994273 ], [ 82.552175, 18.3979079 ], [ 82.555331, 18.3936263 ], [ 82.557113, 18.3965483 ], [ 82.562425, 18.3999563 ], [ 82.5710045, 18.3946676 ], [ 82.5758265, 18.3962269 ], [ 82.5838746, 18.386727 ], [ 82.5886327, 18.3916297 ], [ 82.5927256, 18.3890024 ], [ 82.5947956, 18.3892289 ], [ 82.5964415, 18.3829671 ], [ 82.5995163, 18.3797879 ], [ 82.6015188, 18.3793691 ], [ 82.6042719, 18.3823501 ], [ 82.605291, 18.3820298 ], [ 82.6061218, 18.3756709 ], [ 82.6032169, 18.3726505 ], [ 82.605729, 18.3700541 ], [ 82.6059854, 18.3660583 ], [ 82.6212275, 18.3597083 ], [ 82.6212266, 18.3580819 ], [ 82.6145221, 18.3509106 ], [ 82.6020447, 18.3522763 ], [ 82.60288, 18.3443543 ], [ 82.6085362, 18.3400419 ], [ 82.6111976, 18.3337126 ], [ 82.6089417, 18.3271268 ], [ 82.6012526, 18.3253437 ], [ 82.5948847, 18.3288758 ], [ 82.5884739, 18.3178788 ], [ 82.5838932, 18.3197557 ], [ 82.5813067, 18.3151689 ], [ 82.5851669, 18.3084641 ], [ 82.5918015, 18.3088246 ], [ 82.5932292, 18.310805 ], [ 82.5960624, 18.3102844 ], [ 82.5964666, 18.3063867 ], [ 82.5986552, 18.3041863 ], [ 82.5946654, 18.2982155 ], [ 82.5956553, 18.2963008 ], [ 82.595203, 18.291841 ], [ 82.5910221, 18.2897751 ], [ 82.5941889, 18.2869703 ], [ 82.5940641, 18.2847035 ], [ 82.5921516, 18.2803461 ], [ 82.5880462, 18.280299 ], [ 82.5877853, 18.2760634 ], [ 82.5926356, 18.2742928 ], [ 82.5967834, 18.2743711 ], [ 82.5969134, 18.2647925 ], [ 82.6012935, 18.2638975 ], [ 82.6042184, 18.2646862 ], [ 82.6072097, 18.2614037 ], [ 82.6138495, 18.2584248 ], [ 82.617201, 18.2557536 ], [ 82.6199957, 18.2496581 ], [ 82.6235346, 18.2463212 ], [ 82.6275515, 18.244584 ], [ 82.6315899, 18.2395755 ], [ 82.6373227, 18.2368115 ], [ 82.6486333, 18.2449954 ], [ 82.6524867, 18.2499994 ], [ 82.65095, 18.2509976 ], [ 82.6496574, 18.2578213 ], [ 82.6471172, 18.2622253 ], [ 82.6422801, 18.2637668 ], [ 82.6427885, 18.2715509 ], [ 82.6485369, 18.2728658 ], [ 82.6522424, 18.2811418 ], [ 82.6438231, 18.288009 ], [ 82.6407177, 18.2962262 ], [ 82.6426499, 18.302033 ], [ 82.6511901, 18.3018599 ], [ 82.654937, 18.296989 ], [ 82.6574207, 18.2960685 ], [ 82.6622518, 18.2982989 ], [ 82.6667659, 18.2980292 ], [ 82.6690965, 18.2989034 ], [ 82.6736051, 18.3049672 ], [ 82.6763212, 18.3065606 ], [ 82.6801827, 18.3033463 ], [ 82.6844181, 18.303589 ], [ 82.691949, 18.3076425 ], [ 82.6945151, 18.3122819 ], [ 82.7016648, 18.3106372 ], [ 82.7093756, 18.3131795 ], [ 82.7085598, 18.3158431 ], [ 82.714738, 18.3223892 ], [ 82.723126, 18.3232879 ], [ 82.7249073, 18.3245323 ], [ 82.7267046, 18.3226095 ], [ 82.7342726, 18.3202416 ], [ 82.7360466, 18.323112 ], [ 82.7409797, 18.3226064 ], [ 82.7383081, 18.3269539 ], [ 82.7428701, 18.3299887 ], [ 82.7478454, 18.3289674 ], [ 82.7506369, 18.330916 ], [ 82.7551754, 18.330192 ], [ 82.7562995, 18.3333078 ], [ 82.7591922, 18.3340266 ], [ 82.7580981, 18.3376279 ], [ 82.7596886, 18.3396146 ], [ 82.7633003, 18.3389125 ], [ 82.764824, 18.3361564 ], [ 82.7684478, 18.3380563 ], [ 82.7711156, 18.3375797 ], [ 82.7714671, 18.3391078 ], [ 82.7740858, 18.3403167 ], [ 82.774123, 18.3444272 ], [ 82.7763908, 18.3492352 ], [ 82.7839375, 18.35534 ], [ 82.7905564, 18.3631878 ], [ 82.7887575, 18.3718013 ], [ 82.7847771, 18.3804081 ], [ 82.782649, 18.3818918 ], [ 82.7938629, 18.3860235 ], [ 82.7940868, 18.388917 ], [ 82.7914645, 18.3961425 ], [ 82.7938858, 18.399205 ], [ 82.7938323, 18.4013512 ], [ 82.7995384, 18.4067498 ], [ 82.7954929, 18.4090873 ], [ 82.7868829, 18.4107134 ], [ 82.7878365, 18.4169023 ], [ 82.7865571, 18.4181204 ], [ 82.7874339, 18.4191737 ], [ 82.782893, 18.4226089 ], [ 82.7821633, 18.4307878 ], [ 82.7953755, 18.4397115 ], [ 82.7976258, 18.4435569 ], [ 82.8021835, 18.4466984 ], [ 82.8031426, 18.449246 ], [ 82.8156371, 18.4509022 ], [ 82.8232193, 18.4472562 ], [ 82.8238044, 18.4435013 ], [ 82.8312226, 18.4422914 ], [ 82.8359522, 18.4392869 ], [ 82.8363785, 18.437092 ], [ 82.8455818, 18.4337729 ], [ 82.8473402, 18.4309099 ], [ 82.8486264, 18.423724 ], [ 82.8524161, 18.4192015 ], [ 82.8538427, 18.4229324 ], [ 82.8564108, 18.4254369 ], [ 82.8591364, 18.4232014 ], [ 82.8712951, 18.4184563 ], [ 82.8763978, 18.4216266 ], [ 82.8815602, 18.4206812 ], [ 82.8911649, 18.4239646 ], [ 82.8949997, 18.4241026 ], [ 82.8977789, 18.4034993 ], [ 82.893176, 18.3932281 ], [ 82.8907188, 18.390497 ], [ 82.8934109, 18.38701 ], [ 82.8941937, 18.3815681 ], [ 82.9019227, 18.3740693 ], [ 82.9108853, 18.3729451 ], [ 82.9130832, 18.3684782 ], [ 82.917861, 18.3752827 ], [ 82.9221962, 18.3754241 ], [ 82.926028, 18.3681399 ], [ 82.9417864, 18.3605312 ], [ 82.9537335, 18.3615744 ], [ 82.9601082, 18.3664098 ], [ 82.9669917, 18.3589264 ], [ 82.9704715, 18.3600061 ], [ 82.9831754, 18.366442 ], [ 82.982187, 18.3681191 ], [ 82.9876949, 18.3785544 ], [ 82.990273, 18.3806008 ], [ 82.9917017, 18.3785306 ], [ 82.9925816, 18.3789279 ], [ 82.9968255, 18.3855233 ], [ 82.9981738, 18.3859337 ], [ 83.0012359, 18.3831462 ], [ 83.0052766, 18.3827603 ], [ 83.0103296, 18.386045 ], [ 83.0117932, 18.3886449 ], [ 83.0159808, 18.3870467 ], [ 83.0219207, 18.3917038 ], [ 83.0257918, 18.3869289 ], [ 83.0295055, 18.3860944 ], [ 83.032219, 18.3834952 ], [ 83.0392299, 18.3834518 ], [ 83.0430754, 18.3793725 ], [ 83.0544888, 18.3799858 ], [ 83.077052, 18.4034696 ], [ 83.0844255, 18.4065991 ], [ 83.0865911, 18.4121871 ], [ 83.1035817, 18.4131519 ], [ 83.0955165, 18.3939939 ], [ 83.0798357, 18.3786421 ], [ 83.0750133, 18.3709396 ], [ 83.0740201, 18.3631139 ], [ 83.0787412, 18.3539207 ], [ 83.0774515, 18.352065 ], [ 83.078996, 18.346854 ], [ 83.0880008, 18.3447453 ], [ 83.0915396, 18.3425478 ], [ 83.0938619, 18.3531132 ], [ 83.1045319, 18.3575838 ], [ 83.105876, 18.3537808 ], [ 83.1106599, 18.3527122 ], [ 83.1098879, 18.3502538 ], [ 83.1118896, 18.34867 ], [ 83.1225389, 18.3507923 ], [ 83.1331267, 18.3497715 ], [ 83.1511178, 18.3411208 ], [ 83.1492309, 18.3357336 ], [ 83.1485098, 18.3271511 ], [ 83.1515018, 18.3255102 ], [ 83.1541311, 18.3274178 ], [ 83.1574908, 18.3264045 ], [ 83.1579068, 18.3294704 ], [ 83.1613551, 18.3287449 ], [ 83.162123, 18.3279548 ], [ 83.1589869, 18.3230729 ], [ 83.1658639, 18.3168935 ], [ 83.1652644, 18.3141818 ], [ 83.1679276, 18.313605 ], [ 83.1741965, 18.3147472 ], [ 83.1767264, 18.3209456 ], [ 83.184246, 18.3238234 ], [ 83.1905328, 18.3299452 ], [ 83.2125093, 18.3351855 ], [ 83.2186506, 18.3341173 ], [ 83.2209034, 18.3313586 ], [ 83.2187009, 18.321463 ], [ 83.2124745, 18.3143859 ], [ 83.2101807, 18.3084364 ], [ 83.2113795, 18.2910964 ], [ 83.2104287, 18.2863151 ], [ 83.2128013, 18.2851399 ], [ 83.2191482, 18.2856526 ], [ 83.2214406, 18.2829005 ], [ 83.2252224, 18.2817452 ], [ 83.2273585, 18.2831604 ], [ 83.22826, 18.2882071 ], [ 83.2294651, 18.288536 ], [ 83.2493623, 18.2776217 ], [ 83.2493281, 18.2795609 ], [ 83.2588009, 18.2766688 ], [ 83.2613545, 18.2725821 ], [ 83.2579692, 18.2509146 ], [ 83.2606345, 18.2375895 ], [ 83.2635683, 18.2350073 ], [ 83.2646951, 18.2310743 ], [ 83.2649449, 18.2209297 ], [ 83.2668734, 18.2165522 ], [ 83.2655388, 18.2154802 ], [ 83.2642304, 18.2172688 ], [ 83.2599778, 18.2182049 ], [ 83.2529824, 18.2275509 ], [ 83.2505194, 18.2262809 ], [ 83.2463261, 18.2301935 ], [ 83.2424153, 18.2295612 ], [ 83.2376812, 18.2309233 ], [ 83.2344266, 18.2373012 ], [ 83.2323668, 18.237472 ], [ 83.2325898, 18.2236397 ], [ 83.2405754, 18.2224665 ], [ 83.2414516, 18.2026463 ], [ 83.2284559, 18.205307 ], [ 83.2263429, 18.2095008 ], [ 83.227212, 18.2134896 ], [ 83.2256869, 18.2149644 ], [ 83.2267053, 18.2184676 ], [ 83.2189552, 18.2246765 ], [ 83.218087, 18.2241406 ], [ 83.2187005, 18.2213217 ], [ 83.2215953, 18.2159203 ], [ 83.2163227, 18.2064194 ], [ 83.2151027, 18.2013098 ], [ 83.2253495, 18.1968544 ], [ 83.2253702, 18.1939969 ], [ 83.2243542, 18.1913251 ], [ 83.2214233, 18.1890166 ], [ 83.2088126, 18.1890725 ], [ 83.2085089, 18.190935 ], [ 83.1956464, 18.199454 ], [ 83.1903173, 18.197232 ], [ 83.1893832, 18.1980813 ], [ 83.1842016, 18.2067925 ], [ 83.1837448, 18.2110693 ], [ 83.1807998, 18.2161456 ], [ 83.1806459, 18.2190626 ], [ 83.1840057, 18.2231844 ], [ 83.177647, 18.2237195 ], [ 83.1742151, 18.2288192 ], [ 83.1712115, 18.2246355 ], [ 83.171519, 18.2215223 ], [ 83.1688191, 18.221913 ], [ 83.1674197, 18.2163986 ], [ 83.167929, 18.2110954 ], [ 83.1633764, 18.2094663 ], [ 83.1561547, 18.2090815 ], [ 83.1578783, 18.2001108 ], [ 83.1551085, 18.1991689 ], [ 83.1518514, 18.1999459 ], [ 83.1483396, 18.1965906 ], [ 83.1464594, 18.1970794 ], [ 83.1445761, 18.2001399 ], [ 83.143715, 18.1997528 ], [ 83.1457458, 18.1918724 ], [ 83.151647, 18.1925497 ], [ 83.1528781, 18.1905729 ], [ 83.1473955, 18.1855335 ], [ 83.1412983, 18.1867929 ], [ 83.1366005, 18.1848667 ], [ 83.1334423, 18.1810321 ], [ 83.1326998, 18.1759366 ], [ 83.1292017, 18.1786405 ], [ 83.123302, 18.1804891 ], [ 83.1174446, 18.1869243 ], [ 83.1139099, 18.1885042 ], [ 83.1043396, 18.1888739 ], [ 83.1077448, 18.1811176 ], [ 83.1127889, 18.1789183 ], [ 83.1181799, 18.1698204 ], [ 83.1135644, 18.1641051 ], [ 83.1085735, 18.1614134 ], [ 83.107473, 18.1584907 ], [ 83.1174393, 18.1564893 ], [ 83.1183826, 18.1542381 ], [ 83.1157719, 18.1527468 ], [ 83.112544, 18.1464675 ], [ 83.1114675, 18.1387788 ], [ 83.1036728, 18.1416851 ], [ 83.102115, 18.1345261 ], [ 83.1140387, 18.1256071 ], [ 83.1207167, 18.122339 ], [ 83.1217991, 18.1212772 ], [ 83.1223627, 18.1153584 ], [ 83.1176437, 18.1145258 ], [ 83.1154381, 18.1118273 ], [ 83.1064867, 18.110472 ], [ 83.1048635, 18.1113868 ], [ 83.10465, 18.1099023 ], [ 83.1077972, 18.1091408 ], [ 83.1252477, 18.1102021 ], [ 83.1286854, 18.1089034 ], [ 83.1294782, 18.1049299 ], [ 83.1273788, 18.0985463 ], [ 83.1232538, 18.0968524 ], [ 83.1143284, 18.0974046 ], [ 83.1075426, 18.0960681 ], [ 83.0995878, 18.0903343 ], [ 83.0742797, 18.085682 ], [ 83.0686084, 18.073429 ], [ 83.0635174, 18.072595 ], [ 83.0592532, 18.0735546 ], [ 83.0509652, 18.0718049 ], [ 83.0467584, 18.0719804 ], [ 83.0441997, 18.0776429 ], [ 83.0377511, 18.0785602 ], [ 83.0308817, 18.0776335 ], [ 83.026552, 18.0797684 ], [ 83.0256873, 18.0823416 ], [ 83.0327079, 18.0880081 ], [ 83.0284153, 18.0937675 ], [ 83.0258858, 18.0841743 ], [ 83.0250235, 18.0917103 ], [ 83.0025145, 18.0726788 ], [ 83.0055781, 18.054314 ], [ 83.0025825, 18.051741 ], [ 82.995999, 18.0519452 ], [ 82.9948706, 18.0479445 ], [ 82.9899111, 18.044011 ], [ 82.9897402, 18.0417212 ], [ 82.9845416, 18.0341924 ], [ 82.9837071, 18.0309837 ], [ 82.9814859, 18.030571 ], [ 82.9787784, 18.0279446 ], [ 82.976895, 18.021742 ], [ 82.978737, 18.0160885 ], [ 82.9809749, 18.0152353 ], [ 82.9771925, 18.015008 ], [ 82.9739189, 18.0120535 ], [ 82.9702921, 18.0114219 ], [ 82.9655105, 18.0072507 ], [ 82.9600686, 18.0084162 ], [ 82.9516398, 17.9962903 ], [ 82.9500142, 17.9917073 ], [ 82.9442827, 17.9878041 ], [ 82.9356466, 17.9941858 ], [ 82.9375322, 18.0029742 ], [ 82.9401673, 18.0074464 ], [ 82.9344586, 18.0099615 ], [ 82.9290506, 18.0085493 ], [ 82.9285506, 18.013943 ], [ 82.9253846, 18.0127495 ], [ 82.9184271, 18.0132487 ], [ 82.9176296, 18.0114089 ], [ 82.9145321, 18.0096267 ], [ 82.9137885, 18.0129258 ], [ 82.8870619, 18.0097633 ], [ 82.8860141, 18.0175995 ], [ 82.889263, 18.0205691 ], [ 82.890311, 18.023595 ], [ 82.8863417, 18.0254836 ], [ 82.8812914, 18.0239578 ], [ 82.8790172, 18.0203263 ], [ 82.8771656, 18.0114059 ], [ 82.8689376, 18.010001 ], [ 82.8614526, 18.003195 ], [ 82.8597313, 17.9987434 ], [ 82.8571267, 18.0033105 ], [ 82.8530836, 17.9986585 ], [ 82.8485322, 17.9992644 ], [ 82.8483514, 18.006639 ], [ 82.8455938, 18.0011869 ], [ 82.8427585, 18.0022296 ], [ 82.8408821, 18.0049614 ], [ 82.8309654, 17.9999869 ], [ 82.8183469, 17.9980669 ], [ 82.8192579, 17.9952156 ], [ 82.8171715, 17.9942139 ], [ 82.8151388, 17.9951237 ], [ 82.8147246, 17.9941508 ], [ 82.817234, 17.9913785 ], [ 82.8226783, 17.9887241 ], [ 82.8236235, 17.988324 ], [ 82.8264572, 17.9930382 ], [ 82.8330551, 17.9891614 ], [ 82.8433795, 17.9873495 ], [ 82.8443573, 17.9851574 ], [ 82.8490912, 17.9836499 ], [ 82.84827, 17.9781849 ], [ 82.8430497, 17.9777177 ], [ 82.8431729, 17.9714422 ], [ 82.8544427, 17.9659302 ], [ 82.8554342, 17.9607842 ], [ 82.849481, 17.9554976 ], [ 82.8472257, 17.9505725 ], [ 82.8463381, 17.952169 ], [ 82.8425804, 17.9519118 ], [ 82.8348717, 17.9482759 ], [ 82.8355391, 17.9464152 ], [ 82.8331719, 17.9427524 ], [ 82.8361476, 17.9419967 ], [ 82.8360182, 17.935109 ], [ 82.8240499, 17.9329883 ], [ 82.8198696, 17.9293224 ], [ 82.8169182, 17.9305207 ], [ 82.8136567, 17.9342582 ], [ 82.8103474, 17.935162 ], [ 82.8083475, 17.9321458 ], [ 82.8080967, 17.9240977 ], [ 82.798861, 17.920956 ], [ 82.7950167, 17.9225343 ], [ 82.7919313, 17.9264097 ], [ 82.7852266, 17.9297227 ], [ 82.774603, 17.9384157 ], [ 82.7788724, 17.928692 ], [ 82.7779949, 17.9251077 ], [ 82.7764525, 17.9293235 ], [ 82.7682851, 17.9368644 ], [ 82.7645863, 17.9441182 ], [ 82.7613966, 17.9464077 ], [ 82.7612241, 17.9506947 ], [ 82.753914, 17.9581441 ], [ 82.7559977, 17.9549494 ], [ 82.7532947, 17.956456 ], [ 82.7526683, 17.9516846 ], [ 82.7536486, 17.947814 ], [ 82.7509362, 17.945632 ], [ 82.7463728, 17.94634 ], [ 82.7441897, 17.9482932 ], [ 82.7310382, 17.9455196 ], [ 82.7212085, 17.951616 ], [ 82.7135006, 17.9541053 ], [ 82.713946, 17.9504709 ], [ 82.7080893, 17.9462416 ], [ 82.7164515, 17.9461008 ], [ 82.7232327, 17.9406286 ], [ 82.7249962, 17.9378889 ], [ 82.7230722, 17.9343967 ], [ 82.7249294, 17.9311814 ], [ 82.7180042, 17.9272302 ], [ 82.7125585, 17.9263103 ], [ 82.7047528, 17.9204556 ], [ 82.7048945, 17.9187726 ], [ 82.7101386, 17.9144059 ], [ 82.7077698, 17.9084226 ], [ 82.7079251, 17.9032679 ], [ 82.7043416, 17.8974423 ], [ 82.7026813, 17.8918839 ], [ 82.693849, 17.8918232 ], [ 82.6920051, 17.8945654 ], [ 82.6820877, 17.8981306 ], [ 82.6760304, 17.8978212 ], [ 82.6758579, 17.8959692 ], [ 82.6746801, 17.8958912 ], [ 82.6709883, 17.9018917 ], [ 82.6679229, 17.901898 ], [ 82.6649295, 17.8958691 ], [ 82.6721641, 17.894631 ], [ 82.6742881, 17.8925877 ], [ 82.6761642, 17.8938888 ], [ 82.6773493, 17.8908688 ], [ 82.6812625, 17.8893927 ], [ 82.6817774, 17.8911856 ], [ 82.6876491, 17.8898682 ], [ 82.6942729, 17.8826771 ], [ 82.7056183, 17.8761053 ], [ 82.7063461, 17.8740771 ], [ 82.7156175, 17.8719424 ], [ 82.7156188, 17.8670376 ], [ 82.7114886, 17.8641601 ], [ 82.6978442, 17.8640296 ], [ 82.6959287, 17.8540272 ], [ 82.693607, 17.8494536 ], [ 82.6869636, 17.8484457 ], [ 82.6837942, 17.852072 ], [ 82.6845225, 17.8543159 ], [ 82.6811561, 17.8546758 ], [ 82.6797462, 17.8560824 ], [ 82.6644828, 17.8477931 ], [ 82.6543559, 17.8446226 ], [ 82.6427342, 17.8359514 ], [ 82.6325824, 17.8321334 ], [ 82.6241392, 17.835694 ], [ 82.6222404, 17.8381901 ], [ 82.6229062, 17.840828 ], [ 82.6216542, 17.8415909 ], [ 82.6189143, 17.8384755 ], [ 82.6350344, 17.8111196 ], [ 82.6369656, 17.8016881 ], [ 82.6415107, 17.7943823 ], [ 82.6409506, 17.7919242 ], [ 82.635653, 17.7936629 ], [ 82.6314818, 17.7927175 ], [ 82.6245416, 17.7808046 ], [ 82.6201324, 17.777272 ], [ 82.6176093, 17.7802142 ], [ 82.616715, 17.7890027 ], [ 82.6150416, 17.7905626 ], [ 82.6123707, 17.7901 ], [ 82.604977, 17.7821726 ], [ 82.6026585, 17.7723701 ], [ 82.5965056, 17.7679907 ], [ 82.5877825, 17.7649506 ], [ 82.586896, 17.7665281 ], [ 82.5890245, 17.7720766 ], [ 82.5870206, 17.7730296 ], [ 82.5734881, 17.7722475 ], [ 82.5688259, 17.7733487 ], [ 82.5642216, 17.7718994 ], [ 82.5618625, 17.7674402 ], [ 82.5598195, 17.7589111 ], [ 82.5594229, 17.7525857 ], [ 82.561171, 17.7514748 ], [ 82.5609599, 17.7466622 ], [ 82.5588395, 17.7455659 ], [ 82.5531179, 17.7461228 ], [ 82.5523335, 17.7365417 ], [ 82.5500696, 17.733435 ], [ 82.5499312, 17.7305701 ], [ 82.546266, 17.726984 ], [ 82.5486221, 17.7258357 ], [ 82.5443172, 17.7169708 ], [ 82.5343618, 17.7094888 ], [ 82.5299001, 17.7090746 ], [ 82.5302115, 17.705907 ], [ 82.527306, 17.7031678 ], [ 82.5246989, 17.7023879 ], [ 82.5212292, 17.7034786 ], [ 82.5175883, 17.7003167 ], [ 82.506202, 17.6943117 ], [ 82.4989852, 17.6938143 ], [ 82.4995873, 17.6964353 ], [ 82.4971101, 17.6991168 ], [ 82.4951816, 17.7042887 ], [ 82.4956191, 17.7083445 ], [ 82.5062395, 17.7141227 ], [ 82.5100229, 17.7183 ], [ 82.5116056, 17.723136 ], [ 82.5044025, 17.7199216 ], [ 82.5006024, 17.7145728 ], [ 82.496539, 17.7185531 ], [ 82.4976154, 17.7219294 ], [ 82.4963872, 17.7226414 ], [ 82.4673285, 17.7367224 ], [ 82.4587058, 17.7377645 ], [ 82.4542315, 17.7356762 ], [ 82.4544195, 17.7270939 ], [ 82.4509252, 17.7230075 ], [ 82.4428781, 17.7258656 ], [ 82.4349118, 17.724568 ], [ 82.430533, 17.7182288 ], [ 82.4245266, 17.7143175 ], [ 82.4274098, 17.7129759 ], [ 82.4291741, 17.7101163 ], [ 82.423359, 17.6986633 ], [ 82.4014685, 17.685988 ], [ 82.3972647, 17.6818487 ], [ 82.3911175, 17.6840959 ], [ 82.3873306, 17.68167 ], [ 82.3856273, 17.6781633 ], [ 82.3801276, 17.6780942 ], [ 82.3807062, 17.6808921 ], [ 82.3733817, 17.6863094 ], [ 82.3656249, 17.6815172 ], [ 82.3602169, 17.681704 ], [ 82.3582339, 17.6750891 ], [ 82.3466497, 17.6773285 ], [ 82.348431, 17.6666842 ], [ 82.3530844, 17.6586594 ], [ 82.3419576, 17.6502611 ], [ 82.3471592, 17.6427971 ], [ 82.351477, 17.641643 ], [ 82.358745, 17.6358699 ], [ 82.3604137, 17.638283 ], [ 82.3633541, 17.6390757 ], [ 82.3736136, 17.6363404 ], [ 82.3736172, 17.6404411 ], [ 82.3761517, 17.6420877 ], [ 82.3761497, 17.6443385 ], [ 82.3793521, 17.6444104 ], [ 82.3794229, 17.6463855 ], [ 82.386529, 17.6516005 ], [ 82.3906023, 17.6479532 ], [ 82.3923545, 17.6430684 ], [ 82.3916726, 17.6378734 ], [ 82.3900058, 17.6355453 ], [ 82.3984743, 17.630407 ], [ 82.4087446, 17.6296232 ], [ 82.4176862, 17.6319494 ], [ 82.4058437, 17.6416567 ], [ 82.4138146, 17.6432944 ], [ 82.4289575, 17.653077 ], [ 82.4320462, 17.6491663 ], [ 82.4299025, 17.6431229 ], [ 82.4317542, 17.6405835 ], [ 82.431649, 17.6385047 ], [ 82.4341767, 17.636158 ], [ 82.4362182, 17.6375726 ], [ 82.4463844, 17.6390219 ], [ 82.4477546, 17.6369296 ], [ 82.4551914, 17.6351075 ], [ 82.45814, 17.6357496 ], [ 82.4627742, 17.6314165 ], [ 82.46145, 17.6230104 ], [ 82.4639852, 17.6178175 ], [ 82.4619458, 17.6117572 ], [ 82.4589625, 17.6110292 ], [ 82.4606736, 17.6071211 ], [ 82.4473901, 17.6049416 ], [ 82.4220138, 17.5978835 ], [ 82.422953, 17.5942214 ], [ 82.4021779, 17.5889053 ], [ 82.3662123, 17.5742985 ], [ 82.3609981, 17.5746203 ], [ 82.3483403, 17.5685403 ], [ 82.3508328, 17.5714349 ], [ 82.3542118, 17.5723686 ], [ 82.3565631, 17.5746906 ], [ 82.3565188, 17.575975 ], [ 82.3524175, 17.5784386 ], [ 82.3527087, 17.5808368 ], [ 82.3542479, 17.5816728 ], [ 82.3613561, 17.5806479 ], [ 82.3701212, 17.5838401 ], [ 82.3728745, 17.5857606 ], [ 82.3769311, 17.5925196 ], [ 82.3830389, 17.5967701 ], [ 82.3714261, 17.5985722 ], [ 82.3598603, 17.5913495 ], [ 82.3493193, 17.59032 ], [ 82.3411181, 17.5870131 ], [ 82.3438095, 17.5809721 ], [ 82.3418861, 17.5739221 ], [ 82.3335988, 17.5677994 ], [ 82.33395, 17.5650294 ], [ 82.3288948, 17.5556596 ], [ 82.3309098, 17.5394423 ], [ 82.3364686, 17.5311436 ], [ 82.3375272, 17.524416 ], [ 82.3326402, 17.5183183 ], [ 82.3337441, 17.5111593 ], [ 82.3302079, 17.5101378 ], [ 82.3160973, 17.5009983 ], [ 82.3123373, 17.4944307 ], [ 82.2897185, 17.4785669 ], [ 82.2867019, 17.4675377 ], [ 82.2872594, 17.4568493 ], [ 82.2849092, 17.4465153 ], [ 82.2763285, 17.4394116 ], [ 82.267731, 17.4382262 ], [ 82.2566356, 17.4342215 ], [ 82.2476713, 17.4256549 ], [ 82.2458068, 17.4209409 ], [ 82.2327783, 17.4058555 ], [ 82.229881, 17.4052099 ], [ 82.2179025, 17.3968518 ], [ 82.2196601, 17.3916064 ], [ 82.1971722, 17.3799269 ], [ 82.199618, 17.3757885 ], [ 82.1885053, 17.3752257 ], [ 82.175581, 17.3654032 ], [ 82.1557287, 17.3568591 ], [ 82.1614471, 17.3493541 ], [ 82.1637381, 17.3480341 ], [ 82.1666823, 17.3487843 ], [ 82.1678626, 17.3464012 ], [ 82.1709872, 17.3451152 ], [ 82.1710514, 17.343799 ], [ 82.1638412, 17.3346271 ], [ 82.1630592, 17.3301117 ], [ 82.1495508, 17.3225528 ], [ 82.148141, 17.3206013 ], [ 82.1477903, 17.3163809 ], [ 82.1583041, 17.3161185 ], [ 82.16228, 17.3203694 ], [ 82.1675671, 17.3165661 ], [ 82.1883411, 17.3210371 ], [ 82.1942569, 17.3208771 ], [ 82.1869599, 17.3175167 ], [ 82.1791303, 17.3085446 ], [ 82.1671072, 17.3056322 ], [ 82.1669115, 17.3069811 ], [ 82.1642761, 17.3064862 ], [ 82.1623417, 17.3031644 ], [ 82.1451216, 17.2995542 ], [ 82.1403221, 17.2997405 ], [ 82.1394356, 17.3023608 ], [ 82.1473189, 17.3084448 ], [ 82.1463698, 17.3092207 ], [ 82.139963, 17.3063447 ], [ 82.1390337, 17.3044121 ], [ 82.1265675, 17.3024549 ], [ 82.1275753, 17.3064895 ], [ 82.129983, 17.3084787 ], [ 82.1313876, 17.3121077 ], [ 82.1367558, 17.3168865 ], [ 82.1339049, 17.3159453 ], [ 82.1290569, 17.3114564 ], [ 82.1271043, 17.3115753 ], [ 82.1317145, 17.3242772 ], [ 82.1412069, 17.3414492 ], [ 82.1439181, 17.344191 ], [ 82.1416695, 17.3455421 ], [ 82.1372792, 17.3429761 ], [ 82.131964, 17.3463944 ], [ 82.1254261, 17.3454316 ], [ 82.1226758, 17.3413335 ], [ 82.1217581, 17.3373887 ], [ 82.1221394, 17.322341 ], [ 82.1156748, 17.324119 ], [ 82.1144028, 17.3268552 ], [ 82.1044104, 17.326474 ], [ 82.1011655, 17.3251464 ], [ 82.0999111, 17.3260376 ], [ 82.0993269, 17.3271362 ], [ 82.1084762, 17.3383801 ], [ 82.1060922, 17.3398765 ], [ 82.1063403, 17.3414346 ], [ 82.1001674, 17.340744 ], [ 82.0932448, 17.3422383 ], [ 82.0925599, 17.3471898 ], [ 82.0954919, 17.3511152 ], [ 82.0951222, 17.3548662 ], [ 82.1057737, 17.3585164 ], [ 82.1069809, 17.363933 ], [ 82.1103692, 17.3648705 ], [ 82.1134171, 17.3696492 ], [ 82.111852, 17.3699911 ], [ 82.1119282, 17.3729656 ], [ 82.1108939, 17.3737331 ], [ 82.1154495, 17.3786043 ], [ 82.1146286, 17.379551 ], [ 82.1215205, 17.3804888 ], [ 82.1196275, 17.3833381 ], [ 82.1209121, 17.3860774 ], [ 82.1175718, 17.3853025 ], [ 82.1169208, 17.3840188 ], [ 82.1160407, 17.3846449 ], [ 82.1180667, 17.3899377 ], [ 82.1166482, 17.3915219 ], [ 82.1172261, 17.3925031 ], [ 82.1086454, 17.3912659 ], [ 82.1075544, 17.3874174 ], [ 82.1053233, 17.3852323 ], [ 82.100879, 17.386491 ], [ 82.1005034, 17.3889445 ], [ 82.0982368, 17.3893368 ], [ 82.0974955, 17.3908253 ], [ 82.1029581, 17.3914173 ], [ 82.1029822, 17.3937999 ], [ 82.0995236, 17.3941107 ], [ 82.0983116, 17.395639 ], [ 82.0982411, 17.397968 ], [ 82.1011208, 17.3988326 ], [ 82.0982677, 17.4012368 ], [ 82.0940934, 17.3998573 ], [ 82.0938991, 17.3973675 ], [ 82.0956809, 17.3958486 ], [ 82.0955589, 17.3947417 ], [ 82.0940343, 17.3960418 ], [ 82.092536, 17.3918797 ], [ 82.0867594, 17.3885589 ], [ 82.0844306, 17.3993461 ], [ 82.0815958, 17.3987749 ], [ 82.0817555, 17.4028158 ], [ 82.0794456, 17.4031132 ], [ 82.0784141, 17.4013395 ], [ 82.0754306, 17.4010224 ], [ 82.0746007, 17.4020685 ], [ 82.0738797, 17.3996549 ], [ 82.0722057, 17.3999657 ], [ 82.0719129, 17.3986883 ], [ 82.0768978, 17.3976424 ], [ 82.079072, 17.3953076 ], [ 82.0812225, 17.3962773 ], [ 82.0805169, 17.3922721 ], [ 82.0779945, 17.3918929 ], [ 82.0750446, 17.3893014 ], [ 82.0743269, 17.3849391 ], [ 82.0699378, 17.38489 ], [ 82.069848, 17.3866179 ], [ 82.067729, 17.386629 ], [ 82.0689962, 17.3908244 ], [ 82.0679401, 17.3906514 ], [ 82.064245, 17.3855242 ], [ 82.0574746, 17.3832769 ], [ 82.0544791, 17.376051 ], [ 82.0521422, 17.3751741 ], [ 82.053955, 17.3675275 ], [ 82.0562772, 17.3652543 ], [ 82.06103, 17.3649301 ], [ 82.0621758, 17.3609836 ], [ 82.0568183, 17.3509536 ], [ 82.0549389, 17.3437104 ], [ 82.0561772, 17.3413412 ], [ 82.058342, 17.3412394 ], [ 82.0584866, 17.3381005 ], [ 82.0626723, 17.3322371 ], [ 82.0589401, 17.3281996 ], [ 82.0586849, 17.3239287 ], [ 82.0532782, 17.3152552 ], [ 82.059872, 17.3115672 ], [ 82.0603657, 17.3061649 ], [ 82.0617756, 17.3041198 ], [ 82.0687717, 17.3054837 ], [ 82.0805117, 17.3014677 ], [ 82.0864764, 17.3021785 ], [ 82.0903095, 17.2989079 ], [ 82.0887945, 17.2972237 ], [ 82.0935211, 17.2938695 ], [ 82.0940043, 17.2901808 ], [ 82.083529, 17.2886448 ], [ 82.0819281, 17.2862195 ], [ 82.0719994, 17.2864829 ], [ 82.0673104, 17.2904557 ], [ 82.0661824, 17.2953926 ], [ 82.0500273, 17.2838451 ], [ 82.047991, 17.2810656 ], [ 82.0397135, 17.2902275 ], [ 82.037993, 17.28868 ], [ 82.0392288, 17.2920306 ], [ 82.038814, 17.2985763 ], [ 82.0363654, 17.3068683 ], [ 82.0331308, 17.3055488 ], [ 82.0290993, 17.3070744 ], [ 82.0250079, 17.3117925 ], [ 82.021249, 17.3102414 ], [ 82.0151975, 17.3123147 ], [ 82.0111912, 17.3097975 ], [ 82.0100763, 17.3166284 ], [ 81.9991756, 17.3093941 ], [ 81.9984908, 17.3109498 ], [ 81.9903965, 17.3130638 ], [ 81.985126, 17.3114141 ], [ 81.9741877, 17.3153107 ], [ 81.9763702, 17.303802 ], [ 81.9629132, 17.3006619 ], [ 81.9648007, 17.2924604 ], [ 81.955433, 17.292276 ], [ 81.9520449, 17.2853494 ], [ 81.9470158, 17.2856505 ], [ 81.945067, 17.2824126 ], [ 81.9413477, 17.2809639 ], [ 81.9160331, 17.2797998 ], [ 81.9175121, 17.2819242 ], [ 81.917092, 17.2863309 ], [ 81.9204772, 17.2923582 ], [ 81.9181594, 17.2920707 ], [ 81.9185629, 17.2945052 ], [ 81.9210708, 17.2969979 ], [ 81.9197531, 17.3022381 ], [ 81.9226783, 17.3044974 ], [ 81.922677, 17.3069164 ], [ 81.9267623, 17.3126901 ], [ 81.9248789, 17.3139145 ], [ 81.9131072, 17.3042355 ], [ 81.9083172, 17.3090736 ], [ 81.9022904, 17.3101487 ], [ 81.9024965, 17.311305 ], [ 81.8965867, 17.3136362 ], [ 81.8915846, 17.318516 ], [ 81.8868521, 17.3156123 ], [ 81.8804288, 17.3138861 ], [ 81.8809378, 17.3119748 ], [ 81.8792442, 17.3107695 ], [ 81.8788926, 17.3082759 ], [ 81.8816316, 17.304867 ], [ 81.8822642, 17.2971039 ], [ 81.8811978, 17.2973867 ], [ 81.8789605, 17.2938021 ], [ 81.8745486, 17.2942375 ], [ 81.8712361, 17.2930335 ], [ 81.8675423, 17.2884272 ], [ 81.8642191, 17.2917764 ], [ 81.8599886, 17.2891584 ], [ 81.8578203, 17.2968723 ], [ 81.8558509, 17.2986167 ], [ 81.8512189, 17.2985511 ], [ 81.846116, 17.3011968 ], [ 81.8445619, 17.3038156 ], [ 81.845, 17.3066387 ], [ 81.8424152, 17.3099784 ], [ 81.8336013, 17.3082567 ], [ 81.8287977, 17.3099959 ], [ 81.8244754, 17.3056189 ], [ 81.8263824, 17.3008323 ], [ 81.8227804, 17.2887461 ], [ 81.8271449, 17.2764249 ], [ 81.8262489, 17.2587195 ], [ 81.8220177, 17.2600299 ], [ 81.8108274, 17.2593621 ], [ 81.8077303, 17.2606833 ], [ 81.8074307, 17.251009 ], [ 81.8055761, 17.2459742 ], [ 81.797885, 17.244918 ], [ 81.7959941, 17.2435956 ], [ 81.7853269, 17.2457628 ], [ 81.7826615, 17.2497714 ], [ 81.7782972, 17.2465466 ], [ 81.7657631, 17.2497098 ], [ 81.7645181, 17.2470901 ], [ 81.7573967, 17.2416386 ], [ 81.7570088, 17.2405828 ], [ 81.7589293, 17.2384734 ], [ 81.755522, 17.2376525 ], [ 81.7544015, 17.234598 ], [ 81.7518691, 17.2351826 ], [ 81.7515095, 17.2385759 ], [ 81.7439376, 17.2391538 ], [ 81.7407098, 17.2354513 ], [ 81.73862, 17.236083 ], [ 81.7297218, 17.2337562 ], [ 81.7210412, 17.2345884 ], [ 81.7188652, 17.233484 ], [ 81.7195779, 17.2224743 ], [ 81.714711, 17.2229136 ], [ 81.7082847, 17.2253195 ], [ 81.7020773, 17.2320014 ], [ 81.69226, 17.2300852 ], [ 81.6856626, 17.2315056 ], [ 81.680921, 17.2340551 ], [ 81.6857139, 17.240015 ], [ 81.6840149, 17.2485432 ], [ 81.6809239, 17.2509975 ], [ 81.6801006, 17.2549403 ], [ 81.681182, 17.2587053 ], [ 81.6863585, 17.264966 ], [ 81.6866606, 17.2705711 ], [ 81.6856127, 17.2731722 ], [ 81.6824306, 17.2722721 ], [ 81.666068, 17.2747587 ], [ 81.6593659, 17.273891 ], [ 81.6636809, 17.28334 ], [ 81.6732048, 17.2893195 ], [ 81.6781289, 17.2895049 ], [ 81.6802613, 17.2911208 ], [ 81.6794438, 17.301569 ], [ 81.6775629, 17.3043113 ], [ 81.6423322, 17.3240729 ], [ 81.6334469, 17.326146 ], [ 81.6277989, 17.3247155 ], [ 81.6185868, 17.3273097 ], [ 81.6149548, 17.3310409 ], [ 81.6121992, 17.3365762 ], [ 81.6111071, 17.3432603 ], [ 81.6146405, 17.3494906 ], [ 81.6148145, 17.351954 ], [ 81.6063077, 17.3688411 ], [ 81.6047367, 17.3758395 ], [ 81.6099234, 17.3970997 ], [ 81.6163622, 17.4006109 ], [ 81.6145871, 17.4064845 ], [ 81.6090098, 17.4104338 ], [ 81.6032457, 17.4113589 ], [ 81.5970346, 17.4098356 ], [ 81.5913046, 17.4058952 ], [ 81.586311, 17.4056359 ], [ 81.5799721, 17.4150636 ], [ 81.5760094, 17.4327895 ], [ 81.5684524, 17.4359021 ], [ 81.5636514, 17.4400133 ], [ 81.5523273, 17.4399475 ], [ 81.5409529, 17.4365897 ], [ 81.5309634, 17.4403458 ], [ 81.5172793, 17.4566025 ], [ 81.5129723, 17.4723506 ], [ 81.5048315, 17.4787367 ], [ 81.4983487, 17.4814392 ], [ 81.4958453, 17.4811028 ], [ 81.4767331, 17.4680031 ], [ 81.4729087, 17.4672159 ], [ 81.4646476, 17.4684922 ], [ 81.4446278, 17.4618769 ], [ 81.4182787, 17.4654236 ], [ 81.4070413, 17.4649428 ], [ 81.3905448, 17.4733492 ], [ 81.383405, 17.4915763 ], [ 81.3635098, 17.4992804 ], [ 81.3491565, 17.4999121 ], [ 81.3410292, 17.4955725 ], [ 81.333207, 17.494179 ], [ 81.3175201, 17.4879012 ], [ 81.3135991, 17.4876269 ], [ 81.3013213, 17.4921764 ], [ 81.2954622, 17.4961046 ], [ 81.2925654, 17.50098 ], [ 81.292321, 17.510466 ], [ 81.2880969, 17.5239768 ], [ 81.2694425, 17.553065 ], [ 81.2583531, 17.5640046 ], [ 81.244923, 17.5695629 ], [ 81.2364837, 17.5663597 ], [ 81.2220912, 17.5641802 ], [ 81.2166502, 17.5661877 ], [ 81.2107902, 17.5709769 ], [ 81.1946677, 17.5701032 ], [ 81.1850702, 17.571052 ], [ 81.1769358, 17.5739849 ], [ 81.1514883, 17.5767495 ], [ 81.1365568, 17.5812657 ], [ 81.1272659, 17.586985 ], [ 81.1280647, 17.5950116 ], [ 81.122527, 17.6027856 ], [ 81.1169942, 17.6167256 ], [ 81.1149603, 17.619114 ], [ 81.1099056, 17.6203446 ], [ 81.1023058, 17.6187884 ], [ 81.0783947, 17.6092842 ], [ 81.0596944, 17.6079145 ], [ 81.03965, 17.5976587 ], [ 81.0319924, 17.5968371 ], [ 81.0172366, 17.5980804 ], [ 81.0118105, 17.5997753 ], [ 81.0077025, 17.6043556 ], [ 81.0069491, 17.6211294 ], [ 81.0095487, 17.6436455 ], [ 81.006895, 17.647621 ], [ 80.9995542, 17.6515216 ], [ 80.9904117, 17.6535725 ], [ 80.9800595, 17.6526106 ], [ 80.9701411, 17.6496671 ], [ 80.9604343, 17.644381 ], [ 80.9538747, 17.6378084 ], [ 80.9380966, 17.6325793 ], [ 80.897043, 17.6406387 ], [ 80.8827388, 17.6459133 ], [ 80.8781319, 17.6506683 ], [ 80.8760662, 17.660215 ], [ 80.8764025, 17.6683787 ], [ 80.8907946, 17.6897625 ], [ 80.8947496, 17.70291 ], [ 80.8909933, 17.7136848 ], [ 80.8907643, 17.721881 ], [ 80.8855463, 17.735678 ], [ 80.9023706, 17.7462022 ], [ 80.906033, 17.7470405 ], [ 80.9130031, 17.7459241 ], [ 80.9145847, 17.7465268 ], [ 80.9127766, 17.7495023 ], [ 80.9144373, 17.7504554 ], [ 80.9149991, 17.7483568 ], [ 80.9175696, 17.7481077 ], [ 80.9172395, 17.7504093 ], [ 80.9194597, 17.7562001 ], [ 80.9233824, 17.7572863 ], [ 80.9278527, 17.7617744 ], [ 80.9463125, 17.7601869 ], [ 80.9556219, 17.7729057 ], [ 80.9553239, 17.7746196 ], [ 80.9634268, 17.7773912 ], [ 80.9658671, 17.7797816 ], [ 80.9721663, 17.7779552 ], [ 80.9734218, 17.7801222 ], [ 80.9768758, 17.7763173 ], [ 80.9842276, 17.7556562 ], [ 80.991318, 17.7499171 ], [ 81.0159159, 17.7450292 ], [ 81.0276325, 17.7481285 ], [ 81.0405644, 17.7476084 ], [ 81.0441605, 17.7404165 ], [ 81.0504995, 17.7340176 ], [ 81.0581986, 17.7331125 ], [ 81.0698327, 17.7407125 ], [ 81.0825797, 17.7531005 ], [ 81.0956497, 17.7622043 ], [ 81.1042623, 17.7720064 ], [ 81.1038751, 17.773198 ], [ 81.0959976, 17.7744933 ], [ 81.089781, 17.7910398 ], [ 81.0855875, 17.7980235 ], [ 81.0904575, 17.8024098 ], [ 81.0939651, 17.8092728 ], [ 81.1024394, 17.8160277 ], [ 81.1279175, 17.8269978 ], [ 81.142135, 17.8414625 ], [ 81.1572784, 17.8504281 ], [ 81.1661345, 17.8576004 ], [ 81.1683182, 17.8556167 ], [ 81.1993082, 17.8469334 ], [ 81.2156092, 17.8345076 ], [ 81.2292859, 17.8305704 ], [ 81.234543, 17.8271521 ], [ 81.2392967, 17.8260154 ], [ 81.2408656, 17.8232452 ], [ 81.2452362, 17.8207489 ], [ 81.2483752, 17.8166584 ], [ 81.2662642, 17.8095223 ], [ 81.3049707, 17.8086589 ], [ 81.3149065, 17.8121092 ], [ 81.326124, 17.8139508 ], [ 81.3456015, 17.810299 ], [ 81.3484462, 17.8123287 ], [ 81.3541097, 17.8122871 ], [ 81.3587801, 17.8094804 ], [ 81.3692459, 17.8076766 ], [ 81.3773115, 17.8044595 ], [ 81.3834397, 17.7989136 ], [ 81.3854391, 17.798439 ], [ 81.3865564, 17.7948697 ], [ 81.3918533, 17.7941797 ], [ 81.3931262, 17.8076657 ], [ 81.3918126, 17.8154201 ], [ 81.3965508, 17.8202327 ], [ 81.4016527, 17.8209499 ], [ 81.4101592, 17.8185912 ], [ 81.4139693, 17.8135893 ], [ 81.4155967, 17.8134232 ], [ 81.4258173, 17.8219066 ], [ 81.4304797, 17.8300581 ], [ 81.4341221, 17.8319301 ], [ 81.4367213, 17.8316215 ], [ 81.4408818, 17.8253304 ], [ 81.4441931, 17.8249658 ], [ 81.4513963, 17.828009 ], [ 81.4601105, 17.8295703 ], [ 81.4690505, 17.836224 ], [ 81.4718155, 17.8361451 ], [ 81.4739201, 17.8379657 ], [ 81.4778427, 17.834987 ], [ 81.4806113, 17.8292092 ], [ 81.4815162, 17.823576 ], [ 81.4855082, 17.8202172 ], [ 81.4862661, 17.8143359 ], [ 81.4900455, 17.8126949 ], [ 81.4953434, 17.8125506 ], [ 81.5047805, 17.816291 ], [ 81.5184062, 17.8162553 ], [ 81.5224533, 17.8175144 ], [ 81.5301786, 17.8229077 ], [ 81.5378135, 17.8215943 ], [ 81.5468443, 17.8247191 ], [ 81.5636869, 17.8257062 ], [ 81.5703939, 17.8353126 ], [ 81.5743161, 17.8371676 ], [ 81.5941853, 17.8340441 ], [ 81.606888, 17.8258299 ], [ 81.6165474, 17.8220758 ], [ 81.6187474, 17.8238088 ], [ 81.6223479, 17.8334458 ], [ 81.6301471, 17.8320243 ], [ 81.640774, 17.840192 ], [ 81.6520151, 17.8560985 ], [ 81.6542828, 17.8632763 ], [ 81.6538474, 17.8680951 ], [ 81.6619235, 17.8811959 ], [ 81.6709135, 17.8872343 ], [ 81.6745185, 17.8881845 ], [ 81.6836769, 17.8849756 ], [ 81.686104, 17.8853015 ], [ 81.6947463, 17.8987153 ], [ 81.6985326, 17.9013543 ], [ 81.70123, 17.8994828 ], [ 81.7022228, 17.8962662 ], [ 81.7011328, 17.8879459 ], [ 81.704114, 17.8827112 ], [ 81.7043585, 17.8776805 ], [ 81.7091736, 17.871996 ], [ 81.7258345, 17.8790093 ], [ 81.7646708, 17.9033383 ], [ 81.7688114, 17.906883 ], [ 81.7713751, 17.9124583 ], [ 81.778415, 17.912837 ], [ 81.7901286, 17.9208065 ], [ 81.7934869, 17.9254791 ], [ 81.7946956, 17.9329395 ], [ 81.7970707, 17.937277 ], [ 81.8032909, 17.9451281 ], [ 81.8098941, 17.9509843 ], [ 81.8131808, 17.9521365 ], [ 81.8191136, 17.9516912 ], [ 81.8309888, 17.9579266 ], [ 81.8432273, 17.9569611 ], [ 81.8664882, 17.9632936 ], [ 81.8817524, 17.9688328 ], [ 81.8933722, 17.9762359 ], [ 81.9014462, 17.9761127 ], [ 81.905178, 17.9773153 ], [ 81.9090287, 17.9842157 ], [ 81.9199071, 17.9912093 ], [ 81.9295469, 17.9896766 ], [ 81.9365721, 17.9902844 ], [ 81.9460175, 17.995747 ], [ 81.9629665, 17.9992515 ], [ 81.9689443, 18.0059818 ], [ 81.9760578, 18.0104694 ], [ 81.9825139, 18.0181277 ], [ 81.9891178, 18.0183381 ], [ 81.9912733, 18.0195109 ], [ 81.9930098, 18.0217614 ], [ 81.9942738, 18.027313 ], [ 82.002026, 18.0300566 ], [ 82.008489, 18.0294899 ], [ 82.0103032, 18.0312426 ], [ 82.0116581, 18.0352391 ], [ 82.0067309, 18.0450977 ], [ 82.0062152, 18.0507577 ], [ 82.0086735, 18.0576631 ], [ 82.0202763, 18.0635036 ], [ 82.0230506, 18.0628879 ], [ 82.0270823, 18.0640279 ], [ 82.0329576, 18.069428 ], [ 82.0375775, 18.0669812 ], [ 82.0404449, 18.0573139 ], [ 82.0504174, 18.058141 ], [ 82.060563, 18.0555281 ], [ 82.0648747, 18.0560828 ], [ 82.0673098, 18.0580394 ], [ 82.0678159, 18.0628355 ], [ 82.0708158, 18.0690863 ], [ 82.0766357, 18.0752174 ], [ 82.0874765, 18.0687944 ], [ 82.0960898, 18.0674262 ], [ 82.0964002, 18.0634028 ], [ 82.1020305, 18.0602394 ], [ 82.1078693, 18.0632606 ], [ 82.113653, 18.0612302 ], [ 82.1206257, 18.0642309 ], [ 82.1249807, 18.0596733 ], [ 82.1334899, 18.0598902 ], [ 82.1346841, 18.059002 ], [ 82.1364813, 18.0512421 ], [ 82.137176, 18.043936 ], [ 82.1402706, 18.0469724 ], [ 82.1448268, 18.0488477 ], [ 82.1467765, 18.052311 ], [ 82.1532097, 18.0478671 ], [ 82.1582708, 18.0503401 ], [ 82.1688389, 18.051953 ], [ 82.1744595, 18.0419103 ], [ 82.1843191, 18.0287871 ], [ 82.178624, 18.0203858 ], [ 82.1835412, 18.0190996 ], [ 82.187805, 18.0147312 ], [ 82.1973652, 18.0177404 ], [ 82.2053129, 18.0183688 ], [ 82.2061826, 18.0177624 ], [ 82.2045959, 18.015007 ], [ 82.2082012, 18.0104389 ], [ 82.2134707, 18.0082779 ], [ 82.2222466, 18.0016753 ], [ 82.2372365, 18.0025517 ], [ 82.2440545, 17.9983827 ], [ 82.2479556, 17.9977837 ], [ 82.2655751, 17.9986273 ], [ 82.268779, 18.0009379 ], [ 82.2735487, 18.0213434 ], [ 82.2690112, 18.0340156 ], [ 82.2616094, 18.0418538 ], [ 82.2689448, 18.04519 ], [ 82.2696074, 18.0519407 ], [ 82.2726117, 18.057221 ], [ 82.2769836, 18.0582043 ], [ 82.2793897, 18.0617263 ], [ 82.2834913, 18.0644959 ], [ 82.2876683, 18.0627195 ], [ 82.291384, 18.0689074 ], [ 82.2972046, 18.0670657 ], [ 82.3020053, 18.069157 ], [ 82.304402, 18.0681151 ], [ 82.3043611, 18.0663984 ], [ 82.300124, 18.0632144 ], [ 82.2987429, 18.055276 ], [ 82.3012795, 18.0546219 ], [ 82.306167, 18.0557093 ], [ 82.3103341, 18.0539281 ], [ 82.3072635, 18.050054 ], [ 82.3077417, 18.0451123 ], [ 82.3165823, 18.0474379 ], [ 82.3198498, 18.0447634 ], [ 82.3222308, 18.0486193 ], [ 82.3189733, 18.0570727 ], [ 82.3222539, 18.0599059 ], [ 82.3300152, 18.058086 ], [ 82.3321373, 18.0551119 ], [ 82.3319898, 18.0524606 ], [ 82.3341446, 18.0513298 ], [ 82.3400575, 18.0543252 ], [ 82.343883, 18.0579945 ], [ 82.3470775, 18.0699457 ], [ 82.3517814, 18.0765864 ], [ 82.3473242, 18.0799836 ], [ 82.349583, 18.0856293 ], [ 82.3470007, 18.0982487 ], [ 82.3385028, 18.0991121 ], [ 82.33579, 18.1058587 ], [ 82.3356654, 18.1137483 ], [ 82.3337699, 18.1192512 ], [ 82.3361649, 18.1241505 ], [ 82.3342007, 18.1268615 ], [ 82.3421336, 18.137239 ], [ 82.3386846, 18.1441714 ], [ 82.3387954, 18.1469223 ], [ 82.3401795, 18.1505724 ], [ 82.341367, 18.1501123 ], [ 82.3549332, 18.1424673 ], [ 82.3596256, 18.136285 ], [ 82.3632481, 18.1348089 ], [ 82.3675289, 18.1371552 ], [ 82.3687476, 18.1431692 ], [ 82.3723168, 18.1481635 ], [ 82.3646106, 18.1581358 ], [ 82.3591209, 18.1626974 ], [ 82.3533673, 18.1716932 ], [ 82.3461732, 18.1729229 ], [ 82.3373713, 18.1721756 ], [ 82.3154526, 18.1840292 ], [ 82.3124822, 18.1913512 ], [ 82.3135421, 18.1971544 ], [ 82.3108425, 18.2040948 ], [ 82.3248886, 18.2104142 ], [ 82.3284253, 18.2160782 ], [ 82.3370551, 18.2243046 ], [ 82.3314444, 18.2251299 ], [ 82.3244124, 18.2312104 ], [ 82.3267354, 18.2363768 ], [ 82.3299347, 18.2367612 ], [ 82.3365283, 18.2407682 ], [ 82.3358564, 18.2500037 ], [ 82.3335428, 18.2510679 ], [ 82.333363, 18.2529082 ], [ 82.3361215, 18.2611707 ], [ 82.3400462, 18.2623362 ], [ 82.340439, 18.2722282 ], [ 82.344665, 18.2805482 ], [ 82.3589364, 18.2814638 ], [ 82.3658967, 18.2776144 ], [ 82.3748104, 18.2810521 ], [ 82.3764959, 18.2806785 ], [ 82.3783127, 18.2843433 ], [ 82.3808943, 18.285445 ], [ 82.3858134, 18.2902393 ], [ 82.3870732, 18.2934245 ], [ 82.3923359, 18.2979495 ], [ 82.3915744, 18.3098015 ], [ 82.3950601, 18.3156405 ], [ 82.3928295, 18.3259627 ], [ 82.3889613, 18.3285074 ], [ 82.3842674, 18.3295988 ], [ 82.3794619, 18.3285311 ], [ 82.3780687, 18.3270593 ], [ 82.3750918, 18.3286937 ], [ 82.3675259, 18.3237149 ], [ 82.3673411, 18.3218728 ], [ 82.3639983, 18.318463 ], [ 82.3558702, 18.3159229 ], [ 82.3543192, 18.3172171 ], [ 82.3490202, 18.3165182 ], [ 82.3404796, 18.3224069 ], [ 82.3382183, 18.3267104 ], [ 82.3381341, 18.3280303 ], [ 82.3405006, 18.328208 ], [ 82.3440925, 18.3307942 ], [ 82.3469442, 18.3288312 ], [ 82.348991, 18.3304389 ], [ 82.3557996, 18.3384374 ], [ 82.3631073, 18.3442227 ], [ 82.364485, 18.3527656 ], [ 82.3681841, 18.3538596 ], [ 82.3698432, 18.3560389 ], [ 82.369877, 18.3585147 ], [ 82.3768194, 18.3598382 ], [ 82.385549, 18.3675053 ], [ 82.3844475, 18.3694244 ], [ 82.3855217, 18.3771379 ], [ 82.3840188, 18.3844999 ], [ 82.3860727, 18.386274 ], [ 82.3814807, 18.3896417 ], [ 82.3796247, 18.4038013 ], [ 82.3752243, 18.4063408 ], [ 82.3709278, 18.4142468 ], [ 82.3642124, 18.4215376 ], [ 82.3757395, 18.4300343 ], [ 82.3819988, 18.4325823 ], [ 82.3866473, 18.4450136 ], [ 82.392703, 18.4486469 ], [ 82.3960258, 18.4491737 ], [ 82.3968003, 18.4542146 ], [ 82.4035191, 18.4642177 ], [ 82.4149702, 18.474429 ], [ 82.4204836, 18.4764027 ], [ 82.431925, 18.4869115 ], [ 82.4341577, 18.491765 ], [ 82.43791, 18.4948494 ], [ 82.4338393, 18.4978892 ], [ 82.4371464, 18.5009409 ], [ 82.4381341, 18.5062594 ], [ 82.442849, 18.5084289 ], [ 82.4455832, 18.5148369 ], [ 82.4509796, 18.5173662 ], [ 82.4578622, 18.5242212 ], [ 82.4609846, 18.5254982 ], [ 82.4641211, 18.5328743 ], [ 82.4686285, 18.5348994 ], [ 82.4734732, 18.5425783 ], [ 82.4827531, 18.5487221 ], [ 82.4872812, 18.5497979 ], [ 82.4915099, 18.5480207 ], [ 82.4935039, 18.5436361 ] ] ] ] } }
]
}
