{
"type": "FeatureCollection",
"name": "2832",
"crs": { "type": "name", "properties": { "name": "urn:ogc:def:crs:OGC:1.3:CRS84" } },
"features": [
{ "type": "Feature", "properties": { "code": "2832", "name": "Palnadu", "type": "district" }, "geometry": { "type": "Polygon", "coordinates": [ [ [ 80.1043601, 16.8223119 ], [ 80.116257, 16.8207147 ], [ 80.1283039, 16.8016788 ], [ 80.1312636, 16.7931955 ], [ 80.1328674, 16.7664032 ], [ 80.1424853, 16.7433643 ], [ 80.1440202, 16.7250826 ], [ 80.1476734, 16.7240304 ], [ 80.1458313, 16.7175377 ], [ 80.146509, 16.7164489 ], [ 80.1449028, 16.7170974 ], [ 80.1439943, 16.7160196 ], [ 80.1426684, 16.7095728 ], [ 80.1409133, 16.7096151 ], [ 80.140752, 16.7079596 ], [ 80.1424006, 16.7019928 ], [ 80.1493279, 16.6882605 ], [ 80.1358678, 16.6666835 ], [ 80.1393086, 16.6529816 ], [ 80.1408832, 16.6513336 ], [ 80.1516883, 16.6456126 ], [ 80.1694059, 16.6408379 ], [ 80.1839003, 16.6417644 ], [ 80.2104135, 16.6268507 ], [ 80.2399177, 16.6136061 ], [ 80.2528674, 16.6106412 ], [ 80.2651224, 16.6115687 ], [ 80.315496, 16.6091807 ], [ 80.3311038, 16.6114051 ], [ 80.3648194, 16.5920257 ], [ 80.3674572, 16.5874703 ], [ 80.4026702, 16.5852733 ], [ 80.4285499, 16.5887717 ], [ 80.424871, 16.5631442 ], [ 80.4284367, 16.5581386 ], [ 80.4246836, 16.550526 ], [ 80.4189069, 16.5502616 ], [ 80.416671, 16.5482482 ], [ 80.4116878, 16.5349768 ], [ 80.4102028, 16.5321631 ], [ 80.407784, 16.531131 ], [ 80.4066661, 16.525355 ], [ 80.4096436, 16.5246779 ], [ 80.4077757, 16.5184856 ], [ 80.4075276, 16.5076719 ], [ 80.4197504, 16.5049135 ], [ 80.4195947, 16.4842902 ], [ 80.4266285, 16.4773278 ], [ 80.4128935, 16.4800724 ], [ 80.3977342, 16.4807666 ], [ 80.3975849, 16.4793374 ], [ 80.393011, 16.4775397 ], [ 80.381086, 16.4783158 ], [ 80.3786005, 16.4725977 ], [ 80.3779912, 16.4649405 ], [ 80.3697652, 16.4654195 ], [ 80.3674255, 16.4597783 ], [ 80.3663336, 16.4595832 ], [ 80.3490555, 16.4623666 ], [ 80.3474254, 16.4611896 ], [ 80.3437642, 16.46201 ], [ 80.3413472, 16.4660967 ], [ 80.3384719, 16.462983 ], [ 80.3242131, 16.4641294 ], [ 80.3180603, 16.462781 ], [ 80.3174818, 16.4598588 ], [ 80.3164599, 16.4600525 ], [ 80.3131245, 16.4532475 ], [ 80.3090746, 16.4538951 ], [ 80.3091918, 16.439296 ], [ 80.3081348, 16.4349447 ], [ 80.3012086, 16.4275206 ], [ 80.2916018, 16.4276787 ], [ 80.2802675, 16.4306614 ], [ 80.2774932, 16.4265428 ], [ 80.2765868, 16.4199296 ], [ 80.2720626, 16.4137875 ], [ 80.2653156, 16.4134003 ], [ 80.2521125, 16.4158637 ], [ 80.2411858, 16.4153215 ], [ 80.2392148, 16.4104844 ], [ 80.2338995, 16.4081938 ], [ 80.2270319, 16.4002929 ], [ 80.2279511, 16.3996337 ], [ 80.2247316, 16.3934108 ], [ 80.2214325, 16.393809 ], [ 80.2197112, 16.3884202 ], [ 80.2283817, 16.3863511 ], [ 80.2311424, 16.3820625 ], [ 80.2260615, 16.3685347 ], [ 80.2308332, 16.364844 ], [ 80.2301573, 16.362333 ], [ 80.2274154, 16.3599686 ], [ 80.2261733, 16.3537483 ], [ 80.2181703, 16.3486226 ], [ 80.2211105, 16.3463877 ], [ 80.2205008, 16.3403128 ], [ 80.216916, 16.3382733 ], [ 80.2041887, 16.3417561 ], [ 80.1999875, 16.3445724 ], [ 80.200238, 16.3461241 ], [ 80.1970792, 16.350276 ], [ 80.195592, 16.354783 ], [ 80.1827196, 16.3574914 ], [ 80.1814436, 16.3557256 ], [ 80.1815895, 16.3494845 ], [ 80.1759146, 16.3222352 ], [ 80.1616526, 16.3251483 ], [ 80.1588265, 16.3153384 ], [ 80.1607249, 16.3117006 ], [ 80.1636757, 16.3115063 ], [ 80.1596199, 16.3061177 ], [ 80.1582081, 16.3019409 ], [ 80.1403025, 16.3029244 ], [ 80.1266852, 16.3097032 ], [ 80.1251551, 16.3064576 ], [ 80.1229807, 16.2973449 ], [ 80.12736, 16.2771041 ], [ 80.1266887, 16.2730188 ], [ 80.1282102, 16.2707465 ], [ 80.1448615, 16.2651939 ], [ 80.1443319, 16.2628729 ], [ 80.1535906, 16.2590663 ], [ 80.1565949, 16.265358 ], [ 80.163474, 16.2704346 ], [ 80.1698204, 16.263805 ], [ 80.1738112, 16.2628298 ], [ 80.1775114, 16.2649657 ], [ 80.1791708, 16.2638149 ], [ 80.1801702, 16.2741238 ], [ 80.1779383, 16.2788739 ], [ 80.1911075, 16.2777854 ], [ 80.19357, 16.2689876 ], [ 80.2003093, 16.2650533 ], [ 80.2009214, 16.262838 ], [ 80.2202462, 16.2585406 ], [ 80.2185375, 16.2493688 ], [ 80.230356, 16.2462313 ], [ 80.2350418, 16.2515041 ], [ 80.2423483, 16.2639462 ], [ 80.2428887, 16.2660409 ], [ 80.2380958, 16.268206 ], [ 80.2437778, 16.2736312 ], [ 80.2646818, 16.2685853 ], [ 80.2723834, 16.2693038 ], [ 80.274112, 16.2686453 ], [ 80.2731077, 16.2665096 ], [ 80.2740962, 16.2661443 ], [ 80.2767398, 16.2677119 ], [ 80.2771861, 16.2665229 ], [ 80.2716237, 16.2622113 ], [ 80.2706531, 16.2593881 ], [ 80.2738653, 16.2550451 ], [ 80.2835743, 16.2607132 ], [ 80.2853073, 16.2602717 ], [ 80.2862964, 16.2634433 ], [ 80.2915708, 16.2658681 ], [ 80.2949344, 16.273221 ], [ 80.301229, 16.2765331 ], [ 80.2990495, 16.2786477 ], [ 80.3010808, 16.2842172 ], [ 80.3077328, 16.2865119 ], [ 80.3104124, 16.2853881 ], [ 80.3151246, 16.2939855 ], [ 80.3133788, 16.2929438 ], [ 80.3107226, 16.2940042 ], [ 80.3144571, 16.3016917 ], [ 80.3191962, 16.301931 ], [ 80.3190807, 16.3053773 ], [ 80.3226227, 16.3089081 ], [ 80.3267203, 16.3093184 ], [ 80.3299191, 16.3146263 ], [ 80.3354641, 16.3149472 ], [ 80.3399739, 16.3095641 ], [ 80.3386692, 16.3071117 ], [ 80.3355467, 16.3056982 ], [ 80.3373447, 16.3003492 ], [ 80.3418879, 16.2996154 ], [ 80.3432855, 16.3029905 ], [ 80.342888, 16.3081597 ], [ 80.3471451, 16.3142866 ], [ 80.3491256, 16.3149619 ], [ 80.3506214, 16.3127739 ], [ 80.3497702, 16.3112039 ], [ 80.3521134, 16.3090211 ], [ 80.3489143, 16.3035327 ], [ 80.3516596, 16.3022411 ], [ 80.3523315, 16.2992159 ], [ 80.3508676, 16.2968313 ], [ 80.346752, 16.2956842 ], [ 80.3494942, 16.2922487 ], [ 80.3491578, 16.2912173 ], [ 80.3474856, 16.291777 ], [ 80.3471838, 16.2884933 ], [ 80.3454197, 16.2866647 ], [ 80.3472043, 16.286069 ], [ 80.3438718, 16.2781563 ], [ 80.3388117, 16.2701743 ], [ 80.3330002, 16.2653801 ], [ 80.330256, 16.2657624 ], [ 80.326301, 16.2587669 ], [ 80.3237141, 16.250764 ], [ 80.3192999, 16.2461786 ], [ 80.3178562, 16.2481222 ], [ 80.3160817, 16.2481884 ], [ 80.3058058, 16.2332178 ], [ 80.3035519, 16.2305925 ], [ 80.3019088, 16.2304326 ], [ 80.2891122, 16.2151513 ], [ 80.286212, 16.2175951 ], [ 80.2799345, 16.2176791 ], [ 80.2751663, 16.1996236 ], [ 80.2654833, 16.198514 ], [ 80.2594231, 16.1937039 ], [ 80.2643495, 16.1876535 ], [ 80.2686809, 16.1939269 ], [ 80.2681271, 16.1951656 ], [ 80.2743449, 16.1975468 ], [ 80.2798355, 16.197322 ], [ 80.2808543, 16.1987568 ], [ 80.2854498, 16.1952971 ], [ 80.2867417, 16.1909203 ], [ 80.2958244, 16.1882698 ], [ 80.2939112, 16.1828498 ], [ 80.2952481, 16.1799611 ], [ 80.2939671, 16.1786392 ], [ 80.2945129, 16.1758175 ], [ 80.2925436, 16.165974 ], [ 80.2895426, 16.1626467 ], [ 80.2823872, 16.1626575 ], [ 80.2807698, 16.1609824 ], [ 80.2772928, 16.1609289 ], [ 80.2747477, 16.1562225 ], [ 80.2731472, 16.1562977 ], [ 80.2731502, 16.1496311 ], [ 80.2758277, 16.148856 ], [ 80.2750281, 16.1442284 ], [ 80.2779967, 16.1426078 ], [ 80.2748524, 16.1363582 ], [ 80.2760497, 16.1327457 ], [ 80.2736818, 16.1288084 ], [ 80.2708388, 16.1272314 ], [ 80.2690785, 16.1280345 ], [ 80.2678508, 16.125627 ], [ 80.2648379, 16.1252754 ], [ 80.2668273, 16.1205965 ], [ 80.2678667, 16.1199735 ], [ 80.2682857, 16.121765 ], [ 80.2723972, 16.1188205 ], [ 80.2743525, 16.1151049 ], [ 80.2822266, 16.1110425 ], [ 80.2828747, 16.1087953 ], [ 80.2844939, 16.1084125 ], [ 80.2844173, 16.1056761 ], [ 80.2894218, 16.1027685 ], [ 80.2846937, 16.0924154 ], [ 80.2825321, 16.0927027 ], [ 80.2812209, 16.0896258 ], [ 80.2783645, 16.0906299 ], [ 80.2776385, 16.0929011 ], [ 80.2735345, 16.0939461 ], [ 80.2715007, 16.092872 ], [ 80.2707738, 16.094409 ], [ 80.2619615, 16.0970045 ], [ 80.2613091, 16.0948825 ], [ 80.2588669, 16.0949928 ], [ 80.2586127, 16.0925275 ], [ 80.2544142, 16.0905191 ], [ 80.2523693, 16.0908604 ], [ 80.252848, 16.0934255 ], [ 80.2501202, 16.0937886 ], [ 80.2498609, 16.0916174 ], [ 80.2516875, 16.0899641 ], [ 80.2510156, 16.0885884 ], [ 80.247853, 16.0886752 ], [ 80.2459182, 16.0908619 ], [ 80.2436815, 16.0876208 ], [ 80.2374616, 16.086184 ], [ 80.2350985, 16.0831598 ], [ 80.2302091, 16.0873101 ], [ 80.226495, 16.0870702 ], [ 80.2311377, 16.0821507 ], [ 80.2287522, 16.075074 ], [ 80.2285203, 16.0702116 ], [ 80.2300466, 16.0657811 ], [ 80.2293673, 16.0631253 ], [ 80.2329063, 16.0610176 ], [ 80.2314135, 16.0581121 ], [ 80.2298974, 16.0585941 ], [ 80.2288174, 16.0547438 ], [ 80.2302726, 16.0543341 ], [ 80.229682, 16.0518502 ], [ 80.2308937, 16.0516754 ], [ 80.2313019, 16.0472209 ], [ 80.2297684, 16.0399372 ], [ 80.2299525, 16.0318732 ], [ 80.2116377, 16.034174 ], [ 80.1954748, 16.0383122 ], [ 80.1901056, 16.0383632 ], [ 80.1880579, 16.0259901 ], [ 80.1855896, 16.0254031 ], [ 80.1815564, 16.0266046 ], [ 80.1823062, 16.0343896 ], [ 80.1704378, 16.0364249 ], [ 80.154841, 16.0414431 ], [ 80.1552594, 16.0455686 ], [ 80.1372995, 16.0454979 ], [ 80.13501, 16.0366246 ], [ 80.1346414, 16.0234805 ], [ 80.1331145, 16.0196741 ], [ 80.1398495, 16.0166282 ], [ 80.1397765, 16.0156286 ], [ 80.1206173, 16.0205205 ], [ 80.1103056, 16.0157935 ], [ 80.1049014, 16.014906 ], [ 80.1001438, 16.0111703 ], [ 80.091779, 16.0129047 ], [ 80.0915313, 16.0151024 ], [ 80.0892242, 16.0158758 ], [ 80.0861652, 16.0206959 ], [ 80.0880177, 16.0293923 ], [ 80.084801, 16.0400961 ], [ 80.0846276, 16.0514799 ], [ 80.0825613, 16.0532081 ], [ 80.0828571, 16.0548776 ], [ 80.0799593, 16.0560298 ], [ 80.0825595, 16.062887 ], [ 80.0734124, 16.0684545 ], [ 80.0723108, 16.0738435 ], [ 80.0708114, 16.0750346 ], [ 80.0741337, 16.0919658 ], [ 80.0678779, 16.0945583 ], [ 80.0615648, 16.0892084 ], [ 80.0475161, 16.0852123 ], [ 80.0406089, 16.09233 ], [ 80.0513865, 16.1195851 ], [ 80.0502825, 16.1236444 ], [ 80.0518986, 16.1290209 ], [ 80.0503274, 16.1306187 ], [ 80.0491996, 16.1286534 ], [ 80.0434089, 16.1298215 ], [ 80.0411553, 16.1270666 ], [ 80.0338004, 16.1228806 ], [ 80.0318482, 16.1174172 ], [ 80.0206402, 16.1144749 ], [ 80.0127184, 16.1166956 ], [ 80.0101532, 16.1190325 ], [ 80.0115393, 16.1261638 ], [ 80.0072256, 16.1297766 ], [ 80.0084144, 16.1315116 ], [ 80.0061724, 16.1337 ], [ 79.998759, 16.1361611 ], [ 80.0005559, 16.139856 ], [ 79.9920518, 16.1423369 ], [ 79.9874566, 16.1423936 ], [ 79.9869681, 16.1412799 ], [ 79.9740263, 16.146083 ], [ 79.97618, 16.1509459 ], [ 79.9722718, 16.1547174 ], [ 79.9528247, 16.1642791 ], [ 79.9509107, 16.164256 ], [ 79.9504231, 16.1628753 ], [ 79.951967, 16.1613868 ], [ 79.9520052, 16.1543583 ], [ 79.9534288, 16.1522815 ], [ 79.9492838, 16.1451428 ], [ 79.9447051, 16.1392692 ], [ 79.9425964, 16.1403084 ], [ 79.9369884, 16.1394117 ], [ 79.9325824, 16.1322448 ], [ 79.9282055, 16.1328662 ], [ 79.9278059, 16.1319243 ], [ 79.9192096, 16.1401461 ], [ 79.9015919, 16.1494006 ], [ 79.8786311, 16.1547846 ], [ 79.8681693, 16.1409952 ], [ 79.8660042, 16.1346929 ], [ 79.8667606, 16.1322754 ], [ 79.8751334, 16.1287407 ], [ 79.8695277, 16.1170461 ], [ 79.869016, 16.1117031 ], [ 79.8738851, 16.1121246 ], [ 79.8684809, 16.0961337 ], [ 79.8817186, 16.0922244 ], [ 79.8850136, 16.0857301 ], [ 79.8901022, 16.0845508 ], [ 79.8904804, 16.0862886 ], [ 79.8952213, 16.0871706 ], [ 79.8941012, 16.0832596 ], [ 79.8959588, 16.0831202 ], [ 79.8954772, 16.0769316 ], [ 79.9014072, 16.0774097 ], [ 79.9158276, 16.0747046 ], [ 79.914892, 16.0715632 ], [ 79.9194817, 16.0697033 ], [ 79.9205281, 16.0605654 ], [ 79.9194888, 16.0512997 ], [ 79.9174015, 16.0469747 ], [ 79.9089592, 16.0453909 ], [ 79.9034879, 16.0419925 ], [ 79.8807482, 16.0390189 ], [ 79.8790613, 16.0370511 ], [ 79.8788358, 16.0344001 ], [ 79.8753142, 16.0343806 ], [ 79.8732351, 16.0292772 ], [ 79.8698083, 16.0303345 ], [ 79.8676934, 16.021893 ], [ 79.8665395, 16.0215051 ], [ 79.8628845, 15.9932488 ], [ 79.8660217, 15.9962432 ], [ 79.8717144, 15.9985398 ], [ 79.8795958, 15.9992957 ], [ 79.89037, 15.9945282 ], [ 79.8905978, 15.9874324 ], [ 79.9026128, 15.9832469 ], [ 79.8985784, 15.9707071 ], [ 79.9123025, 15.9668921 ], [ 79.9032966, 15.9424976 ], [ 79.8968048, 15.9466629 ], [ 79.8940552, 15.9392918 ], [ 79.88539, 15.9418222 ], [ 79.8847362, 15.9401107 ], [ 79.8800333, 15.9401784 ], [ 79.8791289, 15.9364081 ], [ 79.8754913, 15.9351989 ], [ 79.8779736, 15.9247131 ], [ 79.8695594, 15.9160857 ], [ 79.8472326, 15.9224499 ], [ 79.8482296, 15.9280701 ], [ 79.8460163, 15.9288005 ], [ 79.8171168, 15.9363574 ], [ 79.8054134, 15.9372194 ], [ 79.7911668, 15.9407181 ], [ 79.788776, 15.9360741 ], [ 79.7858028, 15.9180087 ], [ 79.7833843, 15.9146671 ], [ 79.7748135, 15.9066415 ], [ 79.7689031, 15.9073629 ], [ 79.7633635, 15.9038837 ], [ 79.7630963, 15.9003188 ], [ 79.7553782, 15.8995771 ], [ 79.7561302, 15.8959659 ], [ 79.7538733, 15.8710143 ], [ 79.747062, 15.8594523 ], [ 79.7527858, 15.8545697 ], [ 79.7541678, 15.8473833 ], [ 79.7726526, 15.8421287 ], [ 79.7703691, 15.8303614 ], [ 79.7708555, 15.8251572 ], [ 79.7656121, 15.8268216 ], [ 79.7621389, 15.8235485 ], [ 79.7524194, 15.825319 ], [ 79.7432576, 15.8253723 ], [ 79.7387431, 15.8269618 ], [ 79.7340367, 15.8346517 ], [ 79.7318091, 15.8356025 ], [ 79.7184988, 15.8354181 ], [ 79.7106107, 15.8372429 ], [ 79.7170775, 15.8451506 ], [ 79.7191505, 15.8514723 ], [ 79.7197526, 15.8587518 ], [ 79.7143402, 15.8673614 ], [ 79.6944356, 15.87607 ], [ 79.6890852, 15.8759908 ], [ 79.6899762, 15.8832309 ], [ 79.6949929, 15.8941637 ], [ 79.6934224, 15.897672 ], [ 79.6894221, 15.8998685 ], [ 79.686831, 15.8980629 ], [ 79.6850213, 15.8983092 ], [ 79.6817183, 15.9036471 ], [ 79.6762278, 15.9033725 ], [ 79.6705183, 15.9073937 ], [ 79.6708501, 15.9096383 ], [ 79.6637441, 15.9166797 ], [ 79.6580173, 15.9180184 ], [ 79.6552581, 15.9205809 ], [ 79.6491762, 15.9131208 ], [ 79.6358261, 15.9069608 ], [ 79.6232725, 15.9163711 ], [ 79.6116202, 15.9220333 ], [ 79.6154278, 15.9324535 ], [ 79.6101193, 15.9341455 ], [ 79.603978, 15.9380726 ], [ 79.5898138, 15.940138 ], [ 79.5723758, 15.9368628 ], [ 79.5591584, 15.9478376 ], [ 79.5615559, 15.9548813 ], [ 79.5595056, 15.9633164 ], [ 79.5634843, 15.97418 ], [ 79.5685396, 15.9828818 ], [ 79.5673322, 15.9841068 ], [ 79.5725699, 16.0048673 ], [ 79.5698152, 16.0059497 ], [ 79.5683773, 16.00844 ], [ 79.5654661, 16.0089881 ], [ 79.5629964, 16.0120889 ], [ 79.5668373, 16.0177007 ], [ 79.5611341, 16.0290822 ], [ 79.5637064, 16.0330195 ], [ 79.5537582, 16.0487918 ], [ 79.552312, 16.0568136 ], [ 79.5502279, 16.0593235 ], [ 79.5472546, 16.0677408 ], [ 79.5464804, 16.0760188 ], [ 79.5526134, 16.0847393 ], [ 79.5537701, 16.0893804 ], [ 79.553175, 16.0974059 ], [ 79.5554466, 16.1007811 ], [ 79.5526914, 16.1075396 ], [ 79.5528702, 16.1122216 ], [ 79.547291, 16.119492 ], [ 79.5442126, 16.1203917 ], [ 79.5383622, 16.1332645 ], [ 79.5387234, 16.1359663 ], [ 79.5368307, 16.1422084 ], [ 79.5404551, 16.1484437 ], [ 79.5403542, 16.1557342 ], [ 79.5367147, 16.1631624 ], [ 79.5388706, 16.1711776 ], [ 79.5471707, 16.1736393 ], [ 79.5518894, 16.1792554 ], [ 79.5527033, 16.1842477 ], [ 79.5592594, 16.1943312 ], [ 79.5608998, 16.2047275 ], [ 79.5563492, 16.2137259 ], [ 79.5578513, 16.2158086 ], [ 79.5581196, 16.21941 ], [ 79.5619051, 16.2227239 ], [ 79.5631434, 16.2271663 ], [ 79.5613552, 16.2320748 ], [ 79.5625348, 16.2370235 ], [ 79.5600263, 16.2417885 ], [ 79.5613615, 16.2485063 ], [ 79.5611159, 16.2607848 ], [ 79.5667005, 16.2759474 ], [ 79.5621573, 16.2801109 ], [ 79.5573847, 16.280334 ], [ 79.5499621, 16.2843216 ], [ 79.5420569, 16.2950911 ], [ 79.5363476, 16.305816 ], [ 79.5280401, 16.2971008 ], [ 79.4985699, 16.2903854 ], [ 79.4731279, 16.2904537 ], [ 79.4474054, 16.302607 ], [ 79.3711213, 16.2326847 ], [ 79.3260264, 16.2282786 ], [ 79.2962742, 16.2146471 ], [ 79.2592949, 16.193443 ], [ 79.2497596, 16.1795017 ], [ 79.2220749, 16.1629092 ], [ 79.215633, 16.1812876 ], [ 79.2167015, 16.2236466 ], [ 79.2151414, 16.22598 ], [ 79.2213569, 16.2363433 ], [ 79.2234206, 16.2466544 ], [ 79.2245146, 16.2708538 ], [ 79.230382, 16.2824903 ], [ 79.2310394, 16.3143261 ], [ 79.2338097, 16.3219908 ], [ 79.2342535, 16.3346123 ], [ 79.2213747, 16.345132 ], [ 79.2146834, 16.3490626 ], [ 79.2123494, 16.3521284 ], [ 79.2101723, 16.3591256 ], [ 79.2119614, 16.3649483 ], [ 79.2124259, 16.3734722 ], [ 79.2084384, 16.3792914 ], [ 79.2077234, 16.3847506 ], [ 79.2115645, 16.4473876 ], [ 79.217953, 16.453817 ], [ 79.2317595, 16.4576086 ], [ 79.2333569, 16.4592011 ], [ 79.217063, 16.4775561 ], [ 79.2144807, 16.4846819 ], [ 79.2199809, 16.5126386 ], [ 79.2272415, 16.5237765 ], [ 79.2307706, 16.5261676 ], [ 79.241254, 16.5291652 ], [ 79.2447724, 16.5318092 ], [ 79.2502736, 16.5471511 ], [ 79.2522181, 16.5592516 ], [ 79.256838, 16.5658186 ], [ 79.2616378, 16.566923 ], [ 79.2813634, 16.5606059 ], [ 79.2910222, 16.5615747 ], [ 79.2955153, 16.5630113 ], [ 79.3082361, 16.5741455 ], [ 79.3264325, 16.5764585 ], [ 79.3401136, 16.5826392 ], [ 79.3536916, 16.5792667 ], [ 79.3767691, 16.5827549 ], [ 79.3968161, 16.5797846 ], [ 79.41864, 16.5802452 ], [ 79.426386, 16.5848433 ], [ 79.4330514, 16.5907472 ], [ 79.4391372, 16.6129115 ], [ 79.4471734, 16.6197128 ], [ 79.4595785, 16.6236588 ], [ 79.476927, 16.6224135 ], [ 79.4833311, 16.6230956 ], [ 79.494013, 16.6330418 ], [ 79.5038451, 16.6359193 ], [ 79.5103714, 16.6357418 ], [ 79.5294236, 16.6306423 ], [ 79.5420909, 16.6322465 ], [ 79.5599662, 16.6425791 ], [ 79.5756295, 16.6497845 ], [ 79.5847101, 16.6593438 ], [ 79.5921823, 16.6698817 ], [ 79.5989234, 16.6732254 ], [ 79.6063221, 16.6713075 ], [ 79.6214898, 16.6631759 ], [ 79.6330906, 16.6604241 ], [ 79.6482784, 16.6700281 ], [ 79.6621851, 16.6866494 ], [ 79.6815417, 16.6943724 ], [ 79.6855155, 16.6945641 ], [ 79.6988598, 16.6913858 ], [ 79.7069172, 16.6912713 ], [ 79.7138888, 16.689244 ], [ 79.7228941, 16.6902765 ], [ 79.7293211, 16.6955054 ], [ 79.7446129, 16.7190817 ], [ 79.7739909, 16.7307752 ], [ 79.7858298, 16.7301415 ], [ 79.792511, 16.7254967 ], [ 79.7988713, 16.7106795 ], [ 79.8111956, 16.6956825 ], [ 79.8172622, 16.691867 ], [ 79.8210877, 16.6915129 ], [ 79.8281561, 16.6937831 ], [ 79.8510627, 16.7058389 ], [ 79.8588472, 16.704655 ], [ 79.8775287, 16.6972982 ], [ 79.8834428, 16.6908121 ], [ 79.8859445, 16.6860933 ], [ 79.8900125, 16.6618689 ], [ 79.8928959, 16.6518281 ], [ 79.8957389, 16.6472323 ], [ 79.9064634, 16.6362998 ], [ 79.9145194, 16.6326906 ], [ 79.9305433, 16.6312778 ], [ 79.9475095, 16.6350266 ], [ 79.961609, 16.6425793 ], [ 79.9656574, 16.6460945 ], [ 79.9793804, 16.6653402 ], [ 79.9974112, 16.7020928 ], [ 80.0075822, 16.708837 ], [ 80.0221452, 16.7103265 ], [ 80.0300382, 16.7144052 ], [ 80.0366429, 16.727657 ], [ 80.0549553, 16.7446463 ], [ 80.0538616, 16.7654336 ], [ 80.0664523, 16.7864118 ], [ 80.0706019, 16.8016923 ], [ 80.0698091, 16.8078682 ], [ 80.0706861, 16.8126773 ], [ 80.0726451, 16.8164845 ], [ 80.0872391, 16.8206061 ], [ 80.1043601, 16.8223119 ] ] ] } }
]
}
