{
"type": "FeatureCollection",
"name": "2833",
"crs": { "type": "name", "properties": { "name": "urn:ogc:def:crs:OGC:1.3:CRS84" } },
"features": [
{ "type": "Feature", "properties": { "code": "2833", "name": "Tirupati", "type": "district" }, "geometry": { "type": "Polygon", "coordinates": [ [ [ 79.8001868, 14.2658503 ], [ 79.8111735, 14.2616052 ], [ 79.8138178, 14.2582684 ], [ 79.816975, 14.2567145 ], [ 79.8127202, 14.2498786 ], [ 79.8183971, 14.2434322 ], [ 79.8169393, 14.2332917 ], [ 79.817868, 14.225962 ], [ 79.8346735, 14.2173676 ], [ 79.8398239, 14.2168549 ], [ 79.8485161, 14.2088667 ], [ 79.8496212, 14.2053438 ], [ 79.8479837, 14.1987475 ], [ 79.8574338, 14.1795319 ], [ 79.8559199, 14.1762588 ], [ 79.8647655, 14.1702732 ], [ 79.8707466, 14.1689215 ], [ 79.8894698, 14.158091 ], [ 79.9020424, 14.160053 ], [ 79.9043099, 14.1578126 ], [ 79.905558, 14.1540866 ], [ 79.9133744, 14.1522371 ], [ 79.9127848, 14.1494688 ], [ 79.9233901, 14.1459179 ], [ 79.9313376, 14.1450535 ], [ 79.930982, 14.1430319 ], [ 79.9330825, 14.1423323 ], [ 79.9354651, 14.1450918 ], [ 79.9373912, 14.1438447 ], [ 79.9409918, 14.1500702 ], [ 79.9428474, 14.1591707 ], [ 79.9417111, 14.1612517 ], [ 79.9470056, 14.1616047 ], [ 79.9485193, 14.1604198 ], [ 79.9501694, 14.1550626 ], [ 79.9537008, 14.1529201 ], [ 79.9572031, 14.1563919 ], [ 79.9606754, 14.1572553 ], [ 79.9632886, 14.1606434 ], [ 79.9679644, 14.1602078 ], [ 79.9683283, 14.1644581 ], [ 79.9704075, 14.1666107 ], [ 79.9740745, 14.165761 ], [ 79.973266, 14.1684081 ], [ 79.9756338, 14.1718904 ], [ 79.972715, 14.175337 ], [ 79.9759778, 14.1855528 ], [ 79.9772909, 14.1866366 ], [ 79.9806224, 14.1848727 ], [ 79.9823583, 14.1855054 ], [ 79.9864763, 14.1932414 ], [ 79.989439, 14.1925072 ], [ 79.9881567, 14.1830015 ], [ 79.9891567, 14.1815076 ], [ 79.991743, 14.1830148 ], [ 79.9975707, 14.1908948 ], [ 80.0002282, 14.1899021 ], [ 80.0020194, 14.1851551 ], [ 80.0046293, 14.1846459 ], [ 80.0066144, 14.1875981 ], [ 80.0063848, 14.1905586 ], [ 80.0048764, 14.1914999 ], [ 80.0077664, 14.1958602 ], [ 80.0119177, 14.197972 ], [ 80.0158888, 14.1980626 ], [ 80.018853, 14.1967268 ], [ 80.021614, 14.1923767 ], [ 80.0201197, 14.1844197 ], [ 80.0236751, 14.1838265 ], [ 80.0296366, 14.1924564 ], [ 80.0340233, 14.1950792 ], [ 80.0306601, 14.1966494 ], [ 80.0285763, 14.1999992 ], [ 80.0303371, 14.2039452 ], [ 80.0351199, 14.2037479 ], [ 80.041655, 14.1982064 ], [ 80.047874, 14.1990064 ], [ 80.0488967, 14.2008007 ], [ 80.0478068, 14.2082376 ], [ 80.0532702, 14.2103877 ], [ 80.0564306, 14.2145987 ], [ 80.057617, 14.2208535 ], [ 80.0592239, 14.2192926 ], [ 80.0598298, 14.213548 ], [ 80.0628785, 14.209576 ], [ 80.0645429, 14.2092043 ], [ 80.0683161, 14.213023 ], [ 80.0685471, 14.219764 ], [ 80.0711312, 14.2250043 ], [ 80.0978225, 14.2311693 ], [ 80.1029503, 14.2348545 ], [ 80.1060113, 14.2384996 ], [ 80.1014509, 14.2430344 ], [ 80.0984621, 14.2519439 ], [ 80.1016531, 14.2555712 ], [ 80.1089986, 14.2538128 ], [ 80.1138, 14.2540794 ], [ 80.1220417, 14.251427 ], [ 80.1388226, 14.2581145 ], [ 80.1383834, 14.2523058 ], [ 80.1345057, 14.2436777 ], [ 80.1316264, 14.2316608 ], [ 80.1301072, 14.2311609 ], [ 80.1310457, 14.2273696 ], [ 80.1292533, 14.2192742 ], [ 80.1262623, 14.173189 ], [ 80.129325, 14.1255787 ], [ 80.1305696, 14.1238857 ], [ 80.1357004, 14.086614 ], [ 80.1419504, 14.0748671 ], [ 80.1430294, 14.0567737 ], [ 80.1499503, 14.0312996 ], [ 80.1557285, 14.0205012 ], [ 80.167924, 13.9893627 ], [ 80.1813923, 13.9616704 ], [ 80.198163, 13.9171726 ], [ 80.2183711, 13.8805168 ], [ 80.2188592, 13.878836 ], [ 80.2175299, 13.8766331 ], [ 80.2191191, 13.8782307 ], [ 80.2208817, 13.8749516 ], [ 80.2265856, 13.8549949 ], [ 80.237495, 13.8289659 ], [ 80.2428356, 13.812254 ], [ 80.2503331, 13.7969414 ], [ 80.2536529, 13.7824057 ], [ 80.237533, 13.7238575 ], [ 80.2338666, 13.6967554 ], [ 80.2336496, 13.6584477 ], [ 80.237228, 13.6365538 ], [ 80.2425715, 13.6164399 ], [ 80.2685393, 13.5645375 ], [ 80.2640496, 13.5626374 ], [ 80.2511093, 13.5027695 ], [ 80.241814, 13.470647 ], [ 80.2409748, 13.4733093 ], [ 80.2351981, 13.4740032 ], [ 80.2288197, 13.482891 ], [ 80.2260954, 13.4837959 ], [ 80.2258881, 13.4850705 ], [ 80.2138305, 13.4860961 ], [ 80.2145986, 13.4902718 ], [ 80.2106039, 13.4904765 ], [ 80.2099121, 13.4862938 ], [ 80.2033203, 13.4883817 ], [ 80.186529, 13.4906502 ], [ 80.1771217, 13.4911718 ], [ 80.1708128, 13.4889042 ], [ 80.1630449, 13.4882274 ], [ 80.1538411, 13.4908858 ], [ 80.145145, 13.4914152 ], [ 80.1455334, 13.4994869 ], [ 80.1446133, 13.5013275 ], [ 80.1392128, 13.5042738 ], [ 80.131708, 13.501435 ], [ 80.1267382, 13.5046342 ], [ 80.1237917, 13.5034724 ], [ 80.118836, 13.5036932 ], [ 80.1127715, 13.5059474 ], [ 80.1115147, 13.4932814 ], [ 80.108213, 13.4889199 ], [ 80.106398, 13.4898733 ], [ 80.1051599, 13.4933532 ], [ 80.1009346, 13.4898456 ], [ 80.1030639, 13.4869489 ], [ 80.0781901, 13.4888114 ], [ 80.0767985, 13.5038371 ], [ 80.0771419, 13.5268049 ], [ 80.0828445, 13.5327994 ], [ 80.0886406, 13.5353997 ], [ 80.0812594, 13.5497512 ], [ 80.0760268, 13.5465906 ], [ 80.068401, 13.544613 ], [ 80.0627514, 13.5453567 ], [ 80.0598101, 13.5424089 ], [ 80.0569346, 13.5366365 ], [ 80.0430445, 13.5374532 ], [ 80.0398011, 13.5390063 ], [ 80.0284381, 13.5388246 ], [ 80.0238981, 13.5460352 ], [ 80.0217737, 13.5449539 ], [ 80.0168945, 13.5471793 ], [ 80.0055322, 13.5452565 ], [ 80.0005084, 13.5421712 ], [ 79.9985997, 13.5427238 ], [ 79.9986, 13.5342804 ], [ 80.0005191, 13.5256754 ], [ 80.0079924, 13.5258065 ], [ 80.0176531, 13.5295586 ], [ 80.0195204, 13.5192508 ], [ 80.0271859, 13.5137005 ], [ 80.0355203, 13.5183054 ], [ 80.0484232, 13.5122508 ], [ 80.0466183, 13.4936838 ], [ 80.0299998, 13.4981881 ], [ 80.0159046, 13.4979515 ], [ 80.0144368, 13.4961159 ], [ 80.0158396, 13.4890256 ], [ 80.0135185, 13.4851921 ], [ 80.0122022, 13.4854716 ], [ 80.0076231, 13.4813522 ], [ 80.0074905, 13.4786405 ], [ 79.9840773, 13.4795786 ], [ 79.9823969, 13.4704564 ], [ 79.9724203, 13.4690917 ], [ 79.9720365, 13.4426313 ], [ 79.9711051, 13.4402599 ], [ 79.9728727, 13.4397152 ], [ 79.9733387, 13.4296725 ], [ 79.9707283, 13.428397 ], [ 79.9707268, 13.4272988 ], [ 79.9657855, 13.4265733 ], [ 79.9654616, 13.4251017 ], [ 79.9619675, 13.4233786 ], [ 79.9574594, 13.4235048 ], [ 79.9566518, 13.4221924 ], [ 79.9550684, 13.4223797 ], [ 79.9557232, 13.425208 ], [ 79.9525521, 13.4258448 ], [ 79.9515294, 13.4240203 ], [ 79.9494791, 13.4237517 ], [ 79.9481788, 13.4250278 ], [ 79.9396096, 13.4250294 ], [ 79.9420314, 13.4197343 ], [ 79.9418382, 13.41672 ], [ 79.9345755, 13.4164539 ], [ 79.9377408, 13.4148947 ], [ 79.9383891, 13.4127969 ], [ 79.9422117, 13.4127967 ], [ 79.9413773, 13.4101494 ], [ 79.9436551, 13.4079592 ], [ 79.9457047, 13.4077306 ], [ 79.941282, 13.400609 ], [ 79.9432334, 13.3996033 ], [ 79.9443564, 13.3968677 ], [ 79.9562348, 13.3971374 ], [ 79.9625692, 13.3942323 ], [ 79.9625705, 13.3884384 ], [ 79.961453, 13.3881223 ], [ 79.9579959, 13.3791504 ], [ 79.9538999, 13.3771194 ], [ 79.949989, 13.3798134 ], [ 79.9482163, 13.3832369 ], [ 79.9476558, 13.3817281 ], [ 79.9450477, 13.3817765 ], [ 79.9480766, 13.3787628 ], [ 79.9479365, 13.3775292 ], [ 79.9491922, 13.3776678 ], [ 79.949471, 13.37548 ], [ 79.9480667, 13.3743011 ], [ 79.9464426, 13.3681759 ], [ 79.9454179, 13.3682224 ], [ 79.9456475, 13.3637388 ], [ 79.9421993, 13.3635578 ], [ 79.9429025, 13.3612746 ], [ 79.9409987, 13.3612254 ], [ 79.9380071, 13.3555229 ], [ 79.9359128, 13.3564383 ], [ 79.9331147, 13.3519177 ], [ 79.9313002, 13.3515131 ], [ 79.9292052, 13.3556192 ], [ 79.9252899, 13.3583581 ], [ 79.9159724, 13.3598692 ], [ 79.915786, 13.3582695 ], [ 79.9168105, 13.358083 ], [ 79.9133604, 13.3522433 ], [ 79.9149012, 13.3515636 ], [ 79.914851, 13.348138 ], [ 79.9103822, 13.3472707 ], [ 79.9051578, 13.3435298 ], [ 79.9037699, 13.3404199 ], [ 79.8921703, 13.3352323 ], [ 79.8868118, 13.3350976 ], [ 79.883505, 13.3328593 ], [ 79.8828997, 13.3233193 ], [ 79.8808475, 13.3247811 ], [ 79.8776349, 13.3242781 ], [ 79.8680653, 13.3310664 ], [ 79.8628089, 13.3169208 ], [ 79.8535456, 13.3207073 ], [ 79.8532643, 13.3159622 ], [ 79.8480501, 13.3165995 ], [ 79.8457228, 13.3151371 ], [ 79.836687, 13.3152305 ], [ 79.8360862, 13.3142231 ], [ 79.8291897, 13.3175097 ], [ 79.8173623, 13.3185536 ], [ 79.8089991, 13.3172354 ], [ 79.80788, 13.3141268 ], [ 79.8035998, 13.3109752 ], [ 79.8047648, 13.3074446 ], [ 79.801645, 13.3005048 ], [ 79.7917328, 13.2935241 ], [ 79.7855883, 13.2966645 ], [ 79.7802274, 13.306145 ], [ 79.7751972, 13.3059807 ], [ 79.7704229, 13.3092193 ], [ 79.7681412, 13.3139208 ], [ 79.7561366, 13.3207994 ], [ 79.7551606, 13.3253285 ], [ 79.7575526, 13.3278174 ], [ 79.7496582, 13.3409279 ], [ 79.7491153, 13.3443223 ], [ 79.7372889, 13.3440339 ], [ 79.7344185, 13.3448851 ], [ 79.7327488, 13.3472316 ], [ 79.7320364, 13.3762013 ], [ 79.7238919, 13.39483 ], [ 79.7145972, 13.4023278 ], [ 79.7089688, 13.4134707 ], [ 79.7098893, 13.4186404 ], [ 79.7135505, 13.4190093 ], [ 79.715846, 13.4217785 ], [ 79.7143416, 13.4366434 ], [ 79.7126112, 13.4396587 ], [ 79.7068353, 13.4403302 ], [ 79.7000443, 13.4432844 ], [ 79.694273, 13.4441545 ], [ 79.6929746, 13.4407474 ], [ 79.6882268, 13.4351814 ], [ 79.688976, 13.4215371 ], [ 79.6917809, 13.4134418 ], [ 79.6915797, 13.4027355 ], [ 79.6890915, 13.4031794 ], [ 79.6852086, 13.4013008 ], [ 79.6789858, 13.4021119 ], [ 79.6752284, 13.4040656 ], [ 79.6752291, 13.4079748 ], [ 79.670968, 13.4078994 ], [ 79.6682112, 13.4031097 ], [ 79.6693414, 13.3981651 ], [ 79.6567897, 13.4005413 ], [ 79.6605793, 13.3966762 ], [ 79.6605788, 13.392767 ], [ 79.664964, 13.3910393 ], [ 79.6658513, 13.3668287 ], [ 79.6491648, 13.3613148 ], [ 79.6496029, 13.3564428 ], [ 79.6482779, 13.3533021 ], [ 79.6377405, 13.3532489 ], [ 79.6269077, 13.3563906 ], [ 79.5987932, 13.3608731 ], [ 79.5846642, 13.3616622 ], [ 79.5823516, 13.3622585 ], [ 79.5784504, 13.3667326 ], [ 79.56621, 13.3630327 ], [ 79.5522038, 13.353962 ], [ 79.5373006, 13.3386477 ], [ 79.5351775, 13.338574 ], [ 79.525935, 13.3443868 ], [ 79.5217915, 13.3418135 ], [ 79.5109827, 13.3419032 ], [ 79.5082508, 13.3506279 ], [ 79.5088054, 13.3593332 ], [ 79.5131009, 13.3625312 ], [ 79.5154985, 13.368363 ], [ 79.5198171, 13.3726452 ], [ 79.532247, 13.3750502 ], [ 79.5357221, 13.3771396 ], [ 79.5414931, 13.387881 ], [ 79.5421192, 13.393147 ], [ 79.5405014, 13.3988642 ], [ 79.5377119, 13.4021899 ], [ 79.5301587, 13.4035884 ], [ 79.5249385, 13.4006845 ], [ 79.5247823, 13.3989443 ], [ 79.5231385, 13.3997166 ], [ 79.5225529, 13.3980485 ], [ 79.5217493, 13.3989566 ], [ 79.5159883, 13.3980186 ], [ 79.5145443, 13.395993 ], [ 79.5105789, 13.3958105 ], [ 79.4986034, 13.3836226 ], [ 79.4956522, 13.3851246 ], [ 79.4915657, 13.3827584 ], [ 79.4793941, 13.3856878 ], [ 79.4809623, 13.393203 ], [ 79.4863436, 13.4001516 ], [ 79.4855137, 13.4024975 ], [ 79.4790155, 13.4071463 ], [ 79.4788422, 13.4120455 ], [ 79.4818628, 13.4147695 ], [ 79.483698, 13.4198937 ], [ 79.491265, 13.4199717 ], [ 79.4914733, 13.421124 ], [ 79.4965153, 13.421673 ], [ 79.497803, 13.4207956 ], [ 79.5000209, 13.4230751 ], [ 79.4970208, 13.4352763 ], [ 79.4991371, 13.435698 ], [ 79.4996462, 13.442216 ], [ 79.5144708, 13.4457937 ], [ 79.5252298, 13.4445235 ], [ 79.5313646, 13.448743 ], [ 79.5297237, 13.45319 ], [ 79.5233354, 13.4585526 ], [ 79.5242483, 13.4617757 ], [ 79.5138806, 13.4593838 ], [ 79.5006574, 13.4642924 ], [ 79.4901971, 13.4555402 ], [ 79.485824, 13.4550676 ], [ 79.4784246, 13.4608194 ], [ 79.4746778, 13.46746 ], [ 79.4739914, 13.4712973 ], [ 79.4748928, 13.4735793 ], [ 79.4860082, 13.4738231 ], [ 79.4872906, 13.4708714 ], [ 79.4908731, 13.4688858 ], [ 79.4986029, 13.4708298 ], [ 79.5028157, 13.4748288 ], [ 79.501091, 13.4790315 ], [ 79.5018088, 13.4842207 ], [ 79.5090034, 13.484997 ], [ 79.5103874, 13.4881616 ], [ 79.5089776, 13.4906604 ], [ 79.5179873, 13.4913412 ], [ 79.5181985, 13.4939851 ], [ 79.5109841, 13.4955285 ], [ 79.5091772, 13.4978418 ], [ 79.5013298, 13.4997371 ], [ 79.4959587, 13.4990822 ], [ 79.4909829, 13.4953153 ], [ 79.491746, 13.5050305 ], [ 79.4905034, 13.5106366 ], [ 79.4785714, 13.5087306 ], [ 79.4737536, 13.5045138 ], [ 79.4700686, 13.5081332 ], [ 79.4639783, 13.506237 ], [ 79.4588658, 13.507278 ], [ 79.4538177, 13.5012566 ], [ 79.4499319, 13.4994346 ], [ 79.4436918, 13.497258 ], [ 79.4427639, 13.4990389 ], [ 79.4391803, 13.499894 ], [ 79.425425, 13.4925125 ], [ 79.4201, 13.4915282 ], [ 79.4195957, 13.4865117 ], [ 79.4180855, 13.4862816 ], [ 79.416544, 13.4915695 ], [ 79.3996136, 13.4928263 ], [ 79.3924321, 13.4919158 ], [ 79.3853891, 13.4891142 ], [ 79.3856245, 13.4865155 ], [ 79.3793945, 13.4812506 ], [ 79.3771455, 13.4814992 ], [ 79.3765128, 13.4779017 ], [ 79.3726199, 13.4761617 ], [ 79.3677639, 13.471038 ], [ 79.3656654, 13.4722206 ], [ 79.3598792, 13.4715063 ], [ 79.3590943, 13.4693279 ], [ 79.3529711, 13.4685998 ], [ 79.3523387, 13.4665253 ], [ 79.3415518, 13.4653445 ], [ 79.3411587, 13.4690414 ], [ 79.3315448, 13.4665271 ], [ 79.3288387, 13.4674215 ], [ 79.3291935, 13.4713173 ], [ 79.3271984, 13.4723293 ], [ 79.3284955, 13.4745531 ], [ 79.3428649, 13.4874041 ], [ 79.3345701, 13.4904083 ], [ 79.3295135, 13.4884641 ], [ 79.3095631, 13.4877049 ], [ 79.3051765, 13.485539 ], [ 79.2984683, 13.4794493 ], [ 79.2898184, 13.4802555 ], [ 79.2761923, 13.4759797 ], [ 79.2699444, 13.4754981 ], [ 79.2708924, 13.4723892 ], [ 79.2596259, 13.4700794 ], [ 79.2550245, 13.4556918 ], [ 79.2407855, 13.4482104 ], [ 79.239515, 13.441032 ], [ 79.2368916, 13.4405191 ], [ 79.2361087, 13.4416937 ], [ 79.2312025, 13.4422695 ], [ 79.2284854, 13.4441643 ], [ 79.2269545, 13.4482532 ], [ 79.2254077, 13.4425054 ], [ 79.2235603, 13.4426432 ], [ 79.216585, 13.4368937 ], [ 79.2167069, 13.4358869 ], [ 79.2190541, 13.4355308 ], [ 79.2267426, 13.4380087 ], [ 79.2293578, 13.437636 ], [ 79.2333152, 13.4337606 ], [ 79.2358015, 13.4362426 ], [ 79.2395459, 13.4368572 ], [ 79.2416791, 13.4264732 ], [ 79.2573113, 13.4248793 ], [ 79.2582771, 13.4231669 ], [ 79.2556412, 13.4223884 ], [ 79.2532279, 13.4197433 ], [ 79.246224, 13.4193751 ], [ 79.2458835, 13.4177284 ], [ 79.2352646, 13.4181705 ], [ 79.2338539, 13.4171724 ], [ 79.229276, 13.4177727 ], [ 79.2291831, 13.4215043 ], [ 79.2268033, 13.4226374 ], [ 79.223007, 13.4200795 ], [ 79.2213729, 13.4172095 ], [ 79.2135987, 13.4217343 ], [ 79.2119226, 13.4239742 ], [ 79.2126717, 13.4273676 ], [ 79.2110736, 13.4275159 ], [ 79.2103276, 13.4243755 ], [ 79.2075567, 13.4238749 ], [ 79.20477, 13.4215307 ], [ 79.2042642, 13.4169505 ], [ 79.2064742, 13.4156584 ], [ 79.2073045, 13.4128803 ], [ 79.217788, 13.4133605 ], [ 79.2276303, 13.4109039 ], [ 79.228016, 13.4053939 ], [ 79.2262972, 13.4017851 ], [ 79.2233468, 13.4044121 ], [ 79.2153738, 13.4069161 ], [ 79.1984575, 13.4084517 ], [ 79.1908167, 13.4024172 ], [ 79.1680236, 13.3993364 ], [ 79.1659813, 13.4024546 ], [ 79.1569509, 13.4008064 ], [ 79.1584652, 13.4048781 ], [ 79.1577708, 13.4079415 ], [ 79.1549111, 13.4069698 ], [ 79.1533171, 13.4079039 ], [ 79.1529713, 13.4140284 ], [ 79.1490459, 13.414351 ], [ 79.1484437, 13.4119254 ], [ 79.1495299, 13.4089593 ], [ 79.1477283, 13.4091962 ], [ 79.1454444, 13.4118065 ], [ 79.1442578, 13.4098243 ], [ 79.1415882, 13.4100917 ], [ 79.141009, 13.4124601 ], [ 79.143051, 13.4210401 ], [ 79.1322128, 13.421096 ], [ 79.1304528, 13.4179171 ], [ 79.1275174, 13.4172155 ], [ 79.1243474, 13.4184147 ], [ 79.1247583, 13.4204326 ], [ 79.1225609, 13.4191214 ], [ 79.1186219, 13.4220594 ], [ 79.1116851, 13.4232922 ], [ 79.1066112, 13.4260915 ], [ 79.0905793, 13.4255639 ], [ 79.0926493, 13.4377504 ], [ 79.0908031, 13.4410003 ], [ 79.088771, 13.4430966 ], [ 79.0818206, 13.445467 ], [ 79.0774844, 13.4437116 ], [ 79.0698089, 13.4506312 ], [ 79.0631187, 13.4481861 ], [ 79.057651, 13.4420304 ], [ 79.0531212, 13.442207 ], [ 79.0503917, 13.4436611 ], [ 79.0512784, 13.4493515 ], [ 79.0503826, 13.453204 ], [ 79.0467202, 13.4585104 ], [ 79.0474869, 13.4603684 ], [ 79.0408424, 13.464321 ], [ 79.0329152, 13.4725435 ], [ 79.0292924, 13.4729654 ], [ 79.0265673, 13.4762403 ], [ 79.0239101, 13.4772021 ], [ 79.0108353, 13.4795766 ], [ 79.0059851, 13.4829625 ], [ 79.001415, 13.49025 ], [ 78.9969565, 13.4930647 ], [ 78.988294, 13.4936891 ], [ 78.9805305, 13.4914595 ], [ 78.983324, 13.5103767 ], [ 78.9955203, 13.5176902 ], [ 79.0090333, 13.5324954 ], [ 79.01687, 13.5381995 ], [ 79.0436906, 13.5399649 ], [ 79.0392043, 13.5541408 ], [ 79.040249, 13.5552869 ], [ 79.0428467, 13.5556755 ], [ 79.0477196, 13.54866 ], [ 79.0497113, 13.5491664 ], [ 79.0504647, 13.5529176 ], [ 79.0534524, 13.5536433 ], [ 79.0572969, 13.5514962 ], [ 79.0612362, 13.5515776 ], [ 79.0748239, 13.5413045 ], [ 79.0753469, 13.5378918 ], [ 79.0812483, 13.5334855 ], [ 79.0808195, 13.5307668 ], [ 79.0834884, 13.5301884 ], [ 79.0824466, 13.5286043 ], [ 79.0782338, 13.5280878 ], [ 79.0777997, 13.5267834 ], [ 79.0800276, 13.5252214 ], [ 79.0798775, 13.5229385 ], [ 79.0776212, 13.5206999 ], [ 79.0805777, 13.5147011 ], [ 79.0821653, 13.5141968 ], [ 79.0891419, 13.516309 ], [ 79.0922033, 13.5150554 ], [ 79.1119569, 13.5153409 ], [ 79.1191814, 13.521742 ], [ 79.1269013, 13.5213048 ], [ 79.1367664, 13.5232129 ], [ 79.1440985, 13.5220677 ], [ 79.153134, 13.5292611 ], [ 79.1614362, 13.5322425 ], [ 79.1700531, 13.5379458 ], [ 79.1798295, 13.546503 ], [ 79.1729508, 13.5550769 ], [ 79.169546, 13.5656202 ], [ 79.1700581, 13.5719815 ], [ 79.1769508, 13.5928392 ], [ 79.1719999, 13.6030749 ], [ 79.1589335, 13.6004881 ], [ 79.1476183, 13.6054269 ], [ 79.1146277, 13.6079451 ], [ 79.0890397, 13.612144 ], [ 79.0761057, 13.6104839 ], [ 79.0525381, 13.6130653 ], [ 79.0499082, 13.6202143 ], [ 79.0534863, 13.6289065 ], [ 79.0522019, 13.6295213 ], [ 79.0537631, 13.6328084 ], [ 79.053934, 13.6475373 ], [ 79.0679867, 13.6571964 ], [ 79.0713511, 13.6604281 ], [ 79.076575, 13.669267 ], [ 79.0746816, 13.6859346 ], [ 79.0785272, 13.6918684 ], [ 79.0793329, 13.6961299 ], [ 79.0845126, 13.7022434 ], [ 79.0881633, 13.7122151 ], [ 79.0895989, 13.7216792 ], [ 79.0926604, 13.7247866 ], [ 79.0902569, 13.7313008 ], [ 79.0868131, 13.7351869 ], [ 79.0887721, 13.7373197 ], [ 79.0846869, 13.7371024 ], [ 79.0816766, 13.7397936 ], [ 79.083787, 13.7434054 ], [ 79.082948, 13.762639 ], [ 79.0891596, 13.7689178 ], [ 79.0887112, 13.7820259 ], [ 79.0723364, 13.7808303 ], [ 79.0624711, 13.7817707 ], [ 79.058228, 13.7795857 ], [ 79.0487686, 13.778752 ], [ 79.0463753, 13.7740261 ], [ 79.0414889, 13.7719719 ], [ 79.0358949, 13.7712188 ], [ 79.023113, 13.7726702 ], [ 79.0188987, 13.7847935 ], [ 79.0212542, 13.8026987 ], [ 79.0364528, 13.8030539 ], [ 79.0420468, 13.8051901 ], [ 79.0404169, 13.8105525 ], [ 79.0421174, 13.813918 ], [ 79.0385379, 13.8157867 ], [ 79.0367588, 13.8187527 ], [ 79.0326878, 13.8170068 ], [ 79.0256141, 13.8179198 ], [ 79.0231937, 13.8200135 ], [ 79.0208986, 13.8251633 ], [ 79.0137218, 13.8262107 ], [ 79.0156087, 13.8306038 ], [ 79.0143763, 13.8352412 ], [ 79.0123806, 13.8374055 ], [ 79.0123144, 13.8431949 ], [ 79.0106747, 13.8441188 ], [ 79.0189989, 13.8449913 ], [ 79.0251742, 13.8493603 ], [ 79.0229839, 13.8521968 ], [ 79.0232164, 13.8539025 ], [ 79.0209348, 13.8557704 ], [ 79.022673, 13.8579619 ], [ 79.0313977, 13.8598039 ], [ 79.037733, 13.8575839 ], [ 79.0450052, 13.8588051 ], [ 79.0485689, 13.863675 ], [ 79.044757, 13.8617728 ], [ 79.0373819, 13.8739657 ], [ 79.0347972, 13.8756742 ], [ 79.0300996, 13.8752978 ], [ 79.0283796, 13.8789513 ], [ 79.0208283, 13.879097 ], [ 79.0202153, 13.8850272 ], [ 79.0246466, 13.8870382 ], [ 79.0223737, 13.8897114 ], [ 79.0233411, 13.8909069 ], [ 79.0226506, 13.8923123 ], [ 79.0174585, 13.8949379 ], [ 79.0101432, 13.8956182 ], [ 79.0095218, 13.9013857 ], [ 79.005781, 13.9010879 ], [ 79.0014266, 13.9087222 ], [ 79.0240857, 13.8963111 ], [ 79.0235568, 13.8914934 ], [ 79.0817524, 13.8791941 ], [ 79.0906344, 13.8806417 ], [ 79.0995309, 13.8503001 ], [ 79.1267744, 13.8500555 ], [ 79.1313766, 13.8521648 ], [ 79.148677, 13.8652493 ], [ 79.1486139, 13.8618537 ], [ 79.1501944, 13.8586594 ], [ 79.1567176, 13.853038 ], [ 79.1590661, 13.8525559 ], [ 79.1632297, 13.8490436 ], [ 79.171582, 13.8478854 ], [ 79.173786, 13.8447763 ], [ 79.1742227, 13.8416875 ], [ 79.1773881, 13.8379607 ], [ 79.1865791, 13.8315553 ], [ 79.1959987, 13.8269092 ], [ 79.1986684, 13.8239022 ], [ 79.2056482, 13.8216676 ], [ 79.2077654, 13.8182457 ], [ 79.2160147, 13.8134468 ], [ 79.2158443, 13.8113067 ], [ 79.2123594, 13.8109328 ], [ 79.2104712, 13.8068172 ], [ 79.2037349, 13.8079372 ], [ 79.197948, 13.8031375 ], [ 79.1950174, 13.8028888 ], [ 79.1909223, 13.7933311 ], [ 79.1965573, 13.7901548 ], [ 79.1991956, 13.7840698 ], [ 79.2035412, 13.7799614 ], [ 79.2159441, 13.7747274 ], [ 79.2209792, 13.766831 ], [ 79.2211162, 13.7618145 ], [ 79.224903, 13.7576623 ], [ 79.2421601, 13.7517246 ], [ 79.2418686, 13.7605954 ], [ 79.2493384, 13.7613665 ], [ 79.2930322, 13.7597292 ], [ 79.3057606, 13.7241306 ], [ 79.3594148, 13.7480162 ], [ 79.3724471, 13.7563618 ], [ 79.3900271, 13.7611062 ], [ 79.4073165, 13.7624625 ], [ 79.4178587, 13.7649532 ], [ 79.4202282, 13.7671302 ], [ 79.4218049, 13.7721973 ], [ 79.4203853, 13.777356 ], [ 79.4177718, 13.7775097 ], [ 79.4167236, 13.7789415 ], [ 79.4166054, 13.7819871 ], [ 79.4182862, 13.7841382 ], [ 79.4258676, 13.7845975 ], [ 79.4298794, 13.7823898 ], [ 79.4350512, 13.7837766 ], [ 79.44451, 13.7824957 ], [ 79.4544713, 13.785027 ], [ 79.4669817, 13.7945713 ], [ 79.468903, 13.7983972 ], [ 79.4600303, 13.7998494 ], [ 79.4567656, 13.8015957 ], [ 79.4543707, 13.8262697 ], [ 79.4402189, 13.850519 ], [ 79.4344466, 13.8651968 ], [ 79.4339352, 13.8766593 ], [ 79.4430612, 13.8902793 ], [ 79.4446202, 13.8957679 ], [ 79.4418645, 13.905038 ], [ 79.4444259, 13.9071663 ], [ 79.4463142, 13.9123603 ], [ 79.4551919, 13.9233794 ], [ 79.4546194, 13.9302155 ], [ 79.4569215, 13.9324553 ], [ 79.4567898, 13.9435108 ], [ 79.4588436, 13.9463869 ], [ 79.4564075, 13.952043 ], [ 79.4523119, 13.9537493 ], [ 79.4510538, 13.9597594 ], [ 79.4520699, 13.9628246 ], [ 79.4498643, 13.9712256 ], [ 79.4549863, 13.9875421 ], [ 79.4522178, 13.9929074 ], [ 79.4427299, 13.9978185 ], [ 79.4396635, 14.0060028 ], [ 79.4367314, 14.0237349 ], [ 79.4434371, 14.0400556 ], [ 79.4425778, 14.0607141 ], [ 79.4462988, 14.0646114 ], [ 79.4463099, 14.0668898 ], [ 79.4499534, 14.0697334 ], [ 79.4517383, 14.075542 ], [ 79.4500439, 14.088652 ], [ 79.4531829, 14.0932741 ], [ 79.4542139, 14.100702 ], [ 79.4517527, 14.1028144 ], [ 79.450502, 14.1072564 ], [ 79.4447201, 14.1163047 ], [ 79.4408176, 14.1333458 ], [ 79.4379108, 14.1398726 ], [ 79.4344618, 14.162047 ], [ 79.4283018, 14.1806818 ], [ 79.4280336, 14.1846865 ], [ 79.4825009, 14.179532 ], [ 79.4894765, 14.1799952 ], [ 79.4946674, 14.176946 ], [ 79.5005722, 14.1765855 ], [ 79.5074042, 14.1742309 ], [ 79.5288679, 14.1719037 ], [ 79.5422669, 14.161015 ], [ 79.5465719, 14.1601723 ], [ 79.5515865, 14.1559274 ], [ 79.5622468, 14.1529375 ], [ 79.5740286, 14.1468507 ], [ 79.5806153, 14.146075 ], [ 79.5884233, 14.1415568 ], [ 79.5925262, 14.1368008 ], [ 79.5996747, 14.1315063 ], [ 79.5994313, 14.1197291 ], [ 79.6056702, 14.1177802 ], [ 79.6073702, 14.1146458 ], [ 79.6114404, 14.1149477 ], [ 79.6150458, 14.1124405 ], [ 79.6189718, 14.1128685 ], [ 79.6229438, 14.1102179 ], [ 79.6276547, 14.1101156 ], [ 79.63052, 14.1062669 ], [ 79.6369597, 14.1112706 ], [ 79.6411536, 14.1129559 ], [ 79.6424362, 14.1163018 ], [ 79.6418645, 14.1361585 ], [ 79.6413093, 14.1403242 ], [ 79.6397898, 14.1403271 ], [ 79.6403489, 14.1524899 ], [ 79.6490979, 14.154153 ], [ 79.6564142, 14.1539022 ], [ 79.6593505, 14.1530054 ], [ 79.6594125, 14.1504017 ], [ 79.6652787, 14.1501268 ], [ 79.6624508, 14.1417071 ], [ 79.6656454, 14.1266526 ], [ 79.6682088, 14.1206595 ], [ 79.6730295, 14.1209633 ], [ 79.6754173, 14.1192865 ], [ 79.681014, 14.1189965 ], [ 79.6876022, 14.1152248 ], [ 79.6987548, 14.1131973 ], [ 79.7078313, 14.1090232 ], [ 79.7162806, 14.1099771 ], [ 79.7160702, 14.1116715 ], [ 79.721949, 14.1137818 ], [ 79.7250057, 14.1174503 ], [ 79.7282, 14.1251019 ], [ 79.7345809, 14.1268973 ], [ 79.7346415, 14.1352922 ], [ 79.7376328, 14.1356014 ], [ 79.7400584, 14.139724 ], [ 79.7452129, 14.1560576 ], [ 79.747481, 14.1566083 ], [ 79.7530507, 14.1662437 ], [ 79.7612233, 14.1675791 ], [ 79.7635319, 14.174757 ], [ 79.7682048, 14.175352 ], [ 79.7746004, 14.1787195 ], [ 79.7782147, 14.1837951 ], [ 79.7867586, 14.1812792 ], [ 79.7926359, 14.1833153 ], [ 79.8004067, 14.1831922 ], [ 79.8009446, 14.1883657 ], [ 79.7939863, 14.1997799 ], [ 79.7985092, 14.204994 ], [ 79.7956444, 14.2105494 ], [ 79.789669, 14.2097969 ], [ 79.7897622, 14.2174556 ], [ 79.7865642, 14.2175487 ], [ 79.780313, 14.2225319 ], [ 79.7746514, 14.2233759 ], [ 79.7744929, 14.2274848 ], [ 79.7753767, 14.2329806 ], [ 79.7881254, 14.2489286 ], [ 79.7918784, 14.259796 ], [ 79.7957436, 14.2599762 ], [ 79.8001868, 14.2658503 ] ], [ [ 79.8433748, 13.3216732 ], [ 79.8451146, 13.3230433 ], [ 79.846842, 13.322613 ], [ 79.8469806, 13.3237524 ], [ 79.8490265, 13.3230159 ], [ 79.8500365, 13.3239908 ], [ 79.8476511, 13.3243513 ], [ 79.8456677, 13.3275767 ], [ 79.8429097, 13.3246502 ], [ 79.8433748, 13.3216732 ] ] ] } }
]
}
