{
"type": "FeatureCollection",
"name": "2835",
"crs": { "type": "name", "properties": { "name": "urn:ogc:def:crs:OGC:1.3:CRS84" } },
"features": [
{ "type": "Feature", "properties": { "code": "2835", "name": "Eluru", "type": "district" }, "geometry": { "type": "Polygon", "coordinates": [ [ [ 80.998401, 17.6282381 ], [ 81.0070449, 17.6217147 ], [ 81.0077025, 17.6043556 ], [ 81.0102674, 17.6009227 ], [ 81.0146875, 17.5985297 ], [ 81.0319924, 17.5968371 ], [ 81.03965, 17.5976587 ], [ 81.0596944, 17.6079145 ], [ 81.0809232, 17.6098649 ], [ 81.0998804, 17.6180448 ], [ 81.1106219, 17.6202611 ], [ 81.1163516, 17.6177763 ], [ 81.122527, 17.6027856 ], [ 81.1280647, 17.5950116 ], [ 81.1269826, 17.5882833 ], [ 81.1277119, 17.5864005 ], [ 81.1420554, 17.5792103 ], [ 81.1514883, 17.5767495 ], [ 81.1769358, 17.5739849 ], [ 81.1850702, 17.571052 ], [ 81.1921653, 17.5701746 ], [ 81.2107902, 17.5709769 ], [ 81.2166502, 17.5661877 ], [ 81.2220912, 17.5641802 ], [ 81.2364837, 17.5663597 ], [ 81.2437109, 17.5693637 ], [ 81.2483802, 17.5689676 ], [ 81.2583531, 17.5640046 ], [ 81.2646668, 17.5587242 ], [ 81.2816053, 17.5350409 ], [ 81.2901008, 17.5195931 ], [ 81.292321, 17.510466 ], [ 81.2925654, 17.50098 ], [ 81.2954622, 17.4961046 ], [ 81.3013213, 17.4921764 ], [ 81.3135991, 17.4876269 ], [ 81.3175201, 17.4879012 ], [ 81.333207, 17.494179 ], [ 81.3410292, 17.4955725 ], [ 81.3491565, 17.4999121 ], [ 81.3635098, 17.4992804 ], [ 81.383405, 17.4915763 ], [ 81.3905448, 17.4733492 ], [ 81.4070413, 17.4649428 ], [ 81.4182787, 17.4654236 ], [ 81.4446278, 17.4618769 ], [ 81.4646476, 17.4684922 ], [ 81.4753033, 17.4675169 ], [ 81.4803872, 17.4695913 ], [ 81.4946793, 17.48062 ], [ 81.4983487, 17.4814392 ], [ 81.5012555, 17.4805259 ], [ 81.5126356, 17.4728269 ], [ 81.5172793, 17.4566025 ], [ 81.5309634, 17.4403458 ], [ 81.5409529, 17.4365897 ], [ 81.5523273, 17.4399475 ], [ 81.5636514, 17.4400133 ], [ 81.5684524, 17.4359021 ], [ 81.5760094, 17.4327895 ], [ 81.5799721, 17.4150636 ], [ 81.586311, 17.4056359 ], [ 81.5913046, 17.4058952 ], [ 81.5970346, 17.4098356 ], [ 81.6032457, 17.4113589 ], [ 81.6090098, 17.4104338 ], [ 81.6139831, 17.4071027 ], [ 81.6163622, 17.4006109 ], [ 81.6099234, 17.3970997 ], [ 81.6047367, 17.3758395 ], [ 81.6063077, 17.3688411 ], [ 81.6148145, 17.351954 ], [ 81.6146405, 17.3494906 ], [ 81.6111071, 17.3432603 ], [ 81.6121992, 17.3365762 ], [ 81.6149548, 17.3310409 ], [ 81.6185868, 17.3273097 ], [ 81.6277989, 17.3247155 ], [ 81.6334469, 17.326146 ], [ 81.6425951, 17.3239584 ], [ 81.6722519, 17.3080076 ], [ 81.6794438, 17.301569 ], [ 81.6806406, 17.2931578 ], [ 81.6796165, 17.2903376 ], [ 81.6727281, 17.2890915 ], [ 81.6626574, 17.282161 ], [ 81.6567669, 17.2664943 ], [ 81.6554593, 17.2492087 ], [ 81.6414344, 17.2286515 ], [ 81.6421177, 17.2139285 ], [ 81.6406582, 17.2072624 ], [ 81.6461145, 17.1936455 ], [ 81.6525931, 17.1849196 ], [ 81.6583047, 17.1698578 ], [ 81.6511656, 17.1692906 ], [ 81.6486521, 17.1657816 ], [ 81.6467735, 17.16789 ], [ 81.6433595, 17.1680711 ], [ 81.6282762, 17.1741521 ], [ 81.6185667, 17.1765366 ], [ 81.6166942, 17.1797932 ], [ 81.6111864, 17.1816036 ], [ 81.6075114, 17.1789006 ], [ 81.6017442, 17.1797444 ], [ 81.6002509, 17.1776766 ], [ 81.5974124, 17.1781797 ], [ 81.5932732, 17.1833288 ], [ 81.5932981, 17.1903511 ], [ 81.5894061, 17.1909227 ], [ 81.5877523, 17.1947114 ], [ 81.5871838, 17.2025146 ], [ 81.5940745, 17.2064585 ], [ 81.591939, 17.209915 ], [ 81.5918733, 17.2124883 ], [ 81.5790291, 17.2082309 ], [ 81.5703903, 17.2072164 ], [ 81.5504807, 17.212683 ], [ 81.547558, 17.2151437 ], [ 81.5429929, 17.2131313 ], [ 81.5430856, 17.2111051 ], [ 81.5395073, 17.2114979 ], [ 81.5397013, 17.2072419 ], [ 81.5378772, 17.205727 ], [ 81.5326193, 17.2052144 ], [ 81.5273328, 17.2073155 ], [ 81.5234425, 17.2055979 ], [ 81.5221603, 17.2033069 ], [ 81.5138978, 17.1994396 ], [ 81.5102912, 17.2007048 ], [ 81.5081758, 17.2001043 ], [ 81.5049911, 17.2020186 ], [ 81.4987591, 17.2014239 ], [ 81.4971709, 17.1934548 ], [ 81.4918097, 17.192892 ], [ 81.4865363, 17.18825 ], [ 81.4765705, 17.1849859 ], [ 81.4757668, 17.1822901 ], [ 81.4730301, 17.1796574 ], [ 81.475564, 17.177439 ], [ 81.4759695, 17.1747828 ], [ 81.4695545, 17.1759879 ], [ 81.472306, 17.1730722 ], [ 81.4643675, 17.1686317 ], [ 81.4608461, 17.1631988 ], [ 81.4530685, 17.1588249 ], [ 81.4617214, 17.1594371 ], [ 81.4673674, 17.1655206 ], [ 81.470771, 17.1651524 ], [ 81.470169, 17.1584718 ], [ 81.4775512, 17.1504297 ], [ 81.4749332, 17.146042 ], [ 81.4739268, 17.1375001 ], [ 81.4758012, 17.1304192 ], [ 81.4720125, 17.1298622 ], [ 81.4665361, 17.1140739 ], [ 81.4631738, 17.1121583 ], [ 81.4588996, 17.1141718 ], [ 81.4556026, 17.1140781 ], [ 81.4533379, 17.1125146 ], [ 81.4520953, 17.1132347 ], [ 81.4456233, 17.1080768 ], [ 81.4483097, 17.0976236 ], [ 81.4515101, 17.0972566 ], [ 81.4535703, 17.0983643 ], [ 81.4565369, 17.0953845 ], [ 81.4577187, 17.0918339 ], [ 81.4551336, 17.087197 ], [ 81.4544032, 17.0810413 ], [ 81.452464, 17.0777127 ], [ 81.4492762, 17.0747559 ], [ 81.4416685, 17.0776025 ], [ 81.4398521, 17.0743366 ], [ 81.4379875, 17.0737479 ], [ 81.4363182, 17.0756681 ], [ 81.4351652, 17.072458 ], [ 81.43016, 17.068903 ], [ 81.4297494, 17.0595893 ], [ 81.4331898, 17.0594205 ], [ 81.4337264, 17.0536028 ], [ 81.4353247, 17.0535913 ], [ 81.438471, 17.04991 ], [ 81.4411476, 17.0493058 ], [ 81.4409747, 17.0455759 ], [ 81.4518064, 17.042828 ], [ 81.4503994, 17.0396236 ], [ 81.4507369, 17.0365019 ], [ 81.447887, 17.0342671 ], [ 81.4489949, 17.0320464 ], [ 81.4541107, 17.0284736 ], [ 81.4522826, 17.0266278 ], [ 81.4541904, 17.0264926 ], [ 81.4563274, 17.0242038 ], [ 81.4546363, 17.0185995 ], [ 81.4566527, 17.0166821 ], [ 81.4563939, 17.0137168 ], [ 81.4542852, 17.0072505 ], [ 81.447166, 17.0065362 ], [ 81.4424866, 17.0108621 ], [ 81.4429826, 17.0143148 ], [ 81.4408999, 17.0200988 ], [ 81.4383458, 17.0197121 ], [ 81.4374047, 17.0273722 ], [ 81.4324718, 17.0308939 ], [ 81.4341611, 17.0402156 ], [ 81.4296802, 17.0439569 ], [ 81.4225628, 17.0469001 ], [ 81.4196329, 17.0496532 ], [ 81.4128499, 17.0487463 ], [ 81.4113776, 17.0434663 ], [ 81.4038464, 17.0454384 ], [ 81.4034189, 17.0444544 ], [ 81.401168, 17.0446403 ], [ 81.3973207, 17.0462755 ], [ 81.3931495, 17.0386869 ], [ 81.3901002, 17.0410693 ], [ 81.3868683, 17.0415802 ], [ 81.3863855, 17.039805 ], [ 81.3875898, 17.0389544 ], [ 81.3865589, 17.0376157 ], [ 81.3846246, 17.0381121 ], [ 81.3840729, 17.0366989 ], [ 81.3821145, 17.0370824 ], [ 81.3815123, 17.0359319 ], [ 81.37972, 17.0366808 ], [ 81.3797112, 17.0326065 ], [ 81.3753465, 17.0330722 ], [ 81.37034, 17.0308634 ], [ 81.3677921, 17.0270239 ], [ 81.3665131, 17.020044 ], [ 81.3713873, 17.0094198 ], [ 81.3716818, 17.0058867 ], [ 81.3740936, 17.0039323 ], [ 81.3708862, 16.9928392 ], [ 81.3682326, 16.9900146 ], [ 81.3672724, 16.9864732 ], [ 81.363677, 16.98429 ], [ 81.3571538, 16.9841763 ], [ 81.349903, 16.9864393 ], [ 81.3456796, 16.9911501 ], [ 81.3369494, 16.9904249 ], [ 81.3126309, 16.9726296 ], [ 81.3252241, 16.9702838 ], [ 81.3314902, 16.9674647 ], [ 81.3320531, 16.9661194 ], [ 81.3127156, 16.9681162 ], [ 81.30668, 16.9572859 ], [ 81.2976942, 16.9522279 ], [ 81.2960088, 16.9455956 ], [ 81.291899, 16.9377558 ], [ 81.3054605, 16.9313828 ], [ 81.3249101, 16.9301008 ], [ 81.3315646, 16.9283293 ], [ 81.3251894, 16.9182695 ], [ 81.3315227, 16.9061614 ], [ 81.3316977, 16.9019912 ], [ 81.3359237, 16.8982799 ], [ 81.3471815, 16.8967656 ], [ 81.3625394, 16.8973189 ], [ 81.366127, 16.8991674 ], [ 81.3721454, 16.908947 ], [ 81.3891132, 16.9068869 ], [ 81.3900309, 16.9010132 ], [ 81.3929283, 16.8966552 ], [ 81.3893084, 16.890814 ], [ 81.3896173, 16.886399 ], [ 81.3874824, 16.88066 ], [ 81.3874366, 16.8757038 ], [ 81.3897877, 16.8653985 ], [ 81.3943998, 16.8638442 ], [ 81.3979248, 16.8685054 ], [ 81.4011501, 16.8703007 ], [ 81.4125799, 16.867837 ], [ 81.4211547, 16.8685778 ], [ 81.4314697, 16.8737833 ], [ 81.4382376, 16.8757207 ], [ 81.4470771, 16.8864536 ], [ 81.4510287, 16.8848125 ], [ 81.4518261, 16.8865048 ], [ 81.4497119, 16.8912988 ], [ 81.4474376, 16.8930772 ], [ 81.4458072, 16.8919765 ], [ 81.442617, 16.8957532 ], [ 81.4425404, 16.9003572 ], [ 81.4604788, 16.8988268 ], [ 81.4614589, 16.8901833 ], [ 81.4607274, 16.8788718 ], [ 81.4572134, 16.8700329 ], [ 81.4610974, 16.8690431 ], [ 81.4653024, 16.8655147 ], [ 81.4681432, 16.8653525 ], [ 81.4714291, 16.8631035 ], [ 81.4751513, 16.8645788 ], [ 81.4757351, 16.8572906 ], [ 81.4791107, 16.8475974 ], [ 81.4784894, 16.8416488 ], [ 81.4813861, 16.8396139 ], [ 81.4813731, 16.8341826 ], [ 81.4826215, 16.8312147 ], [ 81.4882382, 16.8247714 ], [ 81.4867436, 16.8179088 ], [ 81.4931125, 16.8145687 ], [ 81.4980102, 16.8137181 ], [ 81.4912, 16.8002597 ], [ 81.4902581, 16.7959679 ], [ 81.4829592, 16.7972454 ], [ 81.4813488, 16.7962941 ], [ 81.4789631, 16.7895305 ], [ 81.4724243, 16.7792721 ], [ 81.4763606, 16.7759526 ], [ 81.4753447, 16.7660758 ], [ 81.4775934, 16.760444 ], [ 81.4809332, 16.7589995 ], [ 81.4811525, 16.7559232 ], [ 81.4796527, 16.7573185 ], [ 81.4714045, 16.7590523 ], [ 81.4698617, 16.757481 ], [ 81.4675585, 16.7577368 ], [ 81.4658553, 16.7541074 ], [ 81.4630229, 16.7536952 ], [ 81.4398831, 16.7569194 ], [ 81.4416331, 16.7528142 ], [ 81.4405543, 16.7500422 ], [ 81.4421938, 16.7483481 ], [ 81.4432243, 16.7341656 ], [ 81.4481592, 16.7336371 ], [ 81.4465383, 16.7283802 ], [ 81.4493324, 16.7228593 ], [ 81.4510057, 16.725321 ], [ 81.4595711, 16.7244052 ], [ 81.4619646, 16.7272932 ], [ 81.4693264, 16.7259301 ], [ 81.4700199, 16.7314354 ], [ 81.4756526, 16.7305865 ], [ 81.4764295, 16.7348928 ], [ 81.4778437, 16.7361391 ], [ 81.4902271, 16.734639 ], [ 81.4944878, 16.7297846 ], [ 81.4984095, 16.729533 ], [ 81.5027036, 16.7256666 ], [ 81.5118397, 16.7289925 ], [ 81.5167058, 16.7370057 ], [ 81.5187909, 16.7372264 ], [ 81.5202904, 16.7594381 ], [ 81.5283608, 16.7688898 ], [ 81.5292852, 16.7748887 ], [ 81.5323932, 16.7659915 ], [ 81.5325885, 16.7575697 ], [ 81.5284157, 16.7548991 ], [ 81.5273848, 16.7507297 ], [ 81.5290105, 16.7375661 ], [ 81.5316226, 16.7362374 ], [ 81.5322046, 16.7380345 ], [ 81.5366473, 16.7367375 ], [ 81.5404986, 16.7372342 ], [ 81.5424869, 16.7342351 ], [ 81.5447373, 16.736431 ], [ 81.5469581, 16.7356874 ], [ 81.5537732, 16.7629197 ], [ 81.5552523, 16.759516 ], [ 81.5621313, 16.7581612 ], [ 81.564623, 16.7588904 ], [ 81.5673761, 16.7445901 ], [ 81.5701987, 16.7414282 ], [ 81.5668068, 16.7330425 ], [ 81.5688101, 16.7233995 ], [ 81.5833084, 16.7235522 ], [ 81.5937202, 16.7222641 ], [ 81.5964889, 16.7205177 ], [ 81.5957653, 16.7093961 ], [ 81.5992883, 16.7082969 ], [ 81.5993895, 16.7028784 ], [ 81.5928438, 16.7038439 ], [ 81.5891857, 16.70171 ], [ 81.5845681, 16.703425 ], [ 81.5792478, 16.6933669 ], [ 81.576286, 16.691487 ], [ 81.5712107, 16.6909971 ], [ 81.5717079, 16.6823067 ], [ 81.5657666, 16.6795507 ], [ 81.5563409, 16.6797199 ], [ 81.553716, 16.6679246 ], [ 81.559741, 16.658438 ], [ 81.5640407, 16.6562139 ], [ 81.5611626, 16.6488384 ], [ 81.5559765, 16.6440885 ], [ 81.5492366, 16.6443661 ], [ 81.5448111, 16.6476171 ], [ 81.5439245, 16.65294 ], [ 81.5394473, 16.6535771 ], [ 81.5407036, 16.657813 ], [ 81.5404385, 16.665367 ], [ 81.5325372, 16.6662242 ], [ 81.5325356, 16.6721759 ], [ 81.5143767, 16.6738418 ], [ 81.5135298, 16.6733891 ], [ 81.51406, 16.6688278 ], [ 81.5124489, 16.6684737 ], [ 81.5119795, 16.6657126 ], [ 81.5069778, 16.6665776 ], [ 81.5067932, 16.6625941 ], [ 81.4991505, 16.6644845 ], [ 81.5005063, 16.6699912 ], [ 81.4961231, 16.6707443 ], [ 81.4949611, 16.6729297 ], [ 81.4830568, 16.6727952 ], [ 81.4823806, 16.6745621 ], [ 81.4777706, 16.6759628 ], [ 81.4761319, 16.6747944 ], [ 81.4733299, 16.6793751 ], [ 81.459838, 16.675113 ], [ 81.4583194, 16.6764359 ], [ 81.4566445, 16.6754802 ], [ 81.4534281, 16.6769419 ], [ 81.45331, 16.6728993 ], [ 81.4456346, 16.669121 ], [ 81.4461781, 16.6660523 ], [ 81.4441253, 16.6635696 ], [ 81.4422365, 16.6639714 ], [ 81.4318096, 16.6606572 ], [ 81.4305675, 16.6628832 ], [ 81.4186862, 16.6655354 ], [ 81.4175314, 16.6644007 ], [ 81.3970538, 16.6669214 ], [ 81.3778472, 16.6662736 ], [ 81.3579429, 16.6637816 ], [ 81.3553786, 16.6620915 ], [ 81.3566768, 16.6542397 ], [ 81.3531566, 16.6549548 ], [ 81.3393548, 16.6529159 ], [ 81.3396103, 16.6501336 ], [ 81.3533113, 16.6505764 ], [ 81.3574124, 16.6485925 ], [ 81.3579387, 16.6466502 ], [ 81.3505123, 16.6488193 ], [ 81.3378229, 16.6468527 ], [ 81.3347833, 16.6369512 ], [ 81.3305356, 16.6375468 ], [ 81.3294978, 16.6317121 ], [ 81.3263397, 16.6258542 ], [ 81.3276727, 16.619341 ], [ 81.3368943, 16.6104089 ], [ 81.342603, 16.6083059 ], [ 81.3453092, 16.603872 ], [ 81.348326, 16.6062524 ], [ 81.3488705, 16.6085568 ], [ 81.3545393, 16.6102616 ], [ 81.3573861, 16.5961307 ], [ 81.3506318, 16.5971212 ], [ 81.3536202, 16.5940519 ], [ 81.3533331, 16.5916515 ], [ 81.3481438, 16.5922467 ], [ 81.3462486, 16.5910693 ], [ 81.3475739, 16.5873329 ], [ 81.3464073, 16.584175 ], [ 81.347981, 16.5805654 ], [ 81.3462762, 16.5745435 ], [ 81.3484358, 16.5707269 ], [ 81.3490059, 16.5648089 ], [ 81.3461454, 16.5593616 ], [ 81.3473802, 16.5531651 ], [ 81.344902, 16.5493036 ], [ 81.3426513, 16.5383632 ], [ 81.3436671, 16.5302681 ], [ 81.3395701, 16.5271593 ], [ 81.3377858, 16.5176958 ], [ 81.3390356, 16.5128562 ], [ 81.3348458, 16.5131621 ], [ 81.3325709, 16.5106971 ], [ 81.3384205, 16.5048851 ], [ 81.3426851, 16.504538 ], [ 81.3456681, 16.5070679 ], [ 81.3508073, 16.5051343 ], [ 81.3568969, 16.5072716 ], [ 81.3629059, 16.5070256 ], [ 81.3653532, 16.5007572 ], [ 81.3696166, 16.5000468 ], [ 81.3716373, 16.4979536 ], [ 81.3719742, 16.494646 ], [ 81.367922, 16.4835278 ], [ 81.3689922, 16.475351 ], [ 81.3727507, 16.4741234 ], [ 81.3785736, 16.4670529 ], [ 81.3732357, 16.4587396 ], [ 81.382788, 16.4483159 ], [ 81.3884582, 16.4460986 ], [ 81.3883873, 16.444923 ], [ 81.3844102, 16.4432527 ], [ 81.3891918, 16.4424819 ], [ 81.3914439, 16.4399533 ], [ 81.400307, 16.439147 ], [ 81.4014504, 16.4380883 ], [ 81.3992416, 16.4326297 ], [ 81.3998309, 16.4303071 ], [ 81.4028965, 16.4273995 ], [ 81.3994786, 16.4249716 ], [ 81.3973254, 16.4213626 ], [ 81.3900486, 16.4194349 ], [ 81.3871201, 16.4153135 ], [ 81.3852007, 16.4146746 ], [ 81.3869736, 16.4097962 ], [ 81.384399, 16.4083055 ], [ 81.3440158, 16.4057157 ], [ 81.3466348, 16.4089255 ], [ 81.3328338, 16.4152216 ], [ 81.3354182, 16.4169301 ], [ 81.3193267, 16.4191593 ], [ 81.3198825, 16.4255116 ], [ 81.3225456, 16.4258359 ], [ 81.3250824, 16.4295709 ], [ 81.3257231, 16.4427205 ], [ 81.3250695, 16.4478112 ], [ 81.3223909, 16.4505669 ], [ 81.3219527, 16.4590169 ], [ 81.315645, 16.4592404 ], [ 81.3144145, 16.4574948 ], [ 81.2932743, 16.4533823 ], [ 81.3005499, 16.4480635 ], [ 81.3052303, 16.4384395 ], [ 81.2967866, 16.4362551 ], [ 81.2897028, 16.4298865 ], [ 81.2821807, 16.4261606 ], [ 81.2791052, 16.4293739 ], [ 81.2649998, 16.4160969 ], [ 81.2543817, 16.40263 ], [ 81.2389118, 16.4119064 ], [ 81.2337397, 16.4121776 ], [ 81.2327423, 16.416152 ], [ 81.229764, 16.4166689 ], [ 81.231776, 16.4272496 ], [ 81.2308672, 16.4247879 ], [ 81.2274398, 16.4243158 ], [ 81.2259942, 16.4224076 ], [ 81.2208717, 16.4222124 ], [ 81.2189409, 16.4196049 ], [ 81.2170158, 16.4198512 ], [ 81.2108208, 16.4094108 ], [ 81.2089682, 16.408897 ], [ 81.2056432, 16.3923955 ], [ 81.2048712, 16.3808742 ], [ 81.1733842, 16.3867114 ], [ 81.1748751, 16.3966341 ], [ 81.1742813, 16.4024432 ], [ 81.1703067, 16.4035006 ], [ 81.1636562, 16.4029787 ], [ 81.1597114, 16.4045152 ], [ 81.1584415, 16.3974592 ], [ 81.1554006, 16.3918061 ], [ 81.1513832, 16.3940166 ], [ 81.1495886, 16.386858 ], [ 81.1463943, 16.3814766 ], [ 81.1427256, 16.3770374 ], [ 81.1402208, 16.3761043 ], [ 81.1231109, 16.3818268 ], [ 81.117275, 16.3809077 ], [ 81.1097732, 16.3881613 ], [ 81.1030967, 16.3804556 ], [ 81.0959405, 16.381299 ], [ 81.0946289, 16.3798599 ], [ 81.0927772, 16.3809912 ], [ 81.092056, 16.3795414 ], [ 81.0837314, 16.3829159 ], [ 81.0819244, 16.3865979 ], [ 81.0786277, 16.3887913 ], [ 81.0802553, 16.3941509 ], [ 81.0742865, 16.3974914 ], [ 81.0727774, 16.3973914 ], [ 81.0715529, 16.3952012 ], [ 81.0622044, 16.3980711 ], [ 81.0644733, 16.4082773 ], [ 81.0639967, 16.4120685 ], [ 81.0592769, 16.4116334 ], [ 81.0573538, 16.4175814 ], [ 81.0525038, 16.4175804 ], [ 81.0448979, 16.4207072 ], [ 81.045741, 16.4324506 ], [ 81.0477344, 16.4364526 ], [ 81.052583, 16.4375118 ], [ 81.0613495, 16.4368919 ], [ 81.0629188, 16.4399722 ], [ 81.0675216, 16.4418821 ], [ 81.0661753, 16.4380912 ], [ 81.0738449, 16.4358091 ], [ 81.0768416, 16.4332999 ], [ 81.0819868, 16.4316125 ], [ 81.0833743, 16.4348966 ], [ 81.0826881, 16.4374222 ], [ 81.0801544, 16.4379628 ], [ 81.0839813, 16.4421221 ], [ 81.0823662, 16.4442931 ], [ 81.0854114, 16.4502502 ], [ 81.0912293, 16.4570541 ], [ 81.0863559, 16.4605141 ], [ 81.0899449, 16.4617343 ], [ 81.0938476, 16.467413 ], [ 81.0905302, 16.4693579 ], [ 81.0916283, 16.4729142 ], [ 81.0907802, 16.4745719 ], [ 81.0838602, 16.4788017 ], [ 81.0853264, 16.4816063 ], [ 81.0832521, 16.4823717 ], [ 81.0879983, 16.4911055 ], [ 81.0846241, 16.4929872 ], [ 81.0822209, 16.4998954 ], [ 81.0822153, 16.5043412 ], [ 81.0829428, 16.5078081 ], [ 81.0881355, 16.5088204 ], [ 81.0859874, 16.5226929 ], [ 81.0890325, 16.5282156 ], [ 81.0887961, 16.5306856 ], [ 81.0908079, 16.5354877 ], [ 81.0972637, 16.5430586 ], [ 81.096568, 16.547149 ], [ 81.0993694, 16.5524552 ], [ 81.098502, 16.5552916 ], [ 81.1011113, 16.560876 ], [ 81.0995332, 16.5647019 ], [ 81.1088168, 16.5718258 ], [ 81.1160231, 16.5713029 ], [ 81.1162956, 16.5774574 ], [ 81.1095302, 16.5765408 ], [ 81.1116447, 16.5915 ], [ 81.098708, 16.6002565 ], [ 81.09307, 16.5970386 ], [ 81.0892043, 16.592934 ], [ 81.0921748, 16.5925683 ], [ 81.0949353, 16.5872555 ], [ 81.0852552, 16.5809283 ], [ 81.0788218, 16.5748404 ], [ 81.0719829, 16.5759669 ], [ 81.0626674, 16.5704381 ], [ 81.0485359, 16.569729 ], [ 81.0401125, 16.565938 ], [ 81.0398802, 16.5615788 ], [ 81.0359948, 16.5640806 ], [ 81.0277921, 16.5619665 ], [ 81.025097, 16.5606888 ], [ 81.0252751, 16.5588702 ], [ 81.0224838, 16.5566565 ], [ 81.0192831, 16.5574377 ], [ 81.0185675, 16.5616998 ], [ 81.0114321, 16.5605774 ], [ 81.0063863, 16.586097 ], [ 81.0013737, 16.5882888 ], [ 81.0008149, 16.5954223 ], [ 80.9968999, 16.5977561 ], [ 80.9912407, 16.6041687 ], [ 80.978405, 16.6222838 ], [ 80.9729543, 16.6262352 ], [ 80.9738153, 16.63119 ], [ 80.9697796, 16.6404249 ], [ 80.9694702, 16.6464361 ], [ 80.9540931, 16.6652245 ], [ 80.9543491, 16.6713923 ], [ 80.9375088, 16.6721109 ], [ 80.9331779, 16.6741006 ], [ 80.9313148, 16.6889654 ], [ 80.9299495, 16.6911526 ], [ 80.916367, 16.6966157 ], [ 80.9109391, 16.7017321 ], [ 80.9102871, 16.7040941 ], [ 80.9060194, 16.7054228 ], [ 80.9065683, 16.7098946 ], [ 80.9083354, 16.7111575 ], [ 80.9088715, 16.7139014 ], [ 80.8971873, 16.7099349 ], [ 80.8798661, 16.7123274 ], [ 80.8733958, 16.7105615 ], [ 80.871673, 16.7077787 ], [ 80.8749035, 16.7037932 ], [ 80.8747845, 16.6955491 ], [ 80.876203, 16.6889256 ], [ 80.8726492, 16.6879685 ], [ 80.859248, 16.6905785 ], [ 80.8555947, 16.6865235 ], [ 80.8573676, 16.6834994 ], [ 80.8565746, 16.6757402 ], [ 80.859575, 16.6692137 ], [ 80.871472, 16.6633863 ], [ 80.8817712, 16.6613871 ], [ 80.8839053, 16.6562819 ], [ 80.8850352, 16.6486684 ], [ 80.8848197, 16.6320122 ], [ 80.8813243, 16.6244026 ], [ 80.8758882, 16.6173029 ], [ 80.8735734, 16.6160678 ], [ 80.8695544, 16.6215517 ], [ 80.866786, 16.6210861 ], [ 80.8623449, 16.6241872 ], [ 80.858209, 16.6224123 ], [ 80.8481439, 16.6098202 ], [ 80.8364185, 16.6130185 ], [ 80.8354879, 16.6173752 ], [ 80.8334816, 16.6181698 ], [ 80.8334052, 16.6256909 ], [ 80.8315112, 16.6319576 ], [ 80.8363414, 16.6431086 ], [ 80.8252311, 16.6525358 ], [ 80.8250424, 16.6604551 ], [ 80.8223607, 16.6648587 ], [ 80.8230419, 16.6707513 ], [ 80.8225848, 16.6723756 ], [ 80.8198834, 16.6731124 ], [ 80.8193195, 16.6754921 ], [ 80.8152839, 16.6693294 ], [ 80.8135675, 16.6699063 ], [ 80.8114867, 16.6654773 ], [ 80.8099522, 16.6652579 ], [ 80.8109376, 16.6644075 ], [ 80.808884, 16.6603028 ], [ 80.8146705, 16.6583586 ], [ 80.8175673, 16.6508876 ], [ 80.8070222, 16.6397008 ], [ 80.8057907, 16.6411634 ], [ 80.8044249, 16.6407268 ], [ 80.8055202, 16.6391287 ], [ 80.7992639, 16.6343105 ], [ 80.795978, 16.6358137 ], [ 80.7931452, 16.6424792 ], [ 80.7846278, 16.6308046 ], [ 80.7826729, 16.6250682 ], [ 80.7789201, 16.6216585 ], [ 80.7769207, 16.6242436 ], [ 80.7724345, 16.626384 ], [ 80.7680312, 16.6238886 ], [ 80.7631761, 16.62735 ], [ 80.7553599, 16.6299781 ], [ 80.7499189, 16.6273116 ], [ 80.7437883, 16.6270566 ], [ 80.7413512, 16.6249383 ], [ 80.7335488, 16.6236219 ], [ 80.6971142, 16.6270825 ], [ 80.6921541, 16.6299725 ], [ 80.6869115, 16.6368694 ], [ 80.6864696, 16.6607352 ], [ 80.6895631, 16.6721246 ], [ 80.7107573, 16.7034591 ], [ 80.723408, 16.7193471 ], [ 80.7463618, 16.7568849 ], [ 80.7484719, 16.7640615 ], [ 80.7542622, 16.7681274 ], [ 80.7604947, 16.7777073 ], [ 80.759839, 16.7789066 ], [ 80.7616282, 16.7828705 ], [ 80.7645454, 16.7842779 ], [ 80.7665965, 16.7873776 ], [ 80.7680885, 16.7936528 ], [ 80.7675763, 16.7967422 ], [ 80.7743203, 16.811689 ], [ 80.7762428, 16.8199715 ], [ 80.7781937, 16.8215789 ], [ 80.7763993, 16.8244032 ], [ 80.7777745, 16.8273092 ], [ 80.7777151, 16.8351058 ], [ 80.7707072, 16.8406683 ], [ 80.7711028, 16.848324 ], [ 80.7962953, 16.8593113 ], [ 80.8004733, 16.8734692 ], [ 80.7978428, 16.8764032 ], [ 80.7992009, 16.8768491 ], [ 80.7994797, 16.8811358 ], [ 80.8076729, 16.882214 ], [ 80.8134791, 16.8797136 ], [ 80.8259476, 16.8787045 ], [ 80.8460509, 16.8871248 ], [ 80.851878, 16.9044626 ], [ 80.8563243, 16.9135901 ], [ 80.8370256, 16.9269349 ], [ 80.8325378, 16.9290087 ], [ 80.8246424, 16.9302419 ], [ 80.8246584, 16.9427457 ], [ 80.8265339, 16.9461571 ], [ 80.8264262, 16.9605513 ], [ 80.828622, 16.9726627 ], [ 80.8249312, 16.9828749 ], [ 80.8258087, 16.9934236 ], [ 80.8204109, 16.9946347 ], [ 80.8103725, 17.0007436 ], [ 80.7984735, 17.004249 ], [ 80.7985728, 17.007767 ], [ 80.7925061, 17.0115424 ], [ 80.7882026, 17.0191815 ], [ 80.7795117, 17.0256461 ], [ 80.7799513, 17.0273549 ], [ 80.7912175, 17.0459072 ], [ 80.7971055, 17.0617583 ], [ 80.8040659, 17.0575026 ], [ 80.8104134, 17.0553229 ], [ 80.8283433, 17.0529356 ], [ 80.8342811, 17.0504709 ], [ 80.8417895, 17.0458602 ], [ 80.8453095, 17.0399672 ], [ 80.8558411, 17.0465154 ], [ 80.8591097, 17.05261 ], [ 80.8655092, 17.0585588 ], [ 80.8714913, 17.069835 ], [ 80.8768821, 17.0709919 ], [ 80.8761081, 17.0748777 ], [ 80.8687094, 17.0779971 ], [ 80.867581, 17.0804499 ], [ 80.8752076, 17.0954522 ], [ 80.8738918, 17.0985396 ], [ 80.8764302, 17.1055891 ], [ 80.8734849, 17.1141012 ], [ 80.8683331, 17.1202736 ], [ 80.8679881, 17.1247173 ], [ 80.8695677, 17.1268985 ], [ 80.8732292, 17.1284612 ], [ 80.8782504, 17.1351399 ], [ 80.8777001, 17.1498139 ], [ 80.8795203, 17.1608153 ], [ 80.892404, 17.1593719 ], [ 80.9070253, 17.1538504 ], [ 80.9165918, 17.1536918 ], [ 80.9239946, 17.1578463 ], [ 80.9230914, 17.1612903 ], [ 80.9236093, 17.165933 ], [ 80.9251984, 17.1677476 ], [ 80.9264348, 17.1834802 ], [ 80.9226704, 17.1885884 ], [ 80.9187104, 17.1899979 ], [ 80.9189954, 17.1934746 ], [ 80.9206215, 17.1949093 ], [ 80.921012, 17.2005812 ], [ 80.9188191, 17.2034681 ], [ 80.9165725, 17.2133977 ], [ 80.9188773, 17.2197373 ], [ 80.9412815, 17.2192941 ], [ 80.960287, 17.2040652 ], [ 80.9762877, 17.2002724 ], [ 80.9824689, 17.1961934 ], [ 80.9943589, 17.1913233 ], [ 80.9984494, 17.1904636 ], [ 81.0086191, 17.1918594 ], [ 81.0121157, 17.194139 ], [ 81.0154282, 17.1944023 ], [ 81.0312711, 17.1903299 ], [ 81.0328609, 17.1919673 ], [ 81.0368657, 17.1924819 ], [ 81.0436431, 17.2021367 ], [ 81.0494953, 17.2070686 ], [ 81.055595, 17.2195599 ], [ 81.0546093, 17.2248742 ], [ 81.0796062, 17.2152771 ], [ 81.0832877, 17.2176229 ], [ 81.0903699, 17.2195975 ], [ 81.1094325, 17.2234686 ], [ 81.1276017, 17.2243111 ], [ 81.1594724, 17.2307984 ], [ 81.1739773, 17.230337 ], [ 81.1730091, 17.2320266 ], [ 81.1750164, 17.2369716 ], [ 81.1833799, 17.2470194 ], [ 81.1860909, 17.2484938 ], [ 81.1875947, 17.254652 ], [ 81.183937, 17.2583489 ], [ 81.1781762, 17.269043 ], [ 81.1795685, 17.2783713 ], [ 81.178895, 17.2826789 ], [ 81.1767667, 17.284404 ], [ 81.1766589, 17.2876681 ], [ 81.1813673, 17.3044509 ], [ 81.1837557, 17.3103937 ], [ 81.1866724, 17.3139518 ], [ 81.1904105, 17.3248141 ], [ 81.2103137, 17.3260509 ], [ 81.2220471, 17.3214899 ], [ 81.2335668, 17.3203608 ], [ 81.2391328, 17.3208435 ], [ 81.2391333, 17.3234931 ], [ 81.2446301, 17.3230896 ], [ 81.2456713, 17.3257899 ], [ 81.2682545, 17.320026 ], [ 81.2740288, 17.3171927 ], [ 81.2785114, 17.3234116 ], [ 81.2885194, 17.3280727 ], [ 81.2974067, 17.3383397 ], [ 81.3011071, 17.3406635 ], [ 81.3052998, 17.3459062 ], [ 81.3119899, 17.3606934 ], [ 81.3163139, 17.364484 ], [ 81.3164697, 17.3690023 ], [ 81.3226374, 17.3745444 ], [ 81.3185934, 17.3984233 ], [ 81.3123823, 17.4087238 ], [ 81.300512, 17.4127067 ], [ 81.2685423, 17.418259 ], [ 81.2597413, 17.4222194 ], [ 81.2455072, 17.4330256 ], [ 81.2426917, 17.4320634 ], [ 81.2363276, 17.4355758 ], [ 81.2214252, 17.4394381 ], [ 81.2184869, 17.4422059 ], [ 81.211759, 17.4417402 ], [ 81.2089547, 17.4464651 ], [ 81.2052636, 17.4495879 ], [ 81.2022972, 17.440664 ], [ 81.2026971, 17.4339532 ], [ 81.1932972, 17.4356252 ], [ 81.1829842, 17.4402474 ], [ 81.1723271, 17.4490433 ], [ 81.1755473, 17.4636364 ], [ 81.1482537, 17.4636533 ], [ 81.1559592, 17.475995 ], [ 81.1596051, 17.4843025 ], [ 81.1421454, 17.4885875 ], [ 81.144871, 17.495076 ], [ 81.1405065, 17.5046647 ], [ 81.1384757, 17.5162356 ], [ 81.1272797, 17.5264229 ], [ 81.1244968, 17.5270595 ], [ 81.1174646, 17.5220708 ], [ 81.1011058, 17.5056023 ], [ 81.0975632, 17.5042559 ], [ 81.091348, 17.5056522 ], [ 81.0800677, 17.5150461 ], [ 81.0472052, 17.5195139 ], [ 81.0198958, 17.5200343 ], [ 81.0148264, 17.5221262 ], [ 81.0136769, 17.5366187 ], [ 81.0084259, 17.5470023 ], [ 81.0028082, 17.5506098 ], [ 80.9983998, 17.5646846 ], [ 80.9888044, 17.5724194 ], [ 80.9828297, 17.582736 ], [ 80.9767271, 17.5871892 ], [ 80.9693064, 17.5983766 ], [ 80.975707, 17.6194111 ], [ 80.9842382, 17.6262861 ], [ 80.9873071, 17.626148 ], [ 80.9955462, 17.6291173 ], [ 80.998401, 17.6282381 ] ], [ [ 80.9681637, 16.760303 ], [ 80.9627513, 16.7594966 ], [ 80.959683, 16.7568004 ], [ 80.9538013, 16.7546701 ], [ 80.9458295, 16.7538417 ], [ 80.9509118, 16.7492226 ], [ 80.9342089, 16.7225163 ], [ 80.9291273, 16.7122922 ], [ 80.9289899, 16.7095203 ], [ 80.9303703, 16.7076904 ], [ 80.9325571, 16.7076588 ], [ 80.9362511, 16.710116 ], [ 80.9400813, 16.7083805 ], [ 80.9493283, 16.6970097 ], [ 80.9525685, 16.698043 ], [ 80.955584, 16.7013154 ], [ 80.9622024, 16.7160307 ], [ 80.9682579, 16.7246011 ], [ 80.9755512, 16.722708 ], [ 80.9815175, 16.7232282 ], [ 80.9893887, 16.7216635 ], [ 80.9949845, 16.7297728 ], [ 81.0000608, 16.7493613 ], [ 80.9910915, 16.750714 ], [ 80.9922025, 16.7507131 ], [ 80.9783572, 16.7564214 ], [ 80.9758129, 16.7605117 ], [ 80.9706409, 16.7623758 ], [ 80.9681637, 16.760303 ] ], [ [ 80.9734987, 16.6751678 ], [ 80.9720444, 16.6654385 ], [ 80.9757784, 16.6651724 ], [ 80.9771921, 16.6637989 ], [ 80.9769689, 16.6607829 ], [ 80.9790049, 16.6568302 ], [ 80.9882029, 16.6446074 ], [ 80.995486, 16.6380012 ], [ 80.9955032, 16.6355182 ], [ 80.9984517, 16.6358554 ], [ 80.9997541, 16.6339389 ], [ 81.0025156, 16.633358 ], [ 81.0088121, 16.6338043 ], [ 81.0184393, 16.6503155 ], [ 81.0113911, 16.6568812 ], [ 80.9987432, 16.6645724 ], [ 81.0073531, 16.6720775 ], [ 80.9898844, 16.6812811 ], [ 80.9850341, 16.6780135 ], [ 80.9734987, 16.6751678 ] ] ] } }
]
}
