{
"type": "FeatureCollection",
"name": "2902",
"crs": { "type": "name", "properties": { "name": "urn:ogc:def:crs:OGC:1.3:CRS84" } },
"features": [
{ "type": "Feature", "properties": { "code": "2902", "name": "Bagalkot", "type": "district" }, "geometry": { "type": "Polygon", "coordinates": [ [ [ 75.4193554, 16.7680086 ], [ 75.426043, 16.7679318 ], [ 75.4408703, 16.7595412 ], [ 75.4427516, 16.7572701 ], [ 75.4652881, 16.7549183 ], [ 75.4769631, 16.7473191 ], [ 75.4915225, 16.7458883 ], [ 75.4920092, 16.7441938 ], [ 75.4917582, 16.7243231 ], [ 75.4882994, 16.694487 ], [ 75.4625975, 16.699912 ], [ 75.4378013, 16.6978514 ], [ 75.4472125, 16.6651007 ], [ 75.4549413, 16.6638555 ], [ 75.4568764, 16.6473856 ], [ 75.4610199, 16.6356064 ], [ 75.4620525, 16.6225564 ], [ 75.4739645, 16.6121142 ], [ 75.4849172, 16.6064339 ], [ 75.4914261, 16.5989393 ], [ 75.4918596, 16.5951031 ], [ 75.4936109, 16.5931548 ], [ 75.4911325, 16.5856333 ], [ 75.4848608, 16.5808021 ], [ 75.4853124, 16.5756964 ], [ 75.483868, 16.5731037 ], [ 75.4780616, 16.5673803 ], [ 75.4729494, 16.5669553 ], [ 75.4722428, 16.5633643 ], [ 75.4807337, 16.5611652 ], [ 75.4795089, 16.5573984 ], [ 75.4845869, 16.5572156 ], [ 75.4847726, 16.5550369 ], [ 75.4883561, 16.5551006 ], [ 75.4884607, 16.5301369 ], [ 75.490651, 16.5294478 ], [ 75.4907338, 16.5260242 ], [ 75.4903913, 16.5209792 ], [ 75.488625, 16.5202922 ], [ 75.4858676, 16.508598 ], [ 75.4555005, 16.506693 ], [ 75.4590889, 16.4842389 ], [ 75.4632907, 16.476389 ], [ 75.463224, 16.4737911 ], [ 75.4487288, 16.4544628 ], [ 75.4350574, 16.4408263 ], [ 75.4323455, 16.436607 ], [ 75.4321664, 16.4327575 ], [ 75.4337197, 16.4293457 ], [ 75.4476374, 16.4140291 ], [ 75.4565919, 16.4123902 ], [ 75.4648943, 16.418342 ], [ 75.4790541, 16.4159456 ], [ 75.4885164, 16.4185433 ], [ 75.4953033, 16.424463 ], [ 75.4984671, 16.4307146 ], [ 75.4987831, 16.4345233 ], [ 75.495621, 16.4466928 ], [ 75.4990571, 16.4535702 ], [ 75.5290121, 16.4655121 ], [ 75.5363164, 16.4662428 ], [ 75.5460108, 16.4623566 ], [ 75.552194, 16.4559248 ], [ 75.5534459, 16.4514748 ], [ 75.5519126, 16.4448776 ], [ 75.5559598, 16.4266838 ], [ 75.5607149, 16.4169802 ], [ 75.5673357, 16.4125407 ], [ 75.5723588, 16.4117604 ], [ 75.5750924, 16.4127822 ], [ 75.5782589, 16.4229672 ], [ 75.5839822, 16.4325563 ], [ 75.5994251, 16.4465159 ], [ 75.607389, 16.4479401 ], [ 75.6327656, 16.4443173 ], [ 75.6447885, 16.4395138 ], [ 75.6711486, 16.42483 ], [ 75.6730074, 16.4258824 ], [ 75.6778149, 16.4241915 ], [ 75.6886635, 16.4143839 ], [ 75.7030183, 16.407778 ], [ 75.7106121, 16.3992942 ], [ 75.7208078, 16.3909944 ], [ 75.7484176, 16.3884546 ], [ 75.7561649, 16.3848213 ], [ 75.7731842, 16.3832174 ], [ 75.7818916, 16.3797425 ], [ 75.7891863, 16.3740571 ], [ 75.8102909, 16.3702921 ], [ 75.8264914, 16.3611018 ], [ 75.8404774, 16.3490453 ], [ 75.8517371, 16.3463813 ], [ 75.8676946, 16.3463283 ], [ 75.8732681, 16.3446975 ], [ 75.8912223, 16.3270123 ], [ 75.9000514, 16.3228547 ], [ 75.912736, 16.320395 ], [ 75.9201281, 16.3172941 ], [ 75.9304494, 16.315769 ], [ 75.9560215, 16.2971997 ], [ 75.9623323, 16.2963524 ], [ 75.9775671, 16.2998791 ], [ 75.992192, 16.2996005 ], [ 75.9990035, 16.3033276 ], [ 76.0094567, 16.3045278 ], [ 76.0264094, 16.3006735 ], [ 76.029265, 16.297146 ], [ 76.0324361, 16.289412 ], [ 76.0398541, 16.2826513 ], [ 76.058664, 16.2713217 ], [ 76.0653095, 16.2620746 ], [ 76.0676783, 16.2556954 ], [ 76.0680234, 16.2437437 ], [ 76.0590798, 16.2325897 ], [ 76.0578561, 16.2276733 ], [ 76.0595619, 16.2179413 ], [ 76.0631278, 16.210478 ], [ 76.0677116, 16.207565 ], [ 76.0828727, 16.2054722 ], [ 76.0956822, 16.1982767 ], [ 76.1206528, 16.1912077 ], [ 76.1392392, 16.1811044 ], [ 76.1556281, 16.185671 ], [ 76.1646946, 16.1860311 ], [ 76.1759253, 16.1837786 ], [ 76.1830082, 16.1803203 ], [ 76.2386834, 16.1667253 ], [ 76.2341617, 16.1307114 ], [ 76.2464775, 16.1281068 ], [ 76.2472197, 16.1263397 ], [ 76.2447213, 16.1225231 ], [ 76.2441319, 16.1136763 ], [ 76.2541815, 16.1102301 ], [ 76.2525255, 16.1050961 ], [ 76.2536602, 16.099191 ], [ 76.2554504, 16.0989074 ], [ 76.2554626, 16.0970678 ], [ 76.2618424, 16.0968138 ], [ 76.267799, 16.1097125 ], [ 76.2809162, 16.1059143 ], [ 76.2882111, 16.105751 ], [ 76.3044419, 16.101107 ], [ 76.3169078, 16.0955086 ], [ 76.3322759, 16.0919472 ], [ 76.3279571, 16.0775185 ], [ 76.3058679, 16.0838293 ], [ 76.300529, 16.0839465 ], [ 76.2938131, 16.0883932 ], [ 76.2581382, 16.0904503 ], [ 76.2567063, 16.0858044 ], [ 76.2588116, 16.0739897 ], [ 76.2837148, 16.0753034 ], [ 76.3031995, 16.0734536 ], [ 76.3033843, 16.0666897 ], [ 76.3055562, 16.0665143 ], [ 76.3058564, 16.0633695 ], [ 76.3029217, 16.0382184 ], [ 76.3054226, 16.0252698 ], [ 76.311359, 16.0129084 ], [ 76.3106737, 16.008349 ], [ 76.3118923, 16.0001094 ], [ 76.2979072, 15.9990518 ], [ 76.2980279, 15.9895315 ], [ 76.301392, 15.9751641 ], [ 76.3094368, 15.957242 ], [ 76.3226872, 15.9559672 ], [ 76.327824, 15.9397381 ], [ 76.3284938, 15.9322602 ], [ 76.3132381, 15.9293914 ], [ 76.3120496, 15.9226178 ], [ 76.3023316, 15.9235861 ], [ 76.3018013, 15.9306256 ], [ 76.2852848, 15.9289564 ], [ 76.2846386, 15.9027444 ], [ 76.2760981, 15.9038113 ], [ 76.2775661, 15.9093969 ], [ 76.2759686, 15.910467 ], [ 76.274381, 15.9105024 ], [ 76.271573, 15.9049794 ], [ 76.2621728, 15.906651 ], [ 76.2613837, 15.9148199 ], [ 76.2572602, 15.9153824 ], [ 76.2568839, 15.9227701 ], [ 76.2299392, 15.923218 ], [ 76.2265529, 15.9408686 ], [ 76.2003782, 15.943807 ], [ 76.2010487, 15.9382897 ], [ 76.1996559, 15.9351182 ], [ 76.196793, 15.9347169 ], [ 76.1948824, 15.9324764 ], [ 76.1899554, 15.931678 ], [ 76.1723313, 15.9315965 ], [ 76.1720123, 15.9246743 ], [ 76.1643206, 15.9213184 ], [ 76.1605243, 15.9212241 ], [ 76.1569699, 15.916069 ], [ 76.1543269, 15.9149126 ], [ 76.145243, 15.8953123 ], [ 76.1391826, 15.8942418 ], [ 76.133043, 15.8952542 ], [ 76.1253578, 15.8936682 ], [ 76.1172341, 15.8863435 ], [ 76.1092499, 15.8915437 ], [ 76.1030119, 15.8939062 ], [ 76.1011667, 15.9005527 ], [ 76.0705879, 15.9026522 ], [ 76.0581522, 15.907411 ], [ 76.0607148, 15.9099919 ], [ 76.0627161, 15.9154689 ], [ 76.0626166, 15.9198518 ], [ 76.0708175, 15.9484471 ], [ 76.0706802, 15.9552292 ], [ 76.0720622, 15.956775 ], [ 76.0725923, 15.9652472 ], [ 76.0781057, 15.9758218 ], [ 76.0844611, 15.9961478 ], [ 76.0837328, 16.0010015 ], [ 76.0787818, 16.010786 ], [ 76.0740543, 16.0101206 ], [ 76.0566328, 16.0118145 ], [ 76.0565976, 16.0056107 ], [ 76.0523838, 16.0057538 ], [ 76.0521231, 16.0032776 ], [ 76.021607, 16.0091845 ], [ 76.0193313, 16.0074025 ], [ 76.0176797, 16.0033938 ], [ 76.0129848, 16.0034998 ], [ 76.0121447, 16.0021302 ], [ 75.9896402, 16.005241 ], [ 75.9896769, 15.9992968 ], [ 75.9870642, 15.9959456 ], [ 75.9768641, 15.990088 ], [ 75.9736033, 15.9863332 ], [ 75.9758385, 15.9614505 ], [ 75.9743235, 15.9524221 ], [ 75.9776548, 15.9515212 ], [ 75.9762873, 15.9430526 ], [ 75.9767474, 15.9299475 ], [ 75.9741286, 15.9225196 ], [ 75.9766989, 15.9004285 ], [ 75.9752938, 15.8966924 ], [ 75.9787616, 15.8816663 ], [ 75.9790436, 15.8733259 ], [ 75.9781858, 15.8687692 ], [ 75.9743043, 15.8617808 ], [ 75.9663443, 15.8591948 ], [ 75.9634229, 15.8654543 ], [ 75.9444146, 15.8669253 ], [ 75.9414985, 15.8744951 ], [ 75.9282879, 15.8756368 ], [ 75.9287067, 15.8824554 ], [ 75.9275583, 15.8856424 ], [ 75.9258907, 15.8865851 ], [ 75.9271173, 15.8946419 ], [ 75.9140372, 15.912412 ], [ 75.9016857, 15.9235328 ], [ 75.9027831, 15.9181948 ], [ 75.8914989, 15.9162571 ], [ 75.8832505, 15.9238389 ], [ 75.8781698, 15.931706 ], [ 75.8672964, 15.9319892 ], [ 75.8531949, 15.9355704 ], [ 75.8471031, 15.9343286 ], [ 75.8433149, 15.9310078 ], [ 75.8395263, 15.9309365 ], [ 75.839427, 15.9295222 ], [ 75.8371098, 15.9283198 ], [ 75.8365149, 15.9256463 ], [ 75.8306738, 15.9250993 ], [ 75.8282436, 15.9270927 ], [ 75.8257446, 15.9271022 ], [ 75.8107994, 15.9253188 ], [ 75.8114046, 15.9236578 ], [ 75.7907422, 15.9230287 ], [ 75.7885219, 15.925021 ], [ 75.776155, 15.918254 ], [ 75.7752425, 15.9141171 ], [ 75.7788603, 15.9074962 ], [ 75.7779759, 15.9046067 ], [ 75.7741724, 15.9041818 ], [ 75.7735491, 15.9024122 ], [ 75.7783091, 15.9001489 ], [ 75.7790692, 15.8974026 ], [ 75.7978696, 15.8967153 ], [ 75.8103322, 15.8936996 ], [ 75.8118703, 15.8999224 ], [ 75.8273313, 15.9003522 ], [ 75.8296039, 15.8964429 ], [ 75.8297139, 15.88677 ], [ 75.8323153, 15.8868098 ], [ 75.8352343, 15.8823013 ], [ 75.8337508, 15.8781307 ], [ 75.8318314, 15.8781379 ], [ 75.8328914, 15.8758198 ], [ 75.8280061, 15.8665229 ], [ 75.8319829, 15.8649394 ], [ 75.8382217, 15.8649652 ], [ 75.8400619, 15.8718192 ], [ 75.8487342, 15.8719347 ], [ 75.8482897, 15.8627701 ], [ 75.8499611, 15.8604585 ], [ 75.8467667, 15.8469112 ], [ 75.8461251, 15.8397226 ], [ 75.8470317, 15.8388106 ], [ 75.8379389, 15.8382854 ], [ 75.8294896, 15.83985 ], [ 75.8209865, 15.8454779 ], [ 75.8207425, 15.8497818 ], [ 75.8147598, 15.847142 ], [ 75.8113695, 15.8470417 ], [ 75.8056941, 15.8488075 ], [ 75.8056376, 15.8510541 ], [ 75.8082446, 15.8516665 ], [ 75.8039216, 15.8508595 ], [ 75.7974721, 15.8477937 ], [ 75.794704, 15.8492005 ], [ 75.7871114, 15.8490925 ], [ 75.7802753, 15.8527105 ], [ 75.7766703, 15.8489718 ], [ 75.7762207, 15.8351562 ], [ 75.7743931, 15.8272891 ], [ 75.7774325, 15.8272783 ], [ 75.777513, 15.8227129 ], [ 75.7787789, 15.8216642 ], [ 75.7795973, 15.817164 ], [ 75.7490446, 15.8149393 ], [ 75.744793, 15.812763 ], [ 75.7369167, 15.8134208 ], [ 75.7368218, 15.8162844 ], [ 75.7219223, 15.8179163 ], [ 75.7138553, 15.8276401 ], [ 75.7087754, 15.8280777 ], [ 75.7085508, 15.8291984 ], [ 75.6966912, 15.8246433 ], [ 75.6911558, 15.8271186 ], [ 75.6886151, 15.8306129 ], [ 75.683199, 15.8301555 ], [ 75.6802, 15.8218434 ], [ 75.6760431, 15.8211151 ], [ 75.6742273, 15.824446 ], [ 75.6754185, 15.8315113 ], [ 75.6721468, 15.8362605 ], [ 75.6626872, 15.8378011 ], [ 75.6600179, 15.8343154 ], [ 75.6615603, 15.8287437 ], [ 75.6598321, 15.8270727 ], [ 75.6568096, 15.8265801 ], [ 75.6513354, 15.8303482 ], [ 75.6428053, 15.8319647 ], [ 75.6441478, 15.8401603 ], [ 75.6424285, 15.841336 ], [ 75.6370291, 15.8408502 ], [ 75.635367, 15.8334286 ], [ 75.6312126, 15.8308099 ], [ 75.6308719, 15.8338846 ], [ 75.6213238, 15.8340432 ], [ 75.6177378, 15.8355903 ], [ 75.6174251, 15.8217777 ], [ 75.6165643, 15.821179 ], [ 75.6139544, 15.8211864 ], [ 75.6124554, 15.8242372 ], [ 75.6054149, 15.8271301 ], [ 75.6089773, 15.8306068 ], [ 75.6000013, 15.8268122 ], [ 75.5921329, 15.8296815 ], [ 75.5871053, 15.8333293 ], [ 75.5827925, 15.8305972 ], [ 75.5792861, 15.8257385 ], [ 75.5768694, 15.8247775 ], [ 75.5755057, 15.8263045 ], [ 75.5767271, 15.8305772 ], [ 75.565962, 15.8296383 ], [ 75.5657042, 15.8309587 ], [ 75.5682781, 15.8313588 ], [ 75.5681264, 15.8339041 ], [ 75.5712776, 15.8337421 ], [ 75.5683472, 15.8377682 ], [ 75.5664577, 15.8383336 ], [ 75.5634584, 15.8360497 ], [ 75.5630225, 15.8304053 ], [ 75.5574432, 15.8287969 ], [ 75.5521283, 15.8248418 ], [ 75.5502413, 15.8263202 ], [ 75.5506144, 15.8278968 ], [ 75.5564027, 15.8325151 ], [ 75.5528276, 15.8330802 ], [ 75.5469581, 15.8364489 ], [ 75.5435715, 15.8359811 ], [ 75.5433511, 15.8344908 ], [ 75.5389926, 15.8331316 ], [ 75.5382922, 15.8348434 ], [ 75.5298876, 15.8348731 ], [ 75.532581, 15.839947 ], [ 75.5314284, 15.8420336 ], [ 75.5288573, 15.8427044 ], [ 75.5245353, 15.839813 ], [ 75.522318, 15.8400804 ], [ 75.5194092, 15.8438436 ], [ 75.5198163, 15.8460259 ], [ 75.5159029, 15.8477166 ], [ 75.5123397, 15.8513276 ], [ 75.514391, 15.8518335 ], [ 75.5156575, 15.8541176 ], [ 75.5205669, 15.8528629 ], [ 75.5196313, 15.8577061 ], [ 75.5078461, 15.8601839 ], [ 75.506994, 15.8555076 ], [ 75.5023311, 15.8583163 ], [ 75.5051976, 15.8617856 ], [ 75.4974227, 15.8701822 ], [ 75.4978441, 15.8722876 ], [ 75.4917194, 15.8729506 ], [ 75.487039, 15.8768435 ], [ 75.4825468, 15.8748756 ], [ 75.4802279, 15.8776645 ], [ 75.4777571, 15.875429 ], [ 75.4802247, 15.8712077 ], [ 75.4788241, 15.8710727 ], [ 75.4765796, 15.8732472 ], [ 75.4740492, 15.8733206 ], [ 75.4737701, 15.8752908 ], [ 75.475666, 15.8763066 ], [ 75.465615, 15.8772371 ], [ 75.466634, 15.8804313 ], [ 75.4654206, 15.8813627 ], [ 75.4636747, 15.8818106 ], [ 75.4629639, 15.8791224 ], [ 75.4597709, 15.8801223 ], [ 75.4587083, 15.8845417 ], [ 75.4616735, 15.8857922 ], [ 75.4614451, 15.8867503 ], [ 75.4479099, 15.8861495 ], [ 75.4432701, 15.8891693 ], [ 75.4440316, 15.8905698 ], [ 75.4471502, 15.8899046 ], [ 75.446619, 15.8930723 ], [ 75.4379442, 15.8935899 ], [ 75.4396262, 15.9128518 ], [ 75.4415284, 15.9185716 ], [ 75.4248727, 15.9213728 ], [ 75.4272317, 15.9247566 ], [ 75.4297852, 15.9399471 ], [ 75.43342, 15.9455491 ], [ 75.439605, 15.9664635 ], [ 75.4323619, 15.9699987 ], [ 75.4316298, 15.9754121 ], [ 75.4359587, 15.9879136 ], [ 75.4378425, 16.0030242 ], [ 75.430835, 16.0085313 ], [ 75.4260655, 16.0093502 ], [ 75.4233332, 16.032901 ], [ 75.4164603, 16.0328075 ], [ 75.4154081, 16.0524223 ], [ 75.4194135, 16.0566327 ], [ 75.4231931, 16.0537085 ], [ 75.427987, 16.0526276 ], [ 75.4448976, 16.0528624 ], [ 75.4452256, 16.0692507 ], [ 75.4311736, 16.0692547 ], [ 75.4278711, 16.0929411 ], [ 75.4313071, 16.0963065 ], [ 75.4357565, 16.0965809 ], [ 75.4389311, 16.1154761 ], [ 75.4159296, 16.1157571 ], [ 75.4118773, 16.1306302 ], [ 75.4091589, 16.1294987 ], [ 75.4069193, 16.1262367 ], [ 75.4045758, 16.1138656 ], [ 75.3894876, 16.1133022 ], [ 75.3553524, 16.1153166 ], [ 75.353104, 16.1164731 ], [ 75.3543647, 16.1286051 ], [ 75.3470264, 16.1237514 ], [ 75.3413375, 16.1245458 ], [ 75.3383373, 16.1211293 ], [ 75.3314947, 16.118566 ], [ 75.3277701, 16.1153345 ], [ 75.275805, 16.1202818 ], [ 75.2870839, 16.1513238 ], [ 75.2923341, 16.1727432 ], [ 75.2843422, 16.1763561 ], [ 75.2858414, 16.1794187 ], [ 75.2859733, 16.1875835 ], [ 75.2888563, 16.1920128 ], [ 75.2858782, 16.201247 ], [ 75.2807398, 16.1997221 ], [ 75.2730674, 16.2063153 ], [ 75.2687876, 16.2080211 ], [ 75.2490895, 16.2046425 ], [ 75.2323104, 16.2100613 ], [ 75.2329973, 16.2179455 ], [ 75.2305122, 16.2232784 ], [ 75.2296242, 16.2333638 ], [ 75.2308324, 16.2364267 ], [ 75.2331998, 16.2380612 ], [ 75.2339413, 16.2427418 ], [ 75.2379822, 16.2508096 ], [ 75.2322241, 16.2502386 ], [ 75.234086, 16.259474 ], [ 75.2250877, 16.2621758 ], [ 75.2165915, 16.2688757 ], [ 75.2031677, 16.2728301 ], [ 75.1848688, 16.2759761 ], [ 75.177791, 16.2754221 ], [ 75.1735484, 16.2765481 ], [ 75.1701996, 16.279689 ], [ 75.1544114, 16.2808665 ], [ 75.1293557, 16.2870989 ], [ 75.13024, 16.2946129 ], [ 75.1288459, 16.2948298 ], [ 75.1324484, 16.3028724 ], [ 75.1320461, 16.3053349 ], [ 75.1378253, 16.3244698 ], [ 75.1336142, 16.3268602 ], [ 75.1307834, 16.330353 ], [ 75.1245693, 16.3311392 ], [ 75.117415, 16.3266568 ], [ 75.108997, 16.3286533 ], [ 75.0962655, 16.3248655 ], [ 75.0854133, 16.3307915 ], [ 75.076209, 16.331648 ], [ 75.0650974, 16.3267065 ], [ 75.0569729, 16.3307794 ], [ 75.0461581, 16.3220687 ], [ 75.0431979, 16.3182315 ], [ 75.034598, 16.3380091 ], [ 75.0330209, 16.3578529 ], [ 75.0344421, 16.3706946 ], [ 75.0336938, 16.3794778 ], [ 75.0350617, 16.3867709 ], [ 75.0396343, 16.398019 ], [ 75.041062, 16.3979111 ], [ 75.0415214, 16.3961989 ], [ 75.0485004, 16.396423 ], [ 75.0493978, 16.3998211 ], [ 75.0729602, 16.4043875 ], [ 75.075145, 16.4260442 ], [ 75.0778246, 16.4377924 ], [ 75.0279608, 16.433645 ], [ 75.0238212, 16.4355497 ], [ 75.0232334, 16.4403839 ], [ 75.0177279, 16.4397757 ], [ 75.0153, 16.4525701 ], [ 75.0167996, 16.4584357 ], [ 75.0018729, 16.4578218 ], [ 74.9984491, 16.4544634 ], [ 74.9883959, 16.4535518 ], [ 74.9894328, 16.457193 ], [ 74.9915409, 16.4591256 ], [ 74.9913183, 16.4628488 ], [ 74.986533, 16.4630863 ], [ 74.9862697, 16.4694617 ], [ 74.9884582, 16.4725511 ], [ 74.989107, 16.4770916 ], [ 74.9885116, 16.5009562 ], [ 74.9944488, 16.5160726 ], [ 74.9979852, 16.5175659 ], [ 75.000974, 16.5296862 ], [ 75.0041442, 16.5310209 ], [ 75.0042176, 16.5334292 ], [ 75.0065456, 16.5334486 ], [ 75.0075965, 16.5384058 ], [ 75.0667532, 16.5393802 ], [ 75.0677426, 16.5511324 ], [ 75.071284, 16.5675933 ], [ 75.0802895, 16.5633936 ], [ 75.0844131, 16.5592558 ], [ 75.0876607, 16.5536854 ], [ 75.0902262, 16.5381974 ], [ 75.1001724, 16.5265193 ], [ 75.1052703, 16.5110178 ], [ 75.1104319, 16.5069609 ], [ 75.1153918, 16.5061028 ], [ 75.1213537, 16.5086197 ], [ 75.12607, 16.5123247 ], [ 75.1316155, 16.5218085 ], [ 75.1355875, 16.5246142 ], [ 75.1499532, 16.5263979 ], [ 75.1547873, 16.5283808 ], [ 75.161983, 16.5345155 ], [ 75.1659109, 16.5477081 ], [ 75.1649331, 16.5539841 ], [ 75.1569528, 16.5690446 ], [ 75.1571801, 16.5849894 ], [ 75.1599313, 16.5902934 ], [ 75.1709538, 16.6003534 ], [ 75.1770602, 16.6038311 ], [ 75.1981949, 16.6086911 ], [ 75.2160422, 16.6159044 ], [ 75.2213333, 16.6169322 ], [ 75.231375, 16.6157617 ], [ 75.242692, 16.6080251 ], [ 75.2522836, 16.6051272 ], [ 75.2588515, 16.6077336 ], [ 75.2567044, 16.6092595 ], [ 75.2580104, 16.6115465 ], [ 75.2553206, 16.6189819 ], [ 75.2563274, 16.6201075 ], [ 75.2614774, 16.6204222 ], [ 75.2682467, 16.640961 ], [ 75.2659255, 16.6674183 ], [ 75.262688, 16.6806909 ], [ 75.2645614, 16.6916214 ], [ 75.2792092, 16.7047135 ], [ 75.2878916, 16.7150956 ], [ 75.3185769, 16.7185766 ], [ 75.3622608, 16.7144639 ], [ 75.3642203, 16.7182321 ], [ 75.3638451, 16.721074 ], [ 75.3653781, 16.7227233 ], [ 75.3625035, 16.7291208 ], [ 75.3636798, 16.7372716 ], [ 75.3664507, 16.742418 ], [ 75.3654094, 16.747659 ], [ 75.3661767, 16.7601331 ], [ 75.3843535, 16.7634217 ], [ 75.3869692, 16.7603956 ], [ 75.3884392, 16.7616459 ], [ 75.3922666, 16.760745 ], [ 75.3923859, 16.7595711 ], [ 75.4076916, 16.7614599 ], [ 75.40765, 16.7638133 ], [ 75.4130656, 16.7664757 ], [ 75.4141361, 16.7654287 ], [ 75.4178126, 16.7662974 ], [ 75.4193554, 16.7680086 ] ] ] } }
]
}
