{
"type": "FeatureCollection",
"name": "2912",
"crs": { "type": "name", "properties": { "name": "urn:ogc:def:crs:OGC:1.3:CRS84" } },
"features": [
{ "type": "Feature", "properties": { "code": "2912", "name": "Ballari", "type": "district" }, "geometry": { "type": "Polygon", "coordinates": [ [ [ 77.03584, 15.8295662 ], [ 77.038384, 15.8309181 ], [ 77.038318, 15.8323098 ], [ 77.0406937, 15.8327445 ], [ 77.0425576, 15.8288368 ], [ 77.0476634, 15.8300361 ], [ 77.048089, 15.8279714 ], [ 77.0509772, 15.8304034 ], [ 77.0534376, 15.8288408 ], [ 77.0545765, 15.828909 ], [ 77.0544874, 15.8300792 ], [ 77.0588842, 15.8299949 ], [ 77.0631411, 15.829585 ], [ 77.0654709, 15.827349 ], [ 77.0637329, 15.8031879 ], [ 77.0671166, 15.8026919 ], [ 77.0680147, 15.7957969 ], [ 77.0671724, 15.7877356 ], [ 77.0664126, 15.7850468 ], [ 77.0609431, 15.7862561 ], [ 77.05695, 15.7687048 ], [ 77.0523115, 15.7698735 ], [ 77.0510583, 15.7645187 ], [ 77.0564575, 15.7628261 ], [ 77.0543089, 15.756174 ], [ 77.0479913, 15.7562169 ], [ 77.0459465, 15.7403675 ], [ 77.0493834, 15.740041 ], [ 77.049098, 15.7302582 ], [ 77.0796887, 15.7275108 ], [ 77.0788658, 15.7162549 ], [ 77.0874075, 15.7154885 ], [ 77.0825692, 15.6986964 ], [ 77.0806429, 15.6985289 ], [ 77.0786939, 15.695144 ], [ 77.0937936, 15.6903844 ], [ 77.0950254, 15.6883602 ], [ 77.1092288, 15.6814621 ], [ 77.1092854, 15.679882 ], [ 77.1141965, 15.6779832 ], [ 77.1133944, 15.6756876 ], [ 77.1213723, 15.6710891 ], [ 77.120139, 15.6676087 ], [ 77.1288837, 15.6658647 ], [ 77.1281049, 15.6615223 ], [ 77.1214232, 15.6310849 ], [ 77.1156363, 15.6325125 ], [ 77.1083241, 15.6378349 ], [ 77.106249, 15.6374416 ], [ 77.1074658, 15.6400308 ], [ 77.1046675, 15.6430264 ], [ 77.1033991, 15.6428364 ], [ 77.1013605, 15.6485026 ], [ 77.0909508, 15.6533947 ], [ 77.0869839, 15.6576317 ], [ 77.0831894, 15.6591454 ], [ 77.0717251, 15.6466532 ], [ 77.0459867, 15.6386381 ], [ 77.034325, 15.6367988 ], [ 77.0340406, 15.6345648 ], [ 77.0304324, 15.6344927 ], [ 77.0300677, 15.6268334 ], [ 77.0314619, 15.6268341 ], [ 77.0311104, 15.6209869 ], [ 77.0327192, 15.6206261 ], [ 77.0312968, 15.6115927 ], [ 77.0327861, 15.607608 ], [ 77.0318032, 15.605529 ], [ 77.0329132, 15.6049827 ], [ 77.026239, 15.5817359 ], [ 77.0313152, 15.5440753 ], [ 77.0313562, 15.5070947 ], [ 77.0300398, 15.5026479 ], [ 77.0288368, 15.5004573 ], [ 77.0227932, 15.5022379 ], [ 77.0147918, 15.5018272 ], [ 77.0094588, 15.5046125 ], [ 76.9923259, 15.5057935 ], [ 76.9745308, 15.5105065 ], [ 76.9738366, 15.4995265 ], [ 76.9770987, 15.4897648 ], [ 76.9912142, 15.4828988 ], [ 76.9973015, 15.4780065 ], [ 77.0086273, 15.4512617 ], [ 77.0107707, 15.4487421 ], [ 77.0275044, 15.4397406 ], [ 77.033528, 15.4328892 ], [ 77.0348406, 15.4302862 ], [ 77.033902, 15.4192689 ], [ 77.02897, 15.4076843 ], [ 77.0292286, 15.4043603 ], [ 77.0329428, 15.3997081 ], [ 77.0396255, 15.3970239 ], [ 77.0454557, 15.3929229 ], [ 77.0472484, 15.3900219 ], [ 77.0474224, 15.3834014 ], [ 77.041346, 15.370989 ], [ 77.0418289, 15.3619222 ], [ 77.0447433, 15.3556906 ], [ 77.0590338, 15.3489572 ], [ 77.0648964, 15.3435521 ], [ 77.0660115, 15.3377351 ], [ 77.0637273, 15.3280183 ], [ 77.0743891, 15.3258881 ], [ 77.1014476, 15.3336771 ], [ 77.113101, 15.3336782 ], [ 77.1125876, 15.3274315 ], [ 77.1169862, 15.3257469 ], [ 77.1168986, 15.313415 ], [ 77.1184898, 15.3134427 ], [ 77.1183752, 15.2948506 ], [ 77.1196108, 15.2945424 ], [ 77.1197186, 15.2957359 ], [ 77.1332651, 15.2927982 ], [ 77.1515776, 15.292435 ], [ 77.1519442, 15.2756841 ], [ 77.1471004, 15.2749452 ], [ 77.1471355, 15.2729214 ], [ 77.1528533, 15.2740625 ], [ 77.1529546, 15.2729602 ], [ 77.1591542, 15.2692301 ], [ 77.1592602, 15.2678416 ], [ 77.166931, 15.2685842 ], [ 77.1676717, 15.2584956 ], [ 77.1616313, 15.2591211 ], [ 77.1558725, 15.2569369 ], [ 77.1437775, 15.2572136 ], [ 77.1430427, 15.2518444 ], [ 77.1405415, 15.251718 ], [ 77.1402767, 15.2474843 ], [ 77.1362178, 15.2409594 ], [ 77.1328294, 15.2416916 ], [ 77.1325129, 15.2396942 ], [ 77.126271, 15.2400168 ], [ 77.1251204, 15.2269393 ], [ 77.135561, 15.2253787 ], [ 77.1357844, 15.226165 ], [ 77.1441614, 15.2239684 ], [ 77.1453995, 15.2251025 ], [ 77.1476565, 15.2239094 ], [ 77.1472513, 15.220683 ], [ 77.1519736, 15.2175716 ], [ 77.1516579, 15.2146998 ], [ 77.1548178, 15.2148214 ], [ 77.1593112, 15.200998 ], [ 77.1619451, 15.2011105 ], [ 77.1658845, 15.189352 ], [ 77.1691336, 15.1713486 ], [ 77.1674214, 15.171245 ], [ 77.1672544, 15.1681585 ], [ 77.1648665, 15.1682043 ], [ 77.1628316, 15.1573595 ], [ 77.1407558, 15.1585863 ], [ 77.1396157, 15.1550075 ], [ 77.1347211, 15.1482928 ], [ 77.1371403, 15.1477956 ], [ 77.1379496, 15.1434666 ], [ 77.149003, 15.1414188 ], [ 77.1497471, 15.1397648 ], [ 77.1531431, 15.1393714 ], [ 77.1532689, 15.1409846 ], [ 77.1572789, 15.140469 ], [ 77.1563276, 15.1229316 ], [ 77.1501676, 15.1116081 ], [ 77.142083, 15.1045684 ], [ 77.1369386, 15.1042479 ], [ 77.1369572, 15.1023364 ], [ 77.1301199, 15.1007685 ], [ 77.1282129, 15.0723134 ], [ 77.1208145, 15.0539985 ], [ 77.1195035, 15.0456928 ], [ 77.1152719, 15.0463975 ], [ 77.1129292, 15.0340564 ], [ 77.0936556, 15.0361374 ], [ 77.0908529, 15.0293315 ], [ 77.0847476, 15.0307087 ], [ 77.0824513, 15.0060806 ], [ 77.0725022, 15.0057981 ], [ 77.0720376, 15.0045869 ], [ 77.0481025, 15.008014 ], [ 77.0441175, 15.0098427 ], [ 77.0504305, 15.0244725 ], [ 77.0495625, 15.0330761 ], [ 77.0403234, 15.0331043 ], [ 77.0359488, 15.0312769 ], [ 77.0040782, 15.0338329 ], [ 77.0030337, 15.0309131 ], [ 76.986033, 15.0264863 ], [ 76.9852222, 15.0151888 ], [ 76.9659185, 15.0180393 ], [ 76.9496026, 15.0303729 ], [ 76.9437486, 15.0308762 ], [ 76.935862, 15.0294096 ], [ 76.9222245, 15.0312835 ], [ 76.9183659, 15.035523 ], [ 76.9072196, 15.0325195 ], [ 76.8949768, 15.0370713 ], [ 76.8771703, 15.0302405 ], [ 76.8778416, 15.0354586 ], [ 76.8731264, 15.0431364 ], [ 76.8691731, 15.0534161 ], [ 76.8651878, 15.0552243 ], [ 76.8658851, 15.0596846 ], [ 76.8641087, 15.0580259 ], [ 76.8608719, 15.0598059 ], [ 76.8613982, 15.0619864 ], [ 76.8545932, 15.0651245 ], [ 76.8360159, 15.0792345 ], [ 76.8237652, 15.0800136 ], [ 76.8116149, 15.0863821 ], [ 76.800235, 15.0958321 ], [ 76.7939155, 15.0918486 ], [ 76.7923498, 15.0875685 ], [ 76.7898571, 15.0868176 ], [ 76.7860243, 15.0878146 ], [ 76.7852965, 15.0823057 ], [ 76.7821453, 15.077329 ], [ 76.7778698, 15.0798698 ], [ 76.7766938, 15.0784006 ], [ 76.77989, 15.0760388 ], [ 76.7752411, 15.0722544 ], [ 76.773606, 15.059122 ], [ 76.7766307, 15.0546769 ], [ 76.7803471, 15.0426856 ], [ 76.7834004, 15.0426153 ], [ 76.7835893, 15.0399848 ], [ 76.7857481, 15.0371524 ], [ 76.7857196, 15.0276765 ], [ 76.7901302, 15.0207147 ], [ 76.7871183, 15.0079298 ], [ 76.7836327, 15.0047833 ], [ 76.7787373, 15.0045642 ], [ 76.7750249, 14.9930627 ], [ 76.7723761, 14.9908353 ], [ 76.7695655, 14.9917619 ], [ 76.7678552, 14.9900977 ], [ 76.7605691, 14.9898576 ], [ 76.750756, 14.9831725 ], [ 76.7446093, 14.986457 ], [ 76.7363114, 14.9865017 ], [ 76.7340562, 14.98545 ], [ 76.7307135, 14.9945027 ], [ 76.7274978, 14.997351 ], [ 76.7281462, 15.009844 ], [ 76.7360936, 15.0228953 ], [ 76.7329548, 15.0315279 ], [ 76.730105, 15.032817 ], [ 76.7202759, 15.0338198 ], [ 76.7172591, 15.0359991 ], [ 76.7115107, 15.0327251 ], [ 76.703704, 15.033374 ], [ 76.7025767, 15.0274502 ], [ 76.7047368, 15.021828 ], [ 76.7015825, 15.0160765 ], [ 76.6930936, 15.0189892 ], [ 76.6859566, 15.0187833 ], [ 76.6862736, 15.021856 ], [ 76.6889616, 15.0238798 ], [ 76.6880832, 15.0250097 ], [ 76.6779284, 15.0245964 ], [ 76.6765423, 15.0220616 ], [ 76.6725945, 15.0205621 ], [ 76.6715387, 15.0185017 ], [ 76.6735376, 15.0168836 ], [ 76.6731043, 15.0127173 ], [ 76.6776181, 15.0095035 ], [ 76.6887158, 14.9785753 ], [ 76.7113995, 14.9756806 ], [ 76.7129977, 14.9733844 ], [ 76.7153496, 14.9729814 ], [ 76.7171233, 14.968236 ], [ 76.7166826, 14.9475759 ], [ 76.7127984, 14.939457 ], [ 76.7059953, 14.9422972 ], [ 76.7073728, 14.934696 ], [ 76.7067813, 14.9309546 ], [ 76.7037698, 14.9313398 ], [ 76.6970715, 14.9276139 ], [ 76.6793118, 14.9388434 ], [ 76.6597873, 14.9417525 ], [ 76.6625934, 14.935141 ], [ 76.6629544, 14.9247205 ], [ 76.6652765, 14.9158315 ], [ 76.6773348, 14.91122 ], [ 76.6784671, 14.9041025 ], [ 76.6775366, 14.8943804 ], [ 76.6741486, 14.8970043 ], [ 76.6662486, 14.8945159 ], [ 76.6654543, 14.8958219 ], [ 76.6482893, 14.8966013 ], [ 76.6466349, 14.8944324 ], [ 76.6377596, 14.8925576 ], [ 76.6372204, 14.8904473 ], [ 76.6345208, 14.8895436 ], [ 76.6330755, 14.8834206 ], [ 76.6197261, 14.8842475 ], [ 76.6111768, 14.8812194 ], [ 76.5948306, 14.881579 ], [ 76.5926729, 14.8640183 ], [ 76.5868942, 14.8587574 ], [ 76.5800736, 14.860297 ], [ 76.5699764, 14.8655998 ], [ 76.564973, 14.880312 ], [ 76.5525161, 14.8798428 ], [ 76.5416893, 14.8814793 ], [ 76.5384809, 14.8760599 ], [ 76.5302988, 14.8756634 ], [ 76.5333624, 14.8719321 ], [ 76.5308021, 14.8723332 ], [ 76.5235043, 14.8695238 ], [ 76.5176622, 14.8730639 ], [ 76.5065086, 14.8693392 ], [ 76.4995167, 14.8684135 ], [ 76.4992597, 14.8629727 ], [ 76.4961587, 14.8625207 ], [ 76.4956235, 14.8609213 ], [ 76.4858904, 14.8616446 ], [ 76.4818472, 14.8593644 ], [ 76.4750681, 14.8684141 ], [ 76.4753154, 14.8811121 ], [ 76.4706924, 14.8818099 ], [ 76.4688325, 14.8787694 ], [ 76.4651516, 14.8763081 ], [ 76.4640337, 14.8811843 ], [ 76.4590955, 14.8838794 ], [ 76.4606906, 14.8872861 ], [ 76.4605993, 14.8916377 ], [ 76.4573321, 14.9029722 ], [ 76.4529435, 14.9106874 ], [ 76.4529504, 14.9175516 ], [ 76.4607554, 14.9232201 ], [ 76.4679732, 14.9244284 ], [ 76.4698937, 14.9269673 ], [ 76.4661797, 14.9251521 ], [ 76.4618295, 14.9249459 ], [ 76.4565698, 14.9281878 ], [ 76.4530655, 14.9276241 ], [ 76.4344961, 14.9351443 ], [ 76.4301088, 14.9352854 ], [ 76.4258691, 14.9307313 ], [ 76.4245495, 14.9319155 ], [ 76.4126284, 14.9317956 ], [ 76.4078091, 14.9334683 ], [ 76.3979654, 14.933058 ], [ 76.4017208, 14.9347975 ], [ 76.4040871, 14.9396776 ], [ 76.4038273, 14.9434916 ], [ 76.4062954, 14.9446075 ], [ 76.4078255, 14.9509879 ], [ 76.4017878, 14.9513003 ], [ 76.4002633, 14.9519331 ], [ 76.4003983, 14.9540886 ], [ 76.3940817, 14.9549477 ], [ 76.3939797, 14.9584815 ], [ 76.3913905, 14.9563849 ], [ 76.3861475, 14.9583327 ], [ 76.3804303, 14.9587169 ], [ 76.374662, 14.957307 ], [ 76.373709, 14.9595032 ], [ 76.3760329, 14.9823324 ], [ 76.3742292, 14.9839501 ], [ 76.3631095, 14.9855538 ], [ 76.3659262, 14.9922781 ], [ 76.3614188, 14.9958703 ], [ 76.3677897, 14.9953325 ], [ 76.3695859, 14.9973759 ], [ 76.371497, 14.9968929 ], [ 76.3790997, 15.0114509 ], [ 76.3785883, 15.0154998 ], [ 76.3800156, 15.0194086 ], [ 76.3786533, 15.0224588 ], [ 76.3814803, 15.0236021 ], [ 76.3898401, 15.0236109 ], [ 76.3937922, 15.0224674 ], [ 76.3985999, 15.0237368 ], [ 76.404831, 15.0293622 ], [ 76.4049573, 15.0356343 ], [ 76.4038974, 15.0377854 ], [ 76.4033023, 15.0389468 ], [ 76.4010657, 15.038947 ], [ 76.3981326, 15.0490469 ], [ 76.3925156, 15.0536476 ], [ 76.3923675, 15.0646825 ], [ 76.4098108, 15.0618114 ], [ 76.4134463, 15.0552992 ], [ 76.4219683, 15.0459302 ], [ 76.4375771, 15.0407345 ], [ 76.4516331, 15.0386247 ], [ 76.4611435, 15.0424669 ], [ 76.4799286, 15.0704671 ], [ 76.4727046, 15.0772801 ], [ 76.4699397, 15.0826721 ], [ 76.4671126, 15.0840515 ], [ 76.4595438, 15.0916686 ], [ 76.4560176, 15.1024246 ], [ 76.4401203, 15.1371565 ], [ 76.4355672, 15.1417217 ], [ 76.4311217, 15.1498882 ], [ 76.4216146, 15.1604868 ], [ 76.4147031, 15.1731045 ], [ 76.4038537, 15.1810861 ], [ 76.3958283, 15.1933644 ], [ 76.4091273, 15.1937561 ], [ 76.4196831, 15.2050921 ], [ 76.4231969, 15.2070977 ], [ 76.4313105, 15.2171051 ], [ 76.429054, 15.2195548 ], [ 76.4276496, 15.2239699 ], [ 76.4318496, 15.2329116 ], [ 76.4482328, 15.2206161 ], [ 76.4591076, 15.2176391 ], [ 76.4683431, 15.2122583 ], [ 76.4803855, 15.2096323 ], [ 76.4865153, 15.2024085 ], [ 76.4876612, 15.1957427 ], [ 76.4953614, 15.1852644 ], [ 76.4997131, 15.1817066 ], [ 76.5094681, 15.1858964 ], [ 76.5180786, 15.181513 ], [ 76.5243838, 15.1902102 ], [ 76.5329385, 15.1956998 ], [ 76.5348821, 15.1989722 ], [ 76.5389495, 15.1982509 ], [ 76.549971, 15.191766 ], [ 76.5553931, 15.2021701 ], [ 76.5590467, 15.199826 ], [ 76.5645288, 15.1986392 ], [ 76.5699977, 15.1942575 ], [ 76.5737298, 15.1933772 ], [ 76.6036267, 15.1954838 ], [ 76.6054554, 15.1996733 ], [ 76.6151479, 15.2016711 ], [ 76.6182048, 15.2087115 ], [ 76.6222951, 15.2128824 ], [ 76.6282984, 15.2289965 ], [ 76.6287265, 15.2360819 ], [ 76.6350704, 15.2442789 ], [ 76.6275749, 15.2510694 ], [ 76.6190681, 15.2565568 ], [ 76.6156745, 15.2641934 ], [ 76.6089617, 15.2690144 ], [ 76.6064263, 15.2632929 ], [ 76.5998993, 15.2630533 ], [ 76.5951715, 15.2580122 ], [ 76.5898991, 15.2577039 ], [ 76.5813416, 15.2529281 ], [ 76.5755931, 15.2633094 ], [ 76.5775403, 15.2675974 ], [ 76.5776189, 15.2746437 ], [ 76.5810976, 15.2824759 ], [ 76.5821068, 15.2949162 ], [ 76.5889733, 15.2980024 ], [ 76.5908825, 15.3066052 ], [ 76.5813286, 15.3067503 ], [ 76.5790318, 15.3107916 ], [ 76.555206, 15.3171474 ], [ 76.5528684, 15.3201809 ], [ 76.5510301, 15.3282228 ], [ 76.5531268, 15.3379552 ], [ 76.5497742, 15.3472267 ], [ 76.5575492, 15.3621697 ], [ 76.5576235, 15.3662643 ], [ 76.5509079, 15.3724454 ], [ 76.5473308, 15.3734724 ], [ 76.5406296, 15.3811062 ], [ 76.5486265, 15.3869035 ], [ 76.5549713, 15.3966571 ], [ 76.5717984, 15.4012665 ], [ 76.5923281, 15.413024 ], [ 76.5946379, 15.4170641 ], [ 76.5960666, 15.4254284 ], [ 76.6122718, 15.4428272 ], [ 76.6398936, 15.4441379 ], [ 76.6659932, 15.4498376 ], [ 76.6713634, 15.453062 ], [ 76.6839265, 15.4717495 ], [ 76.7089912, 15.4885467 ], [ 76.726458, 15.4925703 ], [ 76.7414525, 15.4908912 ], [ 76.7517111, 15.4927868 ], [ 76.7644799, 15.4915511 ], [ 76.7801176, 15.4928465 ], [ 76.7969734, 15.501056 ], [ 76.8107872, 15.5128276 ], [ 76.8125521, 15.5168904 ], [ 76.8078519, 15.5242769 ], [ 76.8106216, 15.5345622 ], [ 76.8105661, 15.5471693 ], [ 76.8162884, 15.5524532 ], [ 76.8259262, 15.5584474 ], [ 76.8310208, 15.5600166 ], [ 76.8350018, 15.5659448 ], [ 76.835025, 15.5813725 ], [ 76.8322247, 15.5957185 ], [ 76.8364379, 15.6026238 ], [ 76.8323828, 15.61828 ], [ 76.8324937, 15.6228936 ], [ 76.8342971, 15.627783 ], [ 76.8523829, 15.640813 ], [ 76.8576242, 15.6423951 ], [ 76.8615963, 15.6538863 ], [ 76.8720328, 15.6656849 ], [ 76.8808615, 15.6713152 ], [ 76.8894158, 15.6848526 ], [ 76.893152, 15.6868857 ], [ 76.9067814, 15.6903457 ], [ 76.9129162, 15.6975836 ], [ 76.9168768, 15.6996614 ], [ 76.9205925, 15.7133701 ], [ 76.9193248, 15.719014 ], [ 76.9222703, 15.7280957 ], [ 76.9257841, 15.731868 ], [ 76.9302094, 15.7422688 ], [ 76.9396935, 15.7548849 ], [ 76.94404, 15.7632882 ], [ 76.9589931, 15.7714933 ], [ 76.9669921, 15.7742737 ], [ 76.971587, 15.7813885 ], [ 76.980247, 15.7891384 ], [ 76.9829561, 15.7939087 ], [ 76.9926765, 15.8017163 ], [ 76.9987584, 15.8111929 ], [ 77.0049889, 15.8136635 ], [ 77.0159799, 15.8221643 ], [ 77.0220202, 15.829632 ], [ 77.0251855, 15.8375092 ], [ 77.03584, 15.8295662 ] ] ] } }
]
}
