{
"type": "FeatureCollection",
"name": "2932",
"crs": { "type": "name", "properties": { "name": "urn:ogc:def:crs:OGC:1.3:CRS84" } },
"features": [
{ "type": "Feature", "properties": { "code": "2932", "name": "Ramanagara", "type": "district" }, "geometry": { "type": "Polygon", "coordinates": [ [ [ 77.1665279, 13.1969723 ], [ 77.1649576, 13.1891955 ], [ 77.1687883, 13.1838332 ], [ 77.1758555, 13.1866184 ], [ 77.184391, 13.1866167 ], [ 77.1977962, 13.1802286 ], [ 77.1976096, 13.1830438 ], [ 77.2025434, 13.1829608 ], [ 77.2035887, 13.1844771 ], [ 77.207555, 13.1788445 ], [ 77.2074014, 13.1735823 ], [ 77.2133534, 13.1685521 ], [ 77.2162757, 13.1616054 ], [ 77.2138593, 13.1564555 ], [ 77.2132124, 13.1516008 ], [ 77.2174979, 13.1448677 ], [ 77.2284159, 13.1465466 ], [ 77.2304341, 13.144608 ], [ 77.2315905, 13.147341 ], [ 77.2416259, 13.146364 ], [ 77.2489311, 13.1518962 ], [ 77.2552896, 13.1525466 ], [ 77.2661905, 13.1505997 ], [ 77.2697169, 13.1524515 ], [ 77.2750423, 13.1525825 ], [ 77.2739412, 13.1397856 ], [ 77.2709244, 13.1431461 ], [ 77.2691536, 13.143796 ], [ 77.2670793, 13.1426564 ], [ 77.2671656, 13.1353907 ], [ 77.2654265, 13.1275818 ], [ 77.2684106, 13.1188513 ], [ 77.2731543, 13.1183351 ], [ 77.2764691, 13.11945 ], [ 77.2778263, 13.1253978 ], [ 77.2792964, 13.1259906 ], [ 77.2791254, 13.1337665 ], [ 77.2847454, 13.1343533 ], [ 77.286788, 13.121694 ], [ 77.2882015, 13.1206643 ], [ 77.2919477, 13.121169 ], [ 77.2928278, 13.110104 ], [ 77.2964939, 13.109123 ], [ 77.302717, 13.110882 ], [ 77.3143407, 13.1061426 ], [ 77.3092771, 13.0832447 ], [ 77.3087184, 13.0651807 ], [ 77.3110509, 13.0463214 ], [ 77.3200513, 13.0485348 ], [ 77.3238775, 13.0470155 ], [ 77.3257698, 13.0497205 ], [ 77.3283874, 13.0502146 ], [ 77.3311274, 13.0429106 ], [ 77.3296582, 13.0391396 ], [ 77.3299629, 13.0260705 ], [ 77.3254534, 13.0229109 ], [ 77.3278322, 13.0088749 ], [ 77.322819, 13.0091107 ], [ 77.3219334, 13.0078668 ], [ 77.3287333, 12.9776375 ], [ 77.3256128, 12.9713343 ], [ 77.3300776, 12.9629159 ], [ 77.3329822, 12.950144 ], [ 77.3394808, 12.9440843 ], [ 77.3355395, 12.9379839 ], [ 77.336435, 12.9284012 ], [ 77.339316, 12.9236222 ], [ 77.3365955, 12.9123376 ], [ 77.3433944, 12.8879855 ], [ 77.3332447, 12.8879226 ], [ 77.3354199, 12.8842992 ], [ 77.3350048, 12.8783888 ], [ 77.3448764, 12.8764508 ], [ 77.3462977, 12.8701037 ], [ 77.3656025, 12.8716142 ], [ 77.3697648, 12.8576092 ], [ 77.3767345, 12.8564871 ], [ 77.3794147, 12.8548846 ], [ 77.3798753, 12.857617 ], [ 77.3853822, 12.8570623 ], [ 77.3852147, 12.8590346 ], [ 77.3900307, 12.8605136 ], [ 77.3957893, 12.8653618 ], [ 77.3951612, 12.867293 ], [ 77.3974018, 12.8683304 ], [ 77.4026574, 12.8654127 ], [ 77.4021553, 12.8699325 ], [ 77.4038936, 12.8738769 ], [ 77.4103854, 12.8765881 ], [ 77.4157878, 12.8752109 ], [ 77.4157873, 12.8716978 ], [ 77.4212212, 12.8716764 ], [ 77.4278923, 12.8755276 ], [ 77.4298911, 12.8753935 ], [ 77.4292201, 12.8705862 ], [ 77.418394, 12.8695197 ], [ 77.4242033, 12.8610339 ], [ 77.4289032, 12.8566571 ], [ 77.4266407, 12.8503093 ], [ 77.4378635, 12.8501837 ], [ 77.4337898, 12.8443346 ], [ 77.4345529, 12.8391675 ], [ 77.4296432, 12.8395691 ], [ 77.4251204, 12.8377825 ], [ 77.4222515, 12.8343726 ], [ 77.4195912, 12.8262579 ], [ 77.4313773, 12.8217566 ], [ 77.4334398, 12.8233278 ], [ 77.4354596, 12.820708 ], [ 77.4340142, 12.8167021 ], [ 77.4360502, 12.8130868 ], [ 77.4360372, 12.8103546 ], [ 77.4398659, 12.8111924 ], [ 77.4435851, 12.8082287 ], [ 77.4444424, 12.8100072 ], [ 77.4462315, 12.8099863 ], [ 77.4455248, 12.8121302 ], [ 77.4465657, 12.8148044 ], [ 77.4493601, 12.8178079 ], [ 77.4515793, 12.8180538 ], [ 77.4595546, 12.8144768 ], [ 77.4658757, 12.8086061 ], [ 77.4683942, 12.8110185 ], [ 77.4704884, 12.8095299 ], [ 77.4746911, 12.810733 ], [ 77.4774161, 12.8100379 ], [ 77.4773949, 12.8087925 ], [ 77.4800368, 12.8086282 ], [ 77.4785381, 12.8063626 ], [ 77.4789743, 12.8046475 ], [ 77.4820932, 12.800849 ], [ 77.4846936, 12.8007663 ], [ 77.4762877, 12.796768 ], [ 77.4710465, 12.7995873 ], [ 77.4692974, 12.7950556 ], [ 77.4732054, 12.7871737 ], [ 77.4777237, 12.7815118 ], [ 77.4740082, 12.7644506 ], [ 77.4763461, 12.7622653 ], [ 77.4757326, 12.7591623 ], [ 77.4735478, 12.7569173 ], [ 77.4747742, 12.7546916 ], [ 77.4835665, 12.7489584 ], [ 77.4861425, 12.7428874 ], [ 77.4914093, 12.7418367 ], [ 77.4924492, 12.7401188 ], [ 77.4989121, 12.7393198 ], [ 77.5032449, 12.7365926 ], [ 77.5049229, 12.7323766 ], [ 77.5052852, 12.7352241 ], [ 77.5101228, 12.7381596 ], [ 77.5138145, 12.7502153 ], [ 77.5208756, 12.7443517 ], [ 77.5185307, 12.736726 ], [ 77.5212675, 12.7324109 ], [ 77.5241424, 12.7386989 ], [ 77.5326427, 12.7485551 ], [ 77.5322155, 12.7518511 ], [ 77.5343058, 12.7559642 ], [ 77.5407091, 12.7501624 ], [ 77.5463191, 12.7700568 ], [ 77.5523192, 12.7721764 ], [ 77.5517713, 12.7734962 ], [ 77.5474519, 12.774016 ], [ 77.5440397, 12.7759776 ], [ 77.5488105, 12.7859751 ], [ 77.5431508, 12.7942009 ], [ 77.5430725, 12.797437 ], [ 77.5485989, 12.8004697 ], [ 77.5569299, 12.7991045 ], [ 77.5547052, 12.7885557 ], [ 77.5627871, 12.7871135 ], [ 77.5614652, 12.7840041 ], [ 77.5554463, 12.7814236 ], [ 77.555612, 12.7793265 ], [ 77.5589499, 12.7664633 ], [ 77.565465, 12.7589467 ], [ 77.5697152, 12.7606548 ], [ 77.5716128, 12.7649031 ], [ 77.5708313, 12.7780329 ], [ 77.5804155, 12.7872294 ], [ 77.592056, 12.78043 ], [ 77.5920969, 12.7773927 ], [ 77.5974593, 12.7659298 ], [ 77.597992, 12.758983 ], [ 77.5947306, 12.7523035 ], [ 77.5753887, 12.7512973 ], [ 77.5686839, 12.7383559 ], [ 77.5676396, 12.7344732 ], [ 77.5702416, 12.7319157 ], [ 77.5689299, 12.7297911 ], [ 77.5647257, 12.7324974 ], [ 77.5557937, 12.7327391 ], [ 77.5559093, 12.7308364 ], [ 77.5593668, 12.7146523 ], [ 77.5651108, 12.7026132 ], [ 77.5674268, 12.7010861 ], [ 77.5793255, 12.7086411 ], [ 77.5941383, 12.7220806 ], [ 77.6154368, 12.7091743 ], [ 77.6131816, 12.6992534 ], [ 77.6055358, 12.6922202 ], [ 77.5993558, 12.6726989 ], [ 77.5951723, 12.6672295 ], [ 77.5972621, 12.6574395 ], [ 77.5961228, 12.6502807 ], [ 77.5996447, 12.6426925 ], [ 77.6007262, 12.643027 ], [ 77.6047448, 12.6375947 ], [ 77.6033274, 12.6353212 ], [ 77.6060433, 12.6306119 ], [ 77.6060159, 12.628004 ], [ 77.5982203, 12.6227332 ], [ 77.5956018, 12.6222989 ], [ 77.592643, 12.6193472 ], [ 77.5910191, 12.615243 ], [ 77.5914229, 12.592093 ], [ 77.5893198, 12.5926845 ], [ 77.5891732, 12.5893265 ], [ 77.5837964, 12.5758794 ], [ 77.5793428, 12.5730854 ], [ 77.5807109, 12.5653659 ], [ 77.58035, 12.5515896 ], [ 77.5863966, 12.5457195 ], [ 77.5854595, 12.5367974 ], [ 77.5885021, 12.5266193 ], [ 77.5872022, 12.5147547 ], [ 77.5939275, 12.5160845 ], [ 77.6067716, 12.5141334 ], [ 77.6124942, 12.514622 ], [ 77.6163265, 12.5091804 ], [ 77.6150663, 12.5041633 ], [ 77.6024032, 12.4971483 ], [ 77.5917975, 12.4851787 ], [ 77.5887523, 12.48563 ], [ 77.5836801, 12.4787954 ], [ 77.5956902, 12.4748017 ], [ 77.5987717, 12.4760451 ], [ 77.6074236, 12.4751238 ], [ 77.6164888, 12.4828443 ], [ 77.6260882, 12.496309 ], [ 77.6294783, 12.4944966 ], [ 77.6344276, 12.4881688 ], [ 77.632399, 12.4791203 ], [ 77.633144, 12.4704513 ], [ 77.6307616, 12.4702705 ], [ 77.6292437, 12.4667722 ], [ 77.6302786, 12.4646118 ], [ 77.6294185, 12.4606524 ], [ 77.6271741, 12.4584513 ], [ 77.6291472, 12.4463518 ], [ 77.6269811, 12.4411179 ], [ 77.6260845, 12.430763 ], [ 77.629092, 12.4251268 ], [ 77.6296163, 12.4183245 ], [ 77.623331, 12.4122437 ], [ 77.6205815, 12.3830111 ], [ 77.6180894, 12.3810991 ], [ 77.6168533, 12.3683803 ], [ 77.6144997, 12.3625044 ], [ 77.6130239, 12.3611213 ], [ 77.6076102, 12.3610499 ], [ 77.6009143, 12.3584987 ], [ 77.5986902, 12.3499922 ], [ 77.5915427, 12.3401381 ], [ 77.5822248, 12.3377727 ], [ 77.578575, 12.3356658 ], [ 77.5751891, 12.3254322 ], [ 77.5660046, 12.3062435 ], [ 77.5579148, 12.3053828 ], [ 77.5579016, 12.3032132 ], [ 77.555043, 12.3015899 ], [ 77.5524013, 12.297449 ], [ 77.5513368, 12.2912067 ], [ 77.5328365, 12.2914584 ], [ 77.5271191, 12.2787104 ], [ 77.5140217, 12.275383 ], [ 77.5083821, 12.2759998 ], [ 77.4999818, 12.2825678 ], [ 77.4967405, 12.2821819 ], [ 77.4932781, 12.2788749 ], [ 77.487598, 12.2804952 ], [ 77.4850955, 12.2750498 ], [ 77.4790595, 12.2712735 ], [ 77.4770348, 12.2644628 ], [ 77.4782002, 12.2592148 ], [ 77.4735204, 12.2556142 ], [ 77.4711182, 12.2435105 ], [ 77.4661139, 12.2437245 ], [ 77.4603113, 12.2488699 ], [ 77.4537668, 12.2475565 ], [ 77.4483171, 12.2500076 ], [ 77.4470372, 12.2622571 ], [ 77.4377712, 12.2792538 ], [ 77.4313978, 12.2865546 ], [ 77.4226379, 12.2895393 ], [ 77.4182299, 12.2888483 ], [ 77.4091055, 12.2814188 ], [ 77.4034842, 12.2794307 ], [ 77.3887216, 12.2793863 ], [ 77.372272, 12.2816282 ], [ 77.3654788, 12.2838788 ], [ 77.3535292, 12.2792993 ], [ 77.3488917, 12.2789101 ], [ 77.3413904, 12.2826697 ], [ 77.3283603, 12.3062114 ], [ 77.3253033, 12.3079464 ], [ 77.3226868, 12.3127369 ], [ 77.3260296, 12.3302701 ], [ 77.3338035, 12.3541768 ], [ 77.3305654, 12.3621267 ], [ 77.3133675, 12.3923651 ], [ 77.3015785, 12.3908252 ], [ 77.285926, 12.3930712 ], [ 77.2843531, 12.4067611 ], [ 77.2818146, 12.4072032 ], [ 77.2817173, 12.4092416 ], [ 77.284067, 12.4091882 ], [ 77.2817865, 12.4208123 ], [ 77.2859804, 12.4208409 ], [ 77.2852142, 12.428678 ], [ 77.2733262, 12.4295549 ], [ 77.2700362, 12.4339784 ], [ 77.2747891, 12.4396256 ], [ 77.2691494, 12.464803 ], [ 77.2643169, 12.4616236 ], [ 77.2576103, 12.4635009 ], [ 77.2542219, 12.4703242 ], [ 77.2451718, 12.4679591 ], [ 77.2434089, 12.4700197 ], [ 77.2361873, 12.4699976 ], [ 77.2351701, 12.4834185 ], [ 77.2297889, 12.4836718 ], [ 77.2296213, 12.4797782 ], [ 77.2272054, 12.4795028 ], [ 77.2255675, 12.4748058 ], [ 77.225803, 12.4894761 ], [ 77.2359639, 12.4863322 ], [ 77.2385983, 12.4893958 ], [ 77.2378101, 12.4998965 ], [ 77.2240905, 12.5025758 ], [ 77.2239645, 12.4954805 ], [ 77.2222375, 12.4915372 ], [ 77.2163064, 12.4919034 ], [ 77.2132747, 12.4850716 ], [ 77.2057971, 12.4851869 ], [ 77.2060287, 12.490437 ], [ 77.2009758, 12.4905934 ], [ 77.1978332, 12.4832453 ], [ 77.1948422, 12.4837233 ], [ 77.1929884, 12.4819151 ], [ 77.1830181, 12.4810129 ], [ 77.1780903, 12.479337 ], [ 77.1757769, 12.4803046 ], [ 77.175854, 12.4825654 ], [ 77.1681212, 12.4852671 ], [ 77.164758, 12.4750309 ], [ 77.1577697, 12.4754965 ], [ 77.1506908, 12.4647361 ], [ 77.1471885, 12.4620391 ], [ 77.1397756, 12.4644635 ], [ 77.1348165, 12.4708569 ], [ 77.13304, 12.4791969 ], [ 77.130867, 12.4803776 ], [ 77.1253835, 12.4802394 ], [ 77.1239646, 12.4840702 ], [ 77.1306242, 12.4976981 ], [ 77.1299082, 12.5095467 ], [ 77.1317024, 12.5186454 ], [ 77.1250423, 12.5232766 ], [ 77.1272943, 12.5317992 ], [ 77.1252899, 12.5354122 ], [ 77.1206454, 12.5411369 ], [ 77.1145383, 12.5430092 ], [ 77.1144758, 12.553321 ], [ 77.1168181, 12.5553048 ], [ 77.1200526, 12.5556138 ], [ 77.1277973, 12.553345 ], [ 77.1284834, 12.5699485 ], [ 77.1234589, 12.5736198 ], [ 77.1169359, 12.5819713 ], [ 77.1141961, 12.5964643 ], [ 77.1099787, 12.5966752 ], [ 77.1081031, 12.6084223 ], [ 77.1110404, 12.6161732 ], [ 77.1225002, 12.6194863 ], [ 77.1223584, 12.6236536 ], [ 77.1190271, 12.6272459 ], [ 77.1167628, 12.6272961 ], [ 77.116724, 12.6287063 ], [ 77.1046636, 12.6276619 ], [ 77.1031982, 12.6304756 ], [ 77.1003724, 12.6304941 ], [ 77.0987326, 12.6597373 ], [ 77.0992249, 12.6733232 ], [ 77.097522, 12.6755086 ], [ 77.0802904, 12.6762264 ], [ 77.0736804, 12.6806876 ], [ 77.0738047, 12.6829565 ], [ 77.0757312, 12.6829971 ], [ 77.0756898, 12.6848886 ], [ 77.0737473, 12.6850649 ], [ 77.0733307, 12.686613 ], [ 77.0726014, 12.7023529 ], [ 77.0765931, 12.7130464 ], [ 77.0777237, 12.721557 ], [ 77.0792545, 12.7220676 ], [ 77.0813913, 12.7314143 ], [ 77.0800976, 12.7336652 ], [ 77.0837561, 12.7412241 ], [ 77.0791131, 12.7487565 ], [ 77.0801326, 12.7590838 ], [ 77.0828718, 12.7589707 ], [ 77.0845502, 12.757532 ], [ 77.0876709, 12.7537978 ], [ 77.0872447, 12.7527679 ], [ 77.092614, 12.7526674 ], [ 77.0915663, 12.7608419 ], [ 77.0974958, 12.7762642 ], [ 77.1075275, 12.7802632 ], [ 77.1104206, 12.7775624 ], [ 77.1225547, 12.7736248 ], [ 77.1254966, 12.7741859 ], [ 77.1261275, 12.7759612 ], [ 77.1337616, 12.7822448 ], [ 77.1367505, 12.7833872 ], [ 77.145225, 12.7815962 ], [ 77.1502241, 12.7870397 ], [ 77.1509148, 12.7919475 ], [ 77.139172, 12.8100373 ], [ 77.1419332, 12.8202684 ], [ 77.14752, 12.8197799 ], [ 77.1588284, 12.8274205 ], [ 77.1551219, 12.8285197 ], [ 77.1531704, 12.8308668 ], [ 77.1494107, 12.8304353 ], [ 77.150406, 12.8346643 ], [ 77.1481005, 12.837218 ], [ 77.1475937, 12.8409919 ], [ 77.1493639, 12.8445215 ], [ 77.1481776, 12.845864 ], [ 77.1491538, 12.8486333 ], [ 77.1459583, 12.8494878 ], [ 77.1445711, 12.851694 ], [ 77.1372232, 12.8530086 ], [ 77.1345634, 12.8559939 ], [ 77.1360275, 12.8601527 ], [ 77.1311478, 12.859208 ], [ 77.1342204, 12.8772828 ], [ 77.1308714, 12.8779869 ], [ 77.1314408, 12.8881443 ], [ 77.1231896, 12.8879571 ], [ 77.1203722, 12.8865883 ], [ 77.1186994, 12.884035 ], [ 77.1091919, 12.8906738 ], [ 77.1069926, 12.8944051 ], [ 77.1116319, 12.8945806 ], [ 77.1176336, 12.8988551 ], [ 77.1239518, 12.8991453 ], [ 77.1247818, 12.9021333 ], [ 77.1326288, 12.8980216 ], [ 77.1363418, 12.901401 ], [ 77.1398927, 12.9181954 ], [ 77.1581329, 12.9133969 ], [ 77.1654178, 12.9290453 ], [ 77.1625763, 12.9361051 ], [ 77.161179, 12.9363681 ], [ 77.1611601, 12.9380767 ], [ 77.1597149, 12.9379924 ], [ 77.1565251, 12.9425477 ], [ 77.1579885, 12.9498481 ], [ 77.1573491, 12.9581593 ], [ 77.1523956, 12.9614881 ], [ 77.1428522, 12.9644918 ], [ 77.1322683, 12.9729723 ], [ 77.1298433, 12.9778946 ], [ 77.130435, 12.9806171 ], [ 77.1331364, 12.9814428 ], [ 77.1316963, 12.9827722 ], [ 77.1327713, 12.9863868 ], [ 77.1418422, 12.9837187 ], [ 77.1425347, 12.9861161 ], [ 77.1448365, 12.9876462 ], [ 77.1356919, 12.9956836 ], [ 77.1380978, 12.998846 ], [ 77.134368, 13.0053477 ], [ 77.1316351, 13.0070739 ], [ 77.1245136, 13.006241 ], [ 77.1243366, 13.0038424 ], [ 77.1296318, 12.998692 ], [ 77.1294773, 12.9955491 ], [ 77.1176368, 12.9950847 ], [ 77.1065848, 12.9964967 ], [ 77.105515, 12.9926643 ], [ 77.0980978, 12.9993362 ], [ 77.1013912, 13.0008566 ], [ 77.1026526, 13.0062021 ], [ 77.116869, 13.0098549 ], [ 77.118257, 13.0146426 ], [ 77.1112583, 13.0183175 ], [ 77.1085773, 13.0215842 ], [ 77.1006544, 13.0248737 ], [ 77.0983853, 13.0243196 ], [ 77.0943734, 13.0266566 ], [ 77.0932703, 13.0289266 ], [ 77.0895474, 13.0302044 ], [ 77.0853435, 13.034062 ], [ 77.0822118, 13.0384642 ], [ 77.0697834, 13.040189 ], [ 77.0737728, 13.0545716 ], [ 77.077382, 13.0581396 ], [ 77.0770942, 13.0609745 ], [ 77.0733214, 13.0608048 ], [ 77.0733497, 13.0666108 ], [ 77.0680638, 13.0665139 ], [ 77.0682169, 13.0679769 ], [ 77.0729447, 13.0686069 ], [ 77.0758449, 13.0722581 ], [ 77.0792397, 13.0791566 ], [ 77.0807856, 13.090259 ], [ 77.076989, 13.1033019 ], [ 77.075328, 13.104336 ], [ 77.0719654, 13.1120649 ], [ 77.0703242, 13.1208492 ], [ 77.0719183, 13.1308539 ], [ 77.0797026, 13.1311564 ], [ 77.0801764, 13.1336722 ], [ 77.0851353, 13.1364282 ], [ 77.0920132, 13.135643 ], [ 77.0959319, 13.145816 ], [ 77.1054189, 13.1445728 ], [ 77.1081116, 13.1426316 ], [ 77.1091584, 13.1373131 ], [ 77.1077494, 13.1366977 ], [ 77.1078753, 13.1332659 ], [ 77.1101074, 13.1334028 ], [ 77.1161203, 13.130026 ], [ 77.1182962, 13.1369034 ], [ 77.1151292, 13.1403761 ], [ 77.1155127, 13.1425637 ], [ 77.1171867, 13.1458589 ], [ 77.119384, 13.146276 ], [ 77.1200954, 13.1493523 ], [ 77.1188532, 13.1620813 ], [ 77.1264958, 13.1635872 ], [ 77.1267976, 13.1648927 ], [ 77.1311483, 13.1662595 ], [ 77.13654, 13.1723586 ], [ 77.1385343, 13.1781652 ], [ 77.1426186, 13.1739291 ], [ 77.1478229, 13.17399 ], [ 77.1552774, 13.1931387 ], [ 77.1665279, 13.1969723 ] ], [ [ 77.0795656, 13.0696929 ], [ 77.0829598, 13.0707629 ], [ 77.0835315, 13.0729787 ], [ 77.0811056, 13.0739401 ], [ 77.0795656, 13.0696929 ] ] ] } }
]
}
