{
"type": "FeatureCollection",
"name": "3001",
"crs": { "type": "name", "properties": { "name": "urn:ogc:def:crs:OGC:1.3:CRS84" } },
"features": [
{ "type": "Feature", "properties": { "code": "3001", "name": "North Goa", "type": "district" }, "geometry": { "type": "MultiPolygon", "coordinates": [ [ [ [ 73.6894251, 15.7295609 ], [ 73.6925315, 15.7282214 ], [ 73.6936237, 15.7241545 ], [ 73.6966694, 15.723211 ], [ 73.6960197, 15.7218065 ], [ 73.6928262, 15.7214578 ], [ 73.6878634, 15.7235809 ], [ 73.6870268, 15.7212381 ], [ 73.6830338, 15.7203779 ], [ 73.6827866, 15.722318 ], [ 73.6799344, 15.7211466 ], [ 73.6806379, 15.7251733 ], [ 73.6769938, 15.7259403 ], [ 73.6787312, 15.7289826 ], [ 73.6894251, 15.7295609 ] ] ], [ [ [ 73.8659594, 15.7855632 ], [ 73.8698457, 15.7835429 ], [ 73.873509, 15.7770916 ], [ 73.8771639, 15.7743668 ], [ 73.877872, 15.7756319 ], [ 73.8798516, 15.7743145 ], [ 73.8773524, 15.7680783 ], [ 73.8750587, 15.7671587 ], [ 73.8770123, 15.7644186 ], [ 73.8730585, 15.760877 ], [ 73.872989, 15.7545656 ], [ 73.8756951, 15.7512831 ], [ 73.8810957, 15.7497916 ], [ 73.8854016, 15.7510371 ], [ 73.8928754, 15.749386 ], [ 73.8991814, 15.7459957 ], [ 73.9069926, 15.747968 ], [ 73.9069837, 15.7499684 ], [ 73.9148019, 15.7454425 ], [ 73.9336788, 15.7445847 ], [ 73.938679, 15.7429824 ], [ 73.9408703, 15.7381101 ], [ 73.9417411, 15.7291903 ], [ 73.9459524, 15.7211971 ], [ 73.9514646, 15.7167386 ], [ 73.9523305, 15.7144019 ], [ 73.9491786, 15.7115649 ], [ 73.9498038, 15.7107019 ], [ 73.9471655, 15.7098265 ], [ 73.9492772, 15.7086486 ], [ 73.9483438, 15.7028635 ], [ 73.9436952, 15.6969365 ], [ 73.9446564, 15.6962696 ], [ 73.9465082, 15.6978108 ], [ 73.9515227, 15.69645 ], [ 73.9529405, 15.6995269 ], [ 73.9571179, 15.7005004 ], [ 73.9582658, 15.6990267 ], [ 73.9592255, 15.7000571 ], [ 73.9590915, 15.6980891 ], [ 73.9637605, 15.6923218 ], [ 73.9626911, 15.6732587 ], [ 73.965568, 15.6695746 ], [ 73.9678223, 15.6602507 ], [ 73.961119, 15.6484211 ], [ 73.9617652, 15.6416846 ], [ 73.9673855, 15.6353111 ], [ 73.9678578, 15.6305772 ], [ 73.9707836, 15.6274124 ], [ 73.9790505, 15.6271255 ], [ 73.9905156, 15.6122312 ], [ 73.9933585, 15.6106381 ], [ 74.0088353, 15.6101587 ], [ 74.0207972, 15.6060852 ], [ 74.0253999, 15.6094436 ], [ 74.0277066, 15.6167419 ], [ 74.0311561, 15.6226113 ], [ 74.0508583, 15.6249589 ], [ 74.0616144, 15.6285298 ], [ 74.0618187, 15.6266021 ], [ 74.0634196, 15.626452 ], [ 74.0657667, 15.6296837 ], [ 74.0701061, 15.6291641 ], [ 74.0784946, 15.6317572 ], [ 74.0942937, 15.6423674 ], [ 74.0975319, 15.6410193 ], [ 74.1070633, 15.646449 ], [ 74.1138855, 15.6461274 ], [ 74.1141108, 15.6487895 ], [ 74.1161335, 15.6491765 ], [ 74.1175752, 15.6521475 ], [ 74.127292, 15.6511234 ], [ 74.135544, 15.6483716 ], [ 74.1411165, 15.6510976 ], [ 74.1490947, 15.6519735 ], [ 74.1543523, 15.6499016 ], [ 74.1574654, 15.6546751 ], [ 74.164416, 15.6534985 ], [ 74.165585, 15.6543769 ], [ 74.1656802, 15.6648953 ], [ 74.167369, 15.6720913 ], [ 74.1716114, 15.67382 ], [ 74.1763523, 15.6800518 ], [ 74.1809704, 15.682149 ], [ 74.1887294, 15.6809285 ], [ 74.190843, 15.6789519 ], [ 74.1909179, 15.6764049 ], [ 74.1861032, 15.6745004 ], [ 74.1868415, 15.6674495 ], [ 74.2025906, 15.6631405 ], [ 74.2040608, 15.6636803 ], [ 74.2017533, 15.656339 ], [ 74.2051275, 15.6510322 ], [ 74.2174532, 15.6527374 ], [ 74.222162, 15.6556389 ], [ 74.2222214, 15.6568542 ], [ 74.2177186, 15.6583601 ], [ 74.215149, 15.6628741 ], [ 74.2176502, 15.6622989 ], [ 74.2180226, 15.6643435 ], [ 74.2237793, 15.6689826 ], [ 74.2245976, 15.6662561 ], [ 74.2284102, 15.6644424 ], [ 74.2297902, 15.6663811 ], [ 74.236356, 15.6685848 ], [ 74.2394024, 15.6646146 ], [ 74.2381718, 15.6636221 ], [ 74.2429868, 15.6624406 ], [ 74.2448525, 15.6582013 ], [ 74.2504425, 15.6572579 ], [ 74.2519765, 15.6543114 ], [ 74.2441596, 15.6261084 ], [ 74.2482568, 15.6229024 ], [ 74.2537237, 15.6267389 ], [ 74.2584768, 15.6233973 ], [ 74.2585893, 15.6207792 ], [ 74.264298, 15.6155091 ], [ 74.2619098, 15.608425 ], [ 74.2599919, 15.6067228 ], [ 74.2602477, 15.592633 ], [ 74.2487413, 15.5803786 ], [ 74.2505344, 15.5773651 ], [ 74.245193, 15.5666026 ], [ 74.2496661, 15.5676519 ], [ 74.2583318, 15.5616939 ], [ 74.26174, 15.5648798 ], [ 74.2636404, 15.563305 ], [ 74.2653021, 15.5583682 ], [ 74.2779177, 15.5461093 ], [ 74.2826525, 15.5314177 ], [ 74.2817024, 15.5261337 ], [ 74.2781534, 15.5228467 ], [ 74.278472, 15.5174762 ], [ 74.2738675, 15.5122457 ], [ 74.2603025, 15.506464 ], [ 74.2538153, 15.5017199 ], [ 74.2522917, 15.4993361 ], [ 74.2514657, 15.4903675 ], [ 74.2480421, 15.4901639 ], [ 74.2462084, 15.4873403 ], [ 74.2426049, 15.4872071 ], [ 74.2320027, 15.4829063 ], [ 74.2310125, 15.4797566 ], [ 74.2298063, 15.4810634 ], [ 74.2281466, 15.4802011 ], [ 74.2223871, 15.4742474 ], [ 74.2062553, 15.4687998 ], [ 74.200214, 15.4654444 ], [ 74.1901863, 15.4543958 ], [ 74.1896871, 15.4459283 ], [ 74.1880643, 15.4433166 ], [ 74.1831151, 15.4409951 ], [ 74.1794508, 15.4361377 ], [ 74.1711259, 15.4384676 ], [ 74.1691742, 15.4421303 ], [ 74.1639515, 15.440182 ], [ 74.1610118, 15.4410278 ], [ 74.1562307, 15.4386243 ], [ 74.1523083, 15.4407311 ], [ 74.1517532, 15.4384984 ], [ 74.1487478, 15.4374188 ], [ 74.1389778, 15.4378084 ], [ 74.137682, 15.4352912 ], [ 74.1337867, 15.433583 ], [ 74.1248794, 15.4367379 ], [ 74.1190535, 15.43052 ], [ 74.1144027, 15.4291648 ], [ 74.1114574, 15.4267652 ], [ 74.1105947, 15.417871 ], [ 74.104267, 15.4262052 ], [ 74.0852321, 15.4191416 ], [ 74.0832939, 15.4166107 ], [ 74.0721317, 15.4114726 ], [ 74.0751545, 15.408326 ], [ 74.0724249, 15.4035171 ], [ 74.0746898, 15.4000013 ], [ 74.0778582, 15.3983656 ], [ 74.0757759, 15.3950255 ], [ 74.0768854, 15.390443 ], [ 74.0790796, 15.3910172 ], [ 74.0809568, 15.3944431 ], [ 74.0848149, 15.3887082 ], [ 74.0886434, 15.390331 ], [ 74.0912817, 15.3806866 ], [ 74.0923892, 15.382511 ], [ 74.0948735, 15.3822458 ], [ 74.0968581, 15.38136 ], [ 74.0993039, 15.3774598 ], [ 74.09772, 15.3765198 ], [ 74.0954186, 15.3784902 ], [ 74.0942355, 15.3729859 ], [ 74.0964576, 15.374789 ], [ 74.1013116, 15.3725835 ], [ 74.1027836, 15.3680687 ], [ 74.1020894, 15.3649233 ], [ 74.1051032, 15.3637978 ], [ 74.1051124, 15.3616964 ], [ 74.1029138, 15.3604267 ], [ 74.1016327, 15.357688 ], [ 74.1047442, 15.3538647 ], [ 74.103533, 15.352884 ], [ 74.100757, 15.354005 ], [ 74.0992197, 15.350105 ], [ 74.1042516, 15.3477774 ], [ 74.1057218, 15.345694 ], [ 74.0985397, 15.3452514 ], [ 74.0965881, 15.3438731 ], [ 74.0974312, 15.3424 ], [ 74.0952607, 15.3377137 ], [ 74.0958756, 15.3365703 ], [ 74.0915024, 15.3306142 ], [ 74.0844152, 15.3264696 ], [ 74.0833472, 15.3220489 ], [ 74.0856936, 15.317223 ], [ 74.0884263, 15.3160305 ], [ 74.0871422, 15.3138654 ], [ 74.0873109, 15.3098657 ], [ 74.0912877, 15.303336 ], [ 74.0891333, 15.3014193 ], [ 74.0887199, 15.2986941 ], [ 74.0917547, 15.2976327 ], [ 74.0919089, 15.2956216 ], [ 74.0934217, 15.2946547 ], [ 74.096042, 15.2946416 ], [ 74.1059103, 15.2860926 ], [ 74.1052499, 15.2839729 ], [ 74.1065907, 15.281614 ], [ 74.1026085, 15.2744187 ], [ 74.1022463, 15.2711421 ], [ 74.0996595, 15.2684664 ], [ 74.0919958, 15.2672086 ], [ 74.0838773, 15.27653 ], [ 74.0754043, 15.2734003 ], [ 74.0695319, 15.2840053 ], [ 74.0710648, 15.291413 ], [ 74.0632158, 15.2968156 ], [ 74.0544929, 15.2987827 ], [ 74.0456595, 15.2982185 ], [ 74.0429405, 15.2999933 ], [ 74.0393718, 15.3060657 ], [ 74.0262173, 15.3007891 ], [ 74.0168293, 15.3012989 ], [ 74.01296, 15.3034342 ], [ 74.0053075, 15.3346813 ], [ 74.0068047, 15.3430525 ], [ 74.0057546, 15.3465229 ], [ 73.9998991, 15.3508531 ], [ 73.9892016, 15.3546953 ], [ 73.9777805, 15.3664854 ], [ 73.9730676, 15.3677382 ], [ 73.9657777, 15.3673937 ], [ 73.9604405, 15.3698292 ], [ 73.9575543, 15.3738691 ], [ 73.9550815, 15.3886794 ], [ 73.9505001, 15.3999436 ], [ 73.9481056, 15.4020305 ], [ 73.9283442, 15.4051134 ], [ 73.9099431, 15.4098278 ], [ 73.8959423, 15.4099781 ], [ 73.8750624, 15.4163809 ], [ 73.8646436, 15.416729 ], [ 73.8416964, 15.4266013 ], [ 73.8095593, 15.4297328 ], [ 73.7859993, 15.4372735 ], [ 73.7878059, 15.4621924 ], [ 73.7897117, 15.4638041 ], [ 73.7815265, 15.4756256 ], [ 73.7756886, 15.4890568 ], [ 73.7742311, 15.4903119 ], [ 73.7695089, 15.4906234 ], [ 73.7686054, 15.4928462 ], [ 73.7664753, 15.4934658 ], [ 73.7655769, 15.4958683 ], [ 73.7673235, 15.4964736 ], [ 73.7679167, 15.4991437 ], [ 73.7554497, 15.545068 ], [ 73.749226, 15.5605719 ], [ 73.7499009, 15.562602 ], [ 73.7462853, 15.5597425 ], [ 73.7418527, 15.5624444 ], [ 73.7407978, 15.5706093 ], [ 73.7364158, 15.5832696 ], [ 73.7352324, 15.5864581 ], [ 73.7321917, 15.5889522 ], [ 73.7343171, 15.5920591 ], [ 73.7331186, 15.5970591 ], [ 73.7319453, 15.5977719 ], [ 73.7341544, 15.6010293 ], [ 73.7320704, 15.6069457 ], [ 73.7385311, 15.6078099 ], [ 73.7412375, 15.6052516 ], [ 73.7446697, 15.6056905 ], [ 73.7425985, 15.6069989 ], [ 73.740224, 15.6120154 ], [ 73.7360196, 15.611492 ], [ 73.7334033, 15.6139523 ], [ 73.7263631, 15.626556 ], [ 73.7239448, 15.6277951 ], [ 73.7228208, 15.6267466 ], [ 73.7221422, 15.6322386 ], [ 73.7151103, 15.647743 ], [ 73.7113792, 15.6629715 ], [ 73.704945, 15.6748529 ], [ 73.7026405, 15.6863097 ], [ 73.7008094, 15.69045 ], [ 73.6983837, 15.6909929 ], [ 73.6977534, 15.6960703 ], [ 73.694268, 15.6998398 ], [ 73.6937756, 15.706755 ], [ 73.6894829, 15.719118 ], [ 73.6917721, 15.7199811 ], [ 73.6936843, 15.717957 ], [ 73.6991605, 15.7180009 ], [ 73.7007577, 15.718572 ], [ 73.701214, 15.7204609 ], [ 73.7104778, 15.7240739 ], [ 73.7166956, 15.7244033 ], [ 73.719947, 15.7237719 ], [ 73.724596, 15.7196811 ], [ 73.7235122, 15.7172651 ], [ 73.7263073, 15.7170455 ], [ 73.7318513, 15.7204957 ], [ 73.7348467, 15.7295152 ], [ 73.7428362, 15.7365749 ], [ 73.7651654, 15.7338737 ], [ 73.7703475, 15.7303136 ], [ 73.784974, 15.7261252 ], [ 73.7875424, 15.7282596 ], [ 73.7889312, 15.7348444 ], [ 73.7931579, 15.7372291 ], [ 73.7972284, 15.7342193 ], [ 73.8066381, 15.7376819 ], [ 73.8094283, 15.7420308 ], [ 73.8125763, 15.7424526 ], [ 73.818484, 15.739521 ], [ 73.8266153, 15.7433611 ], [ 73.8272086, 15.7475145 ], [ 73.8307782, 15.7538096 ], [ 73.8297483, 15.7643288 ], [ 73.8384866, 15.7675632 ], [ 73.8408044, 15.7761235 ], [ 73.8439091, 15.7811278 ], [ 73.8498459, 15.7795369 ], [ 73.8526213, 15.7811695 ], [ 73.8470654, 15.7857989 ], [ 73.8504742, 15.7896411 ], [ 73.8527722, 15.7970839 ], [ 73.8557081, 15.8010166 ], [ 73.8675035, 15.7970295 ], [ 73.8648089, 15.7908243 ], [ 73.8659594, 15.7855632 ] ] ] ] } }
]
}
