{
"type": "FeatureCollection",
"name": "3101",
"crs": { "type": "name", "properties": { "name": "urn:ogc:def:crs:OGC:1.3:CRS84" } },
"features": [
{ "type": "Feature", "properties": { "code": "3101", "name": "Lakshadweep District", "type": "district" }, "geometry": { "type": "MultiPolygon", "coordinates": [ [ [ [ 73.0132528, 8.3035077 ], [ 73.0128626, 8.3033403 ], [ 73.0129351, 8.3035799 ], [ 73.0132528, 8.3035077 ] ] ], [ [ [ 73.0652112, 8.2861563 ], [ 73.04562, 8.2658635 ], [ 73.0352463, 8.265626 ], [ 73.0200611, 8.2700205 ], [ 73.0182182, 8.2714123 ], [ 73.0170049, 8.2768639 ], [ 73.0206494, 8.2753596 ], [ 73.0214124, 8.2732939 ], [ 73.0180445, 8.2757838 ], [ 73.0209316, 8.2726111 ], [ 73.0274574, 8.2720298 ], [ 73.0395282, 8.2733845 ], [ 73.046988, 8.2766684 ], [ 73.0550237, 8.2832295 ], [ 73.0628633, 8.2950752 ], [ 73.0678756, 8.3103333 ], [ 73.0741596, 8.3218486 ], [ 73.0776446, 8.3254973 ], [ 73.0661384, 8.303986 ], [ 73.0648375, 8.294958 ], [ 73.0652112, 8.2861563 ] ] ], [ [ [ 72.2832271, 10.0422138 ], [ 72.2847851, 10.0474441 ], [ 72.289809, 10.0542757 ], [ 72.2879641, 10.0466993 ], [ 72.2832271, 10.0422138 ] ] ], [ [ [ 73.6304875, 10.0693956 ], [ 73.6295935, 10.069721 ], [ 73.6309253, 10.0697843 ], [ 73.6304875, 10.0693956 ] ] ], [ [ [ 73.6321978, 10.0710861 ], [ 73.6321066, 10.0699064 ], [ 73.631541, 10.0701233 ], [ 73.6321978, 10.0710861 ] ] ], [ [ [ 73.6338643, 10.0734162 ], [ 73.6330723, 10.07251 ], [ 73.6328013, 10.0732754 ], [ 73.6338643, 10.0734162 ] ] ], [ [ [ 73.6304086, 10.0746177 ], [ 73.629746, 10.0744611 ], [ 73.6304213, 10.0749535 ], [ 73.6304086, 10.0746177 ] ] ], [ [ [ 73.627728, 10.0752718 ], [ 73.6270986, 10.0736264 ], [ 73.625443, 10.0735948 ], [ 73.6268797, 10.0753623 ], [ 73.627728, 10.0752718 ] ] ], [ [ [ 73.6469985, 10.0824181 ], [ 73.6464365, 10.0597898 ], [ 73.644749, 10.0582394 ], [ 73.6403753, 10.0583345 ], [ 73.6388748, 10.0596363 ], [ 73.6389387, 10.0629543 ], [ 73.6341954, 10.0723744 ], [ 73.6396595, 10.0722478 ], [ 73.6433038, 10.0773963 ], [ 73.6503884, 10.1030664 ], [ 73.6507349, 10.0994366 ], [ 73.6469985, 10.0824181 ] ] ], [ [ [ 72.3375566, 10.1064447 ], [ 72.3355821, 10.1021684 ], [ 72.334182, 10.1009386 ], [ 72.3364756, 10.1060106 ], [ 72.335928, 10.1075113 ], [ 72.3375566, 10.1064447 ] ] ], [ [ [ 73.6518029, 10.1103077 ], [ 73.6512555, 10.1098421 ], [ 73.6513056, 10.1106329 ], [ 73.6518029, 10.1103077 ] ] ], [ [ [ 72.3273606, 10.1398205 ], [ 72.3323074, 10.1290541 ], [ 72.3303227, 10.1308167 ], [ 72.3266231, 10.1309517 ], [ 72.3273606, 10.1398205 ] ] ], [ [ [ 73.6588175, 10.1566123 ], [ 73.6633829, 10.1422603 ], [ 73.6605673, 10.1309961 ], [ 73.659194, 10.1303453 ], [ 73.6615672, 10.1417677 ], [ 73.658539, 10.152942 ], [ 73.6569105, 10.1549716 ], [ 73.6588175, 10.1566123 ] ] ], [ [ [ 72.6398565, 10.5803526 ], [ 72.646316, 10.5791726 ], [ 72.650089, 10.5732239 ], [ 72.6506324, 10.5703717 ], [ 72.6489283, 10.5646493 ], [ 72.6354937, 10.5585432 ], [ 72.6235442, 10.5494124 ], [ 72.6193329, 10.5443994 ], [ 72.6164416, 10.5432784 ], [ 72.6158066, 10.5453846 ], [ 72.6176746, 10.5476086 ], [ 72.6229457, 10.549557 ], [ 72.631145, 10.5618429 ], [ 72.6388971, 10.5754347 ], [ 72.6398565, 10.5803526 ] ] ], [ [ [ 72.1680008, 10.8160492 ], [ 72.1681377, 10.8139339 ], [ 72.1641146, 10.8140427 ], [ 72.1659207, 10.8158009 ], [ 72.1680008, 10.8160492 ] ] ], [ [ [ 73.6605778, 10.8180052 ], [ 73.6757104, 10.8173887 ], [ 73.6778272, 10.8182201 ], [ 73.6986061, 10.8174706 ], [ 73.7009189, 10.8154 ], [ 73.6990166, 10.8128103 ], [ 73.6834122, 10.8072944 ], [ 73.6709176, 10.8050768 ], [ 73.66289, 10.8067637 ], [ 73.6604305, 10.8087437 ], [ 73.6587485, 10.8132186 ], [ 73.6605778, 10.8180052 ] ] ], [ [ [ 72.2003286, 10.8799297 ], [ 72.2051163, 10.8796982 ], [ 72.2057653, 10.8786629 ], [ 72.202087, 10.8704509 ], [ 72.1884657, 10.8491418 ], [ 72.1789844, 10.8299198 ], [ 72.1693728, 10.8192809 ], [ 72.1783446, 10.8319448 ], [ 72.1874143, 10.8503804 ], [ 72.1939206, 10.8724188 ], [ 72.2003286, 10.8799297 ] ] ], [ [ [ 72.2863894, 10.9474262 ], [ 72.2927472, 10.947175 ], [ 72.2901218, 10.9471833 ], [ 72.2888234, 10.9453478 ], [ 72.2920043, 10.9380535 ], [ 72.2888032, 10.9367824 ], [ 72.2849428, 10.9373326 ], [ 72.2839591, 10.9386386 ], [ 72.2863894, 10.9474262 ] ] ], [ [ [ 72.3155343, 10.9446497 ], [ 72.3145095, 10.9461501 ], [ 72.3157252, 10.9503179 ], [ 72.326272, 10.9526161 ], [ 72.3155343, 10.9446497 ] ] ], [ [ [ 72.3309466, 10.951731 ], [ 72.3296018, 10.9527433 ], [ 72.3327255, 10.9538918 ], [ 72.3325656, 10.9531008 ], [ 72.3309466, 10.951731 ] ] ], [ [ [ 72.3341065, 10.956247 ], [ 72.3336768, 10.9545158 ], [ 72.3331325, 10.9541496 ], [ 72.3322495, 10.9560252 ], [ 72.3341065, 10.956247 ] ] ], [ [ [ 72.3347784, 10.9585884 ], [ 72.3336123, 10.9574898 ], [ 72.3334013, 10.9603464 ], [ 72.3347784, 10.9585884 ] ] ], [ [ [ 72.7195074, 11.1150411 ], [ 72.7167852, 11.1175414 ], [ 72.7158478, 11.1205881 ], [ 72.7177997, 11.1283664 ], [ 72.7202355, 11.1315115 ], [ 72.7284891, 11.1373893 ], [ 72.7329193, 11.1374648 ], [ 72.7337379, 11.1354487 ], [ 72.7304718, 11.1267625 ], [ 72.7195074, 11.1150411 ] ] ], [ [ [ 72.761091, 11.1838656 ], [ 72.7639003, 11.1981587 ], [ 72.7713726, 11.2179723 ], [ 72.77851, 11.2429789 ], [ 72.7851345, 11.2580323 ], [ 72.7894601, 11.2614915 ], [ 72.7892557, 11.2565783 ], [ 72.7818719, 11.238754 ], [ 72.7763349, 11.2184939 ], [ 72.7688683, 11.2067665 ], [ 72.761091, 11.1838656 ] ] ], [ [ [ 73.0076369, 11.4708465 ], [ 73.0063033, 11.4713159 ], [ 73.0074111, 11.4738295 ], [ 73.0018345, 11.4940487 ], [ 72.9992448, 11.495304 ], [ 72.9974105, 11.4982953 ], [ 72.9987845, 11.4995163 ], [ 73.0040324, 11.4975887 ], [ 73.0091778, 11.4886778 ], [ 73.0092541, 11.4818122 ], [ 73.0110764, 11.4742874 ], [ 73.0076369, 11.4708465 ] ] ], [ [ [ 72.1896785, 11.5998969 ], [ 72.1859607, 11.5997576 ], [ 72.1845724, 11.6028403 ], [ 72.1881341, 11.6019582 ], [ 72.1896785, 11.5998969 ] ] ], [ [ [ 72.7166259, 11.6957777 ], [ 72.7079969, 11.6834368 ], [ 72.7048055, 11.6838037 ], [ 72.7055214, 11.6858691 ], [ 72.7080026, 11.6871023 ], [ 72.7096735, 11.6936103 ], [ 72.7157483, 11.7049757 ], [ 72.7166259, 11.6957777 ] ] ] ] } }
]
}
