{
"type": "FeatureCollection",
"name": "3201",
"crs": { "type": "name", "properties": { "name": "urn:ogc:def:crs:OGC:1.3:CRS84" } },
"features": [
{ "type": "Feature", "properties": { "code": "3201", "name": "Kasaragod", "type": "district" }, "geometry": { "type": "Polygon", "coordinates": [ [ [ 74.9968151, 12.7891187 ], [ 74.9988735, 12.7889324 ], [ 74.9983057, 12.7859407 ], [ 75.0024314, 12.788337 ], [ 75.0001844, 12.7902234 ], [ 75.0010273, 12.7914196 ], [ 75.0031626, 12.7916673 ], [ 75.0050892, 12.7903116 ], [ 75.0029679, 12.7843792 ], [ 75.0033878, 12.7779764 ], [ 75.0062149, 12.7708358 ], [ 75.0094483, 12.7675123 ], [ 75.0060599, 12.7661195 ], [ 75.0043302, 12.7604293 ], [ 74.9986792, 12.756992 ], [ 74.9966003, 12.7520845 ], [ 74.9937191, 12.7500033 ], [ 74.9918886, 12.7459737 ], [ 74.9876813, 12.7416528 ], [ 74.9846383, 12.7430751 ], [ 74.9840332, 12.7399321 ], [ 74.9854496, 12.7388863 ], [ 74.9832673, 12.7371963 ], [ 74.9855919, 12.7335972 ], [ 74.9872402, 12.7365686 ], [ 74.9889284, 12.7362854 ], [ 74.9888056, 12.7382059 ], [ 74.9903867, 12.7374585 ], [ 74.9900155, 12.7360839 ], [ 74.9913542, 12.736953 ], [ 74.9904696, 12.738732 ], [ 74.9924849, 12.7398851 ], [ 75.0, 12.7320541 ], [ 75.0133996, 12.7279545 ], [ 75.0049399, 12.7202764 ], [ 75.0009603, 12.7195609 ], [ 75.0009865, 12.7163932 ], [ 75.0150367, 12.7142317 ], [ 75.018638, 12.7211097 ], [ 75.0265775, 12.7193089 ], [ 75.0311981, 12.7209392 ], [ 75.0335779, 12.7235058 ], [ 75.0390508, 12.7238196 ], [ 75.042681, 12.7207734 ], [ 75.0443112, 12.7231066 ], [ 75.0479164, 12.720598 ], [ 75.0524578, 12.7200811 ], [ 75.0503356, 12.716318 ], [ 75.0538908, 12.7111248 ], [ 75.054297, 12.7071313 ], [ 75.0518855, 12.7068967 ], [ 75.0502284, 12.7043871 ], [ 75.0555861, 12.6934565 ], [ 75.0538497, 12.6905204 ], [ 75.0527081, 12.6924655 ], [ 75.0485453, 12.6940412 ], [ 75.0439241, 12.6926371 ], [ 75.040499, 12.6853534 ], [ 75.0430011, 12.6822398 ], [ 75.0414584, 12.6787273 ], [ 75.0425715, 12.6728474 ], [ 75.046642, 12.6675657 ], [ 75.0539738, 12.6702222 ], [ 75.0561841, 12.6662804 ], [ 75.0575198, 12.6660546 ], [ 75.0584504, 12.6708257 ], [ 75.059814, 12.671766 ], [ 75.0652481, 12.6648257 ], [ 75.0685766, 12.6646703 ], [ 75.0741462, 12.6722459 ], [ 75.0851661, 12.6747608 ], [ 75.0874425, 12.6792021 ], [ 75.0854975, 12.6824672 ], [ 75.0855755, 12.6902179 ], [ 75.0831015, 12.6933276 ], [ 75.0850817, 12.6956709 ], [ 75.0811533, 12.6973835 ], [ 75.0809493, 12.6990685 ], [ 75.0860091, 12.7040346 ], [ 75.0923221, 12.6998083 ], [ 75.100224, 12.6996653 ], [ 75.1062491, 12.6968145 ], [ 75.1072683, 12.6910469 ], [ 75.1106166, 12.6905837 ], [ 75.1101776, 12.6884491 ], [ 75.1125918, 12.6852215 ], [ 75.1114575, 12.6818192 ], [ 75.1173929, 12.6812788 ], [ 75.1221286, 12.6789129 ], [ 75.123119, 12.6813656 ], [ 75.1249231, 12.6814801 ], [ 75.1284141, 12.6769363 ], [ 75.1325137, 12.6761363 ], [ 75.134666, 12.6780459 ], [ 75.1376394, 12.6767632 ], [ 75.1398176, 12.680589 ], [ 75.1431946, 12.6783901 ], [ 75.1463948, 12.6821876 ], [ 75.1520026, 12.6832406 ], [ 75.1490342, 12.6761584 ], [ 75.1498768, 12.6733275 ], [ 75.1620335, 12.6719564 ], [ 75.1548776, 12.6589361 ], [ 75.152116, 12.6561118 ], [ 75.150806, 12.6500563 ], [ 75.138507, 12.6434364 ], [ 75.1433017, 12.6396648 ], [ 75.1444403, 12.640491 ], [ 75.1539223, 12.6249707 ], [ 75.1606831, 12.6221269 ], [ 75.1641744, 12.6240722 ], [ 75.1699606, 12.6222736 ], [ 75.1829004, 12.6327987 ], [ 75.1855452, 12.6318532 ], [ 75.1882196, 12.6331404 ], [ 75.1931629, 12.6315964 ], [ 75.1937422, 12.6303056 ], [ 75.2017419, 12.6300226 ], [ 75.2028126, 12.6275943 ], [ 75.1987671, 12.6144309 ], [ 75.1992578, 12.6120687 ], [ 75.2009497, 12.6096063 ], [ 75.2067393, 12.6080148 ], [ 75.2077545, 12.6026895 ], [ 75.2099847, 12.600233 ], [ 75.2078634, 12.5957254 ], [ 75.2017276, 12.593357 ], [ 75.2011422, 12.5877332 ], [ 75.2094884, 12.5910709 ], [ 75.2126204, 12.5781638 ], [ 75.2177656, 12.5763622 ], [ 75.2203183, 12.5691025 ], [ 75.2239266, 12.570356 ], [ 75.2291866, 12.5685319 ], [ 75.2374974, 12.569758 ], [ 75.2370965, 12.5761382 ], [ 75.238982, 12.5780237 ], [ 75.2386658, 12.5807074 ], [ 75.2415759, 12.5800287 ], [ 75.2496979, 12.5845667 ], [ 75.2517832, 12.5890016 ], [ 75.2553425, 12.5913842 ], [ 75.2568415, 12.596509 ], [ 75.2612636, 12.5981663 ], [ 75.263491, 12.6044817 ], [ 75.2659959, 12.6071912 ], [ 75.2651285, 12.6111704 ], [ 75.2674335, 12.6145753 ], [ 75.2726126, 12.6155613 ], [ 75.2763495, 12.6185075 ], [ 75.2816974, 12.616437 ], [ 75.2859761, 12.6112105 ], [ 75.2895837, 12.6103989 ], [ 75.2915648, 12.6019484 ], [ 75.2990693, 12.6058959 ], [ 75.3018852, 12.605409 ], [ 75.3055783, 12.6010624 ], [ 75.3077134, 12.5949277 ], [ 75.3121568, 12.5897188 ], [ 75.3141799, 12.5910284 ], [ 75.3276579, 12.5917167 ], [ 75.3280039, 12.584295 ], [ 75.3264282, 12.5813919 ], [ 75.318694, 12.5774902 ], [ 75.3153933, 12.5725372 ], [ 75.3131182, 12.5732951 ], [ 75.3112909, 12.5769512 ], [ 75.3080386, 12.5783257 ], [ 75.2998173, 12.5811875 ], [ 75.2905369, 12.582609 ], [ 75.2861911, 12.573441 ], [ 75.2866651, 12.5717566 ], [ 75.2846743, 12.5695683 ], [ 75.2785465, 12.5715982 ], [ 75.2748048, 12.5688386 ], [ 75.2728866, 12.5689689 ], [ 75.2700587, 12.5584492 ], [ 75.272155, 12.5548383 ], [ 75.270556, 12.5483369 ], [ 75.274487, 12.5402167 ], [ 75.2739579, 12.5355982 ], [ 75.2786392, 12.5314599 ], [ 75.2803098, 12.5253116 ], [ 75.2913461, 12.5268452 ], [ 75.2955372, 12.5252482 ], [ 75.2965186, 12.5231898 ], [ 75.3023816, 12.5240805 ], [ 75.3040977, 12.5232819 ], [ 75.303213, 12.5142617 ], [ 75.3045598, 12.5040772 ], [ 75.3144524, 12.502919 ], [ 75.3154669, 12.5016177 ], [ 75.3139307, 12.4999371 ], [ 75.3150284, 12.4971107 ], [ 75.3214942, 12.497769 ], [ 75.3245099, 12.4967326 ], [ 75.3323375, 12.4990753 ], [ 75.3329972, 12.4983313 ], [ 75.3344766, 12.4954877 ], [ 75.3335286, 12.492046 ], [ 75.3374246, 12.4885169 ], [ 75.3361019, 12.4770069 ], [ 75.3386915, 12.471599 ], [ 75.3415449, 12.4691203 ], [ 75.3366043, 12.4640823 ], [ 75.3461093, 12.4629804 ], [ 75.3517295, 12.4648787 ], [ 75.3584928, 12.4640002 ], [ 75.3608176, 12.4649684 ], [ 75.3675119, 12.4753341 ], [ 75.3709951, 12.4747954 ], [ 75.3725995, 12.4770318 ], [ 75.3716003, 12.4869002 ], [ 75.3686372, 12.4872773 ], [ 75.3680526, 12.4912125 ], [ 75.3777902, 12.4951041 ], [ 75.3822308, 12.5020158 ], [ 75.3874062, 12.5018966 ], [ 75.3916948, 12.4993619 ], [ 75.3945986, 12.5027673 ], [ 75.3990543, 12.503523 ], [ 75.4000804, 12.5000021 ], [ 75.4030007, 12.4977379 ], [ 75.4080586, 12.498644 ], [ 75.4119516, 12.5020106 ], [ 75.4161283, 12.5000289 ], [ 75.4186639, 12.4955353 ], [ 75.4173302, 12.4933675 ], [ 75.420584, 12.4885206 ], [ 75.4203001, 12.4797565 ], [ 75.42482, 12.4742569 ], [ 75.4248688, 12.4689194 ], [ 75.4232591, 12.4667794 ], [ 75.415717, 12.465976 ], [ 75.4156484, 12.4621562 ], [ 75.4133156, 12.458567 ], [ 75.4039828, 12.4549352 ], [ 75.3996183, 12.45493 ], [ 75.3934039, 12.4513727 ], [ 75.3922085, 12.4551166 ], [ 75.3898853, 12.4553554 ], [ 75.3862864, 12.4582849 ], [ 75.3818659, 12.4566341 ], [ 75.3742191, 12.4597258 ], [ 75.3712649, 12.4565552 ], [ 75.3661741, 12.4581973 ], [ 75.3656304, 12.4567452 ], [ 75.3702855, 12.4488697 ], [ 75.3704223, 12.4456204 ], [ 75.3688487, 12.4421728 ], [ 75.3714855, 12.4377182 ], [ 75.3690773, 12.4294644 ], [ 75.3699926, 12.4256565 ], [ 75.3661681, 12.4118267 ], [ 75.3708567, 12.4087599 ], [ 75.3726109, 12.4002537 ], [ 75.3777331, 12.3984216 ], [ 75.3797391, 12.3940422 ], [ 75.379242, 12.3923598 ], [ 75.3839355, 12.3909108 ], [ 75.3864886, 12.3923674 ], [ 75.3922923, 12.3899897 ], [ 75.3985747, 12.3814302 ], [ 75.4004017, 12.3807382 ], [ 75.4015424, 12.382517 ], [ 75.4055321, 12.3790593 ], [ 75.413125, 12.3802917 ], [ 75.4215265, 12.3735803 ], [ 75.4218706, 12.3677191 ], [ 75.4196371, 12.356944 ], [ 75.4154423, 12.3496131 ], [ 75.4116828, 12.3491395 ], [ 75.4104045, 12.3471932 ], [ 75.4153902, 12.3400631 ], [ 75.4161898, 12.3299273 ], [ 75.4186417, 12.3291687 ], [ 75.4202824, 12.318985 ], [ 75.427159, 12.3107198 ], [ 75.4310895, 12.310588 ], [ 75.4319673, 12.3084972 ], [ 75.4282888, 12.3069935 ], [ 75.4277619, 12.3040545 ], [ 75.4241149, 12.3029214 ], [ 75.425145, 12.3005689 ], [ 75.4192736, 12.2951328 ], [ 75.4137273, 12.2923593 ], [ 75.4102094, 12.2951765 ], [ 75.4064714, 12.2936316 ], [ 75.3974111, 12.2940454 ], [ 75.3923133, 12.2902376 ], [ 75.3911158, 12.2912654 ], [ 75.3914768, 12.2961519 ], [ 75.388976, 12.2963406 ], [ 75.3861663, 12.2929672 ], [ 75.3873045, 12.2877812 ], [ 75.3844408, 12.2879103 ], [ 75.3820337, 12.2853558 ], [ 75.3763805, 12.2833407 ], [ 75.3703489, 12.2858396 ], [ 75.3653217, 12.2778101 ], [ 75.3594247, 12.27602 ], [ 75.3454562, 12.2672368 ], [ 75.3395042, 12.2691748 ], [ 75.3327272, 12.2665775 ], [ 75.3292024, 12.2665055 ], [ 75.3271967, 12.2708123 ], [ 75.3190574, 12.2742811 ], [ 75.3131143, 12.2709578 ], [ 75.3078408, 12.2716495 ], [ 75.2990629, 12.2697785 ], [ 75.2871248, 12.260505 ], [ 75.2871965, 12.2561076 ], [ 75.2913326, 12.2431103 ], [ 75.2909257, 12.2367688 ], [ 75.2892263, 12.2342823 ], [ 75.2872094, 12.2330613 ], [ 75.2758549, 12.2317373 ], [ 75.2728504, 12.2297339 ], [ 75.272286, 12.2278534 ], [ 75.2647512, 12.224822 ], [ 75.2611438, 12.2252724 ], [ 75.2582089, 12.222071 ], [ 75.2521263, 12.219388 ], [ 75.2501452, 12.2207068 ], [ 75.2459826, 12.2188455 ], [ 75.2376285, 12.2180353 ], [ 75.2315782, 12.2220151 ], [ 75.2231388, 12.2136562 ], [ 75.2197547, 12.2069769 ], [ 75.2153515, 12.2026437 ], [ 75.2085869, 12.1990931 ], [ 75.2038982, 12.1913519 ], [ 75.1999192, 12.1910184 ], [ 75.1914795, 12.1933932 ], [ 75.1831536, 12.190909 ], [ 75.1798318, 12.1914972 ], [ 75.1727283, 12.1898757 ], [ 75.1796867, 12.1765092 ], [ 75.181506, 12.1761745 ], [ 75.1876694, 12.1660216 ], [ 75.1904236, 12.1557067 ], [ 75.1910793, 12.1475551 ], [ 75.1934151, 12.1466471 ], [ 75.1939994, 12.1430411 ], [ 75.1965252, 12.1400213 ], [ 75.1949355, 12.1385662 ], [ 75.1951921, 12.1362158 ], [ 75.1908141, 12.1346258 ], [ 75.1882315, 12.1299573 ], [ 75.1938239, 12.1189908 ], [ 75.1910394, 12.1148828 ], [ 75.1931085, 12.1040029 ], [ 75.1903787, 12.0973231 ], [ 75.1882518, 12.0959811 ], [ 75.1831399, 12.0955618 ], [ 75.1786533, 12.1000102 ], [ 75.1755853, 12.1009011 ], [ 75.1677988, 12.0912839 ], [ 75.1755219, 12.0782789 ], [ 75.1758607, 12.0716527 ], [ 75.1856516, 12.0465427 ], [ 75.1857386, 12.0452274 ], [ 75.183932, 12.0442061 ], [ 75.1719104, 12.0742932 ], [ 75.1585987, 12.1027347 ], [ 75.1414005, 12.1488568 ], [ 75.124664, 12.1881816 ], [ 75.121904, 12.1974691 ], [ 75.1243049, 12.2023081 ], [ 75.123354, 12.2036066 ], [ 75.1189292, 12.2035969 ], [ 75.1143063, 12.2133664 ], [ 75.0966628, 12.2613494 ], [ 75.0728238, 12.3174941 ], [ 75.0659216, 12.3310599 ], [ 75.0580645, 12.351704 ], [ 75.0394379, 12.389921 ], [ 75.0360564, 12.3916759 ], [ 75.0333866, 12.3899808 ], [ 75.0300901, 12.3923506 ], [ 75.0192383, 12.415644 ], [ 75.0144367, 12.417041 ], [ 75.0046285, 12.4397454 ], [ 74.998067, 12.4501604 ], [ 74.9903552, 12.4688408 ], [ 74.9839784, 12.4798706 ], [ 74.9842993, 12.4825245 ], [ 74.9818352, 12.48449 ], [ 74.9738137, 12.5003896 ], [ 74.9558888, 12.5460791 ], [ 74.9315839, 12.6029516 ], [ 74.9329639, 12.6041772 ], [ 74.9281945, 12.6069549 ], [ 74.9270882, 12.6129284 ], [ 74.9160375, 12.6417968 ], [ 74.8867439, 12.7066178 ], [ 74.8879172, 12.7065368 ], [ 74.8842788, 12.7082024 ], [ 74.8645256, 12.7587558 ], [ 74.8645851, 12.7601917 ], [ 74.8722422, 12.7610585 ], [ 74.8741441, 12.7549388 ], [ 74.8795913, 12.7553096 ], [ 74.8823126, 12.7540486 ], [ 74.8930322, 12.7624323 ], [ 74.8995755, 12.7625803 ], [ 74.9076297, 12.7689622 ], [ 74.9169825, 12.7722334 ], [ 74.9275011, 12.7786723 ], [ 74.9313463, 12.7791326 ], [ 74.9329261, 12.7805425 ], [ 74.9417261, 12.7799756 ], [ 74.9506886, 12.7842852 ], [ 74.9581904, 12.7846673 ], [ 74.9599891, 12.7788861 ], [ 74.962927, 12.7786818 ], [ 74.9644062, 12.7816327 ], [ 74.9663308, 12.7807914 ], [ 74.9665366, 12.7764796 ], [ 74.9683601, 12.7763615 ], [ 74.9758902, 12.7791295 ], [ 74.9819321, 12.7796289 ], [ 74.9824351, 12.7823089 ], [ 74.9842819, 12.7827647 ], [ 74.9851379, 12.7815531 ], [ 74.9873075, 12.7829623 ], [ 74.9920944, 12.7882077 ], [ 74.9874086, 12.7935926 ], [ 74.9890305, 12.7954631 ], [ 74.991218, 12.7955345 ], [ 74.9968151, 12.7891187 ] ] ] } }
]
}
