{
"type": "FeatureCollection",
"name": "3202",
"crs": { "type": "name", "properties": { "name": "urn:ogc:def:crs:OGC:1.3:CRS84" } },
"features": [
{ "type": "Feature", "properties": { "code": "3202", "name": "Kannur", "type": "district" }, "geometry": { "type": "Polygon", "coordinates": [ [ [ 75.4695377, 12.3006597 ], [ 75.4754674, 12.2959572 ], [ 75.479403, 12.2954134 ], [ 75.4810089, 12.2921669 ], [ 75.4866281, 12.2886025 ], [ 75.4869216, 12.2842822 ], [ 75.4938702, 12.2727882 ], [ 75.5053963, 12.270744 ], [ 75.5065377, 12.2674919 ], [ 75.5058308, 12.2645799 ], [ 75.5117825, 12.2595829 ], [ 75.5115925, 12.2530561 ], [ 75.5198037, 12.2462143 ], [ 75.5186092, 12.2435139 ], [ 75.5206694, 12.2402273 ], [ 75.5211135, 12.2361332 ], [ 75.5241018, 12.2353927 ], [ 75.5283317, 12.2315944 ], [ 75.5269133, 12.2256892 ], [ 75.5396896, 12.2168073 ], [ 75.5370307, 12.2080751 ], [ 75.5351317, 12.2062504 ], [ 75.5319439, 12.205671 ], [ 75.5326131, 12.2014462 ], [ 75.5341588, 12.2029268 ], [ 75.5364867, 12.2012766 ], [ 75.5398016, 12.2027331 ], [ 75.5411753, 12.1975467 ], [ 75.5462472, 12.1979439 ], [ 75.5485904, 12.192628 ], [ 75.5526195, 12.1928471 ], [ 75.5549745, 12.1831787 ], [ 75.5585141, 12.1820681 ], [ 75.5602654, 12.1761184 ], [ 75.5697809, 12.1728523 ], [ 75.5771974, 12.1577543 ], [ 75.5833099, 12.1591242 ], [ 75.5837496, 12.1569915 ], [ 75.5904593, 12.1524864 ], [ 75.5925567, 12.1478477 ], [ 75.5959049, 12.154316 ], [ 75.6019699, 12.1536425 ], [ 75.6069056, 12.1554937 ], [ 75.6112466, 12.1526208 ], [ 75.6149633, 12.1556047 ], [ 75.6190322, 12.1565189 ], [ 75.6264475, 12.152945 ], [ 75.631332, 12.1487843 ], [ 75.6360539, 12.1491749 ], [ 75.639195, 12.1433576 ], [ 75.6382593, 12.1389541 ], [ 75.6420479, 12.1398043 ], [ 75.6431933, 12.1386487 ], [ 75.6445046, 12.1337464 ], [ 75.6440838, 12.1255152 ], [ 75.6475338, 12.121922 ], [ 75.6477784, 12.1176104 ], [ 75.646582, 12.1158009 ], [ 75.6487538, 12.1129291 ], [ 75.6490802, 12.1093317 ], [ 75.6527583, 12.1100506 ], [ 75.653, 12.1079129 ], [ 75.6619817, 12.0991829 ], [ 75.6674175, 12.0973094 ], [ 75.6768687, 12.0981976 ], [ 75.6798762, 12.10273 ], [ 75.6836404, 12.1044926 ], [ 75.6871795, 12.110246 ], [ 75.6955435, 12.110486 ], [ 75.6969366, 12.1091949 ], [ 75.7032626, 12.1081714 ], [ 75.7021323, 12.0922918 ], [ 75.7130653, 12.0904776 ], [ 75.7179299, 12.0855786 ], [ 75.7176854, 12.0822879 ], [ 75.7154494, 12.0816573 ], [ 75.7162923, 12.0793666 ], [ 75.7147313, 12.0704428 ], [ 75.7200169, 12.0708551 ], [ 75.7248458, 12.0731831 ], [ 75.7277398, 12.0725488 ], [ 75.7361055, 12.0789481 ], [ 75.7435812, 12.0801666 ], [ 75.7471195, 12.0781858 ], [ 75.7491273, 12.0819099 ], [ 75.7534847, 12.0841312 ], [ 75.7628222, 12.0832494 ], [ 75.7676302, 12.0844764 ], [ 75.7733076, 12.0826978 ], [ 75.7803621, 12.0825061 ], [ 75.7854182, 12.0842571 ], [ 75.7901908, 12.0819897 ], [ 75.7953944, 12.0819506 ], [ 75.7972092, 12.0799082 ], [ 75.8025509, 12.0785628 ], [ 75.8038286, 12.0751597 ], [ 75.7986747, 12.0632662 ], [ 75.7986631, 12.0560388 ], [ 75.7943694, 12.0560421 ], [ 75.793961, 12.0550295 ], [ 75.7978656, 12.0512882 ], [ 75.7996624, 12.0473834 ], [ 75.8010706, 12.037006 ], [ 75.8110237, 12.0285745 ], [ 75.8099278, 12.0227119 ], [ 75.8154659, 12.0205075 ], [ 75.8228554, 12.0133676 ], [ 75.8232466, 12.0098014 ], [ 75.8203785, 12.0025192 ], [ 75.8252316, 12.0027326 ], [ 75.8256312, 11.9918729 ], [ 75.8294702, 11.9845068 ], [ 75.8370448, 11.9809286 ], [ 75.839707, 11.9826691 ], [ 75.842925, 11.9807261 ], [ 75.8469093, 11.9820057 ], [ 75.8495537, 11.9780379 ], [ 75.847998, 11.9749463 ], [ 75.8501095, 11.9747432 ], [ 75.852997, 11.9715934 ], [ 75.8546088, 11.9641091 ], [ 75.8588594, 11.9594182 ], [ 75.866433, 11.9573759 ], [ 75.8704493, 11.9525809 ], [ 75.8725422, 11.9532995 ], [ 75.88068, 11.9497066 ], [ 75.8860226, 11.9520251 ], [ 75.8930724, 11.9488929 ], [ 75.8970331, 11.9454714 ], [ 75.8987314, 11.9466645 ], [ 75.9139877, 11.9469208 ], [ 75.9174665, 11.9448775 ], [ 75.9271918, 11.9433666 ], [ 75.9307848, 11.9397006 ], [ 75.9357141, 11.9400613 ], [ 75.9374082, 11.9421038 ], [ 75.9396018, 11.940996 ], [ 75.9360159, 11.9345248 ], [ 75.9282458, 11.934499 ], [ 75.9259506, 11.932339 ], [ 75.9251928, 11.9294105 ], [ 75.926243, 11.924588 ], [ 75.9249526, 11.9200324 ], [ 75.935346, 11.9118412 ], [ 75.9369004, 11.9053689 ], [ 75.9392542, 11.9032533 ], [ 75.9364681, 11.9005556 ], [ 75.9363468, 11.8906894 ], [ 75.9297878, 11.8819905 ], [ 75.9249601, 11.8801563 ], [ 75.9190866, 11.8801978 ], [ 75.9113861, 11.8749063 ], [ 75.9127212, 11.873035 ], [ 75.9217005, 11.869138 ], [ 75.9313528, 11.8581178 ], [ 75.9293247, 11.8578108 ], [ 75.9253543, 11.8481847 ], [ 75.9267305, 11.8468151 ], [ 75.9272758, 11.8427745 ], [ 75.9257985, 11.8432719 ], [ 75.9260056, 11.8470909 ], [ 75.9213441, 11.8472181 ], [ 75.9177604, 11.8445972 ], [ 75.9118511, 11.846243 ], [ 75.909465, 11.8436038 ], [ 75.9090338, 11.8445214 ], [ 75.8916723, 11.8425836 ], [ 75.8878321, 11.8467146 ], [ 75.8824594, 11.8449068 ], [ 75.8795, 11.8470355 ], [ 75.8719479, 11.848911 ], [ 75.8612761, 11.8499107 ], [ 75.8571227, 11.8478718 ], [ 75.8539767, 11.847794 ], [ 75.8481093, 11.8509416 ], [ 75.8469553, 11.8548677 ], [ 75.8450675, 11.8559523 ], [ 75.8409603, 11.8559727 ], [ 75.8375262, 11.85326 ], [ 75.8286783, 11.8512429 ], [ 75.8229363, 11.853489 ], [ 75.8195532, 11.8588609 ], [ 75.81699, 11.8561482 ], [ 75.8082857, 11.856456 ], [ 75.8054326, 11.8538705 ], [ 75.8045086, 11.8473851 ], [ 75.8002295, 11.8452187 ], [ 75.7934937, 11.8458506 ], [ 75.7899386, 11.8405494 ], [ 75.7899401, 11.8358762 ], [ 75.7919942, 11.8322295 ], [ 75.7977428, 11.8273473 ], [ 75.7988149, 11.819374 ], [ 75.7952015, 11.8165519 ], [ 75.7815311, 11.8102283 ], [ 75.7807906, 11.8071277 ], [ 75.7760755, 11.8036777 ], [ 75.7720476, 11.802745 ], [ 75.7573322, 11.8058709 ], [ 75.7498809, 11.8039011 ], [ 75.7458143, 11.799042 ], [ 75.7529512, 11.7953197 ], [ 75.7533976, 11.7923141 ], [ 75.757629, 11.7891339 ], [ 75.7500792, 11.7820877 ], [ 75.7455961, 11.7868028 ], [ 75.7416019, 11.7860302 ], [ 75.7375859, 11.7869812 ], [ 75.7366621, 11.7830894 ], [ 75.7377339, 11.7815016 ], [ 75.728909, 11.7805929 ], [ 75.7267902, 11.7874149 ], [ 75.7230083, 11.7924131 ], [ 75.7165667, 11.7968351 ], [ 75.7123647, 11.7961061 ], [ 75.6985998, 11.7995521 ], [ 75.6914345, 11.7994971 ], [ 75.69137, 11.7939988 ], [ 75.6881674, 11.7891952 ], [ 75.6857095, 11.7788378 ], [ 75.683559, 11.7753755 ], [ 75.6690328, 11.7701687 ], [ 75.6655499, 11.7585216 ], [ 75.6593228, 11.7583427 ], [ 75.6575049, 11.7551205 ], [ 75.6550891, 11.7561632 ], [ 75.6550195, 11.7545074 ], [ 75.6511021, 11.7519439 ], [ 75.650712, 11.7502401 ], [ 75.6484185, 11.750025 ], [ 75.6480974, 11.7458814 ], [ 75.6462792, 11.7471718 ], [ 75.6446051, 11.7435583 ], [ 75.6413062, 11.7441824 ], [ 75.6392611, 11.7401388 ], [ 75.6354451, 11.7364592 ], [ 75.6295523, 11.7388199 ], [ 75.6291413, 11.7374679 ], [ 75.6268242, 11.7380253 ], [ 75.6269548, 11.7363847 ], [ 75.6258301, 11.7370703 ], [ 75.6226701, 11.7334592 ], [ 75.624241, 11.7325858 ], [ 75.6235429, 11.731167 ], [ 75.6177935, 11.7274274 ], [ 75.6157979, 11.724437 ], [ 75.6111226, 11.7254206 ], [ 75.6072566, 11.7186172 ], [ 75.6064716, 11.7190861 ], [ 75.6075587, 11.7222335 ], [ 75.6061868, 11.7225978 ], [ 75.6027526, 11.7186289 ], [ 75.5991287, 11.7189492 ], [ 75.5957154, 11.7133396 ], [ 75.5889869, 11.7132846 ], [ 75.5874108, 11.7122473 ], [ 75.5931908, 11.7084363 ], [ 75.593856, 11.7052824 ], [ 75.5927387, 11.697963 ], [ 75.5948689, 11.6964293 ], [ 75.6016666, 11.6958604 ], [ 75.6038423, 11.6914791 ], [ 75.6032494, 11.6891279 ], [ 75.6003179, 11.6866966 ], [ 75.5925416, 11.6885522 ], [ 75.5872421, 11.6872564 ], [ 75.5791268, 11.6798136 ], [ 75.569632, 11.6751528 ], [ 75.5656615, 11.6804396 ], [ 75.5632081, 11.6803182 ], [ 75.5619035, 11.6817174 ], [ 75.5635574, 11.6942989 ], [ 75.5568411, 11.6983744 ], [ 75.5535405, 11.7030881 ], [ 75.549988, 11.704696 ], [ 75.5442323, 11.7045421 ], [ 75.5373211, 11.7097107 ], [ 75.5342585, 11.7090141 ], [ 75.5330486, 11.705803 ], [ 75.5300367, 11.7035699 ], [ 75.5245325, 11.7079086 ], [ 75.5196573, 11.7157062 ], [ 75.5178772, 11.7158569 ], [ 75.5177238, 11.7145142 ], [ 75.5150464, 11.7164623 ], [ 75.5175473, 11.7159253 ], [ 75.5089979, 11.7311323 ], [ 75.5026646, 11.7355734 ], [ 75.4980022, 11.7342363 ], [ 75.4902535, 11.7448711 ], [ 75.4852705, 11.7480847 ], [ 75.484989, 11.7514244 ], [ 75.4829487, 11.7543527 ], [ 75.4756434, 11.7593666 ], [ 75.4727392, 11.764342 ], [ 75.4681491, 11.7645775 ], [ 75.465527, 11.7671804 ], [ 75.4606126, 11.7654852 ], [ 75.4536968, 11.770275 ], [ 75.4528084, 11.7713783 ], [ 75.45379, 11.7766208 ], [ 75.4566796, 11.7791169 ], [ 75.4538589, 11.77869 ], [ 75.4505093, 11.7812051 ], [ 75.4466655, 11.7820219 ], [ 75.4457256, 11.7897158 ], [ 75.436051, 11.8053592 ], [ 75.4323918, 11.8088865 ], [ 75.4311694, 11.807909 ], [ 75.4233014, 11.812882 ], [ 75.4052551, 11.8362307 ], [ 75.3955542, 11.8425676 ], [ 75.3948021, 11.8458198 ], [ 75.3927799, 11.8468455 ], [ 75.385108, 11.8564712 ], [ 75.3811395, 11.8585625 ], [ 75.3745698, 11.8581698 ], [ 75.3723522, 11.8560238 ], [ 75.3745701, 11.8520417 ], [ 75.372331, 11.8519327 ], [ 75.37145, 11.8532897 ], [ 75.3675969, 11.8512531 ], [ 75.360037, 11.8579703 ], [ 75.3556824, 11.8598044 ], [ 75.3560446, 11.8618437 ], [ 75.3529634, 11.8665371 ], [ 75.3527445, 11.8694224 ], [ 75.3386156, 11.8875254 ], [ 75.3239744, 11.9029017 ], [ 75.3251275, 11.9047035 ], [ 75.3231698, 11.9038219 ], [ 75.3191693, 11.9049693 ], [ 75.3184155, 11.9090306 ], [ 75.320512, 11.9112865 ], [ 75.320304, 11.9136995 ], [ 75.3079712, 11.9310358 ], [ 75.2982912, 11.9409762 ], [ 75.2952701, 11.9419831 ], [ 75.3014383, 11.9448635 ], [ 75.3004343, 11.9478716 ], [ 75.2982921, 11.9469233 ], [ 75.2958471, 11.9476705 ], [ 75.2948534, 11.9457114 ], [ 75.2503329, 12.0081889 ], [ 75.2379196, 12.0179029 ], [ 75.2291097, 12.0226058 ], [ 75.2230249, 12.0192898 ], [ 75.221985, 12.016887 ], [ 75.2226153, 12.0148865 ], [ 75.2210523, 12.0123467 ], [ 75.2151079, 12.0101967 ], [ 75.2094842, 12.0114236 ], [ 75.2079033, 12.010357 ], [ 75.2073881, 12.007558 ], [ 75.2045839, 12.005611 ], [ 75.2010563, 12.006089 ], [ 75.2011437, 12.0091354 ], [ 75.183932, 12.0442061 ], [ 75.1857386, 12.0452274 ], [ 75.1856516, 12.0465427 ], [ 75.1760581, 12.0710379 ], [ 75.175095, 12.0793999 ], [ 75.1677988, 12.0912839 ], [ 75.1755853, 12.1009011 ], [ 75.1786533, 12.1000102 ], [ 75.1831399, 12.0955618 ], [ 75.1882518, 12.0959811 ], [ 75.1903787, 12.0973231 ], [ 75.1931085, 12.1040029 ], [ 75.1910394, 12.1148828 ], [ 75.1938239, 12.1189908 ], [ 75.1882315, 12.1299573 ], [ 75.1908141, 12.1346258 ], [ 75.1951921, 12.1362158 ], [ 75.1949355, 12.1385662 ], [ 75.1965252, 12.1400213 ], [ 75.1939994, 12.1430411 ], [ 75.1934151, 12.1466471 ], [ 75.1910793, 12.1475551 ], [ 75.1904236, 12.1557067 ], [ 75.1876694, 12.1660216 ], [ 75.181506, 12.1761745 ], [ 75.1796867, 12.1765092 ], [ 75.1727283, 12.1898757 ], [ 75.1798318, 12.1914972 ], [ 75.1831536, 12.190909 ], [ 75.1914795, 12.1933932 ], [ 75.1999192, 12.1910184 ], [ 75.2038982, 12.1913519 ], [ 75.2085869, 12.1990931 ], [ 75.2153515, 12.2026437 ], [ 75.2197547, 12.2069769 ], [ 75.2231388, 12.2136562 ], [ 75.2315782, 12.2220151 ], [ 75.2376285, 12.2180353 ], [ 75.2459826, 12.2188455 ], [ 75.2501452, 12.2207068 ], [ 75.2521263, 12.219388 ], [ 75.2582089, 12.222071 ], [ 75.2611438, 12.2252724 ], [ 75.2647512, 12.224822 ], [ 75.272286, 12.2278534 ], [ 75.2728504, 12.2297339 ], [ 75.2758549, 12.2317373 ], [ 75.2872094, 12.2330613 ], [ 75.2892263, 12.2342823 ], [ 75.2909257, 12.2367688 ], [ 75.2913326, 12.2431103 ], [ 75.2871965, 12.2561076 ], [ 75.2871248, 12.260505 ], [ 75.2990629, 12.2697785 ], [ 75.3078408, 12.2716495 ], [ 75.3131143, 12.2709578 ], [ 75.3190574, 12.2742811 ], [ 75.3271967, 12.2708123 ], [ 75.3292024, 12.2665055 ], [ 75.3327272, 12.2665775 ], [ 75.3395042, 12.2691748 ], [ 75.3454562, 12.2672368 ], [ 75.3594247, 12.27602 ], [ 75.3653217, 12.2778101 ], [ 75.3703489, 12.2858396 ], [ 75.3763805, 12.2833407 ], [ 75.3820337, 12.2853558 ], [ 75.3844408, 12.2879103 ], [ 75.3873045, 12.2877812 ], [ 75.3861663, 12.2929672 ], [ 75.3898853, 12.2966409 ], [ 75.3914768, 12.2961519 ], [ 75.3911158, 12.2912654 ], [ 75.3923133, 12.2902376 ], [ 75.3974111, 12.2940454 ], [ 75.4064714, 12.2936316 ], [ 75.4102094, 12.2951765 ], [ 75.4135103, 12.2927927 ], [ 75.4144392, 12.2905756 ], [ 75.4210967, 12.2917108 ], [ 75.4228404, 12.2950952 ], [ 75.4265991, 12.2956139 ], [ 75.4273803, 12.2978076 ], [ 75.430085, 12.2990111 ], [ 75.4330166, 12.2973449 ], [ 75.4363512, 12.2984502 ], [ 75.4412045, 12.2966027 ], [ 75.4457343, 12.2976335 ], [ 75.4599033, 12.2940419 ], [ 75.4637371, 12.2983025 ], [ 75.4695377, 12.3006597 ] ], [ [ 75.537713, 11.7627976 ], [ 75.5312289, 11.7587099 ], [ 75.5343798, 11.7563783 ], [ 75.534721, 11.7525957 ], [ 75.5374449, 11.750381 ], [ 75.5374434, 11.7486589 ], [ 75.5402647, 11.7484737 ], [ 75.5414597, 11.7388889 ], [ 75.5401086, 11.7349137 ], [ 75.536024, 11.7335511 ], [ 75.5317242, 11.7346648 ], [ 75.5308223, 11.7309616 ], [ 75.5289795, 11.7303393 ], [ 75.5266879, 11.7266337 ], [ 75.5278346, 11.7160138 ], [ 75.5315591, 11.7158754 ], [ 75.5321771, 11.7139328 ], [ 75.5307878, 11.7136187 ], [ 75.5305594, 11.7104408 ], [ 75.5290332, 11.7097875 ], [ 75.5310034, 11.708263 ], [ 75.5317635, 11.7089648 ], [ 75.5308258, 11.7102062 ], [ 75.5373719, 11.7121832 ], [ 75.5367047, 11.7135064 ], [ 75.533255, 11.713912 ], [ 75.5324988, 11.7162114 ], [ 75.5365344, 11.7192962 ], [ 75.5376039, 11.7160662 ], [ 75.5414988, 11.7155301 ], [ 75.545784, 11.7175078 ], [ 75.5478009, 11.7154318 ], [ 75.5513496, 11.7190489 ], [ 75.5542569, 11.7194378 ], [ 75.5553407, 11.7214688 ], [ 75.555615, 11.7276028 ], [ 75.5432424, 11.7344035 ], [ 75.542068, 11.7371904 ], [ 75.5444882, 11.7464647 ], [ 75.5447241, 11.7535342 ], [ 75.5464352, 11.7562669 ], [ 75.5441047, 11.7591017 ], [ 75.5393493, 11.7608567 ], [ 75.5386166, 11.7601368 ], [ 75.537713, 11.7627976 ] ] ] } }
]
}
