{
"type": "FeatureCollection",
"name": "3207",
"crs": { "type": "name", "properties": { "name": "urn:ogc:def:crs:OGC:1.3:CRS84" } },
"features": [
{ "type": "Feature", "properties": { "code": "3207", "name": "Thrissur", "type": "district" }, "geometry": { "type": "Polygon", "coordinates": [ [ [ 76.1941754, 10.7829274 ], [ 76.2034763, 10.7786998 ], [ 76.2085686, 10.7777382 ], [ 76.2206091, 10.7819339 ], [ 76.2305321, 10.7724615 ], [ 76.2428031, 10.773239 ], [ 76.246633, 10.7659764 ], [ 76.2472694, 10.7614195 ], [ 76.2449187, 10.754338 ], [ 76.2451759, 10.7499893 ], [ 76.2473504, 10.7480529 ], [ 76.2521492, 10.7467881 ], [ 76.2654101, 10.7529842 ], [ 76.2698441, 10.7536955 ], [ 76.2811131, 10.7522258 ], [ 76.2893818, 10.7553609 ], [ 76.3260198, 10.7453063 ], [ 76.3293249, 10.7454114 ], [ 76.3355, 10.7489262 ], [ 76.3398977, 10.7490934 ], [ 76.3540071, 10.743075 ], [ 76.3579964, 10.7458188 ], [ 76.3616741, 10.7581045 ], [ 76.3648967, 10.76305 ], [ 76.3741082, 10.7666214 ], [ 76.3829874, 10.7677356 ], [ 76.3861001, 10.7672075 ], [ 76.3883604, 10.7650938 ], [ 76.3938188, 10.7486266 ], [ 76.3970415, 10.7463437 ], [ 76.4033042, 10.7464926 ], [ 76.4089088, 10.7491817 ], [ 76.4134939, 10.7497373 ], [ 76.4205337, 10.7492393 ], [ 76.4350755, 10.751321 ], [ 76.4431207, 10.7495793 ], [ 76.4673086, 10.7528373 ], [ 76.469722, 10.7518919 ], [ 76.4731588, 10.7489301 ], [ 76.4706246, 10.743208 ], [ 76.4681696, 10.7423137 ], [ 76.4677577, 10.7402842 ], [ 76.4709027, 10.7403692 ], [ 76.4745362, 10.7383701 ], [ 76.4794856, 10.7348428 ], [ 76.4793706, 10.7325148 ], [ 76.4781449, 10.7304178 ], [ 76.4679407, 10.7247749 ], [ 76.4668019, 10.7224517 ], [ 76.4639859, 10.7210783 ], [ 76.4655072, 10.7182481 ], [ 76.4632394, 10.7159388 ], [ 76.4616513, 10.7081869 ], [ 76.4566219, 10.7011861 ], [ 76.4569049, 10.6996898 ], [ 76.4545834, 10.7012634 ], [ 76.4535182, 10.7002375 ], [ 76.4495786, 10.7012103 ], [ 76.4401348, 10.6965336 ], [ 76.4477517, 10.6864698 ], [ 76.4513965, 10.6756021 ], [ 76.4503486, 10.6696942 ], [ 76.4510378, 10.6658247 ], [ 76.4487198, 10.661133 ], [ 76.4470609, 10.6611424 ], [ 76.4445981, 10.6637376 ], [ 76.4415407, 10.6632274 ], [ 76.4357766, 10.6558331 ], [ 76.4356524, 10.6515026 ], [ 76.4342447, 10.6500383 ], [ 76.4240812, 10.6493527 ], [ 76.4246386, 10.6482542 ], [ 76.421828, 10.6472148 ], [ 76.423916, 10.6437972 ], [ 76.4199214, 10.6383235 ], [ 76.4197029, 10.6329814 ], [ 76.4174848, 10.630377 ], [ 76.4189605, 10.6281528 ], [ 76.4176764, 10.6275608 ], [ 76.4199519, 10.6263626 ], [ 76.4192315, 10.6226979 ], [ 76.4211403, 10.6224762 ], [ 76.4205046, 10.6291043 ], [ 76.4255267, 10.627531 ], [ 76.4254393, 10.6221535 ], [ 76.426659, 10.619988 ], [ 76.4247992, 10.6196312 ], [ 76.4269924, 10.6190658 ], [ 76.4280974, 10.6134604 ], [ 76.4233219, 10.6093566 ], [ 76.421736, 10.6060343 ], [ 76.420708, 10.6067938 ], [ 76.4133149, 10.6056374 ], [ 76.4134653, 10.601881 ], [ 76.4149866, 10.5998421 ], [ 76.4131585, 10.5945309 ], [ 76.4047657, 10.6018365 ], [ 76.4029195, 10.5970496 ], [ 76.4017361, 10.5974248 ], [ 76.401174, 10.5960009 ], [ 76.4024805, 10.5912454 ], [ 76.4076839, 10.5840757 ], [ 76.4084786, 10.5800661 ], [ 76.4130838, 10.5784474 ], [ 76.4202888, 10.5787495 ], [ 76.4205987, 10.5724797 ], [ 76.4254003, 10.5715026 ], [ 76.4258427, 10.5662544 ], [ 76.4272451, 10.5648303 ], [ 76.4290908, 10.5651239 ], [ 76.4300864, 10.562755 ], [ 76.4297111, 10.5585059 ], [ 76.4317669, 10.5582977 ], [ 76.4349233, 10.5554855 ], [ 76.438962, 10.5569178 ], [ 76.4316266, 10.5372824 ], [ 76.4330832, 10.533354 ], [ 76.4367417, 10.5301258 ], [ 76.4396058, 10.5299852 ], [ 76.4397877, 10.5252884 ], [ 76.4412764, 10.5227206 ], [ 76.4506176, 10.5217107 ], [ 76.4597554, 10.5107466 ], [ 76.4592294, 10.5079622 ], [ 76.4674819, 10.5025899 ], [ 76.4668673, 10.4987009 ], [ 76.4716646, 10.4965242 ], [ 76.4716043, 10.4928629 ], [ 76.4735794, 10.4911197 ], [ 76.4739982, 10.4870915 ], [ 76.4804634, 10.4855542 ], [ 76.487165, 10.4863397 ], [ 76.4893967, 10.4792892 ], [ 76.4921752, 10.4803247 ], [ 76.4933229, 10.4782165 ], [ 76.4999995, 10.4791553 ], [ 76.5026475, 10.4778559 ], [ 76.5061021, 10.4734619 ], [ 76.5142885, 10.4724727 ], [ 76.5231051, 10.4688158 ], [ 76.5253124, 10.4670314 ], [ 76.5264609, 10.4629393 ], [ 76.5321172, 10.4592103 ], [ 76.5362679, 10.4483293 ], [ 76.5526341, 10.4460238 ], [ 76.5573876, 10.4434531 ], [ 76.5564488, 10.436716 ], [ 76.5586451, 10.4340953 ], [ 76.567381, 10.4371896 ], [ 76.584293, 10.4367257 ], [ 76.5885809, 10.4346908 ], [ 76.5911152, 10.4297759 ], [ 76.5951206, 10.4256588 ], [ 76.5952556, 10.4217469 ], [ 76.6014057, 10.4181907 ], [ 76.6050551, 10.4107788 ], [ 76.6037782, 10.4078118 ], [ 76.6071115, 10.4046317 ], [ 76.6068255, 10.3994274 ], [ 76.6100609, 10.3985235 ], [ 76.6152932, 10.3910465 ], [ 76.6181212, 10.3903001 ], [ 76.6189392, 10.3841702 ], [ 76.6227498, 10.3792989 ], [ 76.6249252, 10.3789988 ], [ 76.6273593, 10.3829078 ], [ 76.6286164, 10.3830768 ], [ 76.6309664, 10.3810951 ], [ 76.6287798, 10.379703 ], [ 76.6288646, 10.3772695 ], [ 76.6325845, 10.3764587 ], [ 76.6365344, 10.3810547 ], [ 76.6406244, 10.3802935 ], [ 76.6421128, 10.3822123 ], [ 76.6456165, 10.3828896 ], [ 76.6513135, 10.3805222 ], [ 76.6545184, 10.3767777 ], [ 76.6577243, 10.3798697 ], [ 76.6576742, 10.3836826 ], [ 76.6613852, 10.3856211 ], [ 76.6685419, 10.377489 ], [ 76.6693733, 10.3741796 ], [ 76.6796163, 10.3675933 ], [ 76.6833984, 10.3675778 ], [ 76.6868263, 10.3632807 ], [ 76.6955338, 10.3620826 ], [ 76.7031106, 10.363051 ], [ 76.7043849, 10.3681633 ], [ 76.7061646, 10.3700573 ], [ 76.7131261, 10.3728623 ], [ 76.7177938, 10.3729605 ], [ 76.7222996, 10.3724125 ], [ 76.7312031, 10.3683942 ], [ 76.7490676, 10.3661744 ], [ 76.7549806, 10.3615762 ], [ 76.7630451, 10.3622127 ], [ 76.7653512, 10.3586048 ], [ 76.7627082, 10.3531101 ], [ 76.7575284, 10.3481818 ], [ 76.7525552, 10.3475605 ], [ 76.7538906, 10.3447053 ], [ 76.7518022, 10.3418805 ], [ 76.7515794, 10.3383644 ], [ 76.7545417, 10.336206 ], [ 76.7601995, 10.3368437 ], [ 76.7717934, 10.3341587 ], [ 76.7770854, 10.3420111 ], [ 76.7875074, 10.3361822 ], [ 76.7931904, 10.3359199 ], [ 76.7993815, 10.3379614 ], [ 76.8045056, 10.3369182 ], [ 76.8056923, 10.3440388 ], [ 76.8085017, 10.3464953 ], [ 76.8119803, 10.3464052 ], [ 76.8160361, 10.3488675 ], [ 76.8280315, 10.3372887 ], [ 76.8334625, 10.3366917 ], [ 76.8376562, 10.3377658 ], [ 76.8329712, 10.3180705 ], [ 76.8306202, 10.3145374 ], [ 76.8303699, 10.309557 ], [ 76.8287039, 10.3078707 ], [ 76.8303134, 10.3036268 ], [ 76.8373162, 10.3020541 ], [ 76.8407017, 10.2996769 ], [ 76.8447791, 10.2949023 ], [ 76.8422073, 10.2924726 ], [ 76.8426346, 10.2900308 ], [ 76.8482424, 10.2875393 ], [ 76.8487157, 10.2852781 ], [ 76.8522162, 10.2850972 ], [ 76.8512567, 10.2899045 ], [ 76.8550988, 10.292846 ], [ 76.8579173, 10.2936387 ], [ 76.8600853, 10.2918793 ], [ 76.8623864, 10.2920314 ], [ 76.8643489, 10.2953213 ], [ 76.8684226, 10.2960698 ], [ 76.8705209, 10.2988847 ], [ 76.8731353, 10.2984845 ], [ 76.8745206, 10.2942817 ], [ 76.8734219, 10.2763359 ], [ 76.8840877, 10.2708968 ], [ 76.8914418, 10.2630574 ], [ 76.8970732, 10.2627528 ], [ 76.9012066, 10.2518441 ], [ 76.8963364, 10.2538279 ], [ 76.8969628, 10.257537 ], [ 76.8955736, 10.2585578 ], [ 76.8909985, 10.2579104 ], [ 76.8892537, 10.2557862 ], [ 76.8887932, 10.2575728 ], [ 76.8820544, 10.2601629 ], [ 76.8778606, 10.2603866 ], [ 76.877127, 10.2624903 ], [ 76.8798645, 10.2671249 ], [ 76.8789307, 10.269496 ], [ 76.8761496, 10.270647 ], [ 76.8712684, 10.2716182 ], [ 76.868793, 10.2693558 ], [ 76.866981, 10.2693561 ], [ 76.8656598, 10.2702816 ], [ 76.8656123, 10.2729395 ], [ 76.8600215, 10.2731757 ], [ 76.8476313, 10.2808332 ], [ 76.8427184, 10.2802447 ], [ 76.8402297, 10.2833112 ], [ 76.8375556, 10.2835847 ], [ 76.8360268, 10.2837062 ], [ 76.832465, 10.2760945 ], [ 76.8287798, 10.2754485 ], [ 76.8262198, 10.2809784 ], [ 76.8097549, 10.2860639 ], [ 76.8039051, 10.2850341 ], [ 76.7972814, 10.2774431 ], [ 76.7953278, 10.2773981 ], [ 76.7942799, 10.2800269 ], [ 76.7928837, 10.2802337 ], [ 76.7874819, 10.2775662 ], [ 76.7751373, 10.276529 ], [ 76.7744079, 10.2712196 ], [ 76.768446, 10.2689419 ], [ 76.7589448, 10.2696465 ], [ 76.7525859, 10.2751125 ], [ 76.7510457, 10.278167 ], [ 76.7471319, 10.2777653 ], [ 76.7305855, 10.2706076 ], [ 76.7198442, 10.2692935 ], [ 76.706163, 10.2696938 ], [ 76.7045777, 10.2668093 ], [ 76.6956723, 10.2639266 ], [ 76.6692057, 10.2716513 ], [ 76.6619739, 10.2769449 ], [ 76.6619162, 10.2799686 ], [ 76.6458567, 10.2802673 ], [ 76.6420083, 10.2752219 ], [ 76.639432, 10.2740157 ], [ 76.6325701, 10.2726776 ], [ 76.6271118, 10.2726519 ], [ 76.6240663, 10.2742441 ], [ 76.6212946, 10.2735126 ], [ 76.6187612, 10.2803194 ], [ 76.6033306, 10.2802307 ], [ 76.6008177, 10.2836341 ], [ 76.5900448, 10.2924397 ], [ 76.5898467, 10.2989303 ], [ 76.5856188, 10.2980972 ], [ 76.5774204, 10.3024777 ], [ 76.5661169, 10.2931643 ], [ 76.5728145, 10.2867213 ], [ 76.5733993, 10.2845282 ], [ 76.5657695, 10.285138 ], [ 76.5541596, 10.2828709 ], [ 76.5468769, 10.2890027 ], [ 76.5444407, 10.2895626 ], [ 76.5331053, 10.2877326 ], [ 76.5245971, 10.2843249 ], [ 76.5167478, 10.287578 ], [ 76.5069879, 10.2890937 ], [ 76.4984656, 10.2876519 ], [ 76.4942414, 10.2923232 ], [ 76.4898214, 10.294373 ], [ 76.4830165, 10.2920279 ], [ 76.4782846, 10.2931378 ], [ 76.4724262, 10.2917494 ], [ 76.4591912, 10.2965869 ], [ 76.4477251, 10.2968603 ], [ 76.4435483, 10.2934531 ], [ 76.4368714, 10.2943525 ], [ 76.4297076, 10.2894754 ], [ 76.4154131, 10.2943395 ], [ 76.4171633, 10.2888134 ], [ 76.4116295, 10.2876179 ], [ 76.4134197, 10.2811336 ], [ 76.401353, 10.2759729 ], [ 76.3970259, 10.2675654 ], [ 76.392529, 10.2666034 ], [ 76.3900529, 10.2640441 ], [ 76.3913834, 10.2553717 ], [ 76.3778321, 10.2548494 ], [ 76.3774694, 10.2500026 ], [ 76.3793775, 10.2450607 ], [ 76.3753202, 10.2438356 ], [ 76.3721803, 10.2410961 ], [ 76.3392944, 10.2310579 ], [ 76.340878, 10.2306874 ], [ 76.340952, 10.2262887 ], [ 76.3375144, 10.2251756 ], [ 76.3351897, 10.2134274 ], [ 76.3325339, 10.2127354 ], [ 76.3312429, 10.2094578 ], [ 76.3107313, 10.2054533 ], [ 76.3119776, 10.1824217 ], [ 76.3019062, 10.1853667 ], [ 76.2996616, 10.1838427 ], [ 76.2992336, 10.1799867 ], [ 76.2964376, 10.1760983 ], [ 76.2870875, 10.1781616 ], [ 76.2802213, 10.1746877 ], [ 76.2740338, 10.1752327 ], [ 76.2740644, 10.1790525 ], [ 76.2716453, 10.1811809 ], [ 76.2707176, 10.1853123 ], [ 76.2669118, 10.18565 ], [ 76.2612702, 10.1898746 ], [ 76.2618617, 10.1945219 ], [ 76.2595969, 10.1981916 ], [ 76.2635076, 10.1984101 ], [ 76.2636573, 10.2006794 ], [ 76.2598417, 10.2023551 ], [ 76.258455, 10.2010798 ], [ 76.2561687, 10.2012055 ], [ 76.2562779, 10.2021594 ], [ 76.2542835, 10.202665 ], [ 76.2495226, 10.2007926 ], [ 76.2461556, 10.2018845 ], [ 76.2434339, 10.2054395 ], [ 76.241744, 10.2033569 ], [ 76.2372681, 10.204454 ], [ 76.2336161, 10.2025896 ], [ 76.2327137, 10.2041633 ], [ 76.2197343, 10.2070195 ], [ 76.2115878, 10.2008863 ], [ 76.2137192, 10.1941585 ], [ 76.2041367, 10.1946571 ], [ 76.1980619, 10.1926265 ], [ 76.1852293, 10.1908979 ], [ 76.1766894, 10.186748 ], [ 76.1691046, 10.1848714 ], [ 76.1648369, 10.1798024 ], [ 76.1615066, 10.1839438 ], [ 76.1359386, 10.2609609 ], [ 76.1131722, 10.3424548 ], [ 76.099222, 10.3789119 ], [ 76.100328, 10.3814749 ], [ 76.0986335, 10.3805756 ], [ 76.082379, 10.4196679 ], [ 76.0826699, 10.4212253 ], [ 76.0628558, 10.4619106 ], [ 76.0395498, 10.5048893 ], [ 76.039249, 10.511575 ], [ 76.0370158, 10.5164391 ], [ 76.0305348, 10.5261586 ], [ 76.0306584, 10.5295805 ], [ 76.0328284, 10.5332102 ], [ 76.0313259, 10.538454 ], [ 76.0338063, 10.5371202 ], [ 76.0339249, 10.5350363 ], [ 76.0404621, 10.5367626 ], [ 76.0404305, 10.5398183 ], [ 76.038014, 10.5403248 ], [ 76.0374066, 10.542332 ], [ 76.0384436, 10.5430867 ], [ 76.0367034, 10.5454466 ], [ 76.0382844, 10.5490175 ], [ 76.0323, 10.5512918 ], [ 76.0290612, 10.5546507 ], [ 76.0283535, 10.5603147 ], [ 76.0302176, 10.561734 ], [ 76.0307844, 10.5654317 ], [ 76.02458, 10.5636148 ], [ 76.0223827, 10.5660018 ], [ 76.0248864, 10.5680313 ], [ 76.0268696, 10.5754491 ], [ 76.0160736, 10.5714988 ], [ 76.0139765, 10.5687911 ], [ 76.0095, 10.5668465 ], [ 75.9903321, 10.6118212 ], [ 75.9561575, 10.6853604 ], [ 75.9635169, 10.689325 ], [ 75.9627535, 10.690943 ], [ 75.9661716, 10.6920191 ], [ 75.9658332, 10.6934654 ], [ 75.9670397, 10.6940577 ], [ 75.9704857, 10.6911112 ], [ 75.9744703, 10.6935388 ], [ 75.9757136, 10.6914056 ], [ 75.9771302, 10.6918486 ], [ 75.9766088, 10.6954825 ], [ 75.9782814, 10.6954601 ], [ 75.9802741, 10.6938783 ], [ 75.9828932, 10.6868775 ], [ 75.9840356, 10.6874018 ], [ 75.9830713, 10.6889384 ], [ 75.9863248, 10.6909636 ], [ 76.0012407, 10.6942685 ], [ 76.0022728, 10.692257 ], [ 76.0054496, 10.6915034 ], [ 76.0073242, 10.6896147 ], [ 76.0131327, 10.6911177 ], [ 76.0198809, 10.6973447 ], [ 76.0342726, 10.7006223 ], [ 76.0341221, 10.7034788 ], [ 76.0370431, 10.7074068 ], [ 76.0398312, 10.7073793 ], [ 76.0412571, 10.7053451 ], [ 76.0434832, 10.7071439 ], [ 76.0444108, 10.705182 ], [ 76.0482367, 10.7068449 ], [ 76.0487575, 10.7045848 ], [ 76.0515501, 10.7044442 ], [ 76.0538824, 10.7126844 ], [ 76.056374, 10.7164857 ], [ 76.0610689, 10.7197441 ], [ 76.0610834, 10.7240926 ], [ 76.058812, 10.7259825 ], [ 76.0592967, 10.7275646 ], [ 76.0625921, 10.7256564 ], [ 76.064873, 10.7258866 ], [ 76.0651241, 10.7240648 ], [ 76.0670118, 10.7234542 ], [ 76.0677482, 10.7256555 ], [ 76.0660158, 10.7259722 ], [ 76.0655914, 10.7292812 ], [ 76.0688095, 10.7302932 ], [ 76.0734399, 10.7297724 ], [ 76.0758529, 10.7276065 ], [ 76.0811644, 10.7275421 ], [ 76.0826405, 10.7262173 ], [ 76.0853789, 10.7278394 ], [ 76.0899771, 10.727011 ], [ 76.0964135, 10.7281574 ], [ 76.0968836, 10.7261412 ], [ 76.0987258, 10.7260457 ], [ 76.1226307, 10.710402 ], [ 76.1232073, 10.712106 ], [ 76.1269375, 10.7133883 ], [ 76.1268741, 10.7148845 ], [ 76.1301154, 10.7163208 ], [ 76.132906, 10.7223588 ], [ 76.1360771, 10.7195549 ], [ 76.1447893, 10.7198405 ], [ 76.1537763, 10.711623 ], [ 76.1543816, 10.7155509 ], [ 76.1569333, 10.7180269 ], [ 76.1565711, 10.7158527 ], [ 76.1612517, 10.7069002 ], [ 76.1641538, 10.7062613 ], [ 76.1653082, 10.7113643 ], [ 76.1717587, 10.7134855 ], [ 76.1723417, 10.7180824 ], [ 76.1739878, 10.7192567 ], [ 76.1747941, 10.7225109 ], [ 76.1769433, 10.7240241 ], [ 76.1790807, 10.7289456 ], [ 76.1813117, 10.7296223 ], [ 76.1809578, 10.7342288 ], [ 76.1824023, 10.734255 ], [ 76.1825494, 10.7357648 ], [ 76.1896158, 10.7423242 ], [ 76.1918125, 10.7500802 ], [ 76.1942569, 10.7519272 ], [ 76.195422, 10.7509636 ], [ 76.1999992, 10.7529949 ], [ 76.2026409, 10.7520169 ], [ 76.2034429, 10.7623905 ], [ 76.2054493, 10.7685504 ], [ 76.1950304, 10.7756356 ], [ 76.194355, 10.7777153 ], [ 76.1913554, 10.7768899 ], [ 76.1881708, 10.7798798 ], [ 76.1878799, 10.7826825 ], [ 76.1941754, 10.7829274 ] ] ] } }
]
}
