{
"type": "FeatureCollection",
"name": "3208",
"crs": { "type": "name", "properties": { "name": "urn:ogc:def:crs:OGC:1.3:CRS84" } },
"features": [
{ "type": "Feature", "properties": { "code": "3208", "name": "Ernakulam", "type": "district" }, "geometry": { "type": "Polygon", "coordinates": [ [ [ 76.5856188, 10.2980972 ], [ 76.5898467, 10.2989303 ], [ 76.5900448, 10.2924397 ], [ 76.6008177, 10.2836341 ], [ 76.6033306, 10.2802307 ], [ 76.6187612, 10.2803194 ], [ 76.6212946, 10.2735126 ], [ 76.6240663, 10.2742441 ], [ 76.6271118, 10.2726519 ], [ 76.6325701, 10.2726776 ], [ 76.639432, 10.2740157 ], [ 76.6420083, 10.2752219 ], [ 76.6458567, 10.2802673 ], [ 76.6619162, 10.2799686 ], [ 76.6619739, 10.2769449 ], [ 76.6692057, 10.2716513 ], [ 76.6956723, 10.2639266 ], [ 76.7045777, 10.2668093 ], [ 76.706163, 10.2696938 ], [ 76.7198442, 10.2692935 ], [ 76.7305855, 10.2706076 ], [ 76.7471319, 10.2777653 ], [ 76.7520355, 10.2778755 ], [ 76.7525859, 10.2751125 ], [ 76.7589448, 10.2696465 ], [ 76.768446, 10.2689419 ], [ 76.7744079, 10.2712196 ], [ 76.7751373, 10.276529 ], [ 76.7874819, 10.2775662 ], [ 76.7928837, 10.2802337 ], [ 76.7942799, 10.2800269 ], [ 76.7953278, 10.2773981 ], [ 76.7981725, 10.2778387 ], [ 76.8041566, 10.2851691 ], [ 76.8102202, 10.2859769 ], [ 76.8262198, 10.2809784 ], [ 76.8279101, 10.2762372 ], [ 76.8297152, 10.2752879 ], [ 76.8331382, 10.2769425 ], [ 76.8360268, 10.2837062 ], [ 76.8402297, 10.2833112 ], [ 76.8427184, 10.2802447 ], [ 76.8471616, 10.2810152 ], [ 76.8600215, 10.2731757 ], [ 76.8656123, 10.2729395 ], [ 76.8656598, 10.2702816 ], [ 76.866981, 10.2693561 ], [ 76.868793, 10.2693558 ], [ 76.8712684, 10.2716182 ], [ 76.8789307, 10.269496 ], [ 76.879877, 10.2666956 ], [ 76.877127, 10.2624903 ], [ 76.8778606, 10.2603866 ], [ 76.8820544, 10.2601629 ], [ 76.8887932, 10.2575728 ], [ 76.8892537, 10.2557862 ], [ 76.8917752, 10.2581614 ], [ 76.8964987, 10.2580581 ], [ 76.8963364, 10.2538279 ], [ 76.9045522, 10.2507631 ], [ 76.9054561, 10.2479177 ], [ 76.9030047, 10.2402964 ], [ 76.9082623, 10.240852 ], [ 76.9098595, 10.2391838 ], [ 76.9099734, 10.2364805 ], [ 76.9126385, 10.2347354 ], [ 76.9215604, 10.2321849 ], [ 76.9393602, 10.2389043 ], [ 76.944704, 10.2365482 ], [ 76.9475427, 10.2368685 ], [ 76.9485097, 10.2338216 ], [ 76.9505996, 10.232474 ], [ 76.9532009, 10.2320938 ], [ 76.9557206, 10.2342404 ], [ 76.9588787, 10.2341403 ], [ 76.9654267, 10.2307393 ], [ 76.9685484, 10.2307747 ], [ 76.97229, 10.2286128 ], [ 76.9734666, 10.2254256 ], [ 76.9804804, 10.2237871 ], [ 76.9824462, 10.2201204 ], [ 76.9838519, 10.2206263 ], [ 76.9844961, 10.2229768 ], [ 76.9907081, 10.2256825 ], [ 76.9904625, 10.2280921 ], [ 76.9929595, 10.2299762 ], [ 76.9961636, 10.2310148 ], [ 76.9990293, 10.2303674 ], [ 77.001001, 10.2351565 ], [ 77.0037833, 10.2346372 ], [ 77.0054745, 10.2384016 ], [ 77.0111345, 10.2400881 ], [ 77.0144339, 10.245791 ], [ 77.0174867, 10.2456324 ], [ 77.0314736, 10.2522418 ], [ 77.0406305, 10.2526603 ], [ 77.0428988, 10.2568519 ], [ 77.0456167, 10.2575709 ], [ 77.0505953, 10.2617502 ], [ 77.0546723, 10.2573029 ], [ 77.0559786, 10.2534156 ], [ 77.0614745, 10.2499338 ], [ 77.0628214, 10.2477869 ], [ 77.0628362, 10.2425883 ], [ 77.0604873, 10.236232 ], [ 77.048349, 10.2308317 ], [ 77.0457559, 10.2338009 ], [ 77.0306606, 10.2286387 ], [ 77.0274337, 10.2297994 ], [ 77.0221536, 10.2294948 ], [ 77.0133619, 10.2226748 ], [ 77.0224911, 10.2168195 ], [ 77.0199957, 10.2145719 ], [ 77.0199187, 10.2130169 ], [ 77.0243777, 10.2114588 ], [ 77.0335661, 10.2046607 ], [ 77.0423053, 10.2032777 ], [ 77.043258, 10.2067949 ], [ 77.0487982, 10.2058426 ], [ 77.0554593, 10.2117434 ], [ 77.0662525, 10.2085951 ], [ 77.0683156, 10.2067104 ], [ 77.067787, 10.2028589 ], [ 77.0655153, 10.1991019 ], [ 77.0667658, 10.1979765 ], [ 77.0664194, 10.1960101 ], [ 77.0688838, 10.1950522 ], [ 77.0700972, 10.1972449 ], [ 77.0759929, 10.1969973 ], [ 77.0754229, 10.1949811 ], [ 77.0803743, 10.1929748 ], [ 77.0795714, 10.1919169 ], [ 77.0835376, 10.1865788 ], [ 77.0860522, 10.1845676 ], [ 77.0878452, 10.1864484 ], [ 77.0891324, 10.183031 ], [ 77.0851045, 10.1745365 ], [ 77.0805421, 10.1714709 ], [ 77.0769367, 10.1758552 ], [ 77.0750891, 10.173355 ], [ 77.067948, 10.1743979 ], [ 77.0615244, 10.1697902 ], [ 77.0574934, 10.1781657 ], [ 77.0484318, 10.1764548 ], [ 77.0427097, 10.1767697 ], [ 77.0364641, 10.1734137 ], [ 77.0282922, 10.1723805 ], [ 77.0233577, 10.1784273 ], [ 77.0161811, 10.1757849 ], [ 77.0143753, 10.1726425 ], [ 77.0116557, 10.1730393 ], [ 77.0053784, 10.1696284 ], [ 77.0025765, 10.1705224 ], [ 77.0005939, 10.1651015 ], [ 76.9976644, 10.1624581 ], [ 76.9930832, 10.1631508 ], [ 76.9881746, 10.1609197 ], [ 76.9865359, 10.1643166 ], [ 76.9828046, 10.1658214 ], [ 76.976324, 10.1609947 ], [ 76.972207, 10.160007 ], [ 76.9685849, 10.1608207 ], [ 76.9659011, 10.1600077 ], [ 76.9624428, 10.1639777 ], [ 76.9561552, 10.1654692 ], [ 76.9518754, 10.169596 ], [ 76.9406714, 10.1714548 ], [ 76.9339874, 10.1746662 ], [ 76.9291695, 10.1787888 ], [ 76.9211312, 10.1759723 ], [ 76.9181145, 10.1681082 ], [ 76.9126818, 10.1655872 ], [ 76.9124833, 10.1621154 ], [ 76.9082505, 10.1557739 ], [ 76.9062548, 10.154839 ], [ 76.9061043, 10.1512561 ], [ 76.9024545, 10.1482827 ], [ 76.9054516, 10.1438349 ], [ 76.904265, 10.1405083 ], [ 76.8914696, 10.1311191 ], [ 76.8749533, 10.1042196 ], [ 76.8646191, 10.0917832 ], [ 76.8631818, 10.081354 ], [ 76.8646108, 10.0785276 ], [ 76.8647793, 10.0737221 ], [ 76.8562536, 10.0770502 ], [ 76.8449216, 10.0794093 ], [ 76.8340639, 10.086667 ], [ 76.8227371, 10.0905937 ], [ 76.8199862, 10.089102 ], [ 76.8204041, 10.086634 ], [ 76.8139655, 10.0805764 ], [ 76.8160287, 10.0727595 ], [ 76.8173081, 10.0717422 ], [ 76.8161822, 10.0692604 ], [ 76.8242763, 10.0624388 ], [ 76.8088135, 10.062448 ], [ 76.8110968, 10.0601521 ], [ 76.8092255, 10.0595674 ], [ 76.8105441, 10.0584445 ], [ 76.8035975, 10.0575189 ], [ 76.8008409, 10.0606638 ], [ 76.8068589, 10.0660194 ], [ 76.7997944, 10.0633884 ], [ 76.7957587, 10.0655886 ], [ 76.7907338, 10.0635695 ], [ 76.7829288, 10.0656733 ], [ 76.7818268, 10.0673318 ], [ 76.7696074, 10.0661253 ], [ 76.7746784, 10.0639711 ], [ 76.7757735, 10.0598632 ], [ 76.7794687, 10.0599262 ], [ 76.7822699, 10.0581369 ], [ 76.7860714, 10.0518862 ], [ 76.7854516, 10.0498879 ], [ 76.7963641, 10.0418444 ], [ 76.8053088, 10.039826 ], [ 76.8097249, 10.0353155 ], [ 76.8172187, 10.0349012 ], [ 76.8319475, 10.0254875 ], [ 76.839628, 10.024476 ], [ 76.8368098, 10.0221475 ], [ 76.8378465, 10.0117143 ], [ 76.8263353, 10.0126663 ], [ 76.8105217, 10.0211754 ], [ 76.8053302, 10.0268249 ], [ 76.8030817, 10.0266571 ], [ 76.7974437, 10.0296709 ], [ 76.7943106, 10.028992 ], [ 76.7916276, 10.0330326 ], [ 76.7840191, 10.0359643 ], [ 76.7809454, 10.0347744 ], [ 76.7778498, 10.0306191 ], [ 76.7790287, 10.023798 ], [ 76.7667986, 10.0195471 ], [ 76.7651622, 10.0158643 ], [ 76.7647124, 10.0110453 ], [ 76.7688842, 10.0014406 ], [ 76.766157, 9.9974151 ], [ 76.7700208, 9.9942882 ], [ 76.7690957, 9.9924164 ], [ 76.7655519, 9.9934775 ], [ 76.7638285, 9.9920936 ], [ 76.7633729, 9.9910176 ], [ 76.7650426, 9.9893229 ], [ 76.7600528, 9.9914683 ], [ 76.7655518, 9.9809737 ], [ 76.755234, 9.9875835 ], [ 76.7475732, 9.9890056 ], [ 76.7447408, 9.990714 ], [ 76.7364182, 9.9848227 ], [ 76.7308477, 9.9848841 ], [ 76.7233807, 9.9814809 ], [ 76.7192042, 9.9867317 ], [ 76.7163326, 9.9871503 ], [ 76.7156358, 9.9833337 ], [ 76.7137832, 9.983459 ], [ 76.7116979, 9.9808834 ], [ 76.7114265, 9.9730485 ], [ 76.715041, 9.9702307 ], [ 76.7156404, 9.9640269 ], [ 76.7192778, 9.9596907 ], [ 76.7247504, 9.9569495 ], [ 76.7236848, 9.9545321 ], [ 76.7219613, 9.9522521 ], [ 76.7208114, 9.9530536 ], [ 76.7190664, 9.9515121 ], [ 76.7181295, 9.9518705 ], [ 76.7188951, 9.9537914 ], [ 76.7167519, 9.9525258 ], [ 76.7151543, 9.9544879 ], [ 76.7126001, 9.9534314 ], [ 76.7114311, 9.9495054 ], [ 76.7145265, 9.9462217 ], [ 76.7131655, 9.942992 ], [ 76.7101635, 9.9436871 ], [ 76.7036187, 9.9388436 ], [ 76.6989176, 9.9292277 ], [ 76.697682, 9.9311054 ], [ 76.6945528, 9.9308717 ], [ 76.6923901, 9.9323246 ], [ 76.6897772, 9.9273301 ], [ 76.6831587, 9.9239498 ], [ 76.6923105, 9.9216162 ], [ 76.6950988, 9.9151898 ], [ 76.6987153, 9.9195182 ], [ 76.7015005, 9.9166471 ], [ 76.6980152, 9.9149592 ], [ 76.696357, 9.9088912 ], [ 76.6913343, 9.9072635 ], [ 76.683252, 9.9105715 ], [ 76.6810832, 9.9141088 ], [ 76.6813793, 9.9175702 ], [ 76.6780459, 9.9168104 ], [ 76.6732125, 9.9190869 ], [ 76.6615567, 9.916398 ], [ 76.6576579, 9.9202347 ], [ 76.6544757, 9.9179287 ], [ 76.6488098, 9.9215105 ], [ 76.6419242, 9.9176408 ], [ 76.634302, 9.9174002 ], [ 76.6317599, 9.9159104 ], [ 76.6288884, 9.911872 ], [ 76.6305742, 9.9110603 ], [ 76.6316393, 9.9057451 ], [ 76.6282597, 9.9006673 ], [ 76.6311647, 9.8952183 ], [ 76.630464, 9.888738 ], [ 76.6315567, 9.8863042 ], [ 76.6333908, 9.8850902 ], [ 76.6348084, 9.8857782 ], [ 76.6361427, 9.883907 ], [ 76.6356599, 9.8788089 ], [ 76.6374279, 9.8733052 ], [ 76.6321987, 9.8713609 ], [ 76.6328596, 9.8654404 ], [ 76.6349206, 9.864927 ], [ 76.6345283, 9.8626929 ], [ 76.6321782, 9.8619462 ], [ 76.6326545, 9.8578375 ], [ 76.6288571, 9.8555844 ], [ 76.6248844, 9.8571724 ], [ 76.6190634, 9.8562202 ], [ 76.6155865, 9.8520983 ], [ 76.6113156, 9.8539702 ], [ 76.6091171, 9.8490211 ], [ 76.6156509, 9.840513 ], [ 76.6157118, 9.8381684 ], [ 76.6109994, 9.838932 ], [ 76.6094787, 9.8418682 ], [ 76.6078851, 9.8416412 ], [ 76.6075413, 9.8402847 ], [ 76.6049434, 9.840703 ], [ 76.6034891, 9.845287 ], [ 76.5991447, 9.8464265 ], [ 76.5964976, 9.8453255 ], [ 76.5931534, 9.8459981 ], [ 76.5915901, 9.8420702 ], [ 76.5894247, 9.8449161 ], [ 76.5869379, 9.841881 ], [ 76.5800431, 9.8430399 ], [ 76.5821566, 9.8369636 ], [ 76.5809027, 9.8358668 ], [ 76.5820266, 9.8272474 ], [ 76.580691, 9.8224259 ], [ 76.5757367, 9.8200628 ], [ 76.5669669, 9.8251555 ], [ 76.5653119, 9.824424 ], [ 76.5636583, 9.8195332 ], [ 76.5609291, 9.8194409 ], [ 76.5614636, 9.8178017 ], [ 76.5588871, 9.8153827 ], [ 76.5590253, 9.8101435 ], [ 76.5554556, 9.8024074 ], [ 76.5484239, 9.8019221 ], [ 76.5471033, 9.7998788 ], [ 76.5445397, 9.8008646 ], [ 76.542508, 9.8088823 ], [ 76.544732, 9.8133056 ], [ 76.5389734, 9.813973 ], [ 76.5389514, 9.823088 ], [ 76.5289676, 9.8258936 ], [ 76.5269622, 9.8251106 ], [ 76.524284, 9.8270223 ], [ 76.5198647, 9.8242175 ], [ 76.5175789, 9.8323451 ], [ 76.5195249, 9.8357184 ], [ 76.5143646, 9.8429931 ], [ 76.5148624, 9.8487506 ], [ 76.5095993, 9.8511326 ], [ 76.5031299, 9.8510239 ], [ 76.5023698, 9.8498998 ], [ 76.4980993, 9.851442 ], [ 76.4857022, 9.8463607 ], [ 76.4828983, 9.8428161 ], [ 76.48057, 9.84352 ], [ 76.4813665, 9.8458831 ], [ 76.4803372, 9.8465083 ], [ 76.474428, 9.8421362 ], [ 76.4603268, 9.8469968 ], [ 76.4613303, 9.8508785 ], [ 76.4569622, 9.8466577 ], [ 76.4539558, 9.8414224 ], [ 76.4496247, 9.8408947 ], [ 76.4460884, 9.8346701 ], [ 76.4289012, 9.8252171 ], [ 76.4213736, 9.8233865 ], [ 76.4192058, 9.8248493 ], [ 76.4143028, 9.8223372 ], [ 76.4116205, 9.8280227 ], [ 76.4081874, 9.8273939 ], [ 76.4058162, 9.8303847 ], [ 76.3959154, 9.8298266 ], [ 76.3945079, 9.8306871 ], [ 76.3884156, 9.8443594 ], [ 76.3804097, 9.8430303 ], [ 76.3753854, 9.8379185 ], [ 76.3723852, 9.8371082 ], [ 76.3696705, 9.8515269 ], [ 76.3719176, 9.8555251 ], [ 76.3655309, 9.8680221 ], [ 76.3618824, 9.870815 ], [ 76.3571377, 9.8802814 ], [ 76.3533577, 9.8839695 ], [ 76.3450883, 9.8798054 ], [ 76.3337977, 9.8768149 ], [ 76.3288067, 9.8777735 ], [ 76.3214797, 9.8814421 ], [ 76.3105999, 9.8837122 ], [ 76.3030333, 9.8901743 ], [ 76.2966428, 9.8913823 ], [ 76.2926712, 9.8905764 ], [ 76.2924377, 9.8841756 ], [ 76.2953251, 9.8596086 ], [ 76.2974798, 9.852722 ], [ 76.2956778, 9.85106 ], [ 76.2856796, 9.8492149 ], [ 76.2840281, 9.8365407 ], [ 76.2795562, 9.8305637 ], [ 76.2794802, 9.8268252 ], [ 76.283643, 9.8172157 ], [ 76.2869122, 9.8187048 ], [ 76.2909176, 9.8066588 ], [ 76.2821421, 9.8046634 ], [ 76.2816969, 9.8007761 ], [ 76.2841002, 9.7914754 ], [ 76.2771976, 9.7890665 ], [ 76.2615146, 9.8717824 ], [ 76.2608362, 9.8811746 ], [ 76.2512667, 9.9187033 ], [ 76.2379938, 9.9533632 ], [ 76.2365242, 9.9646293 ], [ 76.2407671, 9.9676008 ], [ 76.2381097, 9.9692481 ], [ 76.2346207, 9.9749915 ], [ 76.2326874, 9.9753048 ], [ 76.2300217, 9.9781681 ], [ 76.2229139, 9.9947884 ], [ 76.2222961, 10.0000059 ], [ 76.2196649, 10.0012494 ], [ 76.2185008, 10.0035131 ], [ 76.2185029, 10.0065127 ], [ 76.2126315, 10.0255587 ], [ 76.2111727, 10.0266671 ], [ 76.2063899, 10.0441599 ], [ 76.2010328, 10.0554552 ], [ 76.1802078, 10.1359632 ], [ 76.166898, 10.1702758 ], [ 76.1648369, 10.1798024 ], [ 76.1691046, 10.1848714 ], [ 76.1766894, 10.186748 ], [ 76.1852293, 10.1908979 ], [ 76.1980619, 10.1926265 ], [ 76.2041367, 10.1946571 ], [ 76.2137192, 10.1941585 ], [ 76.2115878, 10.2008863 ], [ 76.2197343, 10.2070195 ], [ 76.2327137, 10.2041633 ], [ 76.2336161, 10.2025896 ], [ 76.2372681, 10.204454 ], [ 76.241744, 10.2033569 ], [ 76.2434339, 10.2054395 ], [ 76.2461556, 10.2018845 ], [ 76.2495226, 10.2007926 ], [ 76.2542835, 10.202665 ], [ 76.2562779, 10.2021594 ], [ 76.2561687, 10.2012055 ], [ 76.258455, 10.2010798 ], [ 76.2598417, 10.2023551 ], [ 76.2636573, 10.2006794 ], [ 76.2635076, 10.1984101 ], [ 76.2595969, 10.1981916 ], [ 76.2618617, 10.1945219 ], [ 76.2612702, 10.1898746 ], [ 76.2669118, 10.18565 ], [ 76.2707176, 10.1853123 ], [ 76.2716453, 10.1811809 ], [ 76.2740644, 10.1790525 ], [ 76.2740338, 10.1752327 ], [ 76.2802213, 10.1746877 ], [ 76.2870875, 10.1781616 ], [ 76.2964376, 10.1760983 ], [ 76.2992336, 10.1799867 ], [ 76.2996616, 10.1838427 ], [ 76.3019062, 10.1853667 ], [ 76.3119776, 10.1824217 ], [ 76.3107313, 10.2054533 ], [ 76.3312429, 10.2094578 ], [ 76.3325339, 10.2127354 ], [ 76.3351897, 10.2134274 ], [ 76.3375144, 10.2251756 ], [ 76.340952, 10.2262887 ], [ 76.340878, 10.2306874 ], [ 76.3392944, 10.2310579 ], [ 76.3721803, 10.2410961 ], [ 76.3753202, 10.2438356 ], [ 76.3793775, 10.2450607 ], [ 76.3774694, 10.2500026 ], [ 76.3778321, 10.2548494 ], [ 76.3913834, 10.2553717 ], [ 76.3900529, 10.2640441 ], [ 76.392529, 10.2666034 ], [ 76.3970259, 10.2675654 ], [ 76.401353, 10.2759729 ], [ 76.4134197, 10.2811336 ], [ 76.4116295, 10.2876179 ], [ 76.4171633, 10.2888134 ], [ 76.4154131, 10.2943395 ], [ 76.4297076, 10.2894754 ], [ 76.4368714, 10.2943525 ], [ 76.4435483, 10.2934531 ], [ 76.4477251, 10.2968603 ], [ 76.4591912, 10.2965869 ], [ 76.4724262, 10.2917494 ], [ 76.4782846, 10.2931378 ], [ 76.4830165, 10.2920279 ], [ 76.4898214, 10.294373 ], [ 76.4942414, 10.2923232 ], [ 76.4984656, 10.2876519 ], [ 76.5069879, 10.2890937 ], [ 76.5167478, 10.287578 ], [ 76.5245971, 10.2843249 ], [ 76.5331053, 10.2877326 ], [ 76.5444407, 10.2895626 ], [ 76.5468769, 10.2890027 ], [ 76.5541596, 10.2828709 ], [ 76.5657695, 10.285138 ], [ 76.5733993, 10.2845282 ], [ 76.5728145, 10.2867213 ], [ 76.5661169, 10.2931643 ], [ 76.5760281, 10.3023446 ], [ 76.5817674, 10.3010283 ], [ 76.5856188, 10.2980972 ] ] ] } }
]
}
