{
"type": "FeatureCollection",
"name": "3211",
"crs": { "type": "name", "properties": { "name": "urn:ogc:def:crs:OGC:1.3:CRS84" } },
"features": [
{ "type": "Feature", "properties": { "code": "3211", "name": "Alappuzha", "type": "district" }, "geometry": { "type": "Polygon", "coordinates": [ [ [ 76.3328907, 9.8769966 ], [ 76.3439162, 9.8793772 ], [ 76.3533577, 9.8839695 ], [ 76.3571377, 9.8802814 ], [ 76.3618824, 9.870815 ], [ 76.3655309, 9.8680221 ], [ 76.3719176, 9.8555251 ], [ 76.3696705, 9.8515269 ], [ 76.3715116, 9.8386099 ], [ 76.3776898, 9.8320259 ], [ 76.3814426, 9.8210279 ], [ 76.3815901, 9.8184149 ], [ 76.3792923, 9.8138652 ], [ 76.3673083, 9.7999686 ], [ 76.3650076, 9.7922952 ], [ 76.3709161, 9.7771723 ], [ 76.371761, 9.7703726 ], [ 76.3766146, 9.7621898 ], [ 76.3807042, 9.75144 ], [ 76.380236, 9.7278163 ], [ 76.3757008, 9.6973845 ], [ 76.4026427, 9.6859177 ], [ 76.4013756, 9.677737 ], [ 76.3988856, 9.6716552 ], [ 76.3965051, 9.653847 ], [ 76.3996461, 9.6398117 ], [ 76.392199, 9.5476957 ], [ 76.4046486, 9.5538885 ], [ 76.4044409, 9.5594581 ], [ 76.4141101, 9.5633437 ], [ 76.4152748, 9.5583923 ], [ 76.4227319, 9.5558475 ], [ 76.4265045, 9.5496272 ], [ 76.4384043, 9.5527048 ], [ 76.4385473, 9.5542099 ], [ 76.4485577, 9.5575064 ], [ 76.4661115, 9.5616834 ], [ 76.4654797, 9.5421601 ], [ 76.4793594, 9.537603 ], [ 76.4803244, 9.5073594 ], [ 76.4817197, 9.508691 ], [ 76.4893648, 9.5081969 ], [ 76.4953926, 9.5071489 ], [ 76.4981291, 9.5037276 ], [ 76.5080358, 9.5043576 ], [ 76.5107585, 9.4999938 ], [ 76.5089811, 9.4987405 ], [ 76.5084454, 9.4898776 ], [ 76.5068722, 9.4892693 ], [ 76.5091305, 9.4781602 ], [ 76.5060368, 9.4765841 ], [ 76.5057743, 9.4679247 ], [ 76.497863, 9.4541559 ], [ 76.4978738, 9.4488488 ], [ 76.4949941, 9.4440611 ], [ 76.4973612, 9.4405001 ], [ 76.5026244, 9.4401603 ], [ 76.5028159, 9.4385329 ], [ 76.5079857, 9.4385384 ], [ 76.5114326, 9.4367058 ], [ 76.5045136, 9.4298512 ], [ 76.5046708, 9.4287753 ], [ 76.5062005, 9.4290695 ], [ 76.506695, 9.4263391 ], [ 76.5054936, 9.4237643 ], [ 76.5068047, 9.4236651 ], [ 76.5087499, 9.4195056 ], [ 76.5097445, 9.4200412 ], [ 76.5059784, 9.4123865 ], [ 76.5072948, 9.4076235 ], [ 76.505925, 9.4052182 ], [ 76.5132873, 9.4007217 ], [ 76.511133, 9.3919305 ], [ 76.5144518, 9.3904732 ], [ 76.5120148, 9.3862368 ], [ 76.5124047, 9.3824734 ], [ 76.5104398, 9.3823432 ], [ 76.5092646, 9.3772243 ], [ 76.5123696, 9.3733016 ], [ 76.5144136, 9.3729814 ], [ 76.5142918, 9.3697671 ], [ 76.5236968, 9.3678308 ], [ 76.5236837, 9.3658507 ], [ 76.517807, 9.366328 ], [ 76.5157545, 9.3652152 ], [ 76.5135069, 9.3625077 ], [ 76.5133117, 9.3540052 ], [ 76.5088922, 9.3549984 ], [ 76.5056019, 9.351779 ], [ 76.5008592, 9.3506276 ], [ 76.4956784, 9.3472346 ], [ 76.4882186, 9.3475386 ], [ 76.4824856, 9.3457562 ], [ 76.479602, 9.3405885 ], [ 76.4783782, 9.3410014 ], [ 76.4781663, 9.3390849 ], [ 76.474933, 9.337837 ], [ 76.4759599, 9.3365157 ], [ 76.4733555, 9.3324189 ], [ 76.4744559, 9.3281275 ], [ 76.4881427, 9.3286156 ], [ 76.4977968, 9.3234392 ], [ 76.5182005, 9.3273061 ], [ 76.5269968, 9.3259493 ], [ 76.5317758, 9.3296372 ], [ 76.535046, 9.3227975 ], [ 76.5403119, 9.3223377 ], [ 76.5460019, 9.3254187 ], [ 76.551594, 9.3254325 ], [ 76.5535487, 9.3313555 ], [ 76.5531685, 9.3352072 ], [ 76.5558873, 9.3377982 ], [ 76.5562292, 9.3406164 ], [ 76.5598148, 9.3434116 ], [ 76.5515315, 9.3472412 ], [ 76.5496925, 9.3497343 ], [ 76.5518635, 9.3521123 ], [ 76.5565792, 9.3502229 ], [ 76.5599748, 9.351195 ], [ 76.5631222, 9.3541109 ], [ 76.5651819, 9.3531594 ], [ 76.5668547, 9.3560888 ], [ 76.5724192, 9.3558221 ], [ 76.5741338, 9.3539018 ], [ 76.5799228, 9.353356 ], [ 76.5792354, 9.3505712 ], [ 76.581559, 9.3473411 ], [ 76.5824193, 9.3493664 ], [ 76.5852641, 9.3485457 ], [ 76.5872989, 9.3519068 ], [ 76.5902688, 9.3510545 ], [ 76.5947592, 9.3527563 ], [ 76.596102, 9.3521595 ], [ 76.5952165, 9.3504326 ], [ 76.5971578, 9.3494108 ], [ 76.5981293, 9.346253 ], [ 76.6010607, 9.3471773 ], [ 76.6031633, 9.3441324 ], [ 76.6064406, 9.3451018 ], [ 76.6098289, 9.3419889 ], [ 76.6132724, 9.343234 ], [ 76.6152589, 9.3409259 ], [ 76.6170272, 9.341493 ], [ 76.6207297, 9.3391666 ], [ 76.6279145, 9.3371968 ], [ 76.6285931, 9.342575 ], [ 76.6417036, 9.3410104 ], [ 76.6422287, 9.3394273 ], [ 76.6403658, 9.3362211 ], [ 76.6420719, 9.3332572 ], [ 76.6396349, 9.3296361 ], [ 76.6353656, 9.3270941 ], [ 76.6393052, 9.3260249 ], [ 76.6415216, 9.323381 ], [ 76.6422681, 9.3209476 ], [ 76.6413863, 9.3190235 ], [ 76.6426825, 9.3160015 ], [ 76.6441651, 9.3153931 ], [ 76.645119, 9.3099461 ], [ 76.6517048, 9.3084326 ], [ 76.6505516, 9.3045175 ], [ 76.6514366, 9.2897478 ], [ 76.6558422, 9.289863 ], [ 76.6559776, 9.288285 ], [ 76.6624456, 9.2874763 ], [ 76.664266, 9.2889002 ], [ 76.6757395, 9.2893609 ], [ 76.6750806, 9.2855699 ], [ 76.6776174, 9.2855504 ], [ 76.6770187, 9.2832321 ], [ 76.6721647, 9.2800022 ], [ 76.6706153, 9.2773082 ], [ 76.666045, 9.2750379 ], [ 76.6660836, 9.2738447 ], [ 76.6712734, 9.274691 ], [ 76.6707697, 9.2729976 ], [ 76.6681361, 9.2722666 ], [ 76.6670514, 9.2694955 ], [ 76.6619408, 9.2692226 ], [ 76.6643615, 9.2660398 ], [ 76.6559245, 9.2638117 ], [ 76.6548503, 9.2604755 ], [ 76.6580537, 9.2578081 ], [ 76.6575463, 9.2505202 ], [ 76.6585792, 9.2486348 ], [ 76.6578693, 9.2439692 ], [ 76.6539923, 9.2408273 ], [ 76.6539786, 9.2378479 ], [ 76.6493828, 9.2361392 ], [ 76.6469894, 9.2376764 ], [ 76.6437815, 9.2350272 ], [ 76.6392676, 9.2337614 ], [ 76.6450921, 9.2233403 ], [ 76.6461888, 9.2171058 ], [ 76.645429, 9.2150487 ], [ 76.6474128, 9.2074172 ], [ 76.6517535, 9.2041166 ], [ 76.6571997, 9.2044418 ], [ 76.6607894, 9.201313 ], [ 76.6682147, 9.2001143 ], [ 76.6713219, 9.1953307 ], [ 76.6770545, 9.193915 ], [ 76.6755528, 9.189245 ], [ 76.6768811, 9.1866 ], [ 76.6767125, 9.1828611 ], [ 76.6823039, 9.1817576 ], [ 76.6906883, 9.1769565 ], [ 76.6878394, 9.1690276 ], [ 76.6786726, 9.1724996 ], [ 76.6776625, 9.1706145 ], [ 76.6747781, 9.1700359 ], [ 76.6714839, 9.1632822 ], [ 76.6742403, 9.1544445 ], [ 76.6707827, 9.1525595 ], [ 76.6609518, 9.1494717 ], [ 76.6488009, 9.1496293 ], [ 76.645339, 9.1465324 ], [ 76.6380967, 9.148255 ], [ 76.6366958, 9.1425359 ], [ 76.6330704, 9.1382815 ], [ 76.626388, 9.13721 ], [ 76.6237518, 9.1388179 ], [ 76.6145793, 9.1310112 ], [ 76.6033527, 9.1302373 ], [ 76.5987306, 9.1326692 ], [ 76.5903244, 9.1312125 ], [ 76.5874362, 9.1289561 ], [ 76.5887874, 9.1278939 ], [ 76.5882481, 9.1227696 ], [ 76.5851079, 9.1218433 ], [ 76.5834944, 9.11978 ], [ 76.5847904, 9.1166813 ], [ 76.5808016, 9.1169363 ], [ 76.5795161, 9.1152024 ], [ 76.5762947, 9.1175129 ], [ 76.5724866, 9.1164396 ], [ 76.5685621, 9.1118003 ], [ 76.5578755, 9.1097954 ], [ 76.5512342, 9.1107207 ], [ 76.5464221, 9.1259982 ], [ 76.5435604, 9.1256724 ], [ 76.5428548, 9.1283587 ], [ 76.5411813, 9.1287273 ], [ 76.5416138, 9.1350781 ], [ 76.5285807, 9.1348845 ], [ 76.5160612, 9.1375513 ], [ 76.5085686, 9.1367046 ], [ 76.5030703, 9.1349653 ], [ 76.5064941, 9.1256092 ], [ 76.4856132, 9.1260875 ], [ 76.478879, 9.1281034 ], [ 76.4732828, 9.1272743 ], [ 76.4732317, 9.1299551 ], [ 76.4703224, 9.1314687 ], [ 76.4663545, 9.1304656 ], [ 76.4442874, 9.175143 ], [ 76.3964382, 9.2813828 ], [ 76.3853117, 9.3029535 ], [ 76.3822933, 9.3104836 ], [ 76.3837268, 9.3113131 ], [ 76.3819161, 9.3139473 ], [ 76.3808349, 9.3129941 ], [ 76.3800971, 9.3168554 ], [ 76.351543, 9.3779398 ], [ 76.34158, 9.4033687 ], [ 76.3302476, 9.4412485 ], [ 76.3190777, 9.4852306 ], [ 76.3175719, 9.4917732 ], [ 76.3186226, 9.4919161 ], [ 76.3174856, 9.4920943 ], [ 76.3161469, 9.4972671 ], [ 76.3071695, 9.5415466 ], [ 76.3078341, 9.543233 ], [ 76.3047433, 9.5561342 ], [ 76.3058862, 9.5572918 ], [ 76.3046156, 9.5571378 ], [ 76.3031407, 9.5732923 ], [ 76.3011942, 9.5798849 ], [ 76.3016509, 9.584665 ], [ 76.3009065, 9.5831126 ], [ 76.2998437, 9.5896763 ], [ 76.2965877, 9.6222016 ], [ 76.2973599, 9.622847 ], [ 76.2961546, 9.6236481 ], [ 76.2931818, 9.6509926 ], [ 76.2945849, 9.6513773 ], [ 76.29453, 9.6522995 ], [ 76.2930995, 9.6522404 ], [ 76.2829848, 9.754028 ], [ 76.2771933, 9.7887551 ], [ 76.2841002, 9.7914754 ], [ 76.2816969, 9.8007761 ], [ 76.2821421, 9.8046634 ], [ 76.2909176, 9.8066588 ], [ 76.2869122, 9.8187048 ], [ 76.283643, 9.8172157 ], [ 76.2794581, 9.8276118 ], [ 76.2796432, 9.8311422 ], [ 76.2841927, 9.8371011 ], [ 76.2856796, 9.8492149 ], [ 76.2956778, 9.85106 ], [ 76.2974798, 9.852722 ], [ 76.2951982, 9.8605626 ], [ 76.2926712, 9.8905764 ], [ 76.2966428, 9.8913823 ], [ 76.3030333, 9.8901743 ], [ 76.3105999, 9.8837122 ], [ 76.3214797, 9.8814421 ], [ 76.3328907, 9.8769966 ] ] ] } }
]
}
