{
"type": "FeatureCollection",
"name": "3213",
"crs": { "type": "name", "properties": { "name": "urn:ogc:def:crs:OGC:1.3:CRS84" } },
"features": [
{ "type": "Feature", "properties": { "code": "3213", "name": "Kollam", "type": "district" }, "geometry": { "type": "Polygon", "coordinates": [ [ [ 76.9634477, 9.1520436 ], [ 76.967865, 9.1520743 ], [ 76.9885527, 9.1454957 ], [ 76.9941509, 9.1398612 ], [ 76.9979267, 9.140163 ], [ 77.0046627, 9.1376014 ], [ 77.0094882, 9.1403199 ], [ 77.0127098, 9.1374097 ], [ 77.0163721, 9.1364435 ], [ 77.0186894, 9.1306169 ], [ 77.0265052, 9.1281148 ], [ 77.0293297, 9.1292277 ], [ 77.0321189, 9.1269953 ], [ 77.0404076, 9.1239551 ], [ 77.0466775, 9.1231854 ], [ 77.0507872, 9.1273798 ], [ 77.0542626, 9.1273354 ], [ 77.0576445, 9.1171553 ], [ 77.0647674, 9.119381 ], [ 77.0672702, 9.1144222 ], [ 77.0709868, 9.1128541 ], [ 77.0791379, 9.1132126 ], [ 77.0811399, 9.1092708 ], [ 77.0972473, 9.1024418 ], [ 77.0982755, 9.1002901 ], [ 77.103088, 9.099183 ], [ 77.1069272, 9.0948975 ], [ 77.1111336, 9.0931889 ], [ 77.1207636, 9.0946677 ], [ 77.1312432, 9.0878461 ], [ 77.1429143, 9.0853596 ], [ 77.1451793, 9.0834517 ], [ 77.1514333, 9.0842698 ], [ 77.1544854, 9.0873573 ], [ 77.1553722, 9.0857885 ], [ 77.1541622, 9.0819189 ], [ 77.1599248, 9.0811228 ], [ 77.1614576, 9.0822574 ], [ 77.1637133, 9.0794543 ], [ 77.1670243, 9.0782923 ], [ 77.1698669, 9.0775777 ], [ 77.1729735, 9.0792275 ], [ 77.1793271, 9.0763335 ], [ 77.190161, 9.0765941 ], [ 77.204073, 9.071646 ], [ 77.2081423, 9.07288 ], [ 77.2055137, 9.066171 ], [ 77.1968981, 9.0567965 ], [ 77.1952823, 9.0493375 ], [ 77.1974557, 9.0469727 ], [ 77.1917113, 9.0435334 ], [ 77.1875863, 9.0431362 ], [ 77.1849491, 9.0465136 ], [ 77.1823206, 9.0474181 ], [ 77.1743345, 9.0472699 ], [ 77.167467, 9.0452995 ], [ 77.1641193, 9.0384101 ], [ 77.1603854, 9.0358381 ], [ 77.1621179, 9.033234 ], [ 77.161099, 9.0294411 ], [ 77.1538678, 9.0224252 ], [ 77.1465553, 9.0218152 ], [ 77.1507252, 9.0148937 ], [ 77.149347, 9.0095819 ], [ 77.1527529, 9.0071857 ], [ 77.1568547, 9.0075019 ], [ 77.1561542, 9.0038266 ], [ 77.1616743, 8.9950418 ], [ 77.1735668, 8.9912258 ], [ 77.1782023, 8.9690999 ], [ 77.1855535, 8.9701839 ], [ 77.1907041, 8.9656205 ], [ 77.1915016, 8.959159 ], [ 77.1946922, 8.957368 ], [ 77.1962881, 8.9545831 ], [ 77.1969699, 8.9516882 ], [ 77.1938875, 8.9433183 ], [ 77.19714, 8.9354252 ], [ 77.1924758, 8.9285473 ], [ 77.1927956, 8.926196 ], [ 77.1947347, 8.9241152 ], [ 77.2010465, 8.9245605 ], [ 77.209983, 8.9185023 ], [ 77.2142345, 8.9173314 ], [ 77.2182396, 8.9186879 ], [ 77.2212325, 8.903948 ], [ 77.2279459, 8.9035872 ], [ 77.238546, 8.8977398 ], [ 77.2402398, 8.8944709 ], [ 77.2383955, 8.8921222 ], [ 77.2376558, 8.8856748 ], [ 77.2449876, 8.8800732 ], [ 77.254564, 8.8795939 ], [ 77.2565709, 8.8775668 ], [ 77.2586383, 8.8651758 ], [ 77.2556768, 8.8631517 ], [ 77.2555745, 8.8611226 ], [ 77.2593638, 8.85713 ], [ 77.2615155, 8.8565147 ], [ 77.261714, 8.852605 ], [ 77.2590796, 8.8531742 ], [ 77.2584776, 8.8503304 ], [ 77.2627578, 8.8419922 ], [ 77.2588349, 8.8386211 ], [ 77.2575918, 8.8352175 ], [ 77.2530868, 8.8322602 ], [ 77.2513604, 8.8271161 ], [ 77.2471358, 8.8237176 ], [ 77.2465706, 8.8205149 ], [ 77.2479722, 8.8169215 ], [ 77.2470789, 8.8148363 ], [ 77.2425172, 8.8097936 ], [ 77.2319844, 8.8077263 ], [ 77.2327461, 8.8016356 ], [ 77.2305384, 8.797828 ], [ 77.2312926, 8.7908152 ], [ 77.2297089, 8.7845875 ], [ 77.2242931, 8.7836151 ], [ 77.2199879, 8.778987 ], [ 77.2147095, 8.7797316 ], [ 77.2130654, 8.7786159 ], [ 77.2145122, 8.7748914 ], [ 77.2184306, 8.7709918 ], [ 77.2179536, 8.7682363 ], [ 77.2093008, 8.7653485 ], [ 77.2049593, 8.7691273 ], [ 77.1996675, 8.7697622 ], [ 77.1997235, 8.771788 ], [ 77.1915508, 8.7726543 ], [ 77.1838798, 8.7784502 ], [ 77.1750632, 8.782776 ], [ 77.1686184, 8.7884458 ], [ 77.1599175, 8.7920975 ], [ 77.1564731, 8.7966958 ], [ 77.1550275, 8.7965554 ], [ 77.1546345, 8.7943735 ], [ 77.1516464, 8.7966516 ], [ 77.1511178, 8.7991482 ], [ 77.1470824, 8.800756 ], [ 77.1451651, 8.8039438 ], [ 77.1406872, 8.8065383 ], [ 77.1369312, 8.8058896 ], [ 77.1275009, 8.8105327 ], [ 77.1208851, 8.8202251 ], [ 77.1188409, 8.8221251 ], [ 77.1128258, 8.822997 ], [ 77.1104641, 8.8266155 ], [ 77.1078464, 8.8267317 ], [ 77.1072344, 8.8303495 ], [ 77.1029807, 8.8290285 ], [ 77.0996374, 8.829671 ], [ 77.0882926, 8.8343278 ], [ 77.0830723, 8.839794 ], [ 77.0724678, 8.8412842 ], [ 77.0685752, 8.8406217 ], [ 77.0501648, 8.8464544 ], [ 77.032596, 8.8428053 ], [ 77.029064, 8.8344482 ], [ 77.0249762, 8.8338219 ], [ 77.0201071, 8.8283973 ], [ 77.019585, 8.8219259 ], [ 77.0209157, 8.8165705 ], [ 77.0152694, 8.8177337 ], [ 77.0113242, 8.8159723 ], [ 77.0086693, 8.8123588 ], [ 77.0111378, 8.8075472 ], [ 77.0099738, 8.8022572 ], [ 77.0114534, 8.799835 ], [ 77.0115646, 8.7955314 ], [ 77.0153782, 8.7924023 ], [ 77.0160408, 8.7886896 ], [ 77.0200102, 8.7843215 ], [ 77.0249395, 8.7754081 ], [ 77.0151096, 8.7719764 ], [ 77.0027561, 8.7713311 ], [ 77.0010095, 8.7724973 ], [ 76.997734, 8.7831963 ], [ 76.9961292, 8.7846831 ], [ 76.9914021, 8.7878867 ], [ 76.9813274, 8.7899559 ], [ 76.9781147, 8.788364 ], [ 76.9748325, 8.7844804 ], [ 76.9727912, 8.7753684 ], [ 76.9635822, 8.7711021 ], [ 76.9503931, 8.772437 ], [ 76.9493354, 8.7711107 ], [ 76.9464817, 8.7711946 ], [ 76.9419238, 8.7658087 ], [ 76.9335739, 8.7613677 ], [ 76.9297822, 8.7662091 ], [ 76.9151679, 8.7767644 ], [ 76.9151139, 8.7818029 ], [ 76.9172797, 8.7845737 ], [ 76.921343, 8.7864889 ], [ 76.9168555, 8.7938598 ], [ 76.9149377, 8.794077 ], [ 76.9124112, 8.7991903 ], [ 76.9073666, 8.8013064 ], [ 76.906935, 8.8048734 ], [ 76.9031311, 8.8066005 ], [ 76.9000953, 8.811542 ], [ 76.8932688, 8.8100729 ], [ 76.8903556, 8.8114564 ], [ 76.8827837, 8.805507 ], [ 76.8763117, 8.8101588 ], [ 76.8702657, 8.8111108 ], [ 76.8625086, 8.8144757 ], [ 76.8571179, 8.8186119 ], [ 76.8554228, 8.8159852 ], [ 76.8510367, 8.8190274 ], [ 76.8518454, 8.8221739 ], [ 76.8488681, 8.8248636 ], [ 76.8495589, 8.826125 ], [ 76.8458544, 8.8277521 ], [ 76.8481218, 8.83452 ], [ 76.8404899, 8.8384026 ], [ 76.8393623, 8.8407171 ], [ 76.8330623, 8.8433882 ], [ 76.8292985, 8.8447258 ], [ 76.827208, 8.8425102 ], [ 76.8257444, 8.8429485 ], [ 76.8238167, 8.8450821 ], [ 76.8246483, 8.8467505 ], [ 76.8238931, 8.8511807 ], [ 76.821847, 8.8547337 ], [ 76.8203381, 8.8540057 ], [ 76.8166507, 8.8594843 ], [ 76.815787, 8.8596242 ], [ 76.8148103, 8.8564821 ], [ 76.8112924, 8.8549218 ], [ 76.806751, 8.8573575 ], [ 76.8069288, 8.8549163 ], [ 76.8015392, 8.8487487 ], [ 76.7943238, 8.8565772 ], [ 76.7931288, 8.8543797 ], [ 76.7895473, 8.8534928 ], [ 76.7847232, 8.858496 ], [ 76.7827493, 8.8625914 ], [ 76.7807224, 8.8609408 ], [ 76.7821612, 8.8524873 ], [ 76.7754137, 8.8439138 ], [ 76.781773, 8.8426542 ], [ 76.7813783, 8.8399507 ], [ 76.7838149, 8.8388438 ], [ 76.7851429, 8.8357971 ], [ 76.7886429, 8.8350249 ], [ 76.7906893, 8.8312189 ], [ 76.7944216, 8.8280507 ], [ 76.7913324, 8.8220282 ], [ 76.7872781, 8.8226646 ], [ 76.7830339, 8.819431 ], [ 76.7888743, 8.819098 ], [ 76.7898208, 8.8148487 ], [ 76.7923978, 8.8148358 ], [ 76.7926298, 8.8135338 ], [ 76.7771281, 8.8097005 ], [ 76.7711557, 8.8112043 ], [ 76.7718844, 8.8060643 ], [ 76.7682992, 8.803961 ], [ 76.7709591, 8.799875 ], [ 76.7688234, 8.7987214 ], [ 76.7613376, 8.8003014 ], [ 76.7617489, 8.7936197 ], [ 76.7604998, 8.7913724 ], [ 76.7584216, 8.7954179 ], [ 76.7405803, 8.7960101 ], [ 76.738544, 8.7982065 ], [ 76.7281443, 8.7999397 ], [ 76.7236198, 8.8033974 ], [ 76.7209069, 8.8035699 ], [ 76.7139624, 8.7963501 ], [ 76.7093609, 8.7952421 ], [ 76.7096577, 8.7911007 ], [ 76.7047499, 8.791354 ], [ 76.7036939, 8.7929245 ], [ 76.7010543, 8.7909403 ], [ 76.6926978, 8.7915658 ], [ 76.6898884, 8.7787461 ], [ 76.6848996, 8.7793563 ], [ 76.6839857, 8.7765462 ], [ 76.6819807, 8.776048 ], [ 76.6819941, 8.778471 ], [ 76.6777532, 8.788148 ], [ 76.676571, 8.7878427 ], [ 76.6748203, 8.7821454 ], [ 76.6729271, 8.7816646 ], [ 76.6506162, 8.8087501 ], [ 76.6445855, 8.8196549 ], [ 76.6325989, 8.8351128 ], [ 76.6101213, 8.8594341 ], [ 76.5935478, 8.8735014 ], [ 76.581712, 8.8801379 ], [ 76.570934, 8.8831333 ], [ 76.5658556, 8.8796555 ], [ 76.5600242, 8.8893971 ], [ 76.5558644, 8.8921789 ], [ 76.5467305, 8.9039051 ], [ 76.5423342, 8.9131245 ], [ 76.5402153, 8.9317481 ], [ 76.5395368, 8.9301341 ], [ 76.5383867, 8.9327849 ], [ 76.5353807, 8.9337168 ], [ 76.5417575, 8.9338823 ], [ 76.5420812, 8.9360144 ], [ 76.5403944, 8.9361418 ], [ 76.541652, 8.9380341 ], [ 76.5398438, 8.9389001 ], [ 76.5354977, 8.9360357 ], [ 76.5372597, 8.9377827 ], [ 76.5343773, 8.9504852 ], [ 76.5268077, 8.9701922 ], [ 76.5212004, 8.9986483 ], [ 76.5198833, 8.9999933 ], [ 76.5158164, 9.0160194 ], [ 76.5016488, 9.0496772 ], [ 76.4991317, 9.0582225 ], [ 76.4629065, 9.1341904 ], [ 76.4644732, 9.1356124 ], [ 76.4663545, 9.1304656 ], [ 76.4703224, 9.1314687 ], [ 76.4732317, 9.1299551 ], [ 76.4732828, 9.1272743 ], [ 76.478879, 9.1281034 ], [ 76.4850766, 9.1261379 ], [ 76.4982442, 9.1252073 ], [ 76.5064941, 9.1256092 ], [ 76.5030703, 9.1349653 ], [ 76.5085686, 9.1367046 ], [ 76.5160612, 9.1375513 ], [ 76.5285807, 9.1348845 ], [ 76.5416138, 9.1350781 ], [ 76.5411813, 9.1287273 ], [ 76.5428548, 9.1283587 ], [ 76.5435604, 9.1256724 ], [ 76.5464221, 9.1259982 ], [ 76.5512342, 9.1107207 ], [ 76.5578755, 9.1097954 ], [ 76.5685621, 9.1118003 ], [ 76.5724866, 9.1164396 ], [ 76.5748704, 9.1171988 ], [ 76.5762947, 9.1175129 ], [ 76.5795161, 9.1152024 ], [ 76.5808016, 9.1169363 ], [ 76.5847904, 9.1166813 ], [ 76.5837638, 9.1204577 ], [ 76.5884307, 9.1231761 ], [ 76.5887874, 9.1278939 ], [ 76.5874362, 9.1289561 ], [ 76.5912614, 9.131624 ], [ 76.5987306, 9.1326692 ], [ 76.6033527, 9.1302373 ], [ 76.6145793, 9.1310112 ], [ 76.6237518, 9.1388179 ], [ 76.626388, 9.13721 ], [ 76.6327884, 9.1381369 ], [ 76.6352948, 9.1408359 ], [ 76.6361956, 9.1397825 ], [ 76.6363552, 9.1291727 ], [ 76.6330715, 9.1184767 ], [ 76.638125, 9.122279 ], [ 76.644548, 9.1223157 ], [ 76.6454759, 9.1218321 ], [ 76.6448801, 9.1200012 ], [ 76.6473137, 9.1187764 ], [ 76.6473774, 9.1166924 ], [ 76.6516669, 9.116869 ], [ 76.6567569, 9.1136597 ], [ 76.661242, 9.1160422 ], [ 76.6645307, 9.1141663 ], [ 76.6658272, 9.1159248 ], [ 76.6693571, 9.1168606 ], [ 76.6722207, 9.1137479 ], [ 76.6744746, 9.1026778 ], [ 76.6757577, 9.102915 ], [ 76.6758501, 9.101206 ], [ 76.6744713, 9.1009192 ], [ 76.6773611, 9.0919523 ], [ 76.6749455, 9.0852483 ], [ 76.6717205, 9.0824004 ], [ 76.674231, 9.0790642 ], [ 76.6786746, 9.0780606 ], [ 76.6786703, 9.0817313 ], [ 76.6838736, 9.0809085 ], [ 76.6861848, 9.0886928 ], [ 76.6902287, 9.0915587 ], [ 76.6931986, 9.089782 ], [ 76.7012765, 9.088909 ], [ 76.7047012, 9.0868745 ], [ 76.7102093, 9.0870006 ], [ 76.7122647, 9.0843061 ], [ 76.7148074, 9.0851286 ], [ 76.722689, 9.0816829 ], [ 76.7270832, 9.0841596 ], [ 76.7333957, 9.0810937 ], [ 76.7354844, 9.0856772 ], [ 76.737172, 9.0862962 ], [ 76.7449754, 9.0800881 ], [ 76.7502942, 9.0837505 ], [ 76.7542177, 9.0884219 ], [ 76.7559462, 9.0882507 ], [ 76.7577663, 9.085887 ], [ 76.7577387, 9.0739566 ], [ 76.7593448, 9.0721217 ], [ 76.7653429, 9.0748814 ], [ 76.771433, 9.074802 ], [ 76.7701494, 9.0778621 ], [ 76.7704523, 9.0837076 ], [ 76.7656185, 9.0945243 ], [ 76.7696145, 9.1011259 ], [ 76.7734989, 9.1011587 ], [ 76.7732932, 9.1043232 ], [ 76.7764314, 9.1055945 ], [ 76.7766623, 9.1090258 ], [ 76.7810835, 9.1095379 ], [ 76.7833383, 9.1141046 ], [ 76.786627, 9.1140422 ], [ 76.7932921, 9.1090756 ], [ 76.7967442, 9.110505 ], [ 76.7993782, 9.1090951 ], [ 76.809267, 9.1084282 ], [ 76.8151721, 9.1036825 ], [ 76.8196127, 9.0967982 ], [ 76.8222192, 9.0955781 ], [ 76.8226926, 9.0933765 ], [ 76.8277006, 9.0924415 ], [ 76.8284645, 9.0938838 ], [ 76.8329401, 9.0942913 ], [ 76.8421146, 9.0920728 ], [ 76.8456302, 9.0947901 ], [ 76.8462984, 9.0988047 ], [ 76.8519112, 9.0995511 ], [ 76.8495502, 9.1023448 ], [ 76.8517197, 9.1050167 ], [ 76.8508868, 9.1103828 ], [ 76.8518691, 9.1127337 ], [ 76.8524832, 9.1121144 ], [ 76.8550803, 9.1142982 ], [ 76.8563856, 9.1169701 ], [ 76.8659789, 9.1157953 ], [ 76.8671159, 9.1207772 ], [ 76.8739661, 9.127414 ], [ 76.8755991, 9.1308905 ], [ 76.8847333, 9.1247333 ], [ 76.88396, 9.121953 ], [ 76.8925936, 9.1227621 ], [ 76.8969561, 9.127215 ], [ 76.8981571, 9.1304202 ], [ 76.9021735, 9.1254155 ], [ 76.9101522, 9.1257495 ], [ 76.923853, 9.1225928 ], [ 76.9250762, 9.1187319 ], [ 76.9380217, 9.1172384 ], [ 76.9438534, 9.1186027 ], [ 76.9482655, 9.1172367 ], [ 76.9556858, 9.1239532 ], [ 76.9564732, 9.1264937 ], [ 76.9596669, 9.1279759 ], [ 76.9601586, 9.1299559 ], [ 76.9489002, 9.1309797 ], [ 76.9456348, 9.1352886 ], [ 76.9406088, 9.1386077 ], [ 76.936305, 9.1357873 ], [ 76.9328071, 9.1377905 ], [ 76.9263977, 9.1386322 ], [ 76.9273584, 9.1462903 ], [ 76.9262448, 9.15436 ], [ 76.9281755, 9.1687991 ], [ 76.9303326, 9.1737942 ], [ 76.935432, 9.1700684 ], [ 76.9394671, 9.1689783 ], [ 76.949365, 9.160107 ], [ 76.9634477, 9.1520436 ] ] ] } }
]
}
