{
"type": "FeatureCollection",
"name": "3214",
"crs": { "type": "name", "properties": { "name": "urn:ogc:def:crs:OGC:1.3:CRS84" } },
"features": [
{ "type": "Feature", "properties": { "code": "3214", "name": "Thiruvananthapuram", "type": "district" }, "geometry": { "type": "Polygon", "coordinates": [ [ [ 76.7895473, 8.8534928 ], [ 76.7931288, 8.8543797 ], [ 76.7943238, 8.8565772 ], [ 76.8002891, 8.8494175 ], [ 76.8020392, 8.8488619 ], [ 76.8069288, 8.8549163 ], [ 76.806751, 8.8573575 ], [ 76.8101605, 8.8549261 ], [ 76.8129469, 8.8553063 ], [ 76.8148103, 8.8564821 ], [ 76.8162006, 8.8597554 ], [ 76.8203381, 8.8540057 ], [ 76.821847, 8.8547337 ], [ 76.8238931, 8.8511807 ], [ 76.8246483, 8.8467505 ], [ 76.8238167, 8.8450821 ], [ 76.8257444, 8.8429485 ], [ 76.827208, 8.8425102 ], [ 76.8292985, 8.8447258 ], [ 76.8330623, 8.8433882 ], [ 76.8393623, 8.8407171 ], [ 76.8404899, 8.8384026 ], [ 76.8481218, 8.83452 ], [ 76.8458544, 8.8277521 ], [ 76.8495589, 8.826125 ], [ 76.8488681, 8.8248636 ], [ 76.8518454, 8.8221739 ], [ 76.8510367, 8.8190274 ], [ 76.8554228, 8.8159852 ], [ 76.8571179, 8.8186119 ], [ 76.8625086, 8.8144757 ], [ 76.8702657, 8.8111108 ], [ 76.8763117, 8.8101588 ], [ 76.8827837, 8.805507 ], [ 76.8903556, 8.8114564 ], [ 76.8932688, 8.8100729 ], [ 76.9000953, 8.811542 ], [ 76.9031311, 8.8066005 ], [ 76.906935, 8.8048734 ], [ 76.9073666, 8.8013064 ], [ 76.9124112, 8.7991903 ], [ 76.9149377, 8.794077 ], [ 76.9168555, 8.7938598 ], [ 76.921343, 8.7864889 ], [ 76.9172797, 8.7845737 ], [ 76.9151139, 8.7818029 ], [ 76.9151679, 8.7767644 ], [ 76.9297822, 8.7662091 ], [ 76.9335739, 8.7613677 ], [ 76.9419238, 8.7658087 ], [ 76.9464817, 8.7711946 ], [ 76.9493354, 8.7711107 ], [ 76.9503931, 8.772437 ], [ 76.9635822, 8.7711021 ], [ 76.9727912, 8.7753684 ], [ 76.9748325, 8.7844804 ], [ 76.9781147, 8.788364 ], [ 76.9813274, 8.7899559 ], [ 76.9914021, 8.7878867 ], [ 76.9961292, 8.7846831 ], [ 76.997734, 8.7831963 ], [ 77.0010095, 8.7724973 ], [ 77.0027561, 8.7713311 ], [ 77.0151096, 8.7719764 ], [ 77.0249395, 8.7754081 ], [ 77.0200102, 8.7843215 ], [ 77.0160408, 8.7886896 ], [ 77.0153782, 8.7924023 ], [ 77.0115646, 8.7955314 ], [ 77.0114534, 8.799835 ], [ 77.0099738, 8.8022572 ], [ 77.0111378, 8.8075472 ], [ 77.0086693, 8.8123588 ], [ 77.0113242, 8.8159723 ], [ 77.0152694, 8.8177337 ], [ 77.0209157, 8.8165705 ], [ 77.019585, 8.8219259 ], [ 77.0201071, 8.8283973 ], [ 77.0249762, 8.8338219 ], [ 77.029064, 8.8344482 ], [ 77.032596, 8.8428053 ], [ 77.0501648, 8.8464544 ], [ 77.0685752, 8.8406217 ], [ 77.0724678, 8.8412842 ], [ 77.0830723, 8.839794 ], [ 77.0882926, 8.8343278 ], [ 77.0996374, 8.829671 ], [ 77.1029807, 8.8290285 ], [ 77.1072344, 8.8303495 ], [ 77.1078464, 8.8267317 ], [ 77.1104641, 8.8266155 ], [ 77.1128258, 8.822997 ], [ 77.1188409, 8.8221251 ], [ 77.1208851, 8.8202251 ], [ 77.1275009, 8.8105327 ], [ 77.1369312, 8.8058896 ], [ 77.1406872, 8.8065383 ], [ 77.1451651, 8.8039438 ], [ 77.1470824, 8.800756 ], [ 77.1511178, 8.7991482 ], [ 77.1516464, 8.7966516 ], [ 77.1546345, 8.7943735 ], [ 77.1550275, 8.7965554 ], [ 77.1564731, 8.7966958 ], [ 77.1599175, 8.7920975 ], [ 77.1686184, 8.7884458 ], [ 77.1750632, 8.782776 ], [ 77.1838798, 8.7784502 ], [ 77.1915508, 8.7726543 ], [ 77.1997235, 8.771788 ], [ 77.1996675, 8.7697622 ], [ 77.1969493, 8.7682396 ], [ 77.2001399, 8.7626655 ], [ 77.1983337, 8.7534325 ], [ 77.1924639, 8.744441 ], [ 77.1826691, 8.7427799 ], [ 77.1770288, 8.7454381 ], [ 77.1716253, 8.7505806 ], [ 77.1697672, 8.7474275 ], [ 77.1700119, 8.7417947 ], [ 77.1791052, 8.730584 ], [ 77.1767673, 8.7261276 ], [ 77.1806219, 8.7210572 ], [ 77.1807878, 8.7183219 ], [ 77.1842971, 8.7163946 ], [ 77.1847208, 8.7134681 ], [ 77.1899835, 8.7123623 ], [ 77.1950306, 8.7077596 ], [ 77.1956104, 8.7021328 ], [ 77.2015541, 8.6930653 ], [ 77.2026131, 8.6892764 ], [ 77.2067167, 8.6841955 ], [ 77.2072561, 8.6806771 ], [ 77.2006927, 8.6690764 ], [ 77.2083617, 8.663644 ], [ 77.2077799, 8.6608283 ], [ 77.2121142, 8.6571923 ], [ 77.2116963, 8.6547964 ], [ 77.2142655, 8.6491398 ], [ 77.220145, 8.6449345 ], [ 77.2248323, 8.6390818 ], [ 77.2288509, 8.6402743 ], [ 77.2293123, 8.6374214 ], [ 77.2321707, 8.6356272 ], [ 77.2346533, 8.6268497 ], [ 77.2440842, 8.6218208 ], [ 77.2457331, 8.6162904 ], [ 77.2461586, 8.6047224 ], [ 77.2452383, 8.6034352 ], [ 77.2481004, 8.6022916 ], [ 77.2507588, 8.5987315 ], [ 77.2551736, 8.5973861 ], [ 77.2569015, 8.5947186 ], [ 77.2569924, 8.5908632 ], [ 77.2586355, 8.5892221 ], [ 77.2616976, 8.5879703 ], [ 77.2632147, 8.5888292 ], [ 77.2664259, 8.5851407 ], [ 77.2664909, 8.5807748 ], [ 77.2690497, 8.5788887 ], [ 77.2706551, 8.571653 ], [ 77.2750419, 8.5656438 ], [ 77.274298, 8.559642 ], [ 77.2823572, 8.5504883 ], [ 77.2838468, 8.5467286 ], [ 77.2746539, 8.5376264 ], [ 77.2742631, 8.5337195 ], [ 77.2718173, 8.5308595 ], [ 77.2669179, 8.5198745 ], [ 77.265337, 8.5119568 ], [ 77.2617076, 8.5061524 ], [ 77.2573774, 8.5070451 ], [ 77.2561499, 8.5051812 ], [ 77.2512984, 8.5054171 ], [ 77.246299, 8.5023541 ], [ 77.2442393, 8.4975589 ], [ 77.2401242, 8.4970537 ], [ 77.2296624, 8.5089806 ], [ 77.2222563, 8.5124408 ], [ 77.214309, 8.5128133 ], [ 77.2104114, 8.5070092 ], [ 77.2023841, 8.5011904 ], [ 77.2046844, 8.498719 ], [ 77.2041254, 8.4964496 ], [ 77.2118763, 8.4920673 ], [ 77.213814, 8.4855387 ], [ 77.211743, 8.4839659 ], [ 77.2113924, 8.4788799 ], [ 77.2133488, 8.4752944 ], [ 77.2140742, 8.4697154 ], [ 77.2209254, 8.4657989 ], [ 77.227417, 8.458478 ], [ 77.2273022, 8.4529309 ], [ 77.2290135, 8.4506067 ], [ 77.2281, 8.4472524 ], [ 77.2166166, 8.4459665 ], [ 77.2151679, 8.444719 ], [ 77.2113449, 8.4455426 ], [ 77.2065999, 8.4447026 ], [ 77.202916, 8.4363259 ], [ 77.2038058, 8.4352588 ], [ 77.2027115, 8.435467 ], [ 77.200636, 8.4320405 ], [ 77.1965628, 8.4291568 ], [ 77.1975193, 8.419943 ], [ 77.1860035, 8.4068248 ], [ 77.1826073, 8.4047547 ], [ 77.1828789, 8.3981359 ], [ 77.181671, 8.3957943 ], [ 77.1705245, 8.3873639 ], [ 77.1681862, 8.3838739 ], [ 77.1659438, 8.3878706 ], [ 77.1609501, 8.3901721 ], [ 77.1537315, 8.3877448 ], [ 77.1511073, 8.3844717 ], [ 77.1519516, 8.3817591 ], [ 77.1553201, 8.3810989 ], [ 77.155924, 8.3826496 ], [ 77.1599586, 8.3812438 ], [ 77.161294, 8.373978 ], [ 77.1603358, 8.3687021 ], [ 77.1569355, 8.3674094 ], [ 77.1558912, 8.3633858 ], [ 77.153535, 8.3613062 ], [ 77.1530172, 8.3551442 ], [ 77.1563992, 8.3567309 ], [ 77.1574117, 8.3599407 ], [ 77.1594909, 8.359163 ], [ 77.1633587, 8.3617668 ], [ 77.1665998, 8.3602475 ], [ 77.1675353, 8.3634257 ], [ 77.1696461, 8.3634662 ], [ 77.1707172, 8.3602969 ], [ 77.1742935, 8.3586329 ], [ 77.1754736, 8.3498621 ], [ 77.1709975, 8.3477331 ], [ 77.1669434, 8.3427468 ], [ 77.1699662, 8.3380719 ], [ 77.1697481, 8.3347445 ], [ 77.1806138, 8.3235179 ], [ 77.1781584, 8.3232605 ], [ 77.1785437, 8.3220488 ], [ 77.1733235, 8.3197617 ], [ 77.172162, 8.3246851 ], [ 77.1699347, 8.3254939 ], [ 77.1705191, 8.3284558 ], [ 77.169294, 8.3329453 ], [ 77.1597613, 8.3289765 ], [ 77.1536016, 8.3279958 ], [ 77.1505694, 8.3292121 ], [ 77.1500111, 8.3315359 ], [ 77.148427, 8.331988 ], [ 77.1452631, 8.3295604 ], [ 77.1397933, 8.3298679 ], [ 77.1384179, 8.3275306 ], [ 77.1291943, 8.3259844 ], [ 77.1295939, 8.3219607 ], [ 77.1192083, 8.3210562 ], [ 77.1189861, 8.3167794 ], [ 77.1207428, 8.3141889 ], [ 77.1244785, 8.3120687 ], [ 77.1227765, 8.3090125 ], [ 77.1166442, 8.3103143 ], [ 77.1145246, 8.3084244 ], [ 77.1130769, 8.3042425 ], [ 77.1055285, 8.3069229 ], [ 77.1017567, 8.3064705 ], [ 77.1016346, 8.3009097 ], [ 77.098857, 8.2989609 ], [ 77.095982, 8.2930182 ], [ 77.059959, 8.3204976 ], [ 77.0284598, 8.3471758 ], [ 77.0165298, 8.3546612 ], [ 77.0152024, 8.3541146 ], [ 77.0127615, 8.3557569 ], [ 77.0113441, 8.3547306 ], [ 77.0093601, 8.3567919 ], [ 77.0074023, 8.3624229 ], [ 77.005159, 8.3636984 ], [ 76.9975767, 8.3740637 ], [ 76.9920009, 8.3775231 ], [ 76.9863847, 8.3754893 ], [ 76.9841009, 8.3797114 ], [ 76.9790981, 8.3818492 ], [ 76.9791463, 8.3841064 ], [ 76.9756054, 8.3857408 ], [ 76.9750738, 8.3884906 ], [ 76.9714068, 8.3915822 ], [ 76.9708923, 8.3946844 ], [ 76.9722217, 8.3943784 ], [ 76.9722554, 8.3973136 ], [ 76.9670476, 8.408744 ], [ 76.9549218, 8.4265967 ], [ 76.8949143, 8.4966928 ], [ 76.7580189, 8.6685433 ], [ 76.7035253, 8.7339002 ], [ 76.6986979, 8.7379504 ], [ 76.6908708, 8.7541797 ], [ 76.6729271, 8.7816646 ], [ 76.6761279, 8.7840145 ], [ 76.6770086, 8.7885472 ], [ 76.6819941, 8.778471 ], [ 76.6817449, 8.7763603 ], [ 76.6836671, 8.7763162 ], [ 76.6844677, 8.779208 ], [ 76.6898884, 8.7787461 ], [ 76.6926978, 8.7915658 ], [ 76.7010543, 8.7909403 ], [ 76.7036939, 8.7929245 ], [ 76.7047499, 8.791354 ], [ 76.7096577, 8.7911007 ], [ 76.7093609, 8.7952421 ], [ 76.7139624, 8.7963501 ], [ 76.7218526, 8.8037941 ], [ 76.7281443, 8.7999397 ], [ 76.738544, 8.7982065 ], [ 76.7405803, 8.7960101 ], [ 76.7584216, 8.7954179 ], [ 76.7604998, 8.7913724 ], [ 76.7617489, 8.7936197 ], [ 76.7613376, 8.8003014 ], [ 76.7688234, 8.7987214 ], [ 76.7709591, 8.799875 ], [ 76.7682992, 8.803961 ], [ 76.7718844, 8.8060643 ], [ 76.7711557, 8.8112043 ], [ 76.7771281, 8.8097005 ], [ 76.7926298, 8.8135338 ], [ 76.7923978, 8.8148358 ], [ 76.7898208, 8.8148487 ], [ 76.7888743, 8.819098 ], [ 76.7830339, 8.819431 ], [ 76.7872781, 8.8226646 ], [ 76.7913324, 8.8220282 ], [ 76.7944216, 8.8280507 ], [ 76.7906893, 8.8312189 ], [ 76.7886429, 8.8350249 ], [ 76.7851429, 8.8357971 ], [ 76.7838149, 8.8388438 ], [ 76.7813783, 8.8399507 ], [ 76.781773, 8.8426542 ], [ 76.7754137, 8.8439138 ], [ 76.7821612, 8.8524873 ], [ 76.7813132, 8.8617637 ], [ 76.7834039, 8.8623655 ], [ 76.7847232, 8.858496 ], [ 76.7895473, 8.8534928 ] ] ] } }
]
}
