{
"type": "FeatureCollection",
"name": "3304",
"crs": { "type": "name", "properties": { "name": "urn:ogc:def:crs:OGC:1.3:CRS84" } },
"features": [
{ "type": "Feature", "properties": { "code": "3304", "name": "Vellore", "type": "district" }, "geometry": { "type": "MultiPolygon", "coordinates": [ [ [ [ 78.5212096, 12.7353807 ], [ 78.5228187, 12.7191512 ], [ 78.5205034, 12.7180926 ], [ 78.5180119, 12.7200621 ], [ 78.5166911, 12.718656 ], [ 78.5139052, 12.7201055 ], [ 78.5092717, 12.7242345 ], [ 78.5116968, 12.7267349 ], [ 78.5180282, 12.7247672 ], [ 78.5191696, 12.7362839 ], [ 78.5212096, 12.7353807 ] ] ], [ [ [ 79.2420651, 13.16252 ], [ 79.240972, 13.1624166 ], [ 79.2411137, 13.1596144 ], [ 79.2431241, 13.1585831 ], [ 79.2442052, 13.1527389 ], [ 79.2422769, 13.151551 ], [ 79.2420823, 13.1496303 ], [ 79.2434659, 13.1497698 ], [ 79.2433928, 13.1511484 ], [ 79.2449597, 13.14882 ], [ 79.2424367, 13.1479534 ], [ 79.2401846, 13.1443659 ], [ 79.2452731, 13.1382758 ], [ 79.2540922, 13.146132 ], [ 79.2547041, 13.1491875 ], [ 79.2520766, 13.1555994 ], [ 79.2532733, 13.1602551 ], [ 79.2574561, 13.1607363 ], [ 79.2592788, 13.1588705 ], [ 79.2603668, 13.1595626 ], [ 79.2602736, 13.1521414 ], [ 79.2616712, 13.1518709 ], [ 79.2620875, 13.1490418 ], [ 79.2673954, 13.149668 ], [ 79.2697548, 13.1537502 ], [ 79.2773587, 13.1562165 ], [ 79.280547, 13.1525615 ], [ 79.2798661, 13.1486111 ], [ 79.280384, 13.1450499 ], [ 79.2824604, 13.1425197 ], [ 79.2840176, 13.1227699 ], [ 79.2865233, 13.1182829 ], [ 79.2887722, 13.1093711 ], [ 79.2933815, 13.1014138 ], [ 79.2724543, 13.08702 ], [ 79.2905479, 13.0576452 ], [ 79.2945438, 13.0471882 ], [ 79.29207, 13.0427943 ], [ 79.28483, 13.0377163 ], [ 79.2780985, 13.007333 ], [ 79.2752704, 13.0027851 ], [ 79.2695377, 12.9975996 ], [ 79.2680051, 12.992772 ], [ 79.2682287, 12.9876198 ], [ 79.2659797, 12.9874154 ], [ 79.2700999, 12.9665863 ], [ 79.2691597, 12.9566698 ], [ 79.2636388, 12.9471401 ], [ 79.2687678, 12.9465322 ], [ 79.2678537, 12.940141 ], [ 79.2621556, 12.946136 ], [ 79.2608434, 12.943731 ], [ 79.2517939, 12.9517942 ], [ 79.2332132, 12.9570324 ], [ 79.2232592, 12.9564305 ], [ 79.2167335, 12.9549503 ], [ 79.2155188, 12.9465487 ], [ 79.2100051, 12.9385146 ], [ 79.20307, 12.9376442 ], [ 79.1943831, 12.9335292 ], [ 79.1881363, 12.925935 ], [ 79.1877081, 12.9203017 ], [ 79.1862469, 12.9178072 ], [ 79.1884442, 12.9153978 ], [ 79.188683, 12.9121526 ], [ 79.1913312, 12.9080708 ], [ 79.1987897, 12.9048465 ], [ 79.2058296, 12.9048536 ], [ 79.2109037, 12.8952117 ], [ 79.2099172, 12.8936889 ], [ 79.2089086, 12.8943761 ], [ 79.2044761, 12.8927142 ], [ 79.1996332, 12.8891495 ], [ 79.1977547, 12.8938504 ], [ 79.1955066, 12.8943753 ], [ 79.1926027, 12.8883468 ], [ 79.1915927, 12.8837143 ], [ 79.1940276, 12.8752439 ], [ 79.1919035, 12.873649 ], [ 79.1889026, 12.8650353 ], [ 79.1840095, 12.8607155 ], [ 79.1819222, 12.8348499 ], [ 79.1778902, 12.825043 ], [ 79.1781978, 12.8200623 ], [ 79.1908382, 12.8099176 ], [ 79.1914678, 12.8042317 ], [ 79.1940372, 12.8028707 ], [ 79.1957123, 12.7976003 ], [ 79.1954945, 12.7924569 ], [ 79.197728, 12.792018 ], [ 79.1980037, 12.7900925 ], [ 79.2047512, 12.7886475 ], [ 79.2086815, 12.7847293 ], [ 79.2100592, 12.7725167 ], [ 79.2131431, 12.7683983 ], [ 79.2120743, 12.7668394 ], [ 79.2138959, 12.760805 ], [ 79.2061716, 12.7459085 ], [ 79.2075904, 12.7419425 ], [ 79.1973649, 12.7479605 ], [ 79.1890567, 12.7482791 ], [ 79.1878833, 12.7460342 ], [ 79.1772644, 12.7437125 ], [ 79.1758864, 12.7445953 ], [ 79.1758985, 12.7425627 ], [ 79.1739971, 12.7415012 ], [ 79.1722788, 12.7448028 ], [ 79.1733737, 12.7484634 ], [ 79.1712544, 12.7487937 ], [ 79.1730652, 12.7525526 ], [ 79.171072, 12.755432 ], [ 79.1717082, 12.7604985 ], [ 79.1686553, 12.7610503 ], [ 79.1690933, 12.7643496 ], [ 79.1629693, 12.7663662 ], [ 79.1611328, 12.7728974 ], [ 79.1599862, 12.7729156 ], [ 79.1588761, 12.7697474 ], [ 79.1601974, 12.76718 ], [ 79.1591013, 12.7660096 ], [ 79.1604963, 12.7640569 ], [ 79.1598285, 12.7627417 ], [ 79.1612051, 12.7612953 ], [ 79.1595426, 12.7589091 ], [ 79.1606381, 12.7555599 ], [ 79.1592241, 12.7527669 ], [ 79.1569128, 12.7541773 ], [ 79.1499048, 12.7532559 ], [ 79.14228, 12.7598053 ], [ 79.1371919, 12.7596247 ], [ 79.1320439, 12.7624043 ], [ 79.1249021, 12.7603026 ], [ 79.1196391, 12.7606143 ], [ 79.1189668, 12.7590505 ], [ 79.1063363, 12.7601117 ], [ 79.0949217, 12.7580494 ], [ 79.0897645, 12.7585187 ], [ 79.0887106, 12.7554858 ], [ 79.0853171, 12.755205 ], [ 79.0821603, 12.7501829 ], [ 79.077995, 12.7490563 ], [ 79.0766771, 12.7496925 ], [ 79.0769652, 12.7514611 ], [ 79.0740689, 12.7523283 ], [ 79.0734695, 12.7559033 ], [ 79.0710758, 12.7495425 ], [ 79.0652228, 12.7466221 ], [ 79.0597923, 12.7384327 ], [ 79.0589942, 12.7364933 ], [ 79.0606572, 12.7362386 ], [ 79.0646584, 12.7386921 ], [ 79.0569502, 12.7303361 ], [ 79.0581357, 12.7207874 ], [ 79.0570728, 12.71805 ], [ 79.0511199, 12.7186553 ], [ 79.0426713, 12.7115077 ], [ 79.0406038, 12.7088773 ], [ 79.0408456, 12.7074379 ], [ 79.0334894, 12.6988943 ], [ 79.0298112, 12.6892001 ], [ 79.0275032, 12.6878952 ], [ 79.0249421, 12.689622 ], [ 79.0239421, 12.6890464 ], [ 79.0271169, 12.6824323 ], [ 79.0265564, 12.6797743 ], [ 79.0232404, 12.6736092 ], [ 79.0213035, 12.674468 ], [ 79.0165095, 12.6698473 ], [ 79.0168389, 12.6669679 ], [ 79.0131765, 12.6661465 ], [ 79.0121589, 12.6572673 ], [ 79.0086005, 12.6581148 ], [ 79.0238396, 12.69261 ], [ 79.0066981, 12.7024649 ], [ 79.0012235, 12.7010996 ], [ 78.9952851, 12.7060217 ], [ 78.9926459, 12.7028907 ], [ 78.9940153, 12.6971366 ], [ 78.9869258, 12.697022 ], [ 78.9880794, 12.6926329 ], [ 78.9840802, 12.6838708 ], [ 78.9790336, 12.6800987 ], [ 78.9811348, 12.6738787 ], [ 78.9763317, 12.6680727 ], [ 78.9714797, 12.6668631 ], [ 78.9704673, 12.6676363 ], [ 78.9714952, 12.6713783 ], [ 78.9495959, 12.678648 ], [ 78.9479345, 12.6798552 ], [ 78.9480136, 12.6832179 ], [ 78.9499432, 12.6864038 ], [ 78.9467204, 12.6843254 ], [ 78.9433372, 12.6852438 ], [ 78.9449938, 12.6826943 ], [ 78.9442245, 12.6805973 ], [ 78.9275647, 12.6758776 ], [ 78.9118603, 12.6873013 ], [ 78.9072478, 12.6874147 ], [ 78.9035186, 12.6818422 ], [ 78.8994998, 12.6790313 ], [ 78.8972719, 12.6791354 ], [ 78.8987387, 12.6881749 ], [ 78.8962736, 12.6899376 ], [ 78.8919874, 12.6769797 ], [ 78.8878766, 12.6704308 ], [ 78.8819571, 12.6562841 ], [ 78.8761945, 12.6538344 ], [ 78.8657708, 12.6316556 ], [ 78.8583103, 12.6333591 ], [ 78.8449531, 12.6416151 ], [ 78.8376533, 12.64344 ], [ 78.8142368, 12.6388296 ], [ 78.8086456, 12.6362112 ], [ 78.8357808, 12.6580349 ], [ 78.8399315, 12.6648105 ], [ 78.8414763, 12.6784195 ], [ 78.8564177, 12.6827056 ], [ 78.8538948, 12.6876363 ], [ 78.8500876, 12.6899682 ], [ 78.8448759, 12.6967517 ], [ 78.8464402, 12.7039652 ], [ 78.853676, 12.7166074 ], [ 78.8536481, 12.7203723 ], [ 78.8512442, 12.7278793 ], [ 78.848813, 12.7305502 ], [ 78.8472242, 12.73734 ], [ 78.8489115, 12.7564862 ], [ 78.8508408, 12.7592098 ], [ 78.8506138, 12.7630683 ], [ 78.8610545, 12.7726011 ], [ 78.8610545, 12.7749843 ], [ 78.8685446, 12.7756652 ], [ 78.8718084, 12.7744214 ], [ 78.8728718, 12.7797617 ], [ 78.8752618, 12.7824239 ], [ 78.8725446, 12.7883446 ], [ 78.8780789, 12.7904524 ], [ 78.8768072, 12.7923607 ], [ 78.8779693, 12.7933299 ], [ 78.8795167, 12.8030292 ], [ 78.8838043, 12.8076031 ], [ 78.8846933, 12.8105227 ], [ 78.8842097, 12.8123803 ], [ 78.877467, 12.8154989 ], [ 78.8776973, 12.8181926 ], [ 78.8742568, 12.8201586 ], [ 78.8690523, 12.820859 ], [ 78.8653403, 12.8185945 ], [ 78.8649943, 12.8262462 ], [ 78.8749105, 12.8359865 ], [ 78.8781346, 12.8325923 ], [ 78.8809674, 12.832068 ], [ 78.8912753, 12.8314261 ], [ 78.8975488, 12.8341963 ], [ 78.8982778, 12.8376284 ], [ 78.896462, 12.8374014 ], [ 78.8957811, 12.8398981 ], [ 78.8930574, 12.8406925 ], [ 78.8930525, 12.8424801 ], [ 78.8814694, 12.8403481 ], [ 78.8788439, 12.8421604 ], [ 78.8775173, 12.8416362 ], [ 78.8770244, 12.8458485 ], [ 78.8809627, 12.8490259 ], [ 78.8800783, 12.8502507 ], [ 78.8768032, 12.8497986 ], [ 78.8762136, 12.8533737 ], [ 78.8779298, 12.855828 ], [ 78.8895858, 12.8568809 ], [ 78.8909446, 12.8541419 ], [ 78.8943165, 12.8566095 ], [ 78.8997291, 12.8568532 ], [ 78.9005442, 12.8548239 ], [ 78.8997058, 12.8533053 ], [ 78.901972, 12.8521978 ], [ 78.9005669, 12.8493687 ], [ 78.9036944, 12.8491831 ], [ 78.9050491, 12.8537388 ], [ 78.9033725, 12.8547378 ], [ 78.9054181, 12.8583127 ], [ 78.9043816, 12.8582901 ], [ 78.9049255, 12.8621905 ], [ 78.9005678, 12.8615898 ], [ 78.9017708, 12.8708505 ], [ 78.90817, 12.8755368 ], [ 78.910769, 12.8827905 ], [ 78.9090736, 12.8824292 ], [ 78.909613, 12.8858459 ], [ 78.9059644, 12.8861175 ], [ 78.9060429, 12.8889151 ], [ 78.9131292, 12.8947311 ], [ 78.913273, 12.9024191 ], [ 78.9178883, 12.9106736 ], [ 78.9077866, 12.9099856 ], [ 78.8999171, 12.9072925 ], [ 78.8959823, 12.9051459 ], [ 78.8962678, 12.9035053 ], [ 78.8874171, 12.8937613 ], [ 78.8759457, 12.8913885 ], [ 78.8624063, 12.8834152 ], [ 78.8453018, 12.8772486 ], [ 78.8427914, 12.8753274 ], [ 78.8392775, 12.8694739 ], [ 78.8304153, 12.8651651 ], [ 78.8241469, 12.8601877 ], [ 78.8127057, 12.8558823 ], [ 78.8108867, 12.8540965 ], [ 78.7996016, 12.8528774 ], [ 78.7940939, 12.8486046 ], [ 78.7825835, 12.8472943 ], [ 78.7759214, 12.839771 ], [ 78.7732203, 12.8335916 ], [ 78.7592721, 12.826806 ], [ 78.7554882, 12.8227998 ], [ 78.7515556, 12.821329 ], [ 78.7491717, 12.8177075 ], [ 78.747604, 12.82155 ], [ 78.7446937, 12.8232556 ], [ 78.7452789, 12.8242543 ], [ 78.7341391, 12.8304431 ], [ 78.7341953, 12.833951 ], [ 78.7373575, 12.84248 ], [ 78.7362166, 12.8472813 ], [ 78.7340744, 12.8480322 ], [ 78.7345454, 12.850478 ], [ 78.7330207, 12.8507137 ], [ 78.7304083, 12.8656505 ], [ 78.7186888, 12.8647009 ], [ 78.7196005, 12.8628924 ], [ 78.7183705, 12.8624995 ], [ 78.720079, 12.8601347 ], [ 78.7170062, 12.8590598 ], [ 78.7201278, 12.8516993 ], [ 78.7162766, 12.8501817 ], [ 78.7151572, 12.850286 ], [ 78.7146234, 12.8528855 ], [ 78.7168673, 12.8552987 ], [ 78.7167617, 12.8569759 ], [ 78.7120682, 12.8598027 ], [ 78.7119851, 12.858754 ], [ 78.6868016, 12.8607224 ], [ 78.653381, 12.8652615 ], [ 78.6447023, 12.8633589 ], [ 78.6318493, 12.8565713 ], [ 78.6029046, 12.8447371 ], [ 78.6015593, 12.8508038 ], [ 78.6130932, 12.8679366 ], [ 78.616685, 12.888579 ], [ 78.6228559, 12.9042475 ], [ 78.6268592, 12.907317 ], [ 78.6334455, 12.9261134 ], [ 78.6335324, 12.9313211 ], [ 78.6522633, 12.9291007 ], [ 78.6570139, 12.9321064 ], [ 78.6461154, 12.9458948 ], [ 78.6380585, 12.9647593 ], [ 78.6471693, 12.9662371 ], [ 78.6400211, 12.9709795 ], [ 78.6208991, 12.9912385 ], [ 78.6300082, 12.9944999 ], [ 78.6346165, 13.0008014 ], [ 78.6375526, 13.001318 ], [ 78.6451291, 13.0062285 ], [ 78.6520844, 13.013591 ], [ 78.6555204, 13.0152481 ], [ 78.6562147, 13.0311694 ], [ 78.6794206, 13.0226892 ], [ 78.7052714, 13.0152386 ], [ 78.7087151, 13.040125 ], [ 78.7145163, 13.0686783 ], [ 78.740289, 13.0639956 ], [ 78.7487575, 13.0585305 ], [ 78.751776, 13.0549418 ], [ 78.794304, 13.0665839 ], [ 78.7976252, 13.0748468 ], [ 78.8131399, 13.0891423 ], [ 78.8207984, 13.0877612 ], [ 78.8420364, 13.0786131 ], [ 78.8611141, 13.0836637 ], [ 78.8708781, 13.0819404 ], [ 78.8698001, 13.0895171 ], [ 78.8750976, 13.0968164 ], [ 78.881419, 13.0981813 ], [ 78.8912123, 13.0971507 ], [ 78.8956893, 13.0951211 ], [ 78.8922356, 13.0894447 ], [ 78.8889523, 13.0733597 ], [ 78.8912896, 13.0688129 ], [ 78.891643, 13.0330584 ], [ 78.9156269, 13.0335625 ], [ 78.9291245, 13.0364936 ], [ 78.9315487, 13.0346853 ], [ 78.9357481, 13.0347884 ], [ 78.937107, 13.0304267 ], [ 78.9402522, 13.0365771 ], [ 78.9337393, 13.0392587 ], [ 78.9289142, 13.0457678 ], [ 78.9217506, 13.047012 ], [ 78.9190903, 13.0438983 ], [ 78.9163521, 13.0438535 ], [ 78.9061184, 13.0451248 ], [ 78.9036754, 13.0477056 ], [ 78.9125978, 13.0659322 ], [ 78.9165721, 13.0673147 ], [ 78.9194899, 13.0648602 ], [ 78.92174, 13.0660937 ], [ 78.9239415, 13.0808091 ], [ 78.9274964, 13.0818299 ], [ 78.9414793, 13.0785187 ], [ 78.9491941, 13.0839945 ], [ 78.9495758, 13.0801708 ], [ 78.9554482, 13.0758394 ], [ 78.9606711, 13.076113 ], [ 78.9621343, 13.0787299 ], [ 78.9643837, 13.0775903 ], [ 78.9687869, 13.0778555 ], [ 78.9702795, 13.0747139 ], [ 78.9714376, 13.0770049 ], [ 78.9701891, 13.0796538 ], [ 78.9723022, 13.0838065 ], [ 78.9825156, 13.0864105 ], [ 78.9950012, 13.0866087 ], [ 79.0039173, 13.0846 ], [ 79.0036875, 13.0832124 ], [ 79.0081702, 13.0807062 ], [ 79.0094951, 13.0772267 ], [ 79.0122244, 13.0773635 ], [ 79.0122619, 13.0762111 ], [ 79.015332, 13.0769447 ], [ 79.0166647, 13.0764119 ], [ 79.0165595, 13.0745453 ], [ 79.0186616, 13.0751292 ], [ 79.0229913, 13.0737933 ], [ 79.0243844, 13.0718731 ], [ 79.0286902, 13.0726206 ], [ 79.0297421, 13.0709849 ], [ 79.0315581, 13.0720341 ], [ 79.0345971, 13.0699789 ], [ 79.0369481, 13.0705944 ], [ 79.036277, 13.0654554 ], [ 79.0386851, 13.0611356 ], [ 79.055578, 13.0566124 ], [ 79.0633976, 13.0531073 ], [ 79.0645233, 13.0500569 ], [ 79.0628663, 13.0406377 ], [ 79.0739407, 13.0328485 ], [ 79.0809073, 13.0257271 ], [ 79.0868162, 13.0280061 ], [ 79.0911403, 13.0260679 ], [ 79.098308, 13.0260644 ], [ 79.0998333, 13.029287 ], [ 79.1059635, 13.0348604 ], [ 79.1074658, 13.0382773 ], [ 79.1144818, 13.0392721 ], [ 79.1275412, 13.0355711 ], [ 79.1373414, 13.0348118 ], [ 79.1483115, 13.0246558 ], [ 79.1595674, 13.020334 ], [ 79.1631211, 13.0202704 ], [ 79.168312, 13.024265 ], [ 79.1710914, 13.0239799 ], [ 79.1718571, 13.027279 ], [ 79.1758258, 13.0270976 ], [ 79.1764208, 13.0288511 ], [ 79.1810662, 13.0297356 ], [ 79.1822017, 13.0318736 ], [ 79.1848334, 13.0298528 ], [ 79.1884962, 13.0419464 ], [ 79.1929965, 13.0466955 ], [ 79.1918905, 13.0483545 ], [ 79.1827074, 13.0473215 ], [ 79.1804397, 13.0488495 ], [ 79.1796617, 13.0544992 ], [ 79.1920999, 13.0561462 ], [ 79.1913445, 13.0585644 ], [ 79.1847424, 13.0568032 ], [ 79.1798789, 13.0575408 ], [ 79.178298, 13.0591862 ], [ 79.1800739, 13.0643111 ], [ 79.1873157, 13.0606578 ], [ 79.1880913, 13.0656608 ], [ 79.1921211, 13.0674316 ], [ 79.1907994, 13.0733526 ], [ 79.1840082, 13.0727304 ], [ 79.1856454, 13.0752248 ], [ 79.1853283, 13.0796722 ], [ 79.1832402, 13.0819323 ], [ 79.1813679, 13.0799035 ], [ 79.1806588, 13.0842424 ], [ 79.1876574, 13.0834636 ], [ 79.1889765, 13.0851716 ], [ 79.1885529, 13.0878971 ], [ 79.1906878, 13.0887327 ], [ 79.1930976, 13.0822873 ], [ 79.1982934, 13.0813413 ], [ 79.2008635, 13.0888341 ], [ 79.2096435, 13.0927184 ], [ 79.2127477, 13.0924485 ], [ 79.2246129, 13.100799 ], [ 79.2344267, 13.1052289 ], [ 79.2342692, 13.1146613 ], [ 79.2384117, 13.1185509 ], [ 79.2303776, 13.126373 ], [ 79.2293651, 13.1315844 ], [ 79.232873, 13.1393702 ], [ 79.2282893, 13.1399822 ], [ 79.2231487, 13.143559 ], [ 79.2219737, 13.1462395 ], [ 79.2192157, 13.1456168 ], [ 79.2159929, 13.1478099 ], [ 79.21003, 13.1484581 ], [ 79.211447, 13.1518066 ], [ 79.2146862, 13.1569578 ], [ 79.2181128, 13.1568528 ], [ 79.2181123, 13.1553568 ], [ 79.2273223, 13.1556157 ], [ 79.225608, 13.1588568 ], [ 79.2296908, 13.1619873 ], [ 79.2324744, 13.1682458 ], [ 79.2356442, 13.1712274 ], [ 79.239837, 13.1719578 ], [ 79.2426869, 13.171003 ], [ 79.2420651, 13.16252 ] ] ] ] } }
]
}
