{
"type": "FeatureCollection",
"name": "3305",
"crs": { "type": "name", "properties": { "name": "urn:ogc:def:crs:OGC:1.3:CRS84" } },
"features": [
{ "type": "Feature", "properties": { "code": "3305", "name": "Dharmapuri", "type": "district" }, "geometry": { "type": "Polygon", "coordinates": [ [ [ 77.9424076, 12.513678 ], [ 77.953523, 12.5017114 ], [ 77.9470186, 12.5012799 ], [ 77.9460337, 12.4992507 ], [ 77.9500445, 12.4979616 ], [ 77.9536722, 12.4920623 ], [ 77.9534129, 12.4859517 ], [ 77.9588846, 12.4839055 ], [ 77.9658276, 12.4861832 ], [ 77.9650331, 12.4899484 ], [ 77.9683191, 12.4952761 ], [ 77.9702468, 12.4964913 ], [ 77.9743406, 12.4958616 ], [ 77.97424, 12.4977194 ], [ 77.9786189, 12.4969359 ], [ 77.9818029, 12.4991359 ], [ 77.9810544, 12.5012929 ], [ 77.9832219, 12.5049245 ], [ 77.9830617, 12.5071528 ], [ 77.9858183, 12.5097777 ], [ 77.987952, 12.5081678 ], [ 77.9901421, 12.5090393 ], [ 77.9932172, 12.503551 ], [ 77.992148, 12.5013568 ], [ 77.9937679, 12.5004328 ], [ 77.9966749, 12.5001062 ], [ 77.9984309, 12.5016912 ], [ 78.0025674, 12.4998358 ], [ 78.0051374, 12.502625 ], [ 78.0118442, 12.5027637 ], [ 78.0133263, 12.5008216 ], [ 78.0120949, 12.4976663 ], [ 78.0124371, 12.4938788 ], [ 78.0147062, 12.4907295 ], [ 78.0125319, 12.4876371 ], [ 78.0127358, 12.4844823 ], [ 78.0169136, 12.4815192 ], [ 78.0172871, 12.4792955 ], [ 78.019035, 12.4792737 ], [ 78.0184018, 12.4756395 ], [ 78.02026, 12.4755997 ], [ 78.0201924, 12.4725714 ], [ 78.023937, 12.4710587 ], [ 78.0236619, 12.4688982 ], [ 78.0211195, 12.4662892 ], [ 78.0233229, 12.465689 ], [ 78.0235267, 12.4619286 ], [ 78.0270691, 12.4596611 ], [ 78.0381941, 12.4615318 ], [ 78.0412412, 12.4678605 ], [ 78.041598, 12.4734742 ], [ 78.0453881, 12.4731411 ], [ 78.0491176, 12.4756371 ], [ 78.0593583, 12.4676264 ], [ 78.0596764, 12.4646616 ], [ 78.0683962, 12.4673621 ], [ 78.0778441, 12.4635539 ], [ 78.0789395, 12.4599699 ], [ 78.0773774, 12.4517074 ], [ 78.0801466, 12.448856 ], [ 78.086544, 12.4481928 ], [ 78.0916494, 12.4457437 ], [ 78.0951859, 12.4467477 ], [ 78.0981111, 12.4454102 ], [ 78.1083383, 12.4552554 ], [ 78.1133974, 12.4561055 ], [ 78.1180519, 12.4547001 ], [ 78.1170954, 12.4525622 ], [ 78.1182958, 12.4505917 ], [ 78.1144189, 12.4491767 ], [ 78.114626, 12.4452581 ], [ 78.1178454, 12.4438119 ], [ 78.1222927, 12.4448607 ], [ 78.1273745, 12.4419184 ], [ 78.1309756, 12.4377783 ], [ 78.1375748, 12.435107 ], [ 78.1412354, 12.4310301 ], [ 78.1424814, 12.4272424 ], [ 78.1425044, 12.4241961 ], [ 78.1394417, 12.4244176 ], [ 78.1373492, 12.4173352 ], [ 78.1336979, 12.4161781 ], [ 78.1317022, 12.4120335 ], [ 78.1352889, 12.4098956 ], [ 78.1345853, 12.4063792 ], [ 78.1317252, 12.4059544 ], [ 78.1312056, 12.4042188 ], [ 78.1277752, 12.4022616 ], [ 78.1316102, 12.3948446 ], [ 78.1348839, 12.3819496 ], [ 78.1377529, 12.3780761 ], [ 78.1420103, 12.3753324 ], [ 78.1427595, 12.3707266 ], [ 78.1540097, 12.3655734 ], [ 78.1667263, 12.3628827 ], [ 78.1644823, 12.3591632 ], [ 78.1647528, 12.3537259 ], [ 78.1636445, 12.3508965 ], [ 78.1735771, 12.3371504 ], [ 78.1780956, 12.3343022 ], [ 78.1807761, 12.3361729 ], [ 78.1848164, 12.3335462 ], [ 78.1879014, 12.3357285 ], [ 78.1907878, 12.333007 ], [ 78.1948008, 12.3324276 ], [ 78.1970488, 12.3326711 ], [ 78.1994356, 12.3358615 ], [ 78.2007963, 12.3357934 ], [ 78.2039987, 12.329397 ], [ 78.2051754, 12.3291301 ], [ 78.2074238, 12.330752 ], [ 78.2124393, 12.3314195 ], [ 78.2159799, 12.3340897 ], [ 78.2189566, 12.341325 ], [ 78.2208192, 12.3433899 ], [ 78.2242489, 12.3441029 ], [ 78.2271102, 12.3489155 ], [ 78.2362354, 12.3478862 ], [ 78.2354834, 12.3411791 ], [ 78.2389814, 12.3400884 ], [ 78.2397007, 12.3340858 ], [ 78.2463296, 12.3339475 ], [ 78.2473313, 12.33279 ], [ 78.2453767, 12.3308292 ], [ 78.2461247, 12.3281306 ], [ 78.2378849, 12.3229181 ], [ 78.2367255, 12.3203558 ], [ 78.2330709, 12.3199549 ], [ 78.2293925, 12.3174387 ], [ 78.2288032, 12.3147224 ], [ 78.2342262, 12.3118458 ], [ 78.2355619, 12.3071402 ], [ 78.232039, 12.3022059 ], [ 78.2494245, 12.2990265 ], [ 78.2540093, 12.2948975 ], [ 78.2581783, 12.2945469 ], [ 78.2591131, 12.2906151 ], [ 78.2630344, 12.2891841 ], [ 78.2612811, 12.2838408 ], [ 78.2624901, 12.2833577 ], [ 78.2595966, 12.2787416 ], [ 78.2624203, 12.2751089 ], [ 78.2616817, 12.2719899 ], [ 78.2675177, 12.2634499 ], [ 78.2770599, 12.260222 ], [ 78.2824478, 12.2682919 ], [ 78.2885465, 12.2684839 ], [ 78.2950121, 12.2709584 ], [ 78.2982422, 12.2738295 ], [ 78.3021993, 12.2739528 ], [ 78.307634, 12.265936 ], [ 78.3115636, 12.2653946 ], [ 78.3168961, 12.2601032 ], [ 78.3234591, 12.2591058 ], [ 78.3283569, 12.265064 ], [ 78.3342767, 12.2635237 ], [ 78.3453936, 12.25129 ], [ 78.3525836, 12.2472736 ], [ 78.3539813, 12.2407246 ], [ 78.3587978, 12.2352017 ], [ 78.358256, 12.2305281 ], [ 78.3570384, 12.2285619 ], [ 78.3540792, 12.2274271 ], [ 78.3549098, 12.2261765 ], [ 78.3627736, 12.2235182 ], [ 78.3636374, 12.2256154 ], [ 78.3689954, 12.2247479 ], [ 78.369804, 12.2266598 ], [ 78.3741925, 12.2250328 ], [ 78.3749922, 12.2214848 ], [ 78.3782317, 12.2221131 ], [ 78.3793805, 12.2265878 ], [ 78.3813104, 12.2262849 ], [ 78.3844443, 12.2284409 ], [ 78.403096, 12.2239474 ], [ 78.4041161, 12.2230523 ], [ 78.4000167, 12.2171587 ], [ 78.4016891, 12.2133121 ], [ 78.3980774, 12.2124175 ], [ 78.3919474, 12.2045216 ], [ 78.3822432, 12.2065602 ], [ 78.3796563, 12.2056562 ], [ 78.3762516, 12.2016967 ], [ 78.3744139, 12.1952605 ], [ 78.3784158, 12.1960831 ], [ 78.3826796, 12.1949848 ], [ 78.3909359, 12.1860624 ], [ 78.3936467, 12.1860036 ], [ 78.3952503, 12.1890318 ], [ 78.3995782, 12.1878745 ], [ 78.4048945, 12.1921182 ], [ 78.405152, 12.1947036 ], [ 78.4086304, 12.1965157 ], [ 78.4122004, 12.1964249 ], [ 78.416992, 12.1914299 ], [ 78.4173322, 12.1924333 ], [ 78.4212371, 12.1897118 ], [ 78.4464018, 12.1910675 ], [ 78.4475215, 12.185318 ], [ 78.4646934, 12.1783301 ], [ 78.4718955, 12.172791 ], [ 78.4679104, 12.1666091 ], [ 78.4703622, 12.1624726 ], [ 78.4670241, 12.1534881 ], [ 78.4669216, 12.1490451 ], [ 78.4647208, 12.1480062 ], [ 78.4652809, 12.1466862 ], [ 78.4692967, 12.1491076 ], [ 78.4828463, 12.1432588 ], [ 78.4852902, 12.1434342 ], [ 78.497269, 12.1392305 ], [ 78.498813, 12.1419338 ], [ 78.500967, 12.1416354 ], [ 78.502036, 12.1444291 ], [ 78.506364, 12.1429396 ], [ 78.5084576, 12.1455757 ], [ 78.5084875, 12.1504662 ], [ 78.5071684, 12.1518171 ], [ 78.5082827, 12.1562425 ], [ 78.5140545, 12.1626587 ], [ 78.5175651, 12.1719078 ], [ 78.5178302, 12.1748866 ], [ 78.5164518, 12.1753335 ], [ 78.5165153, 12.1771867 ], [ 78.5209846, 12.1794032 ], [ 78.5432445, 12.1791039 ], [ 78.5546473, 12.1804814 ], [ 78.5660066, 12.1914541 ], [ 78.5732747, 12.1937201 ], [ 78.5753519, 12.1919939 ], [ 78.5800569, 12.1675649 ], [ 78.582492, 12.1623356 ], [ 78.5843438, 12.164447 ], [ 78.5966372, 12.1681008 ], [ 78.601782, 12.17447 ], [ 78.611241, 12.1820507 ], [ 78.621003, 12.1841947 ], [ 78.6339466, 12.1760897 ], [ 78.6405484, 12.1684329 ], [ 78.6473062, 12.1639849 ], [ 78.6471957, 12.1599171 ], [ 78.6418938, 12.1497024 ], [ 78.6397162, 12.1473205 ], [ 78.6355496, 12.1464663 ], [ 78.6335926, 12.1397408 ], [ 78.630501, 12.1352524 ], [ 78.6302989, 12.1308411 ], [ 78.6314106, 12.1278489 ], [ 78.6367941, 12.1269539 ], [ 78.6487511, 12.1293806 ], [ 78.6572257, 12.1250228 ], [ 78.6589802, 12.1223829 ], [ 78.6588651, 12.1197343 ], [ 78.6644363, 12.1154443 ], [ 78.6641414, 12.1081537 ], [ 78.6612058, 12.1024771 ], [ 78.684112, 12.1059134 ], [ 78.6910083, 12.1151009 ], [ 78.6965018, 12.1148828 ], [ 78.7055063, 12.1207112 ], [ 78.7238681, 12.1270697 ], [ 78.7282688, 12.1274252 ], [ 78.7378718, 12.1339168 ], [ 78.7452172, 12.1239204 ], [ 78.7340834, 12.1133527 ], [ 78.7361817, 12.1111416 ], [ 78.7275333, 12.1001479 ], [ 78.7260342, 12.0951811 ], [ 78.7270717, 12.0936891 ], [ 78.7228399, 12.0885017 ], [ 78.7233383, 12.0820245 ], [ 78.7198705, 12.0671822 ], [ 78.7096236, 12.047257 ], [ 78.7040121, 12.0300646 ], [ 78.7034754, 12.0152484 ], [ 78.6999878, 12.0047359 ], [ 78.7024429, 12.000076 ], [ 78.6977167, 11.9925107 ], [ 78.7028938, 11.9861454 ], [ 78.7108686, 11.9862562 ], [ 78.7171121, 11.9841274 ], [ 78.7117954, 11.968809 ], [ 78.7098575, 11.9666174 ], [ 78.7133279, 11.9507423 ], [ 78.7082786, 11.9510737 ], [ 78.7077538, 11.946355 ], [ 78.7042779, 11.9425591 ], [ 78.7044242, 11.9400053 ], [ 78.7108115, 11.9317637 ], [ 78.7133637, 11.9321336 ], [ 78.7190449, 11.9276165 ], [ 78.7238618, 11.9196689 ], [ 78.7188981, 11.9135369 ], [ 78.7113189, 11.9089874 ], [ 78.7102296, 11.9033423 ], [ 78.7081134, 11.9025835 ], [ 78.7082407, 11.897937 ], [ 78.6947235, 11.8944644 ], [ 78.6911217, 11.8990259 ], [ 78.691338, 11.9017559 ], [ 78.689879, 11.9040072 ], [ 78.6774633, 11.9009404 ], [ 78.6754756, 11.8982649 ], [ 78.6608344, 11.8953242 ], [ 78.6560013, 11.8914149 ], [ 78.6550554, 11.8853583 ], [ 78.6501997, 11.8844998 ], [ 78.6345546, 11.8883379 ], [ 78.6361975, 11.8789318 ], [ 78.6336595, 11.8741768 ], [ 78.6276844, 11.8730332 ], [ 78.6253257, 11.8671707 ], [ 78.6196125, 11.8633692 ], [ 78.6182268, 11.8597125 ], [ 78.6099213, 11.8526562 ], [ 78.6016173, 11.8365552 ], [ 78.6031043, 11.8329802 ], [ 78.5958375, 11.8227596 ], [ 78.5856655, 11.8201817 ], [ 78.5743005, 11.8194248 ], [ 78.5557757, 11.8099691 ], [ 78.5467747, 11.8069517 ], [ 78.5350337, 11.8071785 ], [ 78.5218856, 11.8153323 ], [ 78.5177346, 11.8122209 ], [ 78.5119583, 11.8114953 ], [ 78.5090026, 11.8138219 ], [ 78.4988225, 11.8139563 ], [ 78.4908281, 11.8177076 ], [ 78.4858456, 11.8185818 ], [ 78.4779064, 11.8176373 ], [ 78.4766411, 11.8196596 ], [ 78.4688247, 11.8237359 ], [ 78.4596398, 11.8271421 ], [ 78.4553815, 11.8263522 ], [ 78.4490872, 11.830128 ], [ 78.4501338, 11.8316781 ], [ 78.440674, 11.8396535 ], [ 78.4385833, 11.8483278 ], [ 78.4350788, 11.8546655 ], [ 78.4330703, 11.8622323 ], [ 78.4414832, 11.8683462 ], [ 78.4352936, 11.8738663 ], [ 78.4277719, 11.8742383 ], [ 78.4197876, 11.8799844 ], [ 78.4143768, 11.8801433 ], [ 78.4031463, 11.8735452 ], [ 78.403279, 11.8687585 ], [ 78.4004104, 11.8632669 ], [ 78.3949035, 11.8597416 ], [ 78.3931639, 11.8524555 ], [ 78.3873452, 11.8463175 ], [ 78.3862988, 11.8393522 ], [ 78.382506, 11.8334842 ], [ 78.3830041, 11.829467 ], [ 78.3805677, 11.8257154 ], [ 78.3706846, 11.816422 ], [ 78.3512423, 11.7928533 ], [ 78.3482095, 11.7943311 ], [ 78.3450165, 11.7934854 ], [ 78.3282835, 11.7759813 ], [ 78.3182267, 11.7793782 ], [ 78.3128722, 11.7826856 ], [ 78.3271602, 11.7954803 ], [ 78.3364346, 11.8095844 ], [ 78.3390442, 11.8165094 ], [ 78.345586, 11.8241989 ], [ 78.3507789, 11.8339175 ], [ 78.3507096, 11.8375787 ], [ 78.3470799, 11.839332 ], [ 78.3470706, 11.8404394 ], [ 78.3514204, 11.8427632 ], [ 78.3515256, 11.8454481 ], [ 78.3478039, 11.8473642 ], [ 78.3480057, 11.8484851 ], [ 78.3513922, 11.8486573 ], [ 78.3515384, 11.8542892 ], [ 78.3537909, 11.860744 ], [ 78.3566677, 11.8649659 ], [ 78.3602975, 11.8674206 ], [ 78.3675568, 11.8805652 ], [ 78.3680934, 11.8874491 ], [ 78.3657479, 11.8918379 ], [ 78.3546826, 11.8916652 ], [ 78.3531311, 11.8941602 ], [ 78.3584865, 11.9016864 ], [ 78.360028, 11.9089501 ], [ 78.35894, 11.9117027 ], [ 78.3570535, 11.9135919 ], [ 78.354263, 11.9122853 ], [ 78.3400092, 11.8972185 ], [ 78.3362727, 11.9004768 ], [ 78.3280631, 11.8940661 ], [ 78.319353, 11.8905568 ], [ 78.3091485, 11.881189 ], [ 78.3077299, 11.8830101 ], [ 78.3163006, 11.8920838 ], [ 78.3212293, 11.8940919 ], [ 78.3263914, 11.8995846 ], [ 78.3227048, 11.9052113 ], [ 78.3266178, 11.9146226 ], [ 78.3312483, 11.9189492 ], [ 78.3315047, 11.9222442 ], [ 78.3285431, 11.9273061 ], [ 78.3243885, 11.930085 ], [ 78.3211709, 11.9296097 ], [ 78.3195362, 11.9323802 ], [ 78.3171265, 11.9317242 ], [ 78.3099036, 11.924138 ], [ 78.3023075, 11.9227482 ], [ 78.299119, 11.9176308 ], [ 78.2915788, 11.9145413 ], [ 78.2908405, 11.9124303 ], [ 78.2926508, 11.9067718 ], [ 78.2842801, 11.903578 ], [ 78.2800729, 11.8995672 ], [ 78.2740557, 11.9000803 ], [ 78.2728905, 11.8987736 ], [ 78.2690208, 11.9002501 ], [ 78.2723289, 11.9030583 ], [ 78.2799892, 11.9149396 ], [ 78.2802247, 11.9235864 ], [ 78.2878116, 11.9246422 ], [ 78.2915607, 11.9274819 ], [ 78.2936622, 11.92972 ], [ 78.2907559, 11.9320966 ], [ 78.2873365, 11.9314085 ], [ 78.2845373, 11.929161 ], [ 78.280584, 11.9324186 ], [ 78.275033, 11.9314423 ], [ 78.2642674, 11.9182466 ], [ 78.2619018, 11.9119675 ], [ 78.2579497, 11.9123635 ], [ 78.2592884, 11.9157902 ], [ 78.2587362, 11.9190489 ], [ 78.2629929, 11.9252747 ], [ 78.2626432, 11.9274441 ], [ 78.2635697, 11.9289632 ], [ 78.2665438, 11.9296605 ], [ 78.2727556, 11.9379209 ], [ 78.2720849, 11.9391095 ], [ 78.2570007, 11.9402196 ], [ 78.2548492, 11.9373168 ], [ 78.256842, 11.9357357 ], [ 78.2558885, 11.933177 ], [ 78.2547964, 11.9321866 ], [ 78.2526429, 11.9337722 ], [ 78.2483917, 11.9281432 ], [ 78.2419741, 11.9266633 ], [ 78.2357925, 11.9179647 ], [ 78.23443, 11.9189516 ], [ 78.2359902, 11.9189907 ], [ 78.2379694, 11.9212544 ], [ 78.2370333, 11.9219463 ], [ 78.2424519, 11.9277614 ], [ 78.2430865, 11.9305364 ], [ 78.2500795, 11.9381733 ], [ 78.2530576, 11.9507621 ], [ 78.2510906, 11.9545903 ], [ 78.2479126, 11.9565604 ], [ 78.2483455, 11.9597151 ], [ 78.2451108, 11.9638341 ], [ 78.2450254, 11.9681868 ], [ 78.2379849, 11.9725423 ], [ 78.2348656, 11.9792601 ], [ 78.2270425, 11.9789103 ], [ 78.2231535, 11.9778087 ], [ 78.2219042, 11.9759018 ], [ 78.2152614, 11.9768123 ], [ 78.2114457, 11.974341 ], [ 78.2070205, 11.9759333 ], [ 78.1997709, 11.9740865 ], [ 78.1958734, 11.9744354 ], [ 78.1934628, 11.9730167 ], [ 78.1906579, 11.973623 ], [ 78.1828483, 11.9704288 ], [ 78.1790566, 11.9728432 ], [ 78.1743462, 11.9710495 ], [ 78.1732716, 11.968862 ], [ 78.1696724, 11.9690117 ], [ 78.1684786, 11.9674208 ], [ 78.1614225, 11.9670962 ], [ 78.1582, 11.9684706 ], [ 78.156336, 11.9665181 ], [ 78.1494821, 11.9683493 ], [ 78.1470626, 11.9665323 ], [ 78.1448592, 11.9682501 ], [ 78.1374221, 11.9657146 ], [ 78.1351863, 11.9632332 ], [ 78.129044, 11.9644988 ], [ 78.1220709, 11.9593142 ], [ 78.118054, 11.9603627 ], [ 78.107193, 11.9558149 ], [ 78.1030294, 11.9547614 ], [ 78.1005963, 11.95576 ], [ 78.0991046, 11.9535858 ], [ 78.0957077, 11.9532599 ], [ 78.0949967, 11.9491059 ], [ 78.0910626, 11.9498964 ], [ 78.0901219, 11.9474691 ], [ 78.0849074, 11.946162 ], [ 78.0830303, 11.9441276 ], [ 78.080914, 11.9445386 ], [ 78.079267, 11.9401268 ], [ 78.0769027, 11.9413739 ], [ 78.0737224, 11.9375991 ], [ 78.0712342, 11.9386065 ], [ 78.0523866, 11.9384933 ], [ 78.050941, 11.9372138 ], [ 78.0430506, 11.9366871 ], [ 78.0408981, 11.9353349 ], [ 78.0390434, 11.9363378 ], [ 78.0369969, 11.933964 ], [ 78.0343023, 11.9345372 ], [ 78.0342894, 11.9322456 ], [ 78.0299116, 11.9289263 ], [ 78.0295825, 11.9250526 ], [ 78.0268623, 11.9204503 ], [ 78.0226079, 11.9194046 ], [ 78.0198625, 11.9209402 ], [ 78.0163378, 11.9196778 ], [ 78.0112974, 11.9213074 ], [ 78.007182, 11.9172602 ], [ 78.0063571, 11.9144304 ], [ 78.0009779, 11.9141793 ], [ 77.9984309, 11.9097502 ], [ 77.9960444, 11.9102122 ], [ 77.9948594, 11.9082646 ], [ 77.9922525, 11.9084057 ], [ 77.9870421, 11.9060031 ], [ 77.9842089, 11.902447 ], [ 77.9799683, 11.9029637 ], [ 77.9788326, 11.8972419 ], [ 77.9703459, 11.8955587 ], [ 77.9609985, 11.9009222 ], [ 77.9553625, 11.9009779 ], [ 77.9533701, 11.8993287 ], [ 77.9506714, 11.8992118 ], [ 77.9498995, 11.8958989 ], [ 77.9485087, 11.894941 ], [ 77.9447597, 11.8977668 ], [ 77.9416199, 11.8958782 ], [ 77.9376278, 11.8995899 ], [ 77.9329329, 11.9013444 ], [ 77.9304404, 11.8991889 ], [ 77.9208805, 11.9008808 ], [ 77.9171533, 11.8982868 ], [ 77.9109485, 11.9010855 ], [ 77.9050828, 11.900286 ], [ 77.9030727, 11.9020308 ], [ 77.8988777, 11.9029125 ], [ 77.8954587, 11.9073197 ], [ 77.8920302, 11.9088747 ], [ 77.8869447, 11.9079076 ], [ 77.8832224, 11.9121971 ], [ 77.873079, 11.9111257 ], [ 77.867089, 11.9157449 ], [ 77.8612095, 11.9128472 ], [ 77.8587727, 11.908431 ], [ 77.8500526, 11.9049001 ], [ 77.851375, 11.899083 ], [ 77.8477006, 11.8943442 ], [ 77.8452712, 11.8964833 ], [ 77.8398048, 11.8974859 ], [ 77.8346363, 11.9015622 ], [ 77.8074175, 11.9090775 ], [ 77.8019009, 11.9081992 ], [ 77.7736266, 11.9115616 ], [ 77.7626668, 11.9099074 ], [ 77.7607338, 11.9115247 ], [ 77.7578711, 11.9187058 ], [ 77.7514382, 11.9235708 ], [ 77.7506283, 11.9280769 ], [ 77.748619, 11.9287846 ], [ 77.7454787, 11.9273214 ], [ 77.7406836, 11.9313234 ], [ 77.7389636, 11.9346011 ], [ 77.7390068, 11.9391978 ], [ 77.7367488, 11.9405546 ], [ 77.7088124, 11.9413954 ], [ 77.7011655, 11.9435715 ], [ 77.6913279, 11.941838 ], [ 77.6780498, 11.9515404 ], [ 77.6756699, 11.9520116 ], [ 77.674506, 11.9539 ], [ 77.6747419, 11.9659364 ], [ 77.6963692, 12.0157675 ], [ 77.7089055, 12.0360181 ], [ 77.7148909, 12.0424436 ], [ 77.7275352, 12.0620379 ], [ 77.7427071, 12.0700233 ], [ 77.7556871, 12.0797337 ], [ 77.7642663, 12.1008725 ], [ 77.7677545, 12.1066367 ], [ 77.772595, 12.108293 ], [ 77.776392, 12.112281 ], [ 77.7761696, 12.117316 ], [ 77.7737982, 12.1205198 ], [ 77.7572116, 12.1304386 ], [ 77.7498075, 12.1384625 ], [ 77.7467855, 12.1445277 ], [ 77.7467172, 12.1558493 ], [ 77.7610272, 12.1693167 ], [ 77.7724473, 12.171961 ], [ 77.7768359, 12.1574042 ], [ 77.7906761, 12.1480981 ], [ 77.7939241, 12.1476969 ], [ 77.7947671, 12.1687869 ], [ 77.7963738, 12.1729593 ], [ 77.7982668, 12.1723 ], [ 77.8034986, 12.1762157 ], [ 77.8032909, 12.1793977 ], [ 77.8092211, 12.200471 ], [ 77.8106017, 12.2267679 ], [ 77.8145196, 12.2342086 ], [ 77.8335144, 12.246493 ], [ 77.8452538, 12.2621781 ], [ 77.8488246, 12.2629694 ], [ 77.853779, 12.2619305 ], [ 77.8616843, 12.2544779 ], [ 77.8677317, 12.2657553 ], [ 77.869937, 12.2804766 ], [ 77.8737148, 12.2882916 ], [ 77.8729242, 12.2916995 ], [ 77.8743765, 12.2951843 ], [ 77.875006, 12.3032478 ], [ 77.8709881, 12.3171281 ], [ 77.871875, 12.3244412 ], [ 77.8683997, 12.3247891 ], [ 77.8672134, 12.3302445 ], [ 77.8792437, 12.3358539 ], [ 77.881763, 12.3337839 ], [ 77.8947772, 12.3335214 ], [ 77.8968043, 12.3318625 ], [ 77.9026931, 12.3307864 ], [ 77.9042972, 12.3286755 ], [ 77.9093123, 12.3267586 ], [ 77.9118821, 12.3283674 ], [ 77.9183224, 12.3280683 ], [ 77.9221467, 12.325383 ], [ 77.9267482, 12.3250975 ], [ 77.9325958, 12.3269767 ], [ 77.934803, 12.3303526 ], [ 77.9485311, 12.3365734 ], [ 77.9476999, 12.3399996 ], [ 77.9498307, 12.3486682 ], [ 77.9546172, 12.3513019 ], [ 77.9532079, 12.3588052 ], [ 77.9505236, 12.3616218 ], [ 77.9512516, 12.3672533 ], [ 77.9494789, 12.3750911 ], [ 77.9558162, 12.3803595 ], [ 77.9563179, 12.3822939 ], [ 77.968019, 12.3948148 ], [ 77.9700124, 12.4018515 ], [ 77.968141, 12.4021233 ], [ 77.9682064, 12.4051651 ], [ 77.9711095, 12.409788 ], [ 77.970899, 12.4127033 ], [ 77.9659947, 12.4197739 ], [ 77.9630963, 12.4302832 ], [ 77.9524393, 12.4408716 ], [ 77.9467098, 12.4439013 ], [ 77.9469636, 12.447499 ], [ 77.9451291, 12.4494475 ], [ 77.9403416, 12.4499006 ], [ 77.9380594, 12.4449699 ], [ 77.9349319, 12.4441299 ], [ 77.9314728, 12.4411023 ], [ 77.930429, 12.4417578 ], [ 77.9255049, 12.450143 ], [ 77.9237997, 12.4560551 ], [ 77.9259304, 12.4637293 ], [ 77.928442, 12.4662871 ], [ 77.9342238, 12.467529 ], [ 77.9345093, 12.4694363 ], [ 77.9281641, 12.4805245 ], [ 77.9246184, 12.4843759 ], [ 77.9222367, 12.4906994 ], [ 77.9058046, 12.4893718 ], [ 77.9052224, 12.4942314 ], [ 77.8999329, 12.4996511 ], [ 77.9048969, 12.5013275 ], [ 77.900361, 12.503343 ], [ 77.905067, 12.5056206 ], [ 77.908918, 12.5126621 ], [ 77.9131356, 12.5064786 ], [ 77.9214706, 12.5041588 ], [ 77.9424076, 12.513678 ] ] ] } }
]
}
