{
"type": "FeatureCollection",
"name": "3307",
"crs": { "type": "name", "properties": { "name": "urn:ogc:def:crs:OGC:1.3:CRS84" } },
"features": [
{ "type": "Feature", "properties": { "code": "3307", "name": "Villupuram", "type": "district" }, "geometry": { "type": "Polygon", "coordinates": [ [ [ 79.3386151, 12.4446269 ], [ 79.3403581, 12.4451062 ], [ 79.3470958, 12.4429512 ], [ 79.3514279, 12.4449947 ], [ 79.3565053, 12.4440642 ], [ 79.3618404, 12.4397256 ], [ 79.367483, 12.4439338 ], [ 79.3694101, 12.4422164 ], [ 79.3717463, 12.4431114 ], [ 79.3750265, 12.4412193 ], [ 79.3824849, 12.4423297 ], [ 79.3954261, 12.4362321 ], [ 79.4016161, 12.4357074 ], [ 79.4005533, 12.4309662 ], [ 79.4016568, 12.4281278 ], [ 79.4081216, 12.4185768 ], [ 79.4103656, 12.4175731 ], [ 79.4082128, 12.4112773 ], [ 79.4112519, 12.4067662 ], [ 79.415257, 12.4065127 ], [ 79.4180993, 12.410675 ], [ 79.4201177, 12.4107612 ], [ 79.4219021, 12.4100507 ], [ 79.4217732, 12.4086587 ], [ 79.4236308, 12.4083601 ], [ 79.4252025, 12.4022174 ], [ 79.4283658, 12.4009242 ], [ 79.4330624, 12.4099585 ], [ 79.4384051, 12.4073224 ], [ 79.4373692, 12.4011892 ], [ 79.4381323, 12.4001585 ], [ 79.4368122, 12.3980029 ], [ 79.4375246, 12.3965428 ], [ 79.4361676, 12.3943645 ], [ 79.4391276, 12.3890893 ], [ 79.4407003, 12.3896404 ], [ 79.4418647, 12.3942458 ], [ 79.4482288, 12.3957855 ], [ 79.4491893, 12.3934441 ], [ 79.447533, 12.3897653 ], [ 79.4478025, 12.3826827 ], [ 79.4511383, 12.3742072 ], [ 79.4611429, 12.3738745 ], [ 79.4655654, 12.3721014 ], [ 79.4690817, 12.3692166 ], [ 79.4710161, 12.365573 ], [ 79.4728733, 12.3649623 ], [ 79.4844427, 12.3696 ], [ 79.4858883, 12.3746209 ], [ 79.4932613, 12.3702791 ], [ 79.4907312, 12.3670619 ], [ 79.4903374, 12.359853 ], [ 79.4883003, 12.3586877 ], [ 79.488862, 12.3493947 ], [ 79.4966479, 12.3449305 ], [ 79.5021905, 12.3455278 ], [ 79.5038435, 12.3479071 ], [ 79.5069705, 12.3459559 ], [ 79.5104909, 12.3484344 ], [ 79.5111687, 12.3541522 ], [ 79.5179272, 12.3532738 ], [ 79.5216245, 12.3619623 ], [ 79.5295383, 12.370074 ], [ 79.5386099, 12.3686897 ], [ 79.546032, 12.3639192 ], [ 79.5534979, 12.3655305 ], [ 79.5589233, 12.3643704 ], [ 79.5598294, 12.3630056 ], [ 79.5650937, 12.3621798 ], [ 79.5708234, 12.3564862 ], [ 79.5724187, 12.3568481 ], [ 79.5726022, 12.3584798 ], [ 79.5749837, 12.35839 ], [ 79.5753245, 12.3555109 ], [ 79.5770074, 12.3537485 ], [ 79.5982203, 12.3482061 ], [ 79.5972637, 12.3512433 ], [ 79.5984907, 12.3554197 ], [ 79.5997411, 12.3559758 ], [ 79.6025899, 12.3717368 ], [ 79.6057479, 12.3779157 ], [ 79.6081526, 12.3780515 ], [ 79.6168608, 12.3773244 ], [ 79.6178402, 12.375069 ], [ 79.6209851, 12.3744455 ], [ 79.6203966, 12.3715663 ], [ 79.6233944, 12.367928 ], [ 79.6235002, 12.3648319 ], [ 79.6189215, 12.3543683 ], [ 79.6217122, 12.3494916 ], [ 79.6261394, 12.348877 ], [ 79.6368416, 12.3425854 ], [ 79.6403907, 12.3446825 ], [ 79.6456498, 12.3434529 ], [ 79.6490791, 12.3408719 ], [ 79.6494098, 12.3372379 ], [ 79.6532385, 12.3298567 ], [ 79.6565251, 12.328148 ], [ 79.6576653, 12.3296529 ], [ 79.6604737, 12.3271848 ], [ 79.6596507, 12.3259058 ], [ 79.6606341, 12.3230989 ], [ 79.6737017, 12.3163897 ], [ 79.6827572, 12.3160537 ], [ 79.685549, 12.3237686 ], [ 79.6974505, 12.3249322 ], [ 79.7000775, 12.3333023 ], [ 79.7062057, 12.334625 ], [ 79.7159701, 12.3354765 ], [ 79.7219079, 12.3311762 ], [ 79.7361163, 12.3292141 ], [ 79.7434424, 12.3259615 ], [ 79.7503022, 12.3248373 ], [ 79.7543187, 12.3272573 ], [ 79.7589993, 12.3253656 ], [ 79.7604408, 12.3296556 ], [ 79.7635161, 12.3296208 ], [ 79.7788158, 12.3389875 ], [ 79.788264, 12.3359988 ], [ 79.7923325, 12.3356973 ], [ 79.7932698, 12.3373428 ], [ 79.7992276, 12.3373989 ], [ 79.8002363, 12.3312975 ], [ 79.8027748, 12.3279716 ], [ 79.8040072, 12.3265392 ], [ 79.8095098, 12.3262424 ], [ 79.8082001, 12.3247731 ], [ 79.8143013, 12.3205396 ], [ 79.8188672, 12.3148728 ], [ 79.8180861, 12.3136206 ], [ 79.8198517, 12.3118176 ], [ 79.8214048, 12.3142587 ], [ 79.8274221, 12.312922 ], [ 79.8321777, 12.2989431 ], [ 79.8380437, 12.2935609 ], [ 79.8416251, 12.287758 ], [ 79.8412945, 12.2852042 ], [ 79.8441725, 12.2801921 ], [ 79.8411943, 12.2797985 ], [ 79.846526, 12.2775031 ], [ 79.8472892, 12.2756998 ], [ 79.8492287, 12.2762515 ], [ 79.8500516, 12.2741317 ], [ 79.862425, 12.2619428 ], [ 79.8658998, 12.2556424 ], [ 79.865514, 12.2517779 ], [ 79.8676405, 12.248914 ], [ 79.8734357, 12.2428712 ], [ 79.8781783, 12.2402859 ], [ 79.8812894, 12.240182 ], [ 79.8849887, 12.2359604 ], [ 79.895374, 12.2333386 ], [ 79.9003091, 12.2295642 ], [ 79.9087368, 12.2304087 ], [ 79.914261, 12.2355246 ], [ 79.9245126, 12.2315909 ], [ 79.920617, 12.2466613 ], [ 79.9213572, 12.2500524 ], [ 79.9442058, 12.2422585 ], [ 79.9553186, 12.2288317 ], [ 79.9598373, 12.2341522 ], [ 79.9639957, 12.2331548 ], [ 79.9696675, 12.236796 ], [ 79.9730991, 12.2333644 ], [ 79.9831887, 12.2410717 ], [ 79.9877008, 12.2511402 ], [ 79.9924703, 12.2537377 ], [ 80.0037828, 12.2567757 ], [ 80.0040167, 12.2541061 ], [ 80.0086387, 12.254805 ], [ 79.896712, 12.0834633 ], [ 79.8789751, 12.0544865 ], [ 79.8736494, 12.042032 ], [ 79.8684961, 12.0451661 ], [ 79.8497688, 12.0513117 ], [ 79.844428, 12.0360599 ], [ 79.8439681, 12.0241868 ], [ 79.8409026, 12.0128098 ], [ 79.8567974, 12.006055 ], [ 79.8469956, 11.9784948 ], [ 79.8406359, 11.9557856 ], [ 79.8328089, 11.9565211 ], [ 79.8288514, 11.9583284 ], [ 79.8248707, 11.9615232 ], [ 79.8223495, 11.965767 ], [ 79.8185043, 11.9778886 ], [ 79.8162957, 11.9790317 ], [ 79.8126049, 11.9778918 ], [ 79.8098143, 11.9752243 ], [ 79.8063147, 11.9672805 ], [ 79.8050735, 11.9532561 ], [ 79.8033429, 11.9531381 ], [ 79.7917268, 11.9593766 ], [ 79.7847213, 11.9598625 ], [ 79.7834785, 11.9562642 ], [ 79.7808527, 11.9565254 ], [ 79.7794668, 11.9535601 ], [ 79.7767727, 11.9536989 ], [ 79.7750945, 11.9497355 ], [ 79.7732143, 11.949081 ], [ 79.7715251, 11.9438886 ], [ 79.7599437, 11.9435991 ], [ 79.7607017, 11.9320238 ], [ 79.7609915, 11.930695 ], [ 79.7621757, 11.9308176 ], [ 79.762195, 11.928544 ], [ 79.7572562, 11.9281713 ], [ 79.7564402, 11.926042 ], [ 79.7550769, 11.9260098 ], [ 79.7551236, 11.9244097 ], [ 79.7563842, 11.9240805 ], [ 79.7562775, 11.9203875 ], [ 79.7502741, 11.9199056 ], [ 79.7511178, 11.9216914 ], [ 79.7493229, 11.9221606 ], [ 79.7486971, 11.9439872 ], [ 79.7445307, 11.9649554 ], [ 79.7296313, 11.9706697 ], [ 79.7245136, 11.9714347 ], [ 79.7235047, 11.9770494 ], [ 79.7264781, 11.9857583 ], [ 79.7304081, 11.9859378 ], [ 79.7295812, 11.984677 ], [ 79.7322545, 11.9813697 ], [ 79.7356852, 11.9791243 ], [ 79.7419468, 11.9776665 ], [ 79.7481246, 11.9847513 ], [ 79.7519141, 11.9842705 ], [ 79.7555208, 11.9882904 ], [ 79.7604238, 11.989201 ], [ 79.7620702, 11.993125 ], [ 79.7623734, 12.0026897 ], [ 79.7464959, 12.0076781 ], [ 79.7437256, 12.0036385 ], [ 79.7415219, 12.0039421 ], [ 79.7413249, 12.0012201 ], [ 79.7376816, 12.0009504 ], [ 79.7375016, 11.9984826 ], [ 79.7347924, 11.9974666 ], [ 79.7334318, 11.993259 ], [ 79.7205717, 11.9927391 ], [ 79.7158953, 11.9848441 ], [ 79.7145089, 11.9849711 ], [ 79.7146517, 11.9863859 ], [ 79.712425, 11.9865537 ], [ 79.7092679, 11.9758107 ], [ 79.7160242, 11.9710584 ], [ 79.715027, 11.967637 ], [ 79.7108217, 11.9672812 ], [ 79.7102107, 11.9657808 ], [ 79.7026042, 11.9670213 ], [ 79.703678, 11.9654706 ], [ 79.6979706, 11.9604865 ], [ 79.6956898, 11.9639176 ], [ 79.6916609, 11.9513168 ], [ 79.6957594, 11.9477001 ], [ 79.6973096, 11.9417513 ], [ 79.704291, 11.9401722 ], [ 79.7065303, 11.9372698 ], [ 79.7066216, 11.9351726 ], [ 79.7112157, 11.9330695 ], [ 79.7079546, 11.9419296 ], [ 79.7079191, 11.9466574 ], [ 79.7096783, 11.9499565 ], [ 79.7208911, 11.9448998 ], [ 79.7175306, 11.9289861 ], [ 79.7255154, 11.9231573 ], [ 79.7322133, 11.9137129 ], [ 79.7406967, 11.9054381 ], [ 79.7313099, 11.9032087 ], [ 79.7305025, 11.8917282 ], [ 79.7287902, 11.8902056 ], [ 79.7228198, 11.8917173 ], [ 79.7233056, 11.8899228 ], [ 79.7249851, 11.8892939 ], [ 79.7237274, 11.8886072 ], [ 79.7209651, 11.890502 ], [ 79.7188264, 11.8904258 ], [ 79.716895, 11.8927949 ], [ 79.7111942, 11.8907084 ], [ 79.7094325, 11.8930004 ], [ 79.7052793, 11.8939191 ], [ 79.7060609, 11.8993564 ], [ 79.70854, 11.9015751 ], [ 79.7089538, 11.904305 ], [ 79.7066133, 11.9051871 ], [ 79.7066019, 11.9136213 ], [ 79.7179525, 11.9133604 ], [ 79.7186611, 11.9190373 ], [ 79.6962026, 11.9191654 ], [ 79.6956032, 11.9078927 ], [ 79.6977557, 11.9075984 ], [ 79.6979019, 11.9047327 ], [ 79.6976214, 11.9024276 ], [ 79.6957396, 11.90241 ], [ 79.695389, 11.8947894 ], [ 79.6871645, 11.894538 ], [ 79.6868421, 11.8888881 ], [ 79.6826289, 11.8887849 ], [ 79.6828223, 11.8919669 ], [ 79.6738452, 11.8916114 ], [ 79.6740042, 11.8806956 ], [ 79.6898236, 11.8808419 ], [ 79.6893841, 11.8642401 ], [ 79.6945962, 11.8597099 ], [ 79.6947395, 11.8444188 ], [ 79.6997216, 11.8395587 ], [ 79.6998586, 11.8365529 ], [ 79.7030924, 11.83191 ], [ 79.6856332, 11.8324608 ], [ 79.686055, 11.8306708 ], [ 79.6895876, 11.8284779 ], [ 79.6908068, 11.8221179 ], [ 79.6907698, 11.8204004 ], [ 79.6874983, 11.8207084 ], [ 79.6857228, 11.8125056 ], [ 79.6794081, 11.8145807 ], [ 79.6759302, 11.8143011 ], [ 79.6748088, 11.806793 ], [ 79.6700292, 11.8101345 ], [ 79.6649961, 11.8104832 ], [ 79.6497812, 11.8005134 ], [ 79.6411006, 11.7984979 ], [ 79.6346225, 11.8019694 ], [ 79.6243222, 11.8117868 ], [ 79.620665, 11.8201441 ], [ 79.6168382, 11.8247499 ], [ 79.6038068, 11.8290428 ], [ 79.5908196, 11.8414757 ], [ 79.5799854, 11.8436255 ], [ 79.5730435, 11.8399765 ], [ 79.5650226, 11.8399296 ], [ 79.5505389, 11.8465476 ], [ 79.5427422, 11.8479238 ], [ 79.5291606, 11.8570948 ], [ 79.5099512, 11.8575934 ], [ 79.491805, 11.8649395 ], [ 79.4679128, 11.8717798 ], [ 79.4409793, 11.8727766 ], [ 79.4308799, 11.8807337 ], [ 79.4145716, 11.8988974 ], [ 79.3932488, 11.9091142 ], [ 79.3788046, 11.9180278 ], [ 79.3729524, 11.9196051 ], [ 79.3639975, 11.9180589 ], [ 79.3487522, 11.926007 ], [ 79.3433956, 11.9258935 ], [ 79.3307414, 11.9226781 ], [ 79.3266239, 11.9242368 ], [ 79.3215664, 11.9209409 ], [ 79.3154522, 11.922594 ], [ 79.3145807, 11.920257 ], [ 79.3081271, 11.9203911 ], [ 79.3066439, 11.9235231 ], [ 79.3081258, 11.9261857 ], [ 79.3055258, 11.9339051 ], [ 79.2926474, 11.9441257 ], [ 79.2856558, 11.9455925 ], [ 79.2845186, 11.9417322 ], [ 79.2739232, 11.9445173 ], [ 79.2740368, 11.9476271 ], [ 79.2710205, 11.9487877 ], [ 79.2676045, 11.9478877 ], [ 79.2609807, 11.9501126 ], [ 79.2371253, 11.9521697 ], [ 79.2272476, 11.9574553 ], [ 79.2219235, 11.9621132 ], [ 79.217968, 11.969071 ], [ 79.2104775, 11.9740453 ], [ 79.1847042, 11.9727548 ], [ 79.1863827, 11.9857627 ], [ 79.1758377, 11.9888791 ], [ 79.1711755, 11.9888561 ], [ 79.1684099, 11.9921979 ], [ 79.1707727, 12.0025391 ], [ 79.1705709, 12.003633 ], [ 79.1682935, 12.0034977 ], [ 79.1673526, 12.0058392 ], [ 79.1706179, 12.0103089 ], [ 79.1699444, 12.0194075 ], [ 79.1726296, 12.0304784 ], [ 79.1751049, 12.0324487 ], [ 79.176214, 12.0474367 ], [ 79.1843467, 12.047955 ], [ 79.1845582, 12.049094 ], [ 79.1901421, 12.0482114 ], [ 79.1909831, 12.0512713 ], [ 79.1964629, 12.0568974 ], [ 79.1990972, 12.0684587 ], [ 79.2007325, 12.0698866 ], [ 79.2062617, 12.069266 ], [ 79.2092334, 12.0706663 ], [ 79.2125532, 12.0685908 ], [ 79.2155506, 12.0638168 ], [ 79.2322429, 12.0609095 ], [ 79.2336199, 12.0591598 ], [ 79.2372373, 12.0673757 ], [ 79.2399663, 12.0703441 ], [ 79.2379069, 12.0765554 ], [ 79.2427077, 12.0804316 ], [ 79.2487293, 12.0778849 ], [ 79.2492105, 12.0789752 ], [ 79.2517734, 12.0787504 ], [ 79.2512357, 12.0795005 ], [ 79.252879, 12.0810334 ], [ 79.2554242, 12.0794888 ], [ 79.2571784, 12.0798693 ], [ 79.2585782, 12.0819671 ], [ 79.2601902, 12.0821848 ], [ 79.2686192, 12.0945252 ], [ 79.2716244, 12.1036463 ], [ 79.2760815, 12.1040721 ], [ 79.2792172, 12.1078791 ], [ 79.278582, 12.1233595 ], [ 79.2766746, 12.1260481 ], [ 79.2698063, 12.128771 ], [ 79.2649057, 12.1272548 ], [ 79.2587947, 12.1306556 ], [ 79.2589628, 12.1349089 ], [ 79.252393, 12.1367229 ], [ 79.2541794, 12.1379125 ], [ 79.2497363, 12.1400664 ], [ 79.2501995, 12.1415988 ], [ 79.248236, 12.141127 ], [ 79.2451316, 12.1431622 ], [ 79.2457896, 12.1458197 ], [ 79.2425499, 12.1469803 ], [ 79.2427499, 12.1492063 ], [ 79.2368104, 12.1500449 ], [ 79.2380016, 12.1533755 ], [ 79.2106163, 12.1660901 ], [ 79.2112977, 12.1709307 ], [ 79.2104569, 12.1709987 ], [ 79.214219, 12.1840917 ], [ 79.2132781, 12.187057 ], [ 79.2099426, 12.1872207 ], [ 79.2108855, 12.190755 ], [ 79.2127972, 12.1922777 ], [ 79.2108679, 12.1939867 ], [ 79.2143511, 12.1951157 ], [ 79.2150962, 12.1976646 ], [ 79.2189191, 12.1978217 ], [ 79.2194377, 12.1959096 ], [ 79.2223224, 12.1938657 ], [ 79.2208266, 12.1860242 ], [ 79.2227053, 12.1850337 ], [ 79.222319, 12.1837909 ], [ 79.2260125, 12.1825828 ], [ 79.2265964, 12.1838572 ], [ 79.2345725, 12.1840804 ], [ 79.2338987, 12.1884107 ], [ 79.232277, 12.1885107 ], [ 79.2325196, 12.1907154 ], [ 79.2311113, 12.1923078 ], [ 79.2331259, 12.1978032 ], [ 79.2310178, 12.2002266 ], [ 79.2282337, 12.2010638 ], [ 79.2286204, 12.2033598 ], [ 79.2231482, 12.2038408 ], [ 79.2212052, 12.2054008 ], [ 79.2210085, 12.2079862 ], [ 79.216083, 12.2086883 ], [ 79.2157349, 12.2123134 ], [ 79.2180738, 12.212507 ], [ 79.2191776, 12.2154401 ], [ 79.2329427, 12.2116657 ], [ 79.2359434, 12.2121935 ], [ 79.236736, 12.2178836 ], [ 79.2340805, 12.2188745 ], [ 79.2274403, 12.2179187 ], [ 79.2251074, 12.2220236 ], [ 79.2294827, 12.2239023 ], [ 79.2305542, 12.2261031 ], [ 79.2347317, 12.2275027 ], [ 79.2364833, 12.2294185 ], [ 79.2369721, 12.2337438 ], [ 79.2437931, 12.2356932 ], [ 79.2484084, 12.2409889 ], [ 79.2455964, 12.2420524 ], [ 79.2457578, 12.2432952 ], [ 79.2433909, 12.2427222 ], [ 79.2423896, 12.2438706 ], [ 79.2402567, 12.2538694 ], [ 79.2431716, 12.2566118 ], [ 79.2412672, 12.2635189 ], [ 79.2438367, 12.2646795 ], [ 79.2450495, 12.2739944 ], [ 79.2484281, 12.2753309 ], [ 79.2563235, 12.2746064 ], [ 79.2586381, 12.2784856 ], [ 79.2610288, 12.2768098 ], [ 79.2680379, 12.2871948 ], [ 79.267811, 12.2885317 ], [ 79.2719705, 12.2915129 ], [ 79.2801381, 12.2918414 ], [ 79.2804682, 12.293767 ], [ 79.2777735, 12.2978974 ], [ 79.277487, 12.3009931 ], [ 79.2737988, 12.3054709 ], [ 79.2770943, 12.3058473 ], [ 79.2774019, 12.3068734 ], [ 79.2812405, 12.3055957 ], [ 79.2840899, 12.307025 ], [ 79.2851657, 12.3064108 ], [ 79.2860566, 12.3087523 ], [ 79.2872519, 12.3081018 ], [ 79.2878859, 12.3092546 ], [ 79.2869419, 12.3139052 ], [ 79.2893307, 12.3179332 ], [ 79.285795, 12.3204631 ], [ 79.2733606, 12.319561 ], [ 79.2640572, 12.3231344 ], [ 79.2605534, 12.3213209 ], [ 79.2535332, 12.3231211 ], [ 79.2500997, 12.3224415 ], [ 79.2478136, 12.3202718 ], [ 79.2464972, 12.3163989 ], [ 79.2390592, 12.3150144 ], [ 79.234325, 12.3157371 ], [ 79.2337657, 12.3182452 ], [ 79.2319863, 12.319112 ], [ 79.2346107, 12.3298682 ], [ 79.2274219, 12.3322212 ], [ 79.2210919, 12.3325487 ], [ 79.2213407, 12.3340312 ], [ 79.2170702, 12.3348099 ], [ 79.2189238, 12.3377879 ], [ 79.2168695, 12.3395694 ], [ 79.211229, 12.3401677 ], [ 79.2077723, 12.3418681 ], [ 79.204554, 12.3403549 ], [ 79.1981645, 12.3429735 ], [ 79.2048451, 12.3457832 ], [ 79.2108073, 12.3443531 ], [ 79.212941, 12.3464317 ], [ 79.2160645, 12.3465268 ], [ 79.2213965, 12.3496562 ], [ 79.2265716, 12.3453832 ], [ 79.226998, 12.3425446 ], [ 79.2356872, 12.3435312 ], [ 79.2391501, 12.3465266 ], [ 79.2370701, 12.3530269 ], [ 79.2340637, 12.353819 ], [ 79.231997, 12.3590175 ], [ 79.2327199, 12.3618602 ], [ 79.22469, 12.3676982 ], [ 79.2274045, 12.3727323 ], [ 79.237058, 12.3684892 ], [ 79.238167, 12.3709068 ], [ 79.2412384, 12.3712717 ], [ 79.2455618, 12.3748858 ], [ 79.248508, 12.3829885 ], [ 79.2454045, 12.3936701 ], [ 79.2427068, 12.3971605 ], [ 79.2389051, 12.3995395 ], [ 79.2272174, 12.4019303 ], [ 79.2265909, 12.411282 ], [ 79.2301401, 12.4216357 ], [ 79.2303403, 12.4280537 ], [ 79.2345471, 12.4374171 ], [ 79.2324009, 12.4411197 ], [ 79.2300372, 12.441559 ], [ 79.2317578, 12.4429595 ], [ 79.2399347, 12.4428705 ], [ 79.2431222, 12.443877 ], [ 79.2434125, 12.4451786 ], [ 79.2508974, 12.4470936 ], [ 79.2694864, 12.4477393 ], [ 79.2868817, 12.4428375 ], [ 79.2982505, 12.4421044 ], [ 79.3089716, 12.4386815 ], [ 79.310139, 12.4415745 ], [ 79.3158504, 12.4432483 ], [ 79.3194178, 12.4491068 ], [ 79.3252583, 12.4507759 ], [ 79.3331143, 12.4467909 ], [ 79.3380032, 12.4458743 ], [ 79.3386151, 12.4446269 ] ], [ [ 79.6915332, 12.0346703 ], [ 79.6897684, 12.0278545 ], [ 79.6850661, 12.0264046 ], [ 79.6834168, 12.0216093 ], [ 79.6754777, 12.0213665 ], [ 79.6711232, 12.0101171 ], [ 79.6616327, 12.0122968 ], [ 79.6605032, 12.0114021 ], [ 79.6576191, 12.0051648 ], [ 79.6584415, 12.0014122 ], [ 79.6570248, 11.991387 ], [ 79.6608628, 11.989208 ], [ 79.6625156, 11.9895198 ], [ 79.6672952, 11.9909565 ], [ 79.6739025, 11.9950959 ], [ 79.6780331, 11.9862451 ], [ 79.6809296, 11.9834107 ], [ 79.6854717, 11.9916406 ], [ 79.6927346, 11.989917 ], [ 79.6947231, 11.9919912 ], [ 79.7014353, 11.9918766 ], [ 79.702322, 11.9941815 ], [ 79.7056049, 11.9946147 ], [ 79.7146438, 11.9906843 ], [ 79.7179861, 11.9904166 ], [ 79.7178627, 11.9923015 ], [ 79.7196119, 11.9922151 ], [ 79.7180236, 11.9929523 ], [ 79.7175615, 11.9978159 ], [ 79.7153807, 11.998246 ], [ 79.7151334, 12.0002483 ], [ 79.7030473, 12.0081537 ], [ 79.7026812, 12.0129539 ], [ 79.7015978, 12.013831 ], [ 79.7044114, 12.0270421 ], [ 79.7035906, 12.0314176 ], [ 79.6956824, 12.0329997 ], [ 79.6939622, 12.0348098 ], [ 79.6915332, 12.0346703 ] ], [ [ 79.7935211, 12.0169843 ], [ 79.8018594, 12.0170681 ], [ 79.8050541, 12.0210014 ], [ 79.8056684, 12.024491 ], [ 79.8043364, 12.0258556 ], [ 79.7925357, 12.0253504 ], [ 79.7888023, 12.0263752 ], [ 79.7899789, 12.0233337 ], [ 79.7891081, 12.0182259 ], [ 79.7935211, 12.0169843 ] ], [ [ 79.6386083, 11.9867629 ], [ 79.6414791, 11.9916276 ], [ 79.6361672, 11.9957995 ], [ 79.6364473, 11.9980867 ], [ 79.6423104, 11.9992255 ], [ 79.6438873, 12.00517 ], [ 79.6453162, 12.0047224 ], [ 79.6477851, 12.0187525 ], [ 79.6509994, 12.0218123 ], [ 79.6438413, 12.0274355 ], [ 79.639828, 12.0278334 ], [ 79.6375046, 12.0265407 ], [ 79.6349241, 12.0283939 ], [ 79.6352593, 12.0294199 ], [ 79.6335832, 12.0290539 ], [ 79.6311818, 12.0313681 ], [ 79.6255292, 12.0321726 ], [ 79.6257634, 12.028525 ], [ 79.6272466, 12.0268481 ], [ 79.6267967, 12.023761 ], [ 79.6281971, 12.0233497 ], [ 79.6290466, 12.0187981 ], [ 79.625828, 12.0153855 ], [ 79.6207131, 12.0135277 ], [ 79.6191738, 12.001412 ], [ 79.6196844, 12.0004232 ], [ 79.6263234, 12.0003602 ], [ 79.6236103, 11.9893224 ], [ 79.6171782, 11.9895527 ], [ 79.6179726, 11.9849785 ], [ 79.6208237, 11.9839391 ], [ 79.6208512, 11.9823842 ], [ 79.6243727, 11.9817876 ], [ 79.6245702, 11.9760067 ], [ 79.6186069, 11.9699543 ], [ 79.6274855, 11.9681465 ], [ 79.6265996, 11.9642729 ], [ 79.6287573, 11.9596038 ], [ 79.628404, 11.9451354 ], [ 79.6247455, 11.9431331 ], [ 79.6189136, 11.9432169 ], [ 79.6179475, 11.9360364 ], [ 79.6184851, 11.9260608 ], [ 79.6270319, 11.9217807 ], [ 79.6283768, 11.9194846 ], [ 79.6253248, 11.9030273 ], [ 79.6320901, 11.9012556 ], [ 79.6407141, 11.9022046 ], [ 79.6411135, 11.9077778 ], [ 79.6558788, 11.9078989 ], [ 79.6560491, 11.9129251 ], [ 79.6626722, 11.9130963 ], [ 79.6627, 11.9151663 ], [ 79.6610981, 11.9151801 ], [ 79.6610294, 11.9163146 ], [ 79.6625762, 11.91645 ], [ 79.6626728, 11.9181903 ], [ 79.6688693, 11.9182663 ], [ 79.6690034, 11.9260181 ], [ 79.670698, 11.9315773 ], [ 79.6698388, 11.9316173 ], [ 79.6703541, 11.934999 ], [ 79.6693361, 11.9374733 ], [ 79.6641761, 11.9383356 ], [ 79.6642632, 11.9369795 ], [ 79.6606925, 11.9371597 ], [ 79.6604124, 11.9415497 ], [ 79.6586223, 11.9419656 ], [ 79.6586455, 11.9446143 ], [ 79.656759, 11.9467587 ], [ 79.6574844, 11.9480541 ], [ 79.6528939, 11.9482309 ], [ 79.6520169, 11.9435663 ], [ 79.6472108, 11.9445926 ], [ 79.6426479, 11.9420999 ], [ 79.6422307, 11.9539899 ], [ 79.6473077, 11.9534291 ], [ 79.6484557, 11.9673922 ], [ 79.6413084, 11.9705329 ], [ 79.640317, 11.9762733 ], [ 79.6364377, 11.9778463 ], [ 79.6386083, 11.9867629 ] ], [ [ 79.6784025, 11.9718265 ], [ 79.6766711, 11.9681068 ], [ 79.6621965, 11.9691664 ], [ 79.6619801, 11.9627662 ], [ 79.6605202, 11.9625764 ], [ 79.660024, 11.9583911 ], [ 79.6541986, 11.959499 ], [ 79.6537947, 11.9606697 ], [ 79.6528121, 11.9578629 ], [ 79.6546434, 11.9534874 ], [ 79.657898, 11.9525063 ], [ 79.6587837, 11.9500655 ], [ 79.6641041, 11.9508559 ], [ 79.6732158, 11.9478715 ], [ 79.6765807, 11.948454 ], [ 79.6801382, 11.9517017 ], [ 79.6846608, 11.9533523 ], [ 79.683408, 11.9552193 ], [ 79.6838945, 11.9604318 ], [ 79.68785, 11.9696009 ], [ 79.6865056, 11.9732533 ], [ 79.6784025, 11.9718265 ] ], [ [ 79.617115, 11.8834148 ], [ 79.6081525, 11.8768648 ], [ 79.6045908, 11.8813483 ], [ 79.5994093, 11.8830066 ], [ 79.6000663, 11.8758424 ], [ 79.6031465, 11.8687464 ], [ 79.6020003, 11.8578622 ], [ 79.6104469, 11.8602675 ], [ 79.6122509, 11.8625728 ], [ 79.6195069, 11.8626862 ], [ 79.6191771, 11.8701903 ], [ 79.6284554, 11.8697965 ], [ 79.6263401, 11.854668 ], [ 79.647132, 11.8501612 ], [ 79.6528406, 11.8504998 ], [ 79.6578178, 11.8526449 ], [ 79.6617529, 11.8593493 ], [ 79.6616522, 11.8611844 ], [ 79.6634235, 11.8612474 ], [ 79.6627266, 11.8672546 ], [ 79.659285, 11.8677295 ], [ 79.6577478, 11.8700891 ], [ 79.6485834, 11.8705282 ], [ 79.6483912, 11.8804451 ], [ 79.6405206, 11.8805856 ], [ 79.6411586, 11.8866333 ], [ 79.6350915, 11.888568 ], [ 79.634504, 11.8810377 ], [ 79.630392, 11.8812773 ], [ 79.6297816, 11.888681 ], [ 79.6249121, 11.8892459 ], [ 79.6249579, 11.8908008 ], [ 79.6212176, 11.8905973 ], [ 79.617115, 11.8834148 ] ], [ [ 79.6473244, 11.844222 ], [ 79.6471867, 11.8422603 ], [ 79.6459569, 11.8423101 ], [ 79.6459382, 11.8356656 ], [ 79.6434012, 11.8270616 ], [ 79.6409455, 11.823367 ], [ 79.6470845, 11.8196784 ], [ 79.6463364, 11.8162432 ], [ 79.6596465, 11.8128703 ], [ 79.6634226, 11.8130597 ], [ 79.6651893, 11.8150032 ], [ 79.6712916, 11.8148803 ], [ 79.6713112, 11.8236491 ], [ 79.6633965, 11.8252863 ], [ 79.6594555, 11.8293999 ], [ 79.6617783, 11.8394161 ], [ 79.6515506, 11.843833 ], [ 79.6473244, 11.844222 ] ] ] } }
]
}
