{
"type": "FeatureCollection",
"name": "3309",
"crs": { "type": "name", "properties": { "name": "urn:ogc:def:crs:OGC:1.3:CRS84" } },
"features": [
{ "type": "Feature", "properties": { "code": "3309", "name": "Namakkal", "type": "district" }, "geometry": { "type": "Polygon", "coordinates": [ [ [ 78.4390504, 11.5981129 ], [ 78.4516212, 11.5970615 ], [ 78.4516749, 11.5915967 ], [ 78.4488125, 11.5654804 ], [ 78.453626, 11.5662703 ], [ 78.4536028, 11.5651267 ], [ 78.4575586, 11.5642307 ], [ 78.4606338, 11.5613461 ], [ 78.4558572, 11.5438637 ], [ 78.4543258, 11.5423453 ], [ 78.4572359, 11.5399535 ], [ 78.4665355, 11.5375281 ], [ 78.4670209, 11.5362805 ], [ 78.4642066, 11.5364304 ], [ 78.4598287, 11.5343524 ], [ 78.4616294, 11.5321235 ], [ 78.4616286, 11.5292352 ], [ 78.4702456, 11.5292779 ], [ 78.4727469, 11.5250915 ], [ 78.4734053, 11.5200469 ], [ 78.4650455, 11.5054902 ], [ 78.4652676, 11.4970423 ], [ 78.4618115, 11.4949098 ], [ 78.4600703, 11.4963342 ], [ 78.4606715, 11.4991048 ], [ 78.4577346, 11.5023733 ], [ 78.4553002, 11.4991966 ], [ 78.4525363, 11.4980854 ], [ 78.4503596, 11.4990486 ], [ 78.4457578, 11.4969026 ], [ 78.4463127, 11.4987422 ], [ 78.4423163, 11.4987114 ], [ 78.4402125, 11.4971705 ], [ 78.4399416, 11.4950777 ], [ 78.4366464, 11.4951417 ], [ 78.4368839, 11.4981165 ], [ 78.4342136, 11.498948 ], [ 78.4329205, 11.495391 ], [ 78.432306, 11.4929773 ], [ 78.4350234, 11.4919372 ], [ 78.4345417, 11.4888863 ], [ 78.4360305, 11.485862 ], [ 78.4332436, 11.4824859 ], [ 78.4328071, 11.4762438 ], [ 78.4269822, 11.4741971 ], [ 78.425914, 11.4709067 ], [ 78.4317423, 11.4667427 ], [ 78.4331851, 11.4628416 ], [ 78.4376992, 11.4647844 ], [ 78.4378497, 11.4615209 ], [ 78.4436168, 11.4511009 ], [ 78.4454013, 11.43966 ], [ 78.4579972, 11.4388163 ], [ 78.4525795, 11.4319381 ], [ 78.4485518, 11.4309491 ], [ 78.443067, 11.4087293 ], [ 78.4448755, 11.403124 ], [ 78.443556, 11.4029028 ], [ 78.4415485, 11.3990566 ], [ 78.4351936, 11.3964768 ], [ 78.4270231, 11.3849428 ], [ 78.4378495, 11.3899267 ], [ 78.4391195, 11.394903 ], [ 78.4469222, 11.3981605 ], [ 78.4473947, 11.4001583 ], [ 78.4542948, 11.4022721 ], [ 78.4544411, 11.4009657 ], [ 78.4566449, 11.4012589 ], [ 78.4589683, 11.4037038 ], [ 78.4670643, 11.4053785 ], [ 78.471216, 11.4080351 ], [ 78.4735109, 11.4066015 ], [ 78.4740599, 11.4042825 ], [ 78.4806628, 11.4070467 ], [ 78.4820851, 11.4127868 ], [ 78.4838862, 11.4141693 ], [ 78.489911, 11.4139683 ], [ 78.4869086, 11.410073 ], [ 78.4791032, 11.3878909 ], [ 78.4698759, 11.3856473 ], [ 78.464605, 11.3771193 ], [ 78.4547029, 11.3492914 ], [ 78.4595978, 11.3426184 ], [ 78.4574444, 11.3404041 ], [ 78.4468507, 11.3448002 ], [ 78.4469864, 11.3372968 ], [ 78.4480397, 11.3363473 ], [ 78.4472601, 11.3320985 ], [ 78.4518813, 11.3305199 ], [ 78.4557704, 11.3321869 ], [ 78.4547892, 11.3283225 ], [ 78.4562955, 11.3259716 ], [ 78.4624733, 11.3223991 ], [ 78.465436, 11.3133398 ], [ 78.4609481, 11.3057924 ], [ 78.4566521, 11.306006 ], [ 78.4525466, 11.2980017 ], [ 78.4503973, 11.2922481 ], [ 78.4506932, 11.2843197 ], [ 78.4470365, 11.2748326 ], [ 78.4424883, 11.2706299 ], [ 78.4381329, 11.2685289 ], [ 78.4386039, 11.2655364 ], [ 78.4370877, 11.26348 ], [ 78.4395511, 11.261798 ], [ 78.4395505, 11.2589006 ], [ 78.435337, 11.2549733 ], [ 78.4293728, 11.2416669 ], [ 78.4247045, 11.2258199 ], [ 78.4212152, 11.2233705 ], [ 78.4201618, 11.2207489 ], [ 78.4227573, 11.2164769 ], [ 78.4219234, 11.2116676 ], [ 78.4151653, 11.2092456 ], [ 78.4141851, 11.2058736 ], [ 78.411122, 11.2039754 ], [ 78.4106681, 11.197489 ], [ 78.3998542, 11.1952433 ], [ 78.3921535, 11.189503 ], [ 78.3853551, 11.1890737 ], [ 78.3811808, 11.1870021 ], [ 78.3874075, 11.1771669 ], [ 78.3768767, 11.1762364 ], [ 78.3796647, 11.1649675 ], [ 78.381505, 11.142267 ], [ 78.3806033, 11.1374394 ], [ 78.3775685, 11.1379592 ], [ 78.3768546, 11.1346594 ], [ 78.3758476, 11.1344741 ], [ 78.3722909, 11.1366618 ], [ 78.3643906, 11.1379045 ], [ 78.3499767, 11.1371304 ], [ 78.3460531, 11.137975 ], [ 78.3456975, 11.1329351 ], [ 78.3475251, 11.1226744 ], [ 78.3434436, 11.1121553 ], [ 78.3409678, 11.1106271 ], [ 78.339824, 11.1076708 ], [ 78.3371742, 11.1067573 ], [ 78.3366252, 11.1048588 ], [ 78.3272843, 11.1036865 ], [ 78.3239765, 11.09724 ], [ 78.3382012, 11.0948647 ], [ 78.3418127, 11.0901235 ], [ 78.338093, 11.083519 ], [ 78.3418641, 11.0833342 ], [ 78.3442855, 11.0788459 ], [ 78.3497181, 11.0754247 ], [ 78.3507484, 11.0692185 ], [ 78.3633516, 11.0650836 ], [ 78.3600993, 11.0466453 ], [ 78.3501237, 11.0482943 ], [ 78.3491234, 11.0325774 ], [ 78.3459619, 11.0304118 ], [ 78.3446309, 11.0262394 ], [ 78.339607, 11.026302 ], [ 78.3397258, 11.0271835 ], [ 78.3347246, 11.0279828 ], [ 78.3350401, 11.0290903 ], [ 78.330295, 11.03031 ], [ 78.3284093, 11.0331258 ], [ 78.3238746, 11.057923 ], [ 78.3047623, 11.0680893 ], [ 78.296918, 11.0706184 ], [ 78.2908844, 11.0771801 ], [ 78.2779143, 11.0794179 ], [ 78.2762399, 11.077894 ], [ 78.2720572, 11.0777253 ], [ 78.2701776, 11.0743615 ], [ 78.2699866, 11.0709442 ], [ 78.2676845, 11.0716032 ], [ 78.2655113, 11.0703006 ], [ 78.2623072, 11.0724102 ], [ 78.2603334, 11.0756911 ], [ 78.2564026, 11.0749572 ], [ 78.2550701, 11.0769682 ], [ 78.2548485, 11.0812443 ], [ 78.2507228, 11.0861713 ], [ 78.2517277, 11.0901803 ], [ 78.2488719, 11.0923151 ], [ 78.2387453, 11.0944625 ], [ 78.2298943, 11.0948497 ], [ 78.229177, 11.0845167 ], [ 78.2329518, 11.082626 ], [ 78.234868, 11.0785301 ], [ 78.2363719, 11.0738331 ], [ 78.2338449, 11.0712755 ], [ 78.2364206, 11.0689873 ], [ 78.2366897, 11.0666051 ], [ 78.2354075, 11.064133 ], [ 78.2302263, 11.0611694 ], [ 78.22892, 11.0545748 ], [ 78.2236624, 11.0554443 ], [ 78.223759, 11.056936 ], [ 78.2215307, 11.0575695 ], [ 78.2215782, 11.0636357 ], [ 78.2188656, 11.0669271 ], [ 78.2041678, 11.0709359 ], [ 78.2047086, 11.0739056 ], [ 78.2017756, 11.0754793 ], [ 78.1987487, 11.0669729 ], [ 78.1967947, 11.0671587 ], [ 78.1958194, 11.0646863 ], [ 78.1922455, 11.0647594 ], [ 78.1832633, 11.069566 ], [ 78.1748919, 11.0596273 ], [ 78.1633089, 11.0490559 ], [ 78.1626542, 11.0466557 ], [ 78.1638255, 11.0456159 ], [ 78.1784817, 11.0437653 ], [ 78.1821054, 11.0418572 ], [ 78.1881276, 11.044175 ], [ 78.1941861, 11.0445851 ], [ 78.1944838, 11.0460767 ], [ 78.1967533, 11.0455429 ], [ 78.1958409, 11.0369546 ], [ 78.1972729, 11.0362401 ], [ 78.1967362, 11.0296542 ], [ 78.1988408, 11.0290617 ], [ 78.1947915, 11.0220739 ], [ 78.1931795, 11.0226306 ], [ 78.1863066, 11.0200462 ], [ 78.1820241, 11.020847 ], [ 78.1801201, 11.01663 ], [ 78.1701726, 11.0127259 ], [ 78.1649043, 11.0131875 ], [ 78.1600117, 11.0223822 ], [ 78.1518815, 11.0289146 ], [ 78.1450093, 11.0372639 ], [ 78.1352173, 11.0422093 ], [ 78.1322339, 11.0467928 ], [ 78.1254293, 11.0526013 ], [ 78.1190227, 11.0605024 ], [ 78.1017418, 11.0754993 ], [ 78.0710112, 11.0790249 ], [ 78.0547664, 11.0739631 ], [ 78.04303, 11.083276 ], [ 78.0274766, 11.0905666 ], [ 78.0114249, 11.0947057 ], [ 78.008478, 11.0937914 ], [ 77.9951316, 11.096876 ], [ 77.9874786, 11.0943204 ], [ 77.9560127, 11.0691611 ], [ 77.9474406, 11.0655649 ], [ 77.9399131, 11.0667101 ], [ 77.9339554, 11.0699793 ], [ 77.9286563, 11.0711509 ], [ 77.9160445, 11.0731958 ], [ 77.9053634, 11.0730024 ], [ 77.8940144, 11.0773741 ], [ 77.8874063, 11.0882273 ], [ 77.8863998, 11.1069456 ], [ 77.8819786, 11.1224681 ], [ 77.8829855, 11.1391386 ], [ 77.8854208, 11.1497747 ], [ 77.8843406, 11.1559312 ], [ 77.8794562, 11.1636652 ], [ 77.8666794, 11.1736229 ], [ 77.863122, 11.1788797 ], [ 77.8614551, 11.1856915 ], [ 77.8642422, 11.2023758 ], [ 77.8708253, 11.2147523 ], [ 77.8647662, 11.2424472 ], [ 77.8582819, 11.2495435 ], [ 77.8408479, 11.2606024 ], [ 77.8367036, 11.2617409 ], [ 77.8257135, 11.2611333 ], [ 77.8140266, 11.2642679 ], [ 77.8076972, 11.2675977 ], [ 77.7916665, 11.2920022 ], [ 77.782916, 11.3014193 ], [ 77.7724065, 11.3220547 ], [ 77.7575568, 11.3343075 ], [ 77.7527839, 11.3447198 ], [ 77.7508237, 11.3541525 ], [ 77.7388821, 11.3678523 ], [ 77.7305501, 11.370052 ], [ 77.7174923, 11.3782737 ], [ 77.7095152, 11.3901141 ], [ 77.7015913, 11.3969189 ], [ 77.6950655, 11.4089846 ], [ 77.6867235, 11.4149393 ], [ 77.6837371, 11.4194554 ], [ 77.6834543, 11.4265521 ], [ 77.6864491, 11.4415764 ], [ 77.6946545, 11.4571059 ], [ 77.6965899, 11.4644281 ], [ 77.7062535, 11.4609498 ], [ 77.7091737, 11.4655686 ], [ 77.7119502, 11.463805 ], [ 77.7084521, 11.4573964 ], [ 77.709583, 11.4540151 ], [ 77.708679, 11.4491698 ], [ 77.7125967, 11.4490738 ], [ 77.7148474, 11.4516858 ], [ 77.7193797, 11.4533162 ], [ 77.7229672, 11.4519411 ], [ 77.7314236, 11.4447332 ], [ 77.7420821, 11.4457871 ], [ 77.7539498, 11.4517478 ], [ 77.761039, 11.450987 ], [ 77.765316, 11.4688522 ], [ 77.765514, 11.4777116 ], [ 77.7676573, 11.4811613 ], [ 77.7727389, 11.4828086 ], [ 77.7787392, 11.4787382 ], [ 77.7848942, 11.4778362 ], [ 77.7885682, 11.4677848 ], [ 77.7914558, 11.4655889 ], [ 77.7913647, 11.4640972 ], [ 77.7869707, 11.462369 ], [ 77.7842939, 11.4508103 ], [ 77.7958652, 11.4472883 ], [ 77.7978479, 11.4518858 ], [ 77.8043464, 11.4485744 ], [ 77.8040017, 11.4522762 ], [ 77.8057825, 11.4590659 ], [ 77.814329, 11.4575538 ], [ 77.8158205, 11.467399 ], [ 77.8111327, 11.4667424 ], [ 77.8083097, 11.4675779 ], [ 77.8082178, 11.4687757 ], [ 77.8112558, 11.469233 ], [ 77.8121588, 11.4682931 ], [ 77.8142389, 11.470314 ], [ 77.817841, 11.4692843 ], [ 77.8171907, 11.4672275 ], [ 77.8183547, 11.4673678 ], [ 77.8228585, 11.4712561 ], [ 77.8311946, 11.4689479 ], [ 77.8299765, 11.4639801 ], [ 77.8342522, 11.4625208 ], [ 77.8344502, 11.4570334 ], [ 77.8265055, 11.4512508 ], [ 77.8211447, 11.4489716 ], [ 77.8200182, 11.4461327 ], [ 77.8276435, 11.4430696 ], [ 77.8286083, 11.4408399 ], [ 77.8327532, 11.4391651 ], [ 77.8391403, 11.4412544 ], [ 77.8470588, 11.4362562 ], [ 77.847059, 11.434403 ], [ 77.8498952, 11.4346383 ], [ 77.8489151, 11.4315826 ], [ 77.8469815, 11.431501 ], [ 77.846638, 11.430249 ], [ 77.8482746, 11.4229039 ], [ 77.8471981, 11.4212133 ], [ 77.8483115, 11.4207433 ], [ 77.8498828, 11.4231482 ], [ 77.8520363, 11.4223303 ], [ 77.850676, 11.4178688 ], [ 77.852297, 11.4156571 ], [ 77.8543141, 11.4160972 ], [ 77.8552351, 11.4150035 ], [ 77.8574571, 11.4159936 ], [ 77.8645812, 11.4236783 ], [ 77.8659329, 11.4222952 ], [ 77.8658277, 11.4191085 ], [ 77.8639218, 11.4182993 ], [ 77.8650077, 11.417097 ], [ 77.8701219, 11.4155692 ], [ 77.8742124, 11.4161933 ], [ 77.8747943, 11.4136305 ], [ 77.8766728, 11.4135808 ], [ 77.8801456, 11.4234799 ], [ 77.8899874, 11.4244697 ], [ 77.889969, 11.4197598 ], [ 77.895852, 11.4214817 ], [ 77.8992653, 11.4197277 ], [ 77.9029952, 11.4249753 ], [ 77.9053731, 11.4240305 ], [ 77.9057077, 11.4252825 ], [ 77.9077604, 11.4257027 ], [ 77.9086706, 11.4227709 ], [ 77.9109398, 11.4222265 ], [ 77.9085121, 11.4279989 ], [ 77.9121371, 11.4352713 ], [ 77.9115556, 11.439909 ], [ 77.9100163, 11.4421196 ], [ 77.913334, 11.4444516 ], [ 77.9135821, 11.4510057 ], [ 77.9113048, 11.4516568 ], [ 77.9130509, 11.4541202 ], [ 77.9153925, 11.4548296 ], [ 77.9144352, 11.4578491 ], [ 77.9157, 11.4586807 ], [ 77.9188107, 11.4521532 ], [ 77.9217205, 11.4530479 ], [ 77.9227146, 11.4513617 ], [ 77.9241306, 11.4515107 ], [ 77.9236727, 11.4538386 ], [ 77.9256066, 11.4550407 ], [ 77.9242001, 11.4568263 ], [ 77.9252955, 11.4586026 ], [ 77.9232613, 11.4609669 ], [ 77.9255664, 11.4618932 ], [ 77.9283381, 11.4581139 ], [ 77.9300657, 11.4580775 ], [ 77.9310375, 11.4597995 ], [ 77.9411416, 11.4597977 ], [ 77.9437038, 11.4624956 ], [ 77.9436538, 11.4646608 ], [ 77.9468025, 11.4667303 ], [ 77.9480587, 11.4698218 ], [ 77.9475143, 11.4734289 ], [ 77.948541, 11.4739892 ], [ 77.9515142, 11.4704583 ], [ 77.9547996, 11.469106 ], [ 77.9671727, 11.4699524 ], [ 77.9673602, 11.4688721 ], [ 77.9719426, 11.4682469 ], [ 77.9742407, 11.4753202 ], [ 77.9727039, 11.4840599 ], [ 77.9734026, 11.4909961 ], [ 77.9769914, 11.5013607 ], [ 77.9721386, 11.5085565 ], [ 77.9738635, 11.5134784 ], [ 77.9718108, 11.5155176 ], [ 77.9745478, 11.517944 ], [ 77.9762287, 11.5281679 ], [ 77.9777375, 11.5306218 ], [ 77.9890019, 11.5270104 ], [ 78.0017109, 11.5252412 ], [ 78.0017421, 11.5272165 ], [ 78.0041036, 11.5249666 ], [ 78.0075825, 11.5248912 ], [ 78.0078612, 11.5270203 ], [ 78.0122432, 11.5265385 ], [ 78.0130764, 11.5287447 ], [ 78.0156662, 11.5285784 ], [ 78.0166143, 11.5302829 ], [ 78.0248934, 11.5268236 ], [ 78.0267532, 11.5300065 ], [ 78.0290174, 11.5298853 ], [ 78.0344403, 11.5284227 ], [ 78.0341066, 11.5241437 ], [ 78.0353453, 11.5225921 ], [ 78.0463233, 11.519793 ], [ 78.0436573, 11.5150823 ], [ 78.0540022, 11.5133947 ], [ 78.0550906, 11.5222137 ], [ 78.0574235, 11.5226573 ], [ 78.0587942, 11.5216044 ], [ 78.0581942, 11.5201805 ], [ 78.0596197, 11.5199547 ], [ 78.0587499, 11.5156651 ], [ 78.0629739, 11.5230247 ], [ 78.0676491, 11.5227592 ], [ 78.069486, 11.5273023 ], [ 78.070783, 11.5278902 ], [ 78.0695784, 11.5241834 ], [ 78.0702571, 11.5227191 ], [ 78.075253, 11.5223766 ], [ 78.0763707, 11.5239813 ], [ 78.0788966, 11.5239728 ], [ 78.0786435, 11.5288726 ], [ 78.0756319, 11.5300924 ], [ 78.0751411, 11.531706 ], [ 78.0775557, 11.5369543 ], [ 78.0762349, 11.540204 ], [ 78.0789518, 11.5467993 ], [ 78.082302, 11.5498735 ], [ 78.0832968, 11.5540123 ], [ 78.0866929, 11.5528846 ], [ 78.0867995, 11.5459057 ], [ 78.0903428, 11.545418 ], [ 78.0968882, 11.5477377 ], [ 78.0989137, 11.5519642 ], [ 78.0977584, 11.5536862 ], [ 78.105138, 11.5574793 ], [ 78.1101348, 11.5559023 ], [ 78.1099565, 11.550008 ], [ 78.1120755, 11.5494545 ], [ 78.1139216, 11.547572 ], [ 78.1134267, 11.5464691 ], [ 78.1166216, 11.5450319 ], [ 78.1164338, 11.5434272 ], [ 78.1181435, 11.5430973 ], [ 78.1177403, 11.5408599 ], [ 78.119166, 11.5391017 ], [ 78.1235524, 11.5394589 ], [ 78.1235044, 11.5407276 ], [ 78.1259314, 11.5419088 ], [ 78.127201, 11.5414207 ], [ 78.1270086, 11.5401958 ], [ 78.132211, 11.5381301 ], [ 78.1329444, 11.5416015 ], [ 78.1352776, 11.5416738 ], [ 78.1387475, 11.5440287 ], [ 78.1410805, 11.5405482 ], [ 78.1446282, 11.538948 ], [ 78.1447017, 11.5398068 ], [ 78.1482952, 11.5390517 ], [ 78.1482722, 11.5374787 ], [ 78.1605885, 11.5388112 ], [ 78.1612216, 11.5430871 ], [ 78.1638571, 11.5429196 ], [ 78.1649211, 11.547304 ], [ 78.1668144, 11.5487141 ], [ 78.176848, 11.5459463 ], [ 78.1767612, 11.5483873 ], [ 78.1832753, 11.5507637 ], [ 78.2014693, 11.5530877 ], [ 78.2037546, 11.5631896 ], [ 78.2073626, 11.564504 ], [ 78.2147841, 11.5638421 ], [ 78.2395999, 11.5574651 ], [ 78.2436043, 11.5527085 ], [ 78.2594827, 11.5587951 ], [ 78.2662253, 11.5598421 ], [ 78.2771009, 11.5658036 ], [ 78.2643291, 11.5669966 ], [ 78.2651385, 11.5717791 ], [ 78.2692082, 11.5745741 ], [ 78.2719296, 11.5786749 ], [ 78.283541, 11.5805368 ], [ 78.2901131, 11.5842487 ], [ 78.3032469, 11.5887604 ], [ 78.311866, 11.5876778 ], [ 78.3192628, 11.5784901 ], [ 78.3177786, 11.5733414 ], [ 78.3103243, 11.5749172 ], [ 78.307373, 11.5709659 ], [ 78.308364, 11.5679558 ], [ 78.3072693, 11.5646106 ], [ 78.3174416, 11.5635464 ], [ 78.3294849, 11.5584908 ], [ 78.3239987, 11.5544307 ], [ 78.3243579, 11.5463172 ], [ 78.3232494, 11.542606 ], [ 78.3104974, 11.5429015 ], [ 78.310067, 11.5411883 ], [ 78.3204455, 11.5367881 ], [ 78.3263447, 11.5364367 ], [ 78.3282701, 11.5349635 ], [ 78.3284816, 11.5312842 ], [ 78.3320702, 11.5330296 ], [ 78.3383534, 11.5391373 ], [ 78.34274, 11.538713 ], [ 78.3438443, 11.5413212 ], [ 78.3452194, 11.5416062 ], [ 78.343509, 11.5465057 ], [ 78.3492293, 11.5491055 ], [ 78.3491647, 11.5525136 ], [ 78.3564938, 11.5588832 ], [ 78.357786, 11.5643616 ], [ 78.3613519, 11.5711601 ], [ 78.3657019, 11.5779405 ], [ 78.3711435, 11.5789578 ], [ 78.3744944, 11.5885359 ], [ 78.3747374, 11.5856973 ], [ 78.3730046, 11.5829536 ], [ 78.3746962, 11.5820767 ], [ 78.3758333, 11.5773397 ], [ 78.3828702, 11.5751973 ], [ 78.3858547, 11.5864748 ], [ 78.3917273, 11.5853628 ], [ 78.4181434, 11.5899124 ], [ 78.4282344, 11.5927767 ], [ 78.4343005, 11.596907 ], [ 78.4390504, 11.5981129 ] ] ] } }
]
}
