{
"type": "FeatureCollection",
"name": "3312",
"crs": { "type": "name", "properties": { "name": "urn:ogc:def:crs:OGC:1.3:CRS84" } },
"features": [
{ "type": "Feature", "properties": { "code": "3312", "name": "Coimbatore", "type": "district" }, "geometry": { "type": "Polygon", "coordinates": [ [ [ 77.1110579, 11.404407 ], [ 77.1105864, 11.3994937 ], [ 77.1135105, 11.3805092 ], [ 77.1150956, 11.3788821 ], [ 77.1284038, 11.3783763 ], [ 77.1287887, 11.3755376 ], [ 77.1305385, 11.3749862 ], [ 77.1295216, 11.3666466 ], [ 77.1331268, 11.3631977 ], [ 77.1309509, 11.3612495 ], [ 77.1301493, 11.3582934 ], [ 77.1312854, 11.3586188 ], [ 77.1313816, 11.357665 ], [ 77.1293157, 11.354162 ], [ 77.1322335, 11.3546275 ], [ 77.132284, 11.351251 ], [ 77.1351605, 11.3484168 ], [ 77.1356827, 11.3461839 ], [ 77.1377073, 11.3457905 ], [ 77.1378401, 11.3434807 ], [ 77.1362186, 11.3437972 ], [ 77.1384768, 11.3417812 ], [ 77.1381424, 11.3399867 ], [ 77.1417333, 11.3367095 ], [ 77.1470826, 11.3362172 ], [ 77.1478571, 11.3310139 ], [ 77.1518647, 11.3297118 ], [ 77.1489377, 11.3249387 ], [ 77.1493726, 11.3211417 ], [ 77.1511129, 11.318538 ], [ 77.1505671, 11.3062793 ], [ 77.1441786, 11.3048817 ], [ 77.1383753, 11.3071884 ], [ 77.1373355, 11.305629 ], [ 77.1349494, 11.3061714 ], [ 77.1339739, 11.3079744 ], [ 77.1319098, 11.3078269 ], [ 77.1308321, 11.306063 ], [ 77.1301217, 11.3073393 ], [ 77.1263365, 11.3079805 ], [ 77.1259178, 11.3027692 ], [ 77.1225012, 11.3035631 ], [ 77.122057, 11.302528 ], [ 77.1189611, 11.3026002 ], [ 77.1187414, 11.2989795 ], [ 77.1168178, 11.2984641 ], [ 77.1184441, 11.2918151 ], [ 77.1196257, 11.2898218 ], [ 77.1233169, 11.2892342 ], [ 77.1233142, 11.2870148 ], [ 77.1262708, 11.2874036 ], [ 77.1271846, 11.285328 ], [ 77.1288383, 11.2850083 ], [ 77.1309658, 11.2859045 ], [ 77.1345141, 11.2829559 ], [ 77.1372299, 11.2830643 ], [ 77.1387482, 11.2860849 ], [ 77.1398449, 11.2838251 ], [ 77.1391535, 11.2797254 ], [ 77.1405796, 11.279823 ], [ 77.1438429, 11.287295 ], [ 77.1480744, 11.285993 ], [ 77.1476391, 11.2821961 ], [ 77.1506204, 11.2812196 ], [ 77.1512705, 11.2789413 ], [ 77.1534568, 11.2795479 ], [ 77.1534428, 11.2782404 ], [ 77.1547289, 11.2784077 ], [ 77.1550504, 11.2811842 ], [ 77.1562081, 11.2812681 ], [ 77.1560424, 11.2792665 ], [ 77.1624401, 11.2810016 ], [ 77.1625504, 11.2834968 ], [ 77.1700837, 11.283279 ], [ 77.1649531, 11.2701846 ], [ 77.1627806, 11.2521086 ], [ 77.1641149, 11.2513428 ], [ 77.165866, 11.2442731 ], [ 77.1594965, 11.2432619 ], [ 77.1592208, 11.2314868 ], [ 77.1561895, 11.23066 ], [ 77.1559832, 11.2268721 ], [ 77.1541196, 11.2268044 ], [ 77.1537073, 11.2228764 ], [ 77.1492294, 11.2230123 ], [ 77.1488858, 11.2186774 ], [ 77.1464728, 11.2187454 ], [ 77.1482674, 11.2144737 ], [ 77.1450255, 11.2071738 ], [ 77.146266, 11.2038695 ], [ 77.1479829, 11.2039371 ], [ 77.150249, 11.2005513 ], [ 77.1539071, 11.2003884 ], [ 77.1588742, 11.1973866 ], [ 77.1609818, 11.167996 ], [ 77.1710072, 11.1684198 ], [ 77.1719454, 11.1671992 ], [ 77.1734517, 11.1682297 ], [ 77.1781887, 11.1624612 ], [ 77.1790724, 11.1634962 ], [ 77.1805281, 11.1633062 ], [ 77.1809947, 11.16162 ], [ 77.1823086, 11.1619452 ], [ 77.1812326, 11.1606345 ], [ 77.178889, 11.1612451 ], [ 77.1778034, 11.1573082 ], [ 77.1764942, 11.1566982 ], [ 77.1760724, 11.1524809 ], [ 77.1774319, 11.1522456 ], [ 77.1787177, 11.1496237 ], [ 77.1766343, 11.1448372 ], [ 77.1753709, 11.1447922 ], [ 77.1754163, 11.1420755 ], [ 77.1730724, 11.1405751 ], [ 77.1731636, 11.1381839 ], [ 77.1808535, 11.1380878 ], [ 77.1839434, 11.1394931 ], [ 77.1837606, 11.1412289 ], [ 77.1865213, 11.1443202 ], [ 77.185304, 11.1456358 ], [ 77.1862883, 11.1466165 ], [ 77.1855381, 11.149148 ], [ 77.1868063, 11.1505083 ], [ 77.1895757, 11.1504626 ], [ 77.1914427, 11.1475106 ], [ 77.1951503, 11.1472747 ], [ 77.1958088, 11.144228 ], [ 77.20213, 11.1434265 ], [ 77.2023218, 11.1415506 ], [ 77.2055572, 11.1383179 ], [ 77.2067249, 11.1404286 ], [ 77.2086932, 11.1405682 ], [ 77.2099559, 11.1378015 ], [ 77.2122536, 11.1379409 ], [ 77.2123541, 11.1369104 ], [ 77.209539, 11.1365811 ], [ 77.20963, 11.1347549 ], [ 77.2124909, 11.1350344 ], [ 77.2110851, 11.1329736 ], [ 77.2114601, 11.1316581 ], [ 77.2130988, 11.1318475 ], [ 77.2135185, 11.1267395 ], [ 77.2248235, 11.1252717 ], [ 77.231566, 11.1266844 ], [ 77.2343302, 11.1385897 ], [ 77.2356992, 11.1398097 ], [ 77.2391609, 11.1377443 ], [ 77.2422121, 11.1380265 ], [ 77.2449257, 11.1363349 ], [ 77.2486721, 11.1302402 ], [ 77.2513672, 11.128971 ], [ 77.2535491, 11.121734 ], [ 77.2625828, 11.1140154 ], [ 77.2645705, 11.11063 ], [ 77.2640281, 11.1064236 ], [ 77.2617439, 11.1061266 ], [ 77.2512568, 11.1096721 ], [ 77.2463647, 11.105502 ], [ 77.2341074, 11.1033909 ], [ 77.23174, 11.0999111 ], [ 77.2168401, 11.0900978 ], [ 77.2053526, 11.0888442 ], [ 77.1969991, 11.0825811 ], [ 77.1951906, 11.0788251 ], [ 77.1857262, 11.0757622 ], [ 77.1683855, 11.067339 ], [ 77.1661566, 11.0649029 ], [ 77.1660873, 11.060238 ], [ 77.1765967, 11.0472184 ], [ 77.1788921, 11.0368441 ], [ 77.177969, 11.0289244 ], [ 77.1757745, 11.0243599 ], [ 77.1753468, 11.0157854 ], [ 77.1740155, 11.0120603 ], [ 77.1713754, 11.0114323 ], [ 77.1715811, 11.009344 ], [ 77.1674723, 11.0080924 ], [ 77.1674719, 11.0046118 ], [ 77.164969, 11.0021711 ], [ 77.1588609, 10.9990839 ], [ 77.1537778, 10.9983068 ], [ 77.1591803, 10.9907079 ], [ 77.1699426, 10.9687112 ], [ 77.1688026, 10.9617184 ], [ 77.1696986, 10.9567912 ], [ 77.1737501, 10.9459556 ], [ 77.177903, 10.9420224 ], [ 77.1747649, 10.9412544 ], [ 77.1736577, 10.9394555 ], [ 77.176054, 10.935952 ], [ 77.1818424, 10.9205731 ], [ 77.1834847, 10.9221142 ], [ 77.1862839, 10.9217295 ], [ 77.1886937, 10.9184519 ], [ 77.1989305, 10.9202308 ], [ 77.2002148, 10.9160313 ], [ 77.2034385, 10.9122787 ], [ 77.2071018, 10.9108313 ], [ 77.2078689, 10.9058182 ], [ 77.2109917, 10.902269 ], [ 77.2174132, 10.9022492 ], [ 77.2208842, 10.9008966 ], [ 77.2368346, 10.9072154 ], [ 77.2399303, 10.9051169 ], [ 77.2480713, 10.904653 ], [ 77.2489896, 10.9021258 ], [ 77.2510417, 10.901029 ], [ 77.2560013, 10.8887411 ], [ 77.2577869, 10.8698334 ], [ 77.2667544, 10.8592677 ], [ 77.2883983, 10.8480922 ], [ 77.2895264, 10.8440088 ], [ 77.2889858, 10.8389733 ], [ 77.290516, 10.8353726 ], [ 77.2916829, 10.8359815 ], [ 77.2921543, 10.8350856 ], [ 77.2901543, 10.8315795 ], [ 77.291529, 10.8277539 ], [ 77.2955229, 10.8269097 ], [ 77.2990296, 10.8145951 ], [ 77.2983537, 10.8114919 ], [ 77.2905672, 10.8116052 ], [ 77.2879436, 10.8081174 ], [ 77.2859899, 10.8074484 ], [ 77.2858508, 10.8054753 ], [ 77.2781976, 10.8027438 ], [ 77.2759139, 10.7913826 ], [ 77.2838724, 10.786627 ], [ 77.2541346, 10.7763911 ], [ 77.2480594, 10.7783063 ], [ 77.2433271, 10.7770424 ], [ 77.230092, 10.7774084 ], [ 77.2251834, 10.7818941 ], [ 77.2143857, 10.7855631 ], [ 77.2102815, 10.7909298 ], [ 77.2160382, 10.8028056 ], [ 77.2152912, 10.8034633 ], [ 77.2039885, 10.8015269 ], [ 77.196463, 10.8027219 ], [ 77.1879813, 10.8003956 ], [ 77.1848079, 10.7983349 ], [ 77.1766284, 10.7973462 ], [ 77.1742417, 10.7973058 ], [ 77.1717963, 10.80217 ], [ 77.1659617, 10.7967735 ], [ 77.1648594, 10.7929539 ], [ 77.1612247, 10.7932074 ], [ 77.1595737, 10.7878917 ], [ 77.1602496, 10.7792307 ], [ 77.1566515, 10.7777664 ], [ 77.1569484, 10.7738744 ], [ 77.1539035, 10.7717817 ], [ 77.1527601, 10.7656748 ], [ 77.1489384, 10.7669453 ], [ 77.145345, 10.7654402 ], [ 77.1447917, 10.7613809 ], [ 77.1409013, 10.7605448 ], [ 77.1404394, 10.7552289 ], [ 77.1376051, 10.7552742 ], [ 77.1370977, 10.752467 ], [ 77.1341492, 10.7501291 ], [ 77.1424451, 10.7184822 ], [ 77.1410327, 10.717117 ], [ 77.1425861, 10.6957267 ], [ 77.1412967, 10.678771 ], [ 77.1451167, 10.65993 ], [ 77.1490603, 10.6555903 ], [ 77.1525471, 10.6546362 ], [ 77.1522955, 10.6505861 ], [ 77.1728727, 10.6438443 ], [ 77.1811439, 10.6438521 ], [ 77.1786563, 10.6325064 ], [ 77.1754842, 10.6267343 ], [ 77.1743679, 10.6174497 ], [ 77.1725168, 10.6135352 ], [ 77.1727401, 10.6082509 ], [ 77.1693221, 10.6060635 ], [ 77.1705235, 10.6046032 ], [ 77.1706691, 10.5997032 ], [ 77.1662773, 10.5905544 ], [ 77.1663272, 10.5871822 ], [ 77.163627, 10.5873181 ], [ 77.1579841, 10.5842221 ], [ 77.1514414, 10.582984 ], [ 77.1459817, 10.583929 ], [ 77.1439485, 10.5828487 ], [ 77.1223469, 10.5851135 ], [ 77.1152013, 10.583852 ], [ 77.1138169, 10.5851674 ], [ 77.1101024, 10.5845659 ], [ 77.1021981, 10.5859936 ], [ 77.1010376, 10.5855913 ], [ 77.1007043, 10.5829287 ], [ 77.0905613, 10.5840802 ], [ 77.0902237, 10.5811917 ], [ 77.0854086, 10.5782437 ], [ 77.0805898, 10.5705131 ], [ 77.0804991, 10.5662187 ], [ 77.0828571, 10.5625712 ], [ 77.0793399, 10.5599487 ], [ 77.0770328, 10.5597088 ], [ 77.0757864, 10.5554322 ], [ 77.0763399, 10.5511651 ], [ 77.0736908, 10.5486423 ], [ 77.072737, 10.5451862 ], [ 77.0730848, 10.5401935 ], [ 77.0766361, 10.5299917 ], [ 77.0733817, 10.5163847 ], [ 77.0763508, 10.5166836 ], [ 77.0785893, 10.5148622 ], [ 77.0771611, 10.5064721 ], [ 77.0782672, 10.5022322 ], [ 77.0744305, 10.5020959 ], [ 77.0740664, 10.4949973 ], [ 77.0711347, 10.491602 ], [ 77.064056, 10.4874146 ], [ 77.0625912, 10.4814428 ], [ 77.0585451, 10.4790551 ], [ 77.0596197, 10.4735676 ], [ 77.0633202, 10.4688944 ], [ 77.0663576, 10.4678463 ], [ 77.0657871, 10.465717 ], [ 77.0689432, 10.4647548 ], [ 77.0718157, 10.4658539 ], [ 77.0731769, 10.4647331 ], [ 77.0732007, 10.4594939 ], [ 77.0707028, 10.4582774 ], [ 77.0643659, 10.448955 ], [ 77.0619592, 10.4487601 ], [ 77.0563018, 10.4447447 ], [ 77.0529512, 10.4390708 ], [ 77.0496456, 10.4362899 ], [ 77.0480807, 10.4310051 ], [ 77.0446741, 10.4305115 ], [ 77.0417983, 10.4263835 ], [ 77.044882, 10.4218775 ], [ 77.0447972, 10.4148256 ], [ 77.0572794, 10.4053631 ], [ 77.0605125, 10.4048349 ], [ 77.0752827, 10.3883157 ], [ 77.0793968, 10.3875841 ], [ 77.081055, 10.3828877 ], [ 77.0870508, 10.3774369 ], [ 77.0916, 10.3648436 ], [ 77.0884366, 10.3611771 ], [ 77.0899583, 10.3508662 ], [ 77.0866623, 10.3493966 ], [ 77.084545, 10.3425343 ], [ 77.0781818, 10.3373619 ], [ 77.0823595, 10.3344152 ], [ 77.0842137, 10.3295334 ], [ 77.080946, 10.3236247 ], [ 77.0812019, 10.3219702 ], [ 77.0883641, 10.3245932 ], [ 77.0894191, 10.3210402 ], [ 77.088657, 10.3190602 ], [ 77.0913588, 10.3139133 ], [ 77.0887546, 10.3119243 ], [ 77.0884462, 10.3098237 ], [ 77.079581, 10.3030149 ], [ 77.0726066, 10.2991283 ], [ 77.0661976, 10.297703 ], [ 77.0635257, 10.2945118 ], [ 77.0630041, 10.2913858 ], [ 77.0594444, 10.2902313 ], [ 77.0564531, 10.2870049 ], [ 77.0428767, 10.2837672 ], [ 77.0496044, 10.2780779 ], [ 77.0526161, 10.2722739 ], [ 77.0507948, 10.2680533 ], [ 77.0510812, 10.2621094 ], [ 77.0456167, 10.2575709 ], [ 77.0428988, 10.2568519 ], [ 77.0406305, 10.2526603 ], [ 77.0314736, 10.2522418 ], [ 77.0174867, 10.2456324 ], [ 77.0144339, 10.245791 ], [ 77.0111345, 10.2400881 ], [ 77.0054745, 10.2384016 ], [ 77.0037833, 10.2346372 ], [ 77.001001, 10.2351565 ], [ 76.9990293, 10.2303674 ], [ 76.9961636, 10.2310148 ], [ 76.9929595, 10.2299762 ], [ 76.9904625, 10.2280921 ], [ 76.9907081, 10.2256825 ], [ 76.9844961, 10.2229768 ], [ 76.9838519, 10.2206263 ], [ 76.9824462, 10.2201204 ], [ 76.9804804, 10.2237871 ], [ 76.9734666, 10.2254256 ], [ 76.97229, 10.2286128 ], [ 76.9685484, 10.2307747 ], [ 76.9654267, 10.2307393 ], [ 76.9588787, 10.2341403 ], [ 76.9557206, 10.2342404 ], [ 76.9532009, 10.2320938 ], [ 76.9505996, 10.232474 ], [ 76.9485097, 10.2338216 ], [ 76.9475427, 10.2368685 ], [ 76.944704, 10.2365482 ], [ 76.9393602, 10.2389043 ], [ 76.9215604, 10.2321849 ], [ 76.911598, 10.235287 ], [ 76.9082623, 10.240852 ], [ 76.9030047, 10.2402964 ], [ 76.9054561, 10.2479177 ], [ 76.9044294, 10.2509083 ], [ 76.9014224, 10.2511607 ], [ 76.8974147, 10.2624354 ], [ 76.8914418, 10.2630574 ], [ 76.8840877, 10.2708968 ], [ 76.8734219, 10.2763359 ], [ 76.8745206, 10.2942817 ], [ 76.8731353, 10.2984845 ], [ 76.8705209, 10.2988847 ], [ 76.8684226, 10.2960698 ], [ 76.8643489, 10.2953213 ], [ 76.8623864, 10.2920314 ], [ 76.8600853, 10.2918793 ], [ 76.8579173, 10.2936387 ], [ 76.8550988, 10.292846 ], [ 76.8512567, 10.2899045 ], [ 76.8522162, 10.2850972 ], [ 76.8487157, 10.2852781 ], [ 76.8482424, 10.2875393 ], [ 76.8434632, 10.2892196 ], [ 76.8421986, 10.2908997 ], [ 76.844652, 10.2952191 ], [ 76.8380731, 10.3017313 ], [ 76.8303134, 10.3036268 ], [ 76.8287039, 10.3078707 ], [ 76.8303699, 10.309557 ], [ 76.8306202, 10.3145374 ], [ 76.8329712, 10.3180705 ], [ 76.8361752, 10.330063 ], [ 76.8358082, 10.3328347 ], [ 76.8376798, 10.3362831 ], [ 76.8360928, 10.3404365 ], [ 76.8363083, 10.3460182 ], [ 76.8416986, 10.3506192 ], [ 76.8419392, 10.3535928 ], [ 76.8460124, 10.3573111 ], [ 76.8451598, 10.3629317 ], [ 76.8487854, 10.3682287 ], [ 76.8438928, 10.3775345 ], [ 76.8414977, 10.3783001 ], [ 76.8370575, 10.3826643 ], [ 76.8342921, 10.38325 ], [ 76.8305008, 10.3896601 ], [ 76.8236567, 10.3950608 ], [ 76.8340344, 10.403342 ], [ 76.8324971, 10.4056828 ], [ 76.8335848, 10.4077682 ], [ 76.8304343, 10.4112974 ], [ 76.8246365, 10.4101234 ], [ 76.8225338, 10.4145584 ], [ 76.8231749, 10.4170066 ], [ 76.8163786, 10.423519 ], [ 76.8283259, 10.4501655 ], [ 76.8310366, 10.5000327 ], [ 76.8430961, 10.5372853 ], [ 76.8420548, 10.540782 ], [ 76.83536, 10.5449397 ], [ 76.8351726, 10.5464076 ], [ 76.8356775, 10.557866 ], [ 76.8391399, 10.5613347 ], [ 76.8392229, 10.5647541 ], [ 76.8343995, 10.5702991 ], [ 76.8335652, 10.5743558 ], [ 76.8375419, 10.5818574 ], [ 76.8368874, 10.5865283 ], [ 76.8382671, 10.5966673 ], [ 76.8374036, 10.5984053 ], [ 76.8323343, 10.5992774 ], [ 76.8260068, 10.5961254 ], [ 76.8173123, 10.6032035 ], [ 76.8157253, 10.6078676 ], [ 76.8183292, 10.6111469 ], [ 76.8163117, 10.6136652 ], [ 76.8162972, 10.6168563 ], [ 76.8114482, 10.6200101 ], [ 76.8100973, 10.624181 ], [ 76.814969, 10.6296333 ], [ 76.8145462, 10.6357085 ], [ 76.8211324, 10.6344174 ], [ 76.830656, 10.637621 ], [ 76.839278, 10.634302 ], [ 76.8462006, 10.6358294 ], [ 76.8606584, 10.6323418 ], [ 76.8675062, 10.6332451 ], [ 76.8734595, 10.6377712 ], [ 76.8824755, 10.6397071 ], [ 76.8837381, 10.6499984 ], [ 76.8809183, 10.656454 ], [ 76.881368, 10.6612617 ], [ 76.878136, 10.6673544 ], [ 76.8784, 10.6750329 ], [ 76.8774772, 10.6767349 ], [ 76.8695823, 10.6767829 ], [ 76.8673526, 10.6794884 ], [ 76.8660344, 10.6853136 ], [ 76.870841, 10.6928756 ], [ 76.8675891, 10.6947751 ], [ 76.8822094, 10.7173415 ], [ 76.8863497, 10.7186271 ], [ 76.8902986, 10.7169165 ], [ 76.8928575, 10.7213567 ], [ 76.8886404, 10.7283111 ], [ 76.8884577, 10.7331071 ], [ 76.8900648, 10.7371841 ], [ 76.8961637, 10.745334 ], [ 76.896306, 10.7519846 ], [ 76.9024987, 10.7583883 ], [ 76.9037949, 10.7621806 ], [ 76.9025764, 10.7707888 ], [ 76.9053119, 10.7714317 ], [ 76.9075345, 10.777987 ], [ 76.9056084, 10.7882015 ], [ 76.9006265, 10.8008742 ], [ 76.9008873, 10.8071506 ], [ 76.8889853, 10.8095754 ], [ 76.884753, 10.8083809 ], [ 76.8700596, 10.8083273 ], [ 76.8652586, 10.8128961 ], [ 76.8639635, 10.8172743 ], [ 76.8604832, 10.818477 ], [ 76.85875, 10.8166651 ], [ 76.8525833, 10.8185529 ], [ 76.8499006, 10.8172497 ], [ 76.8450837, 10.8260979 ], [ 76.8464038, 10.8273236 ], [ 76.8473566, 10.8263313 ], [ 76.8485479, 10.8305219 ], [ 76.8508404, 10.8295756 ], [ 76.8531906, 10.8329226 ], [ 76.8537835, 10.8389586 ], [ 76.8521827, 10.8403639 ], [ 76.8508694, 10.8448687 ], [ 76.8487795, 10.8463522 ], [ 76.8484176, 10.8493902 ], [ 76.8416764, 10.8520794 ], [ 76.8390911, 10.856339 ], [ 76.8339019, 10.8581788 ], [ 76.8319412, 10.8601273 ], [ 76.8307563, 10.8699282 ], [ 76.8283154, 10.8719096 ], [ 76.8261281, 10.871319 ], [ 76.8193347, 10.8735379 ], [ 76.8166895, 10.8727449 ], [ 76.8143388, 10.8759914 ], [ 76.8120792, 10.8757488 ], [ 76.811463, 10.8778789 ], [ 76.8081312, 10.8767985 ], [ 76.8061061, 10.8787335 ], [ 76.8033337, 10.8782256 ], [ 76.8012213, 10.8800523 ], [ 76.7917997, 10.8811069 ], [ 76.7909213, 10.8844534 ], [ 76.7885131, 10.8850832 ], [ 76.7865218, 10.8877908 ], [ 76.7828197, 10.8885369 ], [ 76.7814299, 10.8904204 ], [ 76.7766068, 10.8891716 ], [ 76.7743823, 10.8901036 ], [ 76.7712846, 10.8876076 ], [ 76.7678992, 10.8870331 ], [ 76.7657363, 10.8888506 ], [ 76.7652895, 10.8911792 ], [ 76.7628988, 10.8915647 ], [ 76.7612528, 10.8934578 ], [ 76.7552707, 10.8931968 ], [ 76.7524127, 10.8950612 ], [ 76.7499996, 10.8922473 ], [ 76.7455389, 10.8926807 ], [ 76.7407874, 10.89097 ], [ 76.738575, 10.8951789 ], [ 76.7316839, 10.897645 ], [ 76.7234471, 10.9034498 ], [ 76.7178308, 10.9054607 ], [ 76.714902, 10.9086089 ], [ 76.7126081, 10.9076153 ], [ 76.7080676, 10.9101027 ], [ 76.695211, 10.9102267 ], [ 76.6767505, 10.9180555 ], [ 76.6687347, 10.9232348 ], [ 76.6620616, 10.9296404 ], [ 76.6590948, 10.9304965 ], [ 76.6557971, 10.9390056 ], [ 76.6593757, 10.9417777 ], [ 76.6647268, 10.9434842 ], [ 76.6658287, 10.947423 ], [ 76.663595, 10.9509308 ], [ 76.6674841, 10.9595872 ], [ 76.6667853, 10.9683349 ], [ 76.6738896, 10.9743942 ], [ 76.6750854, 10.9772212 ], [ 76.6860374, 10.989202 ], [ 76.6854623, 10.9938046 ], [ 76.6886064, 11.0022198 ], [ 76.6898484, 11.0111303 ], [ 76.6941643, 11.0215571 ], [ 76.7007717, 11.0275717 ], [ 76.7091165, 11.0328906 ], [ 76.7108874, 11.0387217 ], [ 76.7154183, 11.0410118 ], [ 76.7261626, 11.0411446 ], [ 76.7324156, 11.038445 ], [ 76.7376032, 11.0397387 ], [ 76.7477824, 11.0353523 ], [ 76.7492856, 11.0334339 ], [ 76.7638813, 11.0306741 ], [ 76.7665998, 11.029093 ], [ 76.7736492, 11.0335391 ], [ 76.7824433, 11.0344597 ], [ 76.7918409, 11.0373601 ], [ 76.79376, 11.0417907 ], [ 76.7931477, 11.0433951 ], [ 76.7973336, 11.0474647 ], [ 76.8008596, 11.0539656 ], [ 76.798593, 11.0563618 ], [ 76.7962162, 11.0558526 ], [ 76.7932341, 11.0529722 ], [ 76.7921759, 11.0491195 ], [ 76.7875816, 11.0446221 ], [ 76.7781599, 11.042091 ], [ 76.7689431, 11.0434341 ], [ 76.7620271, 11.0479811 ], [ 76.7607026, 11.0523087 ], [ 76.7510588, 11.0554065 ], [ 76.7461289, 11.0548236 ], [ 76.7441486, 11.0570748 ], [ 76.7457484, 11.0600223 ], [ 76.7439651, 11.0605239 ], [ 76.7425718, 11.0633386 ], [ 76.7422307, 11.0660514 ], [ 76.7437697, 11.0684432 ], [ 76.7411416, 11.0697332 ], [ 76.7410429, 11.0723369 ], [ 76.742139, 11.0733196 ], [ 76.7445715, 11.072482 ], [ 76.7457144, 11.0756431 ], [ 76.7479809, 11.0743223 ], [ 76.7501419, 11.0789423 ], [ 76.7541623, 11.0777875 ], [ 76.7545327, 11.0841556 ], [ 76.7527673, 11.0870531 ], [ 76.751679, 11.093187 ], [ 76.7465765, 11.0925117 ], [ 76.7437598, 11.0989902 ], [ 76.7411652, 11.0999178 ], [ 76.7389837, 11.1043033 ], [ 76.7407689, 11.1049761 ], [ 76.7407247, 11.1091935 ], [ 76.7445964, 11.1084643 ], [ 76.7474168, 11.1112025 ], [ 76.7475267, 11.1230454 ], [ 76.7453279, 11.1301927 ], [ 76.7470491, 11.1307118 ], [ 76.7482961, 11.1358373 ], [ 76.7462233, 11.1377095 ], [ 76.74245, 11.1332313 ], [ 76.7393096, 11.1319714 ], [ 76.740395, 11.1337022 ], [ 76.7350269, 11.1363936 ], [ 76.7317524, 11.131555 ], [ 76.7287541, 11.1304516 ], [ 76.7287094, 11.133896 ], [ 76.7263704, 11.1338471 ], [ 76.724747, 11.1385486 ], [ 76.7197082, 11.1413029 ], [ 76.7174157, 11.1440699 ], [ 76.7184696, 11.1476406 ], [ 76.7161135, 11.1491488 ], [ 76.7100318, 11.1479924 ], [ 76.7088697, 11.1462731 ], [ 76.7123116, 11.1442446 ], [ 76.7127427, 11.1427023 ], [ 76.7066065, 11.1416364 ], [ 76.7002602, 11.1465462 ], [ 76.7020615, 11.147568 ], [ 76.7009132, 11.1497673 ], [ 76.696232, 11.1504606 ], [ 76.6954846, 11.1518409 ], [ 76.6966793, 11.1537772 ], [ 76.695626, 11.1554881 ], [ 76.6929809, 11.1558512 ], [ 76.6897341, 11.1591944 ], [ 76.6898783, 11.1621546 ], [ 76.6922552, 11.1645628 ], [ 76.6929556, 11.1723625 ], [ 76.6964737, 11.1753059 ], [ 76.7007742, 11.1760599 ], [ 76.7002385, 11.1818194 ], [ 76.7065869, 11.179364 ], [ 76.709373, 11.1823904 ], [ 76.7103337, 11.1878435 ], [ 76.7137777, 11.1883643 ], [ 76.7184335, 11.1864051 ], [ 76.7236305, 11.1923815 ], [ 76.7290386, 11.1910397 ], [ 76.7281989, 11.1958463 ], [ 76.7268129, 11.1963197 ], [ 76.7224165, 11.2032683 ], [ 76.726426, 11.2101966 ], [ 76.7317685, 11.2136685 ], [ 76.7285796, 11.2182865 ], [ 76.7258242, 11.2186683 ], [ 76.7256534, 11.2255208 ], [ 76.7217463, 11.2249246 ], [ 76.7149031, 11.231332 ], [ 76.7111048, 11.2321906 ], [ 76.7073802, 11.2370402 ], [ 76.7069557, 11.2402747 ], [ 76.7008502, 11.2456553 ], [ 76.7002233, 11.2586469 ], [ 76.7019182, 11.260513 ], [ 76.7060081, 11.2633643 ], [ 76.7105089, 11.2607595 ], [ 76.7114787, 11.2573465 ], [ 76.7173583, 11.2570556 ], [ 76.7228889, 11.2537949 ], [ 76.727841, 11.2491931 ], [ 76.7297643, 11.245397 ], [ 76.7371175, 11.2446329 ], [ 76.7394383, 11.2499526 ], [ 76.7430321, 11.2531824 ], [ 76.7469149, 11.2523763 ], [ 76.7490392, 11.2486677 ], [ 76.7549184, 11.2486599 ], [ 76.7558432, 11.2525819 ], [ 76.7517764, 11.2537463 ], [ 76.751863, 11.2547001 ], [ 76.7559699, 11.2552037 ], [ 76.7577593, 11.2584589 ], [ 76.7588951, 11.2576278 ], [ 76.7639267, 11.2602921 ], [ 76.7676527, 11.2640996 ], [ 76.7669597, 11.2679911 ], [ 76.7689377, 11.2686789 ], [ 76.768346, 11.2709659 ], [ 76.7698252, 11.2767055 ], [ 76.7689767, 11.2800411 ], [ 76.7651626, 11.2836727 ], [ 76.7691413, 11.2895577 ], [ 76.775665, 11.2861547 ], [ 76.7796686, 11.2858466 ], [ 76.7870501, 11.2792128 ], [ 76.7903102, 11.2791189 ], [ 76.7921778, 11.2835221 ], [ 76.7963346, 11.2884593 ], [ 76.7978621, 11.2954931 ], [ 76.8054868, 11.2976649 ], [ 76.8069703, 11.2991569 ], [ 76.8178082, 11.2899338 ], [ 76.8242416, 11.2927962 ], [ 76.8255065, 11.2904462 ], [ 76.8281074, 11.290709 ], [ 76.829985, 11.2932676 ], [ 76.8337592, 11.2900679 ], [ 76.8427306, 11.2874206 ], [ 76.8426165, 11.2889121 ], [ 76.84432, 11.2894411 ], [ 76.8459088, 11.2926733 ], [ 76.850832, 11.2929134 ], [ 76.8510058, 11.29483 ], [ 76.8544267, 11.2960643 ], [ 76.8554153, 11.3030435 ], [ 76.8539999, 11.305769 ], [ 76.8548334, 11.3063341 ], [ 76.8599534, 11.3035956 ], [ 76.8595685, 11.3124503 ], [ 76.8568433, 11.3139508 ], [ 76.8545666, 11.3181136 ], [ 76.858862, 11.3209029 ], [ 76.8603462, 11.3245779 ], [ 76.8539979, 11.3254136 ], [ 76.851071, 11.3272124 ], [ 76.8549133, 11.3330483 ], [ 76.8482395, 11.3348375 ], [ 76.8498326, 11.3426259 ], [ 76.8540606, 11.3407641 ], [ 76.8546052, 11.3452707 ], [ 76.8556953, 11.3448461 ], [ 76.8564374, 11.3460257 ], [ 76.859213, 11.3433957 ], [ 76.8604682, 11.347129 ], [ 76.8617003, 11.34745 ], [ 76.8683235, 11.34458 ], [ 76.8692767, 11.3461712 ], [ 76.8634455, 11.3479021 ], [ 76.8624696, 11.3512786 ], [ 76.86383, 11.3530235 ], [ 76.8649338, 11.3520157 ], [ 76.8667064, 11.3530103 ], [ 76.8678654, 11.3549809 ], [ 76.8735635, 11.3518578 ], [ 76.8767336, 11.3583758 ], [ 76.878854, 11.3581814 ], [ 76.8811258, 11.3538878 ], [ 76.8842226, 11.3516905 ], [ 76.886541, 11.3550084 ], [ 76.8861334, 11.3576707 ], [ 76.8903157, 11.3612325 ], [ 76.8884331, 11.3646905 ], [ 76.8892301, 11.3653549 ], [ 76.8928857, 11.3660645 ], [ 76.9004438, 11.361422 ], [ 76.9023676, 11.3629764 ], [ 76.9025738, 11.3593696 ], [ 76.9000543, 11.3579233 ], [ 76.9021657, 11.3540314 ], [ 76.9014876, 11.3512063 ], [ 76.9026648, 11.3507949 ], [ 76.9063473, 11.3504285 ], [ 76.9086427, 11.3521505 ], [ 76.912916, 11.3526654 ], [ 76.914346, 11.3560689 ], [ 76.9206997, 11.3571032 ], [ 76.9207366, 11.3589926 ], [ 76.9252663, 11.3573106 ], [ 76.9253095, 11.3602306 ], [ 76.9294094, 11.3602757 ], [ 76.9329265, 11.3627342 ], [ 76.9326483, 11.356146 ], [ 76.9334934, 11.3593886 ], [ 76.9348718, 11.3584734 ], [ 76.9376979, 11.3596967 ], [ 76.9375944, 11.3635001 ], [ 76.950118, 11.3658017 ], [ 76.9374919, 11.3665738 ], [ 76.9341722, 11.3681362 ], [ 76.9352373, 11.3688428 ], [ 76.9345571, 11.3704004 ], [ 76.9290789, 11.3680048 ], [ 76.9284287, 11.3686989 ], [ 76.9334117, 11.3764345 ], [ 76.9488848, 11.3767524 ], [ 76.9574613, 11.3810573 ], [ 76.9595124, 11.3807948 ], [ 76.9615908, 11.3838079 ], [ 76.9660828, 11.3861284 ], [ 76.9718192, 11.3861058 ], [ 76.9813025, 11.3780698 ], [ 76.9801804, 11.3797853 ], [ 76.9814949, 11.383048 ], [ 76.9876172, 11.3822092 ], [ 76.9924878, 11.3770827 ], [ 77.0134218, 11.3687936 ], [ 77.0157118, 11.3713562 ], [ 77.0204078, 11.3701557 ], [ 77.0250291, 11.372657 ], [ 77.0257656, 11.3751253 ], [ 77.0234429, 11.3877084 ], [ 77.0262829, 11.3885412 ], [ 77.0325102, 11.3848143 ], [ 77.0356699, 11.3888066 ], [ 77.0369604, 11.3928841 ], [ 77.0455576, 11.3991653 ], [ 77.0454284, 11.4025327 ], [ 77.0532351, 11.4026796 ], [ 77.059855, 11.4043628 ], [ 77.0642722, 11.4015387 ], [ 77.0704249, 11.4024983 ], [ 77.069337, 11.3913334 ], [ 77.0704651, 11.3860903 ], [ 77.0761084, 11.3894137 ], [ 77.0756911, 11.3916873 ], [ 77.0801903, 11.3896811 ], [ 77.0811802, 11.3877513 ], [ 77.0892745, 11.3934388 ], [ 77.0913497, 11.3935566 ], [ 77.0884813, 11.3969645 ], [ 77.0931907, 11.3990037 ], [ 77.0915087, 11.4033382 ], [ 77.1099993, 11.4064229 ], [ 77.1110579, 11.404407 ] ] ] } }
]
}
