{
"type": "FeatureCollection",
"name": "3318",
"crs": { "type": "name", "properties": { "name": "urn:ogc:def:crs:OGC:1.3:CRS84" } },
"features": [
{ "type": "Feature", "properties": { "code": "3318", "name": "Cuddalore", "type": "district" }, "geometry": { "type": "MultiPolygon", "coordinates": [ [ [ [ 79.7100006, 11.8892081 ], [ 79.710716, 11.8875942 ], [ 79.7094486, 11.8849729 ], [ 79.7082647, 11.8690856 ], [ 79.7127108, 11.866648 ], [ 79.7134295, 11.8606679 ], [ 79.7189019, 11.8532851 ], [ 79.7197461, 11.8531131 ], [ 79.7194582, 11.8567473 ], [ 79.7211213, 11.8625007 ], [ 79.7325938, 11.8625601 ], [ 79.7326867, 11.8656156 ], [ 79.739368, 11.8646956 ], [ 79.7419463, 11.8627962 ], [ 79.7435966, 11.8585739 ], [ 79.7440532, 11.8529192 ], [ 79.7424558, 11.8515865 ], [ 79.743106, 11.8483227 ], [ 79.7518869, 11.8483461 ], [ 79.7541021, 11.8510637 ], [ 79.7538703, 11.8659298 ], [ 79.7554939, 11.8678515 ], [ 79.7586831, 11.8684676 ], [ 79.7574268, 11.8760651 ], [ 79.763989, 11.8769674 ], [ 79.7645312, 11.8754535 ], [ 79.7685282, 11.8759252 ], [ 79.7700937, 11.874606 ], [ 79.7692761, 11.865073 ], [ 79.7708792, 11.8613266 ], [ 79.7695038, 11.8582705 ], [ 79.7669113, 11.8576457 ], [ 79.7651332, 11.8519408 ], [ 79.7632013, 11.8518315 ], [ 79.7621704, 11.8483913 ], [ 79.7643323, 11.846869 ], [ 79.7654817, 11.8416805 ], [ 79.7681902, 11.8387979 ], [ 79.7724355, 11.8366209 ], [ 79.7758808, 11.8384121 ], [ 79.776718, 11.8452015 ], [ 79.7801584, 11.8481136 ], [ 79.7822848, 11.8558752 ], [ 79.8006617, 11.8552695 ], [ 79.8026967, 11.8540058 ], [ 79.8030969, 11.8507335 ], [ 79.8051301, 11.8493509 ], [ 79.8052912, 11.847656 ], [ 79.8077419, 11.84673 ], [ 79.8082057, 11.8452566 ], [ 79.8061601, 11.8416717 ], [ 79.8065606, 11.837075 ], [ 79.8078297, 11.8365773 ], [ 79.8070983, 11.8339292 ], [ 79.8022529, 11.8338872 ], [ 79.8004255, 11.8376564 ], [ 79.7982869, 11.8386999 ], [ 79.7981413, 11.8346499 ], [ 79.7938422, 11.8335503 ], [ 79.7936407, 11.8323479 ], [ 79.7986832, 11.8333031 ], [ 79.8007029, 11.8306414 ], [ 79.7975387, 11.8245566 ], [ 79.7950698, 11.8256858 ], [ 79.7962532, 11.8269202 ], [ 79.7958031, 11.8284975 ], [ 79.7923621, 11.8275472 ], [ 79.7873876, 11.8293536 ], [ 79.7864877, 11.830985 ], [ 79.7783796, 11.8317144 ], [ 79.7761881, 11.8286681 ], [ 79.7747054, 11.828644 ], [ 79.7730375, 11.8226679 ], [ 79.7700365, 11.8234442 ], [ 79.7701286, 11.8225945 ], [ 79.7651451, 11.8240806 ], [ 79.764517, 11.8334086 ], [ 79.7507673, 11.8386277 ], [ 79.7486792, 11.8406926 ], [ 79.7396438, 11.8423667 ], [ 79.7367307, 11.8442075 ], [ 79.7382054, 11.8369162 ], [ 79.7294459, 11.8369555 ], [ 79.7323904, 11.8333972 ], [ 79.7316622, 11.8243982 ], [ 79.732754, 11.8238012 ], [ 79.7330089, 11.8181285 ], [ 79.7347932, 11.8168532 ], [ 79.7342921, 11.8143403 ], [ 79.7359202, 11.8124774 ], [ 79.7357218, 11.8093225 ], [ 79.7245226, 11.8104429 ], [ 79.7253, 11.8031473 ], [ 79.7231206, 11.8028542 ], [ 79.7228152, 11.7967922 ], [ 79.7170169, 11.7975542 ], [ 79.7167551, 11.7964604 ], [ 79.7139106, 11.7962985 ], [ 79.7123584, 11.7915077 ], [ 79.7198804, 11.784947 ], [ 79.7218629, 11.7868629 ], [ 79.7261785, 11.7825178 ], [ 79.7319033, 11.780762 ], [ 79.7402712, 11.7808945 ], [ 79.7497832, 11.7760885 ], [ 79.7551006, 11.7752321 ], [ 79.7583626, 11.7849425 ], [ 79.7609629, 11.786937 ], [ 79.7619981, 11.7907885 ], [ 79.765911, 11.7918252 ], [ 79.7688202, 11.790728 ], [ 79.7688621, 11.7891234 ], [ 79.770665, 11.7895128 ], [ 79.7702224, 11.7834242 ], [ 79.7719387, 11.7821819 ], [ 79.7804859, 11.7811093 ], [ 79.7812417, 11.7843007 ], [ 79.7844337, 11.7873392 ], [ 79.7958644, 11.7857206 ], [ 79.7937251, 11.7691763 ], [ 79.7898489, 11.7547201 ], [ 79.7865716, 11.7336589 ], [ 79.772993, 11.6856045 ], [ 79.7606512, 11.6243728 ], [ 79.7573553, 11.5952651 ], [ 79.7569808, 11.557048 ], [ 79.759595, 11.5398887 ], [ 79.7628951, 11.5295272 ], [ 79.7705261, 11.5097754 ], [ 79.7735909, 11.5069941 ], [ 79.7740114, 11.504657 ], [ 79.7718946, 11.5058875 ], [ 79.7673795, 11.5138902 ], [ 79.7679325, 11.5106806 ], [ 79.7711568, 11.5061229 ], [ 79.7727304, 11.5010678 ], [ 79.7742722, 11.503685 ], [ 79.774637, 11.5009473 ], [ 79.7782446, 11.501518 ], [ 79.7772112, 11.5061516 ], [ 79.7707022, 11.5137078 ], [ 79.7786413, 11.5064266 ], [ 79.7792299, 11.5014949 ], [ 79.7756224, 11.4940228 ], [ 79.7770681, 11.488554 ], [ 79.790749, 11.4708941 ], [ 79.7920524, 11.4648556 ], [ 79.7974708, 11.4584341 ], [ 79.7947647, 11.466235 ], [ 79.7976754, 11.4637453 ], [ 79.8030625, 11.453798 ], [ 79.8107065, 11.4327362 ], [ 79.812879, 11.4226876 ], [ 79.8070814, 11.4011261 ], [ 79.8069188, 11.391905 ], [ 79.8043602, 11.3832347 ], [ 79.8033667, 11.3811009 ], [ 79.7915684, 11.3724279 ], [ 79.7813016, 11.3746575 ], [ 79.7716148, 11.3814117 ], [ 79.7643946, 11.3819739 ], [ 79.7569222, 11.3728943 ], [ 79.7593178, 11.3626392 ], [ 79.7593084, 11.3526226 ], [ 79.7546092, 11.351156 ], [ 79.7346791, 11.3497101 ], [ 79.7245089, 11.3458443 ], [ 79.7122863, 11.3364945 ], [ 79.6908678, 11.3166256 ], [ 79.683809, 11.3119937 ], [ 79.6758986, 11.3076059 ], [ 79.6572304, 11.3039151 ], [ 79.6510335, 11.2999333 ], [ 79.6456336, 11.2936234 ], [ 79.6424183, 11.2836385 ], [ 79.6446113, 11.2710814 ], [ 79.6491215, 11.261851 ], [ 79.6484615, 11.2519157 ], [ 79.6469556, 11.2492604 ], [ 79.6443592, 11.2477101 ], [ 79.6336169, 11.2463091 ], [ 79.6231025, 11.2551795 ], [ 79.6163666, 11.2555318 ], [ 79.6115413, 11.2490521 ], [ 79.6104342, 11.2354101 ], [ 79.6085666, 11.2293078 ], [ 79.6025921, 11.2213924 ], [ 79.5983482, 11.2182278 ], [ 79.5777777, 11.2128276 ], [ 79.570224, 11.2093321 ], [ 79.5619419, 11.2082815 ], [ 79.5267201, 11.1837265 ], [ 79.4996174, 11.1755161 ], [ 79.4790267, 11.1617273 ], [ 79.4726727, 11.1610015 ], [ 79.4586623, 11.1505547 ], [ 79.455821, 11.1558847 ], [ 79.4600837, 11.1593687 ], [ 79.4638817, 11.1705371 ], [ 79.4723526, 11.1771975 ], [ 79.4792513, 11.1765941 ], [ 79.481797, 11.1776329 ], [ 79.4956306, 11.1989814 ], [ 79.5018207, 11.2033479 ], [ 79.500721, 11.2052188 ], [ 79.5028892, 11.2095953 ], [ 79.5054705, 11.2224066 ], [ 79.5102115, 11.2281401 ], [ 79.5049485, 11.2327485 ], [ 79.5050515, 11.2380326 ], [ 79.5037236, 11.2381812 ], [ 79.4951737, 11.2484097 ], [ 79.4948878, 11.2585102 ], [ 79.5039844, 11.2577737 ], [ 79.5036944, 11.260992 ], [ 79.5052452, 11.2645817 ], [ 79.5038955, 11.2724055 ], [ 79.501166, 11.2726891 ], [ 79.5016111, 11.2910818 ], [ 79.4975026, 11.292998 ], [ 79.4971036, 11.30306 ], [ 79.4951485, 11.3037864 ], [ 79.4983033, 11.3138898 ], [ 79.4874175, 11.3168275 ], [ 79.4735527, 11.3140658 ], [ 79.4709021, 11.3181257 ], [ 79.4632304, 11.3183268 ], [ 79.4640831, 11.3212104 ], [ 79.4608036, 11.3207819 ], [ 79.4614959, 11.3232135 ], [ 79.4605849, 11.3249902 ], [ 79.4579515, 11.3258361 ], [ 79.4580985, 11.3276351 ], [ 79.4552675, 11.3258775 ], [ 79.4553274, 11.3274008 ], [ 79.4520047, 11.3285544 ], [ 79.4523697, 11.3320753 ], [ 79.4492646, 11.3335858 ], [ 79.4486512, 11.3352358 ], [ 79.4465992, 11.3356928 ], [ 79.4463881, 11.3335322 ], [ 79.4375251, 11.3337961 ], [ 79.4355385, 11.3405903 ], [ 79.4330969, 11.3399127 ], [ 79.4307985, 11.3455497 ], [ 79.4365844, 11.3489207 ], [ 79.4373235, 11.3572874 ], [ 79.4284323, 11.3573929 ], [ 79.4258043, 11.3666596 ], [ 79.4246994, 11.3603587 ], [ 79.415483, 11.3616436 ], [ 79.4129684, 11.3643243 ], [ 79.4085387, 11.3648626 ], [ 79.4053679, 11.3541411 ], [ 79.400338, 11.3499015 ], [ 79.3982998, 11.3530432 ], [ 79.3952033, 11.3535134 ], [ 79.3936235, 11.3667078 ], [ 79.389235, 11.3669385 ], [ 79.3890976, 11.3687601 ], [ 79.3902888, 11.3729593 ], [ 79.3940683, 11.3771674 ], [ 79.3913151, 11.3782342 ], [ 79.3919797, 11.3881604 ], [ 79.3897486, 11.3879526 ], [ 79.3897441, 11.3905426 ], [ 79.3908207, 11.392423 ], [ 79.3905506, 11.3974042 ], [ 79.3914623, 11.3974177 ], [ 79.3913295, 11.3989952 ], [ 79.3940234, 11.3992483 ], [ 79.3940693, 11.4017027 ], [ 79.3933913, 11.4028192 ], [ 79.3878935, 11.4039675 ], [ 79.387582, 11.4062275 ], [ 79.3846453, 11.4065847 ], [ 79.3850805, 11.4092063 ], [ 79.3798071, 11.4105082 ], [ 79.3796331, 11.4039494 ], [ 79.3776539, 11.4028962 ], [ 79.3796194, 11.4001254 ], [ 79.3824644, 11.4003198 ], [ 79.3824324, 11.4022454 ], [ 79.3854286, 11.4019154 ], [ 79.3840358, 11.3971195 ], [ 79.3771867, 11.3974404 ], [ 79.3732924, 11.3985297 ], [ 79.373242, 11.4007762 ], [ 79.3745568, 11.404885 ], [ 79.3773744, 11.4053009 ], [ 79.3777179, 11.411272 ], [ 79.3683665, 11.4176044 ], [ 79.3531917, 11.4189051 ], [ 79.3461317, 11.4158171 ], [ 79.3309335, 11.419431 ], [ 79.3127397, 11.4184916 ], [ 79.3126577, 11.416349 ], [ 79.307971, 11.4148924 ], [ 79.2979334, 11.4121053 ], [ 79.2925865, 11.4123252 ], [ 79.2900012, 11.4023032 ], [ 79.2960188, 11.3799892 ], [ 79.2889135, 11.3796842 ], [ 79.2804242, 11.3811052 ], [ 79.2803286, 11.3795141 ], [ 79.273617, 11.3803389 ], [ 79.2729277, 11.3857718 ], [ 79.2676365, 11.3857065 ], [ 79.2586103, 11.3884737 ], [ 79.2554961, 11.3861716 ], [ 79.2515154, 11.375195 ], [ 79.2494275, 11.372835 ], [ 79.2415567, 11.3696172 ], [ 79.238177, 11.3726604 ], [ 79.2389598, 11.3832147 ], [ 79.2378302, 11.3886166 ], [ 79.2353983, 11.3908775 ], [ 79.2302448, 11.3920094 ], [ 79.2230703, 11.3914014 ], [ 79.2108273, 11.3852259 ], [ 79.1897068, 11.3793185 ], [ 79.1834666, 11.3751114 ], [ 79.1766407, 11.3739554 ], [ 79.1722796, 11.3747063 ], [ 79.1684686, 11.3782506 ], [ 79.1614462, 11.3818088 ], [ 79.1424713, 11.38426 ], [ 79.1283931, 11.3941999 ], [ 79.1058752, 11.4017157 ], [ 79.1001575, 11.4011276 ], [ 79.0876921, 11.3968227 ], [ 79.0831382, 11.3967949 ], [ 79.0711709, 11.4003908 ], [ 79.0530002, 11.4028318 ], [ 79.0487993, 11.4018633 ], [ 79.0324417, 11.3935683 ], [ 79.0107245, 11.3974294 ], [ 79.004506, 11.4008982 ], [ 78.9969897, 11.407552 ], [ 78.9923575, 11.4070973 ], [ 78.9838114, 11.4029147 ], [ 78.9721845, 11.405617 ], [ 78.9620868, 11.4054572 ], [ 78.9600804, 11.4067822 ], [ 78.9560781, 11.4141736 ], [ 78.9482676, 11.4195499 ], [ 78.9416724, 11.4319817 ], [ 78.9291656, 11.4433069 ], [ 78.9247498, 11.4525828 ], [ 78.9215149, 11.4537043 ], [ 78.915701, 11.4628266 ], [ 78.9115679, 11.4654216 ], [ 78.9086728, 11.4759175 ], [ 78.8962681, 11.4865181 ], [ 78.8915616, 11.4890947 ], [ 78.8900677, 11.4937053 ], [ 78.8839953, 11.4978277 ], [ 78.877634, 11.507523 ], [ 78.8786147, 11.5098508 ], [ 78.8856728, 11.5061308 ], [ 78.8920205, 11.5067047 ], [ 78.8996284, 11.5045754 ], [ 78.9049449, 11.5053479 ], [ 78.9113677, 11.5233193 ], [ 78.9152413, 11.5284989 ], [ 78.9164651, 11.5283948 ], [ 78.917483, 11.5315994 ], [ 78.9177032, 11.5329961 ], [ 78.9148982, 11.5338236 ], [ 78.9152608, 11.5385335 ], [ 78.9176909, 11.5441788 ], [ 78.9187268, 11.5443143 ], [ 78.9180853, 11.5462309 ], [ 78.9190342, 11.5461087 ], [ 78.91892, 11.549101 ], [ 78.9212217, 11.5538423 ], [ 78.9195489, 11.556202 ], [ 78.9237998, 11.5670767 ], [ 78.9306254, 11.5658191 ], [ 78.9317947, 11.5676676 ], [ 78.9369105, 11.5673729 ], [ 78.9385337, 11.5695874 ], [ 78.9464189, 11.571231 ], [ 78.9561186, 11.5692806 ], [ 78.9618352, 11.5698305 ], [ 78.970001, 11.5742714 ], [ 78.9742553, 11.5745593 ], [ 78.9736714, 11.5695061 ], [ 78.9810097, 11.5670263 ], [ 78.9918435, 11.5707066 ], [ 78.9962969, 11.5758216 ], [ 79.0044071, 11.5746299 ], [ 79.0044976, 11.577351 ], [ 79.0076139, 11.5796214 ], [ 79.0080575, 11.5821438 ], [ 79.0133428, 11.5834117 ], [ 79.0141119, 11.5857804 ], [ 79.0154367, 11.5860838 ], [ 79.0154032, 11.5896366 ], [ 79.0188677, 11.5928744 ], [ 79.0145344, 11.5952638 ], [ 79.014349, 11.5998968 ], [ 79.012138, 11.6026576 ], [ 79.0183899, 11.6067462 ], [ 79.0238519, 11.6027842 ], [ 79.0295419, 11.6017783 ], [ 79.0334631, 11.5979783 ], [ 79.041761, 11.5991336 ], [ 79.0445217, 11.5966891 ], [ 79.049808, 11.5956195 ], [ 79.048113, 11.5915328 ], [ 79.0435338, 11.5892262 ], [ 79.0431814, 11.5872282 ], [ 79.049192, 11.5857249 ], [ 79.0550141, 11.5863999 ], [ 79.0579932, 11.5896552 ], [ 79.0646721, 11.5927937 ], [ 79.0652625, 11.5968528 ], [ 79.0682286, 11.5975542 ], [ 79.0681503, 11.5987701 ], [ 79.0723589, 11.5992094 ], [ 79.0778656, 11.5968917 ], [ 79.076974, 11.6079928 ], [ 79.0655708, 11.6113262 ], [ 79.0693374, 11.6209277 ], [ 79.067483, 11.630216 ], [ 79.0782169, 11.6295899 ], [ 79.0840897, 11.6343189 ], [ 79.0913451, 11.6232911 ], [ 79.0986264, 11.621154 ], [ 79.0982192, 11.614175 ], [ 79.1028686, 11.610677 ], [ 79.1061831, 11.61489 ], [ 79.1129414, 11.6132859 ], [ 79.1163344, 11.6095254 ], [ 79.1161695, 11.6053624 ], [ 79.1180631, 11.6055162 ], [ 79.1164725, 11.599179 ], [ 79.133587, 11.5939271 ], [ 79.1333394, 11.5926976 ], [ 79.1346735, 11.5921009 ], [ 79.1341188, 11.5901302 ], [ 79.1357554, 11.5889504 ], [ 79.1436544, 11.5876936 ], [ 79.1462586, 11.5897999 ], [ 79.1477439, 11.5894788 ], [ 79.1502338, 11.5974612 ], [ 79.1564873, 11.5982427 ], [ 79.1593251, 11.5971666 ], [ 79.1607143, 11.5978988 ], [ 79.1768925, 11.5917178 ], [ 79.1836903, 11.5859761 ], [ 79.1902751, 11.5935415 ], [ 79.1925398, 11.5929896 ], [ 79.1949766, 11.6033897 ], [ 79.2015393, 11.6115785 ], [ 79.2025889, 11.6105613 ], [ 79.2038272, 11.6119351 ], [ 79.205534, 11.6163417 ], [ 79.2123895, 11.6200916 ], [ 79.2126111, 11.6254026 ], [ 79.2098831, 11.6258915 ], [ 79.2111957, 11.630375 ], [ 79.2099999, 11.6337157 ], [ 79.2155353, 11.637294 ], [ 79.2158202, 11.6391652 ], [ 79.2175347, 11.6380031 ], [ 79.2188877, 11.6389022 ], [ 79.2237011, 11.6355197 ], [ 79.2246354, 11.6319846 ], [ 79.2356068, 11.6293276 ], [ 79.2412101, 11.6417648 ], [ 79.2440991, 11.6424688 ], [ 79.248646, 11.6490211 ], [ 79.2487437, 11.6523975 ], [ 79.2595723, 11.6490349 ], [ 79.2629609, 11.6492216 ], [ 79.2631728, 11.6468396 ], [ 79.2708867, 11.6437284 ], [ 79.2710875, 11.6462055 ], [ 79.2734036, 11.645117 ], [ 79.2752003, 11.6471201 ], [ 79.2783551, 11.6471709 ], [ 79.279574, 11.6491918 ], [ 79.2914648, 11.6472748 ], [ 79.2966615, 11.6426886 ], [ 79.296347, 11.6363649 ], [ 79.3087328, 11.6326574 ], [ 79.3116095, 11.6438994 ], [ 79.318511, 11.6420794 ], [ 79.3199769, 11.6479965 ], [ 79.3264058, 11.6478441 ], [ 79.3280196, 11.649205 ], [ 79.3295358, 11.6577436 ], [ 79.3323141, 11.6609624 ], [ 79.3447276, 11.6602456 ], [ 79.351157, 11.6576338 ], [ 79.3516383, 11.6586599 ], [ 79.3598419, 11.6598856 ], [ 79.3632122, 11.6625888 ], [ 79.3605248, 11.6647492 ], [ 79.3615515, 11.672691 ], [ 79.3711955, 11.6739209 ], [ 79.3716402, 11.6754849 ], [ 79.3742771, 11.6751234 ], [ 79.3769094, 11.6791192 ], [ 79.3816191, 11.6780434 ], [ 79.3833664, 11.6803487 ], [ 79.384889, 11.6795034 ], [ 79.3849761, 11.6808594 ], [ 79.3921806, 11.6795801 ], [ 79.395478, 11.6802716 ], [ 79.3952302, 11.6772521 ], [ 79.3992796, 11.6773694 ], [ 79.3992796, 11.6763344 ], [ 79.403659, 11.6759272 ], [ 79.4099689, 11.6727581 ], [ 79.4183885, 11.6715006 ], [ 79.4178422, 11.6678982 ], [ 79.4284628, 11.6667938 ], [ 79.4316546, 11.6677651 ], [ 79.4312783, 11.6664182 ], [ 79.4333828, 11.6639408 ], [ 79.4356256, 11.6659473 ], [ 79.4442788, 11.6660089 ], [ 79.4424961, 11.6711621 ], [ 79.4426874, 11.6862002 ], [ 79.4396296, 11.6915028 ], [ 79.4371531, 11.6917565 ], [ 79.4345182, 11.7033373 ], [ 79.4370575, 11.7185829 ], [ 79.4358615, 11.7239394 ], [ 79.4349671, 11.7239034 ], [ 79.4349674, 11.7260775 ], [ 79.4291014, 11.7281894 ], [ 79.4284506, 11.7311637 ], [ 79.4311065, 11.7319452 ], [ 79.4313173, 11.7307293 ], [ 79.4376614, 11.733734 ], [ 79.4397997, 11.7376297 ], [ 79.4425513, 11.7352879 ], [ 79.4465328, 11.7352599 ], [ 79.4569228, 11.7378473 ], [ 79.4572948, 11.7393659 ], [ 79.4627911, 11.7432291 ], [ 79.4617289, 11.7502805 ], [ 79.4630871, 11.7541889 ], [ 79.4603121, 11.7553107 ], [ 79.4620425, 11.7585375 ], [ 79.4622371, 11.7652542 ], [ 79.4637515, 11.7672471 ], [ 79.4537791, 11.7696725 ], [ 79.4504987, 11.768245 ], [ 79.4508785, 11.7645747 ], [ 79.4470295, 11.7638885 ], [ 79.446273, 11.7653848 ], [ 79.4432407, 11.7651956 ], [ 79.4437501, 11.7662532 ], [ 79.4419799, 11.768369 ], [ 79.4403555, 11.7665025 ], [ 79.4387775, 11.7666294 ], [ 79.43575, 11.7678143 ], [ 79.435311, 11.7750283 ], [ 79.4306415, 11.7785367 ], [ 79.4319681, 11.7830157 ], [ 79.4354362, 11.7822693 ], [ 79.4393513, 11.7906667 ], [ 79.4382787, 11.7952141 ], [ 79.4416903, 11.8083395 ], [ 79.4435214, 11.8099572 ], [ 79.4494533, 11.8082112 ], [ 79.4536798, 11.8110758 ], [ 79.4664244, 11.8072846 ], [ 79.4672087, 11.8062492 ], [ 79.4652488, 11.8037458 ], [ 79.4658861, 11.8021997 ], [ 79.4639265, 11.8005641 ], [ 79.4683076, 11.7992384 ], [ 79.4710699, 11.8000331 ], [ 79.4709007, 11.8020851 ], [ 79.4726398, 11.8026134 ], [ 79.4727139, 11.8048327 ], [ 79.4776236, 11.8062324 ], [ 79.4826909, 11.8118535 ], [ 79.4797803, 11.8199679 ], [ 79.4770146, 11.8229656 ], [ 79.4797316, 11.8251117 ], [ 79.4809349, 11.8283701 ], [ 79.4804976, 11.8371843 ], [ 79.4716365, 11.8353521 ], [ 79.4719589, 11.8391624 ], [ 79.4697066, 11.8410208 ], [ 79.4710789, 11.8422769 ], [ 79.4688033, 11.8435568 ], [ 79.4694645, 11.8448357 ], [ 79.4724228, 11.8450902 ], [ 79.4722276, 11.8468824 ], [ 79.4674556, 11.847824 ], [ 79.4604345, 11.8468227 ], [ 79.4515008, 11.8490805 ], [ 79.4523327, 11.8539754 ], [ 79.4500446, 11.8540822 ], [ 79.4512427, 11.8627626 ], [ 79.4534225, 11.8627982 ], [ 79.4550769, 11.8714942 ], [ 79.470992, 11.8711506 ], [ 79.4987105, 11.8625874 ], [ 79.5039572, 11.8593581 ], [ 79.5099512, 11.8575934 ], [ 79.5291606, 11.8570948 ], [ 79.5427422, 11.8479238 ], [ 79.5505389, 11.8465476 ], [ 79.5650226, 11.8399296 ], [ 79.5730435, 11.8399765 ], [ 79.5799854, 11.8436255 ], [ 79.5908196, 11.8414757 ], [ 79.6038068, 11.8290428 ], [ 79.6168382, 11.8247499 ], [ 79.620665, 11.8201441 ], [ 79.6243222, 11.8117868 ], [ 79.6367513, 11.8004552 ], [ 79.6411006, 11.7984979 ], [ 79.6473541, 11.7993745 ], [ 79.6640188, 11.8101352 ], [ 79.668194, 11.8106003 ], [ 79.6748088, 11.806793 ], [ 79.6745796, 11.8035437 ], [ 79.6814236, 11.7962428 ], [ 79.6839343, 11.8021681 ], [ 79.6896602, 11.8021398 ], [ 79.6905742, 11.8069986 ], [ 79.6881252, 11.8122424 ], [ 79.6857228, 11.8125056 ], [ 79.6874983, 11.8207084 ], [ 79.6907698, 11.8204004 ], [ 79.6899821, 11.8276235 ], [ 79.6852523, 11.8319501 ], [ 79.6876889, 11.8328672 ], [ 79.7030924, 11.83191 ], [ 79.6998586, 11.8365529 ], [ 79.6997216, 11.8395587 ], [ 79.6947395, 11.8444188 ], [ 79.6945962, 11.8597099 ], [ 79.6893841, 11.8642401 ], [ 79.6898236, 11.8808419 ], [ 79.6850599, 11.880983 ], [ 79.6856067, 11.8848791 ], [ 79.6846799, 11.885851 ], [ 79.696585, 11.8866666 ], [ 79.6968562, 11.8885831 ], [ 79.6996146, 11.8891113 ], [ 79.7100006, 11.8892081 ] ], [ [ 79.6994044, 11.8742316 ], [ 79.6972303, 11.8740805 ], [ 79.695996, 11.8603515 ], [ 79.6990708, 11.8612864 ], [ 79.6994044, 11.8742316 ] ], [ [ 79.7020026, 11.8229064 ], [ 79.6945924, 11.8230393 ], [ 79.6929855, 11.8137373 ], [ 79.7042346, 11.8134681 ], [ 79.7027487, 11.8162031 ], [ 79.7020026, 11.8229064 ] ] ], [ [ [ 79.7795593, 11.90436 ], [ 79.7876673, 11.8968371 ], [ 79.7965013, 11.8998864 ], [ 79.7967509, 11.8942907 ], [ 79.7946748, 11.8852146 ], [ 79.7921246, 11.8803271 ], [ 79.7923735, 11.8768468 ], [ 79.7895878, 11.8771577 ], [ 79.7872144, 11.8733292 ], [ 79.7851714, 11.863071 ], [ 79.7806671, 11.8627492 ], [ 79.7785481, 11.8631563 ], [ 79.7778456, 11.866716 ], [ 79.7799018, 11.8723855 ], [ 79.779202, 11.8778231 ], [ 79.7762021, 11.8782181 ], [ 79.7728422, 11.8752207 ], [ 79.7735551, 11.8832857 ], [ 79.7710217, 11.8834384 ], [ 79.7720214, 11.8853733 ], [ 79.7705322, 11.8908826 ], [ 79.7728828, 11.9004432 ], [ 79.7691972, 11.9006633 ], [ 79.7698435, 11.9027743 ], [ 79.7751587, 11.9018272 ], [ 79.775387, 11.9049868 ], [ 79.7795593, 11.90436 ] ], [ [ 79.7890209, 11.8950359 ], [ 79.7909943, 11.8953258 ], [ 79.7892565, 11.89584 ], [ 79.7890209, 11.8950359 ] ], [ [ 79.7912494, 11.8839311 ], [ 79.7929475, 11.8834849 ], [ 79.7933218, 11.8845534 ], [ 79.7915875, 11.8849994 ], [ 79.7912494, 11.8839311 ] ] ] ] } }
]
}
