{
"type": "FeatureCollection",
"name": "3320",
"crs": { "type": "name", "properties": { "name": "urn:ogc:def:crs:OGC:1.3:CRS84" } },
"features": [
{ "type": "Feature", "properties": { "code": "3320", "name": "Tiruvarur", "type": "district" }, "geometry": { "type": "MultiPolygon", "coordinates": [ [ [ [ 79.7694868, 10.9015171 ], [ 79.7702738, 10.90074 ], [ 79.766949, 10.9002008 ], [ 79.7678231, 10.8987095 ], [ 79.7666362, 10.8986275 ], [ 79.7661576, 10.9006118 ], [ 79.7694868, 10.9015171 ] ] ], [ [ [ 79.7650979, 10.9089152 ], [ 79.7639006, 10.9059404 ], [ 79.7660369, 10.9053129 ], [ 79.767886, 10.9017697 ], [ 79.7639802, 10.9014563 ], [ 79.7652417, 10.9035362 ], [ 79.7621795, 10.9015198 ], [ 79.7622963, 10.9034084 ], [ 79.7650769, 10.9041463 ], [ 79.7636817, 10.9046475 ], [ 79.7630268, 10.9068124 ], [ 79.762469, 10.9062291 ], [ 79.7640582, 10.9122191 ], [ 79.7650979, 10.9089152 ] ] ], [ [ [ 79.6710084, 11.0172582 ], [ 79.7003067, 11.0154229 ], [ 79.705788, 11.0097709 ], [ 79.7110335, 11.0064109 ], [ 79.7161219, 11.0087782 ], [ 79.7199965, 11.0004909 ], [ 79.7218448, 11.0010372 ], [ 79.7211121, 10.999089 ], [ 79.7228733, 10.999215 ], [ 79.7232022, 10.9981209 ], [ 79.7299587, 10.9985705 ], [ 79.730049, 10.9959394 ], [ 79.7317639, 10.994804 ], [ 79.7344541, 10.9959196 ], [ 79.7481322, 10.9964631 ], [ 79.7477393, 10.9885626 ], [ 79.7526102, 10.9880176 ], [ 79.752902, 10.9828693 ], [ 79.7585641, 10.9834894 ], [ 79.758447, 10.9797997 ], [ 79.7557073, 10.9795081 ], [ 79.7555949, 10.9779704 ], [ 79.7526949, 10.9777461 ], [ 79.7528449, 10.9768877 ], [ 79.7547922, 10.9751731 ], [ 79.7547786, 10.9718818 ], [ 79.7567418, 10.9729071 ], [ 79.7594489, 10.9721903 ], [ 79.760578, 10.9680942 ], [ 79.7628036, 10.96653 ], [ 79.7616982, 10.9650019 ], [ 79.7640424, 10.9602417 ], [ 79.7588662, 10.9605913 ], [ 79.7557595, 10.9584084 ], [ 79.7493813, 10.9584591 ], [ 79.7461045, 10.9562888 ], [ 79.7454893, 10.9627209 ], [ 79.7464507, 10.9648812 ], [ 79.7447724, 10.9662059 ], [ 79.7418494, 10.9664327 ], [ 79.7401104, 10.9643539 ], [ 79.7389587, 10.9672876 ], [ 79.7355325, 10.9675009 ], [ 79.7347738, 10.9693949 ], [ 79.7311969, 10.9705166 ], [ 79.730117, 10.9694908 ], [ 79.7236625, 10.9697588 ], [ 79.7220061, 10.9682404 ], [ 79.7217639, 10.9691715 ], [ 79.7196915, 10.9685074 ], [ 79.7210262, 10.9650539 ], [ 79.72048, 10.9579803 ], [ 79.7191852, 10.9571805 ], [ 79.7215131, 10.955702 ], [ 79.7214578, 10.9541653 ], [ 79.7197425, 10.9544458 ], [ 79.7208533, 10.9518738 ], [ 79.7326867, 10.9514285 ], [ 79.7335805, 10.957241 ], [ 79.7367048, 10.9574256 ], [ 79.7371777, 10.9490635 ], [ 79.7321778, 10.9478081 ], [ 79.7308822, 10.9444093 ], [ 79.7257452, 10.9433211 ], [ 79.724066, 10.9413416 ], [ 79.725493, 10.9411786 ], [ 79.7252909, 10.9384034 ], [ 79.7274314, 10.9379374 ], [ 79.7233829, 10.9361845 ], [ 79.7233049, 10.935181 ], [ 79.7294939, 10.936572 ], [ 79.7295892, 10.9341493 ], [ 79.7272339, 10.9352707 ], [ 79.7259026, 10.9342901 ], [ 79.7240853, 10.9291287 ], [ 79.7187163, 10.9315342 ], [ 79.7157202, 10.9308658 ], [ 79.7158975, 10.926974 ], [ 79.718806, 10.9250254 ], [ 79.7155401, 10.9244474 ], [ 79.7144031, 10.9137081 ], [ 79.7084769, 10.9190154 ], [ 79.7050171, 10.9195899 ], [ 79.7071232, 10.9220108 ], [ 79.7066011, 10.9254454 ], [ 79.7031502, 10.9256128 ], [ 79.7040708, 10.9214129 ], [ 79.701045, 10.9206978 ], [ 79.7010036, 10.9193644 ], [ 79.6906169, 10.9202965 ], [ 79.6890529, 10.9217114 ], [ 79.6900003, 10.9253363 ], [ 79.6887383, 10.9274337 ], [ 79.6847775, 10.9283424 ], [ 79.6807936, 10.9279765 ], [ 79.6805371, 10.925129 ], [ 79.6789406, 10.9235199 ], [ 79.6800242, 10.9204734 ], [ 79.6788892, 10.9153839 ], [ 79.6716813, 10.9169028 ], [ 79.6685664, 10.914322 ], [ 79.6685018, 10.9091104 ], [ 79.6664298, 10.907325 ], [ 79.668012, 10.905169 ], [ 79.6676458, 10.9010196 ], [ 79.6640142, 10.8975076 ], [ 79.6563398, 10.8933219 ], [ 79.6576016, 10.8871838 ], [ 79.6559826, 10.885995 ], [ 79.6525527, 10.8861485 ], [ 79.6521455, 10.8803538 ], [ 79.6556436, 10.8757165 ], [ 79.6538692, 10.8744192 ], [ 79.6462277, 10.87436 ], [ 79.6466381, 10.8710371 ], [ 79.652378, 10.8671735 ], [ 79.6509145, 10.8626128 ], [ 79.65096, 10.8563571 ], [ 79.642034, 10.8570616 ], [ 79.6438859, 10.853387 ], [ 79.6491033, 10.8535274 ], [ 79.6521853, 10.8519637 ], [ 79.6523086, 10.8482483 ], [ 79.6550016, 10.8439634 ], [ 79.6544753, 10.8360805 ], [ 79.6481927, 10.8349185 ], [ 79.6482749, 10.8292775 ], [ 79.6507531, 10.830141 ], [ 79.6542189, 10.829079 ], [ 79.6528378, 10.8245815 ], [ 79.6434372, 10.8230531 ], [ 79.6417135, 10.8262532 ], [ 79.6312842, 10.8227356 ], [ 79.6312707, 10.8154222 ], [ 79.6425181, 10.8157804 ], [ 79.6571757, 10.8057603 ], [ 79.659357, 10.811998 ], [ 79.6589641, 10.817422 ], [ 79.6751406, 10.8187916 ], [ 79.6791912, 10.8163959 ], [ 79.6865569, 10.8161424 ], [ 79.6860515, 10.8297251 ], [ 79.6959552, 10.8294486 ], [ 79.6956719, 10.8304792 ], [ 79.6981913, 10.8307275 ], [ 79.6983646, 10.8283952 ], [ 79.7032018, 10.827102 ], [ 79.7035807, 10.8243899 ], [ 79.7072846, 10.8260664 ], [ 79.7087611, 10.8246605 ], [ 79.7099601, 10.8291758 ], [ 79.7123375, 10.828068 ], [ 79.7132706, 10.8297494 ], [ 79.7276322, 10.8291955 ], [ 79.7280783, 10.822682 ], [ 79.7259889, 10.8229672 ], [ 79.7259429, 10.8220994 ], [ 79.7278261, 10.8200831 ], [ 79.7277552, 10.8121459 ], [ 79.7249384, 10.8109713 ], [ 79.7236482, 10.8076267 ], [ 79.7254811, 10.806076 ], [ 79.7278092, 10.809556 ], [ 79.7317139, 10.8098806 ], [ 79.7318852, 10.8021649 ], [ 79.7288937, 10.7971076 ], [ 79.7245597, 10.7975198 ], [ 79.7239873, 10.7943875 ], [ 79.7208966, 10.7936649 ], [ 79.7177915, 10.7904788 ], [ 79.7110519, 10.7868728 ], [ 79.705657, 10.7858565 ], [ 79.7059901, 10.7827015 ], [ 79.7036815, 10.7833979 ], [ 79.7000999, 10.7734497 ], [ 79.7013066, 10.7723828 ], [ 79.7003821, 10.7674832 ], [ 79.6949001, 10.7628462 ], [ 79.6974633, 10.7558218 ], [ 79.6982405, 10.7454855 ], [ 79.6945597, 10.7408619 ], [ 79.6899925, 10.7379427 ], [ 79.6875514, 10.7373961 ], [ 79.6870031, 10.7383139 ], [ 79.6864859, 10.7347113 ], [ 79.683372, 10.7295993 ], [ 79.6812784, 10.7287498 ], [ 79.6840932, 10.7234153 ], [ 79.6870827, 10.7241246 ], [ 79.6893177, 10.7226325 ], [ 79.6871544, 10.715884 ], [ 79.6778437, 10.7164957 ], [ 79.67671, 10.7157138 ], [ 79.6764992, 10.7119394 ], [ 79.6728425, 10.710864 ], [ 79.6713662, 10.7118496 ], [ 79.668893, 10.7081116 ], [ 79.6651817, 10.7086183 ], [ 79.6642908, 10.7130709 ], [ 79.6607348, 10.7141833 ], [ 79.6600628, 10.711783 ], [ 79.6552544, 10.7129362 ], [ 79.6539833, 10.7083164 ], [ 79.6549431, 10.7074665 ], [ 79.6523333, 10.7068203 ], [ 79.652173, 10.7023271 ], [ 79.6557105, 10.7007628 ], [ 79.6603177, 10.7016122 ], [ 79.6618942, 10.6973946 ], [ 79.665674, 10.697462 ], [ 79.6705091, 10.6925117 ], [ 79.6722917, 10.6932258 ], [ 79.6731186, 10.6908479 ], [ 79.6755225, 10.6892474 ], [ 79.6778247, 10.6804098 ], [ 79.6765855, 10.6760072 ], [ 79.6749676, 10.6758718 ], [ 79.674967, 10.671487 ], [ 79.6729059, 10.6716907 ], [ 79.6708079, 10.6694941 ], [ 79.6718355, 10.6643272 ], [ 79.6688097, 10.6607429 ], [ 79.6667016, 10.6503974 ], [ 79.660373, 10.6556855 ], [ 79.6541718, 10.6572501 ], [ 79.6531752, 10.6528337 ], [ 79.6500859, 10.65207 ], [ 79.6494182, 10.6428394 ], [ 79.6570358, 10.6405425 ], [ 79.6632638, 10.6353436 ], [ 79.6699854, 10.6329064 ], [ 79.6691259, 10.6295072 ], [ 79.6711863, 10.6257008 ], [ 79.6736262, 10.6244257 ], [ 79.672661, 10.6164022 ], [ 79.6664102, 10.6173387 ], [ 79.6620143, 10.615436 ], [ 79.6589255, 10.6157753 ], [ 79.6555577, 10.6134973 ], [ 79.6586826, 10.6075844 ], [ 79.6589931, 10.6039636 ], [ 79.6673727, 10.6026383 ], [ 79.6702544, 10.5907765 ], [ 79.6692577, 10.5851533 ], [ 79.6721089, 10.5864141 ], [ 79.6871674, 10.5835504 ], [ 79.6858599, 10.5788269 ], [ 79.6833883, 10.5794737 ], [ 79.681154, 10.5785248 ], [ 79.6797459, 10.5726621 ], [ 79.668859, 10.5755204 ], [ 79.6607256, 10.5638722 ], [ 79.6596106, 10.5592208 ], [ 79.6757468, 10.5616329 ], [ 79.6782861, 10.5557877 ], [ 79.6871581, 10.5567084 ], [ 79.6881531, 10.5513697 ], [ 79.6916205, 10.5516765 ], [ 79.6997562, 10.5490395 ], [ 79.7016796, 10.5493781 ], [ 79.7020913, 10.5515839 ], [ 79.710348, 10.5536842 ], [ 79.7158042, 10.5464862 ], [ 79.7150126, 10.5417264 ], [ 79.726733, 10.5361314 ], [ 79.7225014, 10.5309478 ], [ 79.7145516, 10.525548 ], [ 79.7124444, 10.5208067 ], [ 79.7073727, 10.5152433 ], [ 79.7038867, 10.5122381 ], [ 79.7005887, 10.5119992 ], [ 79.7003271, 10.5060505 ], [ 79.6943844, 10.5053148 ], [ 79.6896071, 10.5079692 ], [ 79.6883548, 10.5103594 ], [ 79.6899259, 10.5033357 ], [ 79.6986479, 10.4888852 ], [ 79.6994369, 10.4833928 ], [ 79.6922384, 10.4816042 ], [ 79.6772345, 10.4806845 ], [ 79.6800151, 10.4750426 ], [ 79.6796174, 10.4728547 ], [ 79.6892785, 10.4551332 ], [ 79.6902001, 10.4498984 ], [ 79.6826461, 10.447314 ], [ 79.6722428, 10.4472612 ], [ 79.6697765, 10.4462986 ], [ 79.6681641, 10.4437855 ], [ 79.6654332, 10.4433427 ], [ 79.6635605, 10.4402645 ], [ 79.6601948, 10.4410876 ], [ 79.6588527, 10.4466659 ], [ 79.6308306, 10.4455414 ], [ 79.6324198, 10.4425443 ], [ 79.6306892, 10.4211763 ], [ 79.6332509, 10.4157292 ], [ 79.6302508, 10.4115885 ], [ 79.629429, 10.400423 ], [ 79.6274199, 10.3961737 ], [ 79.6284885, 10.3914589 ], [ 79.6334882, 10.3850219 ], [ 79.6343486, 10.3788803 ], [ 79.6371364, 10.3786751 ], [ 79.6388022, 10.342263 ], [ 79.6517033, 10.3330498 ], [ 79.6619746, 10.3283613 ], [ 79.669616, 10.3231485 ], [ 79.7051343, 10.2927967 ], [ 79.7209311, 10.2880011 ], [ 79.7220307, 10.2861113 ], [ 79.7211857, 10.2841496 ], [ 79.7183595, 10.2816098 ], [ 79.7150593, 10.2808106 ], [ 79.7041367, 10.2816133 ], [ 79.6726931, 10.2891678 ], [ 79.6553798, 10.2898883 ], [ 79.6433568, 10.2942602 ], [ 79.5955276, 10.3024402 ], [ 79.5497423, 10.3059305 ], [ 79.5307425, 10.3091662 ], [ 79.5320747, 10.3114811 ], [ 79.5383829, 10.3129522 ], [ 79.5492233, 10.3178056 ], [ 79.5441304, 10.3248853 ], [ 79.5335959, 10.3224617 ], [ 79.5139469, 10.3132786 ], [ 79.4987558, 10.3148278 ], [ 79.4987556, 10.3488876 ], [ 79.5025335, 10.3491484 ], [ 79.5051464, 10.3566941 ], [ 79.5048184, 10.366327 ], [ 79.50098, 10.3691782 ], [ 79.4953614, 10.3683633 ], [ 79.4922527, 10.3698199 ], [ 79.4894183, 10.3725422 ], [ 79.4856541, 10.3805581 ], [ 79.4826487, 10.3769698 ], [ 79.4803703, 10.376862 ], [ 79.4804566, 10.3756415 ], [ 79.4758401, 10.3738573 ], [ 79.4754971, 10.3720402 ], [ 79.4723655, 10.3737543 ], [ 79.467553, 10.3731002 ], [ 79.4674036, 10.3780817 ], [ 79.470003, 10.3831123 ], [ 79.4673413, 10.3840216 ], [ 79.4647582, 10.3885065 ], [ 79.4610277, 10.3884035 ], [ 79.4614351, 10.3926029 ], [ 79.4723031, 10.3951269 ], [ 79.4750285, 10.3932909 ], [ 79.4771792, 10.3935208 ], [ 79.4760122, 10.40013 ], [ 79.4737995, 10.406527 ], [ 79.4696856, 10.4075633 ], [ 79.4615893, 10.4066161 ], [ 79.4625035, 10.4101147 ], [ 79.4644623, 10.4098159 ], [ 79.464869, 10.4108509 ], [ 79.4651489, 10.415968 ], [ 79.462953, 10.4179937 ], [ 79.4592041, 10.418754 ], [ 79.4563292, 10.426905 ], [ 79.4511102, 10.4296591 ], [ 79.4523577, 10.4330808 ], [ 79.4546732, 10.4340296 ], [ 79.4617421, 10.4328571 ], [ 79.4637701, 10.4347326 ], [ 79.4722639, 10.4339799 ], [ 79.4730498, 10.4353223 ], [ 79.4742079, 10.4446521 ], [ 79.4761046, 10.449728 ], [ 79.4696504, 10.4617631 ], [ 79.4719347, 10.4644838 ], [ 79.4793102, 10.463451 ], [ 79.4822965, 10.4759038 ], [ 79.4830911, 10.4896048 ], [ 79.4817077, 10.4915264 ], [ 79.476547, 10.4934085 ], [ 79.4716642, 10.4928629 ], [ 79.4707913, 10.4911951 ], [ 79.4679827, 10.4927148 ], [ 79.4617376, 10.4874411 ], [ 79.4574076, 10.4873788 ], [ 79.4553845, 10.4885817 ], [ 79.4528866, 10.4907611 ], [ 79.4535675, 10.4922617 ], [ 79.4608905, 10.5030567 ], [ 79.464687, 10.5057815 ], [ 79.4690764, 10.5051746 ], [ 79.4691557, 10.511354 ], [ 79.4577505, 10.5137572 ], [ 79.456843, 10.5196746 ], [ 79.4507039, 10.5206117 ], [ 79.4507452, 10.5217689 ], [ 79.4471501, 10.5211097 ], [ 79.4466159, 10.5222941 ], [ 79.4446151, 10.5220007 ], [ 79.445022, 10.5236144 ], [ 79.4407507, 10.5226479 ], [ 79.4390973, 10.5235613 ], [ 79.4393309, 10.5269561 ], [ 79.4378099, 10.5279147 ], [ 79.4375637, 10.5306857 ], [ 79.423152, 10.535362 ], [ 79.4233721, 10.5416091 ], [ 79.4281052, 10.5435477 ], [ 79.4284983, 10.5456858 ], [ 79.4330527, 10.5447042 ], [ 79.4350677, 10.546625 ], [ 79.4373107, 10.5460143 ], [ 79.4373885, 10.5477456 ], [ 79.4424276, 10.548355 ], [ 79.4442143, 10.5508725 ], [ 79.4520582, 10.5510471 ], [ 79.4515525, 10.5571724 ], [ 79.4525078, 10.5595138 ], [ 79.4402365, 10.5577261 ], [ 79.4392088, 10.5588371 ], [ 79.4354257, 10.5570399 ], [ 79.425919, 10.557864 ], [ 79.4234723, 10.5499253 ], [ 79.4207052, 10.5491087 ], [ 79.4145199, 10.5519211 ], [ 79.4111849, 10.550954 ], [ 79.4050451, 10.5521073 ], [ 79.4003352, 10.5538117 ], [ 79.3985401, 10.5589108 ], [ 79.3980605, 10.5607461 ], [ 79.4015972, 10.5725396 ], [ 79.4013095, 10.5740675 ], [ 79.3988425, 10.575252 ], [ 79.3999893, 10.5773765 ], [ 79.3966497, 10.5801748 ], [ 79.3916286, 10.581843 ], [ 79.3834001, 10.5821143 ], [ 79.3820249, 10.5816533 ], [ 79.3819245, 10.5801887 ], [ 79.3786806, 10.5795558 ], [ 79.3611136, 10.5787323 ], [ 79.3579473, 10.5815709 ], [ 79.3518569, 10.5830756 ], [ 79.3468117, 10.5924685 ], [ 79.3467382, 10.5956463 ], [ 79.348986, 10.597753 ], [ 79.3480124, 10.60122 ], [ 79.3485509, 10.6068389 ], [ 79.3537553, 10.6067175 ], [ 79.3542164, 10.6107903 ], [ 79.3521008, 10.611206 ], [ 79.3520135, 10.6152607 ], [ 79.3505514, 10.6151521 ], [ 79.3505192, 10.6173988 ], [ 79.3495641, 10.6176111 ], [ 79.3481283, 10.626941 ], [ 79.3542738, 10.6317061 ], [ 79.3574211, 10.6458641 ], [ 79.3543454, 10.6484857 ], [ 79.3497665, 10.6483044 ], [ 79.3487972, 10.6524449 ], [ 79.3422161, 10.6559248 ], [ 79.3428967, 10.6584021 ], [ 79.32596, 10.6609625 ], [ 79.3178985, 10.6607846 ], [ 79.3167216, 10.6719858 ], [ 79.3200644, 10.6848741 ], [ 79.313086, 10.7020137 ], [ 79.3069457, 10.7102348 ], [ 79.3083874, 10.7208986 ], [ 79.3043248, 10.7350372 ], [ 79.3016129, 10.7395388 ], [ 79.3080659, 10.7461356 ], [ 79.3120062, 10.7468372 ], [ 79.314667, 10.7450883 ], [ 79.3130544, 10.7403823 ], [ 79.3165834, 10.7405774 ], [ 79.318545, 10.7377571 ], [ 79.3203918, 10.7372513 ], [ 79.327367, 10.7396484 ], [ 79.3321761, 10.7383202 ], [ 79.3414874, 10.7394924 ], [ 79.3490843, 10.7433265 ], [ 79.3490476, 10.7445877 ], [ 79.3452718, 10.7444652 ], [ 79.3450293, 10.7457038 ], [ 79.3490656, 10.7465269 ], [ 79.3501395, 10.7501614 ], [ 79.3537419, 10.7478699 ], [ 79.3582212, 10.7500848 ], [ 79.3579622, 10.7514839 ], [ 79.3611321, 10.7522425 ], [ 79.3616988, 10.7540009 ], [ 79.3607662, 10.7537296 ], [ 79.3604919, 10.7551173 ], [ 79.3615616, 10.7553073 ], [ 79.3602311, 10.7581053 ], [ 79.3614192, 10.7650531 ], [ 79.3598375, 10.7643614 ], [ 79.3594879, 10.7663854 ], [ 79.3564497, 10.7667885 ], [ 79.3454048, 10.7662223 ], [ 79.3439544, 10.7755657 ], [ 79.3447911, 10.7755703 ], [ 79.345115, 10.7807551 ], [ 79.3462257, 10.7831194 ], [ 79.3478624, 10.7832145 ], [ 79.349988, 10.7857597 ], [ 79.3512722, 10.79113 ], [ 79.3480762, 10.7927569 ], [ 79.3485193, 10.7956726 ], [ 79.3566897, 10.7939557 ], [ 79.3651981, 10.7952717 ], [ 79.3664874, 10.7965419 ], [ 79.36694, 10.7956515 ], [ 79.3701587, 10.7962845 ], [ 79.3730572, 10.8018536 ], [ 79.3766234, 10.8039873 ], [ 79.3697833, 10.8091719 ], [ 79.3667473, 10.8093435 ], [ 79.3583072, 10.806572 ], [ 79.3529161, 10.8112636 ], [ 79.3449923, 10.8114481 ], [ 79.3435382, 10.8126865 ], [ 79.3393274, 10.8106698 ], [ 79.3356646, 10.8136618 ], [ 79.3320479, 10.8137426 ], [ 79.3287839, 10.8098274 ], [ 79.3263651, 10.8103739 ], [ 79.3236306, 10.8120188 ], [ 79.3258471, 10.817412 ], [ 79.3142596, 10.8228882 ], [ 79.3060792, 10.8238763 ], [ 79.3017809, 10.828723 ], [ 79.3018478, 10.8308003 ], [ 79.2996068, 10.8324948 ], [ 79.2984811, 10.835722 ], [ 79.2924086, 10.8355576 ], [ 79.2894007, 10.8329575 ], [ 79.2890297, 10.8347158 ], [ 79.2921608, 10.8385183 ], [ 79.2918991, 10.8422294 ], [ 79.294798, 10.8427591 ], [ 79.2945988, 10.8518087 ], [ 79.2927096, 10.8535349 ], [ 79.2925852, 10.8569025 ], [ 79.2951551, 10.8570253 ], [ 79.2953223, 10.8641764 ], [ 79.2902142, 10.864089 ], [ 79.2886479, 10.871547 ], [ 79.2787562, 10.8711144 ], [ 79.273597, 10.8729388 ], [ 79.2740575, 10.8768219 ], [ 79.2726025, 10.8788239 ], [ 79.2740242, 10.8804517 ], [ 79.2726197, 10.8818344 ], [ 79.2753675, 10.8840187 ], [ 79.2714755, 10.884162 ], [ 79.2678976, 10.8880752 ], [ 79.2711796, 10.8927911 ], [ 79.2691807, 10.8934277 ], [ 79.269075, 10.8947837 ], [ 79.2723531, 10.8978135 ], [ 79.269991, 10.903463 ], [ 79.26828, 10.9047371 ], [ 79.2699668, 10.9072013 ], [ 79.272876, 10.9061627 ], [ 79.2783506, 10.9066437 ], [ 79.278663, 10.9025394 ], [ 79.2957088, 10.903503 ], [ 79.2953187, 10.9080819 ], [ 79.2868712, 10.9072432 ], [ 79.2868816, 10.917893 ], [ 79.2825999, 10.9193471 ], [ 79.2783999, 10.9226003 ], [ 79.2753855, 10.9230739 ], [ 79.2753066, 10.9262516 ], [ 79.2820986, 10.927506 ], [ 79.2821298, 10.9299018 ], [ 79.2851212, 10.9301423 ], [ 79.2853853, 10.9338355 ], [ 79.2884588, 10.9347902 ], [ 79.2874792, 10.9372489 ], [ 79.2907955, 10.9368793 ], [ 79.2918564, 10.9380187 ], [ 79.2945967, 10.9366951 ], [ 79.295224, 10.9347832 ], [ 79.3009505, 10.9358199 ], [ 79.3007221, 10.9347757 ], [ 79.3035127, 10.933348 ], [ 79.3032248, 10.9321817 ], [ 79.3093735, 10.928011 ], [ 79.3162391, 10.9281391 ], [ 79.3240431, 10.9247415 ], [ 79.3279812, 10.9250134 ], [ 79.327817, 10.9226176 ], [ 79.3322586, 10.9205707 ], [ 79.3265828, 10.9185582 ], [ 79.3289338, 10.9182015 ], [ 79.3288793, 10.9163301 ], [ 79.3344188, 10.9126741 ], [ 79.3369251, 10.9138091 ], [ 79.3388234, 10.9123312 ], [ 79.3439552, 10.9123274 ], [ 79.3481496, 10.9107051 ], [ 79.3485477, 10.9087027 ], [ 79.3519827, 10.9077674 ], [ 79.3587159, 10.8998846 ], [ 79.3682428, 10.899171 ], [ 79.3681834, 10.8972363 ], [ 79.369807, 10.8974307 ], [ 79.3701867, 10.8945151 ], [ 79.3770516, 10.8932316 ], [ 79.3900999, 10.8961245 ], [ 79.391975, 10.8948995 ], [ 79.4050644, 10.8930997 ], [ 79.4074882, 10.8917027 ], [ 79.4070628, 10.8905637 ], [ 79.4094316, 10.8876298 ], [ 79.4186695, 10.8843019 ], [ 79.4227302, 10.8812231 ], [ 79.4268005, 10.8810869 ], [ 79.4284328, 10.8788582 ], [ 79.4336874, 10.8780844 ], [ 79.4339524, 10.8765384 ], [ 79.4387125, 10.8732332 ], [ 79.4464044, 10.8720112 ], [ 79.4561615, 10.8637505 ], [ 79.4581507, 10.8632347 ], [ 79.4588968, 10.8658472 ], [ 79.4662774, 10.8647152 ], [ 79.4647649, 10.8690371 ], [ 79.4720136, 10.8698894 ], [ 79.4719869, 10.8722761 ], [ 79.4740903, 10.8714166 ], [ 79.4760388, 10.8725642 ], [ 79.4777841, 10.8672613 ], [ 79.485742, 10.8691708 ], [ 79.4850401, 10.8763177 ], [ 79.4864582, 10.8772755 ], [ 79.4839526, 10.8790437 ], [ 79.4861257, 10.8813574 ], [ 79.4860852, 10.8830751 ], [ 79.4881022, 10.8835129 ], [ 79.4882735, 10.8893757 ], [ 79.4930754, 10.8887276 ], [ 79.4963779, 10.8900915 ], [ 79.5023778, 10.8947027 ], [ 79.5072153, 10.8959974 ], [ 79.5077769, 10.8987733 ], [ 79.5067692, 10.9041346 ], [ 79.4987351, 10.9037898 ], [ 79.4926746, 10.905724 ], [ 79.4916415, 10.9074194 ], [ 79.4936134, 10.9089918 ], [ 79.4935293, 10.9164457 ], [ 79.4844784, 10.9188356 ], [ 79.4843007, 10.920924 ], [ 79.4893376, 10.9235531 ], [ 79.4987403, 10.9318444 ], [ 79.4997696, 10.9402167 ], [ 79.501228, 10.9416548 ], [ 79.5045026, 10.9419273 ], [ 79.5076724, 10.9405089 ], [ 79.5143584, 10.9418764 ], [ 79.5157565, 10.9469717 ], [ 79.5188757, 10.9465704 ], [ 79.5198155, 10.9553048 ], [ 79.5158818, 10.9563342 ], [ 79.5149318, 10.967568 ], [ 79.5159054, 10.9698015 ], [ 79.5191252, 10.970874 ], [ 79.5225377, 10.9694058 ], [ 79.5301899, 10.9691368 ], [ 79.5293308, 10.9659765 ], [ 79.5264728, 10.9631141 ], [ 79.5272787, 10.959656 ], [ 79.5284587, 10.9595568 ], [ 79.5326725, 10.9610275 ], [ 79.5324587, 10.9684909 ], [ 79.5375814, 10.9686595 ], [ 79.5449643, 10.9655511 ], [ 79.5481061, 10.9677669 ], [ 79.551253, 10.9673653 ], [ 79.5562472, 10.970576 ], [ 79.5572945, 10.9714216 ], [ 79.5567863, 10.9745815 ], [ 79.5639125, 10.9751569 ], [ 79.5638072, 10.9764769 ], [ 79.5681021, 10.9769252 ], [ 79.5695802, 10.9710032 ], [ 79.573628, 10.9717452 ], [ 79.5747533, 10.9705971 ], [ 79.5771682, 10.9718677 ], [ 79.5777078, 10.9737077 ], [ 79.5743778, 10.9753031 ], [ 79.5745651, 10.9784858 ], [ 79.5771173, 10.979779 ], [ 79.5774647, 10.982591 ], [ 79.5784299, 10.9817231 ], [ 79.5854922, 10.9832428 ], [ 79.585602, 10.9823929 ], [ 79.5907387, 10.9828952 ], [ 79.5911689, 10.9765798 ], [ 79.5918412, 10.9781214 ], [ 79.5954365, 10.9766795 ], [ 79.5962689, 10.9777465 ], [ 79.5969093, 10.9740666 ], [ 79.6040188, 10.971778 ], [ 79.6049321, 10.976472 ], [ 79.6071048, 10.9743835 ], [ 79.6083672, 10.9762235 ], [ 79.6082071, 10.9772949 ], [ 79.6043695, 10.9779412 ], [ 79.6053896, 10.9781673 ], [ 79.6042369, 10.9821817 ], [ 79.6253602, 10.9825253 ], [ 79.6262061, 10.9790805 ], [ 79.6327335, 10.9809246 ], [ 79.6324366, 10.984939 ], [ 79.6306391, 10.9867068 ], [ 79.6327342, 10.9878007 ], [ 79.632652, 10.9895185 ], [ 79.6353645, 10.9894189 ], [ 79.6347475, 10.9933475 ], [ 79.6315225, 10.9919553 ], [ 79.6355802, 10.9951919 ], [ 79.6339157, 11.0002914 ], [ 79.6404936, 10.9999654 ], [ 79.6403826, 11.0071533 ], [ 79.6433703, 11.0098247 ], [ 79.646509, 11.0097703 ], [ 79.6468614, 11.0116778 ], [ 79.6514963, 11.0133772 ], [ 79.6671625, 11.0151884 ], [ 79.6710084, 11.0172582 ] ], [ [ 79.7183816, 10.9559135 ], [ 79.7183422, 10.9548321 ], [ 79.7197002, 10.9548466 ], [ 79.7197396, 10.9559454 ], [ 79.7183816, 10.9559135 ] ], [ [ 79.7219172, 10.9351832 ], [ 79.722933, 10.9362271 ], [ 79.7224671, 10.9382657 ], [ 79.7204496, 10.9372355 ], [ 79.7219172, 10.9351832 ] ] ] ] } }
]
}
