{
"type": "FeatureCollection",
"name": "3325",
"crs": { "type": "name", "properties": { "name": "urn:ogc:def:crs:OGC:1.3:CRS84" } },
"features": [
{ "type": "Feature", "properties": { "code": "3325", "name": "Theni", "type": "district" }, "geometry": { "type": "Polygon", "coordinates": [ [ [ 77.623256, 10.2187281 ], [ 77.6235893, 10.213733 ], [ 77.6255744, 10.2110026 ], [ 77.6299599, 10.2103021 ], [ 77.6320454, 10.2063014 ], [ 77.6360794, 10.2075039 ], [ 77.6424088, 10.203042 ], [ 77.644181, 10.2049452 ], [ 77.6452655, 10.2044704 ], [ 77.6450418, 10.2024407 ], [ 77.6496005, 10.2010166 ], [ 77.6497144, 10.1987156 ], [ 77.6517678, 10.1976216 ], [ 77.6526623, 10.1990681 ], [ 77.6537757, 10.198503 ], [ 77.6528948, 10.1947149 ], [ 77.6549299, 10.1937248 ], [ 77.6555278, 10.195117 ], [ 77.6575675, 10.1945111 ], [ 77.6578776, 10.1920836 ], [ 77.6600952, 10.1910708 ], [ 77.6620028, 10.1931184 ], [ 77.6637002, 10.1915542 ], [ 77.6628148, 10.1896195 ], [ 77.66443, 10.188783 ], [ 77.6675513, 10.189723 ], [ 77.6714125, 10.1961869 ], [ 77.6726766, 10.1969778 ], [ 77.6726901, 10.1958613 ], [ 77.6738173, 10.195956 ], [ 77.6803065, 10.1985363 ], [ 77.6814889, 10.2014835 ], [ 77.6856644, 10.2017406 ], [ 77.6932112, 10.1969114 ], [ 77.6979443, 10.2018694 ], [ 77.6966857, 10.2062681 ], [ 77.7024449, 10.2077496 ], [ 77.7024875, 10.2141687 ], [ 77.7061516, 10.2125903 ], [ 77.7065402, 10.2158585 ], [ 77.710029, 10.2063014 ], [ 77.7065422, 10.2048195 ], [ 77.7063406, 10.2013071 ], [ 77.704255, 10.2006204 ], [ 77.7047925, 10.1961406 ], [ 77.7013062, 10.196295 ], [ 77.701274, 10.195165 ], [ 77.7028793, 10.1906033 ], [ 77.7043851, 10.1902188 ], [ 77.7043066, 10.1862454 ], [ 77.7122892, 10.1749649 ], [ 77.7122424, 10.170015 ], [ 77.7158379, 10.1700412 ], [ 77.7219102, 10.1668346 ], [ 77.7273797, 10.1623713 ], [ 77.728889, 10.1591704 ], [ 77.7273864, 10.1539406 ], [ 77.7246352, 10.1539008 ], [ 77.7239257, 10.1461709 ], [ 77.7242651, 10.1361037 ], [ 77.7291278, 10.1335617 ], [ 77.729451, 10.1313827 ], [ 77.7288849, 10.1300448 ], [ 77.7276903, 10.1326173 ], [ 77.7217414, 10.1340293 ], [ 77.7186791, 10.1301878 ], [ 77.7156996, 10.1286923 ], [ 77.7078661, 10.1289021 ], [ 77.7035514, 10.1341196 ], [ 77.6972465, 10.135224 ], [ 77.6921111, 10.1453645 ], [ 77.6863989, 10.1455508 ], [ 77.6821691, 10.1437341 ], [ 77.6763794, 10.1446301 ], [ 77.6743988, 10.1404715 ], [ 77.6754783, 10.1266114 ], [ 77.6720475, 10.1272041 ], [ 77.6691093, 10.1261376 ], [ 77.6686299, 10.1223675 ], [ 77.6709473, 10.1207941 ], [ 77.6760613, 10.1202104 ], [ 77.6770054, 10.1175792 ], [ 77.6941989, 10.1110941 ], [ 77.7025363, 10.1027386 ], [ 77.7018281, 10.097183 ], [ 77.699469, 10.0941095 ], [ 77.6989708, 10.0890376 ], [ 77.6969358, 10.0866693 ], [ 77.708193, 10.0822956 ], [ 77.7088996, 10.0802432 ], [ 77.7077145, 10.0645798 ], [ 77.7100464, 10.049874 ], [ 77.7125956, 10.0478844 ], [ 77.7121526, 10.0454117 ], [ 77.7106065, 10.0459501 ], [ 77.7063082, 10.0382209 ], [ 77.7099604, 10.0328859 ], [ 77.7116663, 10.0339704 ], [ 77.7125537, 10.0258604 ], [ 77.7089406, 10.0214628 ], [ 77.70873, 10.0183526 ], [ 77.701546, 10.0139874 ], [ 77.700114, 10.0140646 ], [ 77.700196, 10.0159541 ], [ 77.697921, 10.0173108 ], [ 77.6985434, 10.0054577 ], [ 77.6981537, 10.0014434 ], [ 77.6970147, 10.0005471 ], [ 77.6967603, 9.9827543 ], [ 77.6919011, 9.9680995 ], [ 77.6818555, 9.9688471 ], [ 77.6773448, 9.9622521 ], [ 77.6731951, 9.9618053 ], [ 77.6790461, 9.9328458 ], [ 77.6704407, 9.91924 ], [ 77.6686073, 9.9143263 ], [ 77.6674218, 9.9132686 ], [ 77.6564846, 9.9206517 ], [ 77.6541181, 9.9185633 ], [ 77.6528729, 9.9103314 ], [ 77.6462937, 9.9027779 ], [ 77.6480395, 9.8959111 ], [ 77.6448479, 9.8882624 ], [ 77.6319508, 9.8712697 ], [ 77.6200074, 9.8621741 ], [ 77.6176738, 9.8542946 ], [ 77.6174233, 9.8494531 ], [ 77.6187089, 9.8461622 ], [ 77.6170363, 9.8403938 ], [ 77.6194432, 9.8357422 ], [ 77.6246032, 9.836321 ], [ 77.6256424, 9.8350462 ], [ 77.6237463, 9.8312217 ], [ 77.6230902, 9.8216336 ], [ 77.6120659, 9.7991477 ], [ 77.6069935, 9.7947217 ], [ 77.6060685, 9.7922985 ], [ 77.6034525, 9.7913174 ], [ 77.5986458, 9.7765978 ], [ 77.5880144, 9.7686403 ], [ 77.5812301, 9.7596433 ], [ 77.5748418, 9.7542853 ], [ 77.5735801, 9.7514643 ], [ 77.569046, 9.7505103 ], [ 77.5663124, 9.7477794 ], [ 77.5643353, 9.7445513 ], [ 77.5647779, 9.7414547 ], [ 77.5593157, 9.7343291 ], [ 77.557768, 9.727349 ], [ 77.5535543, 9.7219685 ], [ 77.5540435, 9.7150566 ], [ 77.5466325, 9.705453 ], [ 77.5459423, 9.6957878 ], [ 77.5441842, 9.6936219 ], [ 77.5407255, 9.6953388 ], [ 77.5353459, 9.6750443 ], [ 77.528204, 9.6687133 ], [ 77.5277223, 9.6646943 ], [ 77.5231816, 9.6603079 ], [ 77.519915, 9.6605464 ], [ 77.5118904, 9.6526552 ], [ 77.5036319, 9.6501975 ], [ 77.506274, 9.6384764 ], [ 77.499034, 9.6302055 ], [ 77.4940978, 9.6214859 ], [ 77.486378, 9.6144034 ], [ 77.4854632, 9.6068652 ], [ 77.4741044, 9.5959239 ], [ 77.4643256, 9.5798328 ], [ 77.4678042, 9.5746784 ], [ 77.4735833, 9.5716391 ], [ 77.4754764, 9.5656578 ], [ 77.475383, 9.5573895 ], [ 77.4772955, 9.5558746 ], [ 77.4772945, 9.5521948 ], [ 77.4730717, 9.548498 ], [ 77.4629104, 9.5461814 ], [ 77.461111, 9.5440164 ], [ 77.4558913, 9.5415854 ], [ 77.448127, 9.5454702 ], [ 77.4445698, 9.5433642 ], [ 77.4410681, 9.5466785 ], [ 77.4376158, 9.5457025 ], [ 77.4278697, 9.5465176 ], [ 77.4248271, 9.5439955 ], [ 77.4224948, 9.5395881 ], [ 77.4141331, 9.5366098 ], [ 77.4108856, 9.5318408 ], [ 77.402469, 9.5250555 ], [ 77.4005073, 9.5273638 ], [ 77.3959531, 9.5233044 ], [ 77.3851784, 9.5192315 ], [ 77.3801325, 9.5253615 ], [ 77.3769265, 9.5248281 ], [ 77.3733379, 9.5268487 ], [ 77.3729598, 9.5298866 ], [ 77.3687425, 9.5347778 ], [ 77.3656184, 9.5349991 ], [ 77.3645294, 9.5440901 ], [ 77.3657997, 9.5509164 ], [ 77.3650845, 9.5527292 ], [ 77.3612631, 9.5579367 ], [ 77.35603, 9.5581307 ], [ 77.3529055, 9.5595817 ], [ 77.3502632, 9.5670811 ], [ 77.3529727, 9.5728588 ], [ 77.3581375, 9.573908 ], [ 77.3598908, 9.57738 ], [ 77.3582962, 9.5839258 ], [ 77.354971, 9.5866832 ], [ 77.3574755, 9.5944317 ], [ 77.3608506, 9.597836 ], [ 77.3623902, 9.5955622 ], [ 77.3661436, 9.5959558 ], [ 77.3658056, 9.5997441 ], [ 77.3627726, 9.6002005 ], [ 77.3611281, 9.6022617 ], [ 77.3545869, 9.6040696 ], [ 77.3454786, 9.5879616 ], [ 77.3422273, 9.5810084 ], [ 77.3419044, 9.5764561 ], [ 77.3394908, 9.5733139 ], [ 77.3325077, 9.5788101 ], [ 77.3253612, 9.580034 ], [ 77.3256156, 9.5834518 ], [ 77.3238253, 9.5851557 ], [ 77.3261841, 9.588628 ], [ 77.3245345, 9.5933382 ], [ 77.3298993, 9.5989945 ], [ 77.3281499, 9.6001514 ], [ 77.3250028, 9.5976827 ], [ 77.3224064, 9.5982879 ], [ 77.3178187, 9.6025049 ], [ 77.3153685, 9.6007098 ], [ 77.3038083, 9.5987408 ], [ 77.2945596, 9.5892407 ], [ 77.2900686, 9.5886879 ], [ 77.2903384, 9.5847731 ], [ 77.2802102, 9.579264 ], [ 77.2769273, 9.5757461 ], [ 77.2720125, 9.5764542 ], [ 77.2697137, 9.5727691 ], [ 77.2638515, 9.5737436 ], [ 77.2614455, 9.5768259 ], [ 77.2583348, 9.5764857 ], [ 77.2530671, 9.5829664 ], [ 77.2427733, 9.5852169 ], [ 77.2371286, 9.5810607 ], [ 77.2343018, 9.5815453 ], [ 77.2224947, 9.5927775 ], [ 77.2221843, 9.5977141 ], [ 77.2171376, 9.6016186 ], [ 77.2144378, 9.6007105 ], [ 77.209843, 9.6049705 ], [ 77.2104697, 9.610862 ], [ 77.2089573, 9.6134435 ], [ 77.1982011, 9.6143575 ], [ 77.1970592, 9.6108451 ], [ 77.190822, 9.6092212 ], [ 77.1886794, 9.606101 ], [ 77.1776613, 9.61031 ], [ 77.1734782, 9.6112055 ], [ 77.1703026, 9.6096705 ], [ 77.1672028, 9.6117057 ], [ 77.1657299, 9.6139253 ], [ 77.1677789, 9.6150167 ], [ 77.1693911, 9.6242406 ], [ 77.1713697, 9.6260283 ], [ 77.1746013, 9.6265779 ], [ 77.1761312, 9.6296559 ], [ 77.1741536, 9.6328664 ], [ 77.174046, 9.6373053 ], [ 77.1792698, 9.644858 ], [ 77.1799856, 9.6568689 ], [ 77.183238, 9.6606906 ], [ 77.1875094, 9.6614399 ], [ 77.18629, 9.664531 ], [ 77.1870263, 9.6666482 ], [ 77.1941109, 9.670556 ], [ 77.1945699, 9.674125 ], [ 77.2005528, 9.686 ], [ 77.2067162, 9.6946564 ], [ 77.2045765, 9.7015835 ], [ 77.2019464, 9.7038932 ], [ 77.2036579, 9.711087 ], [ 77.2053008, 9.7130925 ], [ 77.204707, 9.7165612 ], [ 77.206105, 9.7175733 ], [ 77.2057134, 9.7202141 ], [ 77.2034593, 9.7219079 ], [ 77.204605, 9.7237343 ], [ 77.2075341, 9.724759 ], [ 77.2116333, 9.7242656 ], [ 77.2156428, 9.726674 ], [ 77.2183792, 9.7260812 ], [ 77.2206704, 9.7296392 ], [ 77.2239084, 9.7303734 ], [ 77.2218376, 9.7373952 ], [ 77.2226763, 9.7399865 ], [ 77.2198449, 9.7420847 ], [ 77.2202338, 9.7450391 ], [ 77.2224397, 9.7501746 ], [ 77.2251428, 9.7527695 ], [ 77.2274717, 9.7642079 ], [ 77.2323997, 9.7685737 ], [ 77.2282309, 9.7712232 ], [ 77.2249886, 9.7755595 ], [ 77.2226635, 9.7877918 ], [ 77.23601, 9.7900576 ], [ 77.2381086, 9.7919164 ], [ 77.2401594, 9.7969205 ], [ 77.2417275, 9.7957941 ], [ 77.246666, 9.7978866 ], [ 77.2450937, 9.8027773 ], [ 77.2467901, 9.807995 ], [ 77.2421009, 9.812974 ], [ 77.2411537, 9.8156346 ], [ 77.2325879, 9.8174236 ], [ 77.2327258, 9.8214857 ], [ 77.2250103, 9.8202978 ], [ 77.2243101, 9.822004 ], [ 77.2217778, 9.8224514 ], [ 77.223852, 9.8238494 ], [ 77.2237831, 9.8287031 ], [ 77.2265523, 9.8307222 ], [ 77.2254361, 9.8332975 ], [ 77.2275274, 9.8380937 ], [ 77.2229353, 9.8448797 ], [ 77.226327, 9.8463362 ], [ 77.2281376, 9.8491405 ], [ 77.237184, 9.8513808 ], [ 77.2359058, 9.8545125 ], [ 77.2363075, 9.8596039 ], [ 77.2326865, 9.8615422 ], [ 77.2261387, 9.8608564 ], [ 77.2213292, 9.8631333 ], [ 77.2124501, 9.8768848 ], [ 77.2152688, 9.87739 ], [ 77.2175232, 9.8843457 ], [ 77.2207465, 9.8844832 ], [ 77.2180869, 9.8963687 ], [ 77.2183052, 9.9043073 ], [ 77.2225802, 9.9059554 ], [ 77.22439, 9.909668 ], [ 77.2300622, 9.9124673 ], [ 77.2305603, 9.9213859 ], [ 77.2317007, 9.9240434 ], [ 77.2356391, 9.9263699 ], [ 77.2348901, 9.9321208 ], [ 77.2372289, 9.9370288 ], [ 77.2478976, 9.9468454 ], [ 77.2465424, 9.9513965 ], [ 77.2495945, 9.9525096 ], [ 77.2502106, 9.9511763 ], [ 77.2529639, 9.9534512 ], [ 77.2610123, 9.9524869 ], [ 77.2685376, 9.9609113 ], [ 77.2710451, 9.9624311 ], [ 77.2718389, 9.9613328 ], [ 77.2728548, 9.9641947 ], [ 77.2721779, 9.970148 ], [ 77.2708734, 9.9709115 ], [ 77.2726683, 9.9763368 ], [ 77.2679615, 9.9799075 ], [ 77.2671022, 9.9838074 ], [ 77.2644014, 9.9871742 ], [ 77.2668263, 9.9902942 ], [ 77.2617686, 9.9911016 ], [ 77.2609107, 9.992679 ], [ 77.2608046, 9.9957619 ], [ 77.2661313, 10.0018897 ], [ 77.2552076, 10.0099304 ], [ 77.2531936, 10.0128123 ], [ 77.2558636, 10.0145333 ], [ 77.2574386, 10.0193037 ], [ 77.2597281, 10.0193001 ], [ 77.2615928, 10.0212039 ], [ 77.2618997, 10.0297252 ], [ 77.2588605, 10.0340683 ], [ 77.2548048, 10.0366706 ], [ 77.2443949, 10.0519719 ], [ 77.2377096, 10.0562459 ], [ 77.2344676, 10.0598407 ], [ 77.2314363, 10.0662698 ], [ 77.2235003, 10.0691788 ], [ 77.2228855, 10.0729762 ], [ 77.2199171, 10.0769686 ], [ 77.2162139, 10.0800118 ], [ 77.2128112, 10.0809981 ], [ 77.2032824, 10.088807 ], [ 77.2040116, 10.0972785 ], [ 77.2029284, 10.1041567 ], [ 77.2013256, 10.10621 ], [ 77.2046208, 10.1127559 ], [ 77.2064814, 10.1125638 ], [ 77.2078919, 10.117702 ], [ 77.21085, 10.1181612 ], [ 77.2164345, 10.1158538 ], [ 77.2178234, 10.1176024 ], [ 77.2231048, 10.1184054 ], [ 77.2271711, 10.1211925 ], [ 77.2303802, 10.1205026 ], [ 77.2300715, 10.1222312 ], [ 77.2327612, 10.1239603 ], [ 77.2320453, 10.1252781 ], [ 77.234334, 10.1284514 ], [ 77.24435, 10.1305972 ], [ 77.2480278, 10.130262 ], [ 77.2489452, 10.1268057 ], [ 77.2526909, 10.1244459 ], [ 77.2553574, 10.1248092 ], [ 77.2665827, 10.1216949 ], [ 77.2665926, 10.1193415 ], [ 77.2830396, 10.1177738 ], [ 77.2823858, 10.1226105 ], [ 77.2841459, 10.1253777 ], [ 77.2868097, 10.1271595 ], [ 77.289534, 10.1249588 ], [ 77.2927487, 10.1310759 ], [ 77.3024834, 10.1360013 ], [ 77.3130135, 10.1353889 ], [ 77.3237228, 10.127566 ], [ 77.3251461, 10.1282806 ], [ 77.3248715, 10.1327377 ], [ 77.3292908, 10.142679 ], [ 77.3414689, 10.1360221 ], [ 77.3449863, 10.1376906 ], [ 77.3464413, 10.1409907 ], [ 77.3505291, 10.1429169 ], [ 77.3541421, 10.1479756 ], [ 77.3603242, 10.151032 ], [ 77.3623865, 10.1507474 ], [ 77.3678847, 10.1453863 ], [ 77.3720779, 10.1393064 ], [ 77.3754813, 10.1428732 ], [ 77.3846747, 10.146675 ], [ 77.3930427, 10.1559238 ], [ 77.3954338, 10.1627949 ], [ 77.3983629, 10.160087 ], [ 77.4087475, 10.1584499 ], [ 77.4114293, 10.1450193 ], [ 77.4170045, 10.1434411 ], [ 77.4275793, 10.1360805 ], [ 77.4319713, 10.1357507 ], [ 77.4369546, 10.1339996 ], [ 77.4381816, 10.1324082 ], [ 77.4429083, 10.1330764 ], [ 77.4447841, 10.136272 ], [ 77.4521249, 10.1360582 ], [ 77.4569965, 10.1317717 ], [ 77.4592322, 10.1324447 ], [ 77.4656459, 10.128768 ], [ 77.4644511, 10.1308703 ], [ 77.467787, 10.1340655 ], [ 77.4682992, 10.1387983 ], [ 77.4695176, 10.1397156 ], [ 77.4680446, 10.142252 ], [ 77.4696555, 10.143445 ], [ 77.4708641, 10.141867 ], [ 77.4723882, 10.1425854 ], [ 77.472056, 10.1457498 ], [ 77.4743737, 10.1453378 ], [ 77.4758389, 10.1477107 ], [ 77.4807024, 10.1470493 ], [ 77.4818116, 10.1485859 ], [ 77.4810188, 10.1522206 ], [ 77.4826345, 10.1539334 ], [ 77.4860466, 10.1518575 ], [ 77.4877518, 10.1477432 ], [ 77.4957021, 10.1547022 ], [ 77.5000139, 10.1609655 ], [ 77.5118039, 10.1608978 ], [ 77.5165699, 10.1665005 ], [ 77.5177382, 10.1660308 ], [ 77.5218295, 10.1704441 ], [ 77.527605, 10.1739404 ], [ 77.5233793, 10.1751234 ], [ 77.5231508, 10.1761404 ], [ 77.5261165, 10.176607 ], [ 77.5276173, 10.1781715 ], [ 77.5368021, 10.179621 ], [ 77.538059, 10.187713 ], [ 77.5392088, 10.1881202 ], [ 77.5404375, 10.1838351 ], [ 77.5429473, 10.1834651 ], [ 77.543751, 10.1816888 ], [ 77.5463123, 10.1829317 ], [ 77.5472496, 10.1861108 ], [ 77.5431241, 10.1878727 ], [ 77.5446751, 10.1895321 ], [ 77.5444552, 10.1925201 ], [ 77.5512956, 10.1918302 ], [ 77.5473019, 10.1956309 ], [ 77.5495649, 10.1967436 ], [ 77.5463609, 10.1987317 ], [ 77.5481865, 10.2039487 ], [ 77.5492481, 10.2042881 ], [ 77.5498059, 10.1999215 ], [ 77.5556646, 10.2020792 ], [ 77.5668188, 10.1953733 ], [ 77.5662122, 10.1941255 ], [ 77.5687085, 10.1929868 ], [ 77.5668517, 10.190672 ], [ 77.5681206, 10.1886877 ], [ 77.5671945, 10.1877699 ], [ 77.5686867, 10.187282 ], [ 77.5673963, 10.1826572 ], [ 77.5697466, 10.1812699 ], [ 77.5740576, 10.1869846 ], [ 77.5872988, 10.1929809 ], [ 77.589046, 10.1967603 ], [ 77.5907756, 10.1967921 ], [ 77.5918896, 10.1913134 ], [ 77.5983189, 10.1943113 ], [ 77.6030047, 10.1999623 ], [ 77.599728, 10.2018607 ], [ 77.5961504, 10.2021631 ], [ 77.5957394, 10.2055715 ], [ 77.6008363, 10.207778 ], [ 77.6004075, 10.2058748 ], [ 77.6038027, 10.2059249 ], [ 77.6046558, 10.2089267 ], [ 77.6091324, 10.2116257 ], [ 77.6086349, 10.2124665 ], [ 77.6100723, 10.2135153 ], [ 77.6153659, 10.2125347 ], [ 77.6187976, 10.2142029 ], [ 77.6204358, 10.217729 ], [ 77.623256, 10.2187281 ] ] ] } }
]
}
