{
"type": "FeatureCollection",
"name": "3334",
"crs": { "type": "name", "properties": { "name": "urn:ogc:def:crs:OGC:1.3:CRS84" } },
"features": [
{ "type": "Feature", "properties": { "code": "3334", "name": "Kallakurichi", "type": "district" }, "geometry": { "type": "Polygon", "coordinates": [ [ [ 79.0919815, 12.0772499 ], [ 79.0984806, 12.068935 ], [ 79.0984808, 12.0660875 ], [ 79.0965757, 12.0607176 ], [ 79.0928979, 12.0554332 ], [ 79.0925039, 12.0492861 ], [ 79.0900938, 12.0447613 ], [ 79.0879726, 12.0424332 ], [ 79.0845561, 12.0425592 ], [ 79.0808775, 12.0446332 ], [ 79.0805509, 12.047092 ], [ 79.0768733, 12.0442437 ], [ 79.0773329, 12.042237 ], [ 79.0811403, 12.0389381 ], [ 79.0789101, 12.0315024 ], [ 79.0865971, 12.0293704 ], [ 79.0867255, 12.0305998 ], [ 79.0904037, 12.0297597 ], [ 79.091129, 12.0311835 ], [ 79.0945455, 12.0300179 ], [ 79.095988, 12.0248473 ], [ 79.0995374, 12.0246533 ], [ 79.0993343, 12.0230666 ], [ 79.1070913, 12.0198042 ], [ 79.1125411, 12.0264625 ], [ 79.1195713, 12.0210345 ], [ 79.1254304, 12.0187747 ], [ 79.1364321, 12.0260834 ], [ 79.140014, 12.0387302 ], [ 79.1474901, 12.0441222 ], [ 79.158625, 12.0355605 ], [ 79.1607326, 12.0358722 ], [ 79.1654711, 12.0318805 ], [ 79.1726296, 12.0304784 ], [ 79.1699444, 12.0194075 ], [ 79.1706179, 12.0103089 ], [ 79.1673526, 12.0058392 ], [ 79.1682935, 12.0034977 ], [ 79.1705709, 12.003633 ], [ 79.1707727, 12.0025391 ], [ 79.1684099, 11.9921979 ], [ 79.1711755, 11.9888561 ], [ 79.1758377, 11.9888791 ], [ 79.1863827, 11.9857627 ], [ 79.1847042, 11.9727548 ], [ 79.2089719, 11.9746288 ], [ 79.217968, 11.969071 ], [ 79.2219235, 11.9621132 ], [ 79.2272476, 11.9574553 ], [ 79.2371253, 11.9521697 ], [ 79.2609807, 11.9501126 ], [ 79.2676045, 11.9478877 ], [ 79.2710205, 11.9487877 ], [ 79.2740368, 11.9476271 ], [ 79.2739232, 11.9445173 ], [ 79.2845186, 11.9417322 ], [ 79.2856558, 11.9455925 ], [ 79.2926474, 11.9441257 ], [ 79.3055258, 11.9339051 ], [ 79.3081258, 11.9261857 ], [ 79.3066439, 11.9235231 ], [ 79.3081271, 11.9203911 ], [ 79.3145807, 11.920257 ], [ 79.3154522, 11.922594 ], [ 79.3215664, 11.9209409 ], [ 79.3266239, 11.9242368 ], [ 79.3307414, 11.9226781 ], [ 79.3433956, 11.9258935 ], [ 79.3487522, 11.926007 ], [ 79.3639975, 11.9180589 ], [ 79.3749031, 11.9195284 ], [ 79.4145716, 11.8988974 ], [ 79.4308799, 11.8807337 ], [ 79.4409793, 11.8727766 ], [ 79.4550769, 11.8714942 ], [ 79.4534225, 11.8627982 ], [ 79.4512427, 11.8627626 ], [ 79.4500446, 11.8540822 ], [ 79.4523327, 11.8539754 ], [ 79.4515008, 11.8490805 ], [ 79.4604345, 11.8468227 ], [ 79.4674556, 11.847824 ], [ 79.4722276, 11.8468824 ], [ 79.4724228, 11.8450902 ], [ 79.4694645, 11.8448357 ], [ 79.4688033, 11.8435568 ], [ 79.4710789, 11.8422769 ], [ 79.4697066, 11.8410208 ], [ 79.4719589, 11.8391624 ], [ 79.4716365, 11.8353521 ], [ 79.4804976, 11.8371843 ], [ 79.4809349, 11.8283701 ], [ 79.4797316, 11.8251117 ], [ 79.4770146, 11.8229656 ], [ 79.4797803, 11.8199679 ], [ 79.4826909, 11.8118535 ], [ 79.4776236, 11.8062324 ], [ 79.4727139, 11.8048327 ], [ 79.4726398, 11.8026134 ], [ 79.4709007, 11.8020851 ], [ 79.4710699, 11.8000331 ], [ 79.4683076, 11.7992384 ], [ 79.4639265, 11.8005641 ], [ 79.4658861, 11.8021997 ], [ 79.4652488, 11.8037458 ], [ 79.4672087, 11.8062492 ], [ 79.4664244, 11.8072846 ], [ 79.4536798, 11.8110758 ], [ 79.4494533, 11.8082112 ], [ 79.4435214, 11.8099572 ], [ 79.4416903, 11.8083395 ], [ 79.4382787, 11.7952141 ], [ 79.4393513, 11.7906667 ], [ 79.4354362, 11.7822693 ], [ 79.4319681, 11.7830157 ], [ 79.4306415, 11.7785367 ], [ 79.435311, 11.7750283 ], [ 79.43575, 11.7678143 ], [ 79.4387775, 11.7666294 ], [ 79.4403555, 11.7665025 ], [ 79.4419799, 11.768369 ], [ 79.4437501, 11.7662532 ], [ 79.4432407, 11.7651956 ], [ 79.446273, 11.7653848 ], [ 79.4470295, 11.7638885 ], [ 79.4508785, 11.7645747 ], [ 79.4504987, 11.768245 ], [ 79.4537791, 11.7696725 ], [ 79.4637515, 11.7672471 ], [ 79.4622371, 11.7652542 ], [ 79.4620425, 11.7585375 ], [ 79.4603121, 11.7553107 ], [ 79.4630871, 11.7541889 ], [ 79.4617289, 11.7502805 ], [ 79.4627911, 11.7432291 ], [ 79.4572948, 11.7393659 ], [ 79.4569228, 11.7378473 ], [ 79.4465328, 11.7352599 ], [ 79.4425513, 11.7352879 ], [ 79.4397997, 11.7376297 ], [ 79.4376614, 11.733734 ], [ 79.4313173, 11.7307293 ], [ 79.4311065, 11.7319452 ], [ 79.4284506, 11.7311637 ], [ 79.4291014, 11.7281894 ], [ 79.4349674, 11.7260775 ], [ 79.4349671, 11.7239034 ], [ 79.4358615, 11.7239394 ], [ 79.4370575, 11.7185829 ], [ 79.4345182, 11.7033373 ], [ 79.4371531, 11.6917565 ], [ 79.4396296, 11.6915028 ], [ 79.4426874, 11.6862002 ], [ 79.4424961, 11.6711621 ], [ 79.4442788, 11.6660089 ], [ 79.4356256, 11.6659473 ], [ 79.4333828, 11.6639408 ], [ 79.4312783, 11.6664182 ], [ 79.4316546, 11.6677651 ], [ 79.4284628, 11.6667938 ], [ 79.4178422, 11.6678982 ], [ 79.4183885, 11.6715006 ], [ 79.4099689, 11.6727581 ], [ 79.403659, 11.6759272 ], [ 79.3992796, 11.6763344 ], [ 79.3992796, 11.6773694 ], [ 79.3952302, 11.6772521 ], [ 79.395478, 11.6802716 ], [ 79.3921806, 11.6795801 ], [ 79.3849761, 11.6808594 ], [ 79.384889, 11.6795034 ], [ 79.3833664, 11.6803487 ], [ 79.3816191, 11.6780434 ], [ 79.3769094, 11.6791192 ], [ 79.3742771, 11.6751234 ], [ 79.3716402, 11.6754849 ], [ 79.3711955, 11.6739209 ], [ 79.3615515, 11.672691 ], [ 79.3605248, 11.6647492 ], [ 79.3632122, 11.6625888 ], [ 79.3598419, 11.6598856 ], [ 79.3516383, 11.6586599 ], [ 79.351157, 11.6576338 ], [ 79.3447276, 11.6602456 ], [ 79.3323141, 11.6609624 ], [ 79.3295358, 11.6577436 ], [ 79.3280196, 11.649205 ], [ 79.3264058, 11.6478441 ], [ 79.3199769, 11.6479965 ], [ 79.318511, 11.6420794 ], [ 79.3116095, 11.6438994 ], [ 79.3087328, 11.6326574 ], [ 79.296347, 11.6363649 ], [ 79.2966615, 11.6426886 ], [ 79.2914648, 11.6472748 ], [ 79.279574, 11.6491918 ], [ 79.2783551, 11.6471709 ], [ 79.2752003, 11.6471201 ], [ 79.2734036, 11.645117 ], [ 79.2710875, 11.6462055 ], [ 79.2708867, 11.6437284 ], [ 79.2631728, 11.6468396 ], [ 79.2629609, 11.6492216 ], [ 79.2595723, 11.6490349 ], [ 79.2487437, 11.6523975 ], [ 79.248646, 11.6490211 ], [ 79.2440991, 11.6424688 ], [ 79.2412101, 11.6417648 ], [ 79.2356068, 11.6293276 ], [ 79.2246354, 11.6319846 ], [ 79.2237011, 11.6355197 ], [ 79.2188877, 11.6389022 ], [ 79.2175347, 11.6380031 ], [ 79.2158202, 11.6391652 ], [ 79.2155353, 11.637294 ], [ 79.2099999, 11.6337157 ], [ 79.2111957, 11.630375 ], [ 79.2098831, 11.6258915 ], [ 79.2126111, 11.6254026 ], [ 79.2123895, 11.6200916 ], [ 79.205534, 11.6163417 ], [ 79.2038272, 11.6119351 ], [ 79.2025889, 11.6105613 ], [ 79.2015393, 11.6115785 ], [ 79.1949766, 11.6033897 ], [ 79.1925398, 11.5929896 ], [ 79.1902751, 11.5935415 ], [ 79.1836903, 11.5859761 ], [ 79.1768925, 11.5917178 ], [ 79.1607143, 11.5978988 ], [ 79.1593251, 11.5971666 ], [ 79.1564873, 11.5982427 ], [ 79.1502338, 11.5974612 ], [ 79.1477439, 11.5894788 ], [ 79.1462586, 11.5897999 ], [ 79.1436544, 11.5876936 ], [ 79.1357554, 11.5889504 ], [ 79.1341188, 11.5901302 ], [ 79.1346735, 11.5921009 ], [ 79.1333394, 11.5926976 ], [ 79.133587, 11.5939271 ], [ 79.1164725, 11.599179 ], [ 79.1180631, 11.6055162 ], [ 79.1161695, 11.6053624 ], [ 79.1163344, 11.6095254 ], [ 79.1129414, 11.6132859 ], [ 79.1061831, 11.61489 ], [ 79.1028686, 11.610677 ], [ 79.0982192, 11.614175 ], [ 79.0986264, 11.621154 ], [ 79.0913451, 11.6232911 ], [ 79.0840897, 11.6343189 ], [ 79.0782169, 11.6295899 ], [ 79.067483, 11.630216 ], [ 79.0693374, 11.6209277 ], [ 79.0655708, 11.6113262 ], [ 79.076974, 11.6079928 ], [ 79.0778656, 11.5968917 ], [ 79.0723589, 11.5992094 ], [ 79.0681503, 11.5987701 ], [ 79.0682286, 11.5975542 ], [ 79.0652625, 11.5968528 ], [ 79.0646721, 11.5927937 ], [ 79.0579932, 11.5896552 ], [ 79.0550141, 11.5863999 ], [ 79.049192, 11.5857249 ], [ 79.0431814, 11.5872282 ], [ 79.0435338, 11.5892262 ], [ 79.048113, 11.5915328 ], [ 79.049808, 11.5956195 ], [ 79.0445217, 11.5966891 ], [ 79.041761, 11.5991336 ], [ 79.0334631, 11.5979783 ], [ 79.0295419, 11.6017783 ], [ 79.0238519, 11.6027842 ], [ 79.0183899, 11.6067462 ], [ 79.012138, 11.6026576 ], [ 79.014349, 11.5998968 ], [ 79.0145344, 11.5952638 ], [ 79.0188677, 11.5928744 ], [ 79.0154032, 11.5896366 ], [ 79.0154367, 11.5860838 ], [ 79.0141119, 11.5857804 ], [ 79.0133428, 11.5834117 ], [ 79.0080575, 11.5821438 ], [ 79.0076139, 11.5796214 ], [ 79.0044976, 11.577351 ], [ 79.0044071, 11.5746299 ], [ 78.9962969, 11.5758216 ], [ 78.9918435, 11.5707066 ], [ 78.9810097, 11.5670263 ], [ 78.9736714, 11.5695061 ], [ 78.9742553, 11.5745593 ], [ 78.970001, 11.5742714 ], [ 78.9618352, 11.5698305 ], [ 78.9561186, 11.5692806 ], [ 78.9464189, 11.571231 ], [ 78.9385337, 11.5695874 ], [ 78.9369105, 11.5673729 ], [ 78.9317947, 11.5676676 ], [ 78.9306254, 11.5658191 ], [ 78.9237998, 11.5670767 ], [ 78.9195489, 11.556202 ], [ 78.9212217, 11.5538423 ], [ 78.91892, 11.549101 ], [ 78.9190342, 11.5461087 ], [ 78.9180853, 11.5462309 ], [ 78.9187268, 11.5443143 ], [ 78.9176909, 11.5441788 ], [ 78.9152608, 11.5385335 ], [ 78.9148982, 11.5338236 ], [ 78.9177032, 11.5329961 ], [ 78.9164651, 11.5283948 ], [ 78.9152413, 11.5284989 ], [ 78.9113677, 11.5233193 ], [ 78.9049449, 11.5053479 ], [ 78.8996284, 11.5045754 ], [ 78.8920205, 11.5067047 ], [ 78.8856728, 11.5061308 ], [ 78.8786147, 11.5098508 ], [ 78.877634, 11.507523 ], [ 78.8726198, 11.5116316 ], [ 78.8718909, 11.5171235 ], [ 78.8641771, 11.5186735 ], [ 78.8579434, 11.5231073 ], [ 78.8547533, 11.5231522 ], [ 78.8517651, 11.5213213 ], [ 78.8447891, 11.5219804 ], [ 78.8344657, 11.5311683 ], [ 78.8347209, 11.539996 ], [ 78.8292106, 11.5438824 ], [ 78.826639, 11.5443113 ], [ 78.8179808, 11.5419139 ], [ 78.8160372, 11.5424739 ], [ 78.8146616, 11.5447201 ], [ 78.8146241, 11.5482503 ], [ 78.8161702, 11.5617114 ], [ 78.8182375, 11.5623266 ], [ 78.8230583, 11.5702604 ], [ 78.8259567, 11.5710018 ], [ 78.829328, 11.5781537 ], [ 78.8242575, 11.5791923 ], [ 78.8216568, 11.5857821 ], [ 78.8173107, 11.5859122 ], [ 78.8176259, 11.5908663 ], [ 78.808869, 11.59274 ], [ 78.8017116, 11.5958163 ], [ 78.7956187, 11.5958552 ], [ 78.7956641, 11.5972791 ], [ 78.7942153, 11.5972379 ], [ 78.794343, 11.5994935 ], [ 78.786196, 11.5997486 ], [ 78.7831227, 11.6040958 ], [ 78.7787764, 11.6040536 ], [ 78.7753417, 11.6059734 ], [ 78.7767419, 11.6133552 ], [ 78.7820187, 11.6145865 ], [ 78.7864343, 11.6134851 ], [ 78.7891742, 11.6191135 ], [ 78.7898404, 11.6288815 ], [ 78.7875702, 11.630499 ], [ 78.7879681, 11.633392 ], [ 78.786345, 11.6334231 ], [ 78.7862506, 11.6413015 ], [ 78.7842752, 11.6385481 ], [ 78.7810752, 11.6371006 ], [ 78.7735785, 11.6366052 ], [ 78.7839469, 11.6466027 ], [ 78.7872842, 11.6490447 ], [ 78.7908837, 11.649543 ], [ 78.7938588, 11.6520797 ], [ 78.7932945, 11.6532276 ], [ 78.7975217, 11.655385 ], [ 78.7970438, 11.6586348 ], [ 78.8037707, 11.6593463 ], [ 78.8064895, 11.6613449 ], [ 78.8045025, 11.6661808 ], [ 78.80422, 11.676283 ], [ 78.8053204, 11.6768664 ], [ 78.8040935, 11.6859152 ], [ 78.8060791, 11.6864582 ], [ 78.8011938, 11.6902311 ], [ 78.7913509, 11.6934148 ], [ 78.7864325, 11.699253 ], [ 78.7806477, 11.7033417 ], [ 78.7650796, 11.6970665 ], [ 78.7605024, 11.6974126 ], [ 78.753808, 11.6939655 ], [ 78.7377588, 11.6929596 ], [ 78.7283811, 11.6891417 ], [ 78.7249552, 11.689016 ], [ 78.7179497, 11.6831969 ], [ 78.7125199, 11.6857645 ], [ 78.709595, 11.6901623 ], [ 78.7049702, 11.6891927 ], [ 78.7004282, 11.6916193 ], [ 78.6931669, 11.6893467 ], [ 78.6852452, 11.6829408 ], [ 78.6824175, 11.682106 ], [ 78.6778698, 11.671836 ], [ 78.6781271, 11.6676284 ], [ 78.6824177, 11.6687563 ], [ 78.6829635, 11.6671915 ], [ 78.6784962, 11.6649858 ], [ 78.6800997, 11.6435714 ], [ 78.6765083, 11.6432051 ], [ 78.6590672, 11.6479416 ], [ 78.6600207, 11.6616263 ], [ 78.6500221, 11.6625309 ], [ 78.6458741, 11.6604402 ], [ 78.6495437, 11.6676699 ], [ 78.6501637, 11.6721474 ], [ 78.6526705, 11.7152675 ], [ 78.637911, 11.7212412 ], [ 78.6390688, 11.7409983 ], [ 78.6433654, 11.7560688 ], [ 78.6420215, 11.7608511 ], [ 78.6431732, 11.7683362 ], [ 78.662249, 11.7798744 ], [ 78.6634422, 11.7828122 ], [ 78.6622228, 11.7908852 ], [ 78.665288, 11.7966523 ], [ 78.6791583, 11.8020065 ], [ 78.6851775, 11.8010291 ], [ 78.6922482, 11.8038844 ], [ 78.6901082, 11.8162425 ], [ 78.693635, 11.8300097 ], [ 78.6952046, 11.8512307 ], [ 78.6776076, 11.8583305 ], [ 78.6585772, 11.8567962 ], [ 78.6584538, 11.8612619 ], [ 78.6552922, 11.8652037 ], [ 78.6497901, 11.8663566 ], [ 78.6355707, 11.8649957 ], [ 78.6277212, 11.8669945 ], [ 78.6271384, 11.8710624 ], [ 78.6276844, 11.8730332 ], [ 78.6335081, 11.8739327 ], [ 78.6361561, 11.8785746 ], [ 78.6345546, 11.8883379 ], [ 78.6501997, 11.8844998 ], [ 78.6550554, 11.8853583 ], [ 78.6560013, 11.8914149 ], [ 78.6608344, 11.8953242 ], [ 78.6754756, 11.8982649 ], [ 78.6774633, 11.9009404 ], [ 78.689879, 11.9040072 ], [ 78.691338, 11.9017559 ], [ 78.6911217, 11.8990259 ], [ 78.6947235, 11.8944644 ], [ 78.7082407, 11.897937 ], [ 78.7081134, 11.9025835 ], [ 78.7102296, 11.9033423 ], [ 78.7113189, 11.9089874 ], [ 78.7188981, 11.9135369 ], [ 78.7238618, 11.9196689 ], [ 78.7190449, 11.9276165 ], [ 78.7133637, 11.9321336 ], [ 78.7108115, 11.9317637 ], [ 78.7044242, 11.9400053 ], [ 78.7042779, 11.9425591 ], [ 78.7077538, 11.946355 ], [ 78.7082786, 11.9510737 ], [ 78.7133279, 11.9507423 ], [ 78.7098575, 11.9666174 ], [ 78.7121906, 11.9698123 ], [ 78.7180724, 11.9874881 ], [ 78.7364921, 11.9879655 ], [ 78.7347671, 11.991243 ], [ 78.7431156, 11.9953936 ], [ 78.7575122, 12.0116122 ], [ 78.7713944, 12.006732 ], [ 78.7802922, 12.007689 ], [ 78.79429, 12.0125482 ], [ 78.8043159, 12.0196067 ], [ 78.8177673, 12.0092097 ], [ 78.8420432, 12.0066622 ], [ 78.8457071, 12.0071508 ], [ 78.8481265, 12.009759 ], [ 78.852741, 12.008313 ], [ 78.854986, 12.0102703 ], [ 78.8572405, 12.0097236 ], [ 78.8613772, 12.0122685 ], [ 78.860147, 12.0093486 ], [ 78.8608357, 12.007152 ], [ 78.8619056, 12.0061034 ], [ 78.8632187, 12.0074549 ], [ 78.8624336, 12.0056198 ], [ 78.8657165, 12.0042594 ], [ 78.8665567, 12.0045487 ], [ 78.8654226, 12.0063205 ], [ 78.8672728, 12.0073059 ], [ 78.867025, 12.0046798 ], [ 78.8688249, 12.0037036 ], [ 78.8711067, 12.0060765 ], [ 78.8757303, 12.0052404 ], [ 78.8756201, 12.0029442 ], [ 78.8797614, 12.0033691 ], [ 78.8820938, 12.00223 ], [ 78.912025, 12.0053735 ], [ 78.9137153, 12.0096717 ], [ 78.9156342, 12.0072849 ], [ 78.9273065, 12.0128199 ], [ 78.9312658, 12.0196893 ], [ 78.936267, 12.0236974 ], [ 78.9362939, 12.0209493 ], [ 78.9433074, 12.0289569 ], [ 78.9447034, 12.0310259 ], [ 78.9430235, 12.0321842 ], [ 78.9448236, 12.0325544 ], [ 78.9489127, 12.0409422 ], [ 78.945625, 12.0417025 ], [ 78.9475592, 12.0453495 ], [ 78.9429899, 12.0468342 ], [ 78.9437437, 12.0502104 ], [ 78.9415396, 12.0505725 ], [ 78.9489991, 12.0579066 ], [ 78.9533728, 12.0648301 ], [ 78.9597161, 12.0687472 ], [ 78.9644543, 12.0645061 ], [ 78.9753711, 12.0667084 ], [ 78.9810148, 12.0655629 ], [ 78.9863131, 12.0620083 ], [ 78.9884733, 12.0550694 ], [ 78.9909886, 12.0631862 ], [ 78.9950456, 12.0676322 ], [ 79.0052405, 12.066115 ], [ 79.0055662, 12.067001 ], [ 79.0086938, 12.0668216 ], [ 79.0170346, 12.0646149 ], [ 79.0176632, 12.065822 ], [ 79.0205245, 12.0654209 ], [ 79.020896, 12.0665284 ], [ 79.0315007, 12.0644172 ], [ 79.0311755, 12.0622248 ], [ 79.0235535, 12.0589812 ], [ 79.0209005, 12.0553913 ], [ 79.0223705, 12.0543252 ], [ 79.0228636, 12.0500631 ], [ 79.0251736, 12.049847 ], [ 79.0257857, 12.046376 ], [ 79.0270349, 12.0459335 ], [ 79.0292798, 12.0475615 ], [ 79.042714, 12.0410077 ], [ 79.043546, 12.0380112 ], [ 79.0524916, 12.0365314 ], [ 79.0604866, 12.0522087 ], [ 79.0677474, 12.0503979 ], [ 79.0687709, 12.0525135 ], [ 79.0656841, 12.0558937 ], [ 79.0647648, 12.0591931 ], [ 79.0610631, 12.0606294 ], [ 79.0630446, 12.0698686 ], [ 79.0707463, 12.0696083 ], [ 79.0718115, 12.0706978 ], [ 79.0749209, 12.0696092 ], [ 79.0788242, 12.0712416 ], [ 79.0815838, 12.0738999 ], [ 79.0852153, 12.081051 ], [ 79.0919815, 12.0772499 ] ] ] } }
]
}
