{
"type": "FeatureCollection",
"name": "3337",
"crs": { "type": "name", "properties": { "name": "urn:ogc:def:crs:OGC:1.3:CRS84" } },
"features": [
{ "type": "Feature", "properties": { "code": "3337", "name": "Tirupathur", "type": "district" }, "geometry": { "type": "MultiPolygon", "coordinates": [ [ [ [ 78.4973648, 12.7448031 ], [ 78.5052708, 12.7429622 ], [ 78.507143, 12.7371056 ], [ 78.5117393, 12.7343191 ], [ 78.5138295, 12.7344691 ], [ 78.5116968, 12.7267349 ], [ 78.5068739, 12.722326 ], [ 78.5058147, 12.7228724 ], [ 78.5064402, 12.7243416 ], [ 78.5042023, 12.7250366 ], [ 78.5016532, 12.7311143 ], [ 78.4969611, 12.7313378 ], [ 78.4926858, 12.7356423 ], [ 78.489088, 12.7419804 ], [ 78.4931651, 12.7471493 ], [ 78.4973648, 12.7448031 ] ] ], [ [ [ 78.9131292, 12.8947311 ], [ 78.9060429, 12.8889151 ], [ 78.9059644, 12.8861175 ], [ 78.909613, 12.8858459 ], [ 78.9090736, 12.8824292 ], [ 78.910769, 12.8827905 ], [ 78.9104279, 12.8811364 ], [ 78.90817, 12.8755368 ], [ 78.9022132, 12.8718945 ], [ 78.9005635, 12.8653501 ], [ 78.9005678, 12.8615898 ], [ 78.9049255, 12.8621905 ], [ 78.9043816, 12.8582901 ], [ 78.9054181, 12.8583127 ], [ 78.9053166, 12.8570471 ], [ 78.9042111, 12.8572054 ], [ 78.9033725, 12.8547378 ], [ 78.9050491, 12.8537388 ], [ 78.9036944, 12.8491831 ], [ 78.9005669, 12.8493687 ], [ 78.901972, 12.8521978 ], [ 78.8997058, 12.8533053 ], [ 78.9005442, 12.8548239 ], [ 78.8997291, 12.8568532 ], [ 78.8943165, 12.8566095 ], [ 78.8909446, 12.8541419 ], [ 78.8895858, 12.8568809 ], [ 78.8779298, 12.855828 ], [ 78.8762136, 12.8533737 ], [ 78.8768032, 12.8497986 ], [ 78.8800783, 12.8502507 ], [ 78.8809627, 12.8490259 ], [ 78.8770244, 12.8458485 ], [ 78.8775173, 12.8416362 ], [ 78.8788439, 12.8421604 ], [ 78.8814694, 12.8403481 ], [ 78.8930525, 12.8424801 ], [ 78.8930574, 12.8406925 ], [ 78.8957811, 12.8398981 ], [ 78.896462, 12.8374014 ], [ 78.8982778, 12.8376284 ], [ 78.8975488, 12.8341963 ], [ 78.8912753, 12.8314261 ], [ 78.8809674, 12.832068 ], [ 78.8781346, 12.8325923 ], [ 78.8749105, 12.8359865 ], [ 78.8649943, 12.8262462 ], [ 78.8653403, 12.8185945 ], [ 78.8690523, 12.820859 ], [ 78.8742568, 12.8201586 ], [ 78.8776973, 12.8181926 ], [ 78.877467, 12.8154989 ], [ 78.8842097, 12.8123803 ], [ 78.8846933, 12.8105227 ], [ 78.8838043, 12.8076031 ], [ 78.8795167, 12.8030292 ], [ 78.8779693, 12.7933299 ], [ 78.8768072, 12.7923607 ], [ 78.8780789, 12.7904524 ], [ 78.8725446, 12.7883446 ], [ 78.8752618, 12.7824239 ], [ 78.8728718, 12.7797617 ], [ 78.8718084, 12.7744214 ], [ 78.8685446, 12.7756652 ], [ 78.8610545, 12.7749843 ], [ 78.8610545, 12.7726011 ], [ 78.8506138, 12.7630683 ], [ 78.8508408, 12.7592098 ], [ 78.8489115, 12.7564862 ], [ 78.8472242, 12.73734 ], [ 78.848813, 12.7305502 ], [ 78.8512442, 12.7278793 ], [ 78.8536481, 12.7203723 ], [ 78.853676, 12.7166074 ], [ 78.8464402, 12.7039652 ], [ 78.8448759, 12.6967517 ], [ 78.8500876, 12.6899682 ], [ 78.8538948, 12.6876363 ], [ 78.8564177, 12.6827056 ], [ 78.8414763, 12.6784195 ], [ 78.8399315, 12.6648105 ], [ 78.8357808, 12.6580349 ], [ 78.8086456, 12.6362112 ], [ 78.8142368, 12.6388296 ], [ 78.8387118, 12.6432458 ], [ 78.8449531, 12.6416151 ], [ 78.8582466, 12.6334689 ], [ 78.8589225, 12.6314472 ], [ 78.8571464, 12.6278088 ], [ 78.8571789, 12.6246766 ], [ 78.8557017, 12.6237453 ], [ 78.8555914, 12.6219284 ], [ 78.8529453, 12.621205 ], [ 78.851906, 12.6146287 ], [ 78.8479072, 12.6111028 ], [ 78.8492146, 12.6084408 ], [ 78.8394433, 12.5891808 ], [ 78.8289252, 12.5608175 ], [ 78.8240589, 12.5537883 ], [ 78.8256009, 12.5505796 ], [ 78.824323, 12.54535 ], [ 78.8207411, 12.5363503 ], [ 78.8177563, 12.5323994 ], [ 78.817711, 12.5292807 ], [ 78.7994432, 12.5013369 ], [ 78.7982336, 12.4972758 ], [ 78.7937673, 12.4965694 ], [ 78.7898195, 12.4998539 ], [ 78.785599, 12.493665 ], [ 78.7820928, 12.4843529 ], [ 78.7793702, 12.4836785 ], [ 78.7773959, 12.4862314 ], [ 78.7747054, 12.4853264 ], [ 78.775879, 12.4835687 ], [ 78.7755065, 12.4721832 ], [ 78.7796946, 12.4655497 ], [ 78.7779653, 12.4651965 ], [ 78.7775535, 12.4597997 ], [ 78.775029, 12.4586191 ], [ 78.7724985, 12.4608508 ], [ 78.7585621, 12.4427432 ], [ 78.7641362, 12.4422982 ], [ 78.7688109, 12.4374549 ], [ 78.7694327, 12.4349964 ], [ 78.7681557, 12.43171 ], [ 78.7687115, 12.4224808 ], [ 78.7645607, 12.4185242 ], [ 78.7638558, 12.4112199 ], [ 78.7606825, 12.4021202 ], [ 78.7478702, 12.3816177 ], [ 78.7424937, 12.3777284 ], [ 78.7373252, 12.3764061 ], [ 78.7320151, 12.377276 ], [ 78.731499, 12.3744423 ], [ 78.729177, 12.3738374 ], [ 78.7280292, 12.3658965 ], [ 78.7286796, 12.359112 ], [ 78.7250089, 12.3538974 ], [ 78.7258403, 12.3516688 ], [ 78.725039, 12.3480759 ], [ 78.7126678, 12.3186874 ], [ 78.7100111, 12.3041343 ], [ 78.7034957, 12.2960411 ], [ 78.6939394, 12.2940637 ], [ 78.6875936, 12.2809349 ], [ 78.6857602, 12.2831952 ], [ 78.6791129, 12.2764618 ], [ 78.6770487, 12.2728824 ], [ 78.6784364, 12.2717975 ], [ 78.6666102, 12.265693 ], [ 78.656067, 12.2625573 ], [ 78.6519121, 12.258987 ], [ 78.6480333, 12.258377 ], [ 78.6351974, 12.261225 ], [ 78.638704, 12.2637877 ], [ 78.6406253, 12.2677606 ], [ 78.6394029, 12.2704816 ], [ 78.6410896, 12.2716747 ], [ 78.6430752, 12.2768635 ], [ 78.6418436, 12.2775415 ], [ 78.6438705, 12.280841 ], [ 78.6414209, 12.2821744 ], [ 78.6308728, 12.2705224 ], [ 78.6237216, 12.2648227 ], [ 78.6167587, 12.2675569 ], [ 78.6141347, 12.263977 ], [ 78.6097551, 12.2612829 ], [ 78.6038126, 12.2625931 ], [ 78.6013212, 12.2672348 ], [ 78.6042015, 12.2792081 ], [ 78.6130986, 12.294147 ], [ 78.6097153, 12.2975592 ], [ 78.6094523, 12.3097763 ], [ 78.6035821, 12.312994 ], [ 78.5984016, 12.3132284 ], [ 78.5927623, 12.3073745 ], [ 78.5889743, 12.3097695 ], [ 78.5883304, 12.312766 ], [ 78.5912028, 12.3157812 ], [ 78.5936197, 12.3223217 ], [ 78.5990899, 12.323267 ], [ 78.6045868, 12.3317604 ], [ 78.6112067, 12.3300118 ], [ 78.6154722, 12.3375376 ], [ 78.6139457, 12.3425998 ], [ 78.6172462, 12.3472734 ], [ 78.6132326, 12.3494969 ], [ 78.6120371, 12.3521183 ], [ 78.5845204, 12.3606123 ], [ 78.5821286, 12.3661893 ], [ 78.5696244, 12.3801124 ], [ 78.5675164, 12.3889979 ], [ 78.564459, 12.3879169 ], [ 78.5557773, 12.3902468 ], [ 78.5500198, 12.3927943 ], [ 78.5435164, 12.3979087 ], [ 78.535746, 12.3964371 ], [ 78.5280844, 12.3990875 ], [ 78.5256845, 12.3985713 ], [ 78.5199249, 12.4045577 ], [ 78.5159424, 12.4054329 ], [ 78.5140747, 12.4071496 ], [ 78.5125785, 12.401106 ], [ 78.5085837, 12.3987584 ], [ 78.5038549, 12.4024354 ], [ 78.5015954, 12.4060772 ], [ 78.4988068, 12.4071518 ], [ 78.496096, 12.4121158 ], [ 78.495345, 12.4088437 ], [ 78.4900729, 12.4030832 ], [ 78.4926281, 12.3997691 ], [ 78.490149, 12.386857 ], [ 78.4869362, 12.3898775 ], [ 78.4768579, 12.3914994 ], [ 78.4745584, 12.3899996 ], [ 78.4647651, 12.3918559 ], [ 78.4631266, 12.3866315 ], [ 78.458781, 12.3849514 ], [ 78.4451543, 12.3914182 ], [ 78.441025, 12.3900903 ], [ 78.4358299, 12.3938203 ], [ 78.4416774, 12.4079751 ], [ 78.4461255, 12.4139312 ], [ 78.4484891, 12.4143464 ], [ 78.4521015, 12.423715 ], [ 78.453941, 12.4243022 ], [ 78.4555701, 12.4284916 ], [ 78.4522966, 12.4310416 ], [ 78.4479258, 12.4413071 ], [ 78.4475908, 12.4442497 ], [ 78.4501768, 12.4493608 ], [ 78.4448249, 12.4551249 ], [ 78.4351033, 12.4608445 ], [ 78.4312962, 12.4661515 ], [ 78.430069, 12.4708026 ], [ 78.4251666, 12.4746091 ], [ 78.4244501, 12.4805798 ], [ 78.4185767, 12.4823253 ], [ 78.4181217, 12.4854983 ], [ 78.4155416, 12.4882241 ], [ 78.4172176, 12.5002962 ], [ 78.4198505, 12.508171 ], [ 78.4193361, 12.5137485 ], [ 78.4130688, 12.5171243 ], [ 78.4170145, 12.5242212 ], [ 78.415777, 12.5242846 ], [ 78.414508, 12.5306803 ], [ 78.416887, 12.5345669 ], [ 78.4171373, 12.5481397 ], [ 78.4161071, 12.55021 ], [ 78.4181691, 12.5566322 ], [ 78.4178895, 12.5640311 ], [ 78.4211105, 12.5653776 ], [ 78.4212308, 12.5702272 ], [ 78.418383, 12.5722661 ], [ 78.409693, 12.5881857 ], [ 78.4107562, 12.5902737 ], [ 78.4097856, 12.5927732 ], [ 78.4102694, 12.5991324 ], [ 78.4073431, 12.6026627 ], [ 78.4104321, 12.6135369 ], [ 78.4068524, 12.620258 ], [ 78.4153537, 12.6292695 ], [ 78.4270676, 12.6352428 ], [ 78.4348259, 12.629551 ], [ 78.4416603, 12.6293326 ], [ 78.4458072, 12.6305338 ], [ 78.4584586, 12.6296447 ], [ 78.4649691, 12.6240292 ], [ 78.4717232, 12.6320404 ], [ 78.4705632, 12.6445922 ], [ 78.4747756, 12.6476325 ], [ 78.4705146, 12.6505627 ], [ 78.4678997, 12.6758921 ], [ 78.4844338, 12.6716831 ], [ 78.4848382, 12.6732703 ], [ 78.4931239, 12.6739256 ], [ 78.4997846, 12.6761403 ], [ 78.5001233, 12.6799054 ], [ 78.5038601, 12.681914 ], [ 78.5025241, 12.6841551 ], [ 78.5040387, 12.6837084 ], [ 78.5033589, 12.6899091 ], [ 78.5071427, 12.6902815 ], [ 78.5074414, 12.691407 ], [ 78.5029114, 12.6919066 ], [ 78.5039853, 12.6986415 ], [ 78.499409, 12.6992494 ], [ 78.4993157, 12.7016086 ], [ 78.4965757, 12.7032524 ], [ 78.4966903, 12.7042784 ], [ 78.5019338, 12.7044483 ], [ 78.5039606, 12.7112334 ], [ 78.5031708, 12.7163719 ], [ 78.5119866, 12.707671 ], [ 78.5146198, 12.7079117 ], [ 78.5145542, 12.7104111 ], [ 78.5190705, 12.710386 ], [ 78.519691, 12.712393 ], [ 78.5175447, 12.7147378 ], [ 78.5195471, 12.7152313 ], [ 78.5205034, 12.7180926 ], [ 78.5268599, 12.7216115 ], [ 78.5267371, 12.7180952 ], [ 78.5250716, 12.7154188 ], [ 78.5295189, 12.7154929 ], [ 78.5332347, 12.7139847 ], [ 78.5376993, 12.7168745 ], [ 78.5369732, 12.7133172 ], [ 78.5442298, 12.7102146 ], [ 78.5399629, 12.7082245 ], [ 78.5377384, 12.7104519 ], [ 78.5350511, 12.7073188 ], [ 78.5342535, 12.7102428 ], [ 78.531325, 12.7117151 ], [ 78.5296085, 12.7099518 ], [ 78.529343, 12.7063811 ], [ 78.5314091, 12.6967143 ], [ 78.5363648, 12.6903795 ], [ 78.5387903, 12.6915373 ], [ 78.5417597, 12.6910638 ], [ 78.5458693, 12.6949385 ], [ 78.5558756, 12.7001573 ], [ 78.5566203, 12.7036061 ], [ 78.554879, 12.7075196 ], [ 78.5585111, 12.7079545 ], [ 78.5615859, 12.7100118 ], [ 78.5560415, 12.7151899 ], [ 78.5544197, 12.7192753 ], [ 78.5605545, 12.7271593 ], [ 78.5638574, 12.7376232 ], [ 78.5556292, 12.739212 ], [ 78.555992, 12.7425522 ], [ 78.5601217, 12.7437827 ], [ 78.5590479, 12.7471902 ], [ 78.5596966, 12.7491926 ], [ 78.5631957, 12.7513203 ], [ 78.5631586, 12.7522197 ], [ 78.5583423, 12.7499411 ], [ 78.5582629, 12.7537108 ], [ 78.5556281, 12.7557851 ], [ 78.5615305, 12.7614536 ], [ 78.5633588, 12.7614538 ], [ 78.5655837, 12.7593613 ], [ 78.5683799, 12.7669162 ], [ 78.5765609, 12.7673802 ], [ 78.5760488, 12.7719091 ], [ 78.592521, 12.7826756 ], [ 78.5930668, 12.7982329 ], [ 78.6011634, 12.8036791 ], [ 78.6003878, 12.8184228 ], [ 78.6077577, 12.8219026 ], [ 78.6029046, 12.8447371 ], [ 78.6318493, 12.8565713 ], [ 78.6447023, 12.8633589 ], [ 78.653381, 12.8652615 ], [ 78.6868016, 12.8607224 ], [ 78.7119851, 12.858754 ], [ 78.7120682, 12.8598027 ], [ 78.7167617, 12.8569759 ], [ 78.7168673, 12.8552987 ], [ 78.7146234, 12.8528855 ], [ 78.7151572, 12.850286 ], [ 78.7162766, 12.8501817 ], [ 78.7201278, 12.8516993 ], [ 78.7170062, 12.8590598 ], [ 78.720079, 12.8601347 ], [ 78.7183705, 12.8624995 ], [ 78.7196005, 12.8628924 ], [ 78.7186888, 12.8647009 ], [ 78.7304083, 12.8656505 ], [ 78.7330207, 12.8507137 ], [ 78.7345454, 12.850478 ], [ 78.7340744, 12.8480322 ], [ 78.7362166, 12.8472813 ], [ 78.7373575, 12.84248 ], [ 78.7341953, 12.833951 ], [ 78.7341391, 12.8304431 ], [ 78.7452789, 12.8242543 ], [ 78.7446937, 12.8232556 ], [ 78.747604, 12.82155 ], [ 78.7491717, 12.8177075 ], [ 78.7515556, 12.821329 ], [ 78.7554882, 12.8227998 ], [ 78.7592721, 12.826806 ], [ 78.7732203, 12.8335916 ], [ 78.7759214, 12.839771 ], [ 78.7825835, 12.8472943 ], [ 78.7940939, 12.8486046 ], [ 78.7996016, 12.8528774 ], [ 78.8108867, 12.8540965 ], [ 78.8127057, 12.8558823 ], [ 78.8241469, 12.8601877 ], [ 78.8304153, 12.8651651 ], [ 78.8392775, 12.8694739 ], [ 78.8427914, 12.8753274 ], [ 78.8453018, 12.8772486 ], [ 78.8624063, 12.8834152 ], [ 78.8759457, 12.8913885 ], [ 78.8874171, 12.8937613 ], [ 78.8962678, 12.9035053 ], [ 78.8959823, 12.9051459 ], [ 78.8999171, 12.9072925 ], [ 78.9077866, 12.9099856 ], [ 78.9178883, 12.9106736 ], [ 78.913273, 12.9024191 ], [ 78.9131292, 12.8947311 ] ] ] ] } }
]
}
