{
"type": "FeatureCollection",
"name": "3338",
"crs": { "type": "name", "properties": { "name": "urn:ogc:def:crs:OGC:1.3:CRS84" } },
"features": [
{ "type": "Feature", "properties": { "code": "3338", "name": "Ranipet", "type": "district" }, "geometry": { "type": "Polygon", "coordinates": [ [ [ 79.6540149, 13.2105459 ], [ 79.6612064, 13.2104232 ], [ 79.6610816, 13.2080821 ], [ 79.662719, 13.2061023 ], [ 79.6704729, 13.2049578 ], [ 79.6715107, 13.2037915 ], [ 79.6716049, 13.1880545 ], [ 79.6701374, 13.1832459 ], [ 79.6841784, 13.1871664 ], [ 79.6920438, 13.1918469 ], [ 79.7007569, 13.1916458 ], [ 79.7007909, 13.1811876 ], [ 79.6918188, 13.1772398 ], [ 79.6924686, 13.1643425 ], [ 79.6938495, 13.163997 ], [ 79.693701, 13.1604944 ], [ 79.6948629, 13.1590433 ], [ 79.701504, 13.1587885 ], [ 79.7020768, 13.1618571 ], [ 79.7062372, 13.1632887 ], [ 79.7128184, 13.1624686 ], [ 79.719479, 13.1650832 ], [ 79.7216557, 13.1643413 ], [ 79.7286986, 13.1654234 ], [ 79.7305165, 13.1671129 ], [ 79.7365399, 13.1669433 ], [ 79.7364094, 13.1638204 ], [ 79.7387463, 13.1606421 ], [ 79.7390385, 13.1539396 ], [ 79.7373289, 13.1464288 ], [ 79.738997, 13.1434316 ], [ 79.7363201, 13.1276414 ], [ 79.7374424, 13.1208797 ], [ 79.7351826, 13.1200807 ], [ 79.7360532, 13.1178838 ], [ 79.7313808, 13.1148169 ], [ 79.7266096, 13.1182355 ], [ 79.7240913, 13.1166726 ], [ 79.7220821, 13.1076162 ], [ 79.7190432, 13.1068534 ], [ 79.7189134, 13.10491 ], [ 79.7148654, 13.1062718 ], [ 79.7135337, 13.1085817 ], [ 79.7022281, 13.1107996 ], [ 79.7047797, 13.1009915 ], [ 79.7036868, 13.1006844 ], [ 79.7016683, 13.1043006 ], [ 79.7014733, 13.0994151 ], [ 79.7074398, 13.0999422 ], [ 79.7085503, 13.0975961 ], [ 79.7099385, 13.0986308 ], [ 79.714466, 13.0976485 ], [ 79.7187916, 13.0994459 ], [ 79.7227754, 13.0993903 ], [ 79.7271314, 13.0964284 ], [ 79.7342737, 13.0967194 ], [ 79.7363294, 13.0951187 ], [ 79.7355282, 13.0868572 ], [ 79.7388137, 13.0824448 ], [ 79.7382363, 13.0800677 ], [ 79.7416417, 13.0760077 ], [ 79.7381194, 13.0655283 ], [ 79.7257743, 13.0679646 ], [ 79.7257998, 13.0627174 ], [ 79.7238729, 13.0627 ], [ 79.7244479, 13.0595044 ], [ 79.7186758, 13.0584374 ], [ 79.7186148, 13.0537807 ], [ 79.729955, 13.0544947 ], [ 79.7305366, 13.0565464 ], [ 79.7372185, 13.0610091 ], [ 79.7426153, 13.0570296 ], [ 79.7425961, 13.0553935 ], [ 79.7458464, 13.0559073 ], [ 79.747715, 13.0495836 ], [ 79.7514095, 13.0519663 ], [ 79.7621047, 13.0517862 ], [ 79.7699748, 13.0600922 ], [ 79.7758885, 13.0628199 ], [ 79.7788813, 13.060593 ], [ 79.7790871, 13.0536691 ], [ 79.7813369, 13.0533536 ], [ 79.7886056, 13.0566104 ], [ 79.7900451, 13.0535557 ], [ 79.7915939, 13.053746 ], [ 79.7920116, 13.0459951 ], [ 79.7902278, 13.0454927 ], [ 79.7895142, 13.0428712 ], [ 79.7861459, 13.039069 ], [ 79.7874247, 13.0338086 ], [ 79.7869795, 13.0289093 ], [ 79.7898897, 13.0245715 ], [ 79.7877931, 13.0225098 ], [ 79.7805932, 13.0225342 ], [ 79.7688279, 13.0171149 ], [ 79.767824, 13.0149722 ], [ 79.7487383, 13.0037455 ], [ 79.745284, 12.995838 ], [ 79.734099, 12.98679 ], [ 79.7200033, 12.9808835 ], [ 79.7132885, 12.9807637 ], [ 79.7114536, 12.9784864 ], [ 79.7010329, 12.9763019 ], [ 79.6989173, 12.9751093 ], [ 79.6965196, 12.9707666 ], [ 79.693759, 12.9700532 ], [ 79.6752905, 12.9564303 ], [ 79.6648938, 12.9515099 ], [ 79.6588847, 12.9505841 ], [ 79.6604325, 12.9448621 ], [ 79.6594182, 12.9412284 ], [ 79.6630801, 12.9304351 ], [ 79.65568, 12.9290078 ], [ 79.6509569, 12.9258263 ], [ 79.644331, 12.9249951 ], [ 79.6405112, 12.9229118 ], [ 79.6376408, 12.9244169 ], [ 79.6353968, 12.9237028 ], [ 79.6324019, 12.9200555 ], [ 79.6288634, 12.9196443 ], [ 79.6197821, 12.9134928 ], [ 79.6027216, 12.9072867 ], [ 79.5962484, 12.9069418 ], [ 79.589845, 12.902855 ], [ 79.5777056, 12.899793 ], [ 79.5713662, 12.8997917 ], [ 79.5695927, 12.8986387 ], [ 79.5682748, 12.8995694 ], [ 79.5675194, 12.8987784 ], [ 79.5695931, 12.8970117 ], [ 79.5662716, 12.895899 ], [ 79.5682578, 12.8937979 ], [ 79.5652593, 12.8913339 ], [ 79.5641366, 12.8859779 ], [ 79.5591798, 12.8850455 ], [ 79.5583141, 12.8838159 ], [ 79.55701, 12.8849002 ], [ 79.5567216, 12.8788755 ], [ 79.559053, 12.8775248 ], [ 79.5578468, 12.8749527 ], [ 79.5584001, 12.8729462 ], [ 79.5640121, 12.8690924 ], [ 79.5640313, 12.8661682 ], [ 79.5663775, 12.8625035 ], [ 79.5671378, 12.8594483 ], [ 79.5643841, 12.8557958 ], [ 79.5596218, 12.8535527 ], [ 79.5447646, 12.8590577 ], [ 79.5391756, 12.8629336 ], [ 79.5309624, 12.8622527 ], [ 79.5119036, 12.8565997 ], [ 79.5086235, 12.8571812 ], [ 79.5058027, 12.860642 ], [ 79.500633, 12.8720063 ], [ 79.4986772, 12.8685496 ], [ 79.4898377, 12.8721407 ], [ 79.4899076, 12.8743191 ], [ 79.4785516, 12.8726241 ], [ 79.4725589, 12.874267 ], [ 79.4718052, 12.8665205 ], [ 79.474168, 12.865444 ], [ 79.4718048, 12.8653319 ], [ 79.4712922, 12.8618881 ], [ 79.4696198, 12.8612107 ], [ 79.4744051, 12.8588317 ], [ 79.4728868, 12.8513116 ], [ 79.4618864, 12.8492903 ], [ 79.4602032, 12.8431622 ], [ 79.4569976, 12.8441981 ], [ 79.4571613, 12.8353232 ], [ 79.4590491, 12.8348102 ], [ 79.4605072, 12.8286359 ], [ 79.4573606, 12.8104678 ], [ 79.4705404, 12.8072366 ], [ 79.4771492, 12.8071303 ], [ 79.4764557, 12.7995284 ], [ 79.4734578, 12.7998821 ], [ 79.472582, 12.7981694 ], [ 79.4622985, 12.7985298 ], [ 79.4598023, 12.7833626 ], [ 79.4656763, 12.7769564 ], [ 79.4668349, 12.7713561 ], [ 79.4691647, 12.7707904 ], [ 79.4664043, 12.7647214 ], [ 79.4675252, 12.7566534 ], [ 79.4624096, 12.7572335 ], [ 79.4589782, 12.7537047 ], [ 79.4562895, 12.7503836 ], [ 79.4533859, 12.7402603 ], [ 79.4555494, 12.7385241 ], [ 79.4555671, 12.7360564 ], [ 79.4593659, 12.7372485 ], [ 79.4669243, 12.732166 ], [ 79.4700419, 12.7338689 ], [ 79.4753265, 12.7313993 ], [ 79.4749524, 12.7281136 ], [ 79.4724109, 12.7280287 ], [ 79.4709915, 12.7240699 ], [ 79.4693431, 12.7236139 ], [ 79.4655062, 12.7181464 ], [ 79.4626192, 12.7169631 ], [ 79.4667194, 12.7115201 ], [ 79.4654636, 12.7005421 ], [ 79.4549901, 12.6990989 ], [ 79.4562496, 12.6927846 ], [ 79.4591075, 12.6899408 ], [ 79.4590099, 12.6868539 ], [ 79.4564829, 12.6875913 ], [ 79.4562891, 12.6862174 ], [ 79.4552029, 12.6867872 ], [ 79.4551332, 12.6846358 ], [ 79.4538675, 12.6851831 ], [ 79.4530015, 12.6832082 ], [ 79.4547365, 12.6817614 ], [ 79.4543388, 12.6791294 ], [ 79.4529022, 12.6736174 ], [ 79.4511347, 12.6737941 ], [ 79.4509774, 12.6711818 ], [ 79.435676, 12.6661549 ], [ 79.4267955, 12.6580979 ], [ 79.4099077, 12.656089 ], [ 79.4051843, 12.6457845 ], [ 79.3989152, 12.6399364 ], [ 79.3923842, 12.6361763 ], [ 79.3912795, 12.633808 ], [ 79.3910356, 12.6352092 ], [ 79.3892821, 12.6340612 ], [ 79.384109, 12.6287687 ], [ 79.380105, 12.6286874 ], [ 79.3753692, 12.6314986 ], [ 79.369331, 12.632226 ], [ 79.3637111, 12.6380065 ], [ 79.3578567, 12.63971 ], [ 79.3518175, 12.6463669 ], [ 79.3567236, 12.6488035 ], [ 79.3583757, 12.6519088 ], [ 79.3624353, 12.6517509 ], [ 79.3605699, 12.6670681 ], [ 79.3533662, 12.668238 ], [ 79.3536008, 12.6693906 ], [ 79.3562749, 12.6723016 ], [ 79.3679111, 12.6771249 ], [ 79.3700146, 12.6805826 ], [ 79.378756, 12.6830189 ], [ 79.3827562, 12.6828111 ], [ 79.3867444, 12.685109 ], [ 79.3885012, 12.6878911 ], [ 79.3949466, 12.6898332 ], [ 79.3948447, 12.691457 ], [ 79.3925201, 12.6926503 ], [ 79.392778, 12.6961666 ], [ 79.3877557, 12.6964922 ], [ 79.3863977, 12.7006819 ], [ 79.3834975, 12.7003837 ], [ 79.3832765, 12.702395 ], [ 79.3815225, 12.7032809 ], [ 79.3825584, 12.7058978 ], [ 79.3801653, 12.7082484 ], [ 79.3810299, 12.7110729 ], [ 79.3923783, 12.7139245 ], [ 79.3921161, 12.7171561 ], [ 79.3954729, 12.7293818 ], [ 79.3947085, 12.7275016 ], [ 79.3905234, 12.7261956 ], [ 79.3904314, 12.7274702 ], [ 79.3876183, 12.7281392 ], [ 79.3871811, 12.732225 ], [ 79.3797822, 12.7334725 ], [ 79.3799342, 12.7261913 ], [ 79.3783366, 12.726137 ], [ 79.3764491, 12.7217438 ], [ 79.3732216, 12.7225256 ], [ 79.372393, 12.7212601 ], [ 79.3692807, 12.721599 ], [ 79.3654596, 12.7195016 ], [ 79.3668595, 12.714182 ], [ 79.3611183, 12.7179917 ], [ 79.3556442, 12.7189494 ], [ 79.3536608, 12.7110262 ], [ 79.3555392, 12.7100365 ], [ 79.3555167, 12.7055485 ], [ 79.3575193, 12.7043058 ], [ 79.3564007, 12.7041836 ], [ 79.3562586, 12.698421 ], [ 79.3577915, 12.6980234 ], [ 79.357741, 12.6968031 ], [ 79.34812, 12.6952473 ], [ 79.3477795, 12.6939094 ], [ 79.3451277, 12.6948898 ], [ 79.3440225, 12.6976919 ], [ 79.3389443, 12.7012255 ], [ 79.3398599, 12.7040956 ], [ 79.3424839, 12.7046068 ], [ 79.3457889, 12.7076762 ], [ 79.3478138, 12.7129961 ], [ 79.3451479, 12.715233 ], [ 79.3442065, 12.7303152 ], [ 79.3302413, 12.7352212 ], [ 79.3304666, 12.7371376 ], [ 79.3273263, 12.7381991 ], [ 79.3275976, 12.7399438 ], [ 79.3228736, 12.7401371 ], [ 79.3230206, 12.7415835 ], [ 79.3162979, 12.7430689 ], [ 79.3109432, 12.7426698 ], [ 79.3099848, 12.7452638 ], [ 79.3038334, 12.7452304 ], [ 79.2959915, 12.7472348 ], [ 79.2962993, 12.7495354 ], [ 79.2947009, 12.751293 ], [ 79.2894913, 12.752873 ], [ 79.2892418, 12.7550017 ], [ 79.286179, 12.7574322 ], [ 79.2836257, 12.7633792 ], [ 79.2882859, 12.7754846 ], [ 79.2878102, 12.7791499 ], [ 79.2851936, 12.7816167 ], [ 79.2778475, 12.78438 ], [ 79.279288, 12.786916 ], [ 79.2765794, 12.7885828 ], [ 79.2715125, 12.7914914 ], [ 79.2654748, 12.7921985 ], [ 79.2616559, 12.7947232 ], [ 79.2611147, 12.799812 ], [ 79.2642346, 12.8052551 ], [ 79.2601073, 12.8071335 ], [ 79.2587958, 12.8141474 ], [ 79.2617552, 12.8187136 ], [ 79.2556098, 12.8214316 ], [ 79.2555862, 12.8226835 ], [ 79.250224, 12.8238549 ], [ 79.2490665, 12.8186714 ], [ 79.250707, 12.8168463 ], [ 79.2503408, 12.8125253 ], [ 79.2541592, 12.8117995 ], [ 79.2523235, 12.8081196 ], [ 79.2484471, 12.8066486 ], [ 79.2439442, 12.8095477 ], [ 79.2436073, 12.8079298 ], [ 79.2402088, 12.8085956 ], [ 79.2390425, 12.8058255 ], [ 79.2400224, 12.8033754 ], [ 79.2392986, 12.8016582 ], [ 79.2404819, 12.8013007 ], [ 79.2381317, 12.7976452 ], [ 79.229588, 12.7953707 ], [ 79.2236363, 12.7907989 ], [ 79.2193679, 12.7923642 ], [ 79.2086815, 12.7847293 ], [ 79.2047512, 12.7886475 ], [ 79.1980037, 12.7900925 ], [ 79.197728, 12.792018 ], [ 79.1954945, 12.7924569 ], [ 79.1957123, 12.7976003 ], [ 79.1940372, 12.8028707 ], [ 79.1914678, 12.8042317 ], [ 79.1908382, 12.8099176 ], [ 79.1781978, 12.8200623 ], [ 79.1778902, 12.825043 ], [ 79.1819222, 12.8348499 ], [ 79.1840095, 12.8607155 ], [ 79.1889026, 12.8650353 ], [ 79.1919035, 12.873649 ], [ 79.1940276, 12.8752439 ], [ 79.1915927, 12.8837143 ], [ 79.194677, 12.8928704 ], [ 79.1955066, 12.8943753 ], [ 79.1977547, 12.8938504 ], [ 79.1996332, 12.8891495 ], [ 79.2044761, 12.8927142 ], [ 79.2089086, 12.8943761 ], [ 79.2099172, 12.8936889 ], [ 79.2109037, 12.8952117 ], [ 79.2058296, 12.9048536 ], [ 79.1987897, 12.9048465 ], [ 79.1913312, 12.9080708 ], [ 79.188683, 12.9121526 ], [ 79.1884442, 12.9153978 ], [ 79.1862469, 12.9178072 ], [ 79.1877081, 12.9203017 ], [ 79.1881363, 12.925935 ], [ 79.1943831, 12.9335292 ], [ 79.20307, 12.9376442 ], [ 79.2100051, 12.9385146 ], [ 79.2155188, 12.9465487 ], [ 79.2167335, 12.9549503 ], [ 79.2232592, 12.9564305 ], [ 79.2332132, 12.9570324 ], [ 79.2517939, 12.9517942 ], [ 79.2608434, 12.943731 ], [ 79.2621556, 12.946136 ], [ 79.2678537, 12.940141 ], [ 79.2687678, 12.9465322 ], [ 79.2636388, 12.9471401 ], [ 79.2691597, 12.9566698 ], [ 79.2700999, 12.9665863 ], [ 79.2659797, 12.9874154 ], [ 79.2682287, 12.9876198 ], [ 79.2680051, 12.992772 ], [ 79.2695377, 12.9975996 ], [ 79.2752704, 13.0027851 ], [ 79.2780985, 13.007333 ], [ 79.28483, 13.0377163 ], [ 79.29207, 13.0427943 ], [ 79.2945438, 13.0471882 ], [ 79.2905479, 13.0576452 ], [ 79.2724543, 13.08702 ], [ 79.2858541, 13.0955763 ], [ 79.2904771, 13.1000975 ], [ 79.2933815, 13.1014138 ], [ 79.2988117, 13.091834 ], [ 79.2995366, 13.0888423 ], [ 79.2976281, 13.0879107 ], [ 79.3015574, 13.0844681 ], [ 79.3247317, 13.0776812 ], [ 79.3247642, 13.0763705 ], [ 79.3301223, 13.0729457 ], [ 79.334941, 13.0605887 ], [ 79.3467392, 13.0633625 ], [ 79.351497, 13.0624908 ], [ 79.3555168, 13.0657092 ], [ 79.3553, 13.066821 ], [ 79.3793008, 13.0754727 ], [ 79.3795082, 13.0801188 ], [ 79.4015096, 13.0810536 ], [ 79.4012006, 13.0800322 ], [ 79.4136173, 13.0853821 ], [ 79.4167524, 13.0846315 ], [ 79.415227, 13.0896756 ], [ 79.4189579, 13.095103 ], [ 79.422633, 13.0968786 ], [ 79.4229101, 13.0999203 ], [ 79.4203234, 13.099749 ], [ 79.4203378, 13.103812 ], [ 79.4158331, 13.1047528 ], [ 79.4108162, 13.1031263 ], [ 79.4075191, 13.1002206 ], [ 79.404141, 13.099891 ], [ 79.4040058, 13.1023496 ], [ 79.4025718, 13.1024085 ], [ 79.4016129, 13.1042119 ], [ 79.4041223, 13.1153027 ], [ 79.4104581, 13.1164048 ], [ 79.4111454, 13.1181268 ], [ 79.4133128, 13.1187502 ], [ 79.4143141, 13.1243905 ], [ 79.4115028, 13.1367156 ], [ 79.4153536, 13.1381343 ], [ 79.4154233, 13.1416279 ], [ 79.4187771, 13.149957 ], [ 79.4299308, 13.138254 ], [ 79.4340624, 13.1364906 ], [ 79.4344302, 13.1318037 ], [ 79.4386113, 13.1250641 ], [ 79.44664, 13.1263683 ], [ 79.4476827, 13.1285329 ], [ 79.4517638, 13.1285771 ], [ 79.4535247, 13.126484 ], [ 79.4517017, 13.1211244 ], [ 79.4455732, 13.1208186 ], [ 79.4374062, 13.1183031 ], [ 79.4321033, 13.1184352 ], [ 79.4289765, 13.1165015 ], [ 79.4295759, 13.11548 ], [ 79.4332049, 13.1159629 ], [ 79.4342507, 13.1115058 ], [ 79.4385482, 13.1116365 ], [ 79.4386733, 13.1138737 ], [ 79.4436625, 13.1140126 ], [ 79.4462465, 13.1033503 ], [ 79.4486533, 13.1027621 ], [ 79.4506303, 13.0989381 ], [ 79.4509376, 13.0932478 ], [ 79.462419, 13.0954049 ], [ 79.464544, 13.1073494 ], [ 79.4752877, 13.1076665 ], [ 79.4741884, 13.1271237 ], [ 79.4751903, 13.1303909 ], [ 79.4817146, 13.1281603 ], [ 79.4820248, 13.131238 ], [ 79.48309, 13.1311788 ], [ 79.4830638, 13.1347494 ], [ 79.4817956, 13.134795 ], [ 79.4814049, 13.1376877 ], [ 79.4826878, 13.1399153 ], [ 79.4865063, 13.1401217 ], [ 79.4864042, 13.1386845 ], [ 79.4898627, 13.1382943 ], [ 79.4972644, 13.1385985 ], [ 79.4969773, 13.1358687 ], [ 79.5003058, 13.1360994 ], [ 79.5029561, 13.1386814 ], [ 79.5057744, 13.1372998 ], [ 79.5064055, 13.1386469 ], [ 79.5158164, 13.1415573 ], [ 79.5172911, 13.1437816 ], [ 79.5226451, 13.1441861 ], [ 79.5225135, 13.1392236 ], [ 79.5252294, 13.14007 ], [ 79.5325771, 13.1364843 ], [ 79.5413525, 13.1376219 ], [ 79.5474498, 13.1352874 ], [ 79.5530568, 13.1348976 ], [ 79.5530566, 13.1375128 ], [ 79.5576405, 13.1375232 ], [ 79.5595224, 13.1362899 ], [ 79.5684592, 13.1374989 ], [ 79.5697332, 13.1323785 ], [ 79.5682395, 13.131176 ], [ 79.5684799, 13.1288891 ], [ 79.5704352, 13.1283156 ], [ 79.5709117, 13.1218889 ], [ 79.5795396, 13.121014 ], [ 79.5943877, 13.1219837 ], [ 79.5969375, 13.1231502 ], [ 79.5992881, 13.1316789 ], [ 79.5957685, 13.139904 ], [ 79.5932089, 13.1405545 ], [ 79.5891726, 13.1475456 ], [ 79.6031647, 13.1475114 ], [ 79.6155427, 13.1446108 ], [ 79.631061, 13.1455559 ], [ 79.6358618, 13.1488686 ], [ 79.636752, 13.1515397 ], [ 79.6337129, 13.155065 ], [ 79.6337314, 13.1573473 ], [ 79.6320434, 13.1582739 ], [ 79.6319327, 13.1613969 ], [ 79.6328782, 13.1615777 ], [ 79.6309503, 13.1658441 ], [ 79.632025, 13.1695638 ], [ 79.6300971, 13.1728675 ], [ 79.6350644, 13.1717964 ], [ 79.6409083, 13.1768626 ], [ 79.641019, 13.1786434 ], [ 79.6449488, 13.1790589 ], [ 79.6460377, 13.1866833 ], [ 79.6456091, 13.1915284 ], [ 79.6443498, 13.1916368 ], [ 79.6479849, 13.1972996 ], [ 79.6481327, 13.1994961 ], [ 79.6560579, 13.2055426 ], [ 79.6558738, 13.208973 ], [ 79.6540149, 13.2105459 ] ] ] } }
]
}
