{
"type": "FeatureCollection",
"name": "3401",
"crs": { "type": "name", "properties": { "name": "urn:ogc:def:crs:OGC:1.3:CRS84" } },
"features": [
{ "type": "Feature", "properties": { "code": "3401", "name": "Yanam", "type": "district" }, "geometry": { "type": "Polygon", "coordinates": [ [ [ 82.2187862, 16.7399854 ], [ 82.2282382, 16.7303975 ], [ 82.2348534, 16.7292723 ], [ 82.2715036, 16.7315124 ], [ 82.2885057, 16.7349073 ], [ 82.2928658, 16.7466587 ], [ 82.2968762, 16.753123 ], [ 82.3015004, 16.7551811 ], [ 82.3055321, 16.7525295 ], [ 82.3088534, 16.7455085 ], [ 82.3106161, 16.7350373 ], [ 82.302644, 16.718257 ], [ 82.2929953, 16.7096644 ], [ 82.2841736, 16.7053288 ], [ 82.2725164, 16.7027352 ], [ 82.2612829, 16.7019151 ], [ 82.2543705, 16.7036198 ], [ 82.2352358, 16.7167728 ], [ 82.2232726, 16.7218567 ], [ 82.210366, 16.7197641 ], [ 82.2014107, 16.7205165 ], [ 82.1869134, 16.7283263 ], [ 82.1824473, 16.7371101 ], [ 82.1881424, 16.7401022 ], [ 82.1965607, 16.7392215 ], [ 82.2045932, 16.7484809 ], [ 82.2150237, 16.7557191 ], [ 82.2189228, 16.7602303 ], [ 82.2254675, 16.7636952 ], [ 82.2296128, 16.7623608 ], [ 82.2275817, 16.7568886 ], [ 82.217825, 16.7433058 ], [ 82.2187862, 16.7399854 ] ] ] } }
]
}
