{
"type": "FeatureCollection",
"name": "3502",
"crs": { "type": "name", "properties": { "name": "urn:ogc:def:crs:OGC:1.3:CRS84" } },
"features": [
{ "type": "Feature", "properties": { "code": "3502", "name": "Nicobars", "type": "district" }, "geometry": { "type": "MultiPolygon", "coordinates": [ [ [ [ 93.9503165, 6.934121 ], [ 93.9493075, 6.9350164 ], [ 93.9494751, 6.9358077 ], [ 93.9504976, 6.9352378 ], [ 93.9503165, 6.934121 ] ] ], [ [ [ 93.6998339, 7.2311969 ], [ 93.7029205, 7.2229537 ], [ 93.710249, 7.2140406 ], [ 93.7075402, 7.2068473 ], [ 93.700591, 7.209055 ], [ 93.6999532, 7.2128939 ], [ 93.7011445, 7.2160903 ], [ 93.6994966, 7.217126 ], [ 93.6974787, 7.2254233 ], [ 93.6955593, 7.2277159 ], [ 93.6983535, 7.2318346 ], [ 93.6998339, 7.2311969 ] ] ], [ [ [ 93.8382217, 7.2423168 ], [ 93.8379598, 7.2336582 ], [ 93.8328848, 7.2309308 ], [ 93.8325859, 7.2274723 ], [ 93.8342481, 7.2217257 ], [ 93.8370782, 7.2180771 ], [ 93.8412165, 7.2156268 ], [ 93.8479308, 7.2178383 ], [ 93.8568998, 7.2183722 ], [ 93.8594716, 7.215456 ], [ 93.8590144, 7.2135841 ], [ 93.8637095, 7.2096686 ], [ 93.8650588, 7.2050386 ], [ 93.8699484, 7.2047132 ], [ 93.8700934, 7.1985323 ], [ 93.8685405, 7.1950462 ], [ 93.8714743, 7.1914562 ], [ 93.8718501, 7.1858586 ], [ 93.8705734, 7.1811923 ], [ 93.8686132, 7.1794696 ], [ 93.868654, 7.1756083 ], [ 93.8694825, 7.1727236 ], [ 93.8744941, 7.168695 ], [ 93.8726334, 7.1656068 ], [ 93.8765312, 7.1554832 ], [ 93.8754538, 7.1514274 ], [ 93.8768118, 7.1435374 ], [ 93.874983, 7.1389752 ], [ 93.8760603, 7.1321523 ], [ 93.8805373, 7.1307867 ], [ 93.8827688, 7.1278794 ], [ 93.8807905, 7.1177784 ], [ 93.8811572, 7.1135011 ], [ 93.8775676, 7.10874 ], [ 93.8778618, 7.1044898 ], [ 93.8810845, 7.0992719 ], [ 93.8810437, 7.0896908 ], [ 93.8897158, 7.0814434 ], [ 93.8932644, 7.08223 ], [ 93.8985374, 7.0804845 ], [ 93.8992481, 7.0829396 ], [ 93.9017646, 7.0814972 ], [ 93.8987184, 7.079648 ], [ 93.9038233, 7.0697908 ], [ 93.9030355, 7.0646092 ], [ 93.9072308, 7.0605125 ], [ 93.9095251, 7.0536124 ], [ 93.9132858, 7.0489641 ], [ 93.9128645, 7.04494 ], [ 93.9082568, 7.0393065 ], [ 93.9109269, 7.0372445 ], [ 93.9102885, 7.0346763 ], [ 93.9130083, 7.0316105 ], [ 93.9124421, 7.0251358 ], [ 93.9161484, 7.0237111 ], [ 93.9243449, 7.0285936 ], [ 93.9300555, 7.0220368 ], [ 93.9343265, 7.0116684 ], [ 93.9367112, 7.0099092 ], [ 93.9427573, 7.0093252 ], [ 93.9446296, 7.0014032 ], [ 93.9435743, 6.9954294 ], [ 93.9414018, 6.992753 ], [ 93.939338, 6.9913696 ], [ 93.9368762, 6.9915418 ], [ 93.9334366, 6.9888701 ], [ 93.9319569, 6.9894625 ], [ 93.9341113, 6.9916868 ], [ 93.9333287, 6.9942507 ], [ 93.9287223, 6.9977057 ], [ 93.9234287, 7.0095083 ], [ 93.9187131, 7.0096128 ], [ 93.9136307, 7.0060865 ], [ 93.910784, 7.0027634 ], [ 93.9098786, 6.9993171 ], [ 93.9103487, 6.9928332 ], [ 93.9148108, 6.9931222 ], [ 93.9191095, 6.9887043 ], [ 93.9234129, 6.9869676 ], [ 93.9257247, 6.9817902 ], [ 93.9243667, 6.9776668 ], [ 93.9246105, 6.9720465 ], [ 93.9289455, 6.9709698 ], [ 93.9290267, 6.9688176 ], [ 93.9307686, 6.9669771 ], [ 93.9309355, 6.9627992 ], [ 93.9399083, 6.9588824 ], [ 93.9413511, 6.9543426 ], [ 93.939355, 6.9502011 ], [ 93.9332461, 6.9479638 ], [ 93.9240611, 6.95368 ], [ 93.9198026, 6.9484084 ], [ 93.915377, 6.9472829 ], [ 93.913413, 6.9438014 ], [ 93.914987, 6.9368608 ], [ 93.9129418, 6.9356809 ], [ 93.914638, 6.929866 ], [ 93.9114572, 6.9305355 ], [ 93.9088237, 6.929464 ], [ 93.9062401, 6.9307212 ], [ 93.9037604, 6.9272895 ], [ 93.9056288, 6.9225147 ], [ 93.9082667, 6.9227586 ], [ 93.9098095, 6.921601 ], [ 93.9096821, 6.9106362 ], [ 93.9028585, 6.9032802 ], [ 93.8958095, 6.905781 ], [ 93.8914748, 6.9011963 ], [ 93.8915788, 6.8999529 ], [ 93.8946735, 6.898108 ], [ 93.8944607, 6.894979 ], [ 93.8914292, 6.8913167 ], [ 93.8931031, 6.8887167 ], [ 93.8950215, 6.8882826 ], [ 93.8943019, 6.8835667 ], [ 93.8964056, 6.8795921 ], [ 93.8965502, 6.8752198 ], [ 93.8952334, 6.8707797 ], [ 93.8893156, 6.8671355 ], [ 93.8884967, 6.8647346 ], [ 93.8883292, 6.8604166 ], [ 93.8899894, 6.8575363 ], [ 93.8890165, 6.8477924 ], [ 93.8897176, 6.8458661 ], [ 93.8948793, 6.8417604 ], [ 93.9023889, 6.8395942 ], [ 93.9052884, 6.8348464 ], [ 93.9023609, 6.8259391 ], [ 93.9007234, 6.8248676 ], [ 93.9002889, 6.8208796 ], [ 93.8981128, 6.8185376 ], [ 93.8963939, 6.8198082 ], [ 93.8984973, 6.816643 ], [ 93.8977235, 6.8134644 ], [ 93.8958371, 6.8123115 ], [ 93.8923174, 6.8033906 ], [ 93.8884587, 6.8017539 ], [ 93.8846455, 6.8037751 ], [ 93.8840482, 6.7968435 ], [ 93.8823202, 6.7942889 ], [ 93.8759873, 6.7932264 ], [ 93.8742503, 6.7954194 ], [ 93.874196, 6.8015189 ], [ 93.8727982, 6.8033592 ], [ 93.8709571, 6.8034813 ], [ 93.8624118, 6.8135326 ], [ 93.8570784, 6.8145272 ], [ 93.847018, 6.811339 ], [ 93.8472304, 6.8140202 ], [ 93.8516274, 6.815689 ], [ 93.8549385, 6.8199891 ], [ 93.8541919, 6.823552 ], [ 93.8552458, 6.8261972 ], [ 93.855101, 6.8278386 ], [ 93.8527214, 6.8293576 ], [ 93.8505407, 6.8333229 ], [ 93.8484327, 6.8320387 ], [ 93.8472065, 6.8349596 ], [ 93.8479214, 6.8320793 ], [ 93.8467137, 6.8307047 ], [ 93.8502874, 6.8329884 ], [ 93.8514683, 6.8299002 ], [ 93.8546622, 6.8278476 ], [ 93.8538029, 6.8236108 ], [ 93.8547032, 6.8209341 ], [ 93.8517494, 6.8166927 ], [ 93.8466966, 6.8144091 ], [ 93.8438064, 6.8076582 ], [ 93.8436708, 6.8050583 ], [ 93.845295, 6.8033537 ], [ 93.8450146, 6.8012603 ], [ 93.8418845, 6.799569 ], [ 93.8444724, 6.7908561 ], [ 93.8419809, 6.7784986 ], [ 93.8347488, 6.7694548 ], [ 93.8314482, 6.7546555 ], [ 93.8290872, 6.7535926 ], [ 93.8264592, 6.7547273 ], [ 93.822479, 6.7527826 ], [ 93.8086104, 6.7582566 ], [ 93.8074753, 6.7572978 ], [ 93.8048965, 6.7613036 ], [ 93.8015404, 6.7607559 ], [ 93.7991513, 6.766186 ], [ 93.8015883, 6.7733305 ], [ 93.8045193, 6.7740227 ], [ 93.8081735, 6.7778574 ], [ 93.8079517, 6.7789923 ], [ 93.8036046, 6.7807235 ], [ 93.8019393, 6.7850232 ], [ 93.8003605, 6.7856605 ], [ 93.8016583, 6.788862 ], [ 93.8065115, 6.79144 ], [ 93.8059594, 6.7935198 ], [ 93.8013541, 6.7959201 ], [ 93.8029413, 6.8000395 ], [ 93.8017151, 6.8020605 ], [ 93.8022484, 6.8049543 ], [ 93.8058986, 6.8072338 ], [ 93.8076622, 6.8112537 ], [ 93.8098697, 6.8119729 ], [ 93.8066169, 6.814509 ], [ 93.8032831, 6.812917 ], [ 93.799932, 6.8075629 ], [ 93.7954895, 6.809511 ], [ 93.7898834, 6.8165817 ], [ 93.7906882, 6.8195073 ], [ 93.7844218, 6.8250813 ], [ 93.7805853, 6.8264687 ], [ 93.7777568, 6.8322286 ], [ 93.7778372, 6.8370892 ], [ 93.7811168, 6.8382745 ], [ 93.7801889, 6.8404673 ], [ 93.7856119, 6.8469025 ], [ 93.7765648, 6.8430981 ], [ 93.7762341, 6.8450513 ], [ 93.7787076, 6.8509073 ], [ 93.7822272, 6.8510164 ], [ 93.7822813, 6.851871 ], [ 93.7794998, 6.8530477 ], [ 93.7777257, 6.8515355 ], [ 93.7753958, 6.851639 ], [ 93.7703687, 6.8559742 ], [ 93.7688025, 6.8597402 ], [ 93.7637669, 6.8612538 ], [ 93.7626264, 6.8628948 ], [ 93.7629782, 6.8673984 ], [ 93.7648108, 6.866169 ], [ 93.7654799, 6.8679506 ], [ 93.7669822, 6.8670738 ], [ 93.7672353, 6.8682449 ], [ 93.7654156, 6.8722822 ], [ 93.7625289, 6.8736064 ], [ 93.7624422, 6.8765997 ], [ 93.7702413, 6.879563 ], [ 93.7768602, 6.8804778 ], [ 93.7719649, 6.8806441 ], [ 93.7706299, 6.8819233 ], [ 93.7670785, 6.8810997 ], [ 93.7636574, 6.8844584 ], [ 93.7650865, 6.8867557 ], [ 93.7692674, 6.8851152 ], [ 93.7704703, 6.8878646 ], [ 93.7683214, 6.8867202 ], [ 93.7667915, 6.8900431 ], [ 93.7574111, 6.8954984 ], [ 93.7575415, 6.8988263 ], [ 93.7596042, 6.9004636 ], [ 93.7566675, 6.9020093 ], [ 93.7538655, 6.906928 ], [ 93.7569728, 6.9114729 ], [ 93.7543707, 6.9133215 ], [ 93.7506699, 6.911919 ], [ 93.7481193, 6.9074103 ], [ 93.7442017, 6.9049586 ], [ 93.7375531, 6.9119334 ], [ 93.7317089, 6.9218836 ], [ 93.7307123, 6.9258622 ], [ 93.7327291, 6.9297378 ], [ 93.7419006, 6.9305182 ], [ 93.7415241, 6.9338051 ], [ 93.7392385, 6.9355951 ], [ 93.7398943, 6.9365855 ], [ 93.7425188, 6.9363692 ], [ 93.7432469, 6.9381554 ], [ 93.7422056, 6.9399592 ], [ 93.7388025, 6.9413553 ], [ 93.7424354, 6.9436397 ], [ 93.7428693, 6.9452902 ], [ 93.7414111, 6.9494541 ], [ 93.7381212, 6.9500907 ], [ 93.7375733, 6.9512391 ], [ 93.7393596, 6.9553089 ], [ 93.741011, 6.9562589 ], [ 93.7372578, 6.96271 ], [ 93.7350858, 6.962723 ], [ 93.7352899, 6.9609823 ], [ 93.7329957, 6.9609906 ], [ 93.7298882, 6.957377 ], [ 93.7263491, 6.9588047 ], [ 93.7272247, 6.966071 ], [ 93.7242245, 6.96607 ], [ 93.7224224, 6.9696686 ], [ 93.7252164, 6.977338 ], [ 93.7156053, 6.9895474 ], [ 93.7173924, 6.991013 ], [ 93.7198089, 6.990842 ], [ 93.7220729, 6.9867056 ], [ 93.7250927, 6.982185 ], [ 93.7283287, 6.9810014 ], [ 93.7312039, 6.9753956 ], [ 93.7327608, 6.9747179 ], [ 93.7338196, 6.9750482 ], [ 93.7369459, 6.976921 ], [ 93.7332211, 6.9788235 ], [ 93.7356977, 6.9899065 ], [ 93.7384494, 6.9890302 ], [ 93.7389514, 6.9898035 ], [ 93.7360726, 6.9921854 ], [ 93.7385795, 6.9927242 ], [ 93.7381536, 6.9942478 ], [ 93.7363841, 6.9946995 ], [ 93.7334655, 6.9939074 ], [ 93.7331075, 6.9955169 ], [ 93.7342566, 6.996521 ], [ 93.7348398, 6.9985469 ], [ 93.7373426, 6.9978694 ], [ 93.7376441, 7.0000045 ], [ 93.7367813, 6.9982084 ], [ 93.7342424, 6.9986959 ], [ 93.732854, 6.9957655 ], [ 93.7334113, 6.9935547 ], [ 93.7376695, 6.9941166 ], [ 93.7380499, 6.9930406 ], [ 93.7360814, 6.9930174 ], [ 93.7358375, 6.9913987 ], [ 93.7384898, 6.9896677 ], [ 93.7360776, 6.9903859 ], [ 93.7353402, 6.9899109 ], [ 93.732927, 6.9787375 ], [ 93.7364527, 6.9768351 ], [ 93.7330729, 6.9750299 ], [ 93.7311268, 6.9758342 ], [ 93.7280434, 6.9816705 ], [ 93.7248526, 6.9831435 ], [ 93.7201164, 6.9914706 ], [ 93.7181025, 6.9918769 ], [ 93.7174995, 6.994992 ], [ 93.7096112, 6.996938 ], [ 93.7171875, 6.9943498 ], [ 93.7175822, 6.9914607 ], [ 93.7149399, 6.9900581 ], [ 93.7073586, 6.9937812 ], [ 93.7068252, 6.9924156 ], [ 93.7044535, 6.9933551 ], [ 93.7002506, 6.9902428 ], [ 93.6959923, 6.9920038 ], [ 93.6948395, 6.9950843 ], [ 93.6984619, 6.9988661 ], [ 93.6980185, 7.0027214 ], [ 93.6931049, 7.0096354 ], [ 93.6986803, 7.0097341 ], [ 93.7012736, 7.0103983 ], [ 93.7032198, 7.0118359 ], [ 93.7014781, 7.0154082 ], [ 93.6981839, 7.018533 ], [ 93.700719, 7.0231446 ], [ 93.7007283, 7.0244288 ], [ 93.7000812, 7.0253602 ], [ 93.6977912, 7.024913 ], [ 93.6953425, 7.0229103 ], [ 93.6985334, 7.0248993 ], [ 93.7003029, 7.0245961 ], [ 93.6979215, 7.0186461 ], [ 93.701211, 7.01525 ], [ 93.702817, 7.01194 ], [ 93.7017941, 7.0110041 ], [ 93.6928832, 7.0098796 ], [ 93.6835884, 7.0157498 ], [ 93.6760264, 7.017487 ], [ 93.6703466, 7.0157422 ], [ 93.6706902, 7.012324 ], [ 93.6676622, 7.0076038 ], [ 93.6689926, 7.0069163 ], [ 93.6689924, 7.0043572 ], [ 93.6663222, 7.0024268 ], [ 93.6591266, 7.0020882 ], [ 93.6550268, 7.0054932 ], [ 93.6565296, 7.0097207 ], [ 93.6632458, 7.0128356 ], [ 93.66278, 7.0177279 ], [ 93.659594, 7.0186641 ], [ 93.6615629, 7.0206941 ], [ 93.6660975, 7.0211865 ], [ 93.6669712, 7.0225655 ], [ 93.664523, 7.0251702 ], [ 93.6620518, 7.023624 ], [ 93.6598391, 7.0271148 ], [ 93.6604323, 7.0316136 ], [ 93.6636817, 7.0315908 ], [ 93.6648133, 7.0342448 ], [ 93.6641483, 7.0369035 ], [ 93.656939, 7.0416517 ], [ 93.6560161, 7.0467384 ], [ 93.6564101, 7.0503149 ], [ 93.6583155, 7.0505137 ], [ 93.6579767, 7.0591543 ], [ 93.6597148, 7.0612567 ], [ 93.6600591, 7.0654888 ], [ 93.6537091, 7.0656385 ], [ 93.6524283, 7.0671397 ], [ 93.6543704, 7.0747402 ], [ 93.6564435, 7.0754274 ], [ 93.6573443, 7.0779865 ], [ 93.6601235, 7.0787278 ], [ 93.6602866, 7.081599 ], [ 93.6568606, 7.0857319 ], [ 93.6551135, 7.0861977 ], [ 93.6516915, 7.0843486 ], [ 93.6492293, 7.0856284 ], [ 93.64822, 7.0874009 ], [ 93.6493109, 7.0898741 ], [ 93.6465047, 7.0906383 ], [ 93.6446853, 7.093713 ], [ 93.6448075, 7.0953136 ], [ 93.6467539, 7.0965433 ], [ 93.6452512, 7.0970589 ], [ 93.6443914, 7.1006851 ], [ 93.6455729, 7.1039316 ], [ 93.6479629, 7.1052607 ], [ 93.6507692, 7.1038589 ], [ 93.6559113, 7.1038858 ], [ 93.6545444, 7.1054187 ], [ 93.6579983, 7.1088005 ], [ 93.6543454, 7.1081677 ], [ 93.6543364, 7.1091308 ], [ 93.6586502, 7.1105774 ], [ 93.6619908, 7.1094378 ], [ 93.6617735, 7.1105772 ], [ 93.6657161, 7.1108165 ], [ 93.6672734, 7.1126068 ], [ 93.6648109, 7.1111648 ], [ 93.6635754, 7.1151076 ], [ 93.6573291, 7.1181374 ], [ 93.6533271, 7.1115046 ], [ 93.6483977, 7.1106684 ], [ 93.6449261, 7.114227 ], [ 93.6436497, 7.1180251 ], [ 93.6431793, 7.1272762 ], [ 93.6446189, 7.130925 ], [ 93.6541749, 7.1318604 ], [ 93.6569549, 7.1409484 ], [ 93.6627626, 7.1389495 ], [ 93.6649946, 7.1419878 ], [ 93.666951, 7.1511255 ], [ 93.6653401, 7.158247 ], [ 93.6689843, 7.1579663 ], [ 93.6672958, 7.1594451 ], [ 93.6651409, 7.1585002 ], [ 93.6636608, 7.1605667 ], [ 93.6622897, 7.1684025 ], [ 93.6634128, 7.1736609 ], [ 93.6608372, 7.1774186 ], [ 93.6650659, 7.1813202 ], [ 93.6723914, 7.1853029 ], [ 93.6737093, 7.1902312 ], [ 93.6763264, 7.1930388 ], [ 93.6796313, 7.1923331 ], [ 93.6805324, 7.1944128 ], [ 93.6819585, 7.194598 ], [ 93.6894327, 7.190487 ], [ 93.6911806, 7.1931861 ], [ 93.692697, 7.1920781 ], [ 93.6935846, 7.1937871 ], [ 93.7012132, 7.1939397 ], [ 93.705428, 7.1929985 ], [ 93.7080667, 7.1890959 ], [ 93.7101856, 7.1897286 ], [ 93.7145315, 7.1881497 ], [ 93.7187286, 7.1899485 ], [ 93.7221556, 7.1890118 ], [ 93.7274355, 7.1935321 ], [ 93.7343055, 7.202153 ], [ 93.7409572, 7.2062297 ], [ 93.7433646, 7.2011605 ], [ 93.7398288, 7.2017718 ], [ 93.7376145, 7.2002215 ], [ 93.7392065, 7.1939679 ], [ 93.7379994, 7.2003163 ], [ 93.7403177, 7.2013648 ], [ 93.7436312, 7.1995011 ], [ 93.7451076, 7.2011555 ], [ 93.7415821, 7.2065642 ], [ 93.7400293, 7.2071207 ], [ 93.7399844, 7.2087304 ], [ 93.743268, 7.2130294 ], [ 93.7492937, 7.2159182 ], [ 93.7552922, 7.2151671 ], [ 93.7535958, 7.2124604 ], [ 93.754067, 7.2110815 ], [ 93.7618822, 7.2083932 ], [ 93.7653636, 7.2093345 ], [ 93.7661193, 7.2109353 ], [ 93.7690445, 7.2089601 ], [ 93.7690304, 7.2109948 ], [ 93.7662414, 7.2113106 ], [ 93.7657745, 7.2136526 ], [ 93.7705419, 7.2140743 ], [ 93.7732716, 7.2159061 ], [ 93.7768216, 7.2138586 ], [ 93.782449, 7.2156865 ], [ 93.7848173, 7.2135301 ], [ 93.7880637, 7.2131465 ], [ 93.7886119, 7.2106417 ], [ 93.7920668, 7.208264 ], [ 93.7903006, 7.2113247 ], [ 93.7905899, 7.2135449 ], [ 93.7920611, 7.2153085 ], [ 93.7939357, 7.2140519 ], [ 93.7954971, 7.2174523 ], [ 93.7933185, 7.2214896 ], [ 93.797384, 7.2236561 ], [ 93.7973381, 7.227739 ], [ 93.7939376, 7.2284935 ], [ 93.7962274, 7.2354299 ], [ 93.7996915, 7.2333686 ], [ 93.8030917, 7.2338936 ], [ 93.8088005, 7.2382533 ], [ 93.8165157, 7.2391088 ], [ 93.8197487, 7.2378477 ], [ 93.8229179, 7.2401586 ], [ 93.8264224, 7.2403534 ], [ 93.8273681, 7.2411981 ], [ 93.8267391, 7.2426684 ], [ 93.8348678, 7.2402847 ], [ 93.8373884, 7.2446679 ], [ 93.8382217, 7.2423168 ] ] ], [ [ [ 93.7994857, 7.2455223 ], [ 93.7949716, 7.2446714 ], [ 93.7904943, 7.2409993 ], [ 93.7874512, 7.2431508 ], [ 93.7978461, 7.2488272 ], [ 93.7974479, 7.2471587 ], [ 93.7994857, 7.2455223 ] ] ], [ [ [ 93.8381452, 7.2909397 ], [ 93.8359447, 7.2879056 ], [ 93.8341199, 7.2871278 ], [ 93.8334766, 7.2902385 ], [ 93.8381452, 7.2909397 ] ] ], [ [ [ 93.6200729, 7.3308281 ], [ 93.6229849, 7.3281469 ], [ 93.6202677, 7.325425 ], [ 93.6177271, 7.3262162 ], [ 93.618343, 7.3291642 ], [ 93.6169164, 7.3306246 ], [ 93.6200729, 7.3308281 ] ] ], [ [ [ 93.7559532, 7.4058653 ], [ 93.759963, 7.4007525 ], [ 93.7596785, 7.3975829 ], [ 93.7561505, 7.3961126 ], [ 93.750606, 7.3982226 ], [ 93.7501977, 7.4006098 ], [ 93.7540332, 7.4037667 ], [ 93.7534123, 7.4052994 ], [ 93.7559532, 7.4058653 ] ] ], [ [ [ 93.6838325, 7.4002557 ], [ 93.6751992, 7.3970781 ], [ 93.6737544, 7.3976118 ], [ 93.6700093, 7.4051857 ], [ 93.6703721, 7.4094086 ], [ 93.6749246, 7.412424 ], [ 93.6804143, 7.4115959 ], [ 93.6798657, 7.407183 ], [ 93.6816094, 7.4060162 ], [ 93.6838325, 7.4002557 ] ] ], [ [ [ 93.6969255, 7.4465081 ], [ 93.701084, 7.4468555 ], [ 93.7045202, 7.436121 ], [ 93.7068802, 7.4357408 ], [ 93.7087637, 7.4311874 ], [ 93.7113341, 7.4184455 ], [ 93.7096964, 7.4050714 ], [ 93.7145143, 7.3981165 ], [ 93.7221909, 7.3950131 ], [ 93.7224577, 7.3928925 ], [ 93.7261082, 7.3921819 ], [ 93.7297352, 7.3881208 ], [ 93.7329054, 7.3868901 ], [ 93.7329546, 7.3845209 ], [ 93.7363293, 7.3860348 ], [ 93.7399194, 7.380061 ], [ 93.7440809, 7.3767232 ], [ 93.7455918, 7.3699179 ], [ 93.743489, 7.3647686 ], [ 93.7438323, 7.3614498 ], [ 93.7371241, 7.3584176 ], [ 93.7374491, 7.3541583 ], [ 93.7295581, 7.3474549 ], [ 93.7260918, 7.3413695 ], [ 93.7241514, 7.3305097 ], [ 93.7214874, 7.3253513 ], [ 93.7177554, 7.3236792 ], [ 93.7136003, 7.3113681 ], [ 93.7067342, 7.3066355 ], [ 93.7037185, 7.3075312 ], [ 93.695354, 7.3053804 ], [ 93.6945248, 7.3020256 ], [ 93.6874597, 7.2961126 ], [ 93.6748749, 7.2918594 ], [ 93.6722753, 7.2880436 ], [ 93.6674116, 7.2852001 ], [ 93.6664514, 7.2822296 ], [ 93.667248, 7.2790102 ], [ 93.6648208, 7.2771792 ], [ 93.6609848, 7.2694795 ], [ 93.6576151, 7.2580087 ], [ 93.6546265, 7.2552915 ], [ 93.6520772, 7.2555992 ], [ 93.6436503, 7.2448755 ], [ 93.6358081, 7.242814 ], [ 93.6263857, 7.2529549 ], [ 93.6267796, 7.2568705 ], [ 93.624253, 7.2607047 ], [ 93.6168316, 7.265823 ], [ 93.6166549, 7.2703851 ], [ 93.6217942, 7.2768916 ], [ 93.6206893, 7.27856 ], [ 93.6181898, 7.2779179 ], [ 93.6171165, 7.2804002 ], [ 93.6203859, 7.2828825 ], [ 93.6219798, 7.2873678 ], [ 93.6148202, 7.3048432 ], [ 93.6128684, 7.3069954 ], [ 93.6081814, 7.3079899 ], [ 93.6070945, 7.3105083 ], [ 93.6081268, 7.3131308 ], [ 93.6104817, 7.3142975 ], [ 93.6125875, 7.3136238 ], [ 93.6170254, 7.3170738 ], [ 93.6190677, 7.3207452 ], [ 93.6233155, 7.3227981 ], [ 93.624108, 7.3332742 ], [ 93.620023, 7.3380669 ], [ 93.6193663, 7.3465266 ], [ 93.6202538, 7.3489592 ], [ 93.618329, 7.3544617 ], [ 93.6177673, 7.3620849 ], [ 93.6190172, 7.3651866 ], [ 93.6194384, 7.3742567 ], [ 93.6227492, 7.3764813 ], [ 93.6282566, 7.376653 ], [ 93.6378356, 7.3707659 ], [ 93.6447834, 7.3755358 ], [ 93.6448742, 7.378321 ], [ 93.6483891, 7.3836878 ], [ 93.6519538, 7.385555 ], [ 93.6549249, 7.385184 ], [ 93.6576015, 7.3833753 ], [ 93.6568268, 7.3803052 ], [ 93.6587018, 7.3791567 ], [ 93.6591456, 7.3771853 ], [ 93.657447, 7.3751056 ], [ 93.6596433, 7.372085 ], [ 93.6540088, 7.3656108 ], [ 93.656305, 7.3659632 ], [ 93.6584247, 7.3684183 ], [ 93.6597789, 7.3679072 ], [ 93.6622067, 7.3697744 ], [ 93.6582396, 7.3759058 ], [ 93.6593131, 7.3767286 ], [ 93.6617496, 7.3750646 ], [ 93.6682131, 7.378975 ], [ 93.667335, 7.3849706 ], [ 93.6702933, 7.3911511 ], [ 93.6743469, 7.3909064 ], [ 93.6865044, 7.3966789 ], [ 93.7013919, 7.3938416 ], [ 93.7028236, 7.3963462 ], [ 93.700623, 7.4001718 ], [ 93.6980139, 7.3990102 ], [ 93.6915553, 7.400657 ], [ 93.6898844, 7.4042247 ], [ 93.6918234, 7.4070774 ], [ 93.6932502, 7.4071993 ], [ 93.6921914, 7.4140222 ], [ 93.6964048, 7.4196553 ], [ 93.6952229, 7.422183 ], [ 93.6962202, 7.4263562 ], [ 93.6935393, 7.431095 ], [ 93.6943152, 7.4396359 ], [ 93.691811, 7.4443567 ], [ 93.6943934, 7.4472816 ], [ 93.6969255, 7.4465081 ] ] ], [ [ [ 93.631229, 7.4721278 ], [ 93.6306628, 7.4720418 ], [ 93.6305677, 7.4726387 ], [ 93.631229, 7.4721278 ] ] ], [ [ [ 93.6347264, 7.4786793 ], [ 93.6412363, 7.4760747 ], [ 93.6408783, 7.4710288 ], [ 93.6343866, 7.4731225 ], [ 93.632271, 7.4725754 ], [ 93.6325157, 7.4768165 ], [ 93.6347264, 7.4786793 ] ] ], [ [ [ 93.6227079, 7.4776395 ], [ 93.6197134, 7.4798594 ], [ 93.6186623, 7.4832098 ], [ 93.6229207, 7.4820885 ], [ 93.6227079, 7.4776395 ] ] ], [ [ [ 93.5227279, 7.5295877 ], [ 93.5341191, 7.5249964 ], [ 93.5346459, 7.5190283 ], [ 93.5319286, 7.5142305 ], [ 93.5291922, 7.5135697 ], [ 93.5251958, 7.5154951 ], [ 93.5250816, 7.5198672 ], [ 93.521452, 7.5218106 ], [ 93.5196249, 7.5272675 ], [ 93.5227279, 7.5295877 ] ] ], [ [ [ 93.4419274, 7.8774112 ], [ 93.4412381, 7.876724 ], [ 93.4413652, 7.8775017 ], [ 93.4419274, 7.8774112 ] ] ], [ [ [ 93.386635, 7.8898501 ], [ 93.3862859, 7.8913105 ], [ 93.3872517, 7.8920068 ], [ 93.3877369, 7.8910527 ], [ 93.386635, 7.8898501 ] ] ], [ [ [ 93.3894649, 7.90024 ], [ 93.39068, 7.8962567 ], [ 93.3895099, 7.8905372 ], [ 93.3874695, 7.8952304 ], [ 93.3873245, 7.8991414 ], [ 93.3894649, 7.90024 ] ] ], [ [ [ 93.3943896, 7.9021162 ], [ 93.3925439, 7.8994306 ], [ 93.3910837, 7.8995301 ], [ 93.3914239, 7.9011623 ], [ 93.3903718, 7.9017411 ], [ 93.3943896, 7.9021162 ] ] ], [ [ [ 93.395147, 7.9025185 ], [ 93.3997361, 7.9019215 ], [ 93.3987155, 7.8984944 ], [ 93.3950697, 7.8986257 ], [ 93.395147, 7.9025185 ] ] ], [ [ [ 93.3267332, 7.9304174 ], [ 93.3234272, 7.9301865 ], [ 93.3226107, 7.9315653 ], [ 93.3230551, 7.9319226 ], [ 93.3267332, 7.9304174 ] ] ], [ [ [ 93.3382832, 7.937282 ], [ 93.334791, 7.9387149 ], [ 93.338827, 7.9427393 ], [ 93.3402013, 7.940438 ], [ 93.3382832, 7.937282 ] ] ], [ [ [ 93.4774729, 8.0093419 ], [ 93.4766244, 8.0092335 ], [ 93.4768832, 8.0099163 ], [ 93.4774729, 8.0093419 ] ] ], [ [ [ 93.4789747, 8.0093279 ], [ 93.4774276, 8.009767 ], [ 93.4780586, 8.0111508 ], [ 93.479111, 8.0102325 ], [ 93.4789747, 8.0093279 ] ] ], [ [ [ 93.4757904, 8.0130553 ], [ 93.4747289, 8.0140414 ], [ 93.4752009, 8.0145931 ], [ 93.4755819, 8.0143533 ], [ 93.4757904, 8.0130553 ] ] ], [ [ [ 93.4750741, 8.0157464 ], [ 93.4743434, 8.0150998 ], [ 93.4746657, 8.0158821 ], [ 93.4750741, 8.0157464 ] ] ], [ [ [ 93.4756098, 8.0169809 ], [ 93.4748293, 8.0170354 ], [ 93.4755735, 8.0172297 ], [ 93.4756098, 8.0169809 ] ] ], [ [ [ 93.3694549, 8.0235252 ], [ 93.3781214, 8.019446 ], [ 93.3806306, 8.020233 ], [ 93.3820281, 8.0189803 ], [ 93.3896463, 8.0179627 ], [ 93.3925229, 8.0147516 ], [ 93.398199, 8.0124766 ], [ 93.4013659, 8.0087815 ], [ 93.4006308, 8.0069091 ], [ 93.3967923, 8.0046117 ], [ 93.3922622, 7.9933612 ], [ 93.3964118, 7.9821798 ], [ 93.3933546, 7.9781289 ], [ 93.3938578, 7.9743897 ], [ 93.3997737, 7.9684763 ], [ 93.4019625, 7.9701076 ], [ 93.4028696, 7.9693705 ], [ 93.4009691, 7.9673044 ], [ 93.4036174, 7.9615576 ], [ 93.4090688, 7.960567 ], [ 93.4139761, 7.9616653 ], [ 93.4153462, 7.9657706 ], [ 93.4207391, 7.968632 ], [ 93.4230157, 7.9665022 ], [ 93.4268151, 7.9565683 ], [ 93.4312868, 7.95598 ], [ 93.4393402, 7.9478947 ], [ 93.4519011, 7.939293 ], [ 93.4511571, 7.9382532 ], [ 93.4533336, 7.9360464 ], [ 93.4571277, 7.9274235 ], [ 93.4579956, 7.913371 ], [ 93.4613129, 7.9030482 ], [ 93.464613, 7.8972782 ], [ 93.4648885, 7.8922459 ], [ 93.4662078, 7.8910973 ], [ 93.462421, 7.889285 ], [ 93.4619943, 7.8872143 ], [ 93.4644655, 7.8864181 ], [ 93.4602475, 7.8822231 ], [ 93.4599523, 7.8797997 ], [ 93.4544597, 7.8724401 ], [ 93.4432194, 7.8750644 ], [ 93.4411075, 7.8819689 ], [ 93.4414842, 7.8843199 ], [ 93.4320226, 7.8988664 ], [ 93.4162156, 7.9063014 ], [ 93.4119757, 7.9069348 ], [ 93.4086244, 7.9067542 ], [ 93.4074181, 7.9052532 ], [ 93.4073592, 7.9065599 ], [ 93.4059399, 7.9063837 ], [ 93.3984709, 7.90222 ], [ 93.3951924, 7.9032374 ], [ 93.3880954, 7.9015829 ], [ 93.3855242, 7.8962705 ], [ 93.3871792, 7.8951717 ], [ 93.3873243, 7.8930331 ], [ 93.384608, 7.8893528 ], [ 93.3859185, 7.888783 ], [ 93.385465, 7.8874176 ], [ 93.3805676, 7.8855233 ], [ 93.3809439, 7.8828467 ], [ 93.3796561, 7.8812506 ], [ 93.3763143, 7.8802198 ], [ 93.3747407, 7.8810743 ], [ 93.3730268, 7.8789899 ], [ 93.371086, 7.8793471 ], [ 93.3679573, 7.8776652 ], [ 93.3619082, 7.8818111 ], [ 93.3614941, 7.8863822 ], [ 93.3549113, 7.8864949 ], [ 93.3459962, 7.8897317 ], [ 93.3408537, 7.8934614 ], [ 93.3377424, 7.8998317 ], [ 93.3364501, 7.8989816 ], [ 93.3349943, 7.9001435 ], [ 93.3347305, 7.90915 ], [ 93.3321138, 7.9099906 ], [ 93.3339049, 7.9113291 ], [ 93.3310295, 7.9139739 ], [ 93.3329092, 7.9153908 ], [ 93.3268111, 7.9234637 ], [ 93.3294688, 7.9257608 ], [ 93.3356858, 7.9246582 ], [ 93.3411499, 7.9301701 ], [ 93.3408505, 7.9323992 ], [ 93.3355994, 7.9274704 ], [ 93.3343519, 7.9308523 ], [ 93.3357712, 7.933 ], [ 93.3388774, 7.9337573 ], [ 93.3411175, 7.938087 ], [ 93.3413078, 7.9406778 ], [ 93.343167, 7.9430968 ], [ 93.3399652, 7.9442631 ], [ 93.3418289, 7.9468585 ], [ 93.3393346, 7.9461212 ], [ 93.3341506, 7.9496022 ], [ 93.331892, 7.9495071 ], [ 93.3298379, 7.9468845 ], [ 93.3339783, 7.9489241 ], [ 93.3385546, 7.9461032 ], [ 93.3314896, 7.9382896 ], [ 93.3331675, 7.9387193 ], [ 93.3320249, 7.9371412 ], [ 93.334129, 7.9380864 ], [ 93.3379659, 7.936233 ], [ 93.3378571, 7.9352338 ], [ 93.3352813, 7.9345101 ], [ 93.3298763, 7.9276462 ], [ 93.3281843, 7.9307431 ], [ 93.3310957, 7.9315211 ], [ 93.3317938, 7.9341843 ], [ 93.3272495, 7.9366343 ], [ 93.3235943, 7.9358562 ], [ 93.3221573, 7.9310228 ], [ 93.3227968, 7.9299558 ], [ 93.3210781, 7.9293498 ], [ 93.3244753, 7.925186 ], [ 93.3219542, 7.9229341 ], [ 93.3130243, 7.9270879 ], [ 93.3096995, 7.9312018 ], [ 93.3096313, 7.9334438 ], [ 93.3078669, 7.9338556 ], [ 93.3077529, 7.9378298 ], [ 93.3094623, 7.9398375 ], [ 93.302912, 7.9494624 ], [ 93.3006105, 7.9614797 ], [ 93.3052218, 7.9678193 ], [ 93.3062463, 7.9713461 ], [ 93.3102464, 7.9722284 ], [ 93.312931, 7.9746206 ], [ 93.3138965, 7.9787035 ], [ 93.3118135, 7.9864844 ], [ 93.3123208, 7.9909651 ], [ 93.319977, 8.0073786 ], [ 93.3228441, 8.0106444 ], [ 93.3280116, 8.0132684 ], [ 93.3333295, 8.0120706 ], [ 93.3392909, 8.0174533 ], [ 93.3432025, 8.0132793 ], [ 93.3444643, 8.009693 ], [ 93.3465742, 8.0091505 ], [ 93.3486383, 8.0121266 ], [ 93.3500768, 8.0102408 ], [ 93.3539651, 8.0126291 ], [ 93.3541101, 8.0141397 ], [ 93.3562245, 8.0140856 ], [ 93.3612741, 8.021372 ], [ 93.3694549, 8.0235252 ] ] ], [ [ [ 93.5347863, 8.0289531 ], [ 93.5436772, 8.0281412 ], [ 93.5526003, 8.0248061 ], [ 93.5536342, 8.0263389 ], [ 93.5564746, 8.0213434 ], [ 93.5567565, 8.0171793 ], [ 93.5615109, 8.0131064 ], [ 93.5626047, 8.0088114 ], [ 93.569428, 7.9996622 ], [ 93.5703041, 7.9947657 ], [ 93.5719232, 7.9953808 ], [ 93.5733113, 7.9942281 ], [ 93.571788, 7.9891188 ], [ 93.57314, 7.9854973 ], [ 93.5707277, 7.9807362 ], [ 93.5715131, 7.9753785 ], [ 93.5733774, 7.9729056 ], [ 93.5724163, 7.9699801 ], [ 93.57082, 7.969166 ], [ 93.5701719, 7.9656393 ], [ 93.5724352, 7.9633202 ], [ 93.5704634, 7.9556517 ], [ 93.5721554, 7.9528985 ], [ 93.5704605, 7.943304 ], [ 93.5718394, 7.941455 ], [ 93.56736, 7.9324208 ], [ 93.5698002, 7.9301424 ], [ 93.5694194, 7.9282659 ], [ 93.5688387, 7.9301422 ], [ 93.5635098, 7.9318596 ], [ 93.5624983, 7.9336363 ], [ 93.5624667, 7.9321895 ], [ 93.5622669, 7.9337222 ], [ 93.5601127, 7.9340971 ], [ 93.5590694, 7.9360366 ], [ 93.5540896, 7.9377268 ], [ 93.5532002, 7.9405841 ], [ 93.5482605, 7.9456969 ], [ 93.5443598, 7.947803 ], [ 93.5431983, 7.9506105 ], [ 93.5284159, 7.959329 ], [ 93.5286195, 7.9614948 ], [ 93.52685, 7.964596 ], [ 93.5300062, 7.9664053 ], [ 93.5313888, 7.9693626 ], [ 93.5299789, 7.9669569 ], [ 93.5265911, 7.966088 ], [ 93.5258658, 7.9645596 ], [ 93.5151565, 7.9692862 ], [ 93.5156865, 7.9718725 ], [ 93.5135869, 7.9704388 ], [ 93.5133734, 7.971872 ], [ 93.5120219, 7.9718037 ], [ 93.5113138, 7.9737296 ], [ 93.5076303, 7.9759214 ], [ 93.5068265, 7.979484 ], [ 93.5013014, 7.9822223 ], [ 93.5000003, 7.984319 ], [ 93.5000003, 7.9828428 ], [ 93.4978917, 7.9838948 ], [ 93.4967111, 7.9866424 ], [ 93.4970278, 7.9894154 ], [ 93.4943803, 7.9954355 ], [ 93.4964746, 7.9985027 ], [ 93.4991879, 7.9966808 ], [ 93.4999994, 7.9982321 ], [ 93.501333, 7.997735 ], [ 93.5014187, 7.9995073 ], [ 93.5052242, 7.9993186 ], [ 93.5053069, 7.9957422 ], [ 93.5101424, 7.9941521 ], [ 93.5103911, 7.9971634 ], [ 93.5159282, 8.0006827 ], [ 93.5152245, 8.0033125 ], [ 93.5170977, 8.0034622 ], [ 93.5170561, 8.0060168 ], [ 93.5213241, 8.0075415 ], [ 93.5201879, 8.0160233 ], [ 93.5179324, 8.0204445 ], [ 93.5193926, 8.0221811 ], [ 93.5187839, 8.025165 ], [ 93.5218001, 8.0261514 ], [ 93.5251617, 8.0247416 ], [ 93.5263383, 8.0176253 ], [ 93.5278893, 8.0189052 ], [ 93.5324486, 8.015999 ], [ 93.5309432, 8.0136205 ], [ 93.5324951, 8.0106775 ], [ 93.531974, 8.0083941 ], [ 93.5380171, 8.0024996 ], [ 93.5380996, 7.9987118 ], [ 93.5409983, 7.9965919 ], [ 93.5435756, 7.9915286 ], [ 93.5421461, 7.9955071 ], [ 93.5424852, 8.0009421 ], [ 93.5401843, 8.0065376 ], [ 93.5410954, 8.0097208 ], [ 93.5382495, 8.0183559 ], [ 93.5388568, 8.0212587 ], [ 93.5354316, 8.0234644 ], [ 93.5341746, 8.0258649 ], [ 93.5347863, 8.0289531 ] ] ], [ [ [ 93.4746973, 8.0356958 ], [ 93.4735809, 8.0349362 ], [ 93.4735992, 8.0359085 ], [ 93.4746973, 8.0356958 ] ] ], [ [ [ 93.4932043, 8.0481738 ], [ 93.4953188, 8.0483451 ], [ 93.4938483, 8.0467852 ], [ 93.4932043, 8.0481738 ] ] ], [ [ [ 93.514092, 8.0648379 ], [ 93.513643, 8.0645484 ], [ 93.5137699, 8.0649328 ], [ 93.514092, 8.0648379 ] ] ], [ [ [ 93.5148711, 8.069269 ], [ 93.5144674, 8.069088 ], [ 93.5145309, 8.0694768 ], [ 93.5148711, 8.069269 ] ] ], [ [ [ 93.5141981, 8.075056 ], [ 93.513132, 8.0752186 ], [ 93.5137942, 8.0756618 ], [ 93.5141981, 8.075056 ] ] ], [ [ [ 93.5722736, 8.1265109 ], [ 93.5801929, 8.1102172 ], [ 93.579862, 8.1077123 ], [ 93.5831161, 8.0964049 ], [ 93.5809611, 8.0964272 ], [ 93.5799084, 8.0981543 ], [ 93.5774314, 8.0969106 ], [ 93.5747222, 8.1024309 ], [ 93.5748858, 8.1009479 ], [ 93.5735791, 8.1012326 ], [ 93.5751309, 8.0993428 ], [ 93.5726492, 8.0996183 ], [ 93.575367, 8.0984432 ], [ 93.5741511, 8.0977286 ], [ 93.5753943, 8.0967567 ], [ 93.5726133, 8.0966794 ], [ 93.5755988, 8.0949798 ], [ 93.5802261, 8.0973902 ], [ 93.57892, 8.0929185 ], [ 93.573952, 8.0944009 ], [ 93.5772187, 8.0921633 ], [ 93.5754404, 8.0913492 ], [ 93.5759714, 8.0899432 ], [ 93.5779675, 8.0908522 ], [ 93.580571, 8.0956676 ], [ 93.5829121, 8.0953288 ], [ 93.5815739, 8.0934976 ], [ 93.5809987, 8.0847759 ], [ 93.5831997, 8.0781976 ], [ 93.5814489, 8.0737304 ], [ 93.5819078, 8.0682461 ], [ 93.587797, 8.0597647 ], [ 93.5915494, 8.0498634 ], [ 93.590561, 8.0438816 ], [ 93.5854444, 8.0403952 ], [ 93.5847597, 8.0380712 ], [ 93.5819743, 8.0391017 ], [ 93.5780679, 8.0460325 ], [ 93.5789024, 8.0470499 ], [ 93.573885, 8.0499294 ], [ 93.56762, 8.0592662 ], [ 93.5645701, 8.0615208 ], [ 93.5625868, 8.0674841 ], [ 93.5648359, 8.0742935 ], [ 93.5700166, 8.0750899 ], [ 93.5720361, 8.0698319 ], [ 93.576101, 8.0675311 ], [ 93.5724987, 8.0698863 ], [ 93.5715138, 8.0741678 ], [ 93.5750751, 8.0737884 ], [ 93.5782098, 8.074241 ], [ 93.5779284, 8.0752401 ], [ 93.5752338, 8.0741276 ], [ 93.5726524, 8.0750541 ], [ 93.5721664, 8.0793854 ], [ 93.5707917, 8.080163 ], [ 93.5715898, 8.0828939 ], [ 93.5658774, 8.0876948 ], [ 93.5618071, 8.0931197 ], [ 93.5622883, 8.0912886 ], [ 93.5607637, 8.0929884 ], [ 93.5614576, 8.0942093 ], [ 93.5600235, 8.0971796 ], [ 93.5632573, 8.103121 ], [ 93.5645856, 8.1099891 ], [ 93.5662686, 8.1115582 ], [ 93.5650338, 8.1164229 ], [ 93.5676694, 8.1195837 ], [ 93.5646799, 8.1166037 ], [ 93.5654021, 8.1117524 ], [ 93.5608701, 8.1080534 ], [ 93.5528693, 8.1203906 ], [ 93.5634216, 8.12627 ], [ 93.5705222, 8.1274873 ], [ 93.5722736, 8.1265109 ] ] ], [ [ [ 93.1940735, 8.186549 ], [ 93.1937332, 8.1863862 ], [ 93.1938148, 8.1866304 ], [ 93.1940735, 8.186549 ] ] ], [ [ [ 93.1974413, 8.1904185 ], [ 93.1970692, 8.1903553 ], [ 93.1971963, 8.1905633 ], [ 93.1974413, 8.1904185 ] ] ], [ [ [ 93.1882793, 8.19061 ], [ 93.1879389, 8.1903388 ], [ 93.1879163, 8.1906869 ], [ 93.1882793, 8.19061 ] ] ], [ [ [ 93.1864601, 8.1940193 ], [ 93.1860516, 8.1936893 ], [ 93.1861697, 8.1941324 ], [ 93.1864601, 8.1940193 ] ] ], [ [ [ 93.1753331, 8.194152 ], [ 93.1752196, 8.193727 ], [ 93.1748657, 8.1941159 ], [ 93.1753331, 8.194152 ] ] ], [ [ [ 93.1881348, 8.19538 ], [ 93.1878217, 8.1951494 ], [ 93.1877945, 8.19538 ], [ 93.1881348, 8.19538 ] ] ], [ [ [ 93.2114649, 8.1970892 ], [ 93.2110745, 8.1967953 ], [ 93.211061, 8.1970395 ], [ 93.2114649, 8.1970892 ] ] ], [ [ [ 93.1265321, 8.2163093 ], [ 93.1269814, 8.2160018 ], [ 93.126514, 8.2160289 ], [ 93.1265321, 8.2163093 ] ] ], [ [ [ 93.1176689, 8.2190129 ], [ 93.1171698, 8.2189316 ], [ 93.1175736, 8.2191757 ], [ 93.1176689, 8.2190129 ] ] ], [ [ [ 93.1173149, 8.2202924 ], [ 93.1171153, 8.2200618 ], [ 93.117088, 8.2203467 ], [ 93.1173149, 8.2202924 ] ] ], [ [ [ 93.2341487, 8.2243332 ], [ 93.2339398, 8.2239082 ], [ 93.2337765, 8.2241208 ], [ 93.2341487, 8.2243332 ] ] ], [ [ [ 93.2265744, 8.2248687 ], [ 93.2270553, 8.2243215 ], [ 93.226252, 8.2243759 ], [ 93.2265744, 8.2248687 ] ] ], [ [ [ 93.2423837, 8.2329619 ], [ 93.2421204, 8.2328173 ], [ 93.2422521, 8.2330523 ], [ 93.2423837, 8.2329619 ] ] ], [ [ [ 93.2419936, 8.2338572 ], [ 93.2418484, 8.2337126 ], [ 93.2417984, 8.2338799 ], [ 93.2419936, 8.2338572 ] ] ], [ [ [ 93.2421435, 8.2342279 ], [ 93.24203, 8.2340968 ], [ 93.2420073, 8.2342596 ], [ 93.2421435, 8.2342279 ] ] ], [ [ [ 93.5127562, 8.2351724 ], [ 93.5164192, 8.2332383 ], [ 93.5197821, 8.2334426 ], [ 93.5224966, 8.2316213 ], [ 93.5346328, 8.2289974 ], [ 93.536658, 8.2241737 ], [ 93.5365266, 8.2024037 ], [ 93.5323354, 8.1940429 ], [ 93.5297855, 8.1922293 ], [ 93.5279566, 8.1928031 ], [ 93.5290243, 8.1871608 ], [ 93.5270748, 8.1801569 ], [ 93.5252556, 8.1780631 ], [ 93.5187579, 8.1766056 ], [ 93.5176686, 8.1775638 ], [ 93.5228725, 8.1813042 ], [ 93.5238255, 8.180884 ], [ 93.5261163, 8.1842664 ], [ 93.5255392, 8.1871057 ], [ 93.5205298, 8.1859967 ], [ 93.522776, 8.1858661 ], [ 93.5227854, 8.1846816 ], [ 93.5170782, 8.1791913 ], [ 93.5130141, 8.1730549 ], [ 93.5077633, 8.1756079 ], [ 93.5041285, 8.1759998 ], [ 93.5086758, 8.1741161 ], [ 93.5016208, 8.1702031 ], [ 93.5, 8.1647453 ], [ 93.5028571, 8.1635481 ], [ 93.502246, 8.1589994 ], [ 93.5008896, 8.1576426 ], [ 93.4983086, 8.1577185 ], [ 93.4974715, 8.1511293 ], [ 93.4931593, 8.1498099 ], [ 93.4947019, 8.1474985 ], [ 93.4927907, 8.1461694 ], [ 93.4969742, 8.14222 ], [ 93.4978096, 8.1430383 ], [ 93.5030596, 8.1389299 ], [ 93.5050023, 8.1363804 ], [ 93.5041995, 8.1356252 ], [ 93.5044766, 8.1344904 ], [ 93.5055063, 8.135291 ], [ 93.5084248, 8.13172 ], [ 93.5064011, 8.1323072 ], [ 93.5077808, 8.1308156 ], [ 93.5089921, 8.1311958 ], [ 93.5108033, 8.1286236 ], [ 93.5108947, 8.1262544 ], [ 93.5146839, 8.1233529 ], [ 93.519157, 8.1082123 ], [ 93.5214759, 8.1065083 ], [ 93.5211142, 8.1018059 ], [ 93.5226803, 8.0982979 ], [ 93.5266732, 8.0960881 ], [ 93.5300041, 8.0921507 ], [ 93.5377626, 8.0899868 ], [ 93.5382625, 8.0858319 ], [ 93.5411262, 8.0811439 ], [ 93.5431612, 8.0677341 ], [ 93.5384501, 8.0566649 ], [ 93.5388186, 8.0519855 ], [ 93.5350356, 8.0501038 ], [ 93.539655, 8.0436846 ], [ 93.540141, 8.0410397 ], [ 93.5392473, 8.0409491 ], [ 93.5407951, 8.0361388 ], [ 93.5394344, 8.0355417 ], [ 93.5307012, 8.0400656 ], [ 93.528518, 8.0455539 ], [ 93.5265627, 8.0462633 ], [ 93.5272608, 8.0484021 ], [ 93.5238222, 8.0487403 ], [ 93.5212587, 8.0505889 ], [ 93.5180662, 8.0465687 ], [ 93.518277, 8.038367 ], [ 93.5144452, 8.033483 ], [ 93.512054, 8.0356752 ], [ 93.5107921, 8.0393504 ], [ 93.5082843, 8.0364021 ], [ 93.4984512, 8.0359206 ], [ 93.4964667, 8.0301684 ], [ 93.4963973, 8.0249041 ], [ 93.500736, 8.0217644 ], [ 93.5017167, 8.0185817 ], [ 93.500248, 8.0157328 ], [ 93.4978063, 8.0170254 ], [ 93.4975513, 8.0138958 ], [ 93.4991212, 8.0136376 ], [ 93.4999191, 8.0115389 ], [ 93.4973097, 8.0095316 ], [ 93.4978755, 8.0043485 ], [ 93.4962011, 8.0038741 ], [ 93.4967043, 8.0021915 ], [ 93.4954152, 8.0001341 ], [ 93.4927252, 8.0019483 ], [ 93.4915636, 8.001424 ], [ 93.4921856, 7.999928 ], [ 93.4910875, 7.9984544 ], [ 93.4880668, 7.9989525 ], [ 93.4868449, 8.001095 ], [ 93.4831199, 8.0007386 ], [ 93.4803618, 8.0028603 ], [ 93.4810701, 8.0048184 ], [ 93.4792511, 8.0067183 ], [ 93.4796646, 8.0095992 ], [ 93.4769619, 8.0160581 ], [ 93.4774614, 8.0178308 ], [ 93.4761321, 8.0184326 ], [ 93.4769693, 8.029237 ], [ 93.4753182, 8.0316026 ], [ 93.4768298, 8.0345646 ], [ 93.4761407, 8.0371879 ], [ 93.4772707, 8.0379067 ], [ 93.4758522, 8.046102 ], [ 93.476633, 8.0472687 ], [ 93.4805262, 8.0472678 ], [ 93.4840784, 8.0440876 ], [ 93.4889422, 8.0423543 ], [ 93.4901396, 8.0401741 ], [ 93.4927853, 8.0415709 ], [ 93.4925502, 8.0446599 ], [ 93.4937575, 8.0460344 ], [ 93.4991142, 8.0380461 ], [ 93.4972594, 8.0418546 ], [ 93.4972242, 8.0459702 ], [ 93.4983372, 8.0507096 ], [ 93.5, 8.0497241 ], [ 93.5, 8.0521785 ], [ 93.4963738, 8.055599 ], [ 93.4937193, 8.0560113 ], [ 93.493824, 8.0573047 ], [ 93.4965649, 8.0574578 ], [ 93.4966833, 8.0590406 ], [ 93.4993692, 8.0577057 ], [ 93.4989175, 8.0650415 ], [ 93.5002818, 8.0684148 ], [ 93.5018468, 8.0690076 ], [ 93.503803, 8.065893 ], [ 93.5038223, 8.0621222 ], [ 93.5053065, 8.0592742 ], [ 93.5038485, 8.0500323 ], [ 93.5085171, 8.0476871 ], [ 93.5114144, 8.0522589 ], [ 93.515692, 8.0532548 ], [ 93.5166847, 8.05642 ], [ 93.5149421, 8.0583274 ], [ 93.5141376, 8.0641191 ], [ 93.5176513, 8.0636633 ], [ 93.519953, 8.0653685 ], [ 93.520864, 8.0690625 ], [ 93.5222024, 8.0685611 ], [ 93.521626, 8.0697636 ], [ 93.517189, 8.0703728 ], [ 93.515579, 8.0686678 ], [ 93.5145746, 8.075228 ], [ 93.5211559, 8.080384 ], [ 93.5143648, 8.0796587 ], [ 93.514014, 8.0849441 ], [ 93.5118044, 8.0856714 ], [ 93.5093962, 8.0831117 ], [ 93.504582, 8.0856558 ], [ 93.5029588, 8.082088 ], [ 93.5042208, 8.0796876 ], [ 93.501799, 8.0771504 ], [ 93.5024981, 8.0753828 ], [ 93.4970822, 8.0742093 ], [ 93.4952251, 8.0700038 ], [ 93.4921666, 8.070181 ], [ 93.489343, 8.0658672 ], [ 93.4877093, 8.0655103 ], [ 93.4861942, 8.0677448 ], [ 93.4841513, 8.0643398 ], [ 93.4819188, 8.064381 ], [ 93.4818367, 8.0629655 ], [ 93.4852032, 8.0607622 ], [ 93.4843168, 8.0544353 ], [ 93.4823832, 8.0519166 ], [ 93.4804862, 8.0508226 ], [ 93.478091, 8.0536272 ], [ 93.4757494, 8.0528995 ], [ 93.4747345, 8.06005 ], [ 93.47567, 8.0636091 ], [ 93.4743778, 8.0682496 ], [ 93.4751773, 8.0721615 ], [ 93.4739309, 8.0791266 ], [ 93.4697171, 8.0886114 ], [ 93.4726802, 8.0872087 ], [ 93.4781402, 8.0901517 ], [ 93.478676, 8.0916712 ], [ 93.4839665, 8.0877895 ], [ 93.4870577, 8.0910405 ], [ 93.4862413, 8.0928588 ], [ 93.487862, 8.0950654 ], [ 93.4861599, 8.0937453 ], [ 93.4860684, 8.0908961 ], [ 93.4841209, 8.0882644 ], [ 93.4719788, 8.0966295 ], [ 93.4709714, 8.0966704 ], [ 93.4689324, 8.0903346 ], [ 93.460339, 8.0998248 ], [ 93.454051, 8.110843 ], [ 93.4557531, 8.1121045 ], [ 93.457355, 8.1111906 ], [ 93.4553811, 8.1126473 ], [ 93.4538024, 8.1163606 ], [ 93.458119, 8.1194488 ], [ 93.4552507, 8.1195307 ], [ 93.4559725, 8.1204487 ], [ 93.4551147, 8.1207654 ], [ 93.4541568, 8.1190786 ], [ 93.4510118, 8.1197124 ], [ 93.4482456, 8.133344 ], [ 93.4486045, 8.1354424 ], [ 93.4563756, 8.1407099 ], [ 93.4545512, 8.1418454 ], [ 93.4540887, 8.1441203 ], [ 93.4517831, 8.1447403 ], [ 93.4487146, 8.1427147 ], [ 93.4465816, 8.1439678 ], [ 93.4459017, 8.1496981 ], [ 93.4499146, 8.1531527 ], [ 93.4490569, 8.153786 ], [ 93.4481579, 8.1517691 ], [ 93.4452846, 8.1507203 ], [ 93.4459165, 8.1566448 ], [ 93.4417686, 8.1611319 ], [ 93.4405303, 8.1664733 ], [ 93.4374671, 8.1703813 ], [ 93.4424114, 8.1791272 ], [ 93.4455754, 8.1807504 ], [ 93.4566782, 8.1814313 ], [ 93.4657344, 8.1843737 ], [ 93.4694851, 8.190293 ], [ 93.4688761, 8.1867836 ], [ 93.4696247, 8.1854447 ], [ 93.4700435, 8.1907994 ], [ 93.4740074, 8.1955652 ], [ 93.4805989, 8.197531 ], [ 93.4828238, 8.2000088 ], [ 93.4867545, 8.1985153 ], [ 93.4902918, 8.2029465 ], [ 93.4867183, 8.199049 ], [ 93.4837091, 8.2005648 ], [ 93.4821883, 8.2000315 ], [ 93.4808124, 8.1978792 ], [ 93.4782884, 8.1974456 ], [ 93.4806767, 8.2000726 ], [ 93.4799698, 8.2049617 ], [ 93.4824449, 8.2093435 ], [ 93.4810531, 8.2163402 ], [ 93.4819305, 8.2211837 ], [ 93.4872519, 8.2249948 ], [ 93.496786, 8.2282257 ], [ 93.499574, 8.23045 ], [ 93.5050802, 8.2308846 ], [ 93.506299, 8.2323219 ], [ 93.5100792, 8.2328703 ], [ 93.5113914, 8.230913 ], [ 93.514083, 8.2297427 ], [ 93.5145364, 8.2310586 ], [ 93.5117408, 8.2311572 ], [ 93.5107418, 8.232762 ], [ 93.5093166, 8.2335212 ], [ 93.5127562, 8.2351724 ] ] ], [ [ [ 93.2260314, 8.2659091 ], [ 93.2285184, 8.265081 ], [ 93.235091, 8.2505463 ], [ 93.2367245, 8.2497961 ], [ 93.2398586, 8.2427104 ], [ 93.2394793, 8.2381015 ], [ 93.24115, 8.2356433 ], [ 93.2406292, 8.2268208 ], [ 93.2304942, 8.2245119 ], [ 93.2295008, 8.2218026 ], [ 93.2243198, 8.2288389 ], [ 93.2241706, 8.2309142 ], [ 93.2140656, 8.2393577 ], [ 93.2103547, 8.246814 ], [ 93.2096933, 8.2514041 ], [ 93.2112604, 8.2576793 ], [ 93.2141977, 8.2612233 ], [ 93.2178157, 8.2636594 ], [ 93.2260314, 8.2659091 ] ] ], [ [ [ 93.2267306, 8.2669398 ], [ 93.2264219, 8.2667996 ], [ 93.2266308, 8.267003 ], [ 93.2267306, 8.2669398 ] ] ], [ [ [ 93.1159325, 8.3568305 ], [ 93.1185429, 8.3554019 ], [ 93.1186019, 8.3525444 ], [ 93.1202726, 8.3518482 ], [ 93.122093, 8.3484437 ], [ 93.1249985, 8.3494203 ], [ 93.1321485, 8.3481136 ], [ 93.1324572, 8.3491264 ], [ 93.1333287, 8.3456676 ], [ 93.1330427, 8.3417567 ], [ 93.1311632, 8.3385286 ], [ 93.1317896, 8.3302637 ], [ 93.1243131, 8.3160535 ], [ 93.1240997, 8.3010837 ], [ 93.1214172, 8.2919326 ], [ 93.1176543, 8.2846127 ], [ 93.1177634, 8.2772837 ], [ 93.1237684, 8.2666723 ], [ 93.1286793, 8.2608716 ], [ 93.1489867, 8.2415511 ], [ 93.1635657, 8.2356222 ], [ 93.1709174, 8.2307701 ], [ 93.1834835, 8.2263919 ], [ 93.185589, 8.2250442 ], [ 93.1874037, 8.2213818 ], [ 93.1928265, 8.2186003 ], [ 93.1958344, 8.2130884 ], [ 93.1940762, 8.2020749 ], [ 93.1909031, 8.1961165 ], [ 93.188047, 8.1955591 ], [ 93.1855958, 8.1947225 ], [ 93.1798984, 8.1953133 ], [ 93.1781784, 8.194129 ], [ 93.1644564, 8.2010933 ], [ 93.1533518, 8.2017001 ], [ 93.1246442, 8.2189859 ], [ 93.1116239, 8.2236426 ], [ 93.1095588, 8.2268164 ], [ 93.1063275, 8.2281002 ], [ 93.1057282, 8.233788 ], [ 93.1020429, 8.2342218 ], [ 93.0937915, 8.2424906 ], [ 93.0932273, 8.245206 ], [ 93.0897879, 8.2487884 ], [ 93.0908182, 8.2513828 ], [ 93.0898874, 8.2551507 ], [ 93.087323, 8.2561768 ], [ 93.0758427, 8.2734603 ], [ 93.0739445, 8.2812005 ], [ 93.0750283, 8.2883894 ], [ 93.0733025, 8.2954559 ], [ 93.0753392, 8.3070125 ], [ 93.0841888, 8.3252115 ], [ 93.0847692, 8.3315503 ], [ 93.0837111, 8.3352712 ], [ 93.0849317, 8.3408008 ], [ 93.0893032, 8.3425012 ], [ 93.0915863, 8.3473075 ], [ 93.0949502, 8.3473755 ], [ 93.0962937, 8.3511917 ], [ 93.1000527, 8.3484293 ], [ 93.1031852, 8.3478599 ], [ 93.1062267, 8.3505773 ], [ 93.1112475, 8.351631 ], [ 93.1134356, 8.3537967 ], [ 93.1129544, 8.3558539 ], [ 93.1133721, 8.354701 ], [ 93.1159552, 8.355655 ], [ 93.1159325, 8.3568305 ] ] ], [ [ [ 93.6259858, 8.3943194 ], [ 93.6254227, 8.3942063 ], [ 93.6258768, 8.3945273 ], [ 93.6259858, 8.3943194 ] ] ], [ [ [ 93.6275567, 8.3949251 ], [ 93.6272161, 8.3949251 ], [ 93.6275113, 8.3950246 ], [ 93.6275567, 8.3949251 ] ] ], [ [ [ 93.6329233, 8.3943645 ], [ 93.6314386, 8.3945318 ], [ 93.6312343, 8.3949794 ], [ 93.6316565, 8.3952235 ], [ 93.6329233, 8.3943645 ] ] ], [ [ [ 93.6272615, 8.395314 ], [ 93.6270845, 8.3952643 ], [ 93.6271163, 8.3953501 ], [ 93.6272615, 8.395314 ] ] ], [ [ [ 93.633795, 8.3945543 ], [ 93.6429164, 8.3953226 ], [ 93.6458491, 8.3905752 ], [ 93.6435698, 8.3892144 ], [ 93.6412681, 8.3910818 ], [ 93.6378539, 8.390883 ], [ 93.6359697, 8.3942785 ], [ 93.633795, 8.3945543 ] ] ], [ [ [ 93.6262536, 8.3957254 ], [ 93.6260221, 8.3957661 ], [ 93.6261628, 8.3959605 ], [ 93.6262536, 8.3957254 ] ] ], [ [ [ 93.6245556, 8.3977554 ], [ 93.6255499, 8.3971542 ], [ 93.6248643, 8.3965302 ], [ 93.6245556, 8.3977554 ] ] ], [ [ [ 93.6232707, 8.3981579 ], [ 93.6231526, 8.3979363 ], [ 93.6231526, 8.398185 ], [ 93.6232707, 8.3981579 ] ] ], [ [ [ 93.6244285, 8.3976876 ], [ 93.6237247, 8.3976922 ], [ 93.6238791, 8.3985874 ], [ 93.6244285, 8.3976876 ] ] ], [ [ [ 93.6231708, 8.39861 ], [ 93.6229801, 8.3984201 ], [ 93.6230346, 8.3986371 ], [ 93.6231708, 8.39861 ] ] ], [ [ [ 93.6235794, 8.3986236 ], [ 93.6233479, 8.3984381 ], [ 93.6234705, 8.398705 ], [ 93.6235794, 8.3986236 ] ] ], [ [ [ 93.6232888, 8.3990395 ], [ 93.6231163, 8.3988993 ], [ 93.6230981, 8.3990304 ], [ 93.6232888, 8.3990395 ] ] ], [ [ [ 93.6234024, 8.3993379 ], [ 93.623248, 8.3991887 ], [ 93.6231844, 8.399365 ], [ 93.6234024, 8.3993379 ] ] ], [ [ [ 93.6225897, 8.4005044 ], [ 93.6223671, 8.4003371 ], [ 93.6223671, 8.4004546 ], [ 93.6225897, 8.4005044 ] ] ], [ [ [ 93.623148, 8.4004773 ], [ 93.6228757, 8.4003461 ], [ 93.6230391, 8.4005496 ], [ 93.623148, 8.4004773 ] ] ], [ [ [ 93.6228393, 8.4008751 ], [ 93.6226623, 8.4007575 ], [ 93.6226985, 8.4010017 ], [ 93.6228393, 8.4008751 ] ] ], [ [ [ 93.6223309, 8.4011148 ], [ 93.6221311, 8.4009701 ], [ 93.6221991, 8.4011509 ], [ 93.6223309, 8.4011148 ] ] ], [ [ [ 93.6226623, 8.402028 ], [ 93.6223944, 8.4018427 ], [ 93.6223763, 8.402019 ], [ 93.6226623, 8.402028 ] ] ], [ [ [ 93.6142349, 8.4185439 ], [ 93.6136084, 8.4179109 ], [ 93.6134494, 8.4189101 ], [ 93.6142349, 8.4185439 ] ] ], [ [ [ 93.6133041, 8.4197013 ], [ 93.6129046, 8.4196381 ], [ 93.6130044, 8.4200314 ], [ 93.6133041, 8.4197013 ] ] ], [ [ [ 93.6130862, 8.4206327 ], [ 93.6124096, 8.4208542 ], [ 93.6124913, 8.4210305 ], [ 93.6130862, 8.4206327 ] ] ], [ [ [ 93.6137581, 8.4209583 ], [ 93.6134584, 8.4208226 ], [ 93.6134811, 8.4210261 ], [ 93.6137581, 8.4209583 ] ] ], [ [ [ 93.6127138, 8.4228979 ], [ 93.6124231, 8.4228572 ], [ 93.6125684, 8.4230199 ], [ 93.6127138, 8.4228979 ] ] ], [ [ [ 93.60652, 8.4325278 ], [ 93.6062475, 8.4323243 ], [ 93.6061703, 8.4325007 ], [ 93.60652, 8.4325278 ] ] ], [ [ [ 93.6070828, 8.4363347 ], [ 93.6064835, 8.4358825 ], [ 93.6064017, 8.4360363 ], [ 93.6070828, 8.4363347 ] ] ], [ [ [ 93.0496983, 8.4427088 ], [ 93.0494214, 8.44246 ], [ 93.0495802, 8.4427539 ], [ 93.0496983, 8.4427088 ] ] ], [ [ [ 93.0495665, 8.443206 ], [ 93.0495984, 8.4429709 ], [ 93.0494485, 8.4430297 ], [ 93.0495665, 8.443206 ] ] ], [ [ [ 93.0502248, 8.4438934 ], [ 93.0503883, 8.4434096 ], [ 93.0501522, 8.4433373 ], [ 93.0502248, 8.4438934 ] ] ], [ [ [ 93.0500476, 8.4446981 ], [ 93.0497206, 8.4445805 ], [ 93.0497161, 8.4448337 ], [ 93.0500476, 8.4446981 ] ] ], [ [ [ 93.050329, 8.4449559 ], [ 93.0498886, 8.4448789 ], [ 93.0500883, 8.445114 ], [ 93.050329, 8.4449559 ] ] ], [ [ [ 93.0498341, 8.4452678 ], [ 93.0496842, 8.4450462 ], [ 93.0496615, 8.4453446 ], [ 93.0498341, 8.4452678 ] ] ], [ [ [ 93.0497249, 8.4457244 ], [ 93.0495797, 8.4454892 ], [ 93.0495433, 8.445756 ], [ 93.0497249, 8.4457244 ] ] ], [ [ [ 93.6061827, 8.457833 ], [ 93.6072317, 8.4568339 ], [ 93.6058013, 8.4574125 ], [ 93.6061827, 8.457833 ] ] ], [ [ [ 93.6113866, 8.4593704 ], [ 93.6104012, 8.4593569 ], [ 93.6113457, 8.4595965 ], [ 93.6113866, 8.4593704 ] ] ], [ [ [ 93.625927, 8.4706873 ], [ 93.6254093, 8.4703347 ], [ 93.6249961, 8.4711258 ], [ 93.625927, 8.4706873 ] ] ], [ [ [ 93.0341707, 8.4733773 ], [ 93.0463476, 8.4631575 ], [ 93.0477787, 8.4600291 ], [ 93.0464729, 8.4499736 ], [ 93.0473727, 8.4465604 ], [ 93.0495161, 8.4455209 ], [ 93.0491671, 8.4423831 ], [ 93.047728, 8.4405065 ], [ 93.0420885, 8.4396237 ], [ 93.0326431, 8.4421851 ], [ 93.0265526, 8.4473921 ], [ 93.0245398, 8.4522474 ], [ 93.0253189, 8.4595945 ], [ 93.0297848, 8.4698316 ], [ 93.0341707, 8.4733773 ] ] ], [ [ [ 93.6033021, 8.4873473 ], [ 93.6028389, 8.4861719 ], [ 93.6024756, 8.4865335 ], [ 93.6033021, 8.4873473 ] ] ], [ [ [ 93.6289652, 8.4877142 ], [ 93.629047, 8.4870133 ], [ 93.6287335, 8.4876373 ], [ 93.6289652, 8.4877142 ] ] ], [ [ [ 93.628502, 8.4881708 ], [ 93.6286972, 8.4879221 ], [ 93.6283067, 8.4880985 ], [ 93.628502, 8.4881708 ] ] ], [ [ [ 93.6061081, 8.4985194 ], [ 93.6055813, 8.4984878 ], [ 93.6060672, 8.49875 ], [ 93.6061081, 8.4985194 ] ] ], [ [ [ 93.613933, 8.5016668 ], [ 93.614487, 8.5019878 ], [ 93.6144961, 8.5016126 ], [ 93.613933, 8.5016668 ] ] ], [ [ [ 93.6146959, 8.5025394 ], [ 93.6142145, 8.5026796 ], [ 93.6147413, 8.502675 ], [ 93.6146959, 8.5025394 ] ] ], [ [ [ 93.6244783, 8.5031002 ], [ 93.6242922, 8.5030052 ], [ 93.6244238, 8.5031679 ], [ 93.6244783, 8.5031002 ] ] ], [ [ [ 93.6241287, 8.5033669 ], [ 93.6241287, 8.5031272 ], [ 93.6239924, 8.5033081 ], [ 93.6241287, 8.5033669 ] ] ], [ [ [ 93.6145732, 8.5045197 ], [ 93.6144279, 8.5044699 ], [ 93.6144688, 8.5046101 ], [ 93.6145732, 8.5045197 ] ] ], [ [ [ 93.6149684, 8.5048543 ], [ 93.6146959, 8.5047548 ], [ 93.6146913, 8.5049627 ], [ 93.6149684, 8.5048543 ] ] ], [ [ [ 93.6229025, 8.5050895 ], [ 93.6230478, 8.5047865 ], [ 93.6228207, 8.5050442 ], [ 93.6229025, 8.5050895 ] ] ], [ [ [ 93.6144597, 8.5049718 ], [ 93.6142099, 8.5049673 ], [ 93.6142644, 8.5051119 ], [ 93.6144597, 8.5049718 ] ] ], [ [ [ 93.6146323, 8.5055732 ], [ 93.6143417, 8.505433 ], [ 93.6145006, 8.5056545 ], [ 93.6146323, 8.5055732 ] ] ], [ [ [ 93.6141554, 8.5056635 ], [ 93.6139101, 8.5055641 ], [ 93.6139419, 8.5057901 ], [ 93.6141554, 8.5056635 ] ] ], [ [ [ 93.6221167, 8.5079242 ], [ 93.6219396, 8.5077072 ], [ 93.6218488, 8.507861 ], [ 93.6221167, 8.5079242 ] ] ], [ [ [ 93.6083778, 8.5225726 ], [ 93.6079236, 8.5225862 ], [ 93.60791, 8.5228303 ], [ 93.6083778, 8.5225726 ] ] ], [ [ [ 93.6099947, 8.5232961 ], [ 93.6097903, 8.5230655 ], [ 93.6098766, 8.5233684 ], [ 93.6099947, 8.5232961 ] ] ], [ [ [ 93.6109484, 8.5264338 ], [ 93.6107303, 8.5263841 ], [ 93.6105895, 8.5268498 ], [ 93.6109484, 8.5264338 ] ] ], [ [ [ 93.6197049, 8.5275689 ], [ 93.6193869, 8.5274197 ], [ 93.6196459, 8.5276909 ], [ 93.6197049, 8.5275689 ] ] ], [ [ [ 93.6088046, 8.5280613 ], [ 93.6091407, 8.5278534 ], [ 93.6087228, 8.527989 ], [ 93.6088046, 8.5280613 ] ] ], [ [ [ 93.6152175, 8.5295626 ], [ 93.6154083, 8.5292552 ], [ 93.6151222, 8.5293592 ], [ 93.6152175, 8.5295626 ] ] ], [ [ [ 93.6138913, 8.5306477 ], [ 93.6135643, 8.5305663 ], [ 93.6136869, 8.5307697 ], [ 93.6138913, 8.5306477 ] ] ], [ [ [ 93.6131282, 8.5328992 ], [ 93.6128603, 8.5327229 ], [ 93.6129465, 8.5329218 ], [ 93.6131282, 8.5328992 ] ] ], [ [ [ 93.6121788, 8.5371852 ], [ 93.6120743, 8.5367829 ], [ 93.611988, 8.5372576 ], [ 93.6121788, 8.5371852 ] ] ], [ [ [ 93.6125103, 8.5387316 ], [ 93.6124785, 8.5383246 ], [ 93.6123059, 8.5387089 ], [ 93.6125103, 8.5387316 ] ] ], [ [ [ 93.6028496, 8.5391742 ], [ 93.6023864, 8.5386271 ], [ 93.602291, 8.5392736 ], [ 93.6028496, 8.5391742 ] ] ], [ [ [ 93.6006097, 8.5498939 ], [ 93.6003327, 8.5497129 ], [ 93.6004417, 8.549948 ], [ 93.6006097, 8.5498939 ] ] ], [ [ [ 93.6104888, 8.5496953 ], [ 93.6099028, 8.5496456 ], [ 93.6100527, 8.5500254 ], [ 93.6104888, 8.5496953 ] ] ], [ [ [ 93.6095576, 8.5508211 ], [ 93.6091852, 8.5506357 ], [ 93.6093395, 8.5511467 ], [ 93.6095576, 8.5508211 ] ] ], [ [ [ 93.5998871, 8.5580364 ], [ 93.599778, 8.5579596 ], [ 93.5997871, 8.5580546 ], [ 93.5998871, 8.5580364 ] ] ], [ [ [ 93.6112016, 8.5582133 ], [ 93.6109154, 8.5581546 ], [ 93.6111788, 8.5583761 ], [ 93.6112016, 8.5582133 ] ] ], [ [ [ 93.5998416, 8.5584524 ], [ 93.599719, 8.558267 ], [ 93.5996735, 8.5583936 ], [ 93.5998416, 8.5584524 ] ] ], [ [ [ 93.6000096, 8.5586514 ], [ 93.5999324, 8.5585564 ], [ 93.5999143, 8.5586423 ], [ 93.6000096, 8.5586514 ] ] ], [ [ [ 93.6104385, 8.5586066 ], [ 93.6101932, 8.5585072 ], [ 93.6102613, 8.5587107 ], [ 93.6104385, 8.5586066 ] ] ], [ [ [ 93.5995917, 8.5585383 ], [ 93.5994191, 8.5585744 ], [ 93.5995418, 8.5587282 ], [ 93.5995917, 8.5585383 ] ] ], [ [ [ 93.6110743, 8.5586519 ], [ 93.6108291, 8.5585524 ], [ 93.6108972, 8.5587559 ], [ 93.6110743, 8.5586519 ] ] ], [ [ [ 93.6106473, 8.5609758 ], [ 93.6107563, 8.5606593 ], [ 93.6105656, 8.5607904 ], [ 93.6106473, 8.5609758 ] ] ], [ [ [ 93.6008679, 8.5615675 ], [ 93.6006318, 8.5615268 ], [ 93.6008452, 8.5617212 ], [ 93.6008679, 8.5615675 ] ] ], [ [ [ 93.6005863, 8.5618569 ], [ 93.6004864, 8.5617258 ], [ 93.6004591, 8.5619383 ], [ 93.6005863, 8.5618569 ] ] ], [ [ [ 93.6014174, 8.5633354 ], [ 93.6009995, 8.5632902 ], [ 93.6014311, 8.563453 ], [ 93.6014174, 8.5633354 ] ] ], [ [ [ 93.6003954, 8.5638598 ], [ 93.6009677, 8.5634936 ], [ 93.6004136, 8.5632991 ], [ 93.6003954, 8.5638598 ] ] ], [ [ [ 93.6030798, 8.5636971 ], [ 93.6030026, 8.56334 ], [ 93.6027664, 8.5640905 ], [ 93.6030798, 8.5636971 ] ] ], [ [ [ 93.6104655, 8.5641768 ], [ 93.6101749, 8.5640863 ], [ 93.6102248, 8.5642717 ], [ 93.6104655, 8.5641768 ] ] ], [ [ [ 93.6029799, 8.5648636 ], [ 93.602839, 8.5647008 ], [ 93.6027891, 8.5648229 ], [ 93.6029799, 8.5648636 ] ] ], [ [ [ 93.6032297, 8.5658402 ], [ 93.6031797, 8.5654514 ], [ 93.6030752, 8.5658493 ], [ 93.6032297, 8.5658402 ] ] ], [ [ [ 93.6111059, 8.5662791 ], [ 93.6110832, 8.5660079 ], [ 93.6109741, 8.5661389 ], [ 93.6111059, 8.5662791 ] ] ], [ [ [ 93.6034567, 8.5670202 ], [ 93.6032977, 8.566767 ], [ 93.6031705, 8.5668937 ], [ 93.6034567, 8.5670202 ] ] ], [ [ [ 93.6029888, 8.5673096 ], [ 93.6028662, 8.5671197 ], [ 93.602798, 8.5673187 ], [ 93.6029888, 8.5673096 ] ] ], [ [ [ 93.6073356, 8.5700994 ], [ 93.6071404, 8.5700451 ], [ 93.6072221, 8.5702441 ], [ 93.6073356, 8.5700994 ] ] ], [ [ [ 93.6076345, 8.570439 ], [ 93.6074673, 8.5702847 ], [ 93.6074128, 8.5704747 ], [ 93.6076345, 8.570439 ] ] ], [ [ [ 93.6077535, 8.5708409 ], [ 93.6075036, 8.5708815 ], [ 93.6076627, 8.5709449 ], [ 93.6077535, 8.5708409 ] ] ], [ [ [ 93.607181, 8.573436 ], [ 93.6069812, 8.5733049 ], [ 93.6070085, 8.5735039 ], [ 93.607181, 8.573436 ] ] ], [ [ [ 93.606536, 8.5739107 ], [ 93.6064043, 8.5737479 ], [ 93.6063862, 8.5738971 ], [ 93.606536, 8.5739107 ] ] ], [ [ [ 93.602457, 8.5741818 ], [ 93.6023343, 8.5738608 ], [ 93.6022571, 8.5738969 ], [ 93.602457, 8.5741818 ] ] ], [ [ [ 93.6020254, 8.574349 ], [ 93.6018438, 8.5741455 ], [ 93.6017529, 8.5743445 ], [ 93.6020254, 8.574349 ] ] ], [ [ [ 93.6058092, 8.5744622 ], [ 93.6055775, 8.5743718 ], [ 93.6057138, 8.5745255 ], [ 93.6058092, 8.5744622 ] ] ], [ [ [ 93.6028703, 8.5747289 ], [ 93.6030065, 8.5745706 ], [ 93.6028431, 8.5745842 ], [ 93.6028703, 8.5747289 ] ] ], [ [ [ 93.6054231, 8.5747516 ], [ 93.6055593, 8.5745933 ], [ 93.6053959, 8.5746069 ], [ 93.6054231, 8.5747516 ] ] ], [ [ [ 93.6052459, 8.5750545 ], [ 93.6050824, 8.5750319 ], [ 93.6051051, 8.5751495 ], [ 93.6052459, 8.5750545 ] ] ], [ [ [ 93.6029656, 8.5750951 ], [ 93.6028021, 8.5750725 ], [ 93.6028249, 8.57519 ], [ 93.6029656, 8.5750951 ] ] ], [ [ [ 93.6028975, 8.5755291 ], [ 93.6028021, 8.5754387 ], [ 93.6028157, 8.5755607 ], [ 93.6028975, 8.5755291 ] ] ], [ [ [ 93.6028202, 8.5762751 ], [ 93.6026658, 8.5762525 ], [ 93.602684, 8.5764514 ], [ 93.6028202, 8.5762751 ] ] ], [ [ [ 93.6026567, 8.5765554 ], [ 93.6025023, 8.5765328 ], [ 93.6025204, 8.5767318 ], [ 93.6026567, 8.5765554 ] ] ], [ [ [ 93.6059182, 8.5737162 ], [ 93.6074218, 8.572794 ], [ 93.6069178, 8.5699592 ], [ 93.6072403, 8.5688967 ], [ 93.6099613, 8.5655964 ], [ 93.6101705, 8.5577522 ], [ 93.6083447, 8.5532626 ], [ 93.6090035, 8.5505408 ], [ 93.6099347, 8.5490533 ], [ 93.6086674, 8.5475522 ], [ 93.6092127, 8.5431758 ], [ 93.6109069, 8.5428232 ], [ 93.6104709, 8.5399658 ], [ 93.6121243, 8.5385823 ], [ 93.6115656, 8.5374882 ], [ 93.6126285, 8.5352276 ], [ 93.6116702, 8.5325375 ], [ 93.6148724, 8.5289749 ], [ 93.6220121, 8.5250279 ], [ 93.6242422, 8.5254892 ], [ 93.6255366, 8.5236942 ], [ 93.6229841, 8.5203937 ], [ 93.6273986, 8.5127439 ], [ 93.6214719, 8.5076213 ], [ 93.622798, 8.5046916 ], [ 93.6272441, 8.4985289 ], [ 93.6254729, 8.4943558 ], [ 93.6265583, 8.4922218 ], [ 93.6282069, 8.4919234 ], [ 93.6277435, 8.4899251 ], [ 93.6280115, 8.4896628 ], [ 93.6282976, 8.4879854 ], [ 93.6286337, 8.4870541 ], [ 93.6300868, 8.4843233 ], [ 93.6293739, 8.4806611 ], [ 93.6303546, 8.4743313 ], [ 93.6323481, 8.4677213 ], [ 93.6314171, 8.4661072 ], [ 93.6291557, 8.4666408 ], [ 93.6270305, 8.4709856 ], [ 93.6239107, 8.4714604 ], [ 93.6171854, 8.4680785 ], [ 93.6156823, 8.4642535 ], [ 93.6153601, 8.4567121 ], [ 93.6127538, 8.4495866 ], [ 93.6175673, 8.4421583 ], [ 93.616196, 8.4413219 ], [ 93.6177444, 8.4378949 ], [ 93.6177173, 8.4339388 ], [ 93.6147115, 8.4249777 ], [ 93.6130134, 8.4232324 ], [ 93.6112607, 8.4243898 ], [ 93.6114467, 8.4283639 ], [ 93.6084769, 8.4357606 ], [ 93.610066, 8.4384462 ], [ 93.6098888, 8.4411544 ], [ 93.606919, 8.4445994 ], [ 93.609934, 8.4467924 ], [ 93.6103562, 8.448845 ], [ 93.6092118, 8.4511598 ], [ 93.6105242, 8.4514673 ], [ 93.6106376, 8.4535335 ], [ 93.6080627, 8.456748 ], [ 93.6103296, 8.4576146 ], [ 93.613539, 8.4625806 ], [ 93.6117405, 8.4707549 ], [ 93.6127985, 8.4735852 ], [ 93.6098557, 8.475145 ], [ 93.6107457, 8.477921 ], [ 93.6094422, 8.4814746 ], [ 93.6115039, 8.483039 ], [ 93.6143377, 8.4828718 ], [ 93.6192104, 8.4866064 ], [ 93.6185837, 8.4904721 ], [ 93.6168534, 8.4917696 ], [ 93.6140738, 8.4984881 ], [ 93.6163581, 8.5006809 ], [ 93.6150033, 8.501327 ], [ 93.6153815, 8.5116451 ], [ 93.6135691, 8.5192407 ], [ 93.6102445, 8.5224778 ], [ 93.6120384, 8.5259184 ], [ 93.6107938, 8.528708 ], [ 93.6087546, 8.5285135 ], [ 93.6065286, 8.5384872 ], [ 93.6033402, 8.5393822 ], [ 93.6028085, 8.5422757 ], [ 93.6002149, 8.5449747 ], [ 93.6020815, 8.5478006 ], [ 93.6000417, 8.5537911 ], [ 93.6014632, 8.556115 ], [ 93.6004503, 8.5583846 ], [ 93.6013085, 8.5623452 ], [ 93.603366, 8.5634078 ], [ 93.6041471, 8.5664235 ], [ 93.6012987, 8.5728118 ], [ 93.6030656, 8.5743491 ], [ 93.6031156, 8.575077 ], [ 93.6027021, 8.5771929 ], [ 93.6059182, 8.5737162 ] ] ], [ [ [ 93.5985091, 8.5828668 ], [ 93.5982458, 8.5800364 ], [ 93.5978779, 8.5799641 ], [ 93.5961697, 8.5825456 ], [ 93.5985091, 8.5828668 ] ] ], [ [ [ 92.7849996, 9.2471574 ], [ 92.7979994, 9.2327249 ], [ 92.8113753, 9.2211717 ], [ 92.8176654, 9.2119906 ], [ 92.8244984, 9.1897255 ], [ 92.8233849, 9.1806244 ], [ 92.8267476, 9.1779303 ], [ 92.8305616, 9.1681653 ], [ 92.8300028, 9.1617906 ], [ 92.8262824, 9.1523954 ], [ 92.8273034, 9.1388369 ], [ 92.825584, 9.1369921 ], [ 92.8192422, 9.1375518 ], [ 92.8140882, 9.1355482 ], [ 92.8097308, 9.1312479 ], [ 92.8105865, 9.128454 ], [ 92.8119465, 9.1294715 ], [ 92.8115102, 9.1274821 ], [ 92.8070709, 9.1238871 ], [ 92.8061973, 9.1249088 ], [ 92.8022717, 9.1233482 ], [ 92.7990652, 9.1205942 ], [ 92.7848407, 9.1187193 ], [ 92.7758419, 9.1215471 ], [ 92.7669876, 9.1274219 ], [ 92.7669873, 9.1288461 ], [ 92.7655366, 9.1271186 ], [ 92.7597825, 9.1252903 ], [ 92.7556927, 9.1258813 ], [ 92.7530216, 9.1279782 ], [ 92.7406128, 9.1244609 ], [ 92.7273156, 9.1248989 ], [ 92.721689, 9.1339386 ], [ 92.7231577, 9.1355126 ], [ 92.7221097, 9.1396353 ], [ 92.7156324, 9.1478518 ], [ 92.7144421, 9.1544023 ], [ 92.7156239, 9.1670165 ], [ 92.7174913, 9.172551 ], [ 92.716597, 9.2092071 ], [ 92.7196916, 9.2185262 ], [ 92.7217248, 9.2205977 ], [ 92.7267618, 9.2210112 ], [ 92.7311535, 9.2192679 ], [ 92.7331429, 9.2169494 ], [ 92.7395037, 9.2183805 ], [ 92.744852, 9.2138072 ], [ 92.7466074, 9.2166154 ], [ 92.7550022, 9.2179655 ], [ 92.7575554, 9.2164067 ], [ 92.7629609, 9.2173171 ], [ 92.7631843, 9.2161191 ], [ 92.7686519, 9.2218896 ], [ 92.7681631, 9.2285217 ], [ 92.7724573, 9.2333831 ], [ 92.7726699, 9.2376012 ], [ 92.7695709, 9.2381067 ], [ 92.769966, 9.2405436 ], [ 92.7733335, 9.2405627 ], [ 92.7756211, 9.2454912 ], [ 92.7722243, 9.2522945 ], [ 92.771426, 9.2588226 ], [ 92.7752262, 9.2582088 ], [ 92.7804344, 9.2501401 ], [ 92.7849996, 9.2471574 ] ] ] ] } }
]
}
