{
"type": "FeatureCollection",
"name": "3604",
"crs": { "type": "name", "properties": { "name": "urn:ogc:def:crs:OGC:1.3:CRS84" } },
"features": [
{ "type": "Feature", "properties": { "code": "3604", "name": "Nirmal", "type": "district" }, "geometry": { "type": "Polygon", "coordinates": [ [ [ 77.9630921, 19.3341269 ], [ 77.9668235, 19.3266574 ], [ 77.9741103, 19.3226205 ], [ 77.9776335, 19.3227069 ], [ 77.9849641, 19.3097524 ], [ 77.9946653, 19.3053862 ], [ 77.9986799, 19.2997976 ], [ 78.0134969, 19.2947177 ], [ 78.0159612, 19.2875711 ], [ 78.0142414, 19.2859619 ], [ 78.0148197, 19.2790374 ], [ 78.0425063, 19.2706038 ], [ 78.0418443, 19.2616555 ], [ 78.0359407, 19.2506334 ], [ 78.0416136, 19.2434281 ], [ 78.0556753, 19.2371217 ], [ 78.0588617, 19.2423282 ], [ 78.0644225, 19.2477737 ], [ 78.0722963, 19.2492488 ], [ 78.0790969, 19.2548343 ], [ 78.0832291, 19.2486762 ], [ 78.0823508, 19.2432161 ], [ 78.0891496, 19.2393682 ], [ 78.0953093, 19.2437404 ], [ 78.1131722, 19.2444221 ], [ 78.1152195, 19.2488294 ], [ 78.117038, 19.2486373 ], [ 78.1342819, 19.238893 ], [ 78.1370892, 19.2343947 ], [ 78.1445469, 19.2294007 ], [ 78.1509921, 19.2294982 ], [ 78.1553971, 19.2343824 ], [ 78.1583991, 19.2357788 ], [ 78.1649459, 19.2345538 ], [ 78.175321, 19.2375786 ], [ 78.1770206, 19.2421576 ], [ 78.1817714, 19.2476184 ], [ 78.1779831, 19.2539129 ], [ 78.1796405, 19.2588572 ], [ 78.1767056, 19.2629436 ], [ 78.1781653, 19.2725051 ], [ 78.1766665, 19.2785486 ], [ 78.1831114, 19.2851834 ], [ 78.1862416, 19.2962706 ], [ 78.193701, 19.3144749 ], [ 78.1932413, 19.3171384 ], [ 78.1960814, 19.3154756 ], [ 78.197361, 19.3090324 ], [ 78.2039302, 19.3068945 ], [ 78.2075323, 19.307136 ], [ 78.2181319, 19.3124861 ], [ 78.2209125, 19.3106056 ], [ 78.23024, 19.3088708 ], [ 78.2420983, 19.3017348 ], [ 78.2484698, 19.290328 ], [ 78.2615271, 19.2887617 ], [ 78.2703145, 19.2817456 ], [ 78.2737499, 19.2674492 ], [ 78.2754412, 19.2658999 ], [ 78.2927632, 19.2637751 ], [ 78.2993934, 19.2593815 ], [ 78.3009655, 19.2464506 ], [ 78.3052499, 19.2413285 ], [ 78.3039458, 19.2357588 ], [ 78.3071169, 19.2347051 ], [ 78.3092451, 19.2314711 ], [ 78.3080786, 19.229522 ], [ 78.3099579, 19.2230566 ], [ 78.3133526, 19.2213165 ], [ 78.3184279, 19.2146758 ], [ 78.3243494, 19.2126764 ], [ 78.3300674, 19.2068906 ], [ 78.3381239, 19.2077708 ], [ 78.3400112, 19.2056132 ], [ 78.3416035, 19.2056156 ], [ 78.3442652, 19.2073491 ], [ 78.3471802, 19.2072338 ], [ 78.3511185, 19.2048482 ], [ 78.3543687, 19.1984773 ], [ 78.3568668, 19.1978022 ], [ 78.3601281, 19.2003409 ], [ 78.3629662, 19.1998588 ], [ 78.3656552, 19.1917435 ], [ 78.3641946, 19.1879855 ], [ 78.3693236, 19.1822786 ], [ 78.3761111, 19.1817812 ], [ 78.380678, 19.179207 ], [ 78.3835395, 19.1796054 ], [ 78.3884567, 19.1758242 ], [ 78.3942513, 19.1765899 ], [ 78.3982066, 19.1799928 ], [ 78.4016956, 19.179941 ], [ 78.4043998, 19.1781881 ], [ 78.4041961, 19.1754721 ], [ 78.4063478, 19.1738177 ], [ 78.4145942, 19.172403 ], [ 78.4210445, 19.1758476 ], [ 78.4255399, 19.1754529 ], [ 78.4309779, 19.1731074 ], [ 78.4337257, 19.1761593 ], [ 78.4361607, 19.1845143 ], [ 78.4484015, 19.1788646 ], [ 78.4493442, 19.1800612 ], [ 78.4496934, 19.1839029 ], [ 78.454324, 19.1900838 ], [ 78.4565637, 19.1954111 ], [ 78.4549107, 19.2061608 ], [ 78.4571548, 19.2128924 ], [ 78.4582944, 19.222517 ], [ 78.456663, 19.2268175 ], [ 78.4837073, 19.2266577 ], [ 78.4986315, 19.218592 ], [ 78.5009958, 19.2188004 ], [ 78.5094273, 19.2147466 ], [ 78.5190412, 19.2261785 ], [ 78.5178749, 19.245449 ], [ 78.5218348, 19.250633 ], [ 78.525656, 19.2549757 ], [ 78.5473322, 19.2619915 ], [ 78.570306, 19.2864638 ], [ 78.5844815, 19.2893401 ], [ 78.5877042, 19.2880231 ], [ 78.6011093, 19.2768263 ], [ 78.6102432, 19.2651305 ], [ 78.615375, 19.2610393 ], [ 78.6178587, 19.2701867 ], [ 78.6211065, 19.2740846 ], [ 78.6510289, 19.3000939 ], [ 78.6752517, 19.3164916 ], [ 78.6904798, 19.3165251 ], [ 78.7225203, 19.3264042 ], [ 78.7199359, 19.2964927 ], [ 78.7364947, 19.2859593 ], [ 78.7588424, 19.2781625 ], [ 78.7679124, 19.256553 ], [ 78.7759143, 19.2506341 ], [ 78.7804853, 19.2493251 ], [ 78.7842052, 19.2458553 ], [ 78.786143, 19.2406779 ], [ 78.7901001, 19.2404746 ], [ 78.8005398, 19.2138389 ], [ 78.8017698, 19.2161425 ], [ 78.8053219, 19.217078 ], [ 78.8121285, 19.2215116 ], [ 78.8150854, 19.231365 ], [ 78.8183592, 19.2353913 ], [ 78.8196684, 19.2467352 ], [ 78.8296581, 19.2526739 ], [ 78.8432335, 19.2546977 ], [ 78.8448488, 19.2565072 ], [ 78.8447377, 19.2600735 ], [ 78.8488329, 19.2626786 ], [ 78.84666, 19.2677146 ], [ 78.8478192, 19.2717422 ], [ 78.8538275, 19.2781276 ], [ 78.8687976, 19.2824676 ], [ 78.8750585, 19.2769657 ], [ 78.8837141, 19.2744751 ], [ 78.8854784, 19.2727273 ], [ 78.8881021, 19.2751355 ], [ 78.8880551, 19.2773612 ], [ 78.892992, 19.2812405 ], [ 78.893941, 19.2901065 ], [ 78.8979935, 19.2853551 ], [ 78.9163451, 19.2705723 ], [ 78.9282853, 19.2651374 ], [ 78.9347576, 19.2602628 ], [ 78.9417019, 19.2522081 ], [ 78.9450679, 19.2522098 ], [ 78.9486846, 19.2541594 ], [ 78.9543607, 19.2506465 ], [ 78.9480562, 19.2441308 ], [ 78.9463948, 19.239662 ], [ 78.9411294, 19.2352576 ], [ 78.938248, 19.2300033 ], [ 78.9360833, 19.2284388 ], [ 78.9371384, 19.2231498 ], [ 78.9337259, 19.2142249 ], [ 78.9304833, 19.2137362 ], [ 78.9275108, 19.2086436 ], [ 78.9179062, 19.2014386 ], [ 78.9179654, 19.1888992 ], [ 78.9204119, 19.1866999 ], [ 78.921253, 19.1837799 ], [ 78.9198912, 19.182352 ], [ 78.9105779, 19.1815475 ], [ 78.9025909, 19.1778307 ], [ 78.8775831, 19.1601994 ], [ 78.8774698, 19.1589612 ], [ 78.8801729, 19.1590538 ], [ 78.8830635, 19.1554629 ], [ 78.8823299, 19.1534027 ], [ 78.8853844, 19.1449312 ], [ 78.8855807, 19.1378654 ], [ 78.88804, 19.1312363 ], [ 78.8866826, 19.1270399 ], [ 78.8825731, 19.1218519 ], [ 78.8802595, 19.1132632 ], [ 78.8852447, 19.1090826 ], [ 78.8891867, 19.1034851 ], [ 78.9028533, 19.0937735 ], [ 78.912055, 19.1042285 ], [ 78.9211069, 19.1063454 ], [ 78.9207427, 19.1090704 ], [ 78.9170402, 19.1104432 ], [ 78.913529, 19.1163152 ], [ 78.9237393, 19.1139109 ], [ 78.9306865, 19.118446 ], [ 78.941209, 19.1084969 ], [ 78.9384727, 19.1001901 ], [ 78.9417776, 19.0938464 ], [ 78.9420031, 19.0840798 ], [ 78.9407525, 19.0806881 ], [ 78.9474504, 19.072683 ], [ 78.9399008, 19.0630309 ], [ 78.9357719, 19.0614655 ], [ 78.9313758, 19.0570981 ], [ 78.9248117, 19.0483612 ], [ 78.9175943, 19.0341818 ], [ 78.9138712, 19.030686 ], [ 78.9108525, 19.0305147 ], [ 78.9028816, 19.0337254 ], [ 78.8738527, 19.0558494 ], [ 78.8694148, 19.0560959 ], [ 78.8664095, 19.0590779 ], [ 78.8619971, 19.0590849 ], [ 78.8448315, 19.0702856 ], [ 78.8355463, 19.0684454 ], [ 78.8287108, 19.0613475 ], [ 78.8210905, 19.0489322 ], [ 78.8147151, 19.0491669 ], [ 78.8110985, 19.0478153 ], [ 78.8053335, 19.0493913 ], [ 78.7988277, 19.0482516 ], [ 78.778799, 19.0376826 ], [ 78.7707807, 19.029729 ], [ 78.7683268, 19.0212273 ], [ 78.7701388, 19.0143184 ], [ 78.767239, 19.0152164 ], [ 78.7622503, 19.0112649 ], [ 78.7565913, 19.0111378 ], [ 78.7401905, 19.0168803 ], [ 78.7166302, 19.0275394 ], [ 78.7038757, 19.0351609 ], [ 78.7004888, 19.0357604 ], [ 78.6863475, 19.0300143 ], [ 78.6654973, 19.0146488 ], [ 78.6599543, 19.0047554 ], [ 78.6601822, 19.0008045 ], [ 78.6360261, 18.9778626 ], [ 78.6063894, 18.9854986 ], [ 78.5884477, 19.0053567 ], [ 78.5665922, 18.988121 ], [ 78.5568597, 18.9780926 ], [ 78.5542415, 18.9731008 ], [ 78.5514315, 18.9539996 ], [ 78.5488799, 18.9471336 ], [ 78.5467253, 18.9456686 ], [ 78.5355289, 18.9459913 ], [ 78.5281962, 18.9486794 ], [ 78.5242395, 18.9522023 ], [ 78.5162163, 18.9653174 ], [ 78.5082026, 18.9722894 ], [ 78.4907877, 18.9728412 ], [ 78.486229, 18.9697272 ], [ 78.4823124, 18.9619398 ], [ 78.4772212, 18.9580212 ], [ 78.4726879, 18.9570887 ], [ 78.4654306, 18.9583391 ], [ 78.4629424, 18.9565856 ], [ 78.4568396, 18.9554844 ], [ 78.4524819, 18.9640473 ], [ 78.4405486, 18.9665983 ], [ 78.4262909, 18.9769718 ], [ 78.4171245, 18.9994845 ], [ 78.4099912, 19.0038408 ], [ 78.4010732, 19.0030224 ], [ 78.3857015, 18.9980986 ], [ 78.3765087, 18.9981256 ], [ 78.3711234, 18.9960263 ], [ 78.3641533, 18.989512 ], [ 78.354888, 18.9845283 ], [ 78.3459777, 18.9736625 ], [ 78.3394475, 18.9682943 ], [ 78.3357011, 18.9657905 ], [ 78.3277793, 18.9639401 ], [ 78.3212767, 18.9604281 ], [ 78.3140042, 18.9515149 ], [ 78.3002161, 18.9475441 ], [ 78.2932731, 18.9440267 ], [ 78.2851441, 18.942561 ], [ 78.2788047, 18.9465201 ], [ 78.2770783, 18.9530336 ], [ 78.2777213, 18.9686549 ], [ 78.2760873, 18.9733083 ], [ 78.28103, 18.9836846 ], [ 78.2787354, 18.9900565 ], [ 78.2647472, 19.0021732 ], [ 78.2576125, 19.0060693 ], [ 78.2486584, 19.0147356 ], [ 78.238689, 19.0159397 ], [ 78.2280265, 19.0083524 ], [ 78.220861, 19.0056053 ], [ 78.2131298, 19.004911 ], [ 78.2049922, 19.0025038 ], [ 78.1987142, 18.9991136 ], [ 78.1894115, 18.9971736 ], [ 78.1783031, 18.999755 ], [ 78.1672228, 18.9976261 ], [ 78.164469, 18.9948086 ], [ 78.1642972, 18.9906635 ], [ 78.1611381, 18.9880906 ], [ 78.1611384, 18.9803197 ], [ 78.1502223, 18.9694095 ], [ 78.1496197, 18.9673583 ], [ 78.1326677, 18.9610597 ], [ 78.122148, 18.9609708 ], [ 78.1181719, 18.9627381 ], [ 78.1131909, 18.9613098 ], [ 78.1046638, 18.9544261 ], [ 78.0964438, 18.9442528 ], [ 78.0899388, 18.9401645 ], [ 78.0767058, 18.9398669 ], [ 78.057663, 18.9421384 ], [ 78.0523306, 18.9399937 ], [ 78.0464489, 18.9355008 ], [ 78.0470534, 18.927137 ], [ 78.0417701, 18.9147576 ], [ 78.0409985, 18.8980585 ], [ 78.0368862, 18.8880365 ], [ 78.0391954, 18.8822504 ], [ 78.037466, 18.8771578 ], [ 78.0328812, 18.8757891 ], [ 78.0279527, 18.8765312 ], [ 78.017818, 18.8836715 ], [ 78.0139659, 18.8843758 ], [ 78.008778, 18.8840536 ], [ 77.9957961, 18.8801955 ], [ 77.9880204, 18.8796667 ], [ 77.9682468, 18.8704861 ], [ 77.9593841, 18.8601997 ], [ 77.9566377, 18.85359 ], [ 77.9512956, 18.8481014 ], [ 77.9489009, 18.8432892 ], [ 77.9347756, 18.8451448 ], [ 77.9374523, 18.8515914 ], [ 77.9293504, 18.8535862 ], [ 77.9300608, 18.8587263 ], [ 77.9251428, 18.8606913 ], [ 77.9141492, 18.8613679 ], [ 77.9142638, 18.8634608 ], [ 77.9124266, 18.8631722 ], [ 77.9124251, 18.8650694 ], [ 77.903232, 18.8666255 ], [ 77.9025941, 18.871772 ], [ 77.9039063, 18.8812459 ], [ 77.8915841, 18.881414 ], [ 77.8848056, 18.9003039 ], [ 77.8853844, 18.9042002 ], [ 77.8739377, 18.9076744 ], [ 77.8731718, 18.9039339 ], [ 77.8681784, 18.9043245 ], [ 77.8579394, 18.9023516 ], [ 77.8432542, 18.9086934 ], [ 77.847914, 18.926896 ], [ 77.8514616, 18.9264068 ], [ 77.8586536, 18.9486633 ], [ 77.8419425, 18.9498726 ], [ 77.8356172, 18.9472467 ], [ 77.8324535, 18.9416286 ], [ 77.8162398, 18.9472702 ], [ 77.8198433, 18.9544406 ], [ 77.8162119, 18.9575165 ], [ 77.8194963, 18.9668938 ], [ 77.8217578, 18.9785078 ], [ 77.8208082, 18.9788528 ], [ 77.8052173, 18.981856 ], [ 77.7911405, 18.9828175 ], [ 77.7896741, 18.9745784 ], [ 77.7876263, 18.9726465 ], [ 77.7714972, 18.9791591 ], [ 77.7753511, 19.0006266 ], [ 77.7722369, 19.003627 ], [ 77.770339, 19.0099579 ], [ 77.7699222, 19.0224051 ], [ 77.7671844, 19.0229169 ], [ 77.7651518, 19.0249507 ], [ 77.7619963, 19.0318526 ], [ 77.7619022, 19.0361784 ], [ 77.7649492, 19.0471428 ], [ 77.764812, 19.0626553 ], [ 77.7752312, 19.0560217 ], [ 77.7890959, 19.0556729 ], [ 77.7933093, 19.0525733 ], [ 77.8003494, 19.0511216 ], [ 77.7986007, 19.0614514 ], [ 77.8000982, 19.0668449 ], [ 77.7967737, 19.0709086 ], [ 77.7967978, 19.0725891 ], [ 77.7978641, 19.0751633 ], [ 77.8016692, 19.076182 ], [ 77.8025698, 19.0790612 ], [ 77.8045785, 19.0918045 ], [ 77.8031212, 19.0961716 ], [ 77.8045286, 19.1005566 ], [ 77.8099343, 19.104734 ], [ 77.8181405, 19.1049809 ], [ 77.823585, 19.0977322 ], [ 77.8264078, 19.0966382 ], [ 77.8295321, 19.0870661 ], [ 77.83127, 19.0860806 ], [ 77.842298, 19.0880145 ], [ 77.8485798, 19.0865021 ], [ 77.8490848, 19.0884911 ], [ 77.850395, 19.0885569 ], [ 77.8510794, 19.0920293 ], [ 77.8462069, 19.1013136 ], [ 77.8471288, 19.1086187 ], [ 77.8483671, 19.1101334 ], [ 77.8476647, 19.1160049 ], [ 77.8415592, 19.1181064 ], [ 77.8379091, 19.1272202 ], [ 77.83688, 19.1340089 ], [ 77.8340629, 19.1343082 ], [ 77.8356554, 19.1380808 ], [ 77.8379468, 19.137653 ], [ 77.8432247, 19.1415795 ], [ 77.8525311, 19.1546779 ], [ 77.8526462, 19.1668184 ], [ 77.8545251, 19.1701968 ], [ 77.8567131, 19.1707521 ], [ 77.8553846, 19.1747866 ], [ 77.8559281, 19.17711 ], [ 77.8604942, 19.1803543 ], [ 77.8540142, 19.1874911 ], [ 77.847721, 19.189595 ], [ 77.8514919, 19.1960991 ], [ 77.8512283, 19.1997491 ], [ 77.854814, 19.2027692 ], [ 77.858186, 19.2141769 ], [ 77.8660065, 19.2264019 ], [ 77.866122, 19.2326125 ], [ 77.8681389, 19.2367374 ], [ 77.8669023, 19.2399374 ], [ 77.8688416, 19.2410222 ], [ 77.8700159, 19.244184 ], [ 77.8694675, 19.2481692 ], [ 77.8713581, 19.2542747 ], [ 77.8746046, 19.253637 ], [ 77.8748017, 19.2587601 ], [ 77.8821532, 19.2604706 ], [ 77.8900071, 19.260891 ], [ 77.8909226, 19.259281 ], [ 77.902847, 19.2564628 ], [ 77.9074813, 19.2679881 ], [ 77.9034585, 19.2779596 ], [ 77.8941896, 19.2798119 ], [ 77.8843629, 19.2789298 ], [ 77.8655755, 19.2838215 ], [ 77.8660622, 19.2865052 ], [ 77.8649465, 19.2881306 ], [ 77.8663957, 19.2917246 ], [ 77.8642715, 19.2972209 ], [ 77.8634588, 19.3041963 ], [ 77.872827, 19.3053086 ], [ 77.8781808, 19.309284 ], [ 77.890031, 19.3132975 ], [ 77.8943199, 19.32047 ], [ 77.903322, 19.3173637 ], [ 77.9115459, 19.316257 ], [ 77.9176021, 19.3232832 ], [ 77.9233051, 19.3257761 ], [ 77.9280143, 19.3322078 ], [ 77.9319773, 19.3346707 ], [ 77.9382442, 19.3341131 ], [ 77.9424821, 19.3424397 ], [ 77.9536653, 19.3395243 ], [ 77.9630921, 19.3341269 ] ] ] } }
]
}
