{
"type": "FeatureCollection",
"name": "3610",
"crs": { "type": "name", "properties": { "name": "urn:ogc:def:crs:OGC:1.3:CRS84" } },
"features": [
{ "type": "Feature", "properties": { "code": "3610", "name": "Mahabubabad", "type": "district" }, "geometry": { "type": "Polygon", "coordinates": [ [ [ 80.0180666, 18.1170271 ], [ 80.0361914, 18.1154174 ], [ 80.0545884, 18.0854021 ], [ 80.0762506, 18.0745042 ], [ 80.0774099, 18.0715824 ], [ 80.0793874, 18.0705061 ], [ 80.0890777, 18.0733225 ], [ 80.100727, 18.0819451 ], [ 80.1131771, 18.082777 ], [ 80.1448874, 18.0948539 ], [ 80.149477, 18.0837887 ], [ 80.1641554, 18.0807118 ], [ 80.1722255, 18.0756172 ], [ 80.1857753, 18.0625354 ], [ 80.2374968, 18.0371233 ], [ 80.2475462, 18.0293798 ], [ 80.2588349, 18.0158924 ], [ 80.2679781, 18.0098958 ], [ 80.2811705, 17.9982669 ], [ 80.2854787, 17.9978916 ], [ 80.2944696, 18.0004585 ], [ 80.3045689, 18.0000477 ], [ 80.3161784, 17.9959655 ], [ 80.3150286, 17.9882784 ], [ 80.3113117, 17.9830774 ], [ 80.3096755, 17.9752929 ], [ 80.2943184, 17.9644763 ], [ 80.2750239, 17.9663597 ], [ 80.2684687, 17.9505242 ], [ 80.2702597, 17.9454276 ], [ 80.2676525, 17.9259258 ], [ 80.2699501, 17.9154284 ], [ 80.2725588, 17.9133791 ], [ 80.2738092, 17.9099814 ], [ 80.2778022, 17.9068622 ], [ 80.2769673, 17.8812824 ], [ 80.2727523, 17.8767488 ], [ 80.2726794, 17.8702895 ], [ 80.2659542, 17.8612827 ], [ 80.2663084, 17.8532644 ], [ 80.2631125, 17.845789 ], [ 80.2578332, 17.836259 ], [ 80.2478476, 17.824409 ], [ 80.2540137, 17.8034648 ], [ 80.2530712, 17.798731 ], [ 80.2558414, 17.7909275 ], [ 80.2539848, 17.7888687 ], [ 80.252425, 17.7798081 ], [ 80.2580048, 17.7775272 ], [ 80.2567148, 17.7600636 ], [ 80.2580413, 17.7554904 ], [ 80.2589896, 17.7554914 ], [ 80.2594255, 17.7501217 ], [ 80.2525801, 17.7428133 ], [ 80.2498961, 17.7426973 ], [ 80.2484914, 17.7381977 ], [ 80.2469221, 17.7259545 ], [ 80.2448094, 17.7219694 ], [ 80.2478508, 17.7190301 ], [ 80.2450565, 17.7133039 ], [ 80.2472454, 17.7093736 ], [ 80.247686, 17.7041348 ], [ 80.2410563, 17.6921836 ], [ 80.2418915, 17.6847031 ], [ 80.2379049, 17.6717467 ], [ 80.2367244, 17.6552991 ], [ 80.2307428, 17.657231 ], [ 80.2302718, 17.6603813 ], [ 80.221175, 17.6609166 ], [ 80.2178329, 17.6601121 ], [ 80.2138924, 17.6558214 ], [ 80.2087115, 17.6550187 ], [ 80.2068053, 17.6527106 ], [ 80.2066255, 17.624682 ], [ 80.209777, 17.6136738 ], [ 80.213639, 17.6097278 ], [ 80.2232089, 17.6062187 ], [ 80.2178818, 17.5899505 ], [ 80.2015088, 17.5573781 ], [ 80.2049434, 17.5455562 ], [ 80.2282728, 17.5305641 ], [ 80.2288116, 17.5225446 ], [ 80.2263871, 17.5073691 ], [ 80.2277056, 17.5045497 ], [ 80.2248618, 17.4963268 ], [ 80.221967, 17.4944785 ], [ 80.2209857, 17.492054 ], [ 80.2165624, 17.475275 ], [ 80.2098604, 17.4709711 ], [ 80.2086353, 17.4743286 ], [ 80.2040937, 17.4745257 ], [ 80.2015462, 17.4799293 ], [ 80.2002402, 17.4868176 ], [ 80.1958143, 17.4760286 ], [ 80.1952523, 17.4708196 ], [ 80.1982261, 17.4638297 ], [ 80.200736, 17.4489271 ], [ 80.2035319, 17.4440301 ], [ 80.2031676, 17.4420358 ], [ 80.1916592, 17.4429508 ], [ 80.180912, 17.4392186 ], [ 80.170113, 17.4385286 ], [ 80.1624901, 17.4204773 ], [ 80.1663409, 17.407607 ], [ 80.1602734, 17.4031711 ], [ 80.1620539, 17.3892666 ], [ 80.1607381, 17.376822 ], [ 80.143728, 17.393871 ], [ 80.1299319, 17.3882458 ], [ 80.1283002, 17.3795395 ], [ 80.1237789, 17.3825111 ], [ 80.1203837, 17.3826678 ], [ 80.1201747, 17.3787204 ], [ 80.1180896, 17.3782601 ], [ 80.1170208, 17.3758574 ], [ 80.1163587, 17.370087 ], [ 80.11267, 17.3734713 ], [ 80.1114613, 17.3703901 ], [ 80.1126592, 17.3670239 ], [ 80.1084477, 17.35867 ], [ 80.1004358, 17.3579905 ], [ 80.0858166, 17.3671363 ], [ 80.0766274, 17.3642698 ], [ 80.0729006, 17.3567977 ], [ 80.0749384, 17.3527824 ], [ 80.073963, 17.3509629 ], [ 80.0685677, 17.3531176 ], [ 80.0572835, 17.3464889 ], [ 80.0535994, 17.3475618 ], [ 80.0523211, 17.3466052 ], [ 80.0466161, 17.3523171 ], [ 80.0365726, 17.3548862 ], [ 80.0279619, 17.3547588 ], [ 80.0152235, 17.3597896 ], [ 79.9924673, 17.3640636 ], [ 79.9934035, 17.386306 ], [ 79.9915003, 17.3993678 ], [ 79.9797664, 17.4060219 ], [ 79.9697013, 17.4065533 ], [ 79.9689282, 17.3998373 ], [ 79.9647692, 17.3983892 ], [ 79.956521, 17.3958997 ], [ 79.9366137, 17.3950659 ], [ 79.9403517, 17.3821585 ], [ 79.9374861, 17.3781451 ], [ 79.9369921, 17.3747076 ], [ 79.930575, 17.3663623 ], [ 79.929527, 17.3673045 ], [ 79.9301523, 17.3725011 ], [ 79.9155957, 17.3733751 ], [ 79.9031059, 17.3758679 ], [ 79.9024876, 17.3732573 ], [ 79.8993648, 17.3720686 ], [ 79.897294, 17.3671254 ], [ 79.8958437, 17.3564736 ], [ 79.8913385, 17.3532868 ], [ 79.8823387, 17.3571583 ], [ 79.8788708, 17.3535403 ], [ 79.8791579, 17.3431375 ], [ 79.8754412, 17.3362683 ], [ 79.8754269, 17.3305482 ], [ 79.8560197, 17.3343382 ], [ 79.8551722, 17.3329159 ], [ 79.8498518, 17.3346314 ], [ 79.8435241, 17.3291999 ], [ 79.8314959, 17.3359162 ], [ 79.8151071, 17.3313396 ], [ 79.8110889, 17.3267374 ], [ 79.8062227, 17.3264006 ], [ 79.8037264, 17.3243116 ], [ 79.7928039, 17.3260137 ], [ 79.7946287, 17.3304374 ], [ 79.7927807, 17.3363862 ], [ 79.796134, 17.3539859 ], [ 79.7776543, 17.3689807 ], [ 79.7811677, 17.3810891 ], [ 79.7866992, 17.3827082 ], [ 79.7876827, 17.3842035 ], [ 79.7914318, 17.3839447 ], [ 79.7969823, 17.3934894 ], [ 79.7931273, 17.3969399 ], [ 79.77554, 17.4030156 ], [ 79.7724642, 17.3993518 ], [ 79.7672645, 17.4058494 ], [ 79.7622179, 17.407835 ], [ 79.7610008, 17.4258983 ], [ 79.7620039, 17.4298575 ], [ 79.7543291, 17.4379554 ], [ 79.7520094, 17.439828 ], [ 79.7436289, 17.4291014 ], [ 79.7376284, 17.4303279 ], [ 79.7295616, 17.4283507 ], [ 79.7198394, 17.4344598 ], [ 79.7183474, 17.4341876 ], [ 79.710125, 17.4455195 ], [ 79.7069305, 17.4470147 ], [ 79.7047396, 17.4446947 ], [ 79.7003788, 17.4480534 ], [ 79.6998678, 17.4561321 ], [ 79.6974569, 17.4559196 ], [ 79.6973696, 17.4546457 ], [ 79.6925046, 17.4554819 ], [ 79.6902471, 17.4546278 ], [ 79.6708755, 17.4649886 ], [ 79.6629473, 17.4671369 ], [ 79.6611959, 17.4690877 ], [ 79.6564777, 17.4707872 ], [ 79.6591049, 17.4843453 ], [ 79.6587169, 17.4880194 ], [ 79.6554356, 17.4940104 ], [ 79.6502004, 17.4930747 ], [ 79.6391389, 17.4863118 ], [ 79.6295885, 17.4906587 ], [ 79.6263871, 17.4964735 ], [ 79.6207725, 17.5002844 ], [ 79.616275, 17.4987558 ], [ 79.6128019, 17.4999214 ], [ 79.6096084, 17.4965624 ], [ 79.6036381, 17.4987438 ], [ 79.6028265, 17.5077476 ], [ 79.5992319, 17.5117427 ], [ 79.5991602, 17.5160779 ], [ 79.5951083, 17.5272413 ], [ 79.5896815, 17.528909 ], [ 79.5919616, 17.5300806 ], [ 79.5941686, 17.5378887 ], [ 79.5996822, 17.542008 ], [ 79.6025957, 17.5479517 ], [ 79.6000926, 17.5501475 ], [ 79.600315, 17.5520019 ], [ 79.5924246, 17.557362 ], [ 79.5910897, 17.5637037 ], [ 79.5860412, 17.5709608 ], [ 79.5792956, 17.5761851 ], [ 79.5860276, 17.5829999 ], [ 79.5903543, 17.590211 ], [ 79.5908962, 17.5943138 ], [ 79.5879244, 17.5998301 ], [ 79.585579, 17.6014024 ], [ 79.5844859, 17.6093724 ], [ 79.5783347, 17.6152184 ], [ 79.5776973, 17.6284751 ], [ 79.5870133, 17.6295097 ], [ 79.6138712, 17.6361599 ], [ 79.6164061, 17.621835 ], [ 79.6214826, 17.6241887 ], [ 79.6268527, 17.6230805 ], [ 79.6354883, 17.6233914 ], [ 79.6535063, 17.6279618 ], [ 79.6578611, 17.6437338 ], [ 79.6614339, 17.6495208 ], [ 79.6658772, 17.6502616 ], [ 79.6704914, 17.6493274 ], [ 79.6768763, 17.6505935 ], [ 79.6800581, 17.6541907 ], [ 79.6825315, 17.654711 ], [ 79.6807148, 17.6572582 ], [ 79.6805194, 17.6611724 ], [ 79.6913736, 17.6865294 ], [ 79.7052279, 17.682228 ], [ 79.7141298, 17.6838432 ], [ 79.7136358, 17.6894515 ], [ 79.7167164, 17.6951 ], [ 79.7154415, 17.6978438 ], [ 79.721542, 17.7008406 ], [ 79.7244116, 17.6991332 ], [ 79.7228444, 17.6958908 ], [ 79.7252683, 17.6959493 ], [ 79.7330056, 17.6916736 ], [ 79.7415477, 17.6889421 ], [ 79.7498379, 17.6879135 ], [ 79.7532365, 17.6908186 ], [ 79.7595994, 17.690574 ], [ 79.7677681, 17.6866783 ], [ 79.7714471, 17.6890958 ], [ 79.7712945, 17.6971917 ], [ 79.7789413, 17.7031305 ], [ 79.7818657, 17.7030771 ], [ 79.7838362, 17.7059091 ], [ 79.7910469, 17.708772 ], [ 79.8054155, 17.7002482 ], [ 79.8190112, 17.6993065 ], [ 79.8221755, 17.6953385 ], [ 79.8244162, 17.6951648 ], [ 79.8189728, 17.7090075 ], [ 79.8212283, 17.7128391 ], [ 79.8446128, 17.7187075 ], [ 79.863581, 17.7195649 ], [ 79.8635199, 17.7224036 ], [ 79.8613149, 17.7230977 ], [ 79.8613364, 17.7280613 ], [ 79.8668854, 17.7304375 ], [ 79.8642897, 17.7352124 ], [ 79.8720884, 17.7392631 ], [ 79.8692292, 17.742365 ], [ 79.8733072, 17.7416853 ], [ 79.8787472, 17.7369502 ], [ 79.8933775, 17.7301029 ], [ 79.898952, 17.7412437 ], [ 79.9036712, 17.7468531 ], [ 79.9021256, 17.7509625 ], [ 79.9037253, 17.7616803 ], [ 79.9003508, 17.7667157 ], [ 79.8949854, 17.7686037 ], [ 79.8834444, 17.7793608 ], [ 79.8826178, 17.7901169 ], [ 79.8755666, 17.8084534 ], [ 79.887444, 17.8115254 ], [ 79.8864984, 17.8090998 ], [ 79.8912763, 17.8098684 ], [ 79.8948886, 17.8137344 ], [ 79.9106891, 17.813435 ], [ 79.9089409, 17.8125487 ], [ 79.9109747, 17.8047207 ], [ 79.9099524, 17.80418 ], [ 79.9153761, 17.7988473 ], [ 79.9177749, 17.8094044 ], [ 79.9309327, 17.8187063 ], [ 79.9347191, 17.8263555 ], [ 79.9343994, 17.8340933 ], [ 79.9386803, 17.8406137 ], [ 79.9428182, 17.8394266 ], [ 79.9472086, 17.8356773 ], [ 79.9515553, 17.8441141 ], [ 79.9527503, 17.8607379 ], [ 79.9608782, 17.8642842 ], [ 79.9753819, 17.8614048 ], [ 79.9801145, 17.87099 ], [ 79.9828598, 17.873546 ], [ 79.9812654, 17.8766791 ], [ 79.9846728, 17.8770444 ], [ 79.9864794, 17.879354 ], [ 79.9885604, 17.8796573 ], [ 79.9889094, 17.8816109 ], [ 79.9911664, 17.8814128 ], [ 79.9917853, 17.8866847 ], [ 79.9942435, 17.89084 ], [ 79.9909671, 17.8963738 ], [ 79.9910817, 17.8994929 ], [ 79.9887403, 17.904839 ], [ 79.9942216, 17.913987 ], [ 79.9942422, 17.917011 ], [ 79.9905892, 17.9200714 ], [ 79.9893852, 17.927305 ], [ 79.9856212, 17.9311876 ], [ 79.9858415, 17.9353918 ], [ 79.9835199, 17.9419536 ], [ 79.979248, 17.9466756 ], [ 79.9767299, 17.952378 ], [ 79.9809086, 17.9490572 ], [ 79.9856944, 17.9536699 ], [ 79.9858483, 17.9616388 ], [ 79.9876481, 17.9650286 ], [ 79.9880192, 17.9694273 ], [ 79.9838781, 17.9709406 ], [ 79.9863647, 17.9916518 ], [ 79.9939548, 18.0009083 ], [ 79.9882432, 18.0048133 ], [ 79.9793501, 18.0202494 ], [ 79.9807882, 18.0391044 ], [ 79.9848694, 18.0537579 ], [ 79.9812274, 18.0605963 ], [ 79.9918928, 18.1075435 ], [ 80.0180666, 18.1170271 ] ] ] } }
]
}
