{
"type": "FeatureCollection",
"name": "3611",
"crs": { "type": "name", "properties": { "name": "urn:ogc:def:crs:OGC:1.3:CRS84" } },
"features": [
{ "type": "Feature", "properties": { "code": "3611", "name": "Warangal", "type": "district" }, "geometry": { "type": "Polygon", "coordinates": [ [ [ 79.9918928, 18.1075435 ], [ 79.9812274, 18.0605963 ], [ 79.9848694, 18.0537579 ], [ 79.9807882, 18.0391044 ], [ 79.9793501, 18.0202494 ], [ 79.9882432, 18.0048133 ], [ 79.9939548, 18.0009083 ], [ 79.9863647, 17.9916518 ], [ 79.9838781, 17.9709406 ], [ 79.9880192, 17.9694273 ], [ 79.9876481, 17.9650286 ], [ 79.9858483, 17.9616388 ], [ 79.9856944, 17.9536699 ], [ 79.9809086, 17.9490572 ], [ 79.9767299, 17.952378 ], [ 79.979248, 17.9466756 ], [ 79.9835199, 17.9419536 ], [ 79.9858415, 17.9353918 ], [ 79.9856212, 17.9311876 ], [ 79.9893852, 17.927305 ], [ 79.9905892, 17.9200714 ], [ 79.9942422, 17.917011 ], [ 79.9942216, 17.913987 ], [ 79.9887403, 17.904839 ], [ 79.9941882, 17.8894938 ], [ 79.9917853, 17.8866847 ], [ 79.9911664, 17.8814128 ], [ 79.9889094, 17.8816109 ], [ 79.9885604, 17.8796573 ], [ 79.9864794, 17.879354 ], [ 79.9846728, 17.8770444 ], [ 79.9812654, 17.8766791 ], [ 79.9828598, 17.873546 ], [ 79.9801145, 17.87099 ], [ 79.9753819, 17.8614048 ], [ 79.9608782, 17.8642842 ], [ 79.9527503, 17.8607379 ], [ 79.9515553, 17.8441141 ], [ 79.9472086, 17.8356773 ], [ 79.9428182, 17.8394266 ], [ 79.9386803, 17.8406137 ], [ 79.9343994, 17.8340933 ], [ 79.9347191, 17.8263555 ], [ 79.9309327, 17.8187063 ], [ 79.9177749, 17.8094044 ], [ 79.9153761, 17.7988473 ], [ 79.9099524, 17.80418 ], [ 79.9109747, 17.8047207 ], [ 79.9089409, 17.8125487 ], [ 79.9106891, 17.813435 ], [ 79.8948886, 17.8137344 ], [ 79.8912763, 17.8098684 ], [ 79.8864984, 17.8090998 ], [ 79.887444, 17.8115254 ], [ 79.8755666, 17.8084534 ], [ 79.8826178, 17.7901169 ], [ 79.8834444, 17.7793608 ], [ 79.8949854, 17.7686037 ], [ 79.9003508, 17.7667157 ], [ 79.9037253, 17.7616803 ], [ 79.9021256, 17.7509625 ], [ 79.9036712, 17.7468531 ], [ 79.898952, 17.7412437 ], [ 79.8933775, 17.7301029 ], [ 79.8787472, 17.7369502 ], [ 79.8733072, 17.7416853 ], [ 79.8692292, 17.742365 ], [ 79.8720884, 17.7392631 ], [ 79.8642897, 17.7352124 ], [ 79.8668854, 17.7304375 ], [ 79.8613364, 17.7280613 ], [ 79.8613149, 17.7230977 ], [ 79.8635199, 17.7224036 ], [ 79.863581, 17.7195649 ], [ 79.8446128, 17.7187075 ], [ 79.8212283, 17.7128391 ], [ 79.8189728, 17.7090075 ], [ 79.8244162, 17.6951648 ], [ 79.8221755, 17.6953385 ], [ 79.8190112, 17.6993065 ], [ 79.8054155, 17.7002482 ], [ 79.7910469, 17.708772 ], [ 79.7838362, 17.7059091 ], [ 79.7818657, 17.7030771 ], [ 79.7789413, 17.7031305 ], [ 79.7712945, 17.6971917 ], [ 79.7714471, 17.6890958 ], [ 79.7677681, 17.6866783 ], [ 79.7595994, 17.690574 ], [ 79.7532365, 17.6908186 ], [ 79.7498379, 17.6879135 ], [ 79.7415477, 17.6889421 ], [ 79.7330056, 17.6916736 ], [ 79.7252683, 17.6959493 ], [ 79.7228444, 17.6958908 ], [ 79.7244116, 17.6991332 ], [ 79.721542, 17.7008406 ], [ 79.7154415, 17.6978438 ], [ 79.7167164, 17.6951 ], [ 79.7136358, 17.6894515 ], [ 79.7141298, 17.6838432 ], [ 79.7052279, 17.682228 ], [ 79.6913736, 17.6865294 ], [ 79.6805194, 17.6611724 ], [ 79.6807148, 17.6572582 ], [ 79.6825315, 17.654711 ], [ 79.6800581, 17.6541907 ], [ 79.6780866, 17.6509101 ], [ 79.6760613, 17.6504095 ], [ 79.6704914, 17.6493274 ], [ 79.6623459, 17.6501618 ], [ 79.6581969, 17.644594 ], [ 79.6535063, 17.6279618 ], [ 79.6354883, 17.6233914 ], [ 79.6268527, 17.6230805 ], [ 79.6214826, 17.6241887 ], [ 79.6164061, 17.621835 ], [ 79.6138712, 17.6361599 ], [ 79.5870133, 17.6295097 ], [ 79.5776973, 17.6284751 ], [ 79.5778391, 17.6203655 ], [ 79.572307, 17.6178144 ], [ 79.5636905, 17.6184911 ], [ 79.551891, 17.6271415 ], [ 79.5458325, 17.6300847 ], [ 79.5404722, 17.6378906 ], [ 79.5358396, 17.6305913 ], [ 79.5244599, 17.6331074 ], [ 79.5222211, 17.6613607 ], [ 79.5035446, 17.6610892 ], [ 79.4898348, 17.662915 ], [ 79.4911136, 17.6658816 ], [ 79.48132, 17.6748401 ], [ 79.4897303, 17.6900106 ], [ 79.4905631, 17.6968091 ], [ 79.489529, 17.6988792 ], [ 79.4809967, 17.7053122 ], [ 79.4868841, 17.7114927 ], [ 79.4950092, 17.7155092 ], [ 79.4989419, 17.7166396 ], [ 79.5022895, 17.7154062 ], [ 79.5041864, 17.7241909 ], [ 79.4953356, 17.7383348 ], [ 79.4908223, 17.7417897 ], [ 79.4810017, 17.7452421 ], [ 79.4864357, 17.7526498 ], [ 79.4904835, 17.7544727 ], [ 79.4930742, 17.7543268 ], [ 79.5053409, 17.748616 ], [ 79.5108722, 17.7668591 ], [ 79.5145911, 17.7741021 ], [ 79.5142394, 17.7949739 ], [ 79.5218678, 17.7938824 ], [ 79.5252343, 17.7905845 ], [ 79.5358331, 17.790366 ], [ 79.5486847, 17.7868301 ], [ 79.5528937, 17.7867946 ], [ 79.5646626, 17.7954398 ], [ 79.5641092, 17.8026292 ], [ 79.5591766, 17.8078555 ], [ 79.5742085, 17.8133999 ], [ 79.5777629, 17.8112229 ], [ 79.5862929, 17.8156715 ], [ 79.5940965, 17.8231994 ], [ 79.6136296, 17.8211164 ], [ 79.6215895, 17.8288157 ], [ 79.6209151, 17.8413475 ], [ 79.6145466, 17.850054 ], [ 79.6185505, 17.8591652 ], [ 79.6171868, 17.8684982 ], [ 79.6141608, 17.8687159 ], [ 79.6073805, 17.8722134 ], [ 79.6042804, 17.8770868 ], [ 79.5898074, 17.8830872 ], [ 79.5935485, 17.8907737 ], [ 79.5936219, 17.8973823 ], [ 79.588026, 17.897675 ], [ 79.58391, 17.899497 ], [ 79.5599708, 17.9167674 ], [ 79.5580952, 17.9238826 ], [ 79.5541842, 17.9300667 ], [ 79.55959, 17.9321518 ], [ 79.5694096, 17.929614 ], [ 79.5681844, 17.9407775 ], [ 79.5707988, 17.9593186 ], [ 79.5681844, 17.9670058 ], [ 79.568422, 17.970171 ], [ 79.5718419, 17.9749916 ], [ 79.5782352, 17.9746524 ], [ 79.5810191, 17.9767273 ], [ 79.5822075, 17.9780838 ], [ 79.5826828, 17.9848659 ], [ 79.591477, 17.9869005 ], [ 79.591477, 17.9963949 ], [ 79.5957552, 18.0226149 ], [ 79.598132, 18.0269092 ], [ 79.5971813, 18.0298474 ], [ 79.5982058, 18.035711 ], [ 79.6010066, 18.0315088 ], [ 79.6040167, 18.0301935 ], [ 79.6119246, 18.0328728 ], [ 79.6208399, 18.0397054 ], [ 79.641866, 18.0381805 ], [ 79.6426605, 18.0428744 ], [ 79.6460473, 18.03892 ], [ 79.6509909, 18.0422391 ], [ 79.666623, 18.0338862 ], [ 79.6659974, 18.0328087 ], [ 79.6716598, 18.0271126 ], [ 79.6707417, 18.0237357 ], [ 79.6763825, 18.0153492 ], [ 79.6766449, 18.0101744 ], [ 79.6785785, 18.0074482 ], [ 79.6852381, 18.0049704 ], [ 79.6908541, 18.0002857 ], [ 79.6932619, 18.0001997 ], [ 79.6961939, 18.0021557 ], [ 79.6991779, 17.9987744 ], [ 79.7079095, 17.99699 ], [ 79.7192412, 18.0025486 ], [ 79.7308066, 18.0051666 ], [ 79.731329, 18.0074274 ], [ 79.7367621, 18.0111125 ], [ 79.7427609, 18.0188607 ], [ 79.748562, 18.03487 ], [ 79.759657, 18.0397826 ], [ 79.7600544, 18.0472598 ], [ 79.7613854, 18.0465366 ], [ 79.7672911, 18.0544887 ], [ 79.7770298, 18.0543049 ], [ 79.7792548, 18.049273 ], [ 79.7855402, 18.0488873 ], [ 79.7920975, 18.0450032 ], [ 79.7936444, 18.0472194 ], [ 79.7935879, 18.0511106 ], [ 79.792171, 18.0522539 ], [ 79.7925587, 18.0561104 ], [ 79.7937567, 18.0566839 ], [ 79.790233, 18.0602924 ], [ 79.7921128, 18.0618443 ], [ 79.7933296, 18.0673262 ], [ 79.792569, 18.0747375 ], [ 79.7939, 18.0785335 ], [ 79.8034072, 18.0770874 ], [ 79.8098926, 18.0781141 ], [ 79.8156115, 18.0926717 ], [ 79.8232236, 18.0943862 ], [ 79.8310079, 18.092752 ], [ 79.8372245, 18.0949001 ], [ 79.8495903, 18.0940341 ], [ 79.862941, 18.095403 ], [ 79.8638403, 18.0935391 ], [ 79.8871524, 18.0981989 ], [ 79.8844931, 18.0857218 ], [ 79.890543, 18.0853822 ], [ 79.89328, 18.0835957 ], [ 79.9075386, 18.0846751 ], [ 79.93633, 18.0836049 ], [ 79.9507602, 18.0859157 ], [ 79.9577963, 18.0894769 ], [ 79.9651002, 18.1006088 ], [ 79.9754466, 18.1072328 ], [ 79.9794798, 18.1119112 ], [ 79.9918928, 18.1075435 ] ] ] } }
]
}
