{
"type": "FeatureCollection",
"name": "3615",
"crs": { "type": "name", "properties": { "name": "urn:ogc:def:crs:OGC:1.3:CRS84" } },
"features": [
{ "type": "Feature", "properties": { "code": "3615", "name": "Kamareddy", "type": "district" }, "geometry": { "type": "Polygon", "coordinates": [ [ [ 77.7384996, 18.5567887 ], [ 77.7485733, 18.5426252 ], [ 77.7568415, 18.5361113 ], [ 77.757714, 18.5303161 ], [ 77.76147, 18.525615 ], [ 77.7606879, 18.512144 ], [ 77.7566872, 18.5024901 ], [ 77.7730235, 18.5028706 ], [ 77.7739748, 18.5049613 ], [ 77.7783611, 18.5056089 ], [ 77.7836836, 18.5039909 ], [ 77.7863, 18.4994149 ], [ 77.7894632, 18.4970735 ], [ 77.8000648, 18.5010391 ], [ 77.8066811, 18.500711 ], [ 77.8114289, 18.5026232 ], [ 77.8196413, 18.5023103 ], [ 77.8215593, 18.5047382 ], [ 77.8241672, 18.5038353 ], [ 77.8373957, 18.5064724 ], [ 77.8537054, 18.5032935 ], [ 77.864697, 18.5079654 ], [ 77.8763339, 18.5026993 ], [ 77.8813153, 18.5017388 ], [ 77.8851485, 18.4952516 ], [ 77.8892877, 18.4924326 ], [ 77.8952191, 18.4947776 ], [ 77.9000511, 18.4918403 ], [ 77.9076679, 18.4931661 ], [ 77.9236755, 18.4913888 ], [ 77.9375416, 18.4914599 ], [ 77.9499154, 18.4872152 ], [ 77.9529431, 18.4820185 ], [ 77.9708496, 18.4742774 ], [ 77.9749381, 18.4704936 ], [ 77.9763055, 18.4661808 ], [ 77.9808619, 18.4617019 ], [ 77.9815235, 18.4592334 ], [ 77.9748581, 18.4462764 ], [ 78.022139, 18.4361486 ], [ 78.0378389, 18.4648895 ], [ 78.036437, 18.4727857 ], [ 78.0375542, 18.4829747 ], [ 78.0382238, 18.4873294 ], [ 78.0413569, 18.4893761 ], [ 78.0363882, 18.4939327 ], [ 78.0361643, 18.4989187 ], [ 78.0394198, 18.5006506 ], [ 78.0341672, 18.5089273 ], [ 78.039479, 18.5177634 ], [ 78.062155, 18.5138107 ], [ 78.0698678, 18.5083404 ], [ 78.0697616, 18.5111678 ], [ 78.0762463, 18.5145533 ], [ 78.0848349, 18.5090923 ], [ 78.0912297, 18.5086536 ], [ 78.1035425, 18.5041689 ], [ 78.1069548, 18.4977996 ], [ 78.1059243, 18.4915575 ], [ 78.1180618, 18.492677 ], [ 78.1212703, 18.4882211 ], [ 78.1333524, 18.4846313 ], [ 78.134896, 18.4822987 ], [ 78.1595869, 18.4772555 ], [ 78.1664501, 18.4838913 ], [ 78.1727919, 18.4977466 ], [ 78.1757615, 18.5009238 ], [ 78.1775934, 18.5009977 ], [ 78.1859599, 18.5071883 ], [ 78.19217, 18.5087328 ], [ 78.1928678, 18.503797 ], [ 78.2004999, 18.5052209 ], [ 78.2022606, 18.5012905 ], [ 78.2075583, 18.5006648 ], [ 78.2124398, 18.4983628 ], [ 78.2168753, 18.4989613 ], [ 78.224884, 18.490836 ], [ 78.2364199, 18.4921239 ], [ 78.2425534, 18.4863459 ], [ 78.2499736, 18.4864102 ], [ 78.2581218, 18.4758677 ], [ 78.2547618, 18.4719645 ], [ 78.2552667, 18.4667598 ], [ 78.2536536, 18.4666164 ], [ 78.2573675, 18.4607221 ], [ 78.2545267, 18.4582207 ], [ 78.2597563, 18.4526811 ], [ 78.2682761, 18.4529598 ], [ 78.2696568, 18.4506245 ], [ 78.2711932, 18.4533335 ], [ 78.2749045, 18.4542532 ], [ 78.2752736, 18.4580031 ], [ 78.280838, 18.4537905 ], [ 78.2831254, 18.4545778 ], [ 78.2870346, 18.4534976 ], [ 78.29777, 18.455908 ], [ 78.3072665, 18.4539809 ], [ 78.3076434, 18.4562441 ], [ 78.3139014, 18.4597965 ], [ 78.316597, 18.4651831 ], [ 78.3259312, 18.4655084 ], [ 78.3294392, 18.4668769 ], [ 78.334509, 18.4636114 ], [ 78.3451313, 18.4630677 ], [ 78.349466, 18.4598849 ], [ 78.3503784, 18.4574222 ], [ 78.3544265, 18.459189 ], [ 78.3637795, 18.4543162 ], [ 78.3837415, 18.4539448 ], [ 78.3856622, 18.4589117 ], [ 78.3924211, 18.4661946 ], [ 78.3988046, 18.4820137 ], [ 78.405901, 18.4826705 ], [ 78.4246269, 18.4749811 ], [ 78.4422831, 18.4778984 ], [ 78.44512, 18.4832757 ], [ 78.4525752, 18.4827008 ], [ 78.4546935, 18.4780442 ], [ 78.4522395, 18.472264 ], [ 78.4562242, 18.4679777 ], [ 78.4607546, 18.4653774 ], [ 78.4643104, 18.460409 ], [ 78.4645523, 18.454912 ], [ 78.4677641, 18.4474957 ], [ 78.4765931, 18.4407739 ], [ 78.4876761, 18.4394593 ], [ 78.4920825, 18.4377699 ], [ 78.4970933, 18.442218 ], [ 78.4986263, 18.4455672 ], [ 78.5061747, 18.4514711 ], [ 78.5181844, 18.4564083 ], [ 78.5184322, 18.4585796 ], [ 78.521315, 18.4614756 ], [ 78.5209866, 18.4644413 ], [ 78.524956, 18.4633664 ], [ 78.5301764, 18.4654929 ], [ 78.5330067, 18.4628257 ], [ 78.5430886, 18.4598995 ], [ 78.5473645, 18.4527718 ], [ 78.5540747, 18.4308266 ], [ 78.5517886, 18.4269694 ], [ 78.5414665, 18.4200158 ], [ 78.5419085, 18.4124205 ], [ 78.5474794, 18.4049025 ], [ 78.5649752, 18.3905154 ], [ 78.5629372, 18.3854788 ], [ 78.5497136, 18.3877405 ], [ 78.5451687, 18.3873602 ], [ 78.5413895, 18.3889751 ], [ 78.5315421, 18.3875407 ], [ 78.5302136, 18.3798012 ], [ 78.5353991, 18.3700927 ], [ 78.533364, 18.3605271 ], [ 78.5438892, 18.3510927 ], [ 78.5462439, 18.3453433 ], [ 78.5445158, 18.3429726 ], [ 78.5495452, 18.3364118 ], [ 78.5372633, 18.3178217 ], [ 78.5381891, 18.3090227 ], [ 78.5412264, 18.3000577 ], [ 78.53395, 18.2911337 ], [ 78.5286263, 18.2917582 ], [ 78.523962, 18.2879824 ], [ 78.523752, 18.2818823 ], [ 78.5212057, 18.2787134 ], [ 78.5255354, 18.2753278 ], [ 78.5294018, 18.2742381 ], [ 78.5318987, 18.2714997 ], [ 78.5403305, 18.2731903 ], [ 78.5432973, 18.2702844 ], [ 78.5419104, 18.267524 ], [ 78.5437087, 18.264621 ], [ 78.553353, 18.2580519 ], [ 78.553527, 18.2510212 ], [ 78.5557877, 18.2477201 ], [ 78.5595409, 18.2360399 ], [ 78.567571, 18.2231913 ], [ 78.5611898, 18.2071076 ], [ 78.5663311, 18.2027069 ], [ 78.5693909, 18.1959733 ], [ 78.5683491, 18.1879733 ], [ 78.5689654, 18.1801464 ], [ 78.5652177, 18.1756699 ], [ 78.5625911, 18.1768664 ], [ 78.5579859, 18.1763863 ], [ 78.5536661, 18.1785752 ], [ 78.5499732, 18.1785913 ], [ 78.5477157, 18.1811785 ], [ 78.5444858, 18.1798023 ], [ 78.5426756, 18.1830354 ], [ 78.5401638, 18.1826689 ], [ 78.5370882, 18.1866586 ], [ 78.5323439, 18.184482 ], [ 78.5270607, 18.1855586 ], [ 78.5219161, 18.182393 ], [ 78.5199876, 18.1728836 ], [ 78.5158406, 18.1663957 ], [ 78.512089, 18.1703472 ], [ 78.5022121, 18.1754304 ], [ 78.4981969, 18.1662857 ], [ 78.4922717, 18.158556 ], [ 78.4914705, 18.1555428 ], [ 78.4837773, 18.1483158 ], [ 78.4832977, 18.1416493 ], [ 78.4915328, 18.1356523 ], [ 78.4915223, 18.1325289 ], [ 78.4847563, 18.1303726 ], [ 78.4798328, 18.126046 ], [ 78.4717953, 18.1275565 ], [ 78.4648737, 18.1244987 ], [ 78.4625699, 18.1219412 ], [ 78.4581876, 18.1206294 ], [ 78.4415536, 18.1300837 ], [ 78.4462887, 18.1405743 ], [ 78.4457685, 18.1446461 ], [ 78.4409977, 18.1559448 ], [ 78.4330998, 18.1629148 ], [ 78.4270922, 18.1565157 ], [ 78.4247678, 18.1563577 ], [ 78.422551, 18.1518526 ], [ 78.4213685, 18.1412332 ], [ 78.4183118, 18.1370454 ], [ 78.4145975, 18.1351516 ], [ 78.4118656, 18.130673 ], [ 78.4076262, 18.1292621 ], [ 78.4000493, 18.1309688 ], [ 78.3966147, 18.1290186 ], [ 78.3896636, 18.1287876 ], [ 78.3845263, 18.1234486 ], [ 78.3750834, 18.1350524 ], [ 78.3757784, 18.1415813 ], [ 78.374398, 18.1446229 ], [ 78.3631799, 18.1467711 ], [ 78.3661555, 18.1509229 ], [ 78.3653809, 18.1547613 ], [ 78.357814, 18.171829 ], [ 78.3378409, 18.1800935 ], [ 78.3361409, 18.1828877 ], [ 78.337296, 18.1887477 ], [ 78.332466, 18.1961969 ], [ 78.3126879, 18.2023503 ], [ 78.3138091, 18.1790361 ], [ 78.2977033, 18.1619041 ], [ 78.2901474, 18.1586082 ], [ 78.2777896, 18.1431359 ], [ 78.2569539, 18.1395784 ], [ 78.2486595, 18.15541 ], [ 78.2414781, 18.158688 ], [ 78.2379179, 18.1619724 ], [ 78.2294961, 18.1706425 ], [ 78.2275126, 18.1753265 ], [ 78.2163852, 18.1754838 ], [ 78.2217824, 18.1825966 ], [ 78.2173816, 18.2076155 ], [ 78.2152604, 18.2122887 ], [ 78.2065211, 18.2175149 ], [ 78.1949975, 18.2069328 ], [ 78.1881374, 18.2067911 ], [ 78.180607, 18.2045448 ], [ 78.1786815, 18.1950508 ], [ 78.1738824, 18.1842645 ], [ 78.1688451, 18.1673152 ], [ 78.1707263, 18.1566374 ], [ 78.1692857, 18.1529473 ], [ 78.1752258, 18.1456129 ], [ 78.1770409, 18.1384733 ], [ 78.1798096, 18.1350095 ], [ 78.1803976, 18.1240823 ], [ 78.1768928, 18.118286 ], [ 78.1796206, 18.0975196 ], [ 78.1742097, 18.0930719 ], [ 78.1712552, 18.0927189 ], [ 78.1602996, 18.0864071 ], [ 78.1540978, 18.085711 ], [ 78.1511749, 18.0823432 ], [ 78.145948, 18.0709406 ], [ 78.1431443, 18.0683061 ], [ 78.1384081, 18.0687738 ], [ 78.1344207, 18.0714282 ], [ 78.1247172, 18.0699918 ], [ 78.1168967, 18.072662 ], [ 78.1151632, 18.0764622 ], [ 78.1158525, 18.0838916 ], [ 78.1149625, 18.0890571 ], [ 78.1111103, 18.0925759 ], [ 78.1063353, 18.0934627 ], [ 78.1032575, 18.0927774 ], [ 78.1011307, 18.0904529 ], [ 78.0988987, 18.0739888 ], [ 78.0971552, 18.0704887 ], [ 78.0938825, 18.0683817 ], [ 78.0897055, 18.0683392 ], [ 78.085352, 18.0722587 ], [ 78.0835461, 18.0673252 ], [ 78.0788827, 18.0687957 ], [ 78.0766917, 18.0720931 ], [ 78.0743136, 18.0721792 ], [ 78.0731186, 18.0702175 ], [ 78.0740696, 18.0655454 ], [ 78.0715693, 18.059867 ], [ 78.0689159, 18.0621487 ], [ 78.0688976, 18.0653376 ], [ 78.0661919, 18.0685975 ], [ 78.0675903, 18.0701547 ], [ 78.064052, 18.0708106 ], [ 78.0640764, 18.0718866 ], [ 78.0595078, 18.0717803 ], [ 78.0598823, 18.0751023 ], [ 78.0554394, 18.0793185 ], [ 78.0536095, 18.0790083 ], [ 78.0523491, 18.073606 ], [ 78.0505704, 18.0737439 ], [ 78.046812, 18.0798842 ], [ 78.0440352, 18.0797123 ], [ 78.0440303, 18.0778454 ], [ 78.0404524, 18.0752415 ], [ 78.0429058, 18.0691631 ], [ 78.0450835, 18.0681032 ], [ 78.0421476, 18.06557 ], [ 78.037425, 18.0694526 ], [ 78.0344368, 18.0643286 ], [ 78.0340861, 18.0681576 ], [ 78.0316723, 18.0688214 ], [ 78.032744, 18.0704067 ], [ 78.0303864, 18.0707321 ], [ 78.0286327, 18.0737674 ], [ 78.0327415, 18.0765946 ], [ 78.0293748, 18.0838647 ], [ 78.0274085, 18.0816361 ], [ 78.0198733, 18.0817841 ], [ 78.0178942, 18.0865478 ], [ 78.0121675, 18.0901471 ], [ 78.0090533, 18.0886283 ], [ 78.01588, 18.0795364 ], [ 78.0140793, 18.0784216 ], [ 78.0142727, 18.0758431 ], [ 78.0130824, 18.0754224 ], [ 78.0109827, 18.0811113 ], [ 78.0091178, 18.0809631 ], [ 78.0090411, 18.0843883 ], [ 78.0043389, 18.0877011 ], [ 78.001845, 18.0872153 ], [ 78.0007533, 18.0812814 ], [ 77.9986693, 18.0838606 ], [ 77.9986813, 18.094763 ], [ 77.9951032, 18.1069612 ], [ 77.9887242, 18.1108595 ], [ 77.9756633, 18.1149591 ], [ 77.9396916, 18.1117251 ], [ 77.9368257, 18.1100229 ], [ 77.9346633, 18.1040668 ], [ 77.9298227, 18.0983542 ], [ 77.9259017, 18.09748 ], [ 77.9110186, 18.0999401 ], [ 77.9065965, 18.0972966 ], [ 77.9027354, 18.0972543 ], [ 77.8988503, 18.0936906 ], [ 77.8960354, 18.0928382 ], [ 77.8956971, 18.0912657 ], [ 77.8951729, 18.0933656 ], [ 77.8987951, 18.0939431 ], [ 77.9018841, 18.0973028 ], [ 77.9011044, 18.0990741 ], [ 77.898776, 18.0992944 ], [ 77.9013335, 18.0999719 ], [ 77.9054932, 18.0978031 ], [ 77.9065872, 18.0983587 ], [ 77.9054935, 18.0999229 ], [ 77.9079993, 18.0998674 ], [ 77.9069278, 18.1011834 ], [ 77.9053962, 18.1008438 ], [ 77.9056353, 18.1059814 ], [ 77.9088288, 18.1014775 ], [ 77.9126249, 18.1024953 ], [ 77.914097, 18.1009086 ], [ 77.915667, 18.1022744 ], [ 77.9148042, 18.1035476 ], [ 77.9179953, 18.1063659 ], [ 77.9215262, 18.1034841 ], [ 77.9268538, 18.1041494 ], [ 77.9293781, 18.1160084 ], [ 77.9248115, 18.116401 ], [ 77.9224126, 18.1137008 ], [ 77.9201517, 18.1156081 ], [ 77.918618, 18.1132663 ], [ 77.9162178, 18.1160488 ], [ 77.9131437, 18.1158219 ], [ 77.9141779, 18.1198254 ], [ 77.9091319, 18.1199995 ], [ 77.91039, 18.1224465 ], [ 77.9089781, 18.1241198 ], [ 77.911831, 18.1253612 ], [ 77.9173067, 18.1248804 ], [ 77.9202798, 18.1284871 ], [ 77.9234879, 18.1278927 ], [ 77.9252019, 18.1312763 ], [ 77.9235693, 18.1335572 ], [ 77.9202408, 18.1335985 ], [ 77.919083, 18.1364275 ], [ 77.9248607, 18.1417718 ], [ 77.9274352, 18.1393937 ], [ 77.9304733, 18.1402392 ], [ 77.932297, 18.1421277 ], [ 77.9291459, 18.1448471 ], [ 77.9355542, 18.1489872 ], [ 77.9311793, 18.1491202 ], [ 77.9310282, 18.1534258 ], [ 77.9279346, 18.1557254 ], [ 77.9232502, 18.1527673 ], [ 77.9216132, 18.1532221 ], [ 77.9204652, 18.1502885 ], [ 77.922797, 18.1509268 ], [ 77.9252287, 18.1493606 ], [ 77.9230709, 18.1477256 ], [ 77.9209059, 18.1484136 ], [ 77.918575, 18.145199 ], [ 77.9160015, 18.1485533 ], [ 77.9143912, 18.1484073 ], [ 77.9159998, 18.1436628 ], [ 77.9148439, 18.1413392 ], [ 77.9099579, 18.1472419 ], [ 77.9058566, 18.1442135 ], [ 77.9024523, 18.1446062 ], [ 77.9042019, 18.1524151 ], [ 77.8946625, 18.1565751 ], [ 77.8958915, 18.1615709 ], [ 77.903407, 18.168139 ], [ 77.900216, 18.1730856 ], [ 77.9008427, 18.183213 ], [ 77.9036861, 18.1923593 ], [ 77.902034, 18.1928454 ], [ 77.8983574, 18.1894698 ], [ 77.8894892, 18.1899584 ], [ 77.8822839, 18.1866886 ], [ 77.8738475, 18.1891932 ], [ 77.8686512, 18.1891565 ], [ 77.8640774, 18.1916946 ], [ 77.8624385, 18.1943546 ], [ 77.8638819, 18.1974322 ], [ 77.8630927, 18.1998496 ], [ 77.8650143, 18.2021873 ], [ 77.8538098, 18.2075361 ], [ 77.8487951, 18.2017386 ], [ 77.8448335, 18.2016443 ], [ 77.8399715, 18.2037761 ], [ 77.8293073, 18.2003213 ], [ 77.8287007, 18.1948811 ], [ 77.8269731, 18.1939556 ], [ 77.8211176, 18.1964541 ], [ 77.8109701, 18.1957169 ], [ 77.80389, 18.201621 ], [ 77.7965602, 18.2046924 ], [ 77.7930647, 18.2026912 ], [ 77.7912066, 18.1999333 ], [ 77.787606, 18.198699 ], [ 77.7864505, 18.1964335 ], [ 77.7798159, 18.1998341 ], [ 77.7769466, 18.1960055 ], [ 77.7766597, 18.1904562 ], [ 77.7711893, 18.1897221 ], [ 77.7695754, 18.1881332 ], [ 77.7680053, 18.1915256 ], [ 77.7600916, 18.1991307 ], [ 77.7584631, 18.2019526 ], [ 77.7584767, 18.2050353 ], [ 77.7420543, 18.205258 ], [ 77.7433884, 18.2243814 ], [ 77.7407931, 18.225734 ], [ 77.7378002, 18.2240809 ], [ 77.736369, 18.2349238 ], [ 77.7280617, 18.2333591 ], [ 77.7302363, 18.2454464 ], [ 77.728852, 18.2533557 ], [ 77.7196383, 18.2602864 ], [ 77.7116407, 18.2580213 ], [ 77.7068294, 18.2609762 ], [ 77.6875849, 18.2602413 ], [ 77.6862607, 18.2665065 ], [ 77.6647114, 18.2836568 ], [ 77.6486771, 18.284381 ], [ 77.64203, 18.2860723 ], [ 77.6256261, 18.2840105 ], [ 77.6199397, 18.2744952 ], [ 77.6187083, 18.2743653 ], [ 77.600589, 18.2754613 ], [ 77.6014795, 18.2780057 ], [ 77.6042999, 18.2787662 ], [ 77.6054172, 18.281349 ], [ 77.5818493, 18.2853842 ], [ 77.5761613, 18.288733 ], [ 77.5725571, 18.2933023 ], [ 77.5702102, 18.2925303 ], [ 77.5669377, 18.2872809 ], [ 77.5613409, 18.2849492 ], [ 77.5514013, 18.2919129 ], [ 77.5525493, 18.2969767 ], [ 77.5648208, 18.3060586 ], [ 77.5713961, 18.3088291 ], [ 77.5704795, 18.3181125 ], [ 77.563866, 18.3222972 ], [ 77.5580236, 18.3314164 ], [ 77.5302305, 18.3391674 ], [ 77.5244671, 18.3432385 ], [ 77.5223412, 18.3464671 ], [ 77.5202063, 18.3571752 ], [ 77.5240457, 18.3642004 ], [ 77.5254719, 18.3727051 ], [ 77.5356113, 18.3807485 ], [ 77.5386, 18.3858822 ], [ 77.5406413, 18.386864 ], [ 77.5431861, 18.386089 ], [ 77.545917, 18.3886866 ], [ 77.551602, 18.3888977 ], [ 77.5526804, 18.4016907 ], [ 77.5567561, 18.4171433 ], [ 77.5564683, 18.4194283 ], [ 77.5369007, 18.4242459 ], [ 77.5373127, 18.4262792 ], [ 77.5281666, 18.428913 ], [ 77.5277271, 18.4427028 ], [ 77.5374509, 18.4449866 ], [ 77.5447061, 18.444133 ], [ 77.5602008, 18.4372836 ], [ 77.5641809, 18.4373026 ], [ 77.5682945, 18.4394689 ], [ 77.5690689, 18.4428662 ], [ 77.574304, 18.4417987 ], [ 77.583555, 18.4451359 ], [ 77.5860967, 18.4494025 ], [ 77.5830005, 18.4499409 ], [ 77.5836043, 18.4562058 ], [ 77.5641138, 18.4600355 ], [ 77.5640378, 18.4610217 ], [ 77.5507619, 18.4604095 ], [ 77.5485634, 18.4685813 ], [ 77.560245, 18.4686218 ], [ 77.5610678, 18.4702552 ], [ 77.572861, 18.4698149 ], [ 77.5763693, 18.4867846 ], [ 77.5922504, 18.4847153 ], [ 77.594283, 18.4769101 ], [ 77.6031261, 18.4768475 ], [ 77.6036102, 18.4836783 ], [ 77.6062256, 18.4891969 ], [ 77.6036754, 18.4929392 ], [ 77.6047069, 18.4963668 ], [ 77.5943972, 18.4961963 ], [ 77.5942871, 18.4979062 ], [ 77.5859069, 18.5039961 ], [ 77.5877528, 18.5128566 ], [ 77.5970677, 18.5158834 ], [ 77.6002815, 18.5222965 ], [ 77.5988257, 18.5242065 ], [ 77.6004366, 18.5272958 ], [ 77.596567, 18.5302 ], [ 77.5925093, 18.5266191 ], [ 77.5906911, 18.5266657 ], [ 77.5920578, 18.5323219 ], [ 77.5953035, 18.5355417 ], [ 77.5963694, 18.5489414 ], [ 77.6037998, 18.5502621 ], [ 77.6100684, 18.5498821 ], [ 77.6105644, 18.5445403 ], [ 77.6124963, 18.5444793 ], [ 77.6131894, 18.5491004 ], [ 77.6160351, 18.5489661 ], [ 77.6151852, 18.5508457 ], [ 77.6264743, 18.5518943 ], [ 77.6292523, 18.5536753 ], [ 77.627629, 18.5481249 ], [ 77.6340001, 18.5439178 ], [ 77.6396194, 18.554941 ], [ 77.6479131, 18.5549314 ], [ 77.6477108, 18.5529904 ], [ 77.6520745, 18.551794 ], [ 77.6492233, 18.5411926 ], [ 77.6458969, 18.5388368 ], [ 77.648326, 18.5373361 ], [ 77.6513515, 18.5322634 ], [ 77.6558604, 18.530899 ], [ 77.6616637, 18.531857 ], [ 77.6645983, 18.5358002 ], [ 77.6806853, 18.5452532 ], [ 77.6883277, 18.5449523 ], [ 77.7015614, 18.5551711 ], [ 77.7109715, 18.5563033 ], [ 77.7232514, 18.553329 ], [ 77.7384996, 18.5567887 ] ] ] } }
]
}
