{
"type": "FeatureCollection",
"name": "3620",
"crs": { "type": "name", "properties": { "name": "urn:ogc:def:crs:OGC:1.3:CRS84" } },
"features": [
{ "type": "Feature", "properties": { "code": "3620", "name": "Yadadri Bhuvanagiri", "type": "district" }, "geometry": { "type": "Polygon", "coordinates": [ [ [ 78.9073495, 17.8123732 ], [ 78.9212713, 17.8023733 ], [ 78.9378312, 17.798074 ], [ 78.9458791, 17.7894535 ], [ 78.9484793, 17.7882202 ], [ 78.9574723, 17.7883034 ], [ 78.9605487, 17.7919329 ], [ 78.9760853, 17.7946028 ], [ 78.9797625, 17.7981097 ], [ 78.9906017, 17.7938017 ], [ 78.9906553, 17.7907746 ], [ 78.9939002, 17.7894223 ], [ 78.9919013, 17.7855702 ], [ 79.0013331, 17.7708184 ], [ 78.9975144, 17.7617958 ], [ 78.995206, 17.7533533 ], [ 78.9956938, 17.7509514 ], [ 79.003989, 17.742131 ], [ 79.0047227, 17.7368559 ], [ 79.0088191, 17.7347824 ], [ 79.0081796, 17.7332815 ], [ 79.0223389, 17.7185653 ], [ 79.0249857, 17.7128467 ], [ 79.0333383, 17.7079539 ], [ 79.037468, 17.7095194 ], [ 79.040108, 17.7141486 ], [ 79.0404392, 17.7204454 ], [ 79.0461007, 17.7260036 ], [ 79.0688396, 17.7191909 ], [ 79.0755133, 17.7140911 ], [ 79.0827079, 17.7106129 ], [ 79.083923, 17.7069412 ], [ 79.0895655, 17.701504 ], [ 79.0903892, 17.698449 ], [ 79.0893785, 17.6955374 ], [ 79.0912745, 17.6909478 ], [ 79.0943458, 17.6861939 ], [ 79.0979495, 17.6841561 ], [ 79.0981143, 17.6789175 ], [ 79.0996855, 17.6774947 ], [ 79.1191341, 17.6688553 ], [ 79.1232972, 17.6683306 ], [ 79.1267722, 17.6731316 ], [ 79.1301601, 17.6721904 ], [ 79.1295239, 17.6579409 ], [ 79.1347739, 17.6428068 ], [ 79.1404238, 17.6385796 ], [ 79.1441592, 17.628187 ], [ 79.1576628, 17.6219519 ], [ 79.1572571, 17.6186728 ], [ 79.1537322, 17.6136324 ], [ 79.1535486, 17.603283 ], [ 79.1520391, 17.5984704 ], [ 79.1537128, 17.5936299 ], [ 79.1512293, 17.5873344 ], [ 79.1566679, 17.5854563 ], [ 79.1676574, 17.5754307 ], [ 79.1662863, 17.5691864 ], [ 79.1493658, 17.5573928 ], [ 79.1431567, 17.5501647 ], [ 79.1361359, 17.5445047 ], [ 79.1352481, 17.5413703 ], [ 79.1361887, 17.5328313 ], [ 79.1399097, 17.5242647 ], [ 79.1574318, 17.5240547 ], [ 79.1678152, 17.519594 ], [ 79.1677606, 17.5151402 ], [ 79.1766385, 17.510213 ], [ 79.188951, 17.5088196 ], [ 79.1912706, 17.5107373 ], [ 79.1981178, 17.5120858 ], [ 79.2051981, 17.5102345 ], [ 79.2078801, 17.5086728 ], [ 79.2142136, 17.499949 ], [ 79.226201, 17.4984067 ], [ 79.2297966, 17.4968683 ], [ 79.2379212, 17.4892846 ], [ 79.2449059, 17.4786284 ], [ 79.2571287, 17.4709052 ], [ 79.2623112, 17.4805703 ], [ 79.2631017, 17.4904765 ], [ 79.2673755, 17.4934129 ], [ 79.2682738, 17.4966689 ], [ 79.2747181, 17.4976374 ], [ 79.2937514, 17.4864743 ], [ 79.2860553, 17.4746346 ], [ 79.2851467, 17.4691993 ], [ 79.2916462, 17.4694804 ], [ 79.3056896, 17.4617737 ], [ 79.3145301, 17.4542724 ], [ 79.3281081, 17.4508117 ], [ 79.3407139, 17.4563604 ], [ 79.3438209, 17.4663288 ], [ 79.3559512, 17.4761241 ], [ 79.3584126, 17.4814272 ], [ 79.3661866, 17.4862748 ], [ 79.36854, 17.4850394 ], [ 79.3731179, 17.4820343 ], [ 79.3773853, 17.4731544 ], [ 79.3910632, 17.4653905 ], [ 79.4067608, 17.4516995 ], [ 79.4191711, 17.4341204 ], [ 79.4228713, 17.4258921 ], [ 79.4248595, 17.4163167 ], [ 79.4226803, 17.4117571 ], [ 79.4173561, 17.4079005 ], [ 79.4131351, 17.4021504 ], [ 79.4123891, 17.3990946 ], [ 79.4140537, 17.3927233 ], [ 79.4189603, 17.3842343 ], [ 79.4218346, 17.376187 ], [ 79.4419559, 17.3638174 ], [ 79.4509707, 17.3518347 ], [ 79.4537002, 17.3450115 ], [ 79.4465074, 17.3465451 ], [ 79.424715, 17.345437 ], [ 79.4021132, 17.3485095 ], [ 79.3738077, 17.3435961 ], [ 79.3658954, 17.3448971 ], [ 79.3532729, 17.3521907 ], [ 79.3434242, 17.356035 ], [ 79.3254891, 17.3601601 ], [ 79.2953333, 17.3568042 ], [ 79.276043, 17.3598503 ], [ 79.2571241, 17.3601601 ], [ 79.2507041, 17.3587991 ], [ 79.2492036, 17.3479968 ], [ 79.2493355, 17.3310948 ], [ 79.2518463, 17.3249933 ], [ 79.248088, 17.3154252 ], [ 79.2289283, 17.3179216 ], [ 79.2238905, 17.3144189 ], [ 79.2193565, 17.313822 ], [ 79.2191319, 17.3042166 ], [ 79.215872, 17.2887509 ], [ 79.2047303, 17.2688739 ], [ 79.2050103, 17.2620884 ], [ 79.1859071, 17.2721228 ], [ 79.1857808, 17.2734152 ], [ 79.1841531, 17.2733012 ], [ 79.1817757, 17.259364 ], [ 79.1788682, 17.256434 ], [ 79.1779257, 17.25173 ], [ 79.1752075, 17.2514599 ], [ 79.1756763, 17.2552204 ], [ 79.1703013, 17.2546489 ], [ 79.1632675, 17.256495 ], [ 79.158359, 17.2606603 ], [ 79.1580408, 17.2590079 ], [ 79.1566961, 17.2595194 ], [ 79.1571079, 17.261923 ], [ 79.1546042, 17.263309 ], [ 79.1552915, 17.2646563 ], [ 79.1497245, 17.2714534 ], [ 79.1556074, 17.2810993 ], [ 79.1450406, 17.2825427 ], [ 79.1419722, 17.2818223 ], [ 79.1381582, 17.2800209 ], [ 79.1377197, 17.2767443 ], [ 79.1209586, 17.2762658 ], [ 79.1169575, 17.2776823 ], [ 79.1104966, 17.265531 ], [ 79.1083136, 17.2548001 ], [ 79.104769, 17.248971 ], [ 79.1034102, 17.2426906 ], [ 79.0887449, 17.2471155 ], [ 79.0822453, 17.2524714 ], [ 79.0734215, 17.2538052 ], [ 79.0640268, 17.2579021 ], [ 79.055317, 17.2571107 ], [ 79.0418301, 17.2665688 ], [ 79.036265, 17.2687735 ], [ 79.0081454, 17.2730505 ], [ 78.9976813, 17.2716217 ], [ 78.9977715, 17.2784851 ], [ 78.9821649, 17.279306 ], [ 78.9808164, 17.2765652 ], [ 78.9827495, 17.2755209 ], [ 78.9806108, 17.2642012 ], [ 78.981759, 17.2629886 ], [ 78.9829055, 17.2546766 ], [ 78.9864898, 17.2507145 ], [ 78.9827365, 17.2473095 ], [ 78.9788804, 17.2487922 ], [ 78.979122, 17.2437069 ], [ 78.974602, 17.2325056 ], [ 78.9715046, 17.2163043 ], [ 78.9737233, 17.2147602 ], [ 78.9571455, 17.1988276 ], [ 78.9611049, 17.1978524 ], [ 78.9628696, 17.1953871 ], [ 78.9605534, 17.1907716 ], [ 78.9723218, 17.1837796 ], [ 78.9705918, 17.1793855 ], [ 78.9794038, 17.1737735 ], [ 78.9778975, 17.1684313 ], [ 78.9892133, 17.1600785 ], [ 78.9926599, 17.1553322 ], [ 78.9752532, 17.1320874 ], [ 78.9745182, 17.1286183 ], [ 78.9721887, 17.1270007 ], [ 78.9538022, 17.1333526 ], [ 78.9526461, 17.1314404 ], [ 78.951429, 17.1319064 ], [ 78.9511349, 17.1298467 ], [ 78.947252, 17.1260516 ], [ 78.9473071, 17.1250165 ], [ 78.9521839, 17.1226281 ], [ 78.9482422, 17.110191 ], [ 78.9384242, 17.1065332 ], [ 78.9307619, 17.0920424 ], [ 78.9307334, 17.0843999 ], [ 78.928285, 17.0813113 ], [ 78.9149032, 17.0907039 ], [ 78.9113343, 17.0901166 ], [ 78.9020642, 17.0788324 ], [ 78.9010095, 17.0738004 ], [ 78.9030997, 17.0723147 ], [ 78.9005022, 17.0650599 ], [ 78.8977066, 17.0654141 ], [ 78.8973373, 17.0628474 ], [ 78.8944377, 17.0598273 ], [ 78.894713, 17.0496998 ], [ 78.8919608, 17.0436147 ], [ 78.8907293, 17.0436009 ], [ 78.8830297, 17.0452565 ], [ 78.8802972, 17.0471169 ], [ 78.8794692, 17.0574799 ], [ 78.8675324, 17.0643121 ], [ 78.8394426, 17.074758 ], [ 78.8281387, 17.0920434 ], [ 78.8153605, 17.0962025 ], [ 78.8191446, 17.1089937 ], [ 78.8272635, 17.1048567 ], [ 78.8333602, 17.1034484 ], [ 78.8334902, 17.1125388 ], [ 78.821383, 17.1200272 ], [ 78.8101107, 17.1249349 ], [ 78.8042118, 17.1294733 ], [ 78.7905576, 17.1355865 ], [ 78.7886305, 17.1376195 ], [ 78.7884946, 17.1364789 ], [ 78.785534, 17.1372871 ], [ 78.7806295, 17.1436327 ], [ 78.7800254, 17.1476433 ], [ 78.7778162, 17.1480099 ], [ 78.7745272, 17.15298 ], [ 78.7736507, 17.1553244 ], [ 78.7775605, 17.1621798 ], [ 78.7850382, 17.1590929 ], [ 78.7888273, 17.1625781 ], [ 78.7892592, 17.1648425 ], [ 78.7822092, 17.1787406 ], [ 78.780901, 17.1863269 ], [ 78.7726098, 17.1888895 ], [ 78.7719021, 17.1948278 ], [ 78.7592092, 17.2139697 ], [ 78.7979016, 17.202756 ], [ 78.8000854, 17.2037502 ], [ 78.8024785, 17.2077532 ], [ 78.807051, 17.2078302 ], [ 78.8162077, 17.2121037 ], [ 78.8165697, 17.2253465 ], [ 78.8203181, 17.2282973 ], [ 78.8192304, 17.2322408 ], [ 78.8127093, 17.2338081 ], [ 78.8065632, 17.2404427 ], [ 78.7976328, 17.2436091 ], [ 78.7908568, 17.2441201 ], [ 78.7895793, 17.2422107 ], [ 78.7870822, 17.2447274 ], [ 78.7779677, 17.2457437 ], [ 78.7765309, 17.2480609 ], [ 78.7696003, 17.2500757 ], [ 78.7635908, 17.2548787 ], [ 78.7596388, 17.2563613 ], [ 78.7575934, 17.2593561 ], [ 78.7532596, 17.2608851 ], [ 78.7549351, 17.2677675 ], [ 78.7522313, 17.2775713 ], [ 78.7524798, 17.2813807 ], [ 78.7499435, 17.2850179 ], [ 78.7450257, 17.2875776 ], [ 78.7410601, 17.2957473 ], [ 78.7412331, 17.297458 ], [ 78.7461191, 17.2963859 ], [ 78.7519426, 17.3021086 ], [ 78.7621588, 17.3035079 ], [ 78.7531985, 17.3292402 ], [ 78.7450398, 17.3308235 ], [ 78.7428987, 17.3291374 ], [ 78.7405667, 17.3293216 ], [ 78.7390614, 17.3270891 ], [ 78.7311068, 17.3263901 ], [ 78.7200345, 17.3284548 ], [ 78.7195032, 17.3309735 ], [ 78.7213247, 17.3310294 ], [ 78.72127, 17.33239 ], [ 78.7140991, 17.3340347 ], [ 78.7138404, 17.3391783 ], [ 78.7070846, 17.3463788 ], [ 78.7077509, 17.3523213 ], [ 78.7160393, 17.3588795 ], [ 78.7307513, 17.3523055 ], [ 78.7323455, 17.3540867 ], [ 78.7300961, 17.359191 ], [ 78.7316863, 17.3614198 ], [ 78.7318057, 17.3669915 ], [ 78.7334086, 17.3678187 ], [ 78.7372771, 17.3806559 ], [ 78.7371148, 17.3903579 ], [ 78.7390892, 17.3960036 ], [ 78.7424317, 17.4008692 ], [ 78.7490547, 17.4012357 ], [ 78.7547553, 17.4047188 ], [ 78.7559394, 17.417226 ], [ 78.7594434, 17.4268267 ], [ 78.7588662, 17.430299 ], [ 78.752671, 17.4341459 ], [ 78.7511127, 17.4382929 ], [ 78.7520892, 17.4439573 ], [ 78.7585022, 17.4538439 ], [ 78.7606735, 17.4602819 ], [ 78.7543538, 17.4653035 ], [ 78.7514163, 17.4714059 ], [ 78.747563, 17.4702937 ], [ 78.729141, 17.4714844 ], [ 78.7253287, 17.470553 ], [ 78.7195098, 17.4716529 ], [ 78.7169213, 17.4682447 ], [ 78.7091502, 17.4762685 ], [ 78.7096023, 17.48456 ], [ 78.7064953, 17.4848097 ], [ 78.7089299, 17.5019752 ], [ 78.7074237, 17.5054124 ], [ 78.7121989, 17.5124514 ], [ 78.7123598, 17.5206545 ], [ 78.7005307, 17.5351634 ], [ 78.7009549, 17.5397923 ], [ 78.6979549, 17.5416252 ], [ 78.6949535, 17.5512844 ], [ 78.7056183, 17.5575864 ], [ 78.6890646, 17.5622617 ], [ 78.6880038, 17.5653543 ], [ 78.6765132, 17.5759039 ], [ 78.6817595, 17.5779696 ], [ 78.6913254, 17.5844483 ], [ 78.6930686, 17.5922169 ], [ 78.6865658, 17.5950011 ], [ 78.6909385, 17.6013633 ], [ 78.6977143, 17.6058376 ], [ 78.6978164, 17.6085874 ], [ 78.6997532, 17.6076543 ], [ 78.701859, 17.61142 ], [ 78.6982497, 17.612226 ], [ 78.6902145, 17.62007 ], [ 78.6876006, 17.6207847 ], [ 78.6854122, 17.6198529 ], [ 78.6852579, 17.6217459 ], [ 78.7009486, 17.6315493 ], [ 78.6962507, 17.6373735 ], [ 78.7033219, 17.6375506 ], [ 78.7112261, 17.6399725 ], [ 78.709929, 17.6441436 ], [ 78.7112952, 17.6520532 ], [ 78.7182564, 17.6571162 ], [ 78.7237828, 17.668103 ], [ 78.7296235, 17.6678486 ], [ 78.7380098, 17.6729453 ], [ 78.745234, 17.6835792 ], [ 78.75265, 17.685471 ], [ 78.7680348, 17.6865412 ], [ 78.7766443, 17.6916562 ], [ 78.7851131, 17.70106 ], [ 78.7884744, 17.7017967 ], [ 78.7842349, 17.7054789 ], [ 78.7838139, 17.7093861 ], [ 78.7819067, 17.7111791 ], [ 78.7902599, 17.7112461 ], [ 78.8003625, 17.7091929 ], [ 78.8023936, 17.7066773 ], [ 78.8055927, 17.7065581 ], [ 78.8093839, 17.7028493 ], [ 78.815442, 17.7021015 ], [ 78.8155793, 17.7223605 ], [ 78.8233096, 17.7296863 ], [ 78.8214184, 17.7301913 ], [ 78.8207214, 17.7328034 ], [ 78.822366, 17.7352214 ], [ 78.8215991, 17.7393925 ], [ 78.8273351, 17.7394511 ], [ 78.8412837, 17.7524576 ], [ 78.8580678, 17.7482338 ], [ 78.8619224, 17.7566855 ], [ 78.8696657, 17.7849448 ], [ 78.8683852, 17.7857216 ], [ 78.8691823, 17.7937021 ], [ 78.866669, 17.8082076 ], [ 78.8712326, 17.8076322 ], [ 78.8758371, 17.8095252 ], [ 78.8807167, 17.8095396 ], [ 78.8917072, 17.8056038 ], [ 78.8996931, 17.8050878 ], [ 78.9007776, 17.8080749 ], [ 78.9073495, 17.8123732 ] ] ] } }
]
}
