{
"type": "FeatureCollection",
"name": "3621",
"crs": { "type": "name", "properties": { "name": "urn:ogc:def:crs:OGC:1.3:CRS84" } },
"features": [
{ "type": "Feature", "properties": { "code": "3621", "name": "Medchal Malkajgiri", "type": "district" }, "geometry": { "type": "Polygon", "coordinates": [ [ [ 78.4721314, 17.691274 ], [ 78.4714791, 17.6900381 ], [ 78.4799699, 17.6940563 ], [ 78.4943003, 17.6948515 ], [ 78.493647, 17.6881588 ], [ 78.4964288, 17.6854768 ], [ 78.5017018, 17.6859331 ], [ 78.5088227, 17.6836894 ], [ 78.5137181, 17.6948882 ], [ 78.5188961, 17.701989 ], [ 78.5214876, 17.696172 ], [ 78.5359033, 17.6963775 ], [ 78.5545828, 17.6882298 ], [ 78.5535144, 17.6865835 ], [ 78.5639846, 17.6837355 ], [ 78.573953, 17.6848926 ], [ 78.5718642, 17.6901135 ], [ 78.5751465, 17.6954507 ], [ 78.5818799, 17.6970846 ], [ 78.5926278, 17.6967378 ], [ 78.5954746, 17.6954973 ], [ 78.59569, 17.693718 ], [ 78.6000645, 17.6929929 ], [ 78.6000214, 17.6886796 ], [ 78.6139492, 17.6798244 ], [ 78.6168988, 17.6721544 ], [ 78.6235443, 17.6721916 ], [ 78.6340684, 17.6689474 ], [ 78.650155, 17.6764022 ], [ 78.6590665, 17.6972213 ], [ 78.6663802, 17.695399 ], [ 78.669453, 17.6981876 ], [ 78.6857343, 17.6931502 ], [ 78.6852277, 17.6882497 ], [ 78.7051731, 17.6862256 ], [ 78.7084181, 17.6841551 ], [ 78.7127707, 17.6759182 ], [ 78.7179754, 17.6693792 ], [ 78.7237828, 17.668103 ], [ 78.7182564, 17.6571162 ], [ 78.7112952, 17.6520532 ], [ 78.709929, 17.6441436 ], [ 78.7112261, 17.6399725 ], [ 78.7033219, 17.6375506 ], [ 78.6962507, 17.6373735 ], [ 78.7009486, 17.6315493 ], [ 78.6852579, 17.6217459 ], [ 78.6854122, 17.6198529 ], [ 78.6876006, 17.6207847 ], [ 78.6902145, 17.62007 ], [ 78.6982497, 17.612226 ], [ 78.701859, 17.61142 ], [ 78.6997532, 17.6076543 ], [ 78.6978164, 17.6085874 ], [ 78.6977143, 17.6058376 ], [ 78.6909385, 17.6013633 ], [ 78.6865658, 17.5950011 ], [ 78.6930686, 17.5922169 ], [ 78.6913254, 17.5844483 ], [ 78.6817595, 17.5779696 ], [ 78.6765132, 17.5759039 ], [ 78.6880038, 17.5653543 ], [ 78.6890646, 17.5622617 ], [ 78.7056183, 17.5575864 ], [ 78.6949535, 17.5512844 ], [ 78.6979549, 17.5416252 ], [ 78.7009549, 17.5397923 ], [ 78.7005307, 17.5351634 ], [ 78.7123598, 17.5206545 ], [ 78.7121989, 17.5124514 ], [ 78.7074237, 17.5054124 ], [ 78.7089299, 17.5019752 ], [ 78.7064953, 17.4848097 ], [ 78.7096023, 17.48456 ], [ 78.7091502, 17.4762685 ], [ 78.7169213, 17.4682447 ], [ 78.7195098, 17.4716529 ], [ 78.7253287, 17.470553 ], [ 78.729141, 17.4714844 ], [ 78.747563, 17.4702937 ], [ 78.7514163, 17.4714059 ], [ 78.7543538, 17.4653035 ], [ 78.7606735, 17.4602819 ], [ 78.7585022, 17.4538439 ], [ 78.7520892, 17.4439573 ], [ 78.7511127, 17.4382929 ], [ 78.752671, 17.4341459 ], [ 78.7588662, 17.430299 ], [ 78.7594434, 17.4268267 ], [ 78.7559394, 17.417226 ], [ 78.7547553, 17.4047188 ], [ 78.7490547, 17.4012357 ], [ 78.7408777, 17.3997983 ], [ 78.7375536, 17.3923692 ], [ 78.7375444, 17.3860389 ], [ 78.7285273, 17.3854079 ], [ 78.7229463, 17.3959013 ], [ 78.718745, 17.400112 ], [ 78.7131919, 17.4006985 ], [ 78.7097215, 17.3990869 ], [ 78.705288, 17.3946591 ], [ 78.701984, 17.393935 ], [ 78.6985351, 17.3951449 ], [ 78.6925625, 17.4034547 ], [ 78.68677, 17.4049518 ], [ 78.6810818, 17.4033118 ], [ 78.6752638, 17.3984285 ], [ 78.6737487, 17.3942196 ], [ 78.6742767, 17.3860445 ], [ 78.6724095, 17.3827639 ], [ 78.6621714, 17.3782899 ], [ 78.6588846, 17.3787726 ], [ 78.6517188, 17.3846519 ], [ 78.6476896, 17.3854579 ], [ 78.6352889, 17.3831388 ], [ 78.6134099, 17.3871063 ], [ 78.5909387, 17.387485 ], [ 78.5789289, 17.3895429 ], [ 78.5780841, 17.3892414 ], [ 78.5784837, 17.3840135 ], [ 78.5772984, 17.3829086 ], [ 78.5716738, 17.3826271 ], [ 78.5721057, 17.3779557 ], [ 78.5743735, 17.3723874 ], [ 78.5742824, 17.3677474 ], [ 78.5756856, 17.3687051 ], [ 78.5815685, 17.3637165 ], [ 78.5713595, 17.3609023 ], [ 78.5568539, 17.3612228 ], [ 78.5562571, 17.3658701 ], [ 78.5526388, 17.3708199 ], [ 78.5498815, 17.3725085 ], [ 78.5449517, 17.3729426 ], [ 78.5407995, 17.3714259 ], [ 78.5369873, 17.3721731 ], [ 78.5325785, 17.3691951 ], [ 78.5292033, 17.3714518 ], [ 78.5279904, 17.3739644 ], [ 78.5303298, 17.376911 ], [ 78.5290747, 17.3793934 ], [ 78.5267556, 17.3805476 ], [ 78.527795, 17.4013251 ], [ 78.5253177, 17.403676 ], [ 78.5231236, 17.4017475 ], [ 78.5222134, 17.4025715 ], [ 78.5231674, 17.4061627 ], [ 78.5347766, 17.4039533 ], [ 78.5350793, 17.4052403 ], [ 78.5333569, 17.41122 ], [ 78.5269975, 17.4127483 ], [ 78.5277934, 17.4199945 ], [ 78.5263981, 17.4220211 ], [ 78.53023, 17.4252803 ], [ 78.5368283, 17.4220405 ], [ 78.5451707, 17.4290486 ], [ 78.5458577, 17.4333748 ], [ 78.5489825, 17.4375921 ], [ 78.547378, 17.441208 ], [ 78.5454859, 17.4405984 ], [ 78.5438539, 17.4431878 ], [ 78.5313723, 17.4369871 ], [ 78.5177926, 17.4407226 ], [ 78.5206059, 17.4579026 ], [ 78.5186491, 17.4622975 ], [ 78.520211, 17.4683454 ], [ 78.5176465, 17.4736433 ], [ 78.5228492, 17.4758399 ], [ 78.5223172, 17.4823542 ], [ 78.5182821, 17.4825655 ], [ 78.507825, 17.4799903 ], [ 78.5050199, 17.4801676 ], [ 78.5003123, 17.4830218 ], [ 78.4976621, 17.4795651 ], [ 78.4980333, 17.4745679 ], [ 78.503875, 17.470897 ], [ 78.5047145, 17.4685192 ], [ 78.5004443, 17.4666668 ], [ 78.497165, 17.4676352 ], [ 78.4938897, 17.4589912 ], [ 78.4883862, 17.4563623 ], [ 78.485443, 17.4562578 ], [ 78.4759053, 17.4634377 ], [ 78.4764572, 17.4705737 ], [ 78.479508, 17.4713955 ], [ 78.4827594, 17.4759251 ], [ 78.4800749, 17.4827045 ], [ 78.4771312, 17.4826089 ], [ 78.4718415, 17.4774493 ], [ 78.4654388, 17.4747207 ], [ 78.4636512, 17.4726465 ], [ 78.463707, 17.4490673 ], [ 78.460413, 17.4464585 ], [ 78.4575724, 17.4478331 ], [ 78.4540068, 17.4446338 ], [ 78.4462423, 17.4510702 ], [ 78.4320726, 17.4510463 ], [ 78.4278101, 17.4442678 ], [ 78.4249189, 17.4437198 ], [ 78.4144714, 17.4458786 ], [ 78.4089028, 17.441506 ], [ 78.4048557, 17.4446675 ], [ 78.403993, 17.4478287 ], [ 78.3948169, 17.4482311 ], [ 78.3931315, 17.459559 ], [ 78.3881603, 17.4622815 ], [ 78.3819386, 17.4717557 ], [ 78.3734049, 17.4779918 ], [ 78.3746074, 17.4957369 ], [ 78.3796709, 17.5007111 ], [ 78.3821377, 17.5087747 ], [ 78.3749526, 17.5113076 ], [ 78.3714754, 17.5191041 ], [ 78.3554682, 17.5198751 ], [ 78.3476359, 17.5224728 ], [ 78.3513622, 17.5286279 ], [ 78.3485329, 17.5352322 ], [ 78.3555331, 17.5406876 ], [ 78.36143, 17.5496855 ], [ 78.3591292, 17.5540798 ], [ 78.3599346, 17.5567283 ], [ 78.3581272, 17.5569271 ], [ 78.3574301, 17.5599087 ], [ 78.3551821, 17.5603111 ], [ 78.3551214, 17.5619924 ], [ 78.3592224, 17.5632634 ], [ 78.363002, 17.5680804 ], [ 78.3708649, 17.5675893 ], [ 78.3733847, 17.5664479 ], [ 78.3736542, 17.5633445 ], [ 78.3767552, 17.5625162 ], [ 78.3809616, 17.5706285 ], [ 78.3804578, 17.5762525 ], [ 78.3821782, 17.5880656 ], [ 78.3846199, 17.5915892 ], [ 78.3837006, 17.5955181 ], [ 78.3889339, 17.5943109 ], [ 78.3896769, 17.5995966 ], [ 78.3868855, 17.6066491 ], [ 78.3714141, 17.6147646 ], [ 78.3717618, 17.6157402 ], [ 78.3777736, 17.6148234 ], [ 78.3872895, 17.6208044 ], [ 78.3905651, 17.6213568 ], [ 78.3920793, 17.6256849 ], [ 78.3869838, 17.6378144 ], [ 78.3811913, 17.6423821 ], [ 78.3837373, 17.6463452 ], [ 78.3882006, 17.6610242 ], [ 78.3951514, 17.6755556 ], [ 78.4006379, 17.6749721 ], [ 78.4003878, 17.6736631 ], [ 78.4099032, 17.6698457 ], [ 78.4211469, 17.671556 ], [ 78.4274755, 17.6796332 ], [ 78.4305823, 17.6864493 ], [ 78.4362289, 17.6912872 ], [ 78.4371167, 17.6934252 ], [ 78.4434115, 17.6957859 ], [ 78.4456985, 17.69816 ], [ 78.4448931, 17.7003087 ], [ 78.4485867, 17.7079349 ], [ 78.457945, 17.7052171 ], [ 78.459817, 17.6977856 ], [ 78.4721314, 17.691274 ] ] ] } }
]
}
