{
"type": "FeatureCollection",
"name": "3625",
"crs": { "type": "name", "properties": { "name": "urn:ogc:def:crs:OGC:1.3:CRS84" } },
"features": [
{ "type": "Feature", "properties": { "code": "3625", "name": "Mahabubnagar", "type": "district" }, "geometry": { "type": "Polygon", "coordinates": [ [ [ 78.1466192, 17.0134053 ], [ 78.1601847, 17.0124635 ], [ 78.1740891, 17.0081584 ], [ 78.1765457, 16.997526 ], [ 78.1833112, 16.9913543 ], [ 78.1831065, 16.9891768 ], [ 78.1858429, 16.988275 ], [ 78.1849253, 16.9835752 ], [ 78.1815588, 16.9797172 ], [ 78.1812146, 16.9734227 ], [ 78.1864141, 16.9708608 ], [ 78.1912069, 16.9636906 ], [ 78.1962644, 16.9611676 ], [ 78.198613, 16.9576385 ], [ 78.2010178, 16.9573297 ], [ 78.2028572, 16.9539307 ], [ 78.2111861, 16.9521075 ], [ 78.2112534, 16.9463104 ], [ 78.21946, 16.9387782 ], [ 78.2330538, 16.9403482 ], [ 78.2338544, 16.9471268 ], [ 78.240546, 16.9634788 ], [ 78.2616658, 16.9608394 ], [ 78.2643873, 16.9636674 ], [ 78.2694594, 16.9647653 ], [ 78.2763381, 16.9573527 ], [ 78.2770474, 16.9561209 ], [ 78.272606, 16.9408068 ], [ 78.2718549, 16.9328665 ], [ 78.2748158, 16.9244676 ], [ 78.2755957, 16.9232141 ], [ 78.301563, 16.9189707 ], [ 78.3006877, 16.9085735 ], [ 78.3037653, 16.9013603 ], [ 78.3040898, 16.8895282 ], [ 78.3030134, 16.8799023 ], [ 78.299276, 16.8789229 ], [ 78.3049263, 16.8751553 ], [ 78.3162176, 16.8743399 ], [ 78.3220147, 16.8576705 ], [ 78.3204732, 16.8560853 ], [ 78.3283112, 16.8514351 ], [ 78.3242371, 16.8397206 ], [ 78.3228731, 16.8250265 ], [ 78.3253424, 16.8229623 ], [ 78.3343528, 16.8072298 ], [ 78.3325657, 16.8015085 ], [ 78.3332677, 16.7978705 ], [ 78.3367117, 16.7942151 ], [ 78.3404298, 16.792973 ], [ 78.3446941, 16.7851334 ], [ 78.346831, 16.7842007 ], [ 78.3485614, 16.7856836 ], [ 78.3474447, 16.786907 ], [ 78.3484391, 16.7882919 ], [ 78.3479193, 16.7907425 ], [ 78.3506474, 16.7911544 ], [ 78.3550306, 16.7965038 ], [ 78.3667229, 16.7933426 ], [ 78.3736147, 16.7907841 ], [ 78.3805788, 16.7862857 ], [ 78.3890737, 16.783919 ], [ 78.3909597, 16.7884333 ], [ 78.3941408, 16.7899482 ], [ 78.398064, 16.7989237 ], [ 78.4132112, 16.7979921 ], [ 78.4268455, 16.7882165 ], [ 78.4316148, 16.783365 ], [ 78.4343257, 16.7782446 ], [ 78.4529494, 16.7787188 ], [ 78.4648911, 16.7738722 ], [ 78.4673922, 16.7762525 ], [ 78.4743334, 16.7778338 ], [ 78.4881362, 16.7681282 ], [ 78.4937176, 16.7593845 ], [ 78.4869869, 16.7510264 ], [ 78.4652042, 16.7521621 ], [ 78.4658552, 16.7345572 ], [ 78.4643744, 16.7306806 ], [ 78.4472212, 16.7151702 ], [ 78.4428403, 16.7077377 ], [ 78.439863, 16.7065737 ], [ 78.4340658, 16.7071505 ], [ 78.4303324, 16.7055945 ], [ 78.4273056, 16.6881527 ], [ 78.4243127, 16.6800414 ], [ 78.4049136, 16.6739307 ], [ 78.4037369, 16.6654434 ], [ 78.4048141, 16.6554724 ], [ 78.399273, 16.6563583 ], [ 78.3968731, 16.6587859 ], [ 78.3901994, 16.6611439 ], [ 78.386177, 16.6612757 ], [ 78.3829375, 16.6597238 ], [ 78.3784986, 16.6606338 ], [ 78.3687205, 16.6562981 ], [ 78.3661573, 16.6447211 ], [ 78.3428658, 16.6582713 ], [ 78.3338019, 16.6556192 ], [ 78.3291258, 16.6559152 ], [ 78.3219418, 16.6683153 ], [ 78.3212813, 16.6733154 ], [ 78.3190636, 16.6769831 ], [ 78.3197092, 16.6797124 ], [ 78.3169811, 16.6845282 ], [ 78.3078315, 16.6886899 ], [ 78.2982288, 16.6901012 ], [ 78.29547, 16.6967797 ], [ 78.2853187, 16.7022733 ], [ 78.2820058, 16.7055901 ], [ 78.2671265, 16.7095408 ], [ 78.2637441, 16.7127299 ], [ 78.263066, 16.7170782 ], [ 78.259475, 16.7216761 ], [ 78.2350373, 16.7420405 ], [ 78.233782, 16.7389562 ], [ 78.2297704, 16.7412562 ], [ 78.2235598, 16.7413073 ], [ 78.2227907, 16.7367024 ], [ 78.218295, 16.731423 ], [ 78.2134575, 16.7223662 ], [ 78.2115656, 16.7106772 ], [ 78.2101912, 16.7110197 ], [ 78.2081558, 16.7072765 ], [ 78.1982654, 16.701004 ], [ 78.188141, 16.7043585 ], [ 78.1824423, 16.7036859 ], [ 78.1812817, 16.7137906 ], [ 78.1832382, 16.7234273 ], [ 78.1831512, 16.7308346 ], [ 78.162959, 16.7288721 ], [ 78.1575039, 16.7139458 ], [ 78.1580622, 16.7100126 ], [ 78.1553752, 16.700743 ], [ 78.1445851, 16.6878648 ], [ 78.1444583, 16.6823638 ], [ 78.1423248, 16.6814536 ], [ 78.1418819, 16.6753203 ], [ 78.1402907, 16.6745699 ], [ 78.1400612, 16.660809 ], [ 78.1507793, 16.6476625 ], [ 78.1408846, 16.6351105 ], [ 78.1302397, 16.6257473 ], [ 78.1295362, 16.6136227 ], [ 78.1274058, 16.6093926 ], [ 78.1251731, 16.591448 ], [ 78.1189428, 16.5919617 ], [ 78.1160724, 16.5977821 ], [ 78.1016002, 16.5979583 ], [ 78.076786, 16.6087712 ], [ 78.0701767, 16.614494 ], [ 78.0688495, 16.6178845 ], [ 78.0690353, 16.6245171 ], [ 78.0626945, 16.6240013 ], [ 78.0578541, 16.6262115 ], [ 78.0559454, 16.623123 ], [ 78.0511161, 16.6248132 ], [ 78.0380548, 16.6256572 ], [ 78.0309874, 16.6217307 ], [ 78.0254417, 16.6161934 ], [ 78.0125961, 16.6167037 ], [ 78.0083393, 16.6153829 ], [ 78.0000485, 16.6070175 ], [ 77.9999468, 16.6024527 ], [ 77.9985614, 16.6022102 ], [ 77.9980256, 16.6004445 ], [ 77.9983485, 16.5986573 ], [ 78.0000557, 16.5979266 ], [ 78.0003495, 16.5943569 ], [ 77.9889123, 16.5922952 ], [ 77.9930817, 16.5864194 ], [ 77.996729, 16.5843231 ], [ 78.0040776, 16.5680819 ], [ 77.9977844, 16.5576775 ], [ 77.9978386, 16.5541457 ], [ 78.0138766, 16.5452114 ], [ 78.0200874, 16.5330902 ], [ 78.0186316, 16.5284145 ], [ 78.0072044, 16.5321658 ], [ 77.9979207, 16.5310117 ], [ 77.9932801, 16.5194506 ], [ 77.9947598, 16.5159039 ], [ 77.9922695, 16.515585 ], [ 77.9898456, 16.5181616 ], [ 77.9848937, 16.5138061 ], [ 77.9868254, 16.5112193 ], [ 77.9847494, 16.5085713 ], [ 77.9849951, 16.5051051 ], [ 77.982445, 16.5024968 ], [ 77.9794249, 16.5018322 ], [ 77.9681188, 16.5038732 ], [ 77.9676416, 16.5005069 ], [ 77.9412349, 16.5003484 ], [ 77.9348511, 16.4926455 ], [ 77.9309808, 16.4819853 ], [ 77.9211029, 16.4838941 ], [ 77.9195659, 16.4845675 ], [ 77.9186622, 16.4880754 ], [ 77.923228, 16.4927625 ], [ 77.921669, 16.499415 ], [ 77.9287555, 16.5064166 ], [ 77.9302984, 16.518281 ], [ 77.9339355, 16.5190985 ], [ 77.9340426, 16.5216779 ], [ 77.928922, 16.5220864 ], [ 77.9242609, 16.5206819 ], [ 77.9072081, 16.5260376 ], [ 77.8978881, 16.5280583 ], [ 77.8957941, 16.5272004 ], [ 77.8901099, 16.5173655 ], [ 77.891341, 16.5121926 ], [ 77.8973027, 16.5023967 ], [ 77.8933136, 16.4959567 ], [ 77.8910708, 16.4748021 ], [ 77.8972089, 16.4685995 ], [ 77.9068895, 16.4635256 ], [ 77.9152157, 16.4655722 ], [ 77.9186711, 16.4651529 ], [ 77.9215371, 16.4617683 ], [ 77.9239394, 16.4515256 ], [ 77.9163861, 16.4423831 ], [ 77.9026878, 16.4444186 ], [ 77.9005002, 16.4496701 ], [ 77.8958877, 16.4511333 ], [ 77.8914931, 16.4509934 ], [ 77.890207, 16.4493537 ], [ 77.880009, 16.4492869 ], [ 77.8745654, 16.4473109 ], [ 77.8638096, 16.4465487 ], [ 77.8634624, 16.4364037 ], [ 77.8700418, 16.421315 ], [ 77.8649995, 16.3995144 ], [ 77.8652386, 16.3896661 ], [ 77.8627493, 16.3844834 ], [ 77.8626563, 16.371811 ], [ 77.8582034, 16.3708891 ], [ 77.8550181, 16.3718942 ], [ 77.840075, 16.3950194 ], [ 77.8318044, 16.3971138 ], [ 77.8171258, 16.3914421 ], [ 77.8021651, 16.3975755 ], [ 77.7968348, 16.4056357 ], [ 77.7913266, 16.409211 ], [ 77.790733, 16.4125145 ], [ 77.7934121, 16.4218571 ], [ 77.7682209, 16.4226558 ], [ 77.754223, 16.421272 ], [ 77.7555629, 16.4145635 ], [ 77.758781, 16.4092543 ], [ 77.7589317, 16.4034576 ], [ 77.7618426, 16.3939241 ], [ 77.759078, 16.391559 ], [ 77.7491618, 16.3879433 ], [ 77.7487132, 16.3910645 ], [ 77.7510053, 16.4036022 ], [ 77.7455394, 16.4187497 ], [ 77.7461968, 16.4235558 ], [ 77.7499491, 16.4293401 ], [ 77.7504315, 16.4337519 ], [ 77.7460458, 16.4513377 ], [ 77.7424971, 16.4560323 ], [ 77.7394129, 16.4663484 ], [ 77.7437638, 16.4711013 ], [ 77.748708, 16.4741174 ], [ 77.755505, 16.4735462 ], [ 77.7593937, 16.4802838 ], [ 77.7679805, 16.4796934 ], [ 77.7684307, 16.4847651 ], [ 77.7674506, 16.4959742 ], [ 77.7625306, 16.5032245 ], [ 77.7634087, 16.523083 ], [ 77.7644742, 16.5260457 ], [ 77.7606544, 16.533369 ], [ 77.7530945, 16.5422133 ], [ 77.7529066, 16.5462906 ], [ 77.7509739, 16.550368 ], [ 77.7497351, 16.5500896 ], [ 77.7495769, 16.5665015 ], [ 77.7548165, 16.5674333 ], [ 77.758517, 16.5653961 ], [ 77.7783576, 16.5651991 ], [ 77.785444, 16.5744036 ], [ 77.7874745, 16.5744206 ], [ 77.7812033, 16.6156775 ], [ 77.798898, 16.6163448 ], [ 77.797437, 16.6199175 ], [ 77.7978593, 16.6305337 ], [ 77.7965185, 16.6338861 ], [ 77.7887911, 16.6390568 ], [ 77.7808451, 16.6494981 ], [ 77.7734916, 16.6547002 ], [ 77.7674771, 16.6682097 ], [ 77.7672644, 16.6818751 ], [ 77.7646429, 16.6881825 ], [ 77.7591362, 16.6883422 ], [ 77.7491552, 16.6933511 ], [ 77.7516653, 16.7028274 ], [ 77.7489511, 16.7039501 ], [ 77.753415, 16.7237863 ], [ 77.7451981, 16.7394692 ], [ 77.7364525, 16.7462259 ], [ 77.7266399, 16.7513625 ], [ 77.7103391, 16.7511943 ], [ 77.6968051, 16.7482573 ], [ 77.6893611, 16.7527994 ], [ 77.6794948, 16.7566532 ], [ 77.6775393, 16.7578212 ], [ 77.6765579, 16.7604678 ], [ 77.6743724, 16.7767027 ], [ 77.6790919, 16.7772765 ], [ 77.6804541, 16.7811706 ], [ 77.6808946, 16.7877978 ], [ 77.6793895, 16.7948742 ], [ 77.6819088, 16.7923884 ], [ 77.6867407, 16.7913714 ], [ 77.6944845, 16.7932558 ], [ 77.7017897, 16.7866765 ], [ 77.7082055, 16.783206 ], [ 77.7111407, 16.7927694 ], [ 77.7353275, 16.7893 ], [ 77.7415382, 16.7930713 ], [ 77.7377367, 16.8026644 ], [ 77.7295228, 16.8111327 ], [ 77.7350755, 16.8153071 ], [ 77.7432075, 16.8244537 ], [ 77.7436829, 16.8273996 ], [ 77.7398515, 16.8360788 ], [ 77.7339272, 16.8412663 ], [ 77.7273986, 16.850326 ], [ 77.7300064, 16.8562532 ], [ 77.7342562, 16.8599855 ], [ 77.7349215, 16.8665094 ], [ 77.7323667, 16.8697887 ], [ 77.731475, 16.8734133 ], [ 77.7329558, 16.8766754 ], [ 77.7395966, 16.8834643 ], [ 77.7394707, 16.8887587 ], [ 77.7420782, 16.8954453 ], [ 77.7406496, 16.9011841 ], [ 77.7435173, 16.9084349 ], [ 77.7459657, 16.910728 ], [ 77.7401814, 16.9198565 ], [ 77.7413652, 16.9289307 ], [ 77.7411519, 16.9327586 ], [ 77.7398657, 16.9340127 ], [ 77.740312, 16.9383783 ], [ 77.7301458, 16.9392501 ], [ 77.7301854, 16.9437868 ], [ 77.7364106, 16.94451 ], [ 77.7405076, 16.9485657 ], [ 77.7469326, 16.9501324 ], [ 77.7503273, 16.9530165 ], [ 77.7518944, 16.9575728 ], [ 77.7513729, 16.9616092 ], [ 77.7558281, 16.9686722 ], [ 77.7553366, 16.9762864 ], [ 77.7504551, 16.9775303 ], [ 77.7553854, 16.9886334 ], [ 77.7591564, 16.9932453 ], [ 77.7602393, 17.0022318 ], [ 77.7667385, 17.0029984 ], [ 77.7796571, 17.0018027 ], [ 77.7870263, 16.999129 ], [ 77.7983801, 16.9989117 ], [ 77.7988384, 16.992568 ], [ 77.8134373, 16.99458 ], [ 77.8251131, 16.986894 ], [ 77.8343048, 16.9876743 ], [ 77.8318471, 16.9775945 ], [ 77.8259838, 16.9639532 ], [ 77.8246228, 16.9565553 ], [ 77.8257721, 16.9532458 ], [ 77.8334605, 16.948666 ], [ 77.8371526, 16.9491103 ], [ 77.8416281, 16.9607937 ], [ 77.8442472, 16.9599717 ], [ 77.8462665, 16.954131 ], [ 77.8490352, 16.9505838 ], [ 77.8546464, 16.9491341 ], [ 77.8609505, 16.9503295 ], [ 77.8672105, 16.9551738 ], [ 77.8704092, 16.9675961 ], [ 77.8741227, 16.9685781 ], [ 77.8783418, 16.9679382 ], [ 77.8841662, 16.957893 ], [ 77.8804625, 16.95124 ], [ 77.87782, 16.9407693 ], [ 77.8695541, 16.927457 ], [ 77.8773426, 16.9286295 ], [ 77.8897291, 16.9246166 ], [ 77.8988238, 16.9264964 ], [ 77.9032536, 16.9262023 ], [ 77.9146399, 16.921018 ], [ 77.9214173, 16.9140089 ], [ 77.9317767, 16.9067806 ], [ 77.9336619, 16.8954969 ], [ 77.9363133, 16.8884872 ], [ 77.9427625, 16.8823598 ], [ 77.9481835, 16.8718149 ], [ 77.9548145, 16.8682763 ], [ 77.9594488, 16.8629362 ], [ 77.9669404, 16.8501361 ], [ 77.9774325, 16.8468237 ], [ 77.9800846, 16.8487727 ], [ 77.9870439, 16.8595285 ], [ 77.9903689, 16.870612 ], [ 77.9832412, 16.8726353 ], [ 77.9784614, 16.876536 ], [ 77.9801826, 16.8796815 ], [ 77.9815219, 16.893238 ], [ 77.986035, 16.8981215 ], [ 77.9923501, 16.8998604 ], [ 77.9996339, 16.8989286 ], [ 78.0082244, 16.9024033 ], [ 78.0111692, 16.9091538 ], [ 78.0089171, 16.9282442 ], [ 78.0072201, 16.9338865 ], [ 78.0045539, 16.9359129 ], [ 78.0084423, 16.9438548 ], [ 78.0121522, 16.9432878 ], [ 78.0107987, 16.9496396 ], [ 77.9986877, 16.9523874 ], [ 77.9940479, 16.9492122 ], [ 77.9877549, 16.9529821 ], [ 77.9854612, 16.9596619 ], [ 77.9878388, 16.9618834 ], [ 77.9951979, 16.9637158 ], [ 77.9996899, 16.9797052 ], [ 78.0105256, 16.9783133 ], [ 78.0126306, 16.9813319 ], [ 78.0143421, 16.984988 ], [ 78.0138038, 16.9863022 ], [ 78.0087595, 16.9901416 ], [ 78.0097822, 17.0006909 ], [ 78.0119166, 17.0032574 ], [ 78.0210044, 17.0090391 ], [ 78.0306039, 17.0107924 ], [ 78.0380334, 17.0094358 ], [ 78.0577758, 17.0010075 ], [ 78.0597505, 17.0009488 ], [ 78.0683153, 17.0054155 ], [ 78.0748487, 17.0007132 ], [ 78.0851035, 16.9962996 ], [ 78.0892324, 16.9857368 ], [ 78.0921119, 16.9831735 ], [ 78.0951705, 16.9843885 ], [ 78.0997606, 16.9841328 ], [ 78.1002697, 16.9824653 ], [ 78.1083912, 16.9828145 ], [ 78.1143748, 16.9862238 ], [ 78.1196643, 16.9829183 ], [ 78.1247689, 16.9863718 ], [ 78.1267099, 16.9941629 ], [ 78.1363402, 16.9929767 ], [ 78.1358108, 17.0073204 ], [ 78.1466192, 17.0134053 ] ] ] } }
]
}
