{
"type": "FeatureCollection",
"name": "3627",
"crs": { "type": "name", "properties": { "name": "urn:ogc:def:crs:OGC:1.3:CRS84" } },
"features": [
{ "type": "Feature", "properties": { "code": "3627", "name": "Wanaparthy", "type": "district" }, "geometry": { "type": "Polygon", "coordinates": [ [ [ 78.0578541, 16.6262115 ], [ 78.0626945, 16.6240013 ], [ 78.0690353, 16.6245171 ], [ 78.0688495, 16.6178845 ], [ 78.0701767, 16.614494 ], [ 78.076786, 16.6087712 ], [ 78.1016002, 16.5979583 ], [ 78.1160724, 16.5977821 ], [ 78.1189428, 16.5919617 ], [ 78.1251731, 16.591448 ], [ 78.1161559, 16.5730066 ], [ 78.1185365, 16.5731555 ], [ 78.1196186, 16.563154 ], [ 78.1229961, 16.5634677 ], [ 78.1226157, 16.5522104 ], [ 78.1123059, 16.5407919 ], [ 78.1111165, 16.5375537 ], [ 78.1085236, 16.5294103 ], [ 78.1030687, 16.4990405 ], [ 78.1036669, 16.4953294 ], [ 78.0998931, 16.4872268 ], [ 78.1237627, 16.4744467 ], [ 78.1249349, 16.4716963 ], [ 78.1312358, 16.4696636 ], [ 78.1300933, 16.4664304 ], [ 78.147836, 16.456112 ], [ 78.1760314, 16.4495298 ], [ 78.1925199, 16.450352 ], [ 78.1958519, 16.4463673 ], [ 78.2007729, 16.4471896 ], [ 78.20086, 16.4392979 ], [ 78.1985045, 16.4327051 ], [ 78.2016664, 16.4167189 ], [ 78.2013929, 16.4092078 ], [ 78.2097723, 16.4095382 ], [ 78.2222094, 16.4123496 ], [ 78.2331711, 16.4183832 ], [ 78.2467987, 16.4155026 ], [ 78.2581459, 16.4078795 ], [ 78.2645344, 16.4007056 ], [ 78.2739854, 16.3994662 ], [ 78.2775108, 16.4034834 ], [ 78.2814782, 16.3998523 ], [ 78.2882636, 16.4002353 ], [ 78.2966133, 16.3927056 ], [ 78.3030232, 16.3914286 ], [ 78.3096453, 16.3883491 ], [ 78.3145226, 16.380742 ], [ 78.3149537, 16.3693033 ], [ 78.3086076, 16.3484139 ], [ 78.3034826, 16.3501068 ], [ 78.3014776, 16.3475757 ], [ 78.2986663, 16.341739 ], [ 78.2972742, 16.3338319 ], [ 78.2909244, 16.3319837 ], [ 78.2906402, 16.3301715 ], [ 78.2923435, 16.3294792 ], [ 78.2928132, 16.3260103 ], [ 78.2886626, 16.3260711 ], [ 78.2636814, 16.3328153 ], [ 78.2591091, 16.3130375 ], [ 78.2583834, 16.3059874 ], [ 78.2596149, 16.3027525 ], [ 78.2554485, 16.2975843 ], [ 78.2563886, 16.2894391 ], [ 78.2543145, 16.2881598 ], [ 78.2486644, 16.2908362 ], [ 78.2437651, 16.2958138 ], [ 78.2398904, 16.2971882 ], [ 78.2347789, 16.2969573 ], [ 78.2277108, 16.3019293 ], [ 78.221172, 16.3036141 ], [ 78.2219084, 16.3063675 ], [ 78.2188956, 16.3129795 ], [ 78.2178235, 16.3198204 ], [ 78.2133036, 16.3214407 ], [ 78.2095016, 16.3184958 ], [ 78.2079495, 16.3198585 ], [ 78.1897809, 16.3218551 ], [ 78.188761, 16.3165429 ], [ 78.1799089, 16.3113306 ], [ 78.1684932, 16.3082925 ], [ 78.1627438, 16.2962295 ], [ 78.1618634, 16.279593 ], [ 78.1642218, 16.2670538 ], [ 78.1988465, 16.2597027 ], [ 78.2012641, 16.2507189 ], [ 78.1992558, 16.2482773 ], [ 78.2006117, 16.2415798 ], [ 78.2000453, 16.2355353 ], [ 78.192472, 16.2277501 ], [ 78.1998675, 16.2218374 ], [ 78.2008297, 16.2143712 ], [ 78.1966557, 16.2085951 ], [ 78.2021225, 16.2042399 ], [ 78.2111928, 16.2007467 ], [ 78.2102881, 16.1960058 ], [ 78.2108888, 16.1829315 ], [ 78.2091816, 16.1799956 ], [ 78.2271843, 16.1745899 ], [ 78.2264464, 16.1630435 ], [ 78.2217921, 16.1550735 ], [ 78.2149691, 16.1373822 ], [ 78.2241239, 16.1346588 ], [ 78.2253022, 16.1298633 ], [ 78.2368904, 16.1059471 ], [ 78.2350791, 16.0896581 ], [ 78.2326512, 16.0826845 ], [ 78.2336091, 16.0787099 ], [ 78.2302836, 16.0704875 ], [ 78.2286404, 16.0595871 ], [ 78.2312333, 16.0557793 ], [ 78.2399041, 16.0530498 ], [ 78.2428817, 16.0491237 ], [ 78.2511388, 16.0448875 ], [ 78.2398242, 16.0285018 ], [ 78.2418533, 16.0269177 ], [ 78.2585544, 16.023228 ], [ 78.2555058, 16.0128513 ], [ 78.2598424, 15.9990836 ], [ 78.2598214, 15.9955643 ], [ 78.2521204, 15.9806785 ], [ 78.2512258, 15.9750788 ], [ 78.2403782, 15.9549661 ], [ 78.2325492, 15.948663 ], [ 78.221445, 15.9438668 ], [ 78.1943834, 15.9437093 ], [ 78.159735, 15.9482411 ], [ 78.1517975, 15.9536894 ], [ 78.1465896, 15.9623206 ], [ 78.1438128, 15.972114 ], [ 78.1429091, 15.9844024 ], [ 78.1402397, 15.9918223 ], [ 78.1360718, 15.9962401 ], [ 78.1269206, 16.0005207 ], [ 78.1280421, 16.002148 ], [ 78.1135286, 16.0019848 ], [ 78.1052644, 16.0047773 ], [ 78.0882313, 16.0079672 ], [ 78.0694379, 16.0143198 ], [ 78.0465204, 16.0325779 ], [ 78.045773, 16.0370291 ], [ 78.0435753, 16.0407488 ], [ 78.0292823, 16.0598014 ], [ 78.026403, 16.0622375 ], [ 78.0143026, 16.0673697 ], [ 78.0125384, 16.0711349 ], [ 77.9938552, 16.0873247 ], [ 77.9817668, 16.0909536 ], [ 77.9738158, 16.0951559 ], [ 77.9614649, 16.1082295 ], [ 77.9465843, 16.1192365 ], [ 77.9435733, 16.1255688 ], [ 77.9409597, 16.1377046 ], [ 77.9423873, 16.15325 ], [ 77.9395386, 16.1603712 ], [ 77.9355982, 16.1635983 ], [ 77.9311003, 16.1747884 ], [ 77.9322939, 16.1776615 ], [ 77.9317137, 16.19316 ], [ 77.9238712, 16.2022876 ], [ 77.9123357, 16.2127447 ], [ 77.9015482, 16.2203473 ], [ 77.8937074, 16.2231232 ], [ 77.8759193, 16.2370658 ], [ 77.866133, 16.242051 ], [ 77.8568167, 16.2507325 ], [ 77.8431687, 16.2579799 ], [ 77.8405958, 16.261625 ], [ 77.8325057, 16.2663812 ], [ 77.8123321, 16.2829525 ], [ 77.7920791, 16.2948123 ], [ 77.7749225, 16.306805 ], [ 77.7384867, 16.3244406 ], [ 77.7287343, 16.3316708 ], [ 77.7037437, 16.3369276 ], [ 77.7002446, 16.340512 ], [ 77.6935067, 16.3424934 ], [ 77.6856417, 16.3476695 ], [ 77.6848427, 16.3516369 ], [ 77.6775069, 16.360468 ], [ 77.6741986, 16.3622175 ], [ 77.6646795, 16.363688 ], [ 77.6667307, 16.3659614 ], [ 77.6651755, 16.379649 ], [ 77.6724825, 16.3887692 ], [ 77.6830315, 16.3934645 ], [ 77.6848755, 16.3970221 ], [ 77.6886974, 16.4001018 ], [ 77.7051954, 16.4013439 ], [ 77.7131414, 16.4003329 ], [ 77.7133676, 16.4052185 ], [ 77.7112423, 16.4108941 ], [ 77.7140879, 16.4135736 ], [ 77.7167901, 16.4205552 ], [ 77.7170807, 16.4311316 ], [ 77.7222551, 16.4312375 ], [ 77.7235991, 16.4201631 ], [ 77.7425692, 16.3991948 ], [ 77.7510036, 16.4035774 ], [ 77.7487132, 16.3910645 ], [ 77.7491618, 16.3879433 ], [ 77.759078, 16.391559 ], [ 77.7618426, 16.3939241 ], [ 77.7589317, 16.4034576 ], [ 77.758781, 16.4092543 ], [ 77.7555629, 16.4145635 ], [ 77.754223, 16.421272 ], [ 77.7682209, 16.4226558 ], [ 77.7934121, 16.4218571 ], [ 77.790733, 16.4125145 ], [ 77.7913266, 16.409211 ], [ 77.7968348, 16.4056357 ], [ 77.8021651, 16.3975755 ], [ 77.8171258, 16.3914421 ], [ 77.8318044, 16.3971138 ], [ 77.840075, 16.3950194 ], [ 77.8550181, 16.3718942 ], [ 77.8582034, 16.3708891 ], [ 77.8626563, 16.371811 ], [ 77.8627493, 16.3844834 ], [ 77.8652386, 16.3896661 ], [ 77.8649995, 16.3995144 ], [ 77.8700418, 16.421315 ], [ 77.8634624, 16.4364037 ], [ 77.8638096, 16.4465487 ], [ 77.8745654, 16.4473109 ], [ 77.880009, 16.4492869 ], [ 77.890207, 16.4493537 ], [ 77.8914931, 16.4509934 ], [ 77.8958877, 16.4511333 ], [ 77.9005002, 16.4496701 ], [ 77.9026878, 16.4444186 ], [ 77.9163861, 16.4423831 ], [ 77.9239394, 16.4515256 ], [ 77.9215371, 16.4617683 ], [ 77.9186711, 16.4651529 ], [ 77.9152157, 16.4655722 ], [ 77.9068895, 16.4635256 ], [ 77.8972089, 16.4685995 ], [ 77.8910708, 16.4748021 ], [ 77.8933136, 16.4959567 ], [ 77.8973027, 16.5023967 ], [ 77.8901029, 16.5161215 ], [ 77.8905814, 16.5192935 ], [ 77.8941645, 16.5252627 ], [ 77.8978881, 16.5280583 ], [ 77.9157251, 16.5240835 ], [ 77.9242609, 16.5206819 ], [ 77.928922, 16.5220864 ], [ 77.9340426, 16.5216779 ], [ 77.9339355, 16.5190985 ], [ 77.9302984, 16.518281 ], [ 77.9287555, 16.5064166 ], [ 77.921669, 16.499415 ], [ 77.923228, 16.4927625 ], [ 77.9186622, 16.4880754 ], [ 77.9195659, 16.4845675 ], [ 77.9211029, 16.4838941 ], [ 77.9309808, 16.4819853 ], [ 77.9348511, 16.4926455 ], [ 77.9412349, 16.5003484 ], [ 77.9676416, 16.5005069 ], [ 77.9681188, 16.5038732 ], [ 77.9794249, 16.5018322 ], [ 77.982445, 16.5024968 ], [ 77.9849951, 16.5051051 ], [ 77.9847494, 16.5085713 ], [ 77.9868254, 16.5112193 ], [ 77.9848937, 16.5138061 ], [ 77.9898456, 16.5181616 ], [ 77.9922695, 16.515585 ], [ 77.9947598, 16.5159039 ], [ 77.9932801, 16.5194506 ], [ 77.9979207, 16.5310117 ], [ 78.0072044, 16.5321658 ], [ 78.0186316, 16.5284145 ], [ 78.0200874, 16.5330902 ], [ 78.0138766, 16.5452114 ], [ 77.9978386, 16.5541457 ], [ 77.9977844, 16.5576775 ], [ 78.0040776, 16.5680819 ], [ 77.996729, 16.5843231 ], [ 77.9930817, 16.5864194 ], [ 77.9889123, 16.5922952 ], [ 78.0003495, 16.5943569 ], [ 78.0000557, 16.5979266 ], [ 77.9983485, 16.5986573 ], [ 77.9980256, 16.6004445 ], [ 77.9985614, 16.6022102 ], [ 77.9999468, 16.6024527 ], [ 78.0000485, 16.6070175 ], [ 78.0083393, 16.6153829 ], [ 78.0125961, 16.6167037 ], [ 78.0254417, 16.6161934 ], [ 78.0309874, 16.6217307 ], [ 78.0380548, 16.6256572 ], [ 78.0511161, 16.6248132 ], [ 78.0559454, 16.623123 ], [ 78.0578541, 16.6262115 ] ] ] } }
]
}
