{
"type": "FeatureCollection",
"name": "07",
"crs": { "type": "name", "properties": { "name": "urn:ogc:def:crs:OGC:1.3:CRS84" } },
"features": [
{ "type": "Feature", "properties": { "code": "07", "name": "DELHI", "type": "state" }, "geometry": { "type": "Polygon", "coordinates": [ [ [ 77.0938455, 28.8715333 ], [ 77.1098273, 28.8700704 ], [ 77.1208354, 28.8599364 ], [ 77.120865, 28.8583615 ], [ 77.123366, 28.8576183 ], [ 77.1248986, 28.8576348 ], [ 77.125482, 28.8598632 ], [ 77.1321457, 28.8632047 ], [ 77.1403168, 28.8620601 ], [ 77.140903, 28.860156 ], [ 77.1425491, 28.8597058 ], [ 77.1419912, 28.8562409 ], [ 77.1453096, 28.8536392 ], [ 77.142018, 28.8470508 ], [ 77.1424138, 28.8388608 ], [ 77.1459706, 28.8379155 ], [ 77.15775, 28.8366899 ], [ 77.1567827, 28.8389746 ], [ 77.165948, 28.849073 ], [ 77.1694546, 28.8503926 ], [ 77.1721041, 28.8499123 ], [ 77.1730608, 28.8572323 ], [ 77.1754049, 28.8583223 ], [ 77.1814245, 28.8575078 ], [ 77.1977052, 28.8592282 ], [ 77.2099144, 28.8577158 ], [ 77.2142359, 28.8558176 ], [ 77.2173205, 28.8513348 ], [ 77.216649, 28.8415054 ], [ 77.2229982, 28.8333822 ], [ 77.2225645, 28.830084 ], [ 77.2243934, 28.8253218 ], [ 77.2202568, 28.8191424 ], [ 77.2189634, 28.8082385 ], [ 77.2013018, 28.8129414 ], [ 77.1991295, 28.7992265 ], [ 77.2026255, 28.792462 ], [ 77.2079245, 28.7880251 ], [ 77.2142981, 28.7852361 ], [ 77.2285353, 28.786533 ], [ 77.2341477, 28.7837184 ], [ 77.2218681, 28.7773908 ], [ 77.2314497, 28.7744149 ], [ 77.2317918, 28.7707912 ], [ 77.2358818, 28.7707333 ], [ 77.2355625, 28.7609155 ], [ 77.2487825, 28.7552791 ], [ 77.256368, 28.7562008 ], [ 77.2561472, 28.7543544 ], [ 77.2588583, 28.7526885 ], [ 77.2591821, 28.7500036 ], [ 77.2561953, 28.7438761 ], [ 77.2545579, 28.7435637 ], [ 77.255194, 28.7397408 ], [ 77.260822, 28.7341645 ], [ 77.2729092, 28.7362697 ], [ 77.2764393, 28.7354494 ], [ 77.2863386, 28.7245523 ], [ 77.2907673, 28.7223844 ], [ 77.288831, 28.7195678 ], [ 77.2890887, 28.7168206 ], [ 77.286241, 28.7145342 ], [ 77.2873642, 28.7102653 ], [ 77.2915166, 28.7061532 ], [ 77.2967817, 28.70444 ], [ 77.2995069, 28.7099291 ], [ 77.3060911, 28.7131904 ], [ 77.3166564, 28.7129198 ], [ 77.3177344, 28.7139837 ], [ 77.3220634, 28.7121025 ], [ 77.3230885, 28.7130552 ], [ 77.3310779, 28.7131017 ], [ 77.3254258, 28.7088751 ], [ 77.3244523, 28.706497 ], [ 77.3257375, 28.7028542 ], [ 77.3232705, 28.6985753 ], [ 77.330302, 28.6903873 ], [ 77.3329222, 28.6819602 ], [ 77.3300953, 28.678221 ], [ 77.323601, 28.6767135 ], [ 77.3237212, 28.66896 ], [ 77.3207554, 28.6634891 ], [ 77.3198788, 28.6510863 ], [ 77.3162652, 28.641215 ], [ 77.3236976, 28.6343176 ], [ 77.330628, 28.6313926 ], [ 77.3404005, 28.6225151 ], [ 77.3425627, 28.6219734 ], [ 77.3414901, 28.6174376 ], [ 77.3419608, 28.6070885 ], [ 77.336767, 28.6018142 ], [ 77.3283568, 28.6001554 ], [ 77.3251693, 28.5980517 ], [ 77.3133979, 28.596588 ], [ 77.3101684, 28.5904569 ], [ 77.298379, 28.5801505 ], [ 77.3000525, 28.5757958 ], [ 77.2970945, 28.5659695 ], [ 77.3012339, 28.5626955 ], [ 77.3014452, 28.5608597 ], [ 77.2999728, 28.5597568 ], [ 77.3037945, 28.5524314 ], [ 77.3208967, 28.540898 ], [ 77.324724, 28.5349161 ], [ 77.3301674, 28.5322824 ], [ 77.3339922, 28.5254148 ], [ 77.3383379, 28.5228312 ], [ 77.3470443, 28.5208339 ], [ 77.3474081, 28.5183856 ], [ 77.3454335, 28.5132442 ], [ 77.3361118, 28.505189 ], [ 77.3353028, 28.5022211 ], [ 77.3268279, 28.4901056 ], [ 77.3183708, 28.487367 ], [ 77.3141004, 28.4836066 ], [ 77.3065293, 28.4893879 ], [ 77.3007864, 28.4898505 ], [ 77.3005993, 28.4941689 ], [ 77.2902658, 28.4965353 ], [ 77.2765337, 28.4932827 ], [ 77.2720598, 28.4908023 ], [ 77.2694509, 28.4866379 ], [ 77.2432971, 28.47882 ], [ 77.2355861, 28.4711165 ], [ 77.2329201, 28.4579121 ], [ 77.2344135, 28.4547173 ], [ 77.2425115, 28.4561513 ], [ 77.2461947, 28.453453 ], [ 77.249088, 28.4460887 ], [ 77.2498592, 28.4377499 ], [ 77.2488288, 28.4329164 ], [ 77.2526387, 28.4329087 ], [ 77.249524, 28.4244678 ], [ 77.2384149, 28.4208254 ], [ 77.228521, 28.4139089 ], [ 77.2166055, 28.4097278 ], [ 77.2160063, 28.4114609 ], [ 77.1905068, 28.4072235 ], [ 77.1843732, 28.410428 ], [ 77.1779383, 28.4076713 ], [ 77.1744832, 28.4046676 ], [ 77.1714456, 28.4062642 ], [ 77.1711353, 28.4092376 ], [ 77.1651672, 28.4142296 ], [ 77.1659278, 28.4256934 ], [ 77.1622958, 28.4289395 ], [ 77.155066, 28.4320865 ], [ 77.1483093, 28.4374 ], [ 77.1410771, 28.4366961 ], [ 77.1285931, 28.4409328 ], [ 77.1236294, 28.4454557 ], [ 77.121847, 28.458507 ], [ 77.1168363, 28.4628346 ], [ 77.1107776, 28.471312 ], [ 77.1129663, 28.4712299 ], [ 77.1146862, 28.4809705 ], [ 77.1185366, 28.4879643 ], [ 77.1207321, 28.4959402 ], [ 77.1169706, 28.4963564 ], [ 77.0968092, 28.5058014 ], [ 77.0959215, 28.5065237 ], [ 77.0985277, 28.5110419 ], [ 77.093132, 28.5141013 ], [ 77.0717952, 28.5201884 ], [ 77.0668173, 28.5120137 ], [ 77.0589496, 28.5126417 ], [ 77.046242, 28.5167044 ], [ 77.048512, 28.520738 ], [ 77.031401, 28.5315439 ], [ 77.0240389, 28.5330882 ], [ 77.0154355, 28.5397397 ], [ 77.0094692, 28.539922 ], [ 77.0066531, 28.5414072 ], [ 77.0047846, 28.5401626 ], [ 77.0049611, 28.5387306 ], [ 77.0002263, 28.5320937 ], [ 77.0145496, 28.5239508 ], [ 77.0171073, 28.5208348 ], [ 77.0102218, 28.5143473 ], [ 76.9965648, 28.5197482 ], [ 76.9951899, 28.5167229 ], [ 76.9941245, 28.517113 ], [ 76.9903941, 28.5135042 ], [ 76.9827589, 28.5171215 ], [ 76.978102, 28.5213223 ], [ 76.9707494, 28.5151983 ], [ 76.9516726, 28.5042211 ], [ 76.9416623, 28.5045405 ], [ 76.9330538, 28.5097527 ], [ 76.9269991, 28.5102177 ], [ 76.9207853, 28.5069805 ], [ 76.9143984, 28.5116728 ], [ 76.9079291, 28.5138077 ], [ 76.9030246, 28.5089314 ], [ 76.8986181, 28.5087449 ], [ 76.8922297, 28.5008253 ], [ 76.8854473, 28.5011362 ], [ 76.8856851, 28.5024459 ], [ 76.880409, 28.5062008 ], [ 76.8871264, 28.520573 ], [ 76.8770282, 28.5244037 ], [ 76.8745814, 28.5270139 ], [ 76.8732064, 28.532754 ], [ 76.8673803, 28.535555 ], [ 76.8647152, 28.5435011 ], [ 76.8602759, 28.5458857 ], [ 76.8464599, 28.5497471 ], [ 76.8424094, 28.556304 ], [ 76.8422824, 28.5639806 ], [ 76.8406887, 28.5716591 ], [ 76.8389109, 28.5734745 ], [ 76.8395331, 28.5827923 ], [ 76.8461111, 28.584801 ], [ 76.8631487, 28.5853982 ], [ 76.8660667, 28.587957 ], [ 76.8717647, 28.6028581 ], [ 76.8773413, 28.6088315 ], [ 76.8823964, 28.6227935 ], [ 76.8878477, 28.6316647 ], [ 76.893269, 28.6316928 ], [ 76.9064684, 28.6237969 ], [ 76.9142888, 28.6323495 ], [ 76.9197782, 28.6316266 ], [ 76.9242608, 28.6281385 ], [ 76.9274602, 28.6235631 ], [ 76.9345696, 28.6183544 ], [ 76.9429948, 28.6279975 ], [ 76.9444577, 28.6332914 ], [ 76.9364969, 28.6378315 ], [ 76.9249643, 28.6501463 ], [ 76.9308402, 28.6584636 ], [ 76.9353352, 28.6678607 ], [ 76.9488528, 28.6701889 ], [ 76.9524127, 28.6696052 ], [ 76.9537999, 28.6677218 ], [ 76.9558621, 28.6724384 ], [ 76.9580329, 28.6846294 ], [ 76.96783, 28.6996287 ], [ 76.9481975, 28.712988 ], [ 76.9594017, 28.7292533 ], [ 76.9600605, 28.7327359 ], [ 76.9559347, 28.7382278 ], [ 76.9582803, 28.7432289 ], [ 76.9444901, 28.7540727 ], [ 76.9465064, 28.7587965 ], [ 76.9555727, 28.7677777 ], [ 76.9498111, 28.7770615 ], [ 76.9500661, 28.7832641 ], [ 76.9538477, 28.7909094 ], [ 76.9460398, 28.7979694 ], [ 76.9418907, 28.7986617 ], [ 76.9461357, 28.8062267 ], [ 76.9457568, 28.810687 ], [ 76.9485154, 28.815485 ], [ 76.951014, 28.8181831 ], [ 76.961756, 28.8148096 ], [ 76.964873, 28.8203957 ], [ 76.9634741, 28.8222617 ], [ 76.9643196, 28.8254571 ], [ 76.9670113, 28.8280507 ], [ 76.9730818, 28.8268476 ], [ 76.9766828, 28.8222161 ], [ 76.9796873, 28.8212324 ], [ 76.9859133, 28.829393 ], [ 76.9872395, 28.8352973 ], [ 76.9948142, 28.8395095 ], [ 76.9992755, 28.8378768 ], [ 77.0074439, 28.8407076 ], [ 77.0233329, 28.8393648 ], [ 77.0402323, 28.8320631 ], [ 77.0425835, 28.8344006 ], [ 77.0418415, 28.8378587 ], [ 77.0451295, 28.8409309 ], [ 77.0456927, 28.847455 ], [ 77.05102, 28.8546692 ], [ 77.0578115, 28.8677484 ], [ 77.0609772, 28.8710385 ], [ 77.0692449, 28.8671853 ], [ 77.0717498, 28.8689288 ], [ 77.0746124, 28.8675178 ], [ 77.0792416, 28.8719534 ], [ 77.077649, 28.8771752 ], [ 77.0826599, 28.8834996 ], [ 77.0868315, 28.8808906 ], [ 77.0875609, 28.8753302 ], [ 77.0938455, 28.8715333 ] ] ] } }
]
}
