{
"type": "FeatureCollection",
"name": "36",
"crs": { "type": "name", "properties": { "name": "urn:ogc:def:crs:OGC:1.3:CRS84" } },
"features": [
{ "type": "Feature", "properties": { "code": "36", "name": "TELANGANA", "type": "state" }, "geometry": { "type": "Polygon", "coordinates": [ [ [ 78.3356519, 19.8835779 ], [ 78.3492106, 19.8824812 ], [ 78.3604336, 19.8833957 ], [ 78.3696363, 19.8797729 ], [ 78.3767565, 19.8811784 ], [ 78.3806713, 19.8804362 ], [ 78.3830364, 19.8739055 ], [ 78.3815945, 19.8679585 ], [ 78.3828877, 19.8626009 ], [ 78.3818244, 19.8617608 ], [ 78.3817904, 19.8570416 ], [ 78.3859829, 19.8460902 ], [ 78.4002822, 19.8340277 ], [ 78.4229519, 19.8176267 ], [ 78.4316786, 19.8148763 ], [ 78.4391617, 19.8133639 ], [ 78.4538854, 19.8129486 ], [ 78.469227, 19.8177186 ], [ 78.472459, 19.8173383 ], [ 78.4757058, 19.814634 ], [ 78.4831473, 19.8038099 ], [ 78.485035, 19.7960521 ], [ 78.4902381, 19.7926845 ], [ 78.4952113, 19.7926312 ], [ 78.5072229, 19.7975484 ], [ 78.5084611, 19.8000057 ], [ 78.5089523, 19.8120501 ], [ 78.5121529, 19.814259 ], [ 78.5150183, 19.8189334 ], [ 78.5307776, 19.8184547 ], [ 78.5379376, 19.820054 ], [ 78.5422864, 19.8238299 ], [ 78.5520065, 19.8240846 ], [ 78.5632279, 19.8210762 ], [ 78.5658759, 19.8185276 ], [ 78.5722874, 19.8158457 ], [ 78.586119, 19.818789 ], [ 78.5925786, 19.8175194 ], [ 78.6008226, 19.8185304 ], [ 78.6073115, 19.8176081 ], [ 78.6111483, 19.8163194 ], [ 78.6151916, 19.8119234 ], [ 78.6189867, 19.8099799 ], [ 78.6255175, 19.8081593 ], [ 78.6427428, 19.807807 ], [ 78.65505, 19.8001912 ], [ 78.6663537, 19.7997548 ], [ 78.6751518, 19.7948573 ], [ 78.6925625, 19.7910267 ], [ 78.7013652, 19.7867363 ], [ 78.7060945, 19.7723031 ], [ 78.7191607, 19.7666482 ], [ 78.722313, 19.7665073 ], [ 78.7241463, 19.7677543 ], [ 78.7300244, 19.7802262 ], [ 78.7359739, 19.7828516 ], [ 78.740057, 19.7831332 ], [ 78.7461103, 19.7811697 ], [ 78.7517105, 19.7746586 ], [ 78.756371, 19.7725054 ], [ 78.7589794, 19.7727162 ], [ 78.7711227, 19.7793833 ], [ 78.7773426, 19.7798595 ], [ 78.782366, 19.7784097 ], [ 78.7862999, 19.7765268 ], [ 78.79563, 19.7672664 ], [ 78.7969336, 19.7600092 ], [ 78.8021609, 19.7565338 ], [ 78.8069135, 19.756888 ], [ 78.816919, 19.7618327 ], [ 78.8258783, 19.7551441 ], [ 78.8335133, 19.7601231 ], [ 78.8409635, 19.7618901 ], [ 78.8403957, 19.7563363 ], [ 78.8453241, 19.7468812 ], [ 78.8479521, 19.735497 ], [ 78.8511496, 19.7361262 ], [ 78.8523681, 19.7279037 ], [ 78.8494256, 19.7219692 ], [ 78.8543331, 19.7058452 ], [ 78.8562203, 19.7035804 ], [ 78.8599231, 19.6894913 ], [ 78.8571535, 19.6896192 ], [ 78.8556919, 19.6866609 ], [ 78.8558379, 19.6773061 ], [ 78.8523939, 19.6648637 ], [ 78.8519203, 19.6583608 ], [ 78.8615903, 19.6574053 ], [ 78.8680942, 19.6590251 ], [ 78.8743837, 19.6572356 ], [ 78.8800196, 19.6572509 ], [ 78.8831161, 19.6550128 ], [ 78.8867268, 19.6550714 ], [ 78.8904783, 19.6594096 ], [ 78.8864462, 19.6624532 ], [ 78.8928977, 19.6646812 ], [ 78.896006, 19.6644561 ], [ 78.9035357, 19.6700091 ], [ 78.9076831, 19.6679861 ], [ 78.9116523, 19.6691075 ], [ 78.915825, 19.6668951 ], [ 78.9198646, 19.6669743 ], [ 78.9197241, 19.662004 ], [ 78.944234, 19.6617396 ], [ 78.9475063, 19.6594523 ], [ 78.9528035, 19.6583394 ], [ 78.9555584, 19.655791 ], [ 78.9573898, 19.6471699 ], [ 78.9618498, 19.6374436 ], [ 78.9611904, 19.6316887 ], [ 78.9553693, 19.6191176 ], [ 78.9556202, 19.6001712 ], [ 78.959144, 19.595466 ], [ 78.9717843, 19.590013 ], [ 78.9728349, 19.5823877 ], [ 78.9648689, 19.5735836 ], [ 78.9525432, 19.5649779 ], [ 78.9464892, 19.5616077 ], [ 78.9376727, 19.5618737 ], [ 78.9405763, 19.5549162 ], [ 78.9404436, 19.5518683 ], [ 78.9456469, 19.5496488 ], [ 78.9520955, 19.5488646 ], [ 78.9692641, 19.5502644 ], [ 78.9742231, 19.5493832 ], [ 78.9768017, 19.5569351 ], [ 78.9798531, 19.5576562 ], [ 78.9812519, 19.5608394 ], [ 78.9977477, 19.5490651 ], [ 78.9980314, 19.5400843 ], [ 79.0068678, 19.5420235 ], [ 79.0240249, 19.5417758 ], [ 79.0398635, 19.5476494 ], [ 79.0460115, 19.5483257 ], [ 79.0653361, 19.5396257 ], [ 79.0676937, 19.5356555 ], [ 79.076621, 19.5325586 ], [ 79.0980345, 19.5320268 ], [ 79.1011038, 19.5296091 ], [ 79.1053884, 19.5223782 ], [ 79.1143432, 19.5197591 ], [ 79.1209302, 19.5120009 ], [ 79.1331087, 19.5078261 ], [ 79.1356625, 19.506154 ], [ 79.1386062, 19.5004848 ], [ 79.1429853, 19.500535 ], [ 79.1575488, 19.4892863 ], [ 79.1613544, 19.4882627 ], [ 79.1639035, 19.4837507 ], [ 79.1652451, 19.4762338 ], [ 79.1678324, 19.4723585 ], [ 79.1741191, 19.4682847 ], [ 79.1800741, 19.4618837 ], [ 79.1903119, 19.4589847 ], [ 79.2082053, 19.4649701 ], [ 79.2156846, 19.4646356 ], [ 79.2235893, 19.4690749 ], [ 79.2231871, 19.4723454 ], [ 79.215767, 19.4809417 ], [ 79.2107497, 19.4817379 ], [ 79.2068527, 19.485818 ], [ 79.2038511, 19.4940835 ], [ 79.2051983, 19.4942569 ], [ 79.205797, 19.4970971 ], [ 79.2073834, 19.4976348 ], [ 79.2074648, 19.5061309 ], [ 79.2140293, 19.5111942 ], [ 79.2211627, 19.5209915 ], [ 79.2319807, 19.5193174 ], [ 79.2337282, 19.5200092 ], [ 79.2400231, 19.5352402 ], [ 79.2385384, 19.5424493 ], [ 79.2388455, 19.5479355 ], [ 79.2370823, 19.5503627 ], [ 79.2371238, 19.5571383 ], [ 79.2462184, 19.5675189 ], [ 79.2510256, 19.5774996 ], [ 79.2531243, 19.5932872 ], [ 79.2444128, 19.5948661 ], [ 79.2386432, 19.6061707 ], [ 79.2435571, 19.6166889 ], [ 79.2510977, 19.6158705 ], [ 79.2729492, 19.5988396 ], [ 79.2843625, 19.5955234 ], [ 79.3068405, 19.596556 ], [ 79.3102646, 19.5779604 ], [ 79.3098517, 19.5715125 ], [ 79.3139306, 19.5664208 ], [ 79.3185371, 19.5677009 ], [ 79.3184441, 19.5767234 ], [ 79.3261831, 19.5774292 ], [ 79.3348137, 19.5747947 ], [ 79.3398583, 19.576158 ], [ 79.3515553, 19.5759451 ], [ 79.3573888, 19.5775784 ], [ 79.36573, 19.5763314 ], [ 79.3670784, 19.5729442 ], [ 79.3694704, 19.5726994 ], [ 79.3727529, 19.5609898 ], [ 79.3768031, 19.5588848 ], [ 79.3856773, 19.5583305 ], [ 79.3873218, 19.5547143 ], [ 79.3917463, 19.5528729 ], [ 79.3962115, 19.5480569 ], [ 79.4004816, 19.5423371 ], [ 79.4017131, 19.5384478 ], [ 79.4053187, 19.5356675 ], [ 79.420473, 19.5297582 ], [ 79.4229989, 19.5301591 ], [ 79.4225599, 19.5380427 ], [ 79.4333341, 19.5372566 ], [ 79.4422072, 19.527979 ], [ 79.4460455, 19.5269234 ], [ 79.4532713, 19.5201018 ], [ 79.4567614, 19.5191257 ], [ 79.4588057, 19.5164982 ], [ 79.4689616, 19.5095738 ], [ 79.4714249, 19.5001917 ], [ 79.482632, 19.5062802 ], [ 79.4981162, 19.5056304 ], [ 79.5007635, 19.5073896 ], [ 79.5022555, 19.5116352 ], [ 79.5148266, 19.5194435 ], [ 79.5185886, 19.5201828 ], [ 79.5208091, 19.5348859 ], [ 79.5186108, 19.5431092 ], [ 79.5292174, 19.5510475 ], [ 79.5399272, 19.5546613 ], [ 79.5424815, 19.5542302 ], [ 79.5453798, 19.5506952 ], [ 79.5483873, 19.5316237 ], [ 79.5529324, 19.5241686 ], [ 79.5690001, 19.5182664 ], [ 79.5840441, 19.5091312 ], [ 79.596154, 19.5072773 ], [ 79.6004613, 19.5095072 ], [ 79.6029658, 19.5145508 ], [ 79.6057647, 19.5260099 ], [ 79.6060427, 19.5328271 ], [ 79.6116602, 19.5475159 ], [ 79.6141378, 19.5596773 ], [ 79.6279195, 19.5731708 ], [ 79.6354646, 19.5759364 ], [ 79.6582873, 19.5797142 ], [ 79.6753217, 19.5797123 ], [ 79.6889529, 19.5838668 ], [ 79.6964135, 19.5831951 ], [ 79.7089997, 19.5844783 ], [ 79.7179757, 19.5894534 ], [ 79.7288063, 19.6000496 ], [ 79.7375637, 19.6063952 ], [ 79.7440656, 19.6087019 ], [ 79.7534483, 19.6075339 ], [ 79.7786066, 19.5996665 ], [ 79.7985834, 19.5819666 ], [ 79.8148267, 19.5754197 ], [ 79.8211519, 19.5642186 ], [ 79.8212516, 19.5602108 ], [ 79.824111, 19.5567937 ], [ 79.8249041, 19.5505311 ], [ 79.8284189, 19.5434056 ], [ 79.8328684, 19.5385534 ], [ 79.8456383, 19.5327967 ], [ 79.8481731, 19.5265345 ], [ 79.8553185, 19.5210264 ], [ 79.8645839, 19.5105137 ], [ 79.8709535, 19.5090562 ], [ 79.8808537, 19.5035687 ], [ 79.901694, 19.5009357 ], [ 79.9148657, 19.4958406 ], [ 79.9324109, 19.4765444 ], [ 79.9370134, 19.4732746 ], [ 79.9438794, 19.4707103 ], [ 79.9464435, 19.4678233 ], [ 79.9482154, 19.4606004 ], [ 79.9476087, 19.4496789 ], [ 79.9524779, 19.440947 ], [ 79.9679212, 19.4232124 ], [ 79.972394, 19.4162124 ], [ 79.9746921, 19.4109948 ], [ 79.9747005, 19.4043585 ], [ 79.9779371, 19.4003574 ], [ 79.9771782, 19.3941751 ], [ 79.9797173, 19.3894048 ], [ 79.9784625, 19.3871987 ], [ 79.9740379, 19.3855039 ], [ 79.9718269, 19.3815573 ], [ 79.9714164, 19.3768114 ], [ 79.9695288, 19.3746893 ], [ 79.9702333, 19.3710297 ], [ 79.967575, 19.3603187 ], [ 79.9679656, 19.3566311 ], [ 79.9590805, 19.3359402 ], [ 79.9590851, 19.330861 ], [ 79.965569, 19.3130657 ], [ 79.9658724, 19.3030387 ], [ 79.9622693, 19.2973544 ], [ 79.9548183, 19.2937642 ], [ 79.9505663, 19.2890442 ], [ 79.9363552, 19.2641269 ], [ 79.930744, 19.2502657 ], [ 79.9247423, 19.2272993 ], [ 79.9242223, 19.2154626 ], [ 79.9254534, 19.2106389 ], [ 79.9452831, 19.1791409 ], [ 79.9464994, 19.1742491 ], [ 79.9456685, 19.1689366 ], [ 79.941741, 19.1642789 ], [ 79.9253236, 19.1515927 ], [ 79.8737516, 19.1240518 ], [ 79.8614614, 19.1122609 ], [ 79.8594116, 19.1086241 ], [ 79.8584296, 19.1024162 ], [ 79.858965, 19.0927627 ], [ 79.8633983, 19.0778234 ], [ 79.8633804, 19.0686948 ], [ 79.8659975, 19.0542028 ], [ 79.8685944, 19.0442387 ], [ 79.8711028, 19.0410169 ], [ 79.8770366, 19.0387986 ], [ 79.8992193, 19.0402437 ], [ 79.907559, 19.0448146 ], [ 79.9206281, 19.0497141 ], [ 79.9279194, 19.0493181 ], [ 79.9319123, 19.0480822 ], [ 79.9370665, 19.0426944 ], [ 79.9402632, 19.0325638 ], [ 79.9425589, 19.0069804 ], [ 79.9423965, 19.0006571 ], [ 79.9409586, 19.0002254 ], [ 79.941623, 18.9920892 ], [ 79.9442214, 18.9865141 ], [ 79.9449851, 18.9800309 ], [ 79.9570465, 18.9428753 ], [ 79.9574158, 18.9227921 ], [ 79.9536137, 18.9045045 ], [ 79.9586737, 18.8886104 ], [ 79.9612627, 18.8754601 ], [ 79.961605, 18.8666266 ], [ 79.9585129, 18.8594239 ], [ 79.9546005, 18.857237 ], [ 79.9476423, 18.8501822 ], [ 79.9413782, 18.8460376 ], [ 79.9282533, 18.8409128 ], [ 79.9157823, 18.8299125 ], [ 79.9140306, 18.8238067 ], [ 79.9210479, 18.8102307 ], [ 79.9289951, 18.8026324 ], [ 79.9494873, 18.7891494 ], [ 79.9591514, 18.7773039 ], [ 79.9641541, 18.773825 ], [ 79.9732259, 18.7717563 ], [ 79.9846492, 18.7715401 ], [ 79.9930508, 18.769934 ], [ 79.9958271, 18.7708214 ], [ 79.9980947, 18.7759217 ], [ 79.9995824, 18.7750601 ], [ 80.000993, 18.7760662 ], [ 80.0185443, 18.770383 ], [ 80.0195327, 18.7657506 ], [ 80.0232319, 18.7617024 ], [ 80.0230817, 18.7571985 ], [ 80.024984, 18.7549396 ], [ 80.0345528, 18.7549876 ], [ 80.0386831, 18.7529728 ], [ 80.041414, 18.7429911 ], [ 80.0482178, 18.732941 ], [ 80.0494794, 18.7286748 ], [ 80.052797, 18.7250588 ], [ 80.0569399, 18.7233192 ], [ 80.0646206, 18.7232626 ], [ 80.069256, 18.7195723 ], [ 80.0745856, 18.7105166 ], [ 80.0820736, 18.7072471 ], [ 80.0885066, 18.7072776 ], [ 80.099043, 18.6944817 ], [ 80.1041543, 18.6915683 ], [ 80.1122491, 18.682878 ], [ 80.1181219, 18.6805168 ], [ 80.1243771, 18.681359 ], [ 80.1285558, 18.6874333 ], [ 80.1400168, 18.6930002 ], [ 80.1484639, 18.6930864 ], [ 80.1529196, 18.6958719 ], [ 80.1558409, 18.7006109 ], [ 80.157708, 18.7009798 ], [ 80.1651175, 18.7009237 ], [ 80.1686228, 18.6997094 ], [ 80.17416, 18.6881803 ], [ 80.1787045, 18.6832677 ], [ 80.1904692, 18.6804615 ], [ 80.196569, 18.6807955 ], [ 80.1993714, 18.6832072 ], [ 80.1992235, 18.6900013 ], [ 80.2004283, 18.6925598 ], [ 80.2127717, 18.7057177 ], [ 80.2193343, 18.7079174 ], [ 80.226278, 18.7055953 ], [ 80.2296775, 18.7018593 ], [ 80.2336588, 18.7024063 ], [ 80.2386414, 18.7057327 ], [ 80.2522325, 18.7068067 ], [ 80.2650121, 18.7175048 ], [ 80.2661392, 18.7205519 ], [ 80.2714851, 18.7233001 ], [ 80.2799481, 18.7207401 ], [ 80.2841744, 18.7167987 ], [ 80.2864859, 18.7114334 ], [ 80.3041553, 18.6860404 ], [ 80.3142373, 18.6585068 ], [ 80.3140398, 18.6543826 ], [ 80.3186739, 18.6421467 ], [ 80.3231249, 18.637563 ], [ 80.3274897, 18.6353778 ], [ 80.331017, 18.6282098 ], [ 80.3310795, 18.6244966 ], [ 80.3349014, 18.611953 ], [ 80.3446499, 18.5972014 ], [ 80.3481229, 18.5941392 ], [ 80.3564511, 18.5950842 ], [ 80.3621452, 18.5991458 ], [ 80.3629503, 18.6032295 ], [ 80.3661575, 18.6070602 ], [ 80.3751592, 18.6106562 ], [ 80.3782719, 18.6089079 ], [ 80.3884524, 18.5966566 ], [ 80.3941521, 18.6006088 ], [ 80.3958533, 18.6049316 ], [ 80.4091435, 18.6097947 ], [ 80.4200027, 18.6103977 ], [ 80.4224061, 18.6151177 ], [ 80.4276172, 18.6128757 ], [ 80.43039, 18.6164571 ], [ 80.442124, 18.6232382 ], [ 80.4561235, 18.6293581 ], [ 80.4655358, 18.6239421 ], [ 80.4740421, 18.6261783 ], [ 80.4775151, 18.6258422 ], [ 80.4791658, 18.6287323 ], [ 80.488265, 18.6310851 ], [ 80.5016037, 18.6215722 ], [ 80.5146607, 18.6193325 ], [ 80.518832, 18.6143079 ], [ 80.5192887, 18.6086459 ], [ 80.5281347, 18.6026629 ], [ 80.5307369, 18.598935 ], [ 80.5352507, 18.5907389 ], [ 80.5345081, 18.5883532 ], [ 80.5422835, 18.5869122 ], [ 80.5564315, 18.5797358 ], [ 80.5674928, 18.5712472 ], [ 80.5714142, 18.5646773 ], [ 80.5909633, 18.5579031 ], [ 80.599912, 18.5530371 ], [ 80.6106405, 18.5423747 ], [ 80.618499, 18.5276707 ], [ 80.6227648, 18.5285629 ], [ 80.6310914, 18.5219018 ], [ 80.6375692, 18.5225293 ], [ 80.6409385, 18.5115085 ], [ 80.6368495, 18.5070169 ], [ 80.6372057, 18.5043458 ], [ 80.6457182, 18.4915845 ], [ 80.651298, 18.4858983 ], [ 80.6553085, 18.4758626 ], [ 80.6690628, 18.4677537 ], [ 80.6733394, 18.4665597 ], [ 80.6787321, 18.460769 ], [ 80.6861041, 18.4582596 ], [ 80.6880623, 18.4473594 ], [ 80.6957574, 18.4445666 ], [ 80.7017186, 18.4445897 ], [ 80.7053136, 18.439862 ], [ 80.6982434, 18.4375563 ], [ 80.696204, 18.4247339 ], [ 80.6989528, 18.4214304 ], [ 80.7182724, 18.4097289 ], [ 80.7208316, 18.4110364 ], [ 80.7228632, 18.4151795 ], [ 80.7304191, 18.4145806 ], [ 80.7348736, 18.4128405 ], [ 80.7321728, 18.4012217 ], [ 80.719676, 18.3907951 ], [ 80.7227636, 18.3845585 ], [ 80.7294016, 18.3788383 ], [ 80.7302296, 18.3759224 ], [ 80.7273217, 18.371954 ], [ 80.7268992, 18.3691255 ], [ 80.7314978, 18.3549133 ], [ 80.7421446, 18.341098 ], [ 80.7476536, 18.3299623 ], [ 80.7487237, 18.3089247 ], [ 80.7577238, 18.3019079 ], [ 80.7587442, 18.2993042 ], [ 80.7568319, 18.2950611 ], [ 80.7594948, 18.2898652 ], [ 80.7618628, 18.2882324 ], [ 80.7688403, 18.2879438 ], [ 80.775479, 18.2782047 ], [ 80.780105, 18.2666324 ], [ 80.7918645, 18.2627366 ], [ 80.7940631, 18.2600853 ], [ 80.7942845, 18.2545625 ], [ 80.7940442, 18.2517206 ], [ 80.7921047, 18.249201 ], [ 80.7767755, 18.2428469 ], [ 80.7372023, 18.2220929 ], [ 80.7369031, 18.1771646 ], [ 80.7449779, 18.1703255 ], [ 80.7600316, 18.1676309 ], [ 80.7754429, 18.166736 ], [ 80.7991133, 18.1681698 ], [ 80.8132581, 18.1801868 ], [ 80.8174709, 18.1891055 ], [ 80.8240683, 18.1910363 ], [ 80.822598, 18.2241083 ], [ 80.8235919, 18.2360753 ], [ 80.8367246, 18.2389198 ], [ 80.8434296, 18.2324385 ], [ 80.8605196, 18.2319933 ], [ 80.8659373, 18.2301279 ], [ 80.872608, 18.2105765 ], [ 80.8709678, 18.2047942 ], [ 80.8639062, 18.2026526 ], [ 80.8552136, 18.2041562 ], [ 80.852912, 18.2020011 ], [ 80.853962, 18.1963454 ], [ 80.8585428, 18.1864525 ], [ 80.8570836, 18.1744224 ], [ 80.8604024, 18.1613942 ], [ 80.8601625, 18.1478643 ], [ 80.865455, 18.1414544 ], [ 80.8666696, 18.1369234 ], [ 80.8910832, 18.1359786 ], [ 80.9001315, 18.1371206 ], [ 80.9141702, 18.1411705 ], [ 80.9399033, 18.1554252 ], [ 80.941638, 18.1566171 ], [ 80.9423577, 18.1603844 ], [ 80.9516213, 18.1636562 ], [ 80.9576558, 18.1735469 ], [ 80.9790275, 18.1754113 ], [ 80.9787388, 18.1508002 ], [ 80.9555134, 18.1290551 ], [ 80.951778, 18.0901203 ], [ 80.9500009, 18.0878802 ], [ 80.9492572, 18.0828616 ], [ 80.9534356, 18.078627 ], [ 80.9624447, 18.0629835 ], [ 80.9690527, 18.0464281 ], [ 80.9697597, 18.0438483 ], [ 80.9642599, 18.0381407 ], [ 80.9695359, 18.0317458 ], [ 80.9727291, 18.0248325 ], [ 80.9791957, 18.0044493 ], [ 80.9878431, 17.9444456 ], [ 80.9983402, 17.9167865 ], [ 80.9993356, 17.9032868 ], [ 80.9974044, 17.8967584 ], [ 80.9966563, 17.8873659 ], [ 80.9941676, 17.8809045 ], [ 80.9965511, 17.8717529 ], [ 80.9956019, 17.8597826 ], [ 80.9964545, 17.8490708 ], [ 81.0032341, 17.8306149 ], [ 81.0034586, 17.8195198 ], [ 81.008219, 17.7993663 ], [ 81.0094251, 17.7972514 ], [ 81.0176673, 17.7913786 ], [ 81.0317642, 17.7884719 ], [ 81.0389812, 17.7841518 ], [ 81.0466165, 17.7823073 ], [ 81.0732627, 17.7864543 ], [ 81.0855875, 17.7980235 ], [ 81.089781, 17.7910398 ], [ 81.0959976, 17.7744933 ], [ 81.1038751, 17.773198 ], [ 81.1042623, 17.7720064 ], [ 81.0956497, 17.7622043 ], [ 81.0825797, 17.7531005 ], [ 81.0698327, 17.7407125 ], [ 81.0581986, 17.7331125 ], [ 81.0504995, 17.7340176 ], [ 81.0441605, 17.7404165 ], [ 81.0405644, 17.7476084 ], [ 81.0276325, 17.7481285 ], [ 81.0159159, 17.7450292 ], [ 80.991318, 17.7499171 ], [ 80.9842276, 17.7556562 ], [ 80.9768758, 17.7763173 ], [ 80.9734218, 17.7801222 ], [ 80.9721663, 17.7779552 ], [ 80.9658671, 17.7797816 ], [ 80.9634268, 17.7773912 ], [ 80.9553239, 17.7746196 ], [ 80.9556219, 17.7729057 ], [ 80.9463125, 17.7601869 ], [ 80.9278527, 17.7617744 ], [ 80.9233824, 17.7572863 ], [ 80.9194597, 17.7562001 ], [ 80.9172395, 17.7504093 ], [ 80.9175696, 17.7481077 ], [ 80.9149991, 17.7483568 ], [ 80.9144373, 17.7504554 ], [ 80.9127766, 17.7495023 ], [ 80.9145847, 17.7465268 ], [ 80.9130031, 17.7459241 ], [ 80.906033, 17.7470405 ], [ 80.9023706, 17.7462022 ], [ 80.8855463, 17.735678 ], [ 80.8907643, 17.721881 ], [ 80.8909933, 17.7136848 ], [ 80.8947496, 17.70291 ], [ 80.8907946, 17.6897625 ], [ 80.8764025, 17.6683787 ], [ 80.8760662, 17.660215 ], [ 80.8781319, 17.6506683 ], [ 80.8827388, 17.6459133 ], [ 80.897043, 17.6406387 ], [ 80.9380966, 17.6325793 ], [ 80.9523595, 17.6370341 ], [ 80.9623659, 17.6457194 ], [ 80.9692539, 17.6493436 ], [ 80.9800595, 17.6526106 ], [ 80.9920949, 17.6534647 ], [ 81.0052618, 17.6487595 ], [ 81.0095487, 17.6436455 ], [ 81.0070449, 17.6217147 ], [ 80.9959232, 17.6290757 ], [ 80.9873071, 17.626148 ], [ 80.984106, 17.6262096 ], [ 80.9755178, 17.6191449 ], [ 80.9693064, 17.5983766 ], [ 80.9767271, 17.5871892 ], [ 80.9828297, 17.582736 ], [ 80.9888044, 17.5724194 ], [ 80.9983998, 17.5646846 ], [ 81.0028082, 17.5506098 ], [ 81.0084259, 17.5470023 ], [ 81.0136769, 17.5366187 ], [ 81.0148264, 17.5221262 ], [ 81.0198958, 17.5200343 ], [ 81.0472052, 17.5195139 ], [ 81.0800677, 17.5150461 ], [ 81.091348, 17.5056522 ], [ 81.0975632, 17.5042559 ], [ 81.1011058, 17.5056023 ], [ 81.1174646, 17.5220708 ], [ 81.1244968, 17.5270595 ], [ 81.1272797, 17.5264229 ], [ 81.1384757, 17.5162356 ], [ 81.1405065, 17.5046647 ], [ 81.144871, 17.495076 ], [ 81.1421454, 17.4885875 ], [ 81.1596051, 17.4843025 ], [ 81.1559592, 17.475995 ], [ 81.1482537, 17.4636533 ], [ 81.1755473, 17.4636364 ], [ 81.1723271, 17.4490433 ], [ 81.1829842, 17.4402474 ], [ 81.1932972, 17.4356252 ], [ 81.2026971, 17.4339532 ], [ 81.2022972, 17.440664 ], [ 81.2052636, 17.4495879 ], [ 81.2089547, 17.4464651 ], [ 81.211759, 17.4417402 ], [ 81.2184869, 17.4422059 ], [ 81.2214252, 17.4394381 ], [ 81.2363276, 17.4355758 ], [ 81.2426917, 17.4320634 ], [ 81.2455072, 17.4330256 ], [ 81.2597413, 17.4222194 ], [ 81.2685423, 17.418259 ], [ 81.300512, 17.4127067 ], [ 81.3123823, 17.4087238 ], [ 81.3185934, 17.3984233 ], [ 81.3226374, 17.3745444 ], [ 81.3164697, 17.3690023 ], [ 81.3163139, 17.364484 ], [ 81.3119899, 17.3606934 ], [ 81.3052998, 17.3459062 ], [ 81.3011071, 17.3406635 ], [ 81.2974067, 17.3383397 ], [ 81.2885194, 17.3280727 ], [ 81.2785114, 17.3234116 ], [ 81.2740288, 17.3171927 ], [ 81.2682545, 17.320026 ], [ 81.2456713, 17.3257899 ], [ 81.2446301, 17.3230896 ], [ 81.2391333, 17.3234931 ], [ 81.2391328, 17.3208435 ], [ 81.2335668, 17.3203608 ], [ 81.2220471, 17.3214899 ], [ 81.2103137, 17.3260509 ], [ 81.1904105, 17.3248141 ], [ 81.1866724, 17.3139518 ], [ 81.1837557, 17.3103937 ], [ 81.1813673, 17.3044509 ], [ 81.1766589, 17.2876681 ], [ 81.1767667, 17.284404 ], [ 81.178895, 17.2826789 ], [ 81.1795685, 17.2783713 ], [ 81.1781762, 17.269043 ], [ 81.183937, 17.2583489 ], [ 81.1875947, 17.254652 ], [ 81.1860909, 17.2484938 ], [ 81.1833799, 17.2470194 ], [ 81.1750164, 17.2369716 ], [ 81.1730091, 17.2320266 ], [ 81.1739773, 17.230337 ], [ 81.1594724, 17.2307984 ], [ 81.1276017, 17.2243111 ], [ 81.1094325, 17.2234686 ], [ 81.0903699, 17.2195975 ], [ 81.0832877, 17.2176229 ], [ 81.0796062, 17.2152771 ], [ 81.0546093, 17.2248742 ], [ 81.055595, 17.2195599 ], [ 81.0494953, 17.2070686 ], [ 81.0436431, 17.2021367 ], [ 81.0368657, 17.1924819 ], [ 81.0328609, 17.1919673 ], [ 81.0312711, 17.1903299 ], [ 81.0154282, 17.1944023 ], [ 81.0121157, 17.194139 ], [ 81.0086191, 17.1918594 ], [ 80.9984494, 17.1904636 ], [ 80.9943589, 17.1913233 ], [ 80.9824689, 17.1961934 ], [ 80.9762877, 17.2002724 ], [ 80.960287, 17.2040652 ], [ 80.9412815, 17.2192941 ], [ 80.9188773, 17.2197373 ], [ 80.9165725, 17.2133977 ], [ 80.9188191, 17.2034681 ], [ 80.921012, 17.2005812 ], [ 80.9206215, 17.1949093 ], [ 80.9189954, 17.1934746 ], [ 80.9187104, 17.1899979 ], [ 80.9226704, 17.1885884 ], [ 80.9264348, 17.1834802 ], [ 80.9251984, 17.1677476 ], [ 80.9236093, 17.165933 ], [ 80.9230914, 17.1612903 ], [ 80.9239946, 17.1578463 ], [ 80.9165918, 17.1536918 ], [ 80.9070253, 17.1538504 ], [ 80.892404, 17.1593719 ], [ 80.8795203, 17.1608153 ], [ 80.8777001, 17.1498139 ], [ 80.8782504, 17.1351399 ], [ 80.8732292, 17.1284612 ], [ 80.8692992, 17.1266865 ], [ 80.8677406, 17.1231306 ], [ 80.8683331, 17.1202736 ], [ 80.8734849, 17.1141012 ], [ 80.8764302, 17.1055891 ], [ 80.8738918, 17.0985396 ], [ 80.8752076, 17.0954522 ], [ 80.867581, 17.0804499 ], [ 80.8687094, 17.0779971 ], [ 80.8761081, 17.0748777 ], [ 80.8768821, 17.0709919 ], [ 80.8714913, 17.069835 ], [ 80.8655092, 17.0585588 ], [ 80.8591097, 17.05261 ], [ 80.8558411, 17.0465154 ], [ 80.8453095, 17.0399672 ], [ 80.8407897, 17.0467075 ], [ 80.8288226, 17.0527675 ], [ 80.8104134, 17.0553229 ], [ 80.8040659, 17.0575026 ], [ 80.798736, 17.0612361 ], [ 80.7904608, 17.0634633 ], [ 80.7649804, 17.0666121 ], [ 80.750894, 17.0726206 ], [ 80.7464672, 17.0777716 ], [ 80.7446467, 17.0769371 ], [ 80.7388813, 17.0795889 ], [ 80.7368009, 17.0776876 ], [ 80.7105809, 17.0818843 ], [ 80.7053564, 17.080777 ], [ 80.6994497, 17.0837942 ], [ 80.698982, 17.0816016 ], [ 80.6963382, 17.0800576 ], [ 80.6972926, 17.0767875 ], [ 80.6949626, 17.0741352 ], [ 80.6769012, 17.0708997 ], [ 80.6734654, 17.0666383 ], [ 80.6717362, 17.0675803 ], [ 80.671066, 17.0700363 ], [ 80.6664047, 17.0674806 ], [ 80.6538108, 17.0686115 ], [ 80.6499153, 17.0713681 ], [ 80.6570932, 17.0895588 ], [ 80.6588908, 17.0915607 ], [ 80.6680527, 17.0949268 ], [ 80.6705548, 17.1011875 ], [ 80.6612782, 17.1072946 ], [ 80.649239, 17.1113639 ], [ 80.6420427, 17.1159048 ], [ 80.64527, 17.1235482 ], [ 80.6368841, 17.1283739 ], [ 80.627903, 17.1298988 ], [ 80.6182523, 17.1284213 ], [ 80.6169893, 17.1315804 ], [ 80.6064003, 17.1351808 ], [ 80.6005393, 17.1422831 ], [ 80.5800285, 17.1530664 ], [ 80.563184, 17.1331045 ], [ 80.5573239, 17.132125 ], [ 80.5542909, 17.1335998 ], [ 80.5488207, 17.1307887 ], [ 80.5423435, 17.124604 ], [ 80.5354489, 17.1225478 ], [ 80.5312114, 17.11979 ], [ 80.5273771, 17.1189502 ], [ 80.5140799, 17.1220529 ], [ 80.5128838, 17.1092456 ], [ 80.505661, 17.0984345 ], [ 80.5040339, 17.092642 ], [ 80.5100807, 17.0869042 ], [ 80.5053972, 17.0684637 ], [ 80.497673, 17.062653 ], [ 80.4938745, 17.05781 ], [ 80.4909319, 17.050968 ], [ 80.4859958, 17.0520847 ], [ 80.4713759, 17.0503694 ], [ 80.4648593, 17.0300238 ], [ 80.4532998, 17.0347606 ], [ 80.4386285, 17.0375833 ], [ 80.4317216, 17.0555245 ], [ 80.4170466, 17.0736119 ], [ 80.4185539, 17.0784284 ], [ 80.4177894, 17.087881 ], [ 80.4189649, 17.0923013 ], [ 80.4090304, 17.091497 ], [ 80.4078519, 17.0878518 ], [ 80.4044344, 17.0867606 ], [ 80.4049729, 17.08403 ], [ 80.4038173, 17.0819629 ], [ 80.4006342, 17.0819615 ], [ 80.3946097, 17.0762202 ], [ 80.3910233, 17.0746674 ], [ 80.387264, 17.071292 ], [ 80.3857332, 17.0679269 ], [ 80.3916599, 17.0612967 ], [ 80.3938165, 17.0547683 ], [ 80.3984784, 17.0523404 ], [ 80.3982485, 17.04909 ], [ 80.3959324, 17.0463304 ], [ 80.3957586, 17.0357278 ], [ 80.4007382, 17.0321895 ], [ 80.4000396, 17.0307133 ], [ 80.407149, 17.0257604 ], [ 80.4070349, 17.015796 ], [ 80.3878534, 17.0092663 ], [ 80.3869208, 17.0045856 ], [ 80.3811019, 16.9979939 ], [ 80.3757644, 16.9886983 ], [ 80.3715648, 16.986349 ], [ 80.3680718, 16.9814768 ], [ 80.3666151, 16.9814351 ], [ 80.3634046, 16.9760656 ], [ 80.3720935, 16.9754152 ], [ 80.4076513, 16.9639659 ], [ 80.4193986, 16.9625689 ], [ 80.4496677, 16.9547639 ], [ 80.4674348, 16.9454472 ], [ 80.4730176, 16.9384838 ], [ 80.4820295, 16.9321265 ], [ 80.4934461, 16.9274286 ], [ 80.493986, 16.9377944 ], [ 80.4962551, 16.9464134 ], [ 80.4955926, 16.9499948 ], [ 80.499229, 16.9563346 ], [ 80.5017005, 16.9573792 ], [ 80.5054593, 16.9565381 ], [ 80.5261035, 16.9478814 ], [ 80.5346961, 16.9614145 ], [ 80.54577, 16.9569264 ], [ 80.5675485, 16.9429018 ], [ 80.5734867, 16.9413216 ], [ 80.5754729, 16.9381417 ], [ 80.5809785, 16.9361545 ], [ 80.5813209, 16.9325238 ], [ 80.5839119, 16.9291486 ], [ 80.5904036, 16.9270927 ], [ 80.5917124, 16.9229906 ], [ 80.5969135, 16.9238566 ], [ 80.5982228, 16.9210613 ], [ 80.5995805, 16.9211555 ], [ 80.6019416, 16.9185897 ], [ 80.5945639, 16.9112788 ], [ 80.5923402, 16.907445 ], [ 80.5881683, 16.9058822 ], [ 80.58712, 16.9041778 ], [ 80.5876771, 16.9022941 ], [ 80.5948202, 16.8988903 ], [ 80.5959124, 16.884622 ], [ 80.5928631, 16.8826563 ], [ 80.5850799, 16.8818321 ], [ 80.5775591, 16.8789543 ], [ 80.5683061, 16.8693881 ], [ 80.5711853, 16.86112 ], [ 80.5701411, 16.8485219 ], [ 80.5628477, 16.8328408 ], [ 80.5655317, 16.8268433 ], [ 80.5775651, 16.8229637 ], [ 80.5834308, 16.8143418 ], [ 80.594399, 16.802807 ], [ 80.6129666, 16.793541 ], [ 80.6105437, 16.7929499 ], [ 80.6098638, 16.7941848 ], [ 80.5971074, 16.7922057 ], [ 80.5968573, 16.790533 ], [ 80.5934194, 16.7884834 ], [ 80.5931794, 16.786955 ], [ 80.5884087, 16.7849582 ], [ 80.5871645, 16.7822477 ], [ 80.584954, 16.783551 ], [ 80.5834508, 16.7813266 ], [ 80.5768724, 16.7771461 ], [ 80.5732132, 16.770667 ], [ 80.5702408, 16.768009 ], [ 80.5515839, 16.7750103 ], [ 80.5261929, 16.7745853 ], [ 80.5043932, 16.7786886 ], [ 80.4940469, 16.7836901 ], [ 80.4862958, 16.7911107 ], [ 80.4644549, 16.7954487 ], [ 80.4638331, 16.8053649 ], [ 80.4661413, 16.8163501 ], [ 80.4642402, 16.8199778 ], [ 80.4601599, 16.8200403 ], [ 80.4532713, 16.82301 ], [ 80.450068, 16.8272285 ], [ 80.4414137, 16.8307773 ], [ 80.4408769, 16.8342715 ], [ 80.4382004, 16.8342482 ], [ 80.4344006, 16.8374261 ], [ 80.4285875, 16.8381162 ], [ 80.4297064, 16.8467267 ], [ 80.4279434, 16.8468824 ], [ 80.4277094, 16.8497965 ], [ 80.4121226, 16.8519025 ], [ 80.412061, 16.8529426 ], [ 80.3852593, 16.86329 ], [ 80.3840371, 16.8652565 ], [ 80.382708, 16.8652874 ], [ 80.3829395, 16.8635427 ], [ 80.3803141, 16.8636543 ], [ 80.378834, 16.8615599 ], [ 80.3827803, 16.8549004 ], [ 80.3783674, 16.8519899 ], [ 80.3834732, 16.8500256 ], [ 80.4077959, 16.8482288 ], [ 80.4042158, 16.8320464 ], [ 80.3997071, 16.8335457 ], [ 80.3966806, 16.8275032 ], [ 80.3923653, 16.8279307 ], [ 80.3908364, 16.8247373 ], [ 80.3860658, 16.824902 ], [ 80.3873327, 16.8189596 ], [ 80.3860149, 16.81625 ], [ 80.383165, 16.8158053 ], [ 80.3804313, 16.8174499 ], [ 80.3736959, 16.8282318 ], [ 80.3743511, 16.8317279 ], [ 80.3784519, 16.8369807 ], [ 80.379614, 16.8410785 ], [ 80.3780734, 16.8416204 ], [ 80.3733928, 16.8394967 ], [ 80.3740656, 16.8523945 ], [ 80.3493828, 16.8591209 ], [ 80.3409043, 16.8597122 ], [ 80.3440076, 16.8743701 ], [ 80.3216989, 16.8796299 ], [ 80.324973, 16.9003346 ], [ 80.3238052, 16.9064273 ], [ 80.3156137, 16.9155009 ], [ 80.3115867, 16.9166595 ], [ 80.3138715, 16.9248287 ], [ 80.3130932, 16.9405253 ], [ 80.3164745, 16.9484354 ], [ 80.3081423, 16.9513417 ], [ 80.3050154, 16.9536994 ], [ 80.3065886, 16.9737928 ], [ 80.3012813, 16.9758636 ], [ 80.2935174, 16.9766611 ], [ 80.2902749, 16.981076 ], [ 80.2943641, 16.9938324 ], [ 80.2935908, 16.9963324 ], [ 80.2826609, 17.007672 ], [ 80.2776676, 17.0052611 ], [ 80.2704736, 17.0039872 ], [ 80.2668955, 17.0013379 ], [ 80.2648952, 16.9972743 ], [ 80.2568596, 16.99893 ], [ 80.256072, 17.0011042 ], [ 80.2404017, 17.0021484 ], [ 80.2400734, 17.005119 ], [ 80.2358218, 17.0073341 ], [ 80.228828, 17.0144069 ], [ 80.2261618, 17.0153216 ], [ 80.2228682, 17.0078377 ], [ 80.2114296, 17.0102735 ], [ 80.202057, 17.0170256 ], [ 80.1996378, 17.026362 ], [ 80.2040905, 17.0382881 ], [ 80.1964528, 17.0440337 ], [ 80.1920036, 17.0335366 ], [ 80.1926346, 17.0267456 ], [ 80.1872871, 17.019955 ], [ 80.1803842, 17.0190223 ], [ 80.177728, 17.0166036 ], [ 80.1701654, 17.0168272 ], [ 80.1677638, 17.005591 ], [ 80.162022, 17.0049399 ], [ 80.157285, 17.0074148 ], [ 80.1533569, 17.0069427 ], [ 80.1465416, 17.0003783 ], [ 80.1402369, 16.9905923 ], [ 80.1362305, 16.9919737 ], [ 80.1278556, 16.9922667 ], [ 80.1204795, 16.9912227 ], [ 80.1203967, 16.9878944 ], [ 80.1096273, 16.9872148 ], [ 80.1025473, 16.9909593 ], [ 80.0951606, 16.9906515 ], [ 80.0941091, 16.9755785 ], [ 80.0915685, 16.9683554 ], [ 80.0875425, 16.9683889 ], [ 80.0833803, 16.970176 ], [ 80.0554448, 16.9714216 ], [ 80.0574298, 16.9640372 ], [ 80.0524489, 16.9598709 ], [ 80.0482205, 16.9494294 ], [ 80.0484946, 16.9467075 ], [ 80.0518973, 16.9421022 ], [ 80.0505854, 16.936415 ], [ 80.0445459, 16.9292616 ], [ 80.0404047, 16.9180829 ], [ 80.0395521, 16.9170725 ], [ 80.0375098, 16.9185604 ], [ 80.0314489, 16.9168785 ], [ 80.0270596, 16.9175381 ], [ 80.0245569, 16.9150587 ], [ 80.0173837, 16.9149748 ], [ 80.0124169, 16.8926825 ], [ 80.0045783, 16.8810466 ], [ 80.005083, 16.8764532 ], [ 80.0015591, 16.8676853 ], [ 79.9987615, 16.8652141 ], [ 80.0036304, 16.8638959 ], [ 80.0039504, 16.8617938 ], [ 80.0165592, 16.8546143 ], [ 80.0290059, 16.8520238 ], [ 80.0468438, 16.8533423 ], [ 80.0464032, 16.8386846 ], [ 80.0481767, 16.8332299 ], [ 80.0594974, 16.8251859 ], [ 80.070794, 16.8213016 ], [ 80.071064, 16.8180913 ], [ 80.073254, 16.8171912 ], [ 80.0708022, 16.8132383 ], [ 80.0698175, 16.8083341 ], [ 80.0706019, 16.8016923 ], [ 80.0664523, 16.7864118 ], [ 80.0538616, 16.7654336 ], [ 80.0549553, 16.7446463 ], [ 80.0366429, 16.727657 ], [ 80.0300382, 16.7144052 ], [ 80.0221452, 16.7103265 ], [ 80.0075822, 16.708837 ], [ 79.9974112, 16.7020928 ], [ 79.9773523, 16.6622781 ], [ 79.9647692, 16.6449525 ], [ 79.9497541, 16.6359008 ], [ 79.9323539, 16.6313144 ], [ 79.9101061, 16.6339176 ], [ 79.9064634, 16.6362998 ], [ 79.8937222, 16.6501119 ], [ 79.8906457, 16.6588813 ], [ 79.8855136, 16.6873493 ], [ 79.8775287, 16.6972982 ], [ 79.8588472, 16.704655 ], [ 79.8510627, 16.7058389 ], [ 79.8281561, 16.6937831 ], [ 79.8210877, 16.6915129 ], [ 79.8172622, 16.691867 ], [ 79.8111956, 16.6956825 ], [ 79.7988713, 16.7106795 ], [ 79.792511, 16.7254967 ], [ 79.7858298, 16.7301415 ], [ 79.7739909, 16.7307752 ], [ 79.7446129, 16.7190817 ], [ 79.7293211, 16.6955054 ], [ 79.7228941, 16.6902765 ], [ 79.7138888, 16.689244 ], [ 79.7069172, 16.6912713 ], [ 79.6988598, 16.6913858 ], [ 79.6855155, 16.6945641 ], [ 79.6815417, 16.6943724 ], [ 79.6621851, 16.6866494 ], [ 79.6482784, 16.6700281 ], [ 79.6330906, 16.6604241 ], [ 79.6214898, 16.6631759 ], [ 79.6063221, 16.6713075 ], [ 79.5989234, 16.6732254 ], [ 79.5921823, 16.6698817 ], [ 79.5847101, 16.6593438 ], [ 79.5756295, 16.6497845 ], [ 79.5599662, 16.6425791 ], [ 79.5420909, 16.6322465 ], [ 79.5294236, 16.6306423 ], [ 79.5103714, 16.6357418 ], [ 79.5038451, 16.6359193 ], [ 79.494013, 16.6330418 ], [ 79.4833311, 16.6230956 ], [ 79.476927, 16.6224135 ], [ 79.4595785, 16.6236588 ], [ 79.4471734, 16.6197128 ], [ 79.4391372, 16.6129115 ], [ 79.4330514, 16.5907472 ], [ 79.426386, 16.5848433 ], [ 79.41864, 16.5802452 ], [ 79.3968161, 16.5797846 ], [ 79.3767691, 16.5827549 ], [ 79.3536916, 16.5792667 ], [ 79.3401136, 16.5826392 ], [ 79.3264325, 16.5764585 ], [ 79.3082361, 16.5741455 ], [ 79.2955153, 16.5630113 ], [ 79.2910222, 16.5615747 ], [ 79.2813634, 16.5606059 ], [ 79.2616378, 16.566923 ], [ 79.256838, 16.5658186 ], [ 79.2522181, 16.5592516 ], [ 79.2502736, 16.5471511 ], [ 79.2447724, 16.5318092 ], [ 79.241254, 16.5291652 ], [ 79.2285573, 16.5247704 ], [ 79.2208841, 16.51434 ], [ 79.21483, 16.4879088 ], [ 79.2145963, 16.4834841 ], [ 79.217063, 16.4775561 ], [ 79.2333569, 16.4592011 ], [ 79.2317595, 16.4576086 ], [ 79.217953, 16.453817 ], [ 79.2115645, 16.4473876 ], [ 79.2077234, 16.3847506 ], [ 79.2084384, 16.3792914 ], [ 79.2124259, 16.3734722 ], [ 79.2102016, 16.3582303 ], [ 79.2143302, 16.3493544 ], [ 79.2335936, 16.3359968 ], [ 79.2342959, 16.3338391 ], [ 79.2338097, 16.3219908 ], [ 79.2310394, 16.3143261 ], [ 79.230382, 16.2824903 ], [ 79.2245874, 16.2711935 ], [ 79.2226096, 16.2417331 ], [ 79.2206272, 16.2340775 ], [ 79.216546, 16.2274042 ], [ 79.2062799, 16.2209056 ], [ 79.1719052, 16.2103988 ], [ 79.1569474, 16.2092869 ], [ 79.1460038, 16.2139663 ], [ 79.1237713, 16.2310192 ], [ 79.1197247, 16.2319382 ], [ 79.1086396, 16.2284825 ], [ 79.1015777, 16.2228231 ], [ 79.0944282, 16.2242865 ], [ 79.084106, 16.2301201 ], [ 79.0721105, 16.2270726 ], [ 79.0585826, 16.2351901 ], [ 79.0480186, 16.2386731 ], [ 79.0291797, 16.2417408 ], [ 79.0095088, 16.2402149 ], [ 78.9857169, 16.2107149 ], [ 78.9811641, 16.2098547 ], [ 78.9677382, 16.2111239 ], [ 78.9602691, 16.2090707 ], [ 78.9489561, 16.203538 ], [ 78.9376186, 16.2011977 ], [ 78.9300138, 16.1980524 ], [ 78.9201765, 16.1919592 ], [ 78.9110635, 16.1884265 ], [ 78.9054015, 16.1835896 ], [ 78.9037554, 16.1793482 ], [ 78.9047019, 16.1745837 ], [ 78.910543, 16.164071 ], [ 78.9150295, 16.1485093 ], [ 78.9225003, 16.1400303 ], [ 78.9242796, 16.1357784 ], [ 78.9243844, 16.1308355 ], [ 78.9216175, 16.1228228 ], [ 78.9220271, 16.1043133 ], [ 78.9179301, 16.1000267 ], [ 78.9061072, 16.0948316 ], [ 78.8955997, 16.0855796 ], [ 78.8924088, 16.0844744 ], [ 78.8890488, 16.0851861 ], [ 78.8887782, 16.0919912 ], [ 78.8861817, 16.1011757 ], [ 78.8793943, 16.1176056 ], [ 78.8765101, 16.1355307 ], [ 78.8721496, 16.1439687 ], [ 78.8646278, 16.1470181 ], [ 78.8524782, 16.1488598 ], [ 78.8391597, 16.146648 ], [ 78.8338478, 16.144476 ], [ 78.8330424, 16.1373233 ], [ 78.8388108, 16.1157353 ], [ 78.8423091, 16.0963681 ], [ 78.842261, 16.085915 ], [ 78.8402912, 16.0781381 ], [ 78.8370584, 16.0703739 ], [ 78.8276525, 16.0608196 ], [ 78.8194046, 16.0483025 ], [ 78.8012067, 16.0377634 ], [ 78.7960583, 16.0284046 ], [ 78.7914842, 16.0240844 ], [ 78.7854813, 16.0211457 ], [ 78.7661284, 16.0164424 ], [ 78.752956, 16.0162798 ], [ 78.7409066, 16.0086628 ], [ 78.7354959, 16.0081518 ], [ 78.7235714, 16.0201195 ], [ 78.7053546, 16.0264339 ], [ 78.6993666, 16.0271474 ], [ 78.6811923, 16.0347897 ], [ 78.67262, 16.0458697 ], [ 78.6681435, 16.0544972 ], [ 78.6553428, 16.0683802 ], [ 78.6504207, 16.0719919 ], [ 78.6502214, 16.0788064 ], [ 78.6380334, 16.0844619 ], [ 78.6272387, 16.0876368 ], [ 78.6099621, 16.0871261 ], [ 78.6016327, 16.0839261 ], [ 78.5962493, 16.0779661 ], [ 78.5923865, 16.0691024 ], [ 78.5869354, 16.0634356 ], [ 78.5824116, 16.0615447 ], [ 78.5702733, 16.0524019 ], [ 78.557633, 16.044968 ], [ 78.5517609, 16.0428018 ], [ 78.5420515, 16.0441686 ], [ 78.5229245, 16.0536928 ], [ 78.4986503, 16.0599734 ], [ 78.4747726, 16.0684985 ], [ 78.4658542, 16.069191 ], [ 78.4590166, 16.0717621 ], [ 78.4411145, 16.0744293 ], [ 78.4345148, 16.0712034 ], [ 78.4286701, 16.0731771 ], [ 78.407892, 16.0748092 ], [ 78.401452, 16.0720135 ], [ 78.3976271, 16.0661273 ], [ 78.3843911, 16.0646023 ], [ 78.3738131, 16.0534193 ], [ 78.3654184, 16.0467808 ], [ 78.3619678, 16.0457961 ], [ 78.3477304, 16.0474746 ], [ 78.3382344, 16.0437006 ], [ 78.3265568, 16.0367376 ], [ 78.3220759, 16.0286811 ], [ 78.3219272, 16.0171094 ], [ 78.3122616, 16.0115096 ], [ 78.3068604, 16.0106486 ], [ 78.2994194, 16.0115438 ], [ 78.2919143, 16.0152561 ], [ 78.2840538, 16.0214429 ], [ 78.2771887, 16.0243156 ], [ 78.2669845, 16.0271527 ], [ 78.2608635, 16.025817 ], [ 78.2574859, 16.0213531 ], [ 78.2555058, 16.0128513 ], [ 78.2598424, 15.9990836 ], [ 78.2598214, 15.9955643 ], [ 78.2525354, 15.9816056 ], [ 78.251262, 15.9768066 ], [ 78.2512566, 15.9719261 ], [ 78.2533307, 15.9663258 ], [ 78.2520792, 15.9538287 ], [ 78.2536239, 15.9425373 ], [ 78.2516171, 15.9352247 ], [ 78.2434699, 15.9294027 ], [ 78.2321352, 15.9239939 ], [ 78.2045131, 15.9179832 ], [ 78.200881, 15.9155737 ], [ 78.1913581, 15.9132807 ], [ 78.1844293, 15.9098172 ], [ 78.1813876, 15.9065182 ], [ 78.1794361, 15.9019329 ], [ 78.1899344, 15.8922688 ], [ 78.186605, 15.8848054 ], [ 78.1766745, 15.876763 ], [ 78.1753438, 15.8580753 ], [ 78.1667939, 15.8546264 ], [ 78.1587668, 15.8537597 ], [ 78.156751, 15.8547008 ], [ 78.1355361, 15.8547044 ], [ 78.13007, 15.8506991 ], [ 78.1342758, 15.8440157 ], [ 78.1339993, 15.8362599 ], [ 78.1301133, 15.8380935 ], [ 78.1233174, 15.8367055 ], [ 78.1115905, 15.83817 ], [ 78.1015774, 15.8373918 ], [ 78.0987893, 15.8360148 ], [ 78.0835546, 15.8409228 ], [ 78.0848779, 15.8450585 ], [ 78.0751141, 15.8471812 ], [ 78.0713556, 15.8503676 ], [ 78.0724053, 15.856988 ], [ 78.0714922, 15.8571359 ], [ 78.0715198, 15.8617453 ], [ 78.0558319, 15.8663274 ], [ 78.0562052, 15.8746326 ], [ 78.0468186, 15.8749013 ], [ 78.0449421, 15.9041418 ], [ 78.0318896, 15.9073461 ], [ 78.031, 15.9029618 ], [ 78.0255108, 15.9023639 ], [ 78.0150259, 15.8759929 ], [ 78.0087969, 15.8647836 ], [ 78.0088631, 15.8617538 ], [ 77.9969638, 15.8663175 ], [ 77.9753342, 15.883339 ], [ 77.9490503, 15.884756 ], [ 77.9369571, 15.8834971 ], [ 77.9133895, 15.8934101 ], [ 77.8995033, 15.9016168 ], [ 77.8879788, 15.906084 ], [ 77.8782166, 15.9052168 ], [ 77.8700492, 15.897245 ], [ 77.8623231, 15.8863609 ], [ 77.8585121, 15.883708 ], [ 77.8512633, 15.8819528 ], [ 77.8459658, 15.8821216 ], [ 77.8387286, 15.8850929 ], [ 77.8273072, 15.8801542 ], [ 77.8053652, 15.8742806 ], [ 77.7929179, 15.8764782 ], [ 77.7823553, 15.8761709 ], [ 77.7772306, 15.880773 ], [ 77.76687, 15.8861441 ], [ 77.7607872, 15.8846181 ], [ 77.7440487, 15.8861013 ], [ 77.7388105, 15.8880323 ], [ 77.7313327, 15.8936972 ], [ 77.7240959, 15.8958142 ], [ 77.712733, 15.8945159 ], [ 77.6927471, 15.8833143 ], [ 77.6825022, 15.8833183 ], [ 77.6661532, 15.8859631 ], [ 77.6592006, 15.8854989 ], [ 77.6364737, 15.8960574 ], [ 77.6250537, 15.9090426 ], [ 77.6192491, 15.9137991 ], [ 77.6113918, 15.9179348 ], [ 77.5984494, 15.9124111 ], [ 77.5933102, 15.9119199 ], [ 77.5896637, 15.9128966 ], [ 77.5808076, 15.9184784 ], [ 77.5489782, 15.9191224 ], [ 77.5383298, 15.9212941 ], [ 77.5324587, 15.9240886 ], [ 77.5134382, 15.9267925 ], [ 77.5173609, 15.9451656 ], [ 77.5198078, 15.9669135 ], [ 77.5163971, 15.9673598 ], [ 77.5150922, 15.9704948 ], [ 77.5106624, 15.975159 ], [ 77.5110926, 15.9793713 ], [ 77.5095546, 15.9803952 ], [ 77.5113102, 15.9964762 ], [ 77.5140521, 16.0080763 ], [ 77.5044124, 16.0113288 ], [ 77.5043382, 16.0182059 ], [ 77.50267, 16.018711 ], [ 77.5022518, 16.0224701 ], [ 77.4974551, 16.0286702 ], [ 77.498034, 16.0299775 ], [ 77.4955776, 16.030984 ], [ 77.4943796, 16.0365313 ], [ 77.4953498, 16.0416998 ], [ 77.4978696, 16.0440887 ], [ 77.4968108, 16.0471212 ], [ 77.4994567, 16.0537225 ], [ 77.4965799, 16.0550167 ], [ 77.4994355, 16.061022 ], [ 77.5026114, 16.0588119 ], [ 77.5069178, 16.0789714 ], [ 77.5060055, 16.0807014 ], [ 77.4942838, 16.0856519 ], [ 77.4937846, 16.0871658 ], [ 77.5009319, 16.1061884 ], [ 77.5087499, 16.1091932 ], [ 77.5132756, 16.1080238 ], [ 77.5105348, 16.1111265 ], [ 77.5108146, 16.1122697 ], [ 77.5023093, 16.117172 ], [ 77.5002225, 16.1205911 ], [ 77.4945045, 16.1191875 ], [ 77.4897933, 16.1196301 ], [ 77.4915967, 16.135017 ], [ 77.4906757, 16.1595841 ], [ 77.486152, 16.1629842 ], [ 77.491324, 16.1845303 ], [ 77.4994851, 16.1985601 ], [ 77.4995457, 16.2062685 ], [ 77.4981841, 16.2095602 ], [ 77.5011491, 16.2217178 ], [ 77.5027894, 16.2236616 ], [ 77.5121538, 16.2209198 ], [ 77.5152115, 16.222286 ], [ 77.5157, 16.2268317 ], [ 77.5144399, 16.2304572 ], [ 77.5131675, 16.2308472 ], [ 77.5035565, 16.2309366 ], [ 77.4950637, 16.2271179 ], [ 77.492343, 16.2292973 ], [ 77.4929784, 16.2440765 ], [ 77.4900802, 16.2552302 ], [ 77.4972246, 16.2585969 ], [ 77.5024044, 16.2630578 ], [ 77.5051426, 16.2676003 ], [ 77.5048148, 16.2758009 ], [ 77.5104291, 16.2745886 ], [ 77.5138561, 16.2778437 ], [ 77.5218694, 16.2780286 ], [ 77.5275031, 16.2752933 ], [ 77.5296033, 16.275484 ], [ 77.5293352, 16.2728024 ], [ 77.5328236, 16.271681 ], [ 77.5368979, 16.266804 ], [ 77.5408214, 16.2854564 ], [ 77.5450759, 16.2917115 ], [ 77.5531299, 16.2970913 ], [ 77.5632058, 16.3016355 ], [ 77.5687886, 16.3032956 ], [ 77.5819996, 16.2913384 ], [ 77.597719, 16.2928052 ], [ 77.5933692, 16.297445 ], [ 77.5920163, 16.3021665 ], [ 77.5953822, 16.3181212 ], [ 77.592368, 16.3237416 ], [ 77.59, 16.3254988 ], [ 77.5908322, 16.3292763 ], [ 77.5880332, 16.3333739 ], [ 77.5952364, 16.3396347 ], [ 77.5948399, 16.3431753 ], [ 77.5870532, 16.3433727 ], [ 77.5727204, 16.3409341 ], [ 77.5684799, 16.3437118 ], [ 77.555001, 16.348768 ], [ 77.5460406, 16.3569295 ], [ 77.5387723, 16.3582051 ], [ 77.5314268, 16.3637639 ], [ 77.5233988, 16.3758331 ], [ 77.5143663, 16.3749745 ], [ 77.4988336, 16.3810579 ], [ 77.4953521, 16.3811576 ], [ 77.489691, 16.3850148 ], [ 77.4746742, 16.3817691 ], [ 77.4409839, 16.3807654 ], [ 77.4371125, 16.3786067 ], [ 77.4295326, 16.3696624 ], [ 77.4209484, 16.3662305 ], [ 77.4114387, 16.3674477 ], [ 77.4017045, 16.3713031 ], [ 77.3780461, 16.3855643 ], [ 77.3558372, 16.3826353 ], [ 77.3490971, 16.3838454 ], [ 77.3334195, 16.3953689 ], [ 77.3139325, 16.3980071 ], [ 77.3043026, 16.4017271 ], [ 77.2974522, 16.406898 ], [ 77.288211, 16.4087016 ], [ 77.2762801, 16.4244379 ], [ 77.2689503, 16.4304616 ], [ 77.2620744, 16.4518385 ], [ 77.2480135, 16.4619476 ], [ 77.2444089, 16.4633142 ], [ 77.235761, 16.4727439 ], [ 77.2397667, 16.476248 ], [ 77.245813, 16.4777312 ], [ 77.2504412, 16.4760791 ], [ 77.2507276, 16.4749316 ], [ 77.264993, 16.4725134 ], [ 77.2939966, 16.4766703 ], [ 77.2947764, 16.4803461 ], [ 77.2993204, 16.4879069 ], [ 77.2987129, 16.4961615 ], [ 77.320299, 16.4922151 ], [ 77.3235739, 16.4868437 ], [ 77.3295637, 16.4859054 ], [ 77.3430924, 16.4879322 ], [ 77.3443851, 16.486943 ], [ 77.3462019, 16.4881089 ], [ 77.3463748, 16.4903681 ], [ 77.3514324, 16.4910601 ], [ 77.3547015, 16.4887787 ], [ 77.3690128, 16.4886714 ], [ 77.3700705, 16.5045821 ], [ 77.3727165, 16.5096564 ], [ 77.3777888, 16.5137048 ], [ 77.3814374, 16.5157109 ], [ 77.3910249, 16.516203 ], [ 77.3949782, 16.5196863 ], [ 77.4022055, 16.5215154 ], [ 77.4168863, 16.5172999 ], [ 77.4174052, 16.5207495 ], [ 77.4191168, 16.5223783 ], [ 77.4181767, 16.5229629 ], [ 77.4190171, 16.5489244 ], [ 77.4104537, 16.5490033 ], [ 77.4087863, 16.5503951 ], [ 77.4037568, 16.5511945 ], [ 77.4041772, 16.5541775 ], [ 77.3999609, 16.555737 ], [ 77.3975031, 16.5647615 ], [ 77.3926211, 16.5639923 ], [ 77.3928745, 16.5699744 ], [ 77.4000095, 16.5675249 ], [ 77.403594, 16.5718078 ], [ 77.4049386, 16.5718934 ], [ 77.4117786, 16.5708577 ], [ 77.4153667, 16.5675227 ], [ 77.4237577, 16.568881 ], [ 77.4256347, 16.572187 ], [ 77.4285512, 16.5736519 ], [ 77.4308527, 16.5788665 ], [ 77.4397108, 16.587147 ], [ 77.4622237, 16.5854778 ], [ 77.4648272, 16.5924167 ], [ 77.4622524, 16.5976615 ], [ 77.4639099, 16.5992063 ], [ 77.4673966, 16.5988369 ], [ 77.4677895, 16.6097575 ], [ 77.4581869, 16.6107207 ], [ 77.4536478, 16.6167472 ], [ 77.4561621, 16.6229859 ], [ 77.4639249, 16.6282375 ], [ 77.4643767, 16.6324979 ], [ 77.4682494, 16.6359527 ], [ 77.4706886, 16.6404969 ], [ 77.4708589, 16.6437544 ], [ 77.4734609, 16.645434 ], [ 77.4761107, 16.6501071 ], [ 77.4729071, 16.652802 ], [ 77.4624037, 16.6542714 ], [ 77.4614323, 16.6511186 ], [ 77.4570213, 16.649679 ], [ 77.4564858, 16.6468102 ], [ 77.4446817, 16.6392328 ], [ 77.4415797, 16.641103 ], [ 77.4343436, 16.6413821 ], [ 77.4343423, 16.6433562 ], [ 77.4378125, 16.6438842 ], [ 77.4385957, 16.6453297 ], [ 77.4297218, 16.6562029 ], [ 77.4190123, 16.6584373 ], [ 77.4188604, 16.6685723 ], [ 77.4281701, 16.6682 ], [ 77.434548, 16.6709764 ], [ 77.442552, 16.6698452 ], [ 77.4442275, 16.6756869 ], [ 77.4465809, 16.6760702 ], [ 77.4477165, 16.6793095 ], [ 77.4638975, 16.6763031 ], [ 77.4698017, 16.68703 ], [ 77.4698923, 16.7055992 ], [ 77.471389, 16.7061978 ], [ 77.4711583, 16.7117794 ], [ 77.4740496, 16.7165588 ], [ 77.463811, 16.7191749 ], [ 77.4629572, 16.7179689 ], [ 77.4613307, 16.7189952 ], [ 77.4577942, 16.7159423 ], [ 77.45216, 16.7195951 ], [ 77.4471845, 16.7207279 ], [ 77.4461316, 16.7164924 ], [ 77.4419784, 16.7170318 ], [ 77.4412278, 16.7131159 ], [ 77.4402302, 16.7135583 ], [ 77.438462, 16.7116792 ], [ 77.4364181, 16.7125157 ], [ 77.4328047, 16.7173014 ], [ 77.427672, 16.7166356 ], [ 77.4260679, 16.7228738 ], [ 77.4309651, 16.7231244 ], [ 77.4303598, 16.7263745 ], [ 77.4283202, 16.7265964 ], [ 77.4269556, 16.7289117 ], [ 77.4298007, 16.7348 ], [ 77.4333041, 16.7366878 ], [ 77.4395034, 16.7519615 ], [ 77.4408563, 16.7587612 ], [ 77.4431491, 16.7625106 ], [ 77.4396259, 16.7685677 ], [ 77.4397851, 16.7721759 ], [ 77.4378818, 16.7747111 ], [ 77.4377203, 16.7833679 ], [ 77.4394988, 16.7891316 ], [ 77.4410698, 16.7862301 ], [ 77.4671948, 16.7804529 ], [ 77.474498, 16.7812403 ], [ 77.476494, 16.7883698 ], [ 77.4733874, 16.7892099 ], [ 77.4746933, 16.7930994 ], [ 77.4742571, 16.8023184 ], [ 77.465703, 16.8059214 ], [ 77.4664593, 16.8083247 ], [ 77.462437, 16.8137436 ], [ 77.4632383, 16.8222102 ], [ 77.457083, 16.8301798 ], [ 77.459483, 16.8328548 ], [ 77.4640581, 16.8505926 ], [ 77.4600148, 16.8746848 ], [ 77.460357, 16.8847509 ], [ 77.4558961, 16.8853427 ], [ 77.4583385, 16.8940906 ], [ 77.4564591, 16.8999242 ], [ 77.4579133, 16.9095065 ], [ 77.4547023, 16.9103726 ], [ 77.4540159, 16.9138977 ], [ 77.4584248, 16.914907 ], [ 77.4592023, 16.9173114 ], [ 77.4665167, 16.915107 ], [ 77.4694353, 16.9191974 ], [ 77.4694114, 16.9280618 ], [ 77.4642022, 16.9298533 ], [ 77.4669293, 16.9384402 ], [ 77.4682858, 16.9395924 ], [ 77.4680426, 16.9415444 ], [ 77.4648378, 16.9441843 ], [ 77.4672063, 16.9498489 ], [ 77.4652285, 16.9566133 ], [ 77.4659458, 16.9589296 ], [ 77.4721466, 16.9571421 ], [ 77.4782979, 16.968367 ], [ 77.4813413, 16.9704302 ], [ 77.4828911, 16.9856469 ], [ 77.4790553, 16.9945042 ], [ 77.4795162, 16.9960175 ], [ 77.4865589, 17.0032117 ], [ 77.4918746, 17.0036606 ], [ 77.4978275, 17.0093273 ], [ 77.5022016, 17.0093741 ], [ 77.5025316, 17.0141045 ], [ 77.5006216, 17.0192855 ], [ 77.4976992, 17.0216209 ], [ 77.494946, 17.0270893 ], [ 77.4966513, 17.0427206 ], [ 77.4881061, 17.0471712 ], [ 77.4876566, 17.0495298 ], [ 77.4898365, 17.0505361 ], [ 77.4834536, 17.0589069 ], [ 77.4799268, 17.0688032 ], [ 77.4789834, 17.0726275 ], [ 77.4819412, 17.0758457 ], [ 77.4809801, 17.0792347 ], [ 77.4765598, 17.0794312 ], [ 77.4672526, 17.08633 ], [ 77.4628551, 17.0940891 ], [ 77.4646883, 17.1077599 ], [ 77.4636228, 17.1099968 ], [ 77.4591919, 17.1090995 ], [ 77.4556316, 17.1114503 ], [ 77.4542752, 17.1148529 ], [ 77.4495534, 17.1150172 ], [ 77.4457957, 17.1179552 ], [ 77.4422902, 17.1165694 ], [ 77.4384892, 17.1168461 ], [ 77.4360031, 17.114981 ], [ 77.4066584, 17.1245112 ], [ 77.4038216, 17.1329151 ], [ 77.3845424, 17.140028 ], [ 77.3779168, 17.1399422 ], [ 77.3789929, 17.1478306 ], [ 77.3781706, 17.1526603 ], [ 77.3668967, 17.154413 ], [ 77.3659192, 17.1559672 ], [ 77.3668166, 17.1589807 ], [ 77.3637243, 17.1587817 ], [ 77.3638791, 17.1621838 ], [ 77.3626148, 17.1644833 ], [ 77.366769, 17.1693043 ], [ 77.3662001, 17.1722093 ], [ 77.370068, 17.1761581 ], [ 77.3719008, 17.181128 ], [ 77.3694565, 17.1863235 ], [ 77.3714399, 17.1899696 ], [ 77.3733529, 17.1908687 ], [ 77.3739592, 17.1945508 ], [ 77.3722717, 17.1955628 ], [ 77.3817431, 17.1976547 ], [ 77.3902274, 17.1963848 ], [ 77.3938936, 17.1943966 ], [ 77.3964095, 17.2075296 ], [ 77.3983889, 17.2103126 ], [ 77.4037479, 17.2098921 ], [ 77.4019762, 17.2141211 ], [ 77.3959355, 17.2138642 ], [ 77.388762, 17.2153241 ], [ 77.3829612, 17.2179763 ], [ 77.3801876, 17.2225305 ], [ 77.4049458, 17.2365297 ], [ 77.4082705, 17.2412053 ], [ 77.4103908, 17.2404143 ], [ 77.4114482, 17.2376717 ], [ 77.4204186, 17.2376248 ], [ 77.4224574, 17.2502023 ], [ 77.4263297, 17.2564624 ], [ 77.4357822, 17.2601828 ], [ 77.4439961, 17.2705493 ], [ 77.4508148, 17.2705334 ], [ 77.4535585, 17.2760986 ], [ 77.4585352, 17.2789973 ], [ 77.4586889, 17.2807297 ], [ 77.4548778, 17.2872415 ], [ 77.4379259, 17.2919188 ], [ 77.4405091, 17.3013016 ], [ 77.4429765, 17.3012244 ], [ 77.4455974, 17.3077381 ], [ 77.4476527, 17.3074979 ], [ 77.4488434, 17.3096209 ], [ 77.4521907, 17.3175531 ], [ 77.4524543, 17.3274748 ], [ 77.4560249, 17.331396 ], [ 77.4570576, 17.3474099 ], [ 77.4548672, 17.3517841 ], [ 77.451678, 17.3526798 ], [ 77.4521359, 17.3564792 ], [ 77.4510644, 17.3593801 ], [ 77.4528554, 17.3673851 ], [ 77.4522315, 17.3718851 ], [ 77.4536062, 17.3739899 ], [ 77.4790959, 17.3707212 ], [ 77.4759989, 17.3684096 ], [ 77.4765329, 17.3637117 ], [ 77.4744315, 17.3615127 ], [ 77.4764306, 17.3608114 ], [ 77.4787436, 17.3574263 ], [ 77.4838185, 17.3549974 ], [ 77.4882008, 17.3587269 ], [ 77.5026252, 17.3570652 ], [ 77.5081282, 17.3594903 ], [ 77.5157588, 17.3603847 ], [ 77.5248226, 17.3646953 ], [ 77.5298019, 17.3707113 ], [ 77.530322, 17.3746899 ], [ 77.5327067, 17.3762048 ], [ 77.5331515, 17.3804969 ], [ 77.5300463, 17.3801295 ], [ 77.5262153, 17.3819302 ], [ 77.5264023, 17.3840718 ], [ 77.5249715, 17.3849023 ], [ 77.5242855, 17.3879962 ], [ 77.5372346, 17.4022507 ], [ 77.5378441, 17.4060928 ], [ 77.5360738, 17.4079804 ], [ 77.5298338, 17.4081763 ], [ 77.5141738, 17.4141812 ], [ 77.5129984, 17.4308703 ], [ 77.5325975, 17.4423776 ], [ 77.537301, 17.4437469 ], [ 77.5526887, 17.4370504 ], [ 77.561509, 17.4376137 ], [ 77.5758618, 17.4307144 ], [ 77.5751921, 17.4457682 ], [ 77.5761861, 17.4561676 ], [ 77.5842388, 17.4545038 ], [ 77.5870024, 17.4519472 ], [ 77.6029183, 17.4441516 ], [ 77.6142714, 17.4459464 ], [ 77.6132638, 17.4674149 ], [ 77.6152311, 17.4728907 ], [ 77.61734, 17.4738847 ], [ 77.6382414, 17.4735187 ], [ 77.6405106, 17.4764642 ], [ 77.6447852, 17.4775662 ], [ 77.6476579, 17.4871708 ], [ 77.6478755, 17.4960754 ], [ 77.6499522, 17.4998883 ], [ 77.6568923, 17.5064611 ], [ 77.6533274, 17.4938947 ], [ 77.6522753, 17.4828523 ], [ 77.6554397, 17.4830828 ], [ 77.6573649, 17.4809185 ], [ 77.6705274, 17.477889 ], [ 77.6768031, 17.4783574 ], [ 77.6884021, 17.4751961 ], [ 77.6896318, 17.4828115 ], [ 77.6880051, 17.4894261 ], [ 77.6923955, 17.4968791 ], [ 77.6921289, 17.5017758 ], [ 77.6887986, 17.5109389 ], [ 77.6877159, 17.5118203 ], [ 77.6859682, 17.5091959 ], [ 77.6834159, 17.5081756 ], [ 77.6774932, 17.5099798 ], [ 77.6754554, 17.5086224 ], [ 77.6730154, 17.5094207 ], [ 77.6686417, 17.5116083 ], [ 77.6665429, 17.5171295 ], [ 77.6620096, 17.5228227 ], [ 77.6452651, 17.5223822 ], [ 77.6369967, 17.5257124 ], [ 77.6279604, 17.5236345 ], [ 77.6233881, 17.5256268 ], [ 77.6209722, 17.5303975 ], [ 77.6193571, 17.528875 ], [ 77.6120625, 17.5347567 ], [ 77.6078151, 17.5324703 ], [ 77.6030115, 17.5358401 ], [ 77.5968993, 17.5343032 ], [ 77.5956227, 17.536589 ], [ 77.5955836, 17.5448746 ], [ 77.5972257, 17.5537252 ], [ 77.5937999, 17.5645131 ], [ 77.5890711, 17.5646975 ], [ 77.5880954, 17.5600029 ], [ 77.5819666, 17.5598846 ], [ 77.5673661, 17.5563568 ], [ 77.5608493, 17.5525688 ], [ 77.5542366, 17.5538496 ], [ 77.5505593, 17.5517338 ], [ 77.5451235, 17.5643905 ], [ 77.5374363, 17.5754421 ], [ 77.5283834, 17.5753655 ], [ 77.5164907, 17.5591495 ], [ 77.5154399, 17.5524174 ], [ 77.5068988, 17.542279 ], [ 77.5000295, 17.5467247 ], [ 77.499442, 17.5517797 ], [ 77.5004326, 17.5561942 ], [ 77.4961842, 17.5596147 ], [ 77.4940657, 17.5683579 ], [ 77.478051, 17.5668035 ], [ 77.4762303, 17.5706129 ], [ 77.4742529, 17.5720099 ], [ 77.4708239, 17.571858 ], [ 77.4705938, 17.5733851 ], [ 77.4618129, 17.580753 ], [ 77.4585813, 17.5799728 ], [ 77.4556196, 17.5823322 ], [ 77.443119, 17.5839632 ], [ 77.4449804, 17.5862486 ], [ 77.4432867, 17.5916885 ], [ 77.4461384, 17.5964673 ], [ 77.4447629, 17.6094067 ], [ 77.4487299, 17.6093449 ], [ 77.4511473, 17.6232062 ], [ 77.4557543, 17.6324884 ], [ 77.4558917, 17.6341779 ], [ 77.4520762, 17.6364202 ], [ 77.4522331, 17.6399982 ], [ 77.4497186, 17.6439567 ], [ 77.4500134, 17.6505796 ], [ 77.4482183, 17.6511224 ], [ 77.4489284, 17.6594303 ], [ 77.4548205, 17.6744811 ], [ 77.4534879, 17.677111 ], [ 77.453704, 17.6864942 ], [ 77.4550435, 17.6889287 ], [ 77.45216, 17.691139 ], [ 77.4524302, 17.6947034 ], [ 77.4578228, 17.6963005 ], [ 77.4588679, 17.6986231 ], [ 77.4673165, 17.7028844 ], [ 77.4719076, 17.7029997 ], [ 77.4774522, 17.7053462 ], [ 77.4797328, 17.7039354 ], [ 77.4821757, 17.7059988 ], [ 77.4841505, 17.7056047 ], [ 77.4848913, 17.7091431 ], [ 77.4860091, 17.7079259 ], [ 77.4922692, 17.7081256 ], [ 77.4970621, 17.7155148 ], [ 77.5014505, 17.7166352 ], [ 77.5046945, 17.7155755 ], [ 77.509144, 17.7162922 ], [ 77.5095432, 17.7189281 ], [ 77.5116536, 17.7209245 ], [ 77.516552, 17.7201592 ], [ 77.5182423, 17.7235802 ], [ 77.5220075, 17.7260265 ], [ 77.5285891, 17.7251669 ], [ 77.5313262, 17.7286697 ], [ 77.5332831, 17.7276767 ], [ 77.5421879, 17.7289367 ], [ 77.5459639, 17.7268407 ], [ 77.5470241, 17.728457 ], [ 77.5462267, 17.7328239 ], [ 77.5486104, 17.735766 ], [ 77.5566952, 17.7373774 ], [ 77.5580091, 17.7413852 ], [ 77.560941, 17.7428093 ], [ 77.5643864, 17.7478564 ], [ 77.5685342, 17.7489064 ], [ 77.5672658, 17.7595974 ], [ 77.5689811, 17.7623718 ], [ 77.5691495, 17.766492 ], [ 77.5662779, 17.7667531 ], [ 77.5598279, 17.7634176 ], [ 77.554859, 17.7639709 ], [ 77.5501001, 17.7672082 ], [ 77.548238, 17.7670624 ], [ 77.5460551, 17.7716558 ], [ 77.5402565, 17.7743781 ], [ 77.5405422, 17.7777711 ], [ 77.5375091, 17.7799337 ], [ 77.5343933, 17.7776282 ], [ 77.5286719, 17.7806568 ], [ 77.5269983, 17.779897 ], [ 77.526356, 17.7816314 ], [ 77.5221127, 17.780554 ], [ 77.5175139, 17.7824941 ], [ 77.5123318, 17.7821297 ], [ 77.5065574, 17.7859527 ], [ 77.5075841, 17.7878643 ], [ 77.5090041, 17.7877856 ], [ 77.5151572, 17.8054654 ], [ 77.521647, 17.8107092 ], [ 77.5269372, 17.8133051 ], [ 77.5290315, 17.8129312 ], [ 77.5282214, 17.8278978 ], [ 77.5323762, 17.8291106 ], [ 77.5466966, 17.8284846 ], [ 77.5490022, 17.8196264 ], [ 77.5540261, 17.8200679 ], [ 77.5606827, 17.8386455 ], [ 77.5674352, 17.8454197 ], [ 77.5648435, 17.8511879 ], [ 77.5693248, 17.8515643 ], [ 77.569999, 17.8676473 ], [ 77.5734566, 17.8691888 ], [ 77.5763988, 17.8754194 ], [ 77.5805889, 17.8734462 ], [ 77.5808664, 17.8753654 ], [ 77.5834277, 17.8770327 ], [ 77.5944859, 17.8723321 ], [ 77.5990765, 17.8730873 ], [ 77.6003701, 17.8806014 ], [ 77.5958264, 17.8813552 ], [ 77.5859909, 17.8938446 ], [ 77.5849981, 17.9019264 ], [ 77.5860632, 17.9078357 ], [ 77.5891682, 17.907877 ], [ 77.5999938, 17.9041382 ], [ 77.6051839, 17.9078117 ], [ 77.6190388, 17.9040598 ], [ 77.6219965, 17.9295743 ], [ 77.618683, 17.9394903 ], [ 77.6229447, 17.9455215 ], [ 77.6325119, 17.9466734 ], [ 77.632885, 17.9558035 ], [ 77.6245445, 17.9596029 ], [ 77.6330129, 17.9673821 ], [ 77.6332911, 17.9603663 ], [ 77.6351272, 17.9592458 ], [ 77.6372132, 17.9523248 ], [ 77.6406208, 17.9518907 ], [ 77.6408997, 17.9541135 ], [ 77.6494849, 17.9500153 ], [ 77.6495144, 17.9590685 ], [ 77.6558552, 17.9688393 ], [ 77.6482141, 17.9802562 ], [ 77.6513356, 17.9876963 ], [ 77.6520398, 17.9938943 ], [ 77.6489056, 17.9988776 ], [ 77.6463373, 17.99928 ], [ 77.6387453, 17.9964525 ], [ 77.6277874, 17.9967872 ], [ 77.6196618, 18.0064937 ], [ 77.6074707, 18.0098539 ], [ 77.6079439, 18.0179579 ], [ 77.6059338, 18.020233 ], [ 77.6016428, 18.0198402 ], [ 77.5958559, 18.012851 ], [ 77.5911744, 18.0114543 ], [ 77.5885902, 18.0121563 ], [ 77.5848913, 18.0167856 ], [ 77.5832465, 18.0282621 ], [ 77.5805946, 18.0315823 ], [ 77.5606143, 18.0362247 ], [ 77.5537863, 18.0358209 ], [ 77.5518345, 18.0506954 ], [ 77.5494786, 18.0512419 ], [ 77.5496107, 18.0543893 ], [ 77.5476357, 18.0561311 ], [ 77.5483352, 18.0652105 ], [ 77.557425, 18.0637313 ], [ 77.5597138, 18.0718823 ], [ 77.5659217, 18.076674 ], [ 77.5691834, 18.0781164 ], [ 77.5759226, 18.078059 ], [ 77.5835812, 18.0824583 ], [ 77.585513, 18.0818429 ], [ 77.5956379, 18.0860278 ], [ 77.5972069, 18.0871365 ], [ 77.5988037, 18.0933313 ], [ 77.5988745, 18.0982487 ], [ 77.6015541, 18.1059034 ], [ 77.5991607, 18.1209945 ], [ 77.5969907, 18.1236745 ], [ 77.5944034, 18.1327242 ], [ 77.5968429, 18.1559476 ], [ 77.5923951, 18.1554402 ], [ 77.5842159, 18.1592338 ], [ 77.5813139, 18.1623167 ], [ 77.5771564, 18.1724927 ], [ 77.5747222, 18.1740977 ], [ 77.5706888, 18.1921693 ], [ 77.564049, 18.1942615 ], [ 77.5634605, 18.196129 ], [ 77.5638845, 18.2019379 ], [ 77.5655054, 18.2041823 ], [ 77.5721481, 18.2035149 ], [ 77.5748215, 18.2016271 ], [ 77.5805792, 18.2138494 ], [ 77.5853147, 18.2198203 ], [ 77.5814948, 18.2248553 ], [ 77.5818474, 18.226972 ], [ 77.5798805, 18.2281575 ], [ 77.5805179, 18.2321687 ], [ 77.5730116, 18.2394442 ], [ 77.573155, 18.2424332 ], [ 77.5717796, 18.2440019 ], [ 77.5737844, 18.2449878 ], [ 77.5819944, 18.2596264 ], [ 77.5845367, 18.2617224 ], [ 77.5911853, 18.2624118 ], [ 77.5944536, 18.2648526 ], [ 77.6011698, 18.2776227 ], [ 77.6042999, 18.2787662 ], [ 77.6054216, 18.2812812 ], [ 77.5818493, 18.2853842 ], [ 77.5761613, 18.288733 ], [ 77.5725571, 18.2933023 ], [ 77.5702102, 18.2925303 ], [ 77.5669377, 18.2872809 ], [ 77.5621213, 18.2848057 ], [ 77.5514013, 18.2919129 ], [ 77.5532599, 18.2980907 ], [ 77.5648208, 18.3060586 ], [ 77.5713961, 18.3088291 ], [ 77.5704795, 18.3181125 ], [ 77.563866, 18.3222972 ], [ 77.5580236, 18.3314164 ], [ 77.5302305, 18.3391674 ], [ 77.5227341, 18.3453982 ], [ 77.5202063, 18.3571752 ], [ 77.5240457, 18.3642004 ], [ 77.5254719, 18.3727051 ], [ 77.5356113, 18.3807485 ], [ 77.5386, 18.3858822 ], [ 77.5406413, 18.386864 ], [ 77.5431861, 18.386089 ], [ 77.545917, 18.3886866 ], [ 77.551602, 18.3888977 ], [ 77.5526804, 18.4016907 ], [ 77.5567561, 18.4171433 ], [ 77.5564683, 18.4194283 ], [ 77.5369007, 18.4242459 ], [ 77.5373127, 18.4262792 ], [ 77.5281666, 18.428913 ], [ 77.527516, 18.4421112 ], [ 77.5284883, 18.4433734 ], [ 77.5321158, 18.4429559 ], [ 77.5359243, 18.4447714 ], [ 77.5413659, 18.4445893 ], [ 77.5479806, 18.4432282 ], [ 77.5602008, 18.4372836 ], [ 77.5641809, 18.4373026 ], [ 77.5682945, 18.4394689 ], [ 77.5690689, 18.4428662 ], [ 77.574304, 18.4417987 ], [ 77.5852973, 18.4467923 ], [ 77.5860967, 18.4494025 ], [ 77.5830005, 18.4499409 ], [ 77.5836043, 18.4562058 ], [ 77.5641138, 18.4600355 ], [ 77.5640378, 18.4610217 ], [ 77.5507619, 18.4604095 ], [ 77.5485634, 18.4685813 ], [ 77.560245, 18.4686218 ], [ 77.5610678, 18.4702552 ], [ 77.572861, 18.4698149 ], [ 77.5763693, 18.4867846 ], [ 77.5922504, 18.4847153 ], [ 77.594283, 18.4769101 ], [ 77.6031261, 18.4768475 ], [ 77.6036102, 18.4836783 ], [ 77.6062256, 18.4891969 ], [ 77.6036754, 18.4929392 ], [ 77.6047069, 18.4963668 ], [ 77.5943972, 18.4961963 ], [ 77.5942871, 18.4979062 ], [ 77.5859069, 18.5039961 ], [ 77.5877528, 18.5128566 ], [ 77.5970677, 18.5158834 ], [ 77.6002815, 18.5222965 ], [ 77.5988257, 18.5242065 ], [ 77.6004366, 18.5272958 ], [ 77.596567, 18.5302 ], [ 77.5925093, 18.5266191 ], [ 77.5906911, 18.5266657 ], [ 77.5920578, 18.5323219 ], [ 77.5953035, 18.5355417 ], [ 77.5963694, 18.5489414 ], [ 77.6037998, 18.5502621 ], [ 77.6100684, 18.5498821 ], [ 77.6105644, 18.5445403 ], [ 77.6124963, 18.5444793 ], [ 77.6131894, 18.5491004 ], [ 77.6160351, 18.5489661 ], [ 77.6151852, 18.5508457 ], [ 77.6264743, 18.5518943 ], [ 77.6292523, 18.5536753 ], [ 77.627629, 18.5481249 ], [ 77.6340001, 18.5439178 ], [ 77.6396194, 18.554941 ], [ 77.6479131, 18.5549314 ], [ 77.6477108, 18.5529904 ], [ 77.6520745, 18.551794 ], [ 77.6492233, 18.5411926 ], [ 77.6458969, 18.5388368 ], [ 77.648326, 18.5373361 ], [ 77.6513515, 18.5322634 ], [ 77.6558604, 18.530899 ], [ 77.6616637, 18.531857 ], [ 77.6645983, 18.5358002 ], [ 77.6806853, 18.5452532 ], [ 77.6883277, 18.5449523 ], [ 77.7015614, 18.5551711 ], [ 77.7109715, 18.5563033 ], [ 77.7232514, 18.553329 ], [ 77.7384996, 18.5567887 ], [ 77.7370442, 18.5638442 ], [ 77.7396063, 18.568362 ], [ 77.7403807, 18.5752177 ], [ 77.7434678, 18.5776183 ], [ 77.7460671, 18.5845974 ], [ 77.750343, 18.5892121 ], [ 77.7475954, 18.6032002 ], [ 77.7455733, 18.6059415 ], [ 77.7456566, 18.6212884 ], [ 77.7347113, 18.6410122 ], [ 77.7305043, 18.6451454 ], [ 77.730204, 18.656082 ], [ 77.7336242, 18.6578075 ], [ 77.7357088, 18.660987 ], [ 77.7346554, 18.663433 ], [ 77.7315717, 18.6643384 ], [ 77.7299742, 18.6669369 ], [ 77.7382243, 18.6764984 ], [ 77.7431337, 18.6782727 ], [ 77.7436891, 18.6816248 ], [ 77.7492486, 18.6826666 ], [ 77.7524399, 18.6893445 ], [ 77.750593, 18.6952485 ], [ 77.7535038, 18.700992 ], [ 77.7599833, 18.7068441 ], [ 77.768152, 18.7058594 ], [ 77.7703276, 18.7018435 ], [ 77.7732401, 18.7013562 ], [ 77.7719051, 18.689055 ], [ 77.7770061, 18.6853561 ], [ 77.7872883, 18.68264 ], [ 77.7901219, 18.688173 ], [ 77.7897645, 18.69515 ], [ 77.7950056, 18.6970368 ], [ 77.7962182, 18.7039601 ], [ 77.8010604, 18.7076217 ], [ 77.804184, 18.7131774 ], [ 77.8042503, 18.7272423 ], [ 77.812341, 18.7385118 ], [ 77.8167121, 18.7506425 ], [ 77.8267918, 18.7698409 ], [ 77.8321933, 18.7882452 ], [ 77.838508, 18.7968302 ], [ 77.8399548, 18.8048215 ], [ 77.8536773, 18.8090702 ], [ 77.8598824, 18.8090472 ], [ 77.8714148, 18.8181648 ], [ 77.8819899, 18.8174039 ], [ 77.8879405, 18.82011 ], [ 77.8934736, 18.8206967 ], [ 77.9066722, 18.8266974 ], [ 77.9122582, 18.8268912 ], [ 77.934498, 18.8222654 ], [ 77.9430941, 18.8248072 ], [ 77.9482754, 18.8290971 ], [ 77.9489009, 18.8432892 ], [ 77.9347756, 18.8451448 ], [ 77.9374523, 18.8515914 ], [ 77.9293504, 18.8535862 ], [ 77.9300608, 18.8587263 ], [ 77.9251428, 18.8606913 ], [ 77.9141492, 18.8613679 ], [ 77.9142638, 18.8634608 ], [ 77.9124266, 18.8631722 ], [ 77.9124251, 18.8650694 ], [ 77.903232, 18.8666255 ], [ 77.9025941, 18.871772 ], [ 77.9039063, 18.8812459 ], [ 77.8915841, 18.881414 ], [ 77.8848056, 18.9003039 ], [ 77.8853844, 18.9042002 ], [ 77.8739377, 18.9076744 ], [ 77.8731718, 18.9039339 ], [ 77.8681784, 18.9043245 ], [ 77.8579394, 18.9023516 ], [ 77.8432542, 18.9086934 ], [ 77.847914, 18.926896 ], [ 77.8514616, 18.9264068 ], [ 77.8586536, 18.9486633 ], [ 77.8419425, 18.9498726 ], [ 77.8356172, 18.9472467 ], [ 77.8324535, 18.9416286 ], [ 77.8162398, 18.9472702 ], [ 77.8198433, 18.9544406 ], [ 77.8162119, 18.9575165 ], [ 77.8194963, 18.9668938 ], [ 77.8217578, 18.9785078 ], [ 77.8208082, 18.9788528 ], [ 77.8052173, 18.981856 ], [ 77.7911405, 18.9828175 ], [ 77.7896741, 18.9745784 ], [ 77.7876263, 18.9726465 ], [ 77.7714972, 18.9791591 ], [ 77.7753511, 19.0006266 ], [ 77.7722369, 19.003627 ], [ 77.770339, 19.0099579 ], [ 77.7699222, 19.0224051 ], [ 77.765555, 19.0243055 ], [ 77.7617902, 19.0330018 ], [ 77.7649492, 19.0471428 ], [ 77.764812, 19.0626553 ], [ 77.7752312, 19.0560217 ], [ 77.7890959, 19.0556729 ], [ 77.7933093, 19.0525733 ], [ 77.8003494, 19.0511216 ], [ 77.7986007, 19.0614514 ], [ 77.8000982, 19.0668449 ], [ 77.7967737, 19.0709086 ], [ 77.7967978, 19.0725891 ], [ 77.7978641, 19.0751633 ], [ 77.8016692, 19.076182 ], [ 77.8025698, 19.0790612 ], [ 77.8045785, 19.0918045 ], [ 77.8031212, 19.0961716 ], [ 77.8045286, 19.1005566 ], [ 77.8099343, 19.104734 ], [ 77.8181405, 19.1049809 ], [ 77.823585, 19.0977322 ], [ 77.8264078, 19.0966382 ], [ 77.8295321, 19.0870661 ], [ 77.83127, 19.0860806 ], [ 77.842298, 19.0880145 ], [ 77.8485798, 19.0865021 ], [ 77.8490848, 19.0884911 ], [ 77.850395, 19.0885569 ], [ 77.8510794, 19.0920293 ], [ 77.8462069, 19.1013136 ], [ 77.8471288, 19.1086187 ], [ 77.8483671, 19.1101334 ], [ 77.8476647, 19.1160049 ], [ 77.8415592, 19.1181064 ], [ 77.8379091, 19.1272202 ], [ 77.83688, 19.1340089 ], [ 77.8340629, 19.1343082 ], [ 77.8356554, 19.1380808 ], [ 77.8379468, 19.137653 ], [ 77.8432247, 19.1415795 ], [ 77.8525311, 19.1546779 ], [ 77.8526462, 19.1668184 ], [ 77.8545251, 19.1701968 ], [ 77.8567131, 19.1707521 ], [ 77.8553846, 19.1747866 ], [ 77.8559281, 19.17711 ], [ 77.8604942, 19.1803543 ], [ 77.8540142, 19.1874911 ], [ 77.847721, 19.189595 ], [ 77.8514919, 19.1960991 ], [ 77.8512283, 19.1997491 ], [ 77.854814, 19.2027692 ], [ 77.858186, 19.2141769 ], [ 77.8660065, 19.2264019 ], [ 77.866122, 19.2326125 ], [ 77.8681389, 19.2367374 ], [ 77.8669023, 19.2399374 ], [ 77.8688416, 19.2410222 ], [ 77.8700159, 19.244184 ], [ 77.8694675, 19.2481692 ], [ 77.8713581, 19.2542747 ], [ 77.8746046, 19.253637 ], [ 77.8748017, 19.2587601 ], [ 77.8821532, 19.2604706 ], [ 77.8900071, 19.260891 ], [ 77.8909226, 19.259281 ], [ 77.902847, 19.2564628 ], [ 77.9074813, 19.2679881 ], [ 77.9034585, 19.2779596 ], [ 77.8941896, 19.2798119 ], [ 77.8843629, 19.2789298 ], [ 77.8655755, 19.2838215 ], [ 77.8660622, 19.2865052 ], [ 77.8649465, 19.2881306 ], [ 77.8663957, 19.2917246 ], [ 77.8642715, 19.2972209 ], [ 77.8634588, 19.3041963 ], [ 77.872827, 19.3053086 ], [ 77.8781808, 19.309284 ], [ 77.890031, 19.3132975 ], [ 77.8943199, 19.32047 ], [ 77.903322, 19.3173637 ], [ 77.9115459, 19.316257 ], [ 77.9176021, 19.3232832 ], [ 77.9233051, 19.3257761 ], [ 77.9280143, 19.3322078 ], [ 77.9319773, 19.3346707 ], [ 77.9382442, 19.3341131 ], [ 77.942294, 19.3422749 ], [ 77.9451219, 19.342453 ], [ 77.9618598, 19.3356114 ], [ 77.965876, 19.327459 ], [ 77.9741103, 19.3226205 ], [ 77.9776335, 19.3227069 ], [ 77.9829034, 19.3149977 ], [ 77.9848483, 19.3098775 ], [ 77.9946653, 19.3053862 ], [ 77.9986799, 19.2997976 ], [ 78.0134969, 19.2947177 ], [ 78.0159612, 19.2875711 ], [ 78.0142414, 19.2859619 ], [ 78.0148197, 19.2790374 ], [ 78.0425063, 19.2706038 ], [ 78.0418443, 19.2616555 ], [ 78.0359407, 19.2506334 ], [ 78.0416136, 19.2434281 ], [ 78.0556753, 19.2371217 ], [ 78.0588617, 19.2423282 ], [ 78.0644225, 19.2477737 ], [ 78.0722963, 19.2492488 ], [ 78.0790969, 19.2548343 ], [ 78.0832291, 19.2486762 ], [ 78.0823508, 19.2432161 ], [ 78.0891496, 19.2393682 ], [ 78.0953093, 19.2437404 ], [ 78.1131722, 19.2444221 ], [ 78.1152195, 19.2488294 ], [ 78.117038, 19.2486373 ], [ 78.1342819, 19.238893 ], [ 78.1370892, 19.2343947 ], [ 78.1445469, 19.2294007 ], [ 78.1509921, 19.2294982 ], [ 78.1553971, 19.2343824 ], [ 78.1583991, 19.2357788 ], [ 78.1649459, 19.2345538 ], [ 78.175321, 19.2375786 ], [ 78.1770206, 19.2421576 ], [ 78.1817714, 19.2476184 ], [ 78.1779831, 19.2539129 ], [ 78.1796405, 19.2588572 ], [ 78.1767056, 19.2629436 ], [ 78.1781653, 19.2725051 ], [ 78.1766665, 19.2785486 ], [ 78.1831114, 19.2851834 ], [ 78.1937389, 19.3148861 ], [ 78.1902065, 19.3207768 ], [ 78.1922773, 19.3258289 ], [ 78.1895099, 19.3289689 ], [ 78.1832384, 19.3299808 ], [ 78.1762256, 19.3349262 ], [ 78.1721482, 19.3492989 ], [ 78.1720615, 19.3597187 ], [ 78.1792264, 19.3628435 ], [ 78.1767886, 19.3674 ], [ 78.187673, 19.394593 ], [ 78.17619, 19.4122625 ], [ 78.1838184, 19.4122 ], [ 78.1924442, 19.4066941 ], [ 78.1950652, 19.4067537 ], [ 78.1988125, 19.4101572 ], [ 78.1991852, 19.414843 ], [ 78.20253, 19.4197049 ], [ 78.2115869, 19.4284785 ], [ 78.2199613, 19.4330186 ], [ 78.2250114, 19.4300877 ], [ 78.2296026, 19.4297749 ], [ 78.2356101, 19.4267545 ], [ 78.2374286, 19.4287329 ], [ 78.2445089, 19.4288025 ], [ 78.2467207, 19.4321711 ], [ 78.246481, 19.4351979 ], [ 78.2533823, 19.4367687 ], [ 78.2583068, 19.441795 ], [ 78.2626469, 19.443059 ], [ 78.2637404, 19.4489303 ], [ 78.2686811, 19.4484667 ], [ 78.2704394, 19.4561551 ], [ 78.2745478, 19.4552404 ], [ 78.2869701, 19.4485286 ], [ 78.2986534, 19.4519483 ], [ 78.304341, 19.456137 ], [ 78.3092235, 19.4810839 ], [ 78.2986635, 19.4968128 ], [ 78.2949549, 19.5131709 ], [ 78.2970126, 19.5130835 ], [ 78.2959975, 19.5173708 ], [ 78.2915145, 19.5239067 ], [ 78.2903962, 19.5276239 ], [ 78.2924386, 19.5293105 ], [ 78.2941094, 19.5347942 ], [ 78.2927322, 19.5390867 ], [ 78.2932297, 19.5422336 ], [ 78.2849056, 19.5423109 ], [ 78.283935, 19.5414116 ], [ 78.2743108, 19.5539746 ], [ 78.2754528, 19.5561216 ], [ 78.2752515, 19.5624617 ], [ 78.2935629, 19.5589842 ], [ 78.2981485, 19.564037 ], [ 78.2972856, 19.5678967 ], [ 78.3036889, 19.5693206 ], [ 78.304246, 19.5726892 ], [ 78.300902, 19.5790694 ], [ 78.3038186, 19.5847821 ], [ 78.3054559, 19.6025562 ], [ 78.3045089, 19.6054309 ], [ 78.3055669, 19.6070665 ], [ 78.2975456, 19.6142069 ], [ 78.2938994, 19.6194418 ], [ 78.2921986, 19.6274136 ], [ 78.2920824, 19.6422262 ], [ 78.2904625, 19.646001 ], [ 78.286703, 19.647312 ], [ 78.2840859, 19.6503725 ], [ 78.2808828, 19.6509264 ], [ 78.2790097, 19.6576413 ], [ 78.2710477, 19.6585388 ], [ 78.2716188, 19.6619117 ], [ 78.2690534, 19.6639525 ], [ 78.262649, 19.6650642 ], [ 78.2657917, 19.6730901 ], [ 78.2697176, 19.6760103 ], [ 78.2710827, 19.6787053 ], [ 78.2761859, 19.6924153 ], [ 78.2878488, 19.6880352 ], [ 78.3001861, 19.6879851 ], [ 78.303409, 19.6912043 ], [ 78.3118213, 19.6910505 ], [ 78.3134517, 19.693107 ], [ 78.3157321, 19.7025944 ], [ 78.3186538, 19.7055259 ], [ 78.3220476, 19.7075776 ], [ 78.3337118, 19.7094504 ], [ 78.3431341, 19.71325 ], [ 78.3434955, 19.7154696 ], [ 78.3392857, 19.724156 ], [ 78.3398169, 19.726955 ], [ 78.3428548, 19.7297834 ], [ 78.3408183, 19.733333 ], [ 78.3412346, 19.7357562 ], [ 78.3446354, 19.7381054 ], [ 78.3492887, 19.7379757 ], [ 78.3555452, 19.7520065 ], [ 78.3589309, 19.7679334 ], [ 78.3634343, 19.7753097 ], [ 78.3645887, 19.7806533 ], [ 78.3588908, 19.8028852 ], [ 78.3570661, 19.8057688 ], [ 78.3523754, 19.807401 ], [ 78.3447994, 19.8133727 ], [ 78.3340246, 19.8145917 ], [ 78.3367733, 19.8335688 ], [ 78.3364145, 19.8379232 ], [ 78.3157563, 19.8425577 ], [ 78.3038546, 19.8403208 ], [ 78.2997505, 19.8409966 ], [ 78.2860751, 19.8479371 ], [ 78.2853133, 19.856617 ], [ 78.2918842, 19.8617245 ], [ 78.2978265, 19.8722494 ], [ 78.3027572, 19.8904209 ], [ 78.3070279, 19.9142976 ], [ 78.3218412, 19.916807 ], [ 78.3274663, 19.9163401 ], [ 78.3306049, 19.9146931 ], [ 78.333276, 19.910474 ], [ 78.3340922, 19.9052966 ], [ 78.3251182, 19.8981495 ], [ 78.3243638, 19.894831 ], [ 78.3287621, 19.8871548 ], [ 78.3356519, 19.8835779 ] ] ] } }
]
}
