{
"type": "FeatureCollection",
"name": "38",
"crs": { "type": "name", "properties": { "name": "urn:ogc:def:crs:OGC:1.3:CRS84" } },
"features": [
{ "type": "Feature", "properties": { "code": "38", "name": "DADRA & NAGAR HAVELI AND DAMAN & DIU", "type": "state" }, "geometry": { "type": "Polygon", "coordinates": [ [ [ 74.7088576, 37.0733137 ], [ 74.7159107, 37.0536525 ], [ 74.7263568, 37.0385 ], [ 74.7381723, 37.0267841 ], [ 74.749424, 37.0193869 ], [ 74.753184, 37.0218845 ], [ 74.7601926, 37.0359709 ], [ 74.7690548, 37.0412219 ], [ 74.7833102, 37.0409953 ], [ 74.8047738, 37.0349821 ], [ 74.8291999, 37.0390273 ], [ 74.8358285, 37.0379936 ], [ 74.8389018, 37.0358435 ], [ 74.8408739, 37.0321431 ], [ 74.8334674, 37.0147234 ], [ 74.8333814, 37.0087215 ], [ 74.8347859, 37.0052643 ], [ 74.8657456, 36.9747164 ], [ 74.8965025, 36.9415239 ], [ 74.9097594, 36.9217553 ], [ 74.9155791, 36.9202595 ], [ 74.9227149, 36.9258494 ], [ 74.9341273, 36.93837 ], [ 74.9540179, 36.9546189 ], [ 75.0156714, 36.9907229 ], [ 75.023218, 36.9921124 ], [ 75.0370827, 36.9889933 ], [ 75.0551945, 36.9743188 ], [ 75.0912503, 36.9610682 ], [ 75.1091517, 36.961899 ], [ 75.1529606, 36.9881648 ], [ 75.1772115, 37.0202452 ], [ 75.1969275, 37.0424307 ], [ 75.2109562, 37.0500168 ], [ 75.2765358, 37.0601536 ], [ 75.3207839, 37.0642811 ], [ 75.3362835, 37.0628298 ], [ 75.3413137, 37.0607632 ], [ 75.3465732, 37.052721 ], [ 75.350374, 37.0191192 ], [ 75.3484078, 37.0049168 ], [ 75.3544274, 36.9884829 ], [ 75.3688884, 36.9751576 ], [ 75.3792444, 36.9745821 ], [ 75.4036863, 36.9821657 ], [ 75.4136823, 36.9774332 ], [ 75.4184479, 36.9723959 ], [ 75.421579, 36.9656607 ], [ 75.4248818, 36.9523556 ], [ 75.4110608, 36.9215196 ], [ 75.4069208, 36.9080334 ], [ 75.4087781, 36.9037547 ], [ 75.417647, 36.9032587 ], [ 75.4296784, 36.9049706 ], [ 75.4418294, 36.8995175 ], [ 75.4498185, 36.8889291 ], [ 75.4583421, 36.8419243 ], [ 75.4632666, 36.8303133 ], [ 75.4880201, 36.8163888 ], [ 75.5855258, 36.7863779 ], [ 75.6127243, 36.7752702 ], [ 75.6628102, 36.7216625 ], [ 75.7205311, 36.6383401 ], [ 75.7346623, 36.6225934 ], [ 75.7444237, 36.6076976 ], [ 75.7693738, 36.5889233 ], [ 75.8070215, 36.5634237 ], [ 75.8524324, 36.5583412 ], [ 75.8667982, 36.545547 ], [ 75.8907778, 36.5327728 ], [ 75.945038, 36.5116058 ], [ 76.0100628, 36.4951337 ], [ 76.0533313, 36.4913031 ], [ 76.0711539, 36.4842423 ], [ 76.0916903, 36.474624 ], [ 76.111718, 36.4596594 ], [ 76.1446215, 36.4285492 ], [ 76.1639531, 36.4064516 ], [ 76.1767214, 36.4008818 ], [ 76.2007291, 36.3969997 ], [ 76.2302643, 36.3814204 ], [ 76.2440948, 36.3715964 ], [ 76.266502, 36.358843 ], [ 76.2744044, 36.3565544 ], [ 76.3209983, 36.3649638 ], [ 76.3399232, 36.3697383 ], [ 76.3539272, 36.3694472 ], [ 76.3797963, 36.3468967 ], [ 76.4133939, 36.3280266 ], [ 76.4374999, 36.3103534 ], [ 76.4485003, 36.2720117 ], [ 76.4456608, 36.2656228 ], [ 76.436783, 36.2578295 ], [ 76.4481968, 36.2463425 ], [ 76.4682516, 36.2402717 ], [ 76.480981, 36.2197346 ], [ 76.5103169, 36.210667 ], [ 76.5492867, 36.2021602 ], [ 76.5653921, 36.1861725 ], [ 76.5940938, 36.1783209 ], [ 76.6169122, 36.1780198 ], [ 76.6446822, 36.1977054 ], [ 76.6559238, 36.1921842 ], [ 76.6703045, 36.1739055 ], [ 76.7111169, 36.1401267 ], [ 76.7164446, 36.1272225 ], [ 76.7152582, 36.1081768 ], [ 76.7200916, 36.0976953 ], [ 76.7521757, 36.0800174 ], [ 76.7837502, 36.0719279 ], [ 76.7981994, 36.0619928 ], [ 76.8136876, 36.0406288 ], [ 76.8134497, 36.0310808 ], [ 76.8104096, 36.0229167 ], [ 76.7876995, 36.0166718 ], [ 76.7703647, 35.9981081 ], [ 76.7590015, 35.9803383 ], [ 76.736257, 35.9663165 ], [ 76.7328558, 35.9617613 ], [ 76.7321364, 35.9546361 ], [ 76.7393898, 35.9463807 ], [ 76.7577832, 35.9319993 ], [ 76.7829947, 35.9052003 ], [ 76.7987659, 35.8796282 ], [ 76.8074801, 35.8497456 ], [ 76.8235296, 35.8414881 ], [ 76.8611481, 35.8359526 ], [ 76.8873942, 35.8126439 ], [ 76.9037952, 35.807939 ], [ 76.9250474, 35.7933329 ], [ 76.9356124, 35.7890224 ], [ 76.9569924, 35.7899494 ], [ 76.9824379, 35.7876032 ], [ 77.001004, 35.7755601 ], [ 77.0104762, 35.7749066 ], [ 77.0452164, 35.7772883 ], [ 77.091112, 35.7950322 ], [ 77.1156599, 35.7981051 ], [ 77.1270073, 35.794322 ], [ 77.1323366, 35.7891647 ], [ 77.1350412, 35.7800042 ], [ 77.1457822, 35.7774578 ], [ 77.1521902, 35.7686352 ], [ 77.1620753, 35.7649511 ], [ 77.1763557, 35.7681346 ], [ 77.1690334, 35.7405374 ], [ 77.1796797, 35.7302185 ], [ 77.1916447, 35.7323667 ], [ 77.2130134, 35.7332519 ], [ 77.2419194, 35.7084763 ], [ 77.2583449, 35.7043202 ], [ 77.2763853, 35.708422 ], [ 77.2803132, 35.7177138 ], [ 77.2874372, 35.7225905 ], [ 77.2990776, 35.7080022 ], [ 77.3123977, 35.7022658 ], [ 77.3210679, 35.7010481 ], [ 77.3325985, 35.7127863 ], [ 77.335549, 35.7197539 ], [ 77.3437485, 35.7209614 ], [ 77.3658668, 35.7151872 ], [ 77.3780064, 35.7053409 ], [ 77.3853273, 35.6916523 ], [ 77.4018271, 35.6814891 ], [ 77.4028077, 35.6634695 ], [ 77.4115565, 35.6562566 ], [ 77.4280749, 35.6598491 ], [ 77.4379359, 35.6561437 ], [ 77.4410259, 35.6373715 ], [ 77.4417397, 35.6169761 ], [ 77.4401263, 35.6021341 ], [ 77.4465561, 35.593889 ], [ 77.458654, 35.5906173 ], [ 77.4718808, 35.5842702 ], [ 77.4756083, 35.5714326 ], [ 77.4652222, 35.5500474 ], [ 77.4735015, 35.5386735 ], [ 77.482764, 35.5296207 ], [ 77.4798082, 35.522655 ], [ 77.473416, 35.5177347 ], [ 77.4581655, 35.5188445 ], [ 77.442996, 35.5139623 ], [ 77.4305218, 35.5136705 ], [ 77.4118139, 35.5234031 ], [ 77.3886584, 35.5394374 ], [ 77.3619715, 35.5431553 ], [ 77.3320443, 35.5303461 ], [ 77.3300817, 35.5257 ], [ 77.345487, 35.519209 ], [ 77.352925, 35.5067069 ], [ 77.3546801, 35.4958097 ], [ 77.3632243, 35.4868173 ], [ 77.3767624, 35.4834481 ], [ 77.3852391, 35.4738603 ], [ 77.4188408, 35.4666428 ], [ 77.4436637, 35.4594558 ], [ 77.4742586, 35.4650096 ], [ 77.496135, 35.4777767 ], [ 77.5566391, 35.4757372 ], [ 77.6286237, 35.4650385 ], [ 77.6371321, 35.4691964 ], [ 77.6470255, 35.4792364 ], [ 77.6530952, 35.4811801 ], [ 77.6653677, 35.4730856 ], [ 77.67335, 35.4659076 ], [ 77.6851586, 35.4668239 ], [ 77.6857535, 35.4721668 ], [ 77.7077889, 35.4729173 ], [ 77.7287718, 35.4773345 ], [ 77.7261567, 35.5128462 ], [ 77.7358659, 35.5210983 ], [ 77.7491223, 35.5087323 ], [ 77.7673892, 35.4953897 ], [ 77.7863185, 35.4879802 ], [ 77.8034792, 35.4908777 ], [ 77.809631, 35.4999916 ], [ 77.822049, 35.5062376 ], [ 77.8292408, 35.5050955 ], [ 77.8379927, 35.4918624 ], [ 77.8526283, 35.4853662 ], [ 77.8625713, 35.476231 ], [ 77.8694907, 35.4727125 ], [ 77.8861279, 35.4774349 ], [ 77.8937549, 35.4672757 ], [ 77.9120772, 35.46109 ], [ 77.918896, 35.4695502 ], [ 77.9209947, 35.4879494 ], [ 77.9293159, 35.4903075 ], [ 77.9772735, 35.4489159 ], [ 77.9852519, 35.448303 ], [ 77.9860013, 35.4548315 ], [ 77.9705422, 35.4667957 ], [ 77.9603159, 35.4861399 ], [ 77.9392658, 35.506909 ], [ 77.9375158, 35.5172203 ], [ 77.9634646, 35.5583392 ], [ 77.9679356, 35.5717659 ], [ 77.9537671, 35.6015848 ], [ 77.9578085, 35.6048675 ], [ 77.9907056, 35.5849862 ], [ 78.0013971, 35.5823691 ], [ 78.0368811, 35.5850255 ], [ 78.0555614, 35.5817874 ], [ 78.074943, 35.5593335 ], [ 78.0843517, 35.5520186 ], [ 78.0928581, 35.5495627 ], [ 78.1057535, 35.5533515 ], [ 78.1315808, 35.5423612 ], [ 78.1367658, 35.5365684 ], [ 78.1490738, 35.5415962 ], [ 78.1572353, 35.5487432 ], [ 78.1649121, 35.5517361 ], [ 78.1604594, 35.5700468 ], [ 78.1595994, 35.5814903 ], [ 78.1706395, 35.5943991 ], [ 78.1734131, 35.6055585 ], [ 78.1698251, 35.6249982 ], [ 78.1759861, 35.6275105 ], [ 78.1974375, 35.6228385 ], [ 78.1959249, 35.6349317 ], [ 78.2077039, 35.6477797 ], [ 78.206989, 35.660409 ], [ 78.2120489, 35.6659996 ], [ 78.2558827, 35.6457908 ], [ 78.2656115, 35.6474193 ], [ 78.2686752, 35.6543873 ], [ 78.2827016, 35.661639 ], [ 78.2845071, 35.6644902 ], [ 78.2771896, 35.6770428 ], [ 78.2774928, 35.6919874 ], [ 78.2755198, 35.7124997 ], [ 78.2769503, 35.7183741 ], [ 78.2876965, 35.7223162 ], [ 78.2979278, 35.7280943 ], [ 78.3192562, 35.7222166 ], [ 78.3379554, 35.7189387 ], [ 78.4038637, 35.7358493 ], [ 78.4086556, 35.7390595 ], [ 78.409068, 35.7486069 ], [ 78.4124058, 35.751933 ], [ 78.4159431, 35.7630271 ], [ 78.4261162, 35.7682018 ], [ 78.4302409, 35.778051 ], [ 78.4426716, 35.7836428 ], [ 78.4754324, 35.7750281 ], [ 78.5125445, 35.772042 ], [ 78.534164, 35.7625128 ], [ 78.5602696, 35.7777676 ], [ 78.6100327, 35.812055 ], [ 78.6216795, 35.8111074 ], [ 78.6464306, 35.8210671 ], [ 78.6652195, 35.8363007 ], [ 78.6733111, 35.8542035 ], [ 78.6952358, 35.8589964 ], [ 78.7105292, 35.8577426 ], [ 78.7283078, 35.8646669 ], [ 78.7489206, 35.864768 ], [ 78.7691742, 35.86789 ], [ 78.7862203, 35.8688783 ], [ 78.8199905, 35.8565012 ], [ 78.8390709, 35.8561161 ], [ 78.8722256, 35.862343 ], [ 78.9251211, 35.8675102 ], [ 78.9521078, 35.8772286 ], [ 78.9692049, 35.890169 ], [ 78.9823901, 35.8896597 ], [ 79.0131478, 35.859514 ], [ 79.0322477, 35.8477172 ], [ 79.1424243, 35.8347611 ], [ 79.1646725, 35.8381862 ], [ 79.1816443, 35.8535739 ], [ 79.2127598, 35.8778656 ], [ 79.2095105, 35.903907 ], [ 79.204495, 35.9277024 ], [ 79.2131312, 35.9545195 ], [ 79.2308988, 35.9721642 ], [ 79.2517009, 35.9847529 ], [ 79.3580311, 35.9917328 ], [ 79.400932, 35.9927912 ], [ 79.4103535, 35.9859773 ], [ 79.4302747, 35.9081362 ], [ 79.4401998, 35.8940834 ], [ 79.4680421, 35.8874454 ], [ 79.536228, 35.8796386 ], [ 79.5623798, 35.8659367 ], [ 79.6192507, 35.8453003 ], [ 79.6823055, 35.8324749 ], [ 79.7283797, 35.8139518 ], [ 79.7510906, 35.796919 ], [ 79.828467, 35.7869224 ], [ 79.8870882, 35.7743933 ], [ 79.8989595, 35.7751086 ], [ 79.9045351, 35.7781972 ], [ 79.9153757, 35.7927968 ], [ 79.9383412, 35.8098835 ], [ 79.9676955, 35.8251812 ], [ 79.9996974, 35.8276367 ], [ 80.0156924, 35.8261636 ], [ 80.0426137, 35.8026904 ], [ 80.0621393, 35.7684997 ], [ 80.0775057, 35.7256924 ], [ 80.1005201, 35.7061614 ], [ 80.1121599, 35.6894836 ], [ 80.1288965, 35.6567328 ], [ 80.2130821, 35.6386573 ], [ 80.2685889, 35.6154334 ], [ 80.2950185, 35.5997366 ], [ 80.311712, 35.5879561 ], [ 80.3179385, 35.5645648 ], [ 80.3134635, 35.5433873 ], [ 80.3146284, 35.5360762 ], [ 80.3268258, 35.5289183 ], [ 80.3345944, 35.4957759 ], [ 80.3450836, 35.4611722 ], [ 80.3397824, 35.4496739 ], [ 80.3212065, 35.4376366 ], [ 80.2984847, 35.4169883 ], [ 80.2961609, 35.3902027 ], [ 80.2974755, 35.3528684 ], [ 80.2839196, 35.3139428 ], [ 80.265153, 35.2743088 ], [ 80.2512073, 35.2480205 ], [ 80.242657, 35.2080155 ], [ 80.2262318, 35.1795582 ], [ 80.1991637, 35.1533043 ], [ 80.1850326, 35.1306283 ], [ 80.1869937, 35.1028324 ], [ 80.1880545, 35.0529107 ], [ 80.1868951, 35.0079986 ], [ 80.1714242, 34.9650365 ], [ 80.1272352, 34.8725493 ], [ 80.0897643, 34.8280453 ], [ 80.0749952, 34.8054179 ], [ 80.0692125, 34.7687389 ], [ 80.0693238, 34.7008865 ], [ 80.0653112, 34.6928577 ], [ 80.0432784, 34.6859181 ], [ 80.0042709, 34.6823626 ], [ 79.9737158, 34.6768077 ], [ 79.9446625, 34.6609009 ], [ 79.921557, 34.6726513 ], [ 79.8782597, 34.674859 ], [ 79.8751437, 34.6679436 ], [ 79.8582386, 34.666503 ], [ 79.829364, 34.6355492 ], [ 79.7766043, 34.6103838 ], [ 79.7754909, 34.6020824 ], [ 79.7899137, 34.5905547 ], [ 79.7943757, 34.5805406 ], [ 79.7770938, 34.5653195 ], [ 79.7688154, 34.5522725 ], [ 79.7697759, 34.5377778 ], [ 79.809106, 34.5227587 ], [ 79.8210448, 34.5144555 ], [ 79.8161038, 34.4830934 ], [ 79.8038496, 34.4728156 ], [ 79.7914387, 34.4667536 ], [ 79.753809, 34.467207 ], [ 79.7444247, 34.4620639 ], [ 79.7258829, 34.4697637 ], [ 79.6818066, 34.4707852 ], [ 79.6628643, 34.4755106 ], [ 79.653388, 34.4805737 ], [ 79.6335006, 34.4781775 ], [ 79.6148005, 34.4792722 ], [ 79.5983928, 34.486759 ], [ 79.5835328, 34.4784988 ], [ 79.5403542, 34.4697876 ], [ 79.5221548, 34.4636219 ], [ 79.5214556, 34.4582832 ], [ 79.5280283, 34.4420881 ], [ 79.5275508, 34.4163233 ], [ 79.5316288, 34.4087542 ], [ 79.5433292, 34.4040996 ], [ 79.5666979, 34.4055936 ], [ 79.568937, 34.4005898 ], [ 79.5613569, 34.3814668 ], [ 79.5699769, 34.3368712 ], [ 79.5685111, 34.3201967 ], [ 79.5796012, 34.2999856 ], [ 79.5969618, 34.2780039 ], [ 79.597389, 34.2647588 ], [ 79.5921387, 34.2358201 ], [ 79.571013, 34.212521 ], [ 79.5400583, 34.1913073 ], [ 79.532421, 34.1992 ], [ 79.5131418, 34.2009378 ], [ 79.5037224, 34.1951829 ], [ 79.4936861, 34.1846807 ], [ 79.490962, 34.1471087 ], [ 79.4959542, 34.124449 ], [ 79.4660332, 34.0941234 ], [ 79.4469723, 34.0862293 ], [ 79.4275085, 34.0807698 ], [ 79.4211131, 34.0759398 ], [ 79.4193499, 34.0622915 ], [ 79.4156783, 34.0506146 ], [ 79.4145292, 34.0417133 ], [ 79.4298506, 34.0319378 ], [ 79.442877, 34.0211654 ], [ 79.43745, 34.0126477 ], [ 79.4155057, 33.999006 ], [ 79.3736677, 34.0267541 ], [ 79.3328868, 34.0291826 ], [ 79.3005063, 34.0296537 ], [ 79.2829438, 34.0276067 ], [ 79.2604022, 34.0374005 ], [ 79.2320761, 34.0470988 ], [ 79.2184133, 34.0416988 ], [ 79.2059915, 34.0403895 ], [ 79.1868535, 34.0486701 ], [ 79.1729288, 34.0582915 ], [ 79.1480075, 34.0550694 ], [ 79.1466654, 34.0329825 ], [ 79.1382305, 34.017516 ], [ 79.1126509, 34.0089446 ], [ 79.080351, 34.0099537 ], [ 79.0248278, 34.032765 ], [ 79.0011489, 34.0336082 ], [ 78.9532093, 34.0131313 ], [ 78.9256496, 33.9824941 ], [ 78.9183171, 33.9639218 ], [ 78.9226992, 33.9527463 ], [ 78.9453388, 33.9262035 ], [ 78.9867262, 33.8362316 ], [ 79.0023264, 33.8054792 ], [ 79.0096084, 33.7946475 ], [ 79.0131859, 33.7829356 ], [ 79.030352, 33.7880502 ], [ 79.0436127, 33.7790981 ], [ 79.0604545, 33.7758347 ], [ 79.0640986, 33.764715 ], [ 79.0587235, 33.75618 ], [ 79.0379804, 33.7453785 ], [ 79.0197847, 33.7145483 ], [ 79.0161061, 33.7022639 ], [ 79.0220046, 33.6861485 ], [ 79.0463187, 33.6738345 ], [ 79.0635396, 33.6795387 ], [ 79.0779958, 33.6860819 ], [ 79.0817081, 33.6755549 ], [ 79.0903826, 33.6357843 ], [ 79.1001506, 33.616324 ], [ 79.0953738, 33.6125399 ], [ 79.0660853, 33.6192971 ], [ 79.0308193, 33.6241656 ], [ 78.989455, 33.6145478 ], [ 78.9642476, 33.6137258 ], [ 78.940335, 33.6175885 ], [ 78.9271609, 33.6271244 ], [ 78.9094866, 33.6292437 ], [ 78.9028604, 33.6220112 ], [ 78.9145246, 33.6060063 ], [ 78.9073522, 33.5826176 ], [ 78.9062598, 33.5737095 ], [ 78.9232469, 33.5602461 ], [ 78.9437738, 33.5260691 ], [ 78.9412394, 33.5112835 ], [ 78.92747, 33.4866635 ], [ 78.927078, 33.454288 ], [ 78.9399759, 33.4135631 ], [ 78.9553725, 33.3816221 ], [ 78.9718042, 33.3639937 ], [ 78.978422, 33.3364097 ], [ 78.9870345, 33.3308605 ], [ 79.0160406, 33.3283393 ], [ 79.0815594, 33.2974068 ], [ 79.1076913, 33.289112 ], [ 79.1490315, 33.2938802 ], [ 79.2236829, 33.2962846 ], [ 79.2613373, 33.2887353 ], [ 79.3001286, 33.2732669 ], [ 79.3311237, 33.2752972 ], [ 79.355581, 33.2821105 ], [ 79.3939251, 33.2744584 ], [ 79.4345569, 33.2623835 ], [ 79.4461126, 33.2577347 ], [ 79.451773, 33.2350022 ], [ 79.4430446, 33.2003608 ], [ 79.4228012, 33.1649593 ], [ 79.3885619, 33.1260147 ], [ 79.373217, 33.1063798 ], [ 79.3681563, 33.0834154 ], [ 79.3795416, 33.0607699 ], [ 79.3871452, 33.0420676 ], [ 79.3803226, 33.0276698 ], [ 79.3567395, 33.0159837 ], [ 79.3438281, 33.0153444 ], [ 79.3249031, 33.0122415 ], [ 79.3299397, 33.0069849 ], [ 79.3399834, 33.0018783 ], [ 79.3462293, 32.9893057 ], [ 79.3533768, 32.9838579 ], [ 79.3580823, 32.9816323 ], [ 79.3681711, 32.9825244 ], [ 79.3717192, 32.9767994 ], [ 79.3689532, 32.9662391 ], [ 79.3771036, 32.9631013 ], [ 79.397604, 32.9618492 ], [ 79.4139477, 32.9447548 ], [ 79.420959, 32.9327083 ], [ 79.4333506, 32.9237764 ], [ 79.4460644, 32.9118108 ], [ 79.4654929, 32.8800124 ], [ 79.5177093, 32.8265922 ], [ 79.5339453, 32.8034805 ], [ 79.5381134, 32.7863607 ], [ 79.5570767, 32.7677182 ], [ 79.5703506, 32.7658965 ], [ 79.5881462, 32.7660595 ], [ 79.5944054, 32.7594751 ], [ 79.5979425, 32.7483358 ], [ 79.6118608, 32.7350361 ], [ 79.609623, 32.7232282 ], [ 79.5924096, 32.7110009 ], [ 79.5802053, 32.6935042 ], [ 79.5723431, 32.6876209 ], [ 79.5672413, 32.6700695 ], [ 79.5374873, 32.6595914 ], [ 79.5252573, 32.6306801 ], [ 79.4747249, 32.5740417 ], [ 79.4587888, 32.5658879 ], [ 79.4514956, 32.5587454 ], [ 79.4386598, 32.5358907 ], [ 79.4292901, 32.5235308 ], [ 79.4165469, 32.5180848 ], [ 79.3966227, 32.517495 ], [ 79.3845334, 32.5227977 ], [ 79.3790261, 32.5353099 ], [ 79.3729904, 32.5604824 ], [ 79.3623714, 32.5662496 ], [ 79.3394547, 32.5701249 ], [ 79.3249698, 32.5846461 ], [ 79.3118671, 32.5876297 ], [ 79.3052555, 32.5858233 ], [ 79.2935712, 32.5718615 ], [ 79.2813258, 32.54774 ], [ 79.2597514, 32.5226542 ], [ 79.2409325, 32.5195384 ], [ 79.2302299, 32.5132911 ], [ 79.1932977, 32.4841662 ], [ 79.1820863, 32.4737573 ], [ 79.1534714, 32.4715032 ], [ 79.1389441, 32.4685918 ], [ 79.1320111, 32.4698083 ], [ 79.125045, 32.4650227 ], [ 79.1213624, 32.4581439 ], [ 79.1351653, 32.4322986 ], [ 79.129756, 32.4171669 ], [ 79.1133982, 32.4108132 ], [ 79.1038665, 32.3966471 ], [ 79.0992376, 32.3820459 ], [ 79.0936798, 32.3771344 ], [ 79.0454084, 32.3874064 ], [ 79.0035454, 32.374881 ], [ 78.9833442, 32.3484362 ], [ 78.971185, 32.3356936 ], [ 78.9587562, 32.3439871 ], [ 78.9467068, 32.3612516 ], [ 78.9028795, 32.3848875 ], [ 78.8599444, 32.4102297 ], [ 78.8394037, 32.4336198 ], [ 78.8224472, 32.4338849 ], [ 78.8067018, 32.4442481 ], [ 78.804552, 32.4558389 ], [ 78.7748322, 32.505368 ], [ 78.7701141, 32.5290334 ], [ 78.7591578, 32.5677893 ], [ 78.7823634, 32.5958105 ], [ 78.7754552, 32.621014 ], [ 78.7621959, 32.6287538 ], [ 78.7433398, 32.6549777 ], [ 78.7497482, 32.6670343 ], [ 78.7532143, 32.6841444 ], [ 78.7506966, 32.692763 ], [ 78.7405755, 32.6912275 ], [ 78.7219981, 32.6664045 ], [ 78.7087114, 32.6561337 ], [ 78.6802625, 32.6555546 ], [ 78.6567993, 32.6491446 ], [ 78.6483696, 32.6438577 ], [ 78.6293358, 32.620863 ], [ 78.6145938, 32.5981034 ], [ 78.6052592, 32.5910902 ], [ 78.5877051, 32.6045749 ], [ 78.5655138, 32.614846 ], [ 78.5428411, 32.6089499 ], [ 78.5243076, 32.6081041 ], [ 78.5153263, 32.6040557 ], [ 78.5034152, 32.5870496 ], [ 78.4755632, 32.5791752 ], [ 78.4512828, 32.5775986 ], [ 78.4276629, 32.5633611 ], [ 78.4072679, 32.5261003 ], [ 78.4098745, 32.5240071 ], [ 78.3995194, 32.5246048 ], [ 78.3989402, 32.5209007 ], [ 78.3941919, 32.5147967 ], [ 78.3860127, 32.5130123 ], [ 78.3785573, 32.506448 ], [ 78.3651389, 32.4993992 ], [ 78.3676133, 32.4937273 ], [ 78.3665394, 32.4854356 ], [ 78.3637789, 32.4822703 ], [ 78.3497103, 32.477462 ], [ 78.3499773, 32.4733365 ], [ 78.3531429, 32.4699374 ], [ 78.3489745, 32.4643279 ], [ 78.3405455, 32.4627296 ], [ 78.32844, 32.4650117 ], [ 78.3257517, 32.4596363 ], [ 78.3284402, 32.4540329 ], [ 78.3344614, 32.4506624 ], [ 78.3336596, 32.4481101 ], [ 78.3298227, 32.4435144 ], [ 78.3208257, 32.4440294 ], [ 78.3114394, 32.446329 ], [ 78.3074098, 32.4520892 ], [ 78.3001911, 32.4554758 ], [ 78.2982851, 32.4580086 ], [ 78.2978454, 32.4623368 ], [ 78.2894731, 32.4637426 ], [ 78.2873731, 32.4629883 ], [ 78.2876588, 32.4646071 ], [ 78.2846922, 32.4688658 ], [ 78.2856576, 32.4715536 ], [ 78.2912707, 32.4753178 ], [ 78.289533, 32.479343 ], [ 78.2857533, 32.4823883 ], [ 78.2899478, 32.485137 ], [ 78.2926405, 32.489837 ], [ 78.2925153, 32.4989671 ], [ 78.295402, 32.501572 ], [ 78.3011251, 32.5038659 ], [ 78.3066955, 32.5115023 ], [ 78.3045464, 32.5174257 ], [ 78.3086593, 32.5255481 ], [ 78.306974, 32.5375449 ], [ 78.3090405, 32.5431007 ], [ 78.3129675, 32.5451136 ], [ 78.3154983, 32.5496687 ], [ 78.3124468, 32.5514706 ], [ 78.3144746, 32.5602005 ], [ 78.313094, 32.5626029 ], [ 78.3133582, 32.5655563 ], [ 78.3208355, 32.5713534 ], [ 78.3314931, 32.5766191 ], [ 78.3389046, 32.5785196 ], [ 78.3432768, 32.5780789 ], [ 78.3440638, 32.5809601 ], [ 78.3483392, 32.5841848 ], [ 78.3505639, 32.5889599 ], [ 78.3588132, 32.5902552 ], [ 78.3628982, 32.5896561 ], [ 78.3661679, 32.5936645 ], [ 78.3743326, 32.5973438 ], [ 78.3785883, 32.5979434 ], [ 78.3796059, 32.6045486 ], [ 78.3841395, 32.6089353 ], [ 78.3895997, 32.6099897 ], [ 78.3907939, 32.6148815 ], [ 78.3975282, 32.6176082 ], [ 78.4023067, 32.6170707 ], [ 78.4036287, 32.6196674 ], [ 78.4096609, 32.623133 ], [ 78.4083783, 32.627101 ], [ 78.4013458, 32.628311 ], [ 78.3916125, 32.63343 ], [ 78.387857, 32.6407796 ], [ 78.3877458, 32.645135 ], [ 78.3814156, 32.6541303 ], [ 78.3865069, 32.6646802 ], [ 78.3871375, 32.6772546 ], [ 78.3916758, 32.6853741 ], [ 78.3977015, 32.6900125 ], [ 78.4007365, 32.6942004 ], [ 78.3972078, 32.6985023 ], [ 78.3969861, 32.7075736 ], [ 78.3888651, 32.71184 ], [ 78.3876979, 32.7167184 ], [ 78.3853729, 32.7195636 ], [ 78.3846596, 32.7317007 ], [ 78.3894352, 32.7406904 ], [ 78.3865605, 32.7452308 ], [ 78.3859635, 32.7496494 ], [ 78.3880027, 32.7566913 ], [ 78.3767818, 32.7541132 ], [ 78.3726467, 32.7554161 ], [ 78.3649049, 32.7533418 ], [ 78.3618529, 32.7541125 ], [ 78.3570503, 32.7576963 ], [ 78.3332618, 32.7497061 ], [ 78.3128505, 32.739779 ], [ 78.3098824, 32.7351021 ], [ 78.3058517, 32.732476 ], [ 78.3116341, 32.7245845 ], [ 78.3116141, 32.7226953 ], [ 78.3139036, 32.7208119 ], [ 78.3147272, 32.7173903 ], [ 78.3068498, 32.7104295 ], [ 78.306015, 32.7071197 ], [ 78.3017939, 32.7041101 ], [ 78.2946007, 32.7036279 ], [ 78.29318, 32.7003356 ], [ 78.2739118, 32.7025309 ], [ 78.2684903, 32.7011018 ], [ 78.2605375, 32.7028984 ], [ 78.2556899, 32.6968187 ], [ 78.2537959, 32.6920172 ], [ 78.2544074, 32.6891773 ], [ 78.2506886, 32.6833982 ], [ 78.2459009, 32.6716029 ], [ 78.2322279, 32.6717056 ], [ 78.2189526, 32.6646287 ], [ 78.2039395, 32.6670557 ], [ 78.2012932, 32.6704344 ], [ 78.1969169, 32.6705182 ], [ 78.1941415, 32.6728777 ], [ 78.1868772, 32.6749871 ], [ 78.1757606, 32.6810111 ], [ 78.1711542, 32.6804674 ], [ 78.1654831, 32.6831114 ], [ 78.160157, 32.6828291 ], [ 78.1583608, 32.6839883 ], [ 78.1497287, 32.6817495 ], [ 78.1423823, 32.6818274 ], [ 78.1478762, 32.6718715 ], [ 78.1485457, 32.6641121 ], [ 78.1471946, 32.6539633 ], [ 78.1366421, 32.6544743 ], [ 78.1270968, 32.6522295 ], [ 78.1206211, 32.6607283 ], [ 78.1167569, 32.6602683 ], [ 78.1104885, 32.66277 ], [ 78.0926006, 32.6478432 ], [ 78.0959218, 32.6443993 ], [ 78.0992013, 32.6364423 ], [ 78.0988567, 32.6303645 ], [ 78.091707, 32.6285144 ], [ 78.087526, 32.6246537 ], [ 78.081345, 32.6262208 ], [ 78.0747092, 32.6309435 ], [ 78.0678758, 32.6266258 ], [ 78.0608803, 32.626424 ], [ 78.0563932, 32.6346815 ], [ 78.0493169, 32.6411971 ], [ 78.0470167, 32.6453075 ], [ 78.043124, 32.6421897 ], [ 78.0427634, 32.6403228 ], [ 78.0340169, 32.6369308 ], [ 78.0334499, 32.6338149 ], [ 78.0251609, 32.6272305 ], [ 78.0290329, 32.6235049 ], [ 78.0158887, 32.6196077 ], [ 78.0128227, 32.6218098 ], [ 78.0118597, 32.6249875 ], [ 78.0032931, 32.6245693 ], [ 77.9962272, 32.6268321 ], [ 77.9915064, 32.6306375 ], [ 77.9917006, 32.6325354 ], [ 77.987565, 32.6361371 ], [ 77.984657, 32.641496 ], [ 77.979665, 32.6424516 ], [ 77.9738712, 32.6461309 ], [ 77.9705567, 32.6463589 ], [ 77.9722692, 32.6529221 ], [ 77.9709071, 32.6549656 ], [ 77.9658518, 32.6575663 ], [ 77.9551182, 32.6581869 ], [ 77.9474402, 32.6608787 ], [ 77.942796, 32.6655929 ], [ 77.9409628, 32.6734028 ], [ 77.9345712, 32.6811384 ], [ 77.9310585, 32.6820102 ], [ 77.9266467, 32.6862817 ], [ 77.9186196, 32.6905409 ], [ 77.9192348, 32.6946481 ], [ 77.9182918, 32.696267 ], [ 77.9224577, 32.6990518 ], [ 77.921548, 32.703164 ], [ 77.9228243, 32.7064323 ], [ 77.9216254, 32.7084391 ], [ 77.9245548, 32.7112738 ], [ 77.9248514, 32.7172295 ], [ 77.9280277, 32.7219983 ], [ 77.9343879, 32.7258593 ], [ 77.9316127, 32.7317128 ], [ 77.9262963, 32.7348215 ], [ 77.9270281, 32.7364759 ], [ 77.9306559, 32.7369612 ], [ 77.9292563, 32.7425254 ], [ 77.932908, 32.7465499 ], [ 77.9314327, 32.7504821 ], [ 77.9330846, 32.7517281 ], [ 77.934132, 32.7564999 ], [ 77.932929, 32.761293 ], [ 77.9272267, 32.7657224 ], [ 77.9257195, 32.7719966 ], [ 77.9207142, 32.7719918 ], [ 77.9162445, 32.7738406 ], [ 77.9036841, 32.7718831 ], [ 77.8945636, 32.7782612 ], [ 77.8918311, 32.7828684 ], [ 77.884191, 32.787548 ], [ 77.8879455, 32.7986863 ], [ 77.8811024, 32.8041319 ], [ 77.8820882, 32.8103572 ], [ 77.8785079, 32.8191761 ], [ 77.8712735, 32.8224799 ], [ 77.8691933, 32.8270266 ], [ 77.8553962, 32.8323418 ], [ 77.8468673, 32.8389826 ], [ 77.8390127, 32.8420147 ], [ 77.8353226, 32.8406738 ], [ 77.8324433, 32.8362672 ], [ 77.8261238, 32.8361938 ], [ 77.815928, 32.8483025 ], [ 77.8132483, 32.8496926 ], [ 77.8054942, 32.8498849 ], [ 77.7976577, 32.8562906 ], [ 77.791862, 32.8559288 ], [ 77.780964, 32.8657875 ], [ 77.7839816, 32.8828509 ], [ 77.7867758, 32.8852366 ], [ 77.7894661, 32.8906088 ], [ 77.7932686, 32.8930979 ], [ 77.802461, 32.8933294 ], [ 77.8066725, 32.8955565 ], [ 77.810692, 32.9001636 ], [ 77.8117548, 32.9045393 ], [ 77.810631, 32.9070261 ], [ 77.7997339, 32.9124415 ], [ 77.7945572, 32.9199912 ], [ 77.7875952, 32.9234736 ], [ 77.7856878, 32.926397 ], [ 77.777453, 32.9317736 ], [ 77.7718263, 32.938016 ], [ 77.7657988, 32.9415397 ], [ 77.764745, 32.9435827 ], [ 77.7665135, 32.9462889 ], [ 77.7635359, 32.9490507 ], [ 77.7509119, 32.9545634 ], [ 77.7497693, 32.9577315 ], [ 77.744495, 32.9619959 ], [ 77.741012, 32.9690323 ], [ 77.7328162, 32.9717808 ], [ 77.7309528, 32.9745505 ], [ 77.724935, 32.9693168 ], [ 77.7195697, 32.9686627 ], [ 77.7141008, 32.9763266 ], [ 77.7131495, 32.9824632 ], [ 77.6975004, 32.9793761 ], [ 77.6977813, 32.9827122 ], [ 77.6949254, 32.9833991 ], [ 77.6895207, 32.9880231 ], [ 77.6824919, 32.988802 ], [ 77.6807233, 32.9837941 ], [ 77.6820174, 32.9747676 ], [ 77.67873, 32.9695844 ], [ 77.6740703, 32.9673547 ], [ 77.674131, 32.9611872 ], [ 77.6641344, 32.9583053 ], [ 77.6560113, 32.9588758 ], [ 77.6526891, 32.954882 ], [ 77.6435809, 32.9492212 ], [ 77.6431579, 32.9465117 ], [ 77.6404739, 32.9471658 ], [ 77.6199197, 32.9437088 ], [ 77.6031094, 32.9429316 ], [ 77.5943623, 32.9259375 ], [ 77.5772457, 32.9144537 ], [ 77.563724, 32.9123019 ], [ 77.5587467, 32.9064879 ], [ 77.5503875, 32.9003113 ], [ 77.5453877, 32.8916023 ], [ 77.5384728, 32.8860839 ], [ 77.5296214, 32.8835167 ], [ 77.5224926, 32.8796654 ], [ 77.5125788, 32.8773621 ], [ 77.509473, 32.8786397 ], [ 77.5052665, 32.8837033 ], [ 77.5014863, 32.8855797 ], [ 77.4971944, 32.8803659 ], [ 77.4910329, 32.8796054 ], [ 77.48619, 32.8736856 ], [ 77.4808222, 32.8705434 ], [ 77.4749353, 32.8616125 ], [ 77.4692003, 32.8586774 ], [ 77.4611942, 32.8599772 ], [ 77.4520739, 32.8640949 ], [ 77.4478214, 32.8702606 ], [ 77.447959, 32.87531 ], [ 77.4448105, 32.879897 ], [ 77.4395578, 32.8792415 ], [ 77.433315, 32.8759309 ], [ 77.4279826, 32.8756132 ], [ 77.4134432, 32.8841171 ], [ 77.4073465, 32.8840107 ], [ 77.4045035, 32.8827445 ], [ 77.3958888, 32.8771738 ], [ 77.3942205, 32.8713176 ], [ 77.3921046, 32.870299 ], [ 77.3877923, 32.8635548 ], [ 77.3814564, 32.8619233 ], [ 77.3745866, 32.8549398 ], [ 77.3758739, 32.8491824 ], [ 77.3798688, 32.84581 ], [ 77.3798848, 32.8445386 ], [ 77.3792383, 32.838921 ], [ 77.3765999, 32.8370816 ], [ 77.3765838, 32.8332629 ], [ 77.3728672, 32.8232044 ], [ 77.3609285, 32.8178251 ], [ 77.3531548, 32.8159935 ], [ 77.3385678, 32.8169099 ], [ 77.3367888, 32.8190419 ], [ 77.3360228, 32.824984 ], [ 77.3320281, 32.8260962 ], [ 77.3296817, 32.8304732 ], [ 77.3269952, 32.8314912 ], [ 77.3253428, 32.835512 ], [ 77.3265099, 32.840012 ], [ 77.3287355, 32.8429704 ], [ 77.3252837, 32.8460078 ], [ 77.3218995, 32.8515429 ], [ 77.3200242, 32.8523401 ], [ 77.3137866, 32.850606 ], [ 77.3094915, 32.8515957 ], [ 77.3044775, 32.8496228 ], [ 77.3008613, 32.8498597 ], [ 77.2992409, 32.8521716 ], [ 77.290439, 32.8570758 ], [ 77.286073, 32.8644937 ], [ 77.2739892, 32.8738533 ], [ 77.2662856, 32.868829 ], [ 77.262691, 32.8640873 ], [ 77.2542719, 32.8639397 ], [ 77.2552415, 32.8660237 ], [ 77.2533083, 32.8693355 ], [ 77.2499999, 32.8723624 ], [ 77.2442648, 32.8726717 ], [ 77.2375908, 32.8801756 ], [ 77.2372581, 32.8833499 ], [ 77.2399685, 32.8843933 ], [ 77.2429925, 32.892163 ], [ 77.2336703, 32.8944393 ], [ 77.2191291, 32.9040678 ], [ 77.2029161, 32.9065452 ], [ 77.1934102, 32.9164017 ], [ 77.1928652, 32.9234397 ], [ 77.1879724, 32.9287444 ], [ 77.1784958, 32.9231268 ], [ 77.1739305, 32.9133317 ], [ 77.1704441, 32.9106686 ], [ 77.1557353, 32.9115838 ], [ 77.1598781, 32.913039 ], [ 77.1638947, 32.9182314 ], [ 77.1617087, 32.9317124 ], [ 77.164539, 32.9364815 ], [ 77.1594714, 32.9382503 ], [ 77.1619412, 32.9506432 ], [ 77.1611293, 32.9526633 ], [ 77.1487296, 32.9561603 ], [ 77.1492228, 32.9605831 ], [ 77.147363, 32.965696 ], [ 77.1491181, 32.9684819 ], [ 77.1505168, 32.9781746 ], [ 77.1467833, 32.9785089 ], [ 77.1421678, 32.9814897 ], [ 77.1337212, 32.980075 ], [ 77.1160209, 32.9846691 ], [ 77.1116137, 32.9791415 ], [ 77.1107638, 32.9751424 ], [ 77.0968367, 32.9715018 ], [ 77.0865243, 32.9724099 ], [ 77.0818484, 32.9752802 ], [ 77.0826598, 32.9784363 ], [ 77.0801649, 32.983007 ], [ 77.0711877, 32.9844102 ], [ 77.0691539, 32.9865192 ], [ 77.0570441, 32.9916033 ], [ 77.0540083, 32.9948656 ], [ 77.0473871, 32.9986218 ], [ 77.0389401, 32.997647 ], [ 77.0316348, 32.9897071 ], [ 77.0238651, 32.991324 ], [ 77.0094885, 32.9886561 ], [ 76.9958964, 32.9975688 ], [ 76.9923077, 33.0017881 ], [ 76.989013, 33.0026207 ], [ 76.9808201, 33.0 ], [ 76.9713488, 33.0002823 ], [ 76.9681211, 33.0041846 ], [ 76.9637293, 33.0051706 ], [ 76.9605979, 33.0091402 ], [ 76.9614507, 33.0112946 ], [ 76.959662, 33.0153399 ], [ 76.9509317, 33.0181974 ], [ 76.9409747, 33.0283173 ], [ 76.9329895, 33.028168 ], [ 76.9286886, 33.031655 ], [ 76.9257702, 33.03827 ], [ 76.9264897, 33.0423498 ], [ 76.9254648, 33.0474176 ], [ 76.914209, 33.0633768 ], [ 76.9138527, 33.0684443 ], [ 76.9112516, 33.0712808 ], [ 76.9108948, 33.0760056 ], [ 76.9051985, 33.0795192 ], [ 76.9056929, 33.0850418 ], [ 76.9099578, 33.0896166 ], [ 76.9087065, 33.0945671 ], [ 76.8977117, 33.0986902 ], [ 76.8974874, 33.1008452 ], [ 76.8925497, 33.1059134 ], [ 76.8932685, 33.1099167 ], [ 76.8915229, 33.1141188 ], [ 76.8851006, 33.1213778 ], [ 76.8772408, 33.1188446 ], [ 76.8705068, 33.1133624 ], [ 76.8624282, 33.1127218 ], [ 76.8550672, 33.1143843 ], [ 76.8492315, 33.120429 ], [ 76.8529109, 33.1256863 ], [ 76.8489129, 33.1287062 ], [ 76.8429864, 33.1303323 ], [ 76.842894, 33.1338848 ], [ 76.8446884, 33.1362295 ], [ 76.8439696, 33.1377802 ], [ 76.838808, 33.1412234 ], [ 76.8348052, 33.1406541 ], [ 76.8300456, 33.1428434 ], [ 76.8296363, 33.1465851 ], [ 76.8231228, 33.1503651 ], [ 76.8166957, 33.1603391 ], [ 76.817367, 33.1667276 ], [ 76.8131882, 33.171004 ], [ 76.8135431, 33.1772391 ], [ 76.8188381, 33.1798879 ], [ 76.8223421, 33.1835547 ], [ 76.8223842, 33.1850694 ], [ 76.817392, 33.1941379 ], [ 76.8236369, 33.197621 ], [ 76.8292966, 33.2032539 ], [ 76.8344599, 33.2048471 ], [ 76.8340561, 33.2085888 ], [ 76.8313149, 33.2099494 ], [ 76.8317643, 33.2123299 ], [ 76.8262338, 33.2143702 ], [ 76.8256055, 33.2156908 ], [ 76.8283876, 33.2185635 ], [ 76.8277097, 33.2225711 ], [ 76.8300955, 33.2247675 ], [ 76.8318474, 33.2291142 ], [ 76.837687, 33.2340299 ], [ 76.8405173, 33.2395894 ], [ 76.8446096, 33.2422728 ], [ 76.8431703, 33.2467355 ], [ 76.8307109, 33.2491888 ], [ 76.8235193, 33.2433253 ], [ 76.8224019, 33.2367835 ], [ 76.8200635, 33.2358403 ], [ 76.8068379, 33.2449809 ], [ 76.803441, 33.2529496 ], [ 76.799151, 33.2562425 ], [ 76.7930015, 33.2563649 ], [ 76.7848377, 33.253465 ], [ 76.7774273, 33.2537705 ], [ 76.7676684, 33.2483121 ], [ 76.7564761, 33.2484553 ], [ 76.7523811, 33.2495866 ], [ 76.7404515, 33.259767 ], [ 76.7370509, 33.2610956 ], [ 76.738483, 33.2686816 ], [ 76.7354086, 33.2734812 ], [ 76.7325023, 33.2755394 ], [ 76.7327083, 33.2815126 ], [ 76.7277297, 33.2834823 ], [ 76.7298614, 33.2887102 ], [ 76.7284739, 33.2910375 ], [ 76.729823, 33.2967617 ], [ 76.7321076, 33.2993294 ], [ 76.728645, 33.3039397 ], [ 76.7285479, 33.3082181 ], [ 76.725239, 33.3113404 ], [ 76.725877, 33.3151628 ], [ 76.719599, 33.3240444 ], [ 76.7177463, 33.3289732 ], [ 76.7120826, 33.3310827 ], [ 76.7053722, 33.3280667 ], [ 76.6964734, 33.3278063 ], [ 76.6871061, 33.3327389 ], [ 76.6823827, 33.3367667 ], [ 76.6738821, 33.339268 ], [ 76.6710208, 33.3418477 ], [ 76.6724159, 33.3491594 ], [ 76.6586411, 33.3575672 ], [ 76.6583915, 33.3646856 ], [ 76.6519785, 33.370444 ], [ 76.6514829, 33.3834231 ], [ 76.6410005, 33.3909805 ], [ 76.6393731, 33.3974183 ], [ 76.6364716, 33.4018411 ], [ 76.6384068, 33.4034322 ], [ 76.6321186, 33.4091941 ], [ 76.6361181, 33.4114433 ], [ 76.6369788, 33.4155322 ], [ 76.6324259, 33.4194454 ], [ 76.6295502, 33.4238952 ], [ 76.6294647, 33.4309865 ], [ 76.6281958, 33.4329204 ], [ 76.6289648, 33.434895 ], [ 76.6205122, 33.4395607 ], [ 76.6164471, 33.4399167 ], [ 76.6132693, 33.4389292 ], [ 76.6108772, 33.4349032 ], [ 76.6057645, 33.4316703 ], [ 76.6002052, 33.4314349 ], [ 76.5934059, 33.4257622 ], [ 76.5818468, 33.4257859 ], [ 76.577947, 33.4295623 ], [ 76.579991, 33.4383132 ], [ 76.5770631, 33.4433477 ], [ 76.5765364, 33.4529766 ], [ 76.5694895, 33.4641853 ], [ 76.5694883, 33.4661734 ], [ 76.5634183, 33.4625235 ], [ 76.5576366, 33.4620292 ], [ 76.5540906, 33.4641054 ], [ 76.5496372, 33.4640532 ], [ 76.5454752, 33.4687346 ], [ 76.5409066, 33.470679 ], [ 76.5357832, 33.4785015 ], [ 76.5347681, 33.4821927 ], [ 76.5278377, 33.483495 ], [ 76.5229142, 33.4933816 ], [ 76.5144163, 33.4951371 ], [ 76.507802, 33.4995692 ], [ 76.5066967, 33.5099842 ], [ 76.5020548, 33.5159754 ], [ 76.4992688, 33.5174222 ], [ 76.4918845, 33.516908 ], [ 76.4790822, 33.5268326 ], [ 76.4699545, 33.527683 ], [ 76.4591631, 33.5338938 ], [ 76.4579865, 33.5362434 ], [ 76.4584893, 33.5385196 ], [ 76.4646709, 33.5452321 ], [ 76.4624001, 33.5516171 ], [ 76.4578262, 33.5542755 ], [ 76.4507155, 33.5624981 ], [ 76.4473516, 33.5642943 ], [ 76.4439454, 33.5605547 ], [ 76.4399617, 33.547425 ], [ 76.4350799, 33.5416663 ], [ 76.4264046, 33.5372839 ], [ 76.4152031, 33.5390823 ], [ 76.4102361, 33.5431276 ], [ 76.4006596, 33.545605 ], [ 76.3875512, 33.5513907 ], [ 76.3799221, 33.552924 ], [ 76.3792763, 33.5582119 ], [ 76.3747535, 33.5658846 ], [ 76.3807263, 33.5769515 ], [ 76.3765577, 33.5789127 ], [ 76.3710426, 33.5840878 ], [ 76.3664643, 33.585751 ], [ 76.3600426, 33.594541 ], [ 76.3586511, 33.6036874 ], [ 76.3553861, 33.6048635 ], [ 76.3469226, 33.6049432 ], [ 76.3435545, 33.6077148 ], [ 76.3362371, 33.6105076 ], [ 76.3295004, 33.6042709 ], [ 76.3221802, 33.6022665 ], [ 76.3174416, 33.6071826 ], [ 76.3076776, 33.6096345 ], [ 76.3065086, 33.6095528 ], [ 76.3009818, 33.602125 ], [ 76.2996006, 33.5982383 ], [ 76.3018217, 33.5897601 ], [ 76.3101358, 33.5786075 ], [ 76.3097803, 33.5714622 ], [ 76.306119, 33.5705136 ], [ 76.3023413, 33.5673648 ], [ 76.2778716, 33.5675195 ], [ 76.2596466, 33.5650201 ], [ 76.2581975, 33.5613718 ], [ 76.2457437, 33.5455384 ], [ 76.2412252, 33.5483106 ], [ 76.2319234, 33.545186 ], [ 76.2250298, 33.5475945 ], [ 76.2197729, 33.5553209 ], [ 76.2091445, 33.5664633 ], [ 76.2054947, 33.5677146 ], [ 76.2054422, 33.5692022 ], [ 76.20648, 33.5732768 ], [ 76.2178706, 33.5736563 ], [ 76.2252204, 33.5772795 ], [ 76.2314043, 33.5869483 ], [ 76.2279172, 33.594101 ], [ 76.2241228, 33.5968404 ], [ 76.2242183, 33.600307 ], [ 76.2307077, 33.6030378 ], [ 76.2386476, 33.6024447 ], [ 76.2403372, 33.6048459 ], [ 76.2409631, 33.6095876 ], [ 76.237229, 33.6175883 ], [ 76.2328124, 33.623164 ], [ 76.2277825, 33.6256342 ], [ 76.2293718, 33.6298252 ], [ 76.233627, 33.6324406 ], [ 76.246173, 33.6364905 ], [ 76.2489141, 33.6386423 ], [ 76.2530448, 33.6380832 ], [ 76.2645717, 33.6432149 ], [ 76.2704787, 33.6433102 ], [ 76.2720236, 33.6449569 ], [ 76.2741171, 33.6523245 ], [ 76.2800492, 33.6546869 ], [ 76.2846506, 33.6618443 ], [ 76.2787498, 33.6647611 ], [ 76.2735151, 33.6693505 ], [ 76.2705046, 33.6755914 ], [ 76.2662132, 33.6795321 ], [ 76.2696035, 33.6850978 ], [ 76.2647179, 33.6894166 ], [ 76.2658049, 33.6912433 ], [ 76.264944, 33.6939247 ], [ 76.2656946, 33.697428 ], [ 76.2631149, 33.7030471 ], [ 76.2661789, 33.7069401 ], [ 76.2632382, 33.7120854 ], [ 76.2671263, 33.7170926 ], [ 76.2674136, 33.7246841 ], [ 76.2711667, 33.7307459 ], [ 76.2657838, 33.733775 ], [ 76.2653821, 33.7357491 ], [ 76.2672593, 33.7403758 ], [ 76.2652385, 33.7468789 ], [ 76.2602051, 33.7499999 ], [ 76.2509746, 33.7518257 ], [ 76.2478563, 33.7545608 ], [ 76.2470849, 33.758533 ], [ 76.2422271, 33.75815 ], [ 76.2361092, 33.7598731 ], [ 76.2188537, 33.7587291 ], [ 76.2125796, 33.761177 ], [ 76.2107977, 33.7711947 ], [ 76.2053258, 33.7725868 ], [ 76.2003624, 33.7756418 ], [ 76.1986667, 33.7872324 ], [ 76.1847362, 33.8001549 ], [ 76.1807408, 33.8004903 ], [ 76.167246, 33.7978182 ], [ 76.1613786, 33.8018501 ], [ 76.1597506, 33.808468 ], [ 76.1632431, 33.8174104 ], [ 76.1659767, 33.8193478 ], [ 76.1626399, 33.8212017 ], [ 76.1568697, 33.829989 ], [ 76.1599784, 33.8369211 ], [ 76.1542537, 33.840601 ], [ 76.1554014, 33.8472452 ], [ 76.1490813, 33.8501542 ], [ 76.1495091, 33.8536206 ], [ 76.1471919, 33.8558658 ], [ 76.1425529, 33.8664644 ], [ 76.1375443, 33.8700758 ], [ 76.1384741, 33.8724151 ], [ 76.1366754, 33.8786 ], [ 76.1250126, 33.8852766 ], [ 76.1229641, 33.8890496 ], [ 76.1178995, 33.8887204 ], [ 76.1072508, 33.8918477 ], [ 76.1002388, 33.8962596 ], [ 76.0968969, 33.9004105 ], [ 76.0919065, 33.9024288 ], [ 76.0825752, 33.9034763 ], [ 76.0700839, 33.9088717 ], [ 76.0619683, 33.9097199 ], [ 76.0544513, 33.912177 ], [ 76.0477631, 33.9124165 ], [ 76.0380356, 33.9188696 ], [ 76.033217, 33.9196279 ], [ 76.0338936, 33.9241677 ], [ 76.0413708, 33.9252909 ], [ 76.0489844, 33.9314939 ], [ 76.0494745, 33.9338562 ], [ 76.0482628, 33.9403601 ], [ 76.0451591, 33.9453978 ], [ 76.0429239, 33.9525456 ], [ 76.0265394, 33.9716327 ], [ 76.026431, 33.9764828 ], [ 76.0243576, 33.9821248 ], [ 76.0179543, 33.975074 ], [ 76.0121875, 33.9743881 ], [ 76.0054211, 33.9767394 ], [ 75.9905344, 33.9723868 ], [ 75.9781985, 33.9721904 ], [ 75.972712, 33.9625214 ], [ 75.9688306, 33.960158 ], [ 75.9665416, 33.954516 ], [ 75.9587005, 33.9568476 ], [ 75.952911, 33.9554316 ], [ 75.949601, 33.9558888 ], [ 75.9428646, 33.9604636 ], [ 75.9174513, 33.9629454 ], [ 75.9141905, 33.9659532 ], [ 75.9083867, 33.9686369 ], [ 75.8985561, 33.9674447 ], [ 75.8931951, 33.9690909 ], [ 75.8867244, 33.9682669 ], [ 75.8813626, 33.9647648 ], [ 75.8739997, 33.9625022 ], [ 75.852485, 33.9622524 ], [ 75.8452494, 33.954466 ], [ 75.8382388, 33.9549555 ], [ 75.8340613, 33.9581277 ], [ 75.830653, 33.9587441 ], [ 75.8221234, 33.9655789 ], [ 75.8196252, 33.9722087 ], [ 75.8256005, 33.9778142 ], [ 75.8302354, 33.9924027 ], [ 75.841608, 33.999569 ], [ 75.8437115, 34.0032398 ], [ 75.8430615, 34.0047768 ], [ 75.8415887, 34.0061243 ], [ 75.8358023, 34.0071367 ], [ 75.82783, 34.0062641 ], [ 75.8182652, 34.0075087 ], [ 75.8142928, 34.0145117 ], [ 75.7998379, 34.0229827 ], [ 75.7975398, 34.0259789 ], [ 75.7969402, 34.0304456 ], [ 75.7867123, 34.0312005 ], [ 75.78221, 34.0340505 ], [ 75.7797046, 34.0376232 ], [ 75.7691905, 34.0412793 ], [ 75.7676874, 34.0438113 ], [ 75.7685238, 34.0549188 ], [ 75.7551663, 34.0567368 ], [ 75.7499999, 34.0548476 ], [ 75.7445412, 34.0565386 ], [ 75.7414808, 34.0561584 ], [ 75.7370327, 34.0589077 ], [ 75.736514, 34.0598232 ], [ 75.7415514, 34.068108 ], [ 75.7425444, 34.0732593 ], [ 75.7347461, 34.0789507 ], [ 75.7333659, 34.0841131 ], [ 75.7251, 34.0896555 ], [ 75.7214754, 34.0943959 ], [ 75.7188032, 34.1032508 ], [ 75.7077449, 34.1072421 ], [ 75.696839, 34.1134349 ], [ 75.6924497, 34.113771 ], [ 75.6873625, 34.11605 ], [ 75.6856318, 34.1209101 ], [ 75.6912466, 34.1276099 ], [ 75.6831575, 34.1324326 ], [ 75.6822923, 34.1355613 ], [ 75.6857067, 34.1421632 ], [ 75.6823523, 34.1440445 ], [ 75.6736137, 34.1451572 ], [ 75.667948, 34.1442894 ], [ 75.6685843, 34.1481431 ], [ 75.6701575, 34.1499816 ], [ 75.6781407, 34.1537827 ], [ 75.680055, 34.162459 ], [ 75.6844773, 34.1667841 ], [ 75.6827773, 34.1705938 ], [ 75.6842271, 34.1733382 ], [ 75.6841111, 34.178017 ], [ 75.6880537, 34.184862 ], [ 75.6873013, 34.1869358 ], [ 75.6907196, 34.195273 ], [ 75.6852873, 34.199558 ], [ 75.6805414, 34.2009575 ], [ 75.6707531, 34.1980272 ], [ 75.6624212, 34.1991344 ], [ 75.6573884, 34.2029402 ], [ 75.6549002, 34.2079577 ], [ 75.6481195, 34.2120025 ], [ 75.643958, 34.2116201 ], [ 75.6411796, 34.2096958 ], [ 75.6370128, 34.209791 ], [ 75.6260748, 34.2013085 ], [ 75.6217944, 34.2017908 ], [ 75.6153008, 34.1998612 ], [ 75.6126431, 34.1973594 ], [ 75.6045987, 34.1951902 ], [ 75.5980504, 34.197596 ], [ 75.5933634, 34.1976941 ], [ 75.5874587, 34.2035658 ], [ 75.5847979, 34.2090145 ], [ 75.579934, 34.2139711 ], [ 75.5702615, 34.2113709 ], [ 75.5553301, 34.2114085 ], [ 75.5486644, 34.2148709 ], [ 75.5456498, 34.2182766 ], [ 75.5382383, 34.2230811 ], [ 75.534271, 34.2236552 ], [ 75.529731, 34.2268341 ], [ 75.5270884, 34.2266878 ], [ 75.5231296, 34.2289969 ], [ 75.5145909, 34.2267133 ], [ 75.5098832, 34.228778 ], [ 75.5028964, 34.234347 ], [ 75.4953585, 34.2323996 ], [ 75.4969562, 34.2376402 ], [ 75.4958973, 34.2409723 ], [ 75.4885832, 34.2466227 ], [ 75.4823845, 34.2550566 ], [ 75.4837897, 34.2587019 ], [ 75.4810474, 34.2623959 ], [ 75.4829507, 34.2690383 ], [ 75.4821668, 34.2716488 ], [ 75.4748548, 34.2775913 ], [ 75.4701112, 34.2793891 ], [ 75.4591752, 34.2794152 ], [ 75.4536155, 34.2859187 ], [ 75.4488894, 34.2840736 ], [ 75.4442381, 34.2803262 ], [ 75.4394915, 34.2794904 ], [ 75.4373651, 34.2824799 ], [ 75.4308714, 34.2835694 ], [ 75.4261244, 34.2821877 ], [ 75.4226284, 34.283902 ], [ 75.4192225, 34.2818884 ], [ 75.4108885, 34.2846904 ], [ 75.4045782, 34.2838717 ], [ 75.4034978, 34.2846878 ], [ 75.3928408, 34.2970764 ], [ 75.3919563, 34.3012143 ], [ 75.3889155, 34.3054832 ], [ 75.3902744, 34.3110318 ], [ 75.3953924, 34.3147586 ], [ 75.3960502, 34.3167193 ], [ 75.3897006, 34.3219037 ], [ 75.3846708, 34.3282372 ], [ 75.3839763, 34.3367202 ], [ 75.376016, 34.3419538 ], [ 75.3783582, 34.3445139 ], [ 75.3819938, 34.3457487 ], [ 75.3857712, 34.3498862 ], [ 75.3847554, 34.3540151 ], [ 75.3805057, 34.3582974 ], [ 75.3857082, 34.36614 ], [ 75.3784519, 34.3702737 ], [ 75.3733802, 34.3714997 ], [ 75.3750708, 34.3748758 ], [ 75.376756, 34.3756736 ], [ 75.3787841, 34.382056 ], [ 75.3779524, 34.3851121 ], [ 75.377137, 34.3871403 ], [ 75.3669749, 34.3910301 ], [ 75.3666046, 34.397737 ], [ 75.3696332, 34.4017577 ], [ 75.3727652, 34.4108582 ], [ 75.3723355, 34.412598 ], [ 75.3651179, 34.4184753 ], [ 75.3573783, 34.4179967 ], [ 75.3538034, 34.4245633 ], [ 75.3478138, 34.4269376 ], [ 75.3431522, 34.4268102 ], [ 75.3351005, 34.4292689 ], [ 75.3341957, 34.4332396 ], [ 75.3297008, 34.436231 ], [ 75.3275391, 34.4397684 ], [ 75.3331683, 34.4429526 ], [ 75.3329051, 34.4470857 ], [ 75.3304932, 34.4502986 ], [ 75.3326034, 34.4519311 ], [ 75.3372285, 34.4516711 ], [ 75.3401631, 34.4605559 ], [ 75.349054, 34.4634562 ], [ 75.3532375, 34.4687937 ], [ 75.3496491, 34.4752971 ], [ 75.3502409, 34.4801381 ], [ 75.3445894, 34.4850498 ], [ 75.3429166, 34.489435 ], [ 75.3473294, 34.4955615 ], [ 75.3473816, 34.5026967 ], [ 75.3501949, 34.5076643 ], [ 75.3529311, 34.5175899 ], [ 75.3572049, 34.521291 ], [ 75.3661195, 34.5214453 ], [ 75.3663751, 34.5244561 ], [ 75.3641799, 34.5289858 ], [ 75.3655677, 34.5380996 ], [ 75.361112, 34.540168 ], [ 75.3617599, 34.5420882 ], [ 75.35562, 34.5468742 ], [ 75.3526659, 34.5531523 ], [ 75.344164, 34.5630304 ], [ 75.337903, 34.5647414 ], [ 75.3336571, 34.5680078 ], [ 75.3285349, 34.5687903 ], [ 75.3198958, 34.5648429 ], [ 75.3150378, 34.5696453 ], [ 75.3118067, 34.5768554 ], [ 75.3063613, 34.5787499 ], [ 75.2995585, 34.5869401 ], [ 75.2897083, 34.5891738 ], [ 75.2863717, 34.595432 ], [ 75.2779901, 34.594389 ], [ 75.2691177, 34.5979244 ], [ 75.265531, 34.6022572 ], [ 75.2594561, 34.6041582 ], [ 75.2533673, 34.6041252 ], [ 75.2532589, 34.607501 ], [ 75.2565691, 34.6104565 ], [ 75.2583351, 34.6145868 ], [ 75.2566407, 34.6215127 ], [ 75.2540685, 34.6282801 ], [ 75.2415036, 34.6377791 ], [ 75.23288, 34.6361555 ], [ 75.2299313, 34.6330301 ], [ 75.225331, 34.634634 ], [ 75.2206186, 34.6338311 ], [ 75.2127218, 34.638119 ], [ 75.2080652, 34.6386811 ], [ 75.2060253, 34.6437846 ], [ 75.2094813, 34.6476674 ], [ 75.2181793, 34.6516048 ], [ 75.2103982, 34.6535532 ], [ 75.2044585, 34.6535016 ], [ 75.2079087, 34.6654182 ], [ 75.2161935, 34.6728957 ], [ 75.2320678, 34.6908158 ], [ 75.2582664, 34.6975742 ], [ 75.2543036, 34.7216864 ], [ 75.2625605, 34.731684 ], [ 75.2635695, 34.7445815 ], [ 75.2509324, 34.74986 ], [ 75.2540564, 34.7599855 ], [ 75.2562509, 34.7738866 ], [ 75.239659, 34.8018336 ], [ 75.2232446, 34.8175237 ], [ 75.1906181, 34.8349308 ], [ 75.172566, 34.8426657 ], [ 75.158089, 34.8454809 ], [ 75.1442343, 34.8502838 ], [ 75.1419703, 34.874951 ], [ 75.1013018, 34.9190982 ], [ 75.0716443, 34.9192041 ], [ 75.0641178, 34.9052374 ], [ 75.0636228, 34.870807 ], [ 75.0652759, 34.8574891 ], [ 75.0640347, 34.847111 ], [ 75.0571204, 34.8423431 ], [ 75.0437644, 34.8433556 ], [ 75.0311012, 34.8484302 ], [ 75.0163438, 34.8482512 ], [ 74.9664744, 34.8134788 ], [ 74.9567378, 34.808129 ], [ 74.9506279, 34.8017433 ], [ 74.9298175, 34.7869681 ], [ 74.9185994, 34.7851106 ], [ 74.9073126, 34.7925333 ], [ 74.9014549, 34.8016484 ], [ 74.8985668, 34.8097208 ], [ 74.8870654, 34.8222753 ], [ 74.8721534, 34.8301871 ], [ 74.8610401, 34.8283259 ], [ 74.8532235, 34.831104 ], [ 74.8396932, 34.8407427 ], [ 74.8309655, 34.8398122 ], [ 74.8232528, 34.8373632 ], [ 74.8132857, 34.8436236 ], [ 74.8075692, 34.850483 ], [ 74.798461, 34.8520681 ], [ 74.7878462, 34.8524599 ], [ 74.7803853, 34.8431631 ], [ 74.7769364, 34.8407714 ], [ 74.762763, 34.8440843 ], [ 74.7501702, 34.8449854 ], [ 74.740258, 34.8483567 ], [ 74.7394793, 34.8541127 ], [ 74.7294422, 34.8632486 ], [ 74.7166861, 34.8664865 ], [ 74.7114521, 34.8809177 ], [ 74.7016707, 34.8830262 ], [ 74.6982206, 34.8807224 ], [ 74.684152, 34.8788011 ], [ 74.6640918, 34.9003969 ], [ 74.6625275, 34.9067711 ], [ 74.6464033, 34.9036429 ], [ 74.6343362, 34.9098561 ], [ 74.6200841, 34.92063 ], [ 74.6042287, 34.9247992 ], [ 74.5965272, 34.9217953 ], [ 74.5903174, 34.9158409 ], [ 74.5770112, 34.9139191 ], [ 74.56975, 34.9622823 ], [ 74.5705321, 34.9756307 ], [ 74.5763004, 34.986535 ], [ 74.5850163, 34.9979363 ], [ 74.587778, 35.0063599 ], [ 74.5850935, 35.0181216 ], [ 74.5783742, 35.024323 ], [ 74.5604725, 35.0260207 ], [ 74.5555247, 35.031348 ], [ 74.5307303, 35.0461762 ], [ 74.529073, 35.0512855 ], [ 74.5300664, 35.060132 ], [ 74.5388542, 35.0685641 ], [ 74.5397973, 35.0749767 ], [ 74.5197382, 35.0928524 ], [ 74.5122403, 35.1035425 ], [ 74.4994415, 35.1155863 ], [ 74.4584998, 35.1252659 ], [ 74.4399404, 35.1259433 ], [ 74.4387392, 35.1300675 ], [ 74.4270469, 35.1195064 ], [ 74.4152864, 35.1117362 ], [ 74.4106164, 35.101294 ], [ 74.3995617, 35.0918224 ], [ 74.3819763, 35.0678197 ], [ 74.3756643, 35.0659974 ], [ 74.3475162, 35.0648707 ], [ 74.3312354, 35.0669235 ], [ 74.3052312, 35.0676274 ], [ 74.2927058, 35.064517 ], [ 74.2915456, 35.0546748 ], [ 74.2882263, 35.0476766 ], [ 74.2651731, 35.0408572 ], [ 74.2558745, 35.0441996 ], [ 74.2451341, 35.0521096 ], [ 74.2414071, 35.0600592 ], [ 74.2424968, 35.072243 ], [ 74.2402233, 35.0791385 ], [ 74.2352263, 35.0813879 ], [ 74.226979, 35.0742959 ], [ 74.2234893, 35.0735998 ], [ 74.2199321, 35.0753351 ], [ 74.2175471, 35.0822279 ], [ 74.2202214, 35.0885851 ], [ 74.2151429, 35.0937154 ], [ 74.1913112, 35.0909216 ], [ 74.1561056, 35.0908773 ], [ 74.1446673, 35.0957914 ], [ 74.1337449, 35.1046468 ], [ 74.1336719, 35.110048 ], [ 74.1279351, 35.1161193 ], [ 74.119018, 35.1183817 ], [ 74.1109856, 35.1252969 ], [ 74.105861, 35.1257225 ], [ 74.1070746, 35.1302683 ], [ 74.1136444, 35.1376916 ], [ 74.113988, 35.1442116 ], [ 74.1122721, 35.1485271 ], [ 74.1066288, 35.1479645 ], [ 74.095814, 35.1407405 ], [ 74.0910554, 35.1416085 ], [ 74.0851732, 35.148881 ], [ 74.0800598, 35.1494891 ], [ 74.0721337, 35.1531745 ], [ 74.0634147, 35.1470465 ], [ 74.0511616, 35.1465142 ], [ 74.0441029, 35.1497891 ], [ 74.033814, 35.1468623 ], [ 74.0253612, 35.1526864 ], [ 74.0165589, 35.1632209 ], [ 74.004762, 35.1677257 ], [ 74.0049828, 35.1774728 ], [ 74.0028281, 35.1836478 ], [ 73.9996294, 35.1827832 ], [ 74.0002995, 35.1799863 ], [ 73.9830998, 35.1813478 ], [ 73.9777027, 35.1806419 ], [ 73.9568447, 35.168045 ], [ 73.9542964, 35.1715988 ], [ 73.9517414, 35.172797 ], [ 73.941701, 35.186458 ], [ 73.9245491, 35.203897 ], [ 73.9152089, 35.2080241 ], [ 73.8969681, 35.2116916 ], [ 73.8662346, 35.206176 ], [ 73.8611892, 35.2071441 ], [ 73.8527843, 35.2140616 ], [ 73.8453743, 35.2246344 ], [ 73.8348065, 35.2262201 ], [ 73.8083279, 35.2394964 ], [ 73.7705084, 35.2360019 ], [ 73.7664242, 35.2333463 ], [ 73.7565671, 35.2229286 ], [ 73.7411547, 35.2148531 ], [ 73.7335252, 35.2085292 ], [ 73.7293935, 35.2096985 ], [ 73.7079841, 35.2224836 ], [ 73.7190627, 35.2424722 ], [ 73.724975, 35.2730485 ], [ 73.6985143, 35.3101045 ], [ 73.6948426, 35.3184058 ], [ 73.6951409, 35.3322065 ], [ 73.6928921, 35.3508052 ], [ 73.6939041, 35.3593942 ], [ 73.695439, 35.3690703 ], [ 73.698283, 35.3757289 ], [ 73.7105397, 35.3881411 ], [ 73.7148631, 35.3943644 ], [ 73.7270231, 35.4189887 ], [ 73.7395869, 35.4290413 ], [ 73.7524015, 35.4359984 ], [ 73.7920386, 35.4542197 ], [ 73.7885527, 35.4630075 ], [ 73.7854171, 35.4770825 ], [ 73.7812785, 35.5124126 ], [ 73.7785049, 35.5228943 ], [ 73.736436, 35.5277126 ], [ 73.7296142, 35.5294925 ], [ 73.7252908, 35.5348616 ], [ 73.7243605, 35.5436576 ], [ 73.7212559, 35.5492195 ], [ 73.6909864, 35.545489 ], [ 73.6734304, 35.5446514 ], [ 73.6588385, 35.5476286 ], [ 73.6518163, 35.5510159 ], [ 73.6379544, 35.56296 ], [ 73.6283884, 35.5690452 ], [ 73.6221229, 35.567836 ], [ 73.6092755, 35.5581554 ], [ 73.6017203, 35.5556443 ], [ 73.5866737, 35.5539473 ], [ 73.5615972, 35.5463887 ], [ 73.5567983, 35.5468399 ], [ 73.5502472, 35.5505714 ], [ 73.5367349, 35.5634757 ], [ 73.5279243, 35.5673019 ], [ 73.5221196, 35.5661916 ], [ 73.5072624, 35.5579428 ], [ 73.5015053, 35.5575694 ], [ 73.495919, 35.5599011 ], [ 73.4810925, 35.5712517 ], [ 73.4773608, 35.5719017 ], [ 73.3981236, 35.5570828 ], [ 73.3939289, 35.5624345 ], [ 73.3918409, 35.5676989 ], [ 73.3732341, 35.5889322 ], [ 73.3634821, 35.5972237 ], [ 73.3415762, 35.601821 ], [ 73.3273549, 35.6062242 ], [ 73.29973, 35.6111709 ], [ 73.2686779, 35.6243861 ], [ 73.259894, 35.6289317 ], [ 73.2495984, 35.6384682 ], [ 73.2311846, 35.6511645 ], [ 73.2126157, 35.6689177 ], [ 73.1943227, 35.6737144 ], [ 73.162399, 35.6932226 ], [ 73.1585626, 35.6973183 ], [ 73.1576679, 35.7000653 ], [ 73.1536049, 35.7003489 ], [ 73.1379595, 35.7066349 ], [ 73.1329152, 35.7107773 ], [ 73.1281082, 35.7163892 ], [ 73.1264165, 35.7210158 ], [ 73.1273042, 35.7514233 ], [ 73.1256626, 35.7569104 ], [ 73.1265005, 35.7762268 ], [ 73.1372092, 35.8191869 ], [ 73.1411892, 35.8250691 ], [ 73.1479142, 35.8287482 ], [ 73.1486641, 35.8311834 ], [ 73.1473002, 35.8337017 ], [ 73.1407608, 35.838272 ], [ 73.1202879, 35.8478243 ], [ 73.1058733, 35.8575065 ], [ 73.0838828, 35.8774626 ], [ 73.0742578, 35.8785754 ], [ 73.0681504, 35.877703 ], [ 73.0580389, 35.862691 ], [ 73.0288244, 35.8470581 ], [ 73.0242654, 35.8467403 ], [ 73.0123049, 35.8492938 ], [ 73.0002309, 35.8577652 ], [ 72.9943814, 35.8595321 ], [ 72.9870778, 35.8598106 ], [ 72.9776433, 35.8574321 ], [ 72.9733046, 35.8542152 ], [ 72.9582663, 35.8472169 ], [ 72.9295854, 35.8402484 ], [ 72.9184423, 35.8390573 ], [ 72.8983663, 35.8407766 ], [ 72.8924475, 35.8445409 ], [ 72.8893277, 35.8488444 ], [ 72.8890435, 35.8543302 ], [ 72.8935666, 35.8713918 ], [ 72.8911269, 35.8737374 ], [ 72.8827185, 35.8755006 ], [ 72.8727832, 35.8747435 ], [ 72.839317, 35.8671284 ], [ 72.8326041, 35.870919 ], [ 72.8191577, 35.8817203 ], [ 72.8157027, 35.8800762 ], [ 72.8125394, 35.8658612 ], [ 72.8082078, 35.8590962 ], [ 72.8034344, 35.8586273 ], [ 72.7965961, 35.8601663 ], [ 72.789141, 35.8577018 ], [ 72.7874287, 35.8553491 ], [ 72.7865218, 35.8424999 ], [ 72.7842887, 35.8414544 ], [ 72.7794075, 35.8425989 ], [ 72.7751918, 35.8414646 ], [ 72.7648465, 35.8331461 ], [ 72.7614386, 35.8323039 ], [ 72.7429365, 35.844731 ], [ 72.7361509, 35.8472311 ], [ 72.7265791, 35.853052 ], [ 72.7233682, 35.8522017 ], [ 72.6998687, 35.8309873 ], [ 72.6843838, 35.8225252 ], [ 72.6779236, 35.8237225 ], [ 72.6496721, 35.8388996 ], [ 72.6357531, 35.8522749 ], [ 72.6281396, 35.8578579 ], [ 72.6251697, 35.8578019 ], [ 72.6188015, 35.8533573 ], [ 72.6099416, 35.8615594 ], [ 72.5851009, 35.8593726 ], [ 72.5800249, 35.8643807 ], [ 72.5704746, 35.8821042 ], [ 72.5654224, 35.887593 ], [ 72.5605695, 35.8893722 ], [ 72.5582354, 35.8976647 ], [ 72.5430302, 35.89449 ], [ 72.5395339, 35.8957383 ], [ 72.5316079, 35.9030969 ], [ 72.5237233, 35.9036915 ], [ 72.5184736, 35.9054827 ], [ 72.5150267, 35.9266923 ], [ 72.5168922, 35.9321018 ], [ 72.5136501, 35.9344674 ], [ 72.5130773, 35.938673 ], [ 72.5263542, 35.9502895 ], [ 72.5348863, 35.9506385 ], [ 72.534449, 35.9574153 ], [ 72.5358285, 35.9610704 ], [ 72.5424111, 35.9695358 ], [ 72.5424578, 35.9742029 ], [ 72.5386727, 35.9851201 ], [ 72.5393248, 35.9862244 ], [ 72.5488274, 35.9823534 ], [ 72.5599638, 35.9869571 ], [ 72.5622573, 35.9891311 ], [ 72.5593221, 35.9935799 ], [ 72.567288, 35.9981322 ], [ 72.5679794, 36.0014392 ], [ 72.5687819, 35.9994459 ], [ 72.5677667, 36.0028447 ], [ 72.571115, 36.008367 ], [ 72.580857, 36.0133024 ], [ 72.5835253, 36.017074 ], [ 72.5816347, 36.021726 ], [ 72.5845951, 36.0250796 ], [ 72.5793955, 36.0358284 ], [ 72.5738762, 36.0392491 ], [ 72.5687593, 36.0446228 ], [ 72.5643517, 36.0472302 ], [ 72.5583322, 36.0461115 ], [ 72.53574, 36.0472913 ], [ 72.5259177, 36.0597746 ], [ 72.5166805, 36.0673349 ], [ 72.5201227, 36.0863103 ], [ 72.5208118, 36.0983063 ], [ 72.5276151, 36.1102232 ], [ 72.5341462, 36.1166579 ], [ 72.5403774, 36.1276941 ], [ 72.5478074, 36.1300644 ], [ 72.5617049, 36.13989 ], [ 72.5612284, 36.1439714 ], [ 72.5534637, 36.1467148 ], [ 72.5507198, 36.1500151 ], [ 72.5512467, 36.1613171 ], [ 72.5491329, 36.1646443 ], [ 72.5359213, 36.173305 ], [ 72.5357764, 36.1755203 ], [ 72.5401777, 36.1791271 ], [ 72.5445223, 36.1868325 ], [ 72.5456474, 36.1954246 ], [ 72.5505036, 36.1985377 ], [ 72.5473144, 36.2054065 ], [ 72.5575031, 36.2140447 ], [ 72.5648621, 36.2143598 ], [ 72.5739461, 36.2238036 ], [ 72.5723738, 36.2285202 ], [ 72.5727374, 36.239128 ], [ 72.5769431, 36.2425536 ], [ 72.5807168, 36.2526231 ], [ 72.5846575, 36.2568911 ], [ 72.5876907, 36.2588996 ], [ 72.5942113, 36.2591775 ], [ 72.598673, 36.2619299 ], [ 72.6051164, 36.2633999 ], [ 72.6116827, 36.2694869 ], [ 72.6239609, 36.2688125 ], [ 72.6444605, 36.2584071 ], [ 72.6545352, 36.2591748 ], [ 72.6621954, 36.2581317 ], [ 72.6650943, 36.2556918 ], [ 72.6702301, 36.2545418 ], [ 72.6800184, 36.2433382 ], [ 72.6848339, 36.2438826 ], [ 72.6834326, 36.2492901 ], [ 72.6741656, 36.2622238 ], [ 72.6805605, 36.2710339 ], [ 72.6854318, 36.2707265 ], [ 72.692642, 36.273421 ], [ 72.707557, 36.2743888 ], [ 72.7112349, 36.2762511 ], [ 72.7134075, 36.2785626 ], [ 72.7140675, 36.2847391 ], [ 72.7197483, 36.284977 ], [ 72.7211269, 36.289817 ], [ 72.726554, 36.2907273 ], [ 72.7311367, 36.2982629 ], [ 72.7482508, 36.3011975 ], [ 72.7565179, 36.2972724 ], [ 72.7591777, 36.2985786 ], [ 72.7609417, 36.3007015 ], [ 72.7609032, 36.3046279 ], [ 72.7659371, 36.3084237 ], [ 72.7703241, 36.3091184 ], [ 72.7739014, 36.3159273 ], [ 72.7782455, 36.3173031 ], [ 72.7888719, 36.3261115 ], [ 72.7999413, 36.327936 ], [ 72.8033474, 36.3308091 ], [ 72.806033, 36.3450928 ], [ 72.8086146, 36.3510049 ], [ 72.8160819, 36.3564356 ], [ 72.8400941, 36.3673277 ], [ 72.8482131, 36.3657834 ], [ 72.8536663, 36.3663488 ], [ 72.8509652, 36.3723842 ], [ 72.8586068, 36.375088 ], [ 72.8640683, 36.3788971 ], [ 72.8741153, 36.3904052 ], [ 72.8755444, 36.3945607 ], [ 72.8718013, 36.4003824 ], [ 72.8700896, 36.4074818 ], [ 72.8706655, 36.4117729 ], [ 72.8758331, 36.4169345 ], [ 72.8746093, 36.4196155 ], [ 72.8591549, 36.4336619 ], [ 72.8596694, 36.4355605 ], [ 72.8865802, 36.4443417 ], [ 72.9046094, 36.4600954 ], [ 72.9081495, 36.4609221 ], [ 72.9236099, 36.4535294 ], [ 72.9285933, 36.4549263 ], [ 72.9460615, 36.466215 ], [ 72.9497079, 36.4619255 ], [ 72.9555773, 36.4592616 ], [ 72.9634484, 36.458385 ], [ 72.9734474, 36.4538392 ], [ 72.979359, 36.45732 ], [ 72.9824682, 36.4617116 ], [ 72.9826481, 36.4656439 ], [ 72.9879178, 36.469269 ], [ 72.9874865, 36.4728353 ], [ 72.9823021, 36.4746744 ], [ 72.974767, 36.4735177 ], [ 72.9742297, 36.4753731 ], [ 72.9747485, 36.494335 ], [ 72.9788916, 36.4991088 ], [ 72.9827571, 36.5014878 ], [ 72.9787981, 36.5074657 ], [ 72.9779132, 36.511525 ], [ 72.9902897, 36.5130466 ], [ 72.9949922, 36.5156241 ], [ 72.9991579, 36.5200567 ], [ 73.0001672, 36.518094 ], [ 73.0176714, 36.5250299 ], [ 73.0519453, 36.5329664 ], [ 73.053665, 36.5409385 ], [ 73.0525016, 36.5486842 ], [ 73.0585445, 36.5581635 ], [ 73.0619467, 36.5611928 ], [ 73.0747249, 36.5665977 ], [ 73.0780172, 36.569177 ], [ 73.0795003, 36.5855967 ], [ 73.0939514, 36.5998577 ], [ 73.0971668, 36.6059943 ], [ 73.0978945, 36.609918 ], [ 73.0962946, 36.613527 ], [ 73.0741057, 36.6287839 ], [ 73.0798453, 36.6388033 ], [ 73.0780212, 36.6528618 ], [ 73.0804292, 36.6699797 ], [ 73.0716746, 36.6776432 ], [ 73.0707123, 36.67983 ], [ 73.0703076, 36.6887138 ], [ 73.0676457, 36.7006226 ], [ 73.0952208, 36.6833586 ], [ 73.1058404, 36.6858914 ], [ 73.1164408, 36.6841954 ], [ 73.1285933, 36.6933505 ], [ 73.1380887, 36.6985068 ], [ 73.1625443, 36.707585 ], [ 73.1678808, 36.7130215 ], [ 73.1705521, 36.7191322 ], [ 73.1706714, 36.7240308 ], [ 73.1750431, 36.7179728 ], [ 73.186557, 36.710302 ], [ 73.185499, 36.7049216 ], [ 73.1866905, 36.701186 ], [ 73.1922852, 36.6977332 ], [ 73.2013962, 36.6955292 ], [ 73.209547, 36.6955123 ], [ 73.2197701, 36.6978 ], [ 73.2288049, 36.7014872 ], [ 73.2380143, 36.7115207 ], [ 73.2461164, 36.7053824 ], [ 73.2555612, 36.7045234 ], [ 73.2667904, 36.7061797 ], [ 73.285719, 36.7037931 ], [ 73.2941198, 36.7042267 ], [ 73.303945, 36.7062716 ], [ 73.3107916, 36.7143195 ], [ 73.3446147, 36.7147201 ], [ 73.3478318, 36.7163996 ], [ 73.3483332, 36.7219797 ], [ 73.3521108, 36.7282403 ], [ 73.3515758, 36.7350041 ], [ 73.3737757, 36.7310642 ], [ 73.3841691, 36.7329034 ], [ 73.3898779, 36.7297828 ], [ 73.3944209, 36.7300656 ], [ 73.3989466, 36.7330168 ], [ 73.4101742, 36.7347746 ], [ 73.4164438, 36.741016 ], [ 73.4214422, 36.7429833 ], [ 73.4253157, 36.7429065 ], [ 73.4259777, 36.7362589 ], [ 73.4279567, 36.7331081 ], [ 73.4338821, 36.7309952 ], [ 73.4467133, 36.7289185 ], [ 73.4586596, 36.7325907 ], [ 73.4619719, 36.7350499 ], [ 73.4664058, 36.7324354 ], [ 73.4685662, 36.7285124 ], [ 73.4791002, 36.7231224 ], [ 73.4793108, 36.7194601 ], [ 73.4976329, 36.7131356 ], [ 73.4999381, 36.7138886 ], [ 73.5042073, 36.7189407 ], [ 73.5098383, 36.7219301 ], [ 73.5124767, 36.7216944 ], [ 73.5198978, 36.7102918 ], [ 73.5248983, 36.7098097 ], [ 73.534202, 36.7113773 ], [ 73.5498207, 36.716069 ], [ 73.5543349, 36.7095625 ], [ 73.5793017, 36.7223807 ], [ 73.5855572, 36.709487 ], [ 73.5865421, 36.6994022 ], [ 73.5899946, 36.6945238 ], [ 73.5927137, 36.6928438 ], [ 73.6068222, 36.6949174 ], [ 73.6125732, 36.693348 ], [ 73.6155988, 36.6911228 ], [ 73.6215815, 36.6903401 ], [ 73.6252528, 36.6913638 ], [ 73.634815, 36.698163 ], [ 73.6380038, 36.6979454 ], [ 73.648358, 36.6930944 ], [ 73.6831105, 36.6865678 ], [ 73.6922212, 36.6891212 ], [ 73.6949798, 36.6991193 ], [ 73.7036188, 36.7052138 ], [ 73.7098536, 36.7123333 ], [ 73.7172091, 36.711708 ], [ 73.7270671, 36.7132852 ], [ 73.7367051, 36.7088485 ], [ 73.7567331, 36.7063395 ], [ 73.7747839, 36.7020896 ], [ 73.7798533, 36.7103884 ], [ 73.7844591, 36.7145557 ], [ 73.7955512, 36.7188417 ], [ 73.8124875, 36.714771 ], [ 73.8486592, 36.7023683 ], [ 73.8669754, 36.7007874 ], [ 73.8717761, 36.7014005 ], [ 73.8786506, 36.7070905 ], [ 73.8786387, 36.7098703 ], [ 73.8736394, 36.7205932 ], [ 73.8754377, 36.7231026 ], [ 73.8852933, 36.7298969 ], [ 73.8830513, 36.7330432 ], [ 73.8841008, 36.7391955 ], [ 73.8822187, 36.7484697 ], [ 73.875617, 36.7581343 ], [ 73.8679889, 36.7663169 ], [ 73.8532286, 36.7760276 ], [ 73.8401065, 36.7936873 ], [ 73.8369869, 36.7951338 ], [ 73.8315883, 36.7952772 ], [ 73.8147903, 36.789015 ], [ 73.8063978, 36.7908306 ], [ 73.8015131, 36.7942151 ], [ 73.8004059, 36.7992896 ], [ 73.7963606, 36.8024813 ], [ 73.7975733, 36.8181979 ], [ 73.7881293, 36.8189748 ], [ 73.7739677, 36.8150261 ], [ 73.758836, 36.8161549 ], [ 73.7543994, 36.8188868 ], [ 73.7490921, 36.8273677 ], [ 73.7386596, 36.8259947 ], [ 73.7366325, 36.8301461 ], [ 73.7320232, 36.8309816 ], [ 73.7252974, 36.8350757 ], [ 73.7198352, 36.836325 ], [ 73.7117853, 36.8343689 ], [ 73.7055096, 36.8378116 ], [ 73.7069668, 36.8464223 ], [ 73.7061872, 36.8579533 ], [ 73.6894232, 36.8659081 ], [ 73.6872617, 36.8699423 ], [ 73.6825018, 36.8734383 ], [ 73.6670075, 36.8808807 ], [ 73.6652881, 36.8918203 ], [ 73.6677157, 36.9003534 ], [ 73.6713586, 36.9044853 ], [ 73.6710933, 36.9116983 ], [ 73.697239, 36.9143067 ], [ 73.7034513, 36.9120854 ], [ 73.7205501, 36.9006979 ], [ 73.7287251, 36.8979903 ], [ 73.7335149, 36.8989394 ], [ 73.7448626, 36.9089006 ], [ 73.7513225, 36.9096865 ], [ 73.7587606, 36.9052846 ], [ 73.7655455, 36.9051926 ], [ 73.7735813, 36.8963 ], [ 73.7869314, 36.900154 ], [ 73.7941021, 36.9001576 ], [ 73.7968499, 36.8983768 ], [ 73.7996064, 36.8935915 ], [ 73.8007199, 36.8874959 ], [ 73.8101686, 36.888581 ], [ 73.8204428, 36.903091 ], [ 73.8384118, 36.8994667 ], [ 73.8592612, 36.8973186 ], [ 73.8704974, 36.8942062 ], [ 73.8825916, 36.8809816 ], [ 73.8930204, 36.8754605 ], [ 73.9067521, 36.8838264 ], [ 73.9149023, 36.8829826 ], [ 73.9210288, 36.8791886 ], [ 73.9412692, 36.8621097 ], [ 73.9505571, 36.8457766 ], [ 73.9572291, 36.8433771 ], [ 73.9614993, 36.8392667 ], [ 73.9684816, 36.8368775 ], [ 73.9819564, 36.8295767 ], [ 73.9954215, 36.8341713 ], [ 74.0083768, 36.8337739 ], [ 74.0277799, 36.8261121 ], [ 74.0396922, 36.8151125 ], [ 74.0465214, 36.8108218 ], [ 74.0686825, 36.8313034 ], [ 74.0855168, 36.8415073 ], [ 74.0888269, 36.8421434 ], [ 74.1163146, 36.8357279 ], [ 74.133459, 36.8479035 ], [ 74.1353009, 36.8501279 ], [ 74.1369975, 36.8630297 ], [ 74.1441991, 36.8909241 ], [ 74.1557503, 36.9105077 ], [ 74.2210952, 36.9027141 ], [ 74.2489708, 36.8936057 ], [ 74.2826089, 36.9091857 ], [ 74.3148213, 36.9273322 ], [ 74.3291302, 36.938146 ], [ 74.3364379, 36.9470291 ], [ 74.3508032, 36.9600689 ], [ 74.3756889, 36.9733786 ], [ 74.388664, 36.9734664 ], [ 74.4081819, 36.9815558 ], [ 74.4126888, 36.9845156 ], [ 74.4171465, 36.9934334 ], [ 74.4264243, 36.9956929 ], [ 74.4568327, 36.9982928 ], [ 74.495797, 36.9962441 ], [ 74.5138292, 36.996481 ], [ 74.5229575, 36.9951287 ], [ 74.5343099, 36.9832358 ], [ 74.5372876, 36.9773686 ], [ 74.5403338, 36.9633163 ], [ 74.5425507, 36.9613548 ], [ 74.5510679, 36.959065 ], [ 74.5605439, 36.9571975 ], [ 74.5641013, 36.9578973 ], [ 74.5657499, 36.9592583 ], [ 74.5691369, 36.9703011 ], [ 74.5804183, 37.0210119 ], [ 74.5779061, 37.0457984 ], [ 74.5749601, 37.0495621 ], [ 74.5681217, 37.05176 ], [ 74.5816688, 37.0575746 ], [ 74.5894079, 37.0591621 ], [ 74.6047938, 37.0592497 ], [ 74.6337991, 37.0637031 ], [ 74.652374, 37.0700867 ], [ 74.6670769, 37.0795665 ], [ 74.6811705, 37.0867138 ], [ 74.690123, 37.0881406 ], [ 74.7073905, 37.0872884 ], [ 74.7088576, 37.0733137 ] ] ] } }
]
}
